{
"type": "FeatureCollection",
"crs": { "type": "name", "properties": { "name": "urn:ogc:def:crs:OGC:1.3:CRS84" } },
"features": [
{ "type": "Feature", "properties": { "value": 255.0 }, "geometry": { "type": "Polygon", "coordinates": [ [ [ -115.1901162, 36.2388627 ], [ -115.1899542, 36.2388627 ], [ -115.1899542, 36.238857299999694 ], [ -115.1899515, 36.238857299999694 ], [ -115.1899515, 36.23881949999754 ], [ -115.1899542, 36.23881949999754 ], [ -115.1899542, 36.238781699995386 ], [ -115.189956900000013, 36.238781699995386 ], [ -115.189956900000013, 36.238778999995226 ], [ -115.1899542, 36.238778999995226 ], [ -115.1899542, 36.238770899994769 ], [ -115.189956900000013, 36.238770899994769 ], [ -115.189956900000013, 36.238760099994153 ], [ -115.1899542, 36.238760099994153 ], [ -115.1899542, 36.238743899993231 ], [ -115.189956900000013, 36.238743899993231 ], [ -115.189956900000013, 36.238733099992615 ], [ -115.1899596, 36.238733099992615 ], [ -115.1899596, 36.238730399992463 ], [ -115.1899623, 36.238730399992463 ], [ -115.1899623, 36.238727699992303 ], [ -115.1899704, 36.238727699992303 ], [ -115.1899704, 36.238724999992151 ], [ -115.1899812, 36.238724999992151 ], [ -115.1899812, 36.238727699992303 ], [ -115.1899839, 36.238727699992303 ], [ -115.1899839, 36.238724999992151 ], [ -115.1899947, 36.238724999992151 ], [ -115.1899947, 36.238722299991998 ], [ -115.1900001, 36.238722299991998 ], [ -115.1900001, 36.238716899991694 ], [ -115.1900028, 36.238716899991694 ], [ -115.1900028, 36.238714199991534 ], [ -115.190005500000012, 36.238714199991534 ], [ -115.190005500000012, 36.23870879999123 ], [ -115.1900082, 36.23870879999123 ], [ -115.1900082, 36.238706099991077 ], [ -115.1900217, 36.238706099991077 ], [ -115.1900217, 36.238703399990925 ], [ -115.1900325, 36.238703399990925 ], [ -115.1900325, 36.238700699990765 ], [ -115.190035200000011, 36.238700699990765 ], [ -115.190035200000011, 36.238703399990925 ], [ -115.1900379, 36.238703399990925 ], [ -115.1900379, 36.238706099991077 ], [ -115.1900406, 36.238706099991077 ], [ -115.1900406, 36.23870879999123 ], [ -115.1900433, 36.23870879999123 ], [ -115.1900433, 36.238711499991382 ], [ -115.190046, 36.238711499991382 ], [ -115.190046, 36.238714199991534 ], [ -115.1900514, 36.238714199991534 ], [ -115.1900514, 36.238711499991382 ], [ -115.1900568, 36.238711499991382 ], [ -115.1900568, 36.238714199991534 ], [ -115.1900703, 36.238714199991534 ], [ -115.1900703, 36.238711499991382 ], [ -115.190073, 36.238711499991382 ], [ -115.190073, 36.238714199991534 ], [ -115.1900757, 36.238714199991534 ], [ -115.1900757, 36.238711499991382 ], [ -115.1900784, 36.238711499991382 ], [ -115.1900784, 36.238714199991534 ], [ -115.1900811, 36.238714199991534 ], [ -115.1900811, 36.238716899991694 ], [ -115.190083800000011, 36.238716899991694 ], [ -115.190083800000011, 36.238719599991846 ], [ -115.1900892, 36.238719599991846 ], [ -115.1900892, 36.238722299991998 ], [ -115.1900973, 36.238722299991998 ], [ -115.1900973, 36.238724999992151 ], [ -115.190102700000011, 36.238724999992151 ], [ -115.190102700000011, 36.238727699992303 ], [ -115.1901054, 36.238727699992303 ], [ -115.1901054, 36.238733099992615 ], [ -115.1901081, 36.238733099992615 ], [ -115.1901081, 36.238741199993079 ], [ -115.1901108, 36.238741199993079 ], [ -115.1901108, 36.238751999993688 ], [ -115.19011350000001, 36.238751999993688 ], [ -115.19011350000001, 36.238757399994 ], [ -115.1901162, 36.238757399994 ], [ -115.1901162, 36.238827599997997 ], [ -115.19011350000001, 36.238827599997997 ], [ -115.19011350000001, 36.238832999998309 ], [ -115.1901108, 36.238832999998309 ], [ -115.1901108, 36.238841099998766 ], [ -115.19011350000001, 36.238841099998766 ], [ -115.19011350000001, 36.23884919999923 ], [ -115.1901162, 36.23884919999923 ], [ -115.1901162, 36.2388627 ] ] ] } },
{ "type": "Feature", "properties": { "value": 255.0 }, "geometry": { "type": "Polygon", "coordinates": [ [ [ -115.1899785, 36.238657499988307 ], [ -115.189967700000011, 36.238657499988307 ], [ -115.189967700000011, 36.238654799988154 ], [ -115.1899623, 36.238654799988154 ], [ -115.1899623, 36.238652099988002 ], [ -115.189956900000013, 36.238652099988002 ], [ -115.189956900000013, 36.238649399987843 ], [ -115.18994880000001, 36.238649399987843 ], [ -115.18994880000001, 36.23864669998769 ], [ -115.1899407, 36.23864669998769 ], [ -115.1899407, 36.238643999987538 ], [ -115.1899326, 36.238643999987538 ], [ -115.1899326, 36.238592699984615 ], [ -115.1899461, 36.238592699984615 ], [ -115.1899461, 36.238595399984767 ], [ -115.1899596, 36.238595399984767 ], [ -115.1899596, 36.23859809998492 ], [ -115.189967700000011, 36.23859809998492 ], [ -115.189967700000011, 36.238600799985079 ], [ -115.1899758, 36.238600799985079 ], [ -115.1899758, 36.238603499985231 ], [ -115.1899812, 36.238603499985231 ], [ -115.1899812, 36.238606199985384 ], [ -115.189986600000012, 36.238606199985384 ], [ -115.189986600000012, 36.238608899985536 ], [ -115.1899893, 36.238608899985536 ], [ -115.1899893, 36.238611599985688 ], [ -115.1899947, 36.238611599985688 ], [ -115.1899947, 36.238614299985848 ], [ -115.18999740000001, 36.238614299985848 ], [ -115.18999740000001, 36.238619699986153 ], [ -115.1900001, 36.238619699986153 ], [ -115.1900001, 36.238625099986457 ], [ -115.18999740000001, 36.238625099986457 ], [ -115.18999740000001, 36.238627799986617 ], [ -115.1899947, 36.238627799986617 ], [ -115.1899947, 36.238633199986921 ], [ -115.189992, 36.238633199986921 ], [ -115.189992, 36.238635899987074 ], [ -115.1899893, 36.238635899987074 ], [ -115.1899893, 36.238638599987233 ], [ -115.189986600000012, 36.238638599987233 ], [ -115.189986600000012, 36.238643999987538 ], [ -115.1899839, 36.238643999987538 ], [ -115.1899839, 36.238649399987843 ], [ -115.1899812, 36.238649399987843 ], [ -115.1899812, 36.238654799988154 ], [ -115.1899785, 36.238654799988154 ], [ -115.1899785, 36.238657499988307 ] ] ] } },
{ "type": "Feature", "properties": { "value": 255.0 }, "geometry": { "type": "Polygon", "coordinates": [ [ [ -115.1903052, 36.238144499959077 ], [ -115.1902782, 36.238144499959077 ], [ -115.1902782, 36.238139099958772 ], [ -115.1902755, 36.238139099958772 ], [ -115.1902755, 36.23813369995846 ], [ -115.1902782, 36.23813369995846 ], [ -115.1902782, 36.238120199957692 ], [ -115.1902755, 36.238120199957692 ], [ -115.1902755, 36.238079699955385 ], [ -115.1902728, 36.238079699955385 ], [ -115.1902728, 36.238068899954769 ], [ -115.1902755, 36.238068899954769 ], [ -115.1902755, 36.238049999953695 ], [ -115.1903052, 36.238049999953695 ], [ -115.1903052, 36.238047299953536 ], [ -115.1903322, 36.238047299953536 ], [ -115.1903322, 36.238071599954921 ], [ -115.1903349, 36.238071599954921 ], [ -115.1903349, 36.238141799958925 ], [ -115.1903052, 36.238141799958925 ], [ -115.1903052, 36.238144499959077 ] ] ] } },
{ "type": "Feature", "properties": { "value": 255.0 }, "geometry": { "type": "Polygon", "coordinates": [ [ [ -115.1904537, 36.238139099958772 ], [ -115.19043210000001, 36.238139099958772 ], [ -115.19043210000001, 36.238136399958613 ], [ -115.1904294, 36.238136399958613 ], [ -115.1904294, 36.238139099958772 ], [ -115.190424, 36.238139099958772 ], [ -115.190424, 36.238136399958613 ], [ -115.1904186, 36.238136399958613 ], [ -115.1904186, 36.238114799957387 ], [ -115.1904159, 36.238114799957387 ], [ -115.1904159, 36.238041899953231 ], [ -115.1904186, 36.238041899953231 ], [ -115.1904186, 36.238039199953079 ], [ -115.1904645, 36.238039199953079 ], [ -115.1904645, 36.238041899953231 ], [ -115.1904672, 36.238041899953231 ], [ -115.1904672, 36.238044599953383 ], [ -115.1904699, 36.238044599953383 ], [ -115.1904699, 36.238055399954 ], [ -115.1904726, 36.238055399954 ], [ -115.1904726, 36.238082399955537 ], [ -115.1904753, 36.238082399955537 ], [ -115.1904753, 36.238109399957075 ], [ -115.190478, 36.238109399957075 ], [ -115.190478, 36.238117499957539 ], [ -115.1904753, 36.238117499957539 ], [ -115.1904753, 36.23813369995846 ], [ -115.1904726, 36.23813369995846 ], [ -115.1904726, 36.238136399958613 ], [ -115.1904537, 36.238136399958613 ], [ -115.1904537, 36.238139099958772 ] ] ] } },
{ "type": "Feature", "properties": { "value": 255.0 }, "geometry": { "type": "Polygon", "coordinates": [ [ [ -115.1899407, 36.238238999964459 ], [ -115.189938, 36.238238999964459 ], [ -115.189938, 36.238236299964306 ], [ -115.1899326, 36.238236299964306 ], [ -115.1899326, 36.238052699953847 ], [ -115.1899353, 36.238052699953847 ], [ -115.1899353, 36.238055399954 ], [ -115.189938, 36.238055399954 ], [ -115.189938, 36.238052699953847 ], [ -115.1899893, 36.238052699953847 ], [ -115.1899893, 36.238049999953695 ], [ -115.189992, 36.238049999953695 ], [ -115.189992, 36.238052699953847 ], [ -115.190054100000012, 36.238052699953847 ], [ -115.190054100000012, 36.238055399954 ], [ -115.1900622, 36.238055399954 ], [ -115.1900622, 36.238052699953847 ], [ -115.1900703, 36.238052699953847 ], [ -115.1900703, 36.238055399954 ], [ -115.1900784, 36.238055399954 ], [ -115.1900784, 36.238052699953847 ], [ -115.1900892, 36.238052699953847 ], [ -115.1900892, 36.238055399954 ], [ -115.1900919, 36.238055399954 ], [ -115.1900919, 36.238058099954152 ], [ -115.1900946, 36.238058099954152 ], [ -115.1900946, 36.238060799954305 ], [ -115.1901054, 36.238060799954305 ], [ -115.1901054, 36.238058099954152 ], [ -115.1901081, 36.238058099954152 ], [ -115.1901081, 36.238060799954305 ], [ -115.1901162, 36.238060799954305 ], [ -115.1901162, 36.238058099954152 ], [ -115.1901216, 36.238058099954152 ], [ -115.1901216, 36.238055399954 ], [ -115.1901243, 36.238055399954 ], [ -115.1901243, 36.238052699953847 ], [ -115.19013240000001, 36.238052699953847 ], [ -115.19013240000001, 36.238049999953695 ], [ -115.1901378, 36.238049999953695 ], [ -115.1901378, 36.238047299953536 ], [ -115.1901783, 36.238047299953536 ], [ -115.1901783, 36.238044599953383 ], [ -115.1901972, 36.238044599953383 ], [ -115.1901972, 36.238041899953231 ], [ -115.1902161, 36.238041899953231 ], [ -115.1902161, 36.238039199953079 ], [ -115.1902215, 36.238039199953079 ], [ -115.1902215, 36.238041899953231 ], [ -115.1902242, 36.238041899953231 ], [ -115.1902242, 36.238039199953079 ], [ -115.1902296, 36.238039199953079 ], [ -115.1902296, 36.238041899953231 ], [ -115.1902323, 36.238041899953231 ], [ -115.1902323, 36.238044599953383 ], [ -115.1902404, 36.238044599953383 ], [ -115.1902404, 36.238047299953536 ], [ -115.1902431, 36.238047299953536 ], [ -115.1902431, 36.238049999953695 ], [ -115.1902458, 36.238049999953695 ], [ -115.1902458, 36.238052699953847 ], [ -115.19024850000001, 36.238052699953847 ], [ -115.19024850000001, 36.238060799954305 ], [ -115.1902512, 36.238060799954305 ], [ -115.1902512, 36.238063499954464 ], [ -115.1902539, 36.238063499954464 ], [ -115.1902539, 36.238071599954921 ], [ -115.1902566, 36.238071599954921 ], [ -115.1902566, 36.238076999955233 ], [ -115.1902593, 36.238076999955233 ], [ -115.1902593, 36.238079699955385 ], [ -115.190262, 36.238079699955385 ], [ -115.190262, 36.23808509995569 ], [ -115.1902647, 36.23808509995569 ], [ -115.1902647, 36.238093199956154 ], [ -115.190262, 36.238093199956154 ], [ -115.190262, 36.238098599956459 ], [ -115.1902593, 36.238098599956459 ], [ -115.1902593, 36.238109399957075 ], [ -115.1902566, 36.238109399957075 ], [ -115.1902566, 36.238147199959229 ], [ -115.1902593, 36.238147199959229 ], [ -115.1902593, 36.238176899960919 ], [ -115.190262, 36.238176899960919 ], [ -115.190262, 36.238179599961079 ], [ -115.1902593, 36.238179599961079 ], [ -115.1902593, 36.238182299961231 ], [ -115.190262, 36.238182299961231 ], [ -115.190262, 36.238198499962152 ], [ -115.1902593, 36.238198499962152 ], [ -115.1902593, 36.238214699963073 ], [ -115.1902566, 36.238214699963073 ], [ -115.1902566, 36.238220099963385 ], [ -115.1902539, 36.238220099963385 ], [ -115.1902539, 36.238222799963538 ], [ -115.1902431, 36.238222799963538 ], [ -115.1902431, 36.23822549996369 ], [ -115.1902296, 36.23822549996369 ], [ -115.1902296, 36.238228199963842 ], [ -115.1902215, 36.238228199963842 ], [ -115.1902215, 36.238230899964002 ], [ -115.1902161, 36.238230899964002 ], [ -115.1902161, 36.238233599964154 ], [ -115.1902107, 36.238233599964154 ], [ -115.1902107, 36.238230899964002 ], [ -115.1901972, 36.238230899964002 ], [ -115.1901972, 36.238228199963842 ], [ -115.1901837, 36.238228199963842 ], [ -115.1901837, 36.23822549996369 ], [ -115.1901675, 36.23822549996369 ], [ -115.1901675, 36.238222799963538 ], [ -115.1901594, 36.238222799963538 ], [ -115.1901594, 36.238220099963385 ], [ -115.190154, 36.238220099963385 ], [ -115.190154, 36.238217399963233 ], [ -115.190151300000011, 36.238217399963233 ], [ -115.190151300000011, 36.238214699963073 ], [ -115.1901459, 36.238214699963073 ], [ -115.1901459, 36.238206599962616 ], [ -115.1901405, 36.238206599962616 ], [ -115.1901405, 36.238203899962464 ], [ -115.19013240000001, 36.238203899962464 ], [ -115.19013240000001, 36.238201199962305 ], [ -115.1901243, 36.238201199962305 ], [ -115.1901243, 36.238203899962464 ], [ -115.1901189, 36.238203899962464 ], [ -115.1901189, 36.238201199962305 ], [ -115.1900946, 36.238201199962305 ], [ -115.1900946, 36.238203899962464 ], [ -115.1900865, 36.238203899962464 ], [ -115.1900865, 36.238206599962616 ], [ -115.1900811, 36.238206599962616 ], [ -115.1900811, 36.238209299962769 ], [ -115.1900784, 36.238209299962769 ], [ -115.1900784, 36.238211999962921 ], [ -115.1900757, 36.238211999962921 ], [ -115.1900757, 36.238214699963073 ], [ -115.190073, 36.238214699963073 ], [ -115.190073, 36.238217399963233 ], [ -115.1900703, 36.238217399963233 ], [ -115.1900703, 36.238220099963385 ], [ -115.19006490000001, 36.238220099963385 ], [ -115.19006490000001, 36.238222799963538 ], [ -115.190054100000012, 36.238222799963538 ], [ -115.190054100000012, 36.23822549996369 ], [ -115.1900379, 36.23822549996369 ], [ -115.1900379, 36.238228199963842 ], [ -115.1900028, 36.238228199963842 ], [ -115.1900028, 36.238230899964002 ], [ -115.189986600000012, 36.238230899964002 ], [ -115.189986600000012, 36.238233599964154 ], [ -115.1899704, 36.238233599964154 ], [ -115.1899704, 36.238236299964306 ], [ -115.1899407, 36.238236299964306 ], [ -115.1899407, 36.238238999964459 ] ] ] } },
{ "type": "Feature", "properties": { "value": 255.0 }, "geometry": { "type": "Polygon", "coordinates": [ [ [ -115.1906157, 36.238222799963538 ], [ -115.1905401, 36.238222799963538 ], [ -115.1905401, 36.238220099963385 ], [ -115.1905374, 36.238220099963385 ], [ -115.1905374, 36.238217399963233 ], [ -115.190532, 36.238217399963233 ], [ -115.190532, 36.238214699963073 ], [ -115.1905293, 36.238214699963073 ], [ -115.1905293, 36.238209299962769 ], [ -115.1905266, 36.238209299962769 ], [ -115.1905266, 36.238198499962152 ], [ -115.1905239, 36.238198499962152 ], [ -115.1905239, 36.238176899960919 ], [ -115.1905212, 36.238176899960919 ], [ -115.1905212, 36.238171499960615 ], [ -115.1905185, 36.238171499960615 ], [ -115.1905185, 36.238160699959998 ], [ -115.1905158, 36.238160699959998 ], [ -115.1905158, 36.238098599956459 ], [ -115.1905185, 36.238098599956459 ], [ -115.1905185, 36.238074299955073 ], [ -115.1905212, 36.238074299955073 ], [ -115.1905212, 36.238041899953231 ], [ -115.1905239, 36.238041899953231 ], [ -115.1905239, 36.238036499952926 ], [ -115.1905266, 36.238036499952926 ], [ -115.1905266, 36.238033799952767 ], [ -115.1905455, 36.238033799952767 ], [ -115.1905455, 36.238031099952615 ], [ -115.1905671, 36.238031099952615 ], [ -115.1905671, 36.238028399952462 ], [ -115.1906454, 36.238028399952462 ], [ -115.1906454, 36.238031099952615 ], [ -115.1906643, 36.238031099952615 ], [ -115.1906643, 36.238033799952767 ], [ -115.1906724, 36.238033799952767 ], [ -115.1906724, 36.238036499952926 ], [ -115.1906859, 36.238036499952926 ], [ -115.1906859, 36.238039199953079 ], [ -115.1907021, 36.238039199953079 ], [ -115.1907021, 36.238036499952926 ], [ -115.1907075, 36.238036499952926 ], [ -115.1907075, 36.238033799952767 ], [ -115.1907102, 36.238033799952767 ], [ -115.1907102, 36.238028399952462 ], [ -115.1907129, 36.238028399952462 ], [ -115.1907129, 36.23802569995231 ], [ -115.1907237, 36.23802569995231 ], [ -115.1907237, 36.23802299995215 ], [ -115.190748, 36.23802299995215 ], [ -115.190748, 36.238020299951998 ], [ -115.1907615, 36.238020299951998 ], [ -115.1907615, 36.238017599951846 ], [ -115.190775, 36.238017599951846 ], [ -115.190775, 36.238020299951998 ], [ -115.1907939, 36.238020299951998 ], [ -115.1907939, 36.23802299995215 ], [ -115.1908263, 36.23802299995215 ], [ -115.1908263, 36.238020299951998 ], [ -115.1908398, 36.238020299951998 ], [ -115.1908398, 36.238017599951846 ], [ -115.1908479, 36.238017599951846 ], [ -115.1908479, 36.238014899951693 ], [ -115.1908641, 36.238014899951693 ], [ -115.1908641, 36.238012199951541 ], [ -115.1908749, 36.238012199951541 ], [ -115.1908749, 36.238009499951382 ], [ -115.1908803, 36.238009499951382 ], [ -115.1908803, 36.238012199951541 ], [ -115.1908911, 36.238012199951541 ], [ -115.1908911, 36.238014899951693 ], [ -115.1908938, 36.238014899951693 ], [ -115.1908938, 36.238017599951846 ], [ -115.1909019, 36.238017599951846 ], [ -115.1909019, 36.238020299951998 ], [ -115.19091, 36.238020299951998 ], [ -115.19091, 36.23802299995215 ], [ -115.1909208, 36.23802299995215 ], [ -115.1909208, 36.23802569995231 ], [ -115.190937, 36.23802569995231 ], [ -115.190937, 36.238028399952462 ], [ -115.1909478, 36.238028399952462 ], [ -115.1909478, 36.238031099952615 ], [ -115.1909586, 36.238031099952615 ], [ -115.1909586, 36.238033799952767 ], [ -115.1909613, 36.238033799952767 ], [ -115.1909613, 36.238031099952615 ], [ -115.1909667, 36.238031099952615 ], [ -115.1909667, 36.238028399952462 ], [ -115.1909694, 36.238028399952462 ], [ -115.1909694, 36.23802569995231 ], [ -115.1909829, 36.23802569995231 ], [ -115.1909829, 36.23802299995215 ], [ -115.1909937, 36.23802299995215 ], [ -115.1909937, 36.238020299951998 ], [ -115.1910018, 36.238020299951998 ], [ -115.1910018, 36.238017599951846 ], [ -115.1910099, 36.238017599951846 ], [ -115.1910099, 36.238014899951693 ], [ -115.1910261, 36.238014899951693 ], [ -115.1910261, 36.238012199951541 ], [ -115.1910315, 36.238012199951541 ], [ -115.1910315, 36.238009499951382 ], [ -115.1910666, 36.238009499951382 ], [ -115.1910666, 36.238012199951541 ], [ -115.1910828, 36.238012199951541 ], [ -115.1910828, 36.238014899951693 ], [ -115.1911098, 36.238014899951693 ], [ -115.1911098, 36.238017599951846 ], [ -115.1911233, 36.238017599951846 ], [ -115.1911233, 36.238020299951998 ], [ -115.1911341, 36.238020299951998 ], [ -115.1911341, 36.23802299995215 ], [ -115.1911395, 36.23802299995215 ], [ -115.1911395, 36.23802569995231 ], [ -115.1911422, 36.23802569995231 ], [ -115.1911422, 36.238028399952462 ], [ -115.1911449, 36.238028399952462 ], [ -115.1911449, 36.238033799952767 ], [ -115.1911476, 36.238033799952767 ], [ -115.1911476, 36.238036499952926 ], [ -115.1911503, 36.238036499952926 ], [ -115.1911503, 36.238041899953231 ], [ -115.191153, 36.238041899953231 ], [ -115.191153, 36.238049999953695 ], [ -115.1911557, 36.238049999953695 ], [ -115.1911557, 36.238060799954305 ], [ -115.1911584, 36.238060799954305 ], [ -115.1911584, 36.238063499954464 ], [ -115.1911611, 36.238063499954464 ], [ -115.1911611, 36.238066199954616 ], [ -115.1911638, 36.238066199954616 ], [ -115.1911638, 36.238074299955073 ], [ -115.1911665, 36.238074299955073 ], [ -115.1911665, 36.238087799955849 ], [ -115.1911692, 36.238087799955849 ], [ -115.1911692, 36.238117499957539 ], [ -115.1911665, 36.238117499957539 ], [ -115.1911665, 36.238147199959229 ], [ -115.1911638, 36.238147199959229 ], [ -115.1911638, 36.23816339996015 ], [ -115.1911611, 36.23816339996015 ], [ -115.1911611, 36.238171499960615 ], [ -115.1911584, 36.238171499960615 ], [ -115.1911584, 36.238179599961079 ], [ -115.1911557, 36.238179599961079 ], [ -115.1911557, 36.238187699961536 ], [ -115.191153, 36.238187699961536 ], [ -115.191153, 36.238193099961848 ], [ -115.1911476, 36.238193099961848 ], [ -115.1911476, 36.238195799962 ], [ -115.1911341, 36.238195799962 ], [ -115.1911341, 36.238198499962152 ], [ -115.1911206, 36.238198499962152 ], [ -115.1911206, 36.238201199962305 ], [ -115.1911125, 36.238201199962305 ], [ -115.1911125, 36.238203899962464 ], [ -115.1911044, 36.238203899962464 ], [ -115.1911044, 36.238206599962616 ], [ -115.1910558, 36.238206599962616 ], [ -115.1910558, 36.238203899962464 ], [ -115.1910531, 36.238203899962464 ], [ -115.1910531, 36.238198499962152 ], [ -115.1910504, 36.238198499962152 ], [ -115.1910504, 36.238195799962 ], [ -115.1910477, 36.238195799962 ], [ -115.1910477, 36.238193099961848 ], [ -115.1910369, 36.238193099961848 ], [ -115.1910369, 36.238190399961695 ], [ -115.1910342, 36.238190399961695 ], [ -115.1910342, 36.238187699961536 ], [ -115.1910315, 36.238187699961536 ], [ -115.1910315, 36.238184999961383 ], [ -115.1910207, 36.238184999961383 ], [ -115.1910207, 36.238182299961231 ], [ -115.191018, 36.238182299961231 ], [ -115.191018, 36.238176899960919 ], [ -115.1910153, 36.238176899960919 ], [ -115.1910153, 36.238174199960767 ], [ -115.1910126, 36.238174199960767 ], [ -115.1910126, 36.238171499960615 ], [ -115.1910072, 36.238171499960615 ], [ -115.1910072, 36.238168799960462 ], [ -115.1909802, 36.238168799960462 ], [ -115.1909802, 36.238171499960615 ], [ -115.1909748, 36.238171499960615 ], [ -115.1909748, 36.238174199960767 ], [ -115.1909694, 36.238174199960767 ], [ -115.1909694, 36.238176899960919 ], [ -115.1909667, 36.238176899960919 ], [ -115.1909667, 36.238179599961079 ], [ -115.190964, 36.238179599961079 ], [ -115.190964, 36.238184999961383 ], [ -115.1909613, 36.238184999961383 ], [ -115.1909613, 36.238190399961695 ], [ -115.1909559, 36.238190399961695 ], [ -115.1909559, 36.238193099961848 ], [ -115.1909451, 36.238193099961848 ], [ -115.1909451, 36.238195799962 ], [ -115.1909316, 36.238195799962 ], [ -115.1909316, 36.238198499962152 ], [ -115.1909289, 36.238198499962152 ], [ -115.1909289, 36.238201199962305 ], [ -115.1909235, 36.238201199962305 ], [ -115.1909235, 36.238203899962464 ], [ -115.1909181, 36.238203899962464 ], [ -115.1909181, 36.238206599962616 ], [ -115.1908911, 36.238206599962616 ], [ -115.1908911, 36.238203899962464 ], [ -115.1908803, 36.238203899962464 ], [ -115.1908803, 36.238201199962305 ], [ -115.1908263, 36.238201199962305 ], [ -115.1908263, 36.238203899962464 ], [ -115.1908155, 36.238203899962464 ], [ -115.1908155, 36.238206599962616 ], [ -115.1908101, 36.238206599962616 ], [ -115.1908101, 36.238209299962769 ], [ -115.1908047, 36.238209299962769 ], [ -115.1908047, 36.238211999962921 ], [ -115.1907858, 36.238211999962921 ], [ -115.1907858, 36.238209299962769 ], [ -115.1907696, 36.238209299962769 ], [ -115.1907696, 36.238206599962616 ], [ -115.1907615, 36.238206599962616 ], [ -115.1907615, 36.238203899962464 ], [ -115.1907507, 36.238203899962464 ], [ -115.1907507, 36.238201199962305 ], [ -115.1907399, 36.238201199962305 ], [ -115.1907399, 36.238198499962152 ], [ -115.1907318, 36.238198499962152 ], [ -115.1907318, 36.238195799962 ], [ -115.1907291, 36.238195799962 ], [ -115.1907291, 36.238184999961383 ], [ -115.1907264, 36.238184999961383 ], [ -115.1907264, 36.238182299961231 ], [ -115.1907237, 36.238182299961231 ], [ -115.1907237, 36.238179599961079 ], [ -115.1906913, 36.238179599961079 ], [ -115.1906913, 36.238182299961231 ], [ -115.1906832, 36.238182299961231 ], [ -115.1906832, 36.238184999961383 ], [ -115.1906805, 36.238184999961383 ], [ -115.1906805, 36.238187699961536 ], [ -115.1906778, 36.238187699961536 ], [ -115.1906778, 36.238190399961695 ], [ -115.1906751, 36.238190399961695 ], [ -115.1906751, 36.238193099961848 ], [ -115.1906724, 36.238193099961848 ], [ -115.1906724, 36.238195799962 ], [ -115.190667, 36.238195799962 ], [ -115.190667, 36.238198499962152 ], [ -115.1906616, 36.238198499962152 ], [ -115.1906616, 36.238201199962305 ], [ -115.1906589, 36.238201199962305 ], [ -115.1906589, 36.238203899962464 ], [ -115.1906508, 36.238203899962464 ], [ -115.1906508, 36.238206599962616 ], [ -115.1906454, 36.238206599962616 ], [ -115.1906454, 36.238209299962769 ], [ -115.1906427, 36.238209299962769 ], [ -115.1906427, 36.238211999962921 ], [ -115.19064, 36.238211999962921 ], [ -115.19064, 36.238214699963073 ], [ -115.1906346, 36.238214699963073 ], [ -115.1906346, 36.238217399963233 ], [ -115.1906292, 36.238217399963233 ], [ -115.1906292, 36.238220099963385 ], [ -115.1906157, 36.238220099963385 ], [ -115.1906157, 36.238222799963538 ] ] ] } },
{ "type": "Feature", "properties": { "value": 255.0 }, "geometry": { "type": "Polygon", "coordinates": [ [ [ -115.1899947, 36.238017599951846 ], [ -115.1899326, 36.238017599951846 ], [ -115.1899326, 36.237971699949227 ], [ -115.1899434, 36.237971699949227 ], [ -115.1899434, 36.237968999949075 ], [ -115.1900082, 36.237968999949075 ], [ -115.1900082, 36.237966299948923 ], [ -115.1900919, 36.237966299948923 ], [ -115.1900919, 36.23796359994877 ], [ -115.1901567, 36.23796359994877 ], [ -115.1901567, 36.237960899948618 ], [ -115.1901864, 36.237960899948618 ], [ -115.1901864, 36.23796359994877 ], [ -115.1901891, 36.23796359994877 ], [ -115.1901891, 36.238006799951229 ], [ -115.1901864, 36.238006799951229 ], [ -115.1901864, 36.238009499951382 ], [ -115.1901459, 36.238009499951382 ], [ -115.1901459, 36.238012199951541 ], [ -115.1900973, 36.238012199951541 ], [ -115.1900973, 36.238014899951693 ], [ -115.1899947, 36.238014899951693 ], [ -115.1899947, 36.238017599951846 ] ] ] } },
{ "type": "Feature", "properties": { "value": 255.0 }, "geometry": { "type": "Polygon", "coordinates": [ [ [ -115.1907102, 36.23799329995046 ], [ -115.1906589, 36.23799329995046 ], [ -115.1906589, 36.237990599950308 ], [ -115.1906535, 36.237990599950308 ], [ -115.1906535, 36.23799329995046 ], [ -115.1905698, 36.23799329995046 ], [ -115.1905698, 36.237990599950308 ], [ -115.1905671, 36.237990599950308 ], [ -115.1905671, 36.237971699949227 ], [ -115.1905644, 36.237971699949227 ], [ -115.1905644, 36.237952799948154 ], [ -115.1905671, 36.237952799948154 ], [ -115.1905671, 36.237950099948002 ], [ -115.1905698, 36.237950099948002 ], [ -115.1905698, 36.237947399947849 ], [ -115.1905887, 36.237947399947849 ], [ -115.1905887, 36.23794469994769 ], [ -115.1906373, 36.23794469994769 ], [ -115.1906373, 36.237941999947537 ], [ -115.1906508, 36.237941999947537 ], [ -115.1906508, 36.23794469994769 ], [ -115.1906805, 36.23794469994769 ], [ -115.1906805, 36.237941999947537 ], [ -115.1907561, 36.237941999947537 ], [ -115.1907561, 36.237939299947385 ], [ -115.1908074, 36.237939299947385 ], [ -115.1908074, 36.237936599947233 ], [ -115.1908668, 36.237936599947233 ], [ -115.1908668, 36.237939299947385 ], [ -115.1908695, 36.237939299947385 ], [ -115.1908695, 36.237982499949844 ], [ -115.1908668, 36.237982499949844 ], [ -115.1908668, 36.237985199950003 ], [ -115.1908101, 36.237985199950003 ], [ -115.1908101, 36.237987899950156 ], [ -115.1907588, 36.237987899950156 ], [ -115.1907588, 36.237990599950308 ], [ -115.1907102, 36.237990599950308 ], [ -115.1907102, 36.23799329995046 ] ] ] } },
{ "type": "Feature", "properties": { "value": 255.0 }, "geometry": { "type": "Polygon", "coordinates": [ [ [ -115.191153, 36.237950099948002 ], [ -115.1911449, 36.237950099948002 ], [ -115.1911449, 36.237947399947849 ], [ -115.1911368, 36.237947399947849 ], [ -115.1911368, 36.23794469994769 ], [ -115.1911287, 36.23794469994769 ], [ -115.1911287, 36.237941999947537 ], [ -115.1911206, 36.237941999947537 ], [ -115.1911206, 36.237936599947233 ], [ -115.1911179, 36.237936599947233 ], [ -115.1911179, 36.237920399946304 ], [ -115.1911206, 36.237920399946304 ], [ -115.1911206, 36.237914999946 ], [ -115.1911233, 36.237914999946 ], [ -115.1911233, 36.237912299945847 ], [ -115.1911341, 36.237912299945847 ], [ -115.1911341, 36.237909599945695 ], [ -115.1911395, 36.237909599945695 ], [ -115.1911395, 36.237912299945847 ], [ -115.1911449, 36.237912299945847 ], [ -115.1911449, 36.237914999946 ], [ -115.191153, 36.237914999946 ], [ -115.191153, 36.237917699946152 ], [ -115.1911584, 36.237917699946152 ], [ -115.1911584, 36.237920399946304 ], [ -115.1911611, 36.237920399946304 ], [ -115.1911611, 36.237936599947233 ], [ -115.1911584, 36.237936599947233 ], [ -115.1911584, 36.237941999947537 ], [ -115.1911557, 36.237941999947537 ], [ -115.1911557, 36.237947399947849 ], [ -115.191153, 36.237947399947849 ], [ -115.191153, 36.237950099948002 ] ] ] } },
{ "type": "Feature", "properties": { "value": 255.0 }, "geometry": { "type": "Polygon", "coordinates": [ [ [ -115.1910747, 36.237909599945695 ], [ -115.1910585, 36.237909599945695 ], [ -115.1910585, 36.237906899945536 ], [ -115.1910531, 36.237906899945536 ], [ -115.1910531, 36.237896099944926 ], [ -115.1910585, 36.237896099944926 ], [ -115.1910585, 36.237898799945079 ], [ -115.1910612, 36.237898799945079 ], [ -115.1910612, 36.237896099944926 ], [ -115.1910639, 36.237896099944926 ], [ -115.1910639, 36.237893399944767 ], [ -115.1910612, 36.237893399944767 ], [ -115.1910612, 36.237890699944614 ], [ -115.1910747, 36.237890699944614 ], [ -115.1910747, 36.237898799945079 ], [ -115.1910801, 36.237898799945079 ], [ -115.1910801, 36.237901499945231 ], [ -115.1910828, 36.237901499945231 ], [ -115.1910828, 36.237904199945383 ], [ -115.1910801, 36.237904199945383 ], [ -115.1910801, 36.237906899945536 ], [ -115.1910747, 36.237906899945536 ], [ -115.1910747, 36.237909599945695 ] ] ] } },
{ "type": "Feature", "properties": { "value": 255.0 }, "geometry": { "type": "Polygon", "coordinates": [ [ [ -115.190964, 36.237920399946304 ], [ -115.1909343, 36.237920399946304 ], [ -115.1909343, 36.237917699946152 ], [ -115.1909316, 36.237917699946152 ], [ -115.1909316, 36.23788529994431 ], [ -115.1909343, 36.23788529994431 ], [ -115.1909343, 36.23788259994415 ], [ -115.190937, 36.23788259994415 ], [ -115.190937, 36.237879899943998 ], [ -115.1909397, 36.237879899943998 ], [ -115.1909397, 36.23788259994415 ], [ -115.1909424, 36.23788259994415 ], [ -115.1909424, 36.237879899943998 ], [ -115.190964, 36.237879899943998 ], [ -115.190964, 36.23788259994415 ], [ -115.1909667, 36.23788259994415 ], [ -115.1909667, 36.237893399944767 ], [ -115.190964, 36.237893399944767 ], [ -115.190964, 36.237901499945231 ], [ -115.1909667, 36.237901499945231 ], [ -115.1909667, 36.237917699946152 ], [ -115.190964, 36.237917699946152 ], [ -115.190964, 36.237920399946304 ] ] ] } },
{ "type": "Feature", "properties": { "value": 255.0 }, "geometry": { "type": "Polygon", "coordinates": [ [ [ -115.1899704, 36.237904199945383 ], [ -115.1899326, 36.237904199945383 ], [ -115.1899326, 36.23785289994246 ], [ -115.1899758, 36.23785289994246 ], [ -115.1899758, 36.237850199942308 ], [ -115.1900865, 36.237850199942308 ], [ -115.1900865, 36.237847499942156 ], [ -115.190154, 36.237847499942156 ], [ -115.190154, 36.237850199942308 ], [ -115.1901567, 36.237850199942308 ], [ -115.1901567, 36.237893399944767 ], [ -115.190154, 36.237893399944767 ], [ -115.190154, 36.237896099944926 ], [ -115.1901081, 36.237896099944926 ], [ -115.1901081, 36.237898799945079 ], [ -115.1900217, 36.237898799945079 ], [ -115.1900217, 36.237901499945231 ], [ -115.1899704, 36.237901499945231 ], [ -115.1899704, 36.237904199945383 ] ] ] } },
{ "type": "Feature", "properties": { "value": 255.0 }, "geometry": { "type": "Polygon", "coordinates": [ [ [ -115.1906211, 36.237879899943998 ], [ -115.1905752, 36.237879899943998 ], [ -115.1905752, 36.237874499943693 ], [ -115.1905725, 36.237874499943693 ], [ -115.1905725, 36.237831299941227 ], [ -115.1905806, 36.237831299941227 ], [ -115.1905806, 36.237828599941075 ], [ -115.1906508, 36.237828599941075 ], [ -115.1906508, 36.237825899940923 ], [ -115.1906994, 36.237825899940923 ], [ -115.1906994, 36.23782319994077 ], [ -115.190748, 36.23782319994077 ], [ -115.190748, 36.237820499940618 ], [ -115.190802, 36.237820499940618 ], [ -115.190802, 36.237817799940458 ], [ -115.1908155, 36.237817799940458 ], [ -115.1908155, 36.237820499940618 ], [ -115.1908479, 36.237820499940618 ], [ -115.1908479, 36.237817799940458 ], [ -115.1908641, 36.237817799940458 ], [ -115.1908641, 36.237820499940618 ], [ -115.1908749, 36.237820499940618 ], [ -115.1908749, 36.237842099941844 ], [ -115.1908776, 36.237842099941844 ], [ -115.1908776, 36.237866399943229 ], [ -115.1908749, 36.237866399943229 ], [ -115.1908749, 36.237869099943381 ], [ -115.1908155, 36.237869099943381 ], [ -115.1908155, 36.237871799943541 ], [ -115.1907453, 36.237871799943541 ], [ -115.1907453, 36.237874499943693 ], [ -115.1906886, 36.237874499943693 ], [ -115.1906886, 36.237877199943846 ], [ -115.1906211, 36.237877199943846 ], [ -115.1906211, 36.237879899943998 ] ] ] } },
{ "type": "Feature", "properties": { "value": 255.0 }, "geometry": { "type": "Polygon", "coordinates": [ [ [ -115.1902863, 36.237890699944614 ], [ -115.190218800000011, 36.237890699944614 ], [ -115.190218800000011, 36.237887999944462 ], [ -115.1902161, 36.237887999944462 ], [ -115.1902161, 36.23788529994431 ], [ -115.1902134, 36.23788529994431 ], [ -115.1902134, 36.237860999942924 ], [ -115.1902161, 36.237860999942924 ], [ -115.1902161, 36.23785289994246 ], [ -115.1902134, 36.23785289994246 ], [ -115.1902134, 36.237831299941227 ], [ -115.1902161, 36.237831299941227 ], [ -115.1902161, 36.237825899940923 ], [ -115.190218800000011, 36.237825899940923 ], [ -115.190218800000011, 36.23782319994077 ], [ -115.1902242, 36.23782319994077 ], [ -115.1902242, 36.237820499940618 ], [ -115.1902323, 36.237820499940618 ], [ -115.1902323, 36.237817799940458 ], [ -115.190262, 36.237817799940458 ], [ -115.190262, 36.237815099940306 ], [ -115.1902755, 36.237815099940306 ], [ -115.1902755, 36.237812399940154 ], [ -115.190289, 36.237812399940154 ], [ -115.190289, 36.237809699940001 ], [ -115.1902917, 36.237809699940001 ], [ -115.1902917, 36.237812399940154 ], [ -115.1902944, 36.237812399940154 ], [ -115.1902944, 36.237809699940001 ], [ -115.190316, 36.237809699940001 ], [ -115.190316, 36.237812399940154 ], [ -115.1903295, 36.237812399940154 ], [ -115.1903295, 36.237815099940306 ], [ -115.1903727, 36.237815099940306 ], [ -115.1903727, 36.237817799940458 ], [ -115.1903943, 36.237817799940458 ], [ -115.1903943, 36.237815099940306 ], [ -115.1904159, 36.237815099940306 ], [ -115.1904159, 36.237812399940154 ], [ -115.1904267, 36.237812399940154 ], [ -115.1904267, 36.237809699940001 ], [ -115.1904456, 36.237809699940001 ], [ -115.1904456, 36.237806999939849 ], [ -115.1904618, 36.237806999939849 ], [ -115.1904618, 36.237809699940001 ], [ -115.1904807, 36.237809699940001 ], [ -115.1904807, 36.237806999939849 ], [ -115.1904969, 36.237806999939849 ], [ -115.1904969, 36.237809699940001 ], [ -115.1905077, 36.237809699940001 ], [ -115.1905077, 36.237815099940306 ], [ -115.1905104, 36.237815099940306 ], [ -115.1905104, 36.237833999941387 ], [ -115.1905077, 36.237833999941387 ], [ -115.1905077, 36.237839399941691 ], [ -115.1905104, 36.237839399941691 ], [ -115.1905104, 36.237879899943998 ], [ -115.1905023, 36.237879899943998 ], [ -115.1905023, 36.23788259994415 ], [ -115.190424, 36.23788259994415 ], [ -115.190424, 36.23788529994431 ], [ -115.1903511, 36.23788529994431 ], [ -115.1903511, 36.237887999944462 ], [ -115.1902863, 36.237887999944462 ], [ -115.1902863, 36.237890699944614 ] ] ] } },
{ "type": "Feature", "properties": { "value": 255.0 }, "geometry": { "type": "Polygon", "coordinates": [ [ [ -115.1916579, 36.238171499960615 ], [ -115.1916174, 36.238171499960615 ], [ -115.1916174, 36.238168799960462 ], [ -115.1916039, 36.238168799960462 ], [ -115.1916039, 36.23816609996031 ], [ -115.1915985, 36.23816609996031 ], [ -115.1915985, 36.23816339996015 ], [ -115.1915931, 36.23816339996015 ], [ -115.1915931, 36.238160699959998 ], [ -115.1915877, 36.238160699959998 ], [ -115.1915877, 36.238157999959846 ], [ -115.1915823, 36.238157999959846 ], [ -115.1915823, 36.238155299959693 ], [ -115.1915688, 36.238155299959693 ], [ -115.1915688, 36.238152599959541 ], [ -115.191558, 36.238152599959541 ], [ -115.191558, 36.238149899959382 ], [ -115.1915364, 36.238149899959382 ], [ -115.1915364, 36.238147199959229 ], [ -115.1915121, 36.238147199959229 ], [ -115.1915121, 36.238144499959077 ], [ -115.191504, 36.238144499959077 ], [ -115.191504, 36.238141799958925 ], [ -115.1914932, 36.238141799958925 ], [ -115.1914932, 36.238139099958772 ], [ -115.1914878, 36.238139099958772 ], [ -115.1914878, 36.238136399958613 ], [ -115.1914797, 36.238136399958613 ], [ -115.1914797, 36.23813369995846 ], [ -115.1914743, 36.23813369995846 ], [ -115.1914743, 36.238130999958308 ], [ -115.1914689, 36.238130999958308 ], [ -115.1914689, 36.238128299958156 ], [ -115.1914662, 36.238128299958156 ], [ -115.1914662, 36.238125599957996 ], [ -115.1914608, 36.238125599957996 ], [ -115.1914608, 36.238117499957539 ], [ -115.1914581, 36.238117499957539 ], [ -115.1914581, 36.238095899956306 ], [ -115.1914608, 36.238095899956306 ], [ -115.1914608, 36.238058099954152 ], [ -115.1914635, 36.238058099954152 ], [ -115.1914635, 36.238055399954 ], [ -115.1914689, 36.238055399954 ], [ -115.1914689, 36.238052699953847 ], [ -115.1914716, 36.238052699953847 ], [ -115.1914716, 36.238049999953695 ], [ -115.1914743, 36.238049999953695 ], [ -115.1914743, 36.238047299953536 ], [ -115.191477, 36.238047299953536 ], [ -115.191477, 36.238041899953231 ], [ -115.1914797, 36.238041899953231 ], [ -115.1914797, 36.238039199953079 ], [ -115.1914824, 36.238039199953079 ], [ -115.1914824, 36.238036499952926 ], [ -115.1914851, 36.238036499952926 ], [ -115.1914851, 36.238028399952462 ], [ -115.1914878, 36.238028399952462 ], [ -115.1914878, 36.23802569995231 ], [ -115.1914905, 36.23802569995231 ], [ -115.1914905, 36.23802299995215 ], [ -115.191504, 36.23802299995215 ], [ -115.191504, 36.23802569995231 ], [ -115.1915121, 36.23802569995231 ], [ -115.1915121, 36.238028399952462 ], [ -115.1915256, 36.238028399952462 ], [ -115.1915256, 36.23802569995231 ], [ -115.1915337, 36.23802569995231 ], [ -115.1915337, 36.23802299995215 ], [ -115.1915364, 36.23802299995215 ], [ -115.1915364, 36.238020299951998 ], [ -115.1915391, 36.238020299951998 ], [ -115.1915391, 36.238017599951846 ], [ -115.1915418, 36.238017599951846 ], [ -115.1915418, 36.238006799951229 ], [ -115.1915445, 36.238006799951229 ], [ -115.1915445, 36.238004099951077 ], [ -115.1915391, 36.238004099951077 ], [ -115.1915391, 36.238001399950925 ], [ -115.1915256, 36.238001399950925 ], [ -115.1915256, 36.237995999950613 ], [ -115.1915229, 36.237995999950613 ], [ -115.1915229, 36.23799329995046 ], [ -115.1915148, 36.23799329995046 ], [ -115.1915148, 36.237990599950308 ], [ -115.1915121, 36.237990599950308 ], [ -115.1915121, 36.237982499949844 ], [ -115.1915094, 36.237982499949844 ], [ -115.1915094, 36.237979799949692 ], [ -115.1915121, 36.237979799949692 ], [ -115.1915121, 36.23796359994877 ], [ -115.1915148, 36.23796359994877 ], [ -115.1915148, 36.237952799948154 ], [ -115.1915121, 36.237952799948154 ], [ -115.1915121, 36.237941999947537 ], [ -115.1915148, 36.237941999947537 ], [ -115.1915148, 36.237936599947233 ], [ -115.191517499999989, 36.237936599947233 ], [ -115.191517499999989, 36.237928499946769 ], [ -115.1915202, 36.237928499946769 ], [ -115.1915202, 36.237914999946 ], [ -115.1915229, 36.237914999946 ], [ -115.1915229, 36.237901499945231 ], [ -115.1915256, 36.237901499945231 ], [ -115.1915256, 36.237887999944462 ], [ -115.1915283, 36.237887999944462 ], [ -115.1915283, 36.237879899943998 ], [ -115.191531, 36.237879899943998 ], [ -115.191531, 36.237874499943693 ], [ -115.1915337, 36.237874499943693 ], [ -115.1915337, 36.237866399943229 ], [ -115.1915364, 36.237866399943229 ], [ -115.1915364, 36.237855599942613 ], [ -115.1915391, 36.237855599942613 ], [ -115.1915391, 36.23785289994246 ], [ -115.1915418, 36.23785289994246 ], [ -115.1915418, 36.237844799942003 ], [ -115.1915445, 36.237844799942003 ], [ -115.1915445, 36.237842099941844 ], [ -115.1915472, 36.237842099941844 ], [ -115.1915472, 36.237839399941691 ], [ -115.1915499, 36.237839399941691 ], [ -115.1915499, 36.237833999941387 ], [ -115.1915553, 36.237833999941387 ], [ -115.1915553, 36.237828599941075 ], [ -115.191558, 36.237828599941075 ], [ -115.191558, 36.237825899940923 ], [ -115.1915607, 36.237825899940923 ], [ -115.1915607, 36.23782319994077 ], [ -115.1915742, 36.23782319994077 ], [ -115.1915742, 36.237820499940618 ], [ -115.1915769, 36.237820499940618 ], [ -115.1915769, 36.237817799940458 ], [ -115.1915796, 36.237817799940458 ], [ -115.1915796, 36.237815099940306 ], [ -115.1915877, 36.237815099940306 ], [ -115.1915877, 36.237812399940154 ], [ -115.1915904, 36.237812399940154 ], [ -115.1915904, 36.237806999939849 ], [ -115.1915877, 36.237806999939849 ], [ -115.1915877, 36.237796199939233 ], [ -115.191585, 36.237796199939233 ], [ -115.191585, 36.237771899937847 ], [ -115.1915823, 36.237771899937847 ], [ -115.1915823, 36.237763799937383 ], [ -115.191585, 36.237763799937383 ], [ -115.191585, 36.237747599936462 ], [ -115.1915877, 36.237747599936462 ], [ -115.1915877, 36.237742199936157 ], [ -115.1915904, 36.237742199936157 ], [ -115.1915904, 36.237717899934772 ], [ -115.1915931, 36.237717899934772 ], [ -115.1915931, 36.23771249993446 ], [ -115.1915958, 36.23771249993446 ], [ -115.1915958, 36.237707099934156 ], [ -115.1916066, 36.237707099934156 ], [ -115.1916066, 36.237704399934003 ], [ -115.1916093, 36.237704399934003 ], [ -115.1916093, 36.237707099934156 ], [ -115.1916309, 36.237707099934156 ], [ -115.1916309, 36.237709799934308 ], [ -115.1916741, 36.237709799934308 ], [ -115.1916741, 36.23771249993446 ], [ -115.1916795, 36.23771249993446 ], [ -115.1916795, 36.237715199934613 ], [ -115.1916876, 36.237715199934613 ], [ -115.1916876, 36.238152599959541 ], [ -115.1916849, 36.238152599959541 ], [ -115.1916849, 36.238155299959693 ], [ -115.1916768, 36.238155299959693 ], [ -115.1916768, 36.238157999959846 ], [ -115.1916741, 36.238157999959846 ], [ -115.1916741, 36.238160699959998 ], [ -115.1916714, 36.238160699959998 ], [ -115.1916714, 36.23816339996015 ], [ -115.1916687, 36.23816339996015 ], [ -115.1916687, 36.23816609996031 ], [ -115.191663299999988, 36.23816609996031 ], [ -115.191663299999988, 36.238168799960462 ], [ -115.1916579, 36.238168799960462 ], [ -115.1916579, 36.238171499960615 ] ] ] } },
{ "type": "Feature", "properties": { "value": 255.0 }, "geometry": { "type": "Polygon", "coordinates": [ [ [ -115.1906184, 36.237742199936157 ], [ -115.1906022, 36.237742199936157 ], [ -115.1906022, 36.237739499935998 ], [ -115.1905995, 36.237739499935998 ], [ -115.1905995, 36.237736799935846 ], [ -115.1905968, 36.237736799935846 ], [ -115.1905968, 36.237734099935693 ], [ -115.1905941, 36.237734099935693 ], [ -115.1905941, 36.237731399935541 ], [ -115.1905914, 36.237731399935541 ], [ -115.1905914, 36.237728699935381 ], [ -115.1905887, 36.237728699935381 ], [ -115.1905887, 36.237725999935229 ], [ -115.190586, 36.237725999935229 ], [ -115.190586, 36.237723299935077 ], [ -115.1905833, 36.237723299935077 ], [ -115.1905833, 36.237720599934924 ], [ -115.1905806, 36.237720599934924 ], [ -115.1905806, 36.237715199934613 ], [ -115.1905779, 36.237715199934613 ], [ -115.1905779, 36.237704399934003 ], [ -115.1905752, 36.237704399934003 ], [ -115.1905752, 36.237690899933234 ], [ -115.1905725, 36.237690899933234 ], [ -115.1905725, 36.237685499932923 ], [ -115.1905752, 36.237685499932923 ], [ -115.1905752, 36.237677399932458 ], [ -115.1905779, 36.237677399932458 ], [ -115.1905779, 36.237671999932154 ], [ -115.1905806, 36.237671999932154 ], [ -115.1905806, 36.237669299932001 ], [ -115.1905833, 36.237669299932001 ], [ -115.1905833, 36.237666599931849 ], [ -115.190586, 36.237666599931849 ], [ -115.190586, 36.23766389993169 ], [ -115.1905887, 36.23766389993169 ], [ -115.1905887, 36.237658499931385 ], [ -115.1905914, 36.237658499931385 ], [ -115.1905914, 36.237655799931233 ], [ -115.1905941, 36.237655799931233 ], [ -115.1905941, 36.23765309993108 ], [ -115.1906076, 36.23765309993108 ], [ -115.1906076, 36.237655799931233 ], [ -115.190613, 36.237655799931233 ], [ -115.190613, 36.237658499931385 ], [ -115.1906157, 36.237658499931385 ], [ -115.1906157, 36.237661199931537 ], [ -115.1906184, 36.237661199931537 ], [ -115.1906184, 36.23766389993169 ], [ -115.1906238, 36.23766389993169 ], [ -115.1906238, 36.237666599931849 ], [ -115.1906265, 36.237666599931849 ], [ -115.1906265, 36.237669299932001 ], [ -115.1906319, 36.237669299932001 ], [ -115.1906319, 36.237671999932154 ], [ -115.1906346, 36.237671999932154 ], [ -115.1906346, 36.237674699932306 ], [ -115.19064, 36.237674699932306 ], [ -115.19064, 36.237677399932458 ], [ -115.1906427, 36.237677399932458 ], [ -115.1906427, 36.23768279993277 ], [ -115.1906454, 36.23768279993277 ], [ -115.1906454, 36.237685499932923 ], [ -115.1906481, 36.237685499932923 ], [ -115.1906481, 36.237688199933075 ], [ -115.1906508, 36.237688199933075 ], [ -115.1906508, 36.237690899933234 ], [ -115.1906535, 36.237690899933234 ], [ -115.1906535, 36.237693599933387 ], [ -115.1906562, 36.237693599933387 ], [ -115.1906562, 36.237696299933539 ], [ -115.1906589, 36.237696299933539 ], [ -115.1906589, 36.237698999933691 ], [ -115.1906616, 36.237698999933691 ], [ -115.1906616, 36.237701699933844 ], [ -115.1906643, 36.237701699933844 ], [ -115.1906643, 36.237704399934003 ], [ -115.190667, 36.237704399934003 ], [ -115.190667, 36.237707099934156 ], [ -115.1906697, 36.237707099934156 ], [ -115.1906697, 36.237715199934613 ], [ -115.190667, 36.237715199934613 ], [ -115.190667, 36.237717899934772 ], [ -115.1906643, 36.237717899934772 ], [ -115.1906643, 36.237720599934924 ], [ -115.1906562, 36.237720599934924 ], [ -115.1906562, 36.237723299935077 ], [ -115.1906508, 36.237723299935077 ], [ -115.1906508, 36.237725999935229 ], [ -115.1906454, 36.237725999935229 ], [ -115.1906454, 36.237728699935381 ], [ -115.19064, 36.237728699935381 ], [ -115.19064, 36.237731399935541 ], [ -115.1906373, 36.237731399935541 ], [ -115.1906373, 36.237734099935693 ], [ -115.1906319, 36.237734099935693 ], [ -115.1906319, 36.237736799935846 ], [ -115.1906265, 36.237736799935846 ], [ -115.1906265, 36.237739499935998 ], [ -115.1906184, 36.237739499935998 ], [ -115.1906184, 36.237742199936157 ] ] ] } },
{ "type": "Feature", "properties": { "value": 255.0 }, "geometry": { "type": "Polygon", "coordinates": [ [ [ -115.1912583, 36.237798899939385 ], [ -115.1912529, 36.237798899939385 ], [ -115.1912529, 36.237796199939233 ], [ -115.1912448, 36.237796199939233 ], [ -115.1912448, 36.237798899939385 ], [ -115.1912421, 36.237798899939385 ], [ -115.1912421, 36.237796199939233 ], [ -115.191234, 36.237796199939233 ], [ -115.191234, 36.23779349993908 ], [ -115.1912286, 36.23779349993908 ], [ -115.1912286, 36.237790799938921 ], [ -115.1912232, 36.237790799938921 ], [ -115.1912232, 36.237788099938768 ], [ -115.1912178, 36.237788099938768 ], [ -115.1912178, 36.237785399938616 ], [ -115.1912151, 36.237785399938616 ], [ -115.1912151, 36.237782699938464 ], [ -115.1912124, 36.237782699938464 ], [ -115.1912124, 36.237779999938304 ], [ -115.191207, 36.237779999938304 ], [ -115.191207, 36.237777299938152 ], [ -115.1911989, 36.237777299938152 ], [ -115.1911989, 36.237774599938 ], [ -115.1911935, 36.237774599938 ], [ -115.1911935, 36.237771899937847 ], [ -115.1911881, 36.237771899937847 ], [ -115.1911881, 36.237769199937695 ], [ -115.1911854, 36.237769199937695 ], [ -115.1911854, 36.237766499937536 ], [ -115.1911827, 36.237766499937536 ], [ -115.1911827, 36.237763799937383 ], [ -115.19118, 36.237763799937383 ], [ -115.19118, 36.23774489993631 ], [ -115.1911773, 36.23774489993631 ], [ -115.1911773, 36.237742199936157 ], [ -115.1911746, 36.237742199936157 ], [ -115.1911746, 36.237739499935998 ], [ -115.1911719, 36.237739499935998 ], [ -115.1911719, 36.237736799935846 ], [ -115.1911638, 36.237736799935846 ], [ -115.1911638, 36.237734099935693 ], [ -115.1911584, 36.237734099935693 ], [ -115.1911584, 36.237731399935541 ], [ -115.191153, 36.237731399935541 ], [ -115.191153, 36.237728699935381 ], [ -115.1911233, 36.237728699935381 ], [ -115.1911233, 36.237731399935541 ], [ -115.1911206, 36.237731399935541 ], [ -115.1911206, 36.237734099935693 ], [ -115.1911152, 36.237734099935693 ], [ -115.1911152, 36.237736799935846 ], [ -115.1911071, 36.237736799935846 ], [ -115.1911071, 36.237739499935998 ], [ -115.191072, 36.237739499935998 ], [ -115.191072, 36.237736799935846 ], [ -115.1910612, 36.237736799935846 ], [ -115.1910612, 36.237734099935693 ], [ -115.1910369, 36.237734099935693 ], [ -115.1910369, 36.237731399935541 ], [ -115.1910207, 36.237731399935541 ], [ -115.1910207, 36.237728699935381 ], [ -115.1910126, 36.237728699935381 ], [ -115.1910126, 36.237725999935229 ], [ -115.1910018, 36.237725999935229 ], [ -115.1910018, 36.237723299935077 ], [ -115.1909964, 36.237723299935077 ], [ -115.1909964, 36.237720599934924 ], [ -115.1909883, 36.237720599934924 ], [ -115.1909883, 36.237717899934772 ], [ -115.1909802, 36.237717899934772 ], [ -115.1909802, 36.237715199934613 ], [ -115.1909721, 36.237715199934613 ], [ -115.1909721, 36.23771249993446 ], [ -115.1909694, 36.23771249993446 ], [ -115.1909694, 36.237709799934308 ], [ -115.190964, 36.237709799934308 ], [ -115.190964, 36.237707099934156 ], [ -115.1909613, 36.237707099934156 ], [ -115.1909613, 36.237704399934003 ], [ -115.1909586, 36.237704399934003 ], [ -115.1909586, 36.237701699933844 ], [ -115.1909559, 36.237701699933844 ], [ -115.1909559, 36.237685499932923 ], [ -115.1909532, 36.237685499932923 ], [ -115.1909532, 36.23768279993277 ], [ -115.1909505, 36.23768279993277 ], [ -115.1909505, 36.237680099932618 ], [ -115.1909451, 36.237680099932618 ], [ -115.1909451, 36.237677399932458 ], [ -115.1909397, 36.237677399932458 ], [ -115.1909397, 36.237674699932306 ], [ -115.1909343, 36.237674699932306 ], [ -115.1909343, 36.237671999932154 ], [ -115.1909235, 36.237671999932154 ], [ -115.1909235, 36.237669299932001 ], [ -115.1909208, 36.237669299932001 ], [ -115.1909208, 36.237671999932154 ], [ -115.1908992, 36.237671999932154 ], [ -115.1908992, 36.237674699932306 ], [ -115.1908965, 36.237674699932306 ], [ -115.1908965, 36.237677399932458 ], [ -115.1908938, 36.237677399932458 ], [ -115.1908938, 36.237680099932618 ], [ -115.1908911, 36.237680099932618 ], [ -115.1908911, 36.237685499932923 ], [ -115.1908749, 36.237685499932923 ], [ -115.1908749, 36.237688199933075 ], [ -115.190829, 36.237688199933075 ], [ -115.190829, 36.237685499932923 ], [ -115.1908155, 36.237685499932923 ], [ -115.1908155, 36.23768279993277 ], [ -115.1908128, 36.23768279993277 ], [ -115.1908128, 36.237680099932618 ], [ -115.1908101, 36.237680099932618 ], [ -115.1908101, 36.237677399932458 ], [ -115.1908074, 36.237677399932458 ], [ -115.1908074, 36.237674699932306 ], [ -115.1908047, 36.237674699932306 ], [ -115.1908047, 36.237671999932154 ], [ -115.1907966, 36.237671999932154 ], [ -115.1907966, 36.237669299932001 ], [ -115.1907885, 36.237669299932001 ], [ -115.1907885, 36.237666599931849 ], [ -115.1907858, 36.237666599931849 ], [ -115.1907858, 36.23766389993169 ], [ -115.1907804, 36.23766389993169 ], [ -115.1907804, 36.237661199931537 ], [ -115.190775, 36.237661199931537 ], [ -115.190775, 36.237658499931385 ], [ -115.1907723, 36.237658499931385 ], [ -115.1907723, 36.237644999930616 ], [ -115.190775, 36.237644999930616 ], [ -115.190775, 36.237636899930152 ], [ -115.1907723, 36.237636899930152 ], [ -115.1907723, 36.237626099929535 ], [ -115.190775, 36.237626099929535 ], [ -115.190775, 36.237612599928767 ], [ -115.1907777, 36.237612599928767 ], [ -115.1907777, 36.237609899928614 ], [ -115.1907804, 36.237609899928614 ], [ -115.1907804, 36.237607199928462 ], [ -115.1907831, 36.237607199928462 ], [ -115.1907831, 36.23760449992831 ], [ -115.1907858, 36.23760449992831 ], [ -115.1907858, 36.237601799928157 ], [ -115.1907885, 36.237601799928157 ], [ -115.1907885, 36.237599099927998 ], [ -115.1907912, 36.237599099927998 ], [ -115.1907912, 36.237593699927693 ], [ -115.1907939, 36.237593699927693 ], [ -115.1907939, 36.237582899927077 ], [ -115.1907966, 36.237582899927077 ], [ -115.1907966, 36.237577499926772 ], [ -115.1907993, 36.237577499926772 ], [ -115.1907993, 36.237569399926308 ], [ -115.190802, 36.237569399926308 ], [ -115.190802, 36.237563999926003 ], [ -115.1908047, 36.237563999926003 ], [ -115.1908047, 36.237558599925691 ], [ -115.1908074, 36.237558599925691 ], [ -115.1908074, 36.237553199925387 ], [ -115.1908101, 36.237553199925387 ], [ -115.1908101, 36.237547799925075 ], [ -115.1908128, 36.237547799925075 ], [ -115.1908128, 36.237539699924618 ], [ -115.1908155, 36.237539699924618 ], [ -115.1908155, 36.237534299924306 ], [ -115.1908182, 36.237534299924306 ], [ -115.1908182, 36.237520799923537 ], [ -115.1908209, 36.237520799923537 ], [ -115.1908209, 36.23751269992308 ], [ -115.1908236, 36.23751269992308 ], [ -115.1908236, 36.237507299922768 ], [ -115.1908263, 36.237507299922768 ], [ -115.1908263, 36.237504599922616 ], [ -115.1908317, 36.237504599922616 ], [ -115.1908317, 36.237501899922464 ], [ -115.1908344, 36.237501899922464 ], [ -115.1908344, 36.237499199922311 ], [ -115.1908425, 36.237499199922311 ], [ -115.1908425, 36.237496499922152 ], [ -115.1908479, 36.237496499922152 ], [ -115.1908479, 36.237493799921999 ], [ -115.1908533, 36.237493799921999 ], [ -115.1908533, 36.237491099921847 ], [ -115.190883, 36.237491099921847 ], [ -115.190883, 36.237493799921999 ], [ -115.1908884, 36.237493799921999 ], [ -115.1908884, 36.237496499922152 ], [ -115.1908965, 36.237496499922152 ], [ -115.1908965, 36.237499199922311 ], [ -115.1909208, 36.237499199922311 ], [ -115.1909208, 36.237501899922464 ], [ -115.1909262, 36.237501899922464 ], [ -115.1909262, 36.237504599922616 ], [ -115.1909316, 36.237504599922616 ], [ -115.1909316, 36.237507299922768 ], [ -115.190937, 36.237507299922768 ], [ -115.190937, 36.237509999922921 ], [ -115.1909397, 36.237509999922921 ], [ -115.1909397, 36.23751269992308 ], [ -115.1909424, 36.23751269992308 ], [ -115.1909424, 36.237518099923385 ], [ -115.1909451, 36.237518099923385 ], [ -115.1909451, 36.237526199923849 ], [ -115.1909478, 36.237526199923849 ], [ -115.1909478, 36.237528899924001 ], [ -115.1909505, 36.237528899924001 ], [ -115.1909505, 36.237531599924154 ], [ -115.1909532, 36.237531599924154 ], [ -115.1909532, 36.237536999924465 ], [ -115.1909559, 36.237536999924465 ], [ -115.1909559, 36.237539699924618 ], [ -115.1909586, 36.237539699924618 ], [ -115.1909586, 36.23754239992477 ], [ -115.1909694, 36.23754239992477 ], [ -115.1909694, 36.237539699924618 ], [ -115.1909748, 36.237539699924618 ], [ -115.1909748, 36.23754239992477 ], [ -115.1909775, 36.23754239992477 ], [ -115.1909775, 36.237545099924922 ], [ -115.1909829, 36.237545099924922 ], [ -115.1909829, 36.23754239992477 ], [ -115.1909964, 36.23754239992477 ], [ -115.1909964, 36.237539699924618 ], [ -115.1910045, 36.237539699924618 ], [ -115.1910045, 36.23754239992477 ], [ -115.1910099, 36.23754239992477 ], [ -115.1910099, 36.237545099924922 ], [ -115.1910153, 36.237545099924922 ], [ -115.1910153, 36.237547799925075 ], [ -115.1910261, 36.237547799925075 ], [ -115.1910261, 36.237550499925234 ], [ -115.1910369, 36.237550499925234 ], [ -115.1910369, 36.237553199925387 ], [ -115.1910504, 36.237553199925387 ], [ -115.1910504, 36.237555899925539 ], [ -115.1910612, 36.237555899925539 ], [ -115.1910612, 36.237558599925691 ], [ -115.191072, 36.237558599925691 ], [ -115.191072, 36.237561299925844 ], [ -115.1910801, 36.237561299925844 ], [ -115.1910801, 36.237563999926003 ], [ -115.1910882, 36.237563999926003 ], [ -115.1910882, 36.237566699926155 ], [ -115.1911017, 36.237566699926155 ], [ -115.1911017, 36.237569399926308 ], [ -115.1911125, 36.237569399926308 ], [ -115.1911125, 36.23757209992646 ], [ -115.1911233, 36.23757209992646 ], [ -115.1911233, 36.237574799926612 ], [ -115.1911314, 36.237574799926612 ], [ -115.1911314, 36.237577499926772 ], [ -115.1911422, 36.237577499926772 ], [ -115.1911422, 36.237580199926924 ], [ -115.191153, 36.237580199926924 ], [ -115.191153, 36.237582899927077 ], [ -115.1911692, 36.237582899927077 ], [ -115.1911692, 36.237585599927229 ], [ -115.19118, 36.237585599927229 ], [ -115.19118, 36.237588299927388 ], [ -115.1911935, 36.237588299927388 ], [ -115.1911935, 36.237590999927541 ], [ -115.1912016, 36.237590999927541 ], [ -115.1912016, 36.237593699927693 ], [ -115.1912124, 36.237593699927693 ], [ -115.1912124, 36.237596399927845 ], [ -115.1912286, 36.237596399927845 ], [ -115.1912286, 36.237599099927998 ], [ -115.1912394, 36.237599099927998 ], [ -115.1912394, 36.237601799928157 ], [ -115.1912799, 36.237601799928157 ], [ -115.1912799, 36.23760449992831 ], [ -115.1912961, 36.23760449992831 ], [ -115.1912961, 36.237607199928462 ], [ -115.1912988, 36.237607199928462 ], [ -115.1912988, 36.237609899928614 ], [ -115.1913069, 36.237609899928614 ], [ -115.1913069, 36.237612599928767 ], [ -115.191315, 36.237612599928767 ], [ -115.191315, 36.237620699929231 ], [ -115.1913204, 36.237620699929231 ], [ -115.1913204, 36.237623399929383 ], [ -115.1913285, 36.237623399929383 ], [ -115.1913285, 36.237626099929535 ], [ -115.1913312, 36.237626099929535 ], [ -115.1913312, 36.237628799929695 ], [ -115.1913339, 36.237628799929695 ], [ -115.1913339, 36.23763419993 ], [ -115.1913393, 36.23763419993 ], [ -115.1913393, 36.237636899930152 ], [ -115.191342, 36.237636899930152 ], [ -115.191342, 36.237639599930311 ], [ -115.1913447, 36.237639599930311 ], [ -115.1913447, 36.23765309993108 ], [ -115.1913474, 36.23765309993108 ], [ -115.1913474, 36.237658499931385 ], [ -115.1913447, 36.237658499931385 ], [ -115.1913447, 36.237669299932001 ], [ -115.191342, 36.237669299932001 ], [ -115.191342, 36.237674699932306 ], [ -115.1913393, 36.237674699932306 ], [ -115.1913393, 36.237680099932618 ], [ -115.1913366, 36.237680099932618 ], [ -115.1913366, 36.237685499932923 ], [ -115.1913339, 36.237685499932923 ], [ -115.1913339, 36.237690899933234 ], [ -115.1913312, 36.237690899933234 ], [ -115.1913312, 36.237693599933387 ], [ -115.1913285, 36.237693599933387 ], [ -115.1913285, 36.237698999933691 ], [ -115.1913258, 36.237698999933691 ], [ -115.1913258, 36.237701699933844 ], [ -115.1913231, 36.237701699933844 ], [ -115.1913231, 36.237704399934003 ], [ -115.1913204, 36.237704399934003 ], [ -115.1913204, 36.237709799934308 ], [ -115.1913177, 36.237709799934308 ], [ -115.1913177, 36.237715199934613 ], [ -115.191315, 36.237715199934613 ], [ -115.191315, 36.237739499935998 ], [ -115.1913123, 36.237739499935998 ], [ -115.1913123, 36.23774489993631 ], [ -115.1913096, 36.23774489993631 ], [ -115.1913096, 36.237752999936767 ], [ -115.1913069, 36.237752999936767 ], [ -115.1913069, 36.237758399937078 ], [ -115.1913042, 36.237758399937078 ], [ -115.1913042, 36.237766499937536 ], [ -115.1913015, 36.237766499937536 ], [ -115.1913015, 36.237771899937847 ], [ -115.1912988, 36.237771899937847 ], [ -115.1912988, 36.237777299938152 ], [ -115.1912961, 36.237777299938152 ], [ -115.1912961, 36.237782699938464 ], [ -115.1912934, 36.237782699938464 ], [ -115.1912934, 36.237785399938616 ], [ -115.1912907, 36.237785399938616 ], [ -115.1912907, 36.237788099938768 ], [ -115.191288, 36.237788099938768 ], [ -115.191288, 36.237790799938921 ], [ -115.1912853, 36.237790799938921 ], [ -115.1912853, 36.23779349993908 ], [ -115.1912745, 36.23779349993908 ], [ -115.1912745, 36.237796199939233 ], [ -115.1912583, 36.237796199939233 ], [ -115.1912583, 36.237798899939385 ] ] ] } },
{ "type": "Feature", "properties": { "value": 255.0 }, "geometry": { "type": "Polygon", "coordinates": [ [ [ -115.1913798, 36.237596399927845 ], [ -115.1913636, 36.237596399927845 ], [ -115.1913636, 36.237593699927693 ], [ -115.1913528, 36.237593699927693 ], [ -115.1913528, 36.237590999927541 ], [ -115.1913447, 36.237590999927541 ], [ -115.1913447, 36.237588299927388 ], [ -115.1913366, 36.237588299927388 ], [ -115.1913366, 36.237585599927229 ], [ -115.1913231, 36.237585599927229 ], [ -115.1913231, 36.237582899927077 ], [ -115.1913123, 36.237582899927077 ], [ -115.1913123, 36.237580199926924 ], [ -115.1913042, 36.237580199926924 ], [ -115.1913042, 36.237577499926772 ], [ -115.1912934, 36.237577499926772 ], [ -115.1912934, 36.237574799926612 ], [ -115.1912826, 36.237574799926612 ], [ -115.1912826, 36.23757209992646 ], [ -115.1912718, 36.23757209992646 ], [ -115.1912718, 36.237569399926308 ], [ -115.1912637, 36.237569399926308 ], [ -115.1912637, 36.237566699926155 ], [ -115.1912556, 36.237566699926155 ], [ -115.1912556, 36.237563999926003 ], [ -115.1912448, 36.237563999926003 ], [ -115.1912448, 36.237561299925844 ], [ -115.1912313, 36.237561299925844 ], [ -115.1912313, 36.237558599925691 ], [ -115.1912259, 36.237558599925691 ], [ -115.1912259, 36.237555899925539 ], [ -115.1912178, 36.237555899925539 ], [ -115.1912178, 36.237553199925387 ], [ -115.191207, 36.237553199925387 ], [ -115.191207, 36.237550499925234 ], [ -115.1911962, 36.237550499925234 ], [ -115.1911962, 36.237547799925075 ], [ -115.1911881, 36.237547799925075 ], [ -115.1911881, 36.237545099924922 ], [ -115.1911773, 36.237545099924922 ], [ -115.1911773, 36.23754239992477 ], [ -115.1911692, 36.23754239992477 ], [ -115.1911692, 36.237539699924618 ], [ -115.1911584, 36.237539699924618 ], [ -115.1911584, 36.237536999924465 ], [ -115.1911503, 36.237536999924465 ], [ -115.1911503, 36.237534299924306 ], [ -115.1911449, 36.237534299924306 ], [ -115.1911449, 36.237531599924154 ], [ -115.1911341, 36.237531599924154 ], [ -115.1911341, 36.237528899924001 ], [ -115.1911233, 36.237528899924001 ], [ -115.1911233, 36.237526199923849 ], [ -115.1911125, 36.237526199923849 ], [ -115.1911125, 36.237523499923689 ], [ -115.1911044, 36.237523499923689 ], [ -115.1911044, 36.237520799923537 ], [ -115.1910936, 36.237520799923537 ], [ -115.1910936, 36.237518099923385 ], [ -115.1910855, 36.237518099923385 ], [ -115.1910855, 36.237515399923232 ], [ -115.1910747, 36.237515399923232 ], [ -115.1910747, 36.23751269992308 ], [ -115.1910693, 36.23751269992308 ], [ -115.1910693, 36.237509999922921 ], [ -115.1910585, 36.237509999922921 ], [ -115.1910585, 36.237507299922768 ], [ -115.1910504, 36.237507299922768 ], [ -115.1910504, 36.237504599922616 ], [ -115.1910369, 36.237504599922616 ], [ -115.1910369, 36.237501899922464 ], [ -115.1910342, 36.237501899922464 ], [ -115.1910342, 36.237488399921695 ], [ -115.1910369, 36.237488399921695 ], [ -115.1910369, 36.237480299921231 ], [ -115.1910396, 36.237480299921231 ], [ -115.1910396, 36.237477599921078 ], [ -115.1910423, 36.237477599921078 ], [ -115.1910423, 36.237469499920614 ], [ -115.191045, 36.237469499920614 ], [ -115.191045, 36.237464099920309 ], [ -115.1910477, 36.237464099920309 ], [ -115.1910477, 36.237461399920157 ], [ -115.1910585, 36.237461399920157 ], [ -115.1910585, 36.237458699919998 ], [ -115.1910612, 36.237458699919998 ], [ -115.1910612, 36.237461399920157 ], [ -115.191072, 36.237461399920157 ], [ -115.191072, 36.237464099920309 ], [ -115.1910801, 36.237464099920309 ], [ -115.1910801, 36.237466799920462 ], [ -115.1910909, 36.237466799920462 ], [ -115.1910909, 36.237469499920614 ], [ -115.191099, 36.237469499920614 ], [ -115.191099, 36.237472199920767 ], [ -115.1911098, 36.237472199920767 ], [ -115.1911098, 36.237474899920926 ], [ -115.1911179, 36.237474899920926 ], [ -115.1911179, 36.237477599921078 ], [ -115.1911287, 36.237477599921078 ], [ -115.1911287, 36.237480299921231 ], [ -115.1911368, 36.237480299921231 ], [ -115.1911368, 36.237482999921383 ], [ -115.1911449, 36.237482999921383 ], [ -115.1911449, 36.237485699921542 ], [ -115.1911557, 36.237485699921542 ], [ -115.1911557, 36.237488399921695 ], [ -115.1911638, 36.237488399921695 ], [ -115.1911638, 36.237491099921847 ], [ -115.1911719, 36.237491099921847 ], [ -115.1911719, 36.237493799921999 ], [ -115.1911854, 36.237493799921999 ], [ -115.1911854, 36.237496499922152 ], [ -115.1911935, 36.237496499922152 ], [ -115.1911935, 36.237499199922311 ], [ -115.1912043, 36.237499199922311 ], [ -115.1912043, 36.237501899922464 ], [ -115.1912151, 36.237501899922464 ], [ -115.1912151, 36.237504599922616 ], [ -115.1912259, 36.237504599922616 ], [ -115.1912259, 36.237507299922768 ], [ -115.191234, 36.237507299922768 ], [ -115.191234, 36.237509999922921 ], [ -115.1912448, 36.237509999922921 ], [ -115.1912448, 36.23751269992308 ], [ -115.1912529, 36.23751269992308 ], [ -115.1912529, 36.237515399923232 ], [ -115.1912637, 36.237515399923232 ], [ -115.1912637, 36.237518099923385 ], [ -115.1912745, 36.237518099923385 ], [ -115.1912745, 36.237520799923537 ], [ -115.1912853, 36.237520799923537 ], [ -115.1912853, 36.237523499923689 ], [ -115.1912961, 36.237523499923689 ], [ -115.1912961, 36.237526199923849 ], [ -115.1913042, 36.237526199923849 ], [ -115.1913042, 36.237528899924001 ], [ -115.191315, 36.237528899924001 ], [ -115.191315, 36.237531599924154 ], [ -115.1913231, 36.237531599924154 ], [ -115.1913231, 36.237534299924306 ], [ -115.1913312, 36.237534299924306 ], [ -115.1913312, 36.237536999924465 ], [ -115.191342, 36.237536999924465 ], [ -115.191342, 36.237539699924618 ], [ -115.1913528, 36.237539699924618 ], [ -115.1913528, 36.23754239992477 ], [ -115.1913609, 36.23754239992477 ], [ -115.1913609, 36.237545099924922 ], [ -115.191369, 36.237545099924922 ], [ -115.191369, 36.237547799925075 ], [ -115.1913771, 36.237547799925075 ], [ -115.1913771, 36.237550499925234 ], [ -115.1913825, 36.237550499925234 ], [ -115.1913825, 36.237553199925387 ], [ -115.1913933, 36.237553199925387 ], [ -115.1913933, 36.237558599925691 ], [ -115.191396, 36.237558599925691 ], [ -115.191396, 36.237569399926308 ], [ -115.1913933, 36.237569399926308 ], [ -115.1913933, 36.23757209992646 ], [ -115.1913906, 36.23757209992646 ], [ -115.1913906, 36.237577499926772 ], [ -115.1913879, 36.237577499926772 ], [ -115.1913879, 36.237580199926924 ], [ -115.1913852, 36.237580199926924 ], [ -115.1913852, 36.237585599927229 ], [ -115.1913825, 36.237585599927229 ], [ -115.1913825, 36.237590999927541 ], [ -115.1913798, 36.237590999927541 ], [ -115.1913798, 36.237596399927845 ] ] ] } },
{ "type": "Feature", "properties": { "value": 255.0 }, "geometry": { "type": "Polygon", "coordinates": [ [ [ -115.1909964, 36.237423599918003 ], [ -115.1909829, 36.237423599918003 ], [ -115.1909829, 36.237420899917844 ], [ -115.1909721, 36.237420899917844 ], [ -115.1909721, 36.237418199917691 ], [ -115.1909694, 36.237418199917691 ], [ -115.1909694, 36.237399299916618 ], [ -115.1909721, 36.237399299916618 ], [ -115.1909721, 36.237391199916154 ], [ -115.1909748, 36.237391199916154 ], [ -115.1909748, 36.237385799915849 ], [ -115.1909775, 36.237385799915849 ], [ -115.1909775, 36.237383099915689 ], [ -115.190991, 36.237383099915689 ], [ -115.190991, 36.237385799915849 ], [ -115.1910045, 36.237385799915849 ], [ -115.1910045, 36.237388499916001 ], [ -115.1910072, 36.237388499916001 ], [ -115.1910072, 36.237393899916306 ], [ -115.1910045, 36.237393899916306 ], [ -115.1910045, 36.237404699916922 ], [ -115.1910018, 36.237404699916922 ], [ -115.1910018, 36.237412799917387 ], [ -115.1909991, 36.237412799917387 ], [ -115.1909991, 36.237420899917844 ], [ -115.1909964, 36.237420899917844 ], [ -115.1909964, 36.237423599918003 ] ] ] } },
{ "type": "Feature", "properties": { "value": 255.0 }, "geometry": { "type": "Polygon", "coordinates": [ [ [ -115.1913177, 36.237455999919845 ], [ -115.1913015, 36.237455999919845 ], [ -115.1913015, 36.237453299919693 ], [ -115.191288, 36.237453299919693 ], [ -115.191288, 36.237450599919541 ], [ -115.1912745, 36.237450599919541 ], [ -115.1912745, 36.237447899919388 ], [ -115.1912637, 36.237447899919388 ], [ -115.1912637, 36.237445199919229 ], [ -115.1912556, 36.237445199919229 ], [ -115.1912556, 36.237442499919077 ], [ -115.1912448, 36.237442499919077 ], [ -115.1912448, 36.237439799918924 ], [ -115.191234, 36.237439799918924 ], [ -115.191234, 36.237437099918772 ], [ -115.1912259, 36.237437099918772 ], [ -115.1912259, 36.237434399918619 ], [ -115.1912151, 36.237434399918619 ], [ -115.1912151, 36.23743169991846 ], [ -115.1912043, 36.23743169991846 ], [ -115.1912043, 36.237428999918308 ], [ -115.1911962, 36.237428999918308 ], [ -115.1911962, 36.237426299918155 ], [ -115.1911881, 36.237426299918155 ], [ -115.1911881, 36.237423599918003 ], [ -115.1911773, 36.237423599918003 ], [ -115.1911773, 36.237420899917844 ], [ -115.1911665, 36.237420899917844 ], [ -115.1911665, 36.237418199917691 ], [ -115.1911584, 36.237418199917691 ], [ -115.1911584, 36.237415499917539 ], [ -115.1911503, 36.237415499917539 ], [ -115.1911503, 36.237412799917387 ], [ -115.1911422, 36.237412799917387 ], [ -115.1911422, 36.237410099917234 ], [ -115.1911314, 36.237410099917234 ], [ -115.1911314, 36.237407399917075 ], [ -115.1911233, 36.237407399917075 ], [ -115.1911233, 36.237404699916922 ], [ -115.1911152, 36.237404699916922 ], [ -115.1911152, 36.23740199991677 ], [ -115.1911071, 36.23740199991677 ], [ -115.1911071, 36.237399299916618 ], [ -115.1910963, 36.237399299916618 ], [ -115.1910963, 36.237396599916465 ], [ -115.1910909, 36.237396599916465 ], [ -115.1910909, 36.237393899916306 ], [ -115.1910882, 36.237393899916306 ], [ -115.1910882, 36.237383099915689 ], [ -115.1910909, 36.237383099915689 ], [ -115.1910909, 36.237377699915385 ], [ -115.1910936, 36.237377699915385 ], [ -115.1910936, 36.23737229991508 ], [ -115.1910963, 36.23737229991508 ], [ -115.1910963, 36.237366899914768 ], [ -115.191099, 36.237366899914768 ], [ -115.191099, 36.237358799914311 ], [ -115.1911017, 36.237358799914311 ], [ -115.1911017, 36.237356099914152 ], [ -115.1911044, 36.237356099914152 ], [ -115.1911044, 36.237353399913999 ], [ -115.1911179, 36.237353399913999 ], [ -115.1911179, 36.237356099914152 ], [ -115.1911314, 36.237356099914152 ], [ -115.1911314, 36.237358799914311 ], [ -115.1911449, 36.237358799914311 ], [ -115.1911449, 36.237361499914464 ], [ -115.191153, 36.237361499914464 ], [ -115.191153, 36.237364199914616 ], [ -115.1911611, 36.237364199914616 ], [ -115.1911611, 36.237366899914768 ], [ -115.1911665, 36.237366899914768 ], [ -115.1911665, 36.237369599914921 ], [ -115.1911746, 36.237369599914921 ], [ -115.1911746, 36.23737229991508 ], [ -115.1911827, 36.23737229991508 ], [ -115.1911827, 36.237374999915232 ], [ -115.1911908, 36.237374999915232 ], [ -115.1911908, 36.237377699915385 ], [ -115.1912016, 36.237377699915385 ], [ -115.1912016, 36.237380399915537 ], [ -115.1912097, 36.237380399915537 ], [ -115.1912097, 36.237383099915689 ], [ -115.1912205, 36.237383099915689 ], [ -115.1912205, 36.237385799915849 ], [ -115.191234, 36.237385799915849 ], [ -115.191234, 36.237388499916001 ], [ -115.1912556, 36.237388499916001 ], [ -115.1912556, 36.237391199916154 ], [ -115.1912745, 36.237391199916154 ], [ -115.1912745, 36.237393899916306 ], [ -115.1912853, 36.237393899916306 ], [ -115.1912853, 36.237396599916465 ], [ -115.1912907, 36.237396599916465 ], [ -115.1912907, 36.237399299916618 ], [ -115.1912988, 36.237399299916618 ], [ -115.1912988, 36.23740199991677 ], [ -115.191315, 36.23740199991677 ], [ -115.191315, 36.237404699916922 ], [ -115.1913177, 36.237404699916922 ], [ -115.1913177, 36.237407399917075 ], [ -115.1913258, 36.237407399917075 ], [ -115.1913258, 36.237410099917234 ], [ -115.1913312, 36.237410099917234 ], [ -115.1913312, 36.237412799917387 ], [ -115.1913339, 36.237412799917387 ], [ -115.1913339, 36.237423599918003 ], [ -115.1913312, 36.237423599918003 ], [ -115.1913312, 36.237439799918924 ], [ -115.1913285, 36.237439799918924 ], [ -115.1913285, 36.237442499919077 ], [ -115.1913258, 36.237442499919077 ], [ -115.1913258, 36.237447899919388 ], [ -115.1913231, 36.237447899919388 ], [ -115.1913231, 36.237453299919693 ], [ -115.1913177, 36.237453299919693 ], [ -115.1913177, 36.237455999919845 ] ] ] } },
{ "type": "Feature", "properties": { "value": 255.0 }, "geometry": { "type": "Polygon", "coordinates": [ [ [ -115.1916849, 36.237466799920462 ], [ -115.1916417, 36.237466799920462 ], [ -115.1916417, 36.237464099920309 ], [ -115.1916363, 36.237464099920309 ], [ -115.1916363, 36.237461399920157 ], [ -115.191633599999989, 36.237461399920157 ], [ -115.191633599999989, 36.237453299919693 ], [ -115.1916309, 36.237453299919693 ], [ -115.1916309, 36.237439799918924 ], [ -115.1916228, 36.237439799918924 ], [ -115.1916228, 36.237442499919077 ], [ -115.1916201, 36.237442499919077 ], [ -115.1916201, 36.237450599919541 ], [ -115.1916174, 36.237450599919541 ], [ -115.1916174, 36.237455999919845 ], [ -115.191612, 36.237455999919845 ], [ -115.191612, 36.237458699919998 ], [ -115.191585, 36.237458699919998 ], [ -115.191585, 36.237455999919845 ], [ -115.1915742, 36.237455999919845 ], [ -115.1915742, 36.237453299919693 ], [ -115.1915634, 36.237453299919693 ], [ -115.1915634, 36.237450599919541 ], [ -115.1915553, 36.237450599919541 ], [ -115.1915553, 36.237447899919388 ], [ -115.1915526, 36.237447899919388 ], [ -115.1915526, 36.237445199919229 ], [ -115.1915499, 36.237445199919229 ], [ -115.1915499, 36.237442499919077 ], [ -115.1915472, 36.237442499919077 ], [ -115.1915472, 36.237434399918619 ], [ -115.1915445, 36.237434399918619 ], [ -115.1915445, 36.237407399917075 ], [ -115.1915391, 36.237407399917075 ], [ -115.1915391, 36.237404699916922 ], [ -115.1915256, 36.237404699916922 ], [ -115.1915256, 36.237407399917075 ], [ -115.1915229, 36.237407399917075 ], [ -115.1915229, 36.237410099917234 ], [ -115.1915202, 36.237410099917234 ], [ -115.1915202, 36.237412799917387 ], [ -115.191517499999989, 36.237412799917387 ], [ -115.191517499999989, 36.237420899917844 ], [ -115.1915148, 36.237420899917844 ], [ -115.1915148, 36.237426299918155 ], [ -115.1915121, 36.237426299918155 ], [ -115.1915121, 36.237428999918308 ], [ -115.1914851, 36.237428999918308 ], [ -115.1914851, 36.237426299918155 ], [ -115.1914743, 36.237426299918155 ], [ -115.1914743, 36.237423599918003 ], [ -115.1914635, 36.237423599918003 ], [ -115.1914635, 36.237420899917844 ], [ -115.1914554, 36.237420899917844 ], [ -115.1914554, 36.237418199917691 ], [ -115.1914527, 36.237418199917691 ], [ -115.1914527, 36.237415499917539 ], [ -115.19145, 36.237415499917539 ], [ -115.19145, 36.237412799917387 ], [ -115.1914473, 36.237412799917387 ], [ -115.1914473, 36.237410099917234 ], [ -115.1914446, 36.237410099917234 ], [ -115.1914446, 36.23740199991677 ], [ -115.1914419, 36.23740199991677 ], [ -115.1914419, 36.237399299916618 ], [ -115.1914392, 36.237399299916618 ], [ -115.1914392, 36.237396599916465 ], [ -115.1914311, 36.237396599916465 ], [ -115.1914311, 36.237393899916306 ], [ -115.191423, 36.237393899916306 ], [ -115.191423, 36.237391199916154 ], [ -115.1914203, 36.237391199916154 ], [ -115.1914203, 36.237385799915849 ], [ -115.1914176, 36.237385799915849 ], [ -115.1914176, 36.237361499914464 ], [ -115.1914203, 36.237361499914464 ], [ -115.1914203, 36.237358799914311 ], [ -115.191423, 36.237358799914311 ], [ -115.191423, 36.237356099914152 ], [ -115.1914257, 36.237356099914152 ], [ -115.1914257, 36.237353399913999 ], [ -115.1914311, 36.237353399913999 ], [ -115.1914311, 36.237350699913847 ], [ -115.1914365, 36.237350699913847 ], [ -115.1914365, 36.237347999913695 ], [ -115.1914392, 36.237347999913695 ], [ -115.1914392, 36.237334499912926 ], [ -115.1914419, 36.237334499912926 ], [ -115.1914419, 36.237299399910924 ], [ -115.1914446, 36.237299399910924 ], [ -115.1914446, 36.237293999910619 ], [ -115.1914419, 36.237293999910619 ], [ -115.1914419, 36.237285899910155 ], [ -115.1914446, 36.237285899910155 ], [ -115.1914446, 36.237283199910003 ], [ -115.1914527, 36.237283199910003 ], [ -115.1914527, 36.237280499909843 ], [ -115.1914608, 36.237280499909843 ], [ -115.1914608, 36.237277799909691 ], [ -115.191477, 36.237277799909691 ], [ -115.191477, 36.237275099909539 ], [ -115.1914797, 36.237275099909539 ], [ -115.1914797, 36.237272399909386 ], [ -115.1914851, 36.237272399909386 ], [ -115.1914851, 36.237275099909539 ], [ -115.1914986, 36.237275099909539 ], [ -115.1914986, 36.237272399909386 ], [ -115.191504, 36.237272399909386 ], [ -115.191504, 36.237266999909075 ], [ -115.1915067, 36.237266999909075 ], [ -115.1915067, 36.237258899908618 ], [ -115.1915121, 36.237258899908618 ], [ -115.1915121, 36.237256199908465 ], [ -115.1915256, 36.237256199908465 ], [ -115.1915256, 36.237253499908306 ], [ -115.1915499, 36.237253499908306 ], [ -115.1915499, 36.237256199908465 ], [ -115.1915634, 36.237256199908465 ], [ -115.1915634, 36.237258899908618 ], [ -115.1915769, 36.237258899908618 ], [ -115.1915769, 36.23726159990877 ], [ -115.1915877, 36.23726159990877 ], [ -115.1915877, 36.237264299908922 ], [ -115.191612, 36.237264299908922 ], [ -115.191612, 36.237266999909075 ], [ -115.1916228, 36.237266999909075 ], [ -115.1916228, 36.237269699909234 ], [ -115.1916255, 36.237269699909234 ], [ -115.1916255, 36.237272399909386 ], [ -115.1916309, 36.237272399909386 ], [ -115.1916309, 36.237275099909539 ], [ -115.1916471, 36.237275099909539 ], [ -115.1916471, 36.237277799909691 ], [ -115.191652499999989, 36.237277799909691 ], [ -115.191652499999989, 36.237283199910003 ], [ -115.1916741, 36.237283199910003 ], [ -115.1916741, 36.237285899910155 ], [ -115.1916876, 36.237285899910155 ], [ -115.1916876, 36.237464099920309 ], [ -115.1916849, 36.237464099920309 ], [ -115.1916849, 36.237466799920462 ] ], [ [ -115.1915229, 36.237264299908922 ], [ -115.1915229, 36.23726159990877 ], [ -115.191517499999989, 36.23726159990877 ], [ -115.191517499999989, 36.237264299908922 ], [ -115.1915229, 36.237264299908922 ] ] ] } },
{ "type": "Feature", "properties": { "value": 255.0 }, "geometry": { "type": "Polygon", "coordinates": [ [ [ -115.1912475, 36.237326399912462 ], [ -115.1912313, 36.237326399912462 ], [ -115.1912313, 36.237323699912309 ], [ -115.1912151, 36.237323699912309 ], [ -115.1912151, 36.237320999912157 ], [ -115.1912097, 36.237320999912157 ], [ -115.1912097, 36.237318299911998 ], [ -115.191207, 36.237318299911998 ], [ -115.191207, 36.237315599911845 ], [ -115.1912016, 36.237315599911845 ], [ -115.1912016, 36.237312899911693 ], [ -115.1911962, 36.237312899911693 ], [ -115.1911962, 36.237310199911541 ], [ -115.1911908, 36.237310199911541 ], [ -115.1911908, 36.237307499911388 ], [ -115.1911881, 36.237307499911388 ], [ -115.1911881, 36.237304799911229 ], [ -115.1911854, 36.237304799911229 ], [ -115.1911854, 36.237302099911076 ], [ -115.1911827, 36.237302099911076 ], [ -115.1911827, 36.237299399910924 ], [ -115.19118, 36.237299399910924 ], [ -115.19118, 36.237296699910772 ], [ -115.1911746, 36.237296699910772 ], [ -115.1911746, 36.237293999910619 ], [ -115.1911692, 36.237293999910619 ], [ -115.1911692, 36.23729129991046 ], [ -115.1911638, 36.23729129991046 ], [ -115.1911638, 36.237288599910308 ], [ -115.1911584, 36.237288599910308 ], [ -115.1911584, 36.237285899910155 ], [ -115.191153, 36.237285899910155 ], [ -115.191153, 36.237283199910003 ], [ -115.1911449, 36.237283199910003 ], [ -115.1911449, 36.237280499909843 ], [ -115.1911314, 36.237280499909843 ], [ -115.1911314, 36.237277799909691 ], [ -115.1911206, 36.237277799909691 ], [ -115.1911206, 36.237275099909539 ], [ -115.1911125, 36.237275099909539 ], [ -115.1911125, 36.237272399909386 ], [ -115.1911071, 36.237272399909386 ], [ -115.1911071, 36.237269699909234 ], [ -115.1911017, 36.237269699909234 ], [ -115.1911017, 36.237266999909075 ], [ -115.1910936, 36.237266999909075 ], [ -115.1910936, 36.237264299908922 ], [ -115.1910882, 36.237264299908922 ], [ -115.1910882, 36.23726159990877 ], [ -115.1910855, 36.23726159990877 ], [ -115.1910855, 36.237258899908618 ], [ -115.1910828, 36.237258899908618 ], [ -115.1910828, 36.237256199908465 ], [ -115.1910774, 36.237256199908465 ], [ -115.1910774, 36.237253499908306 ], [ -115.1910747, 36.237253499908306 ], [ -115.1910747, 36.237250799908153 ], [ -115.1910693, 36.237250799908153 ], [ -115.1910693, 36.237248099908001 ], [ -115.1910666, 36.237248099908001 ], [ -115.1910666, 36.237245399907849 ], [ -115.1910639, 36.237245399907849 ], [ -115.1910639, 36.237242699907696 ], [ -115.1910612, 36.237242699907696 ], [ -115.1910612, 36.237237299907385 ], [ -115.1910585, 36.237237299907385 ], [ -115.1910585, 36.23722919990692 ], [ -115.1910558, 36.23722919990692 ], [ -115.1910558, 36.237226499906768 ], [ -115.1910585, 36.237226499906768 ], [ -115.1910585, 36.237221099906463 ], [ -115.1910612, 36.237221099906463 ], [ -115.1910612, 36.237215699906152 ], [ -115.1910639, 36.237215699906152 ], [ -115.1910639, 36.237212999905999 ], [ -115.1910666, 36.237212999905999 ], [ -115.1910666, 36.237207599905695 ], [ -115.1910693, 36.237207599905695 ], [ -115.1910693, 36.237204899905542 ], [ -115.191072, 36.237204899905542 ], [ -115.191072, 36.237196799905078 ], [ -115.1910747, 36.237196799905078 ], [ -115.1910747, 36.237191399904773 ], [ -115.1910774, 36.237191399904773 ], [ -115.1910774, 36.237188699904614 ], [ -115.1910801, 36.237188699904614 ], [ -115.1910801, 36.237183299904309 ], [ -115.1910828, 36.237183299904309 ], [ -115.1910828, 36.237180599904157 ], [ -115.1910855, 36.237180599904157 ], [ -115.1910855, 36.237177899903998 ], [ -115.1910882, 36.237177899903998 ], [ -115.1910882, 36.237175199903845 ], [ -115.1910909, 36.237175199903845 ], [ -115.1910909, 36.237172499903693 ], [ -115.1910936, 36.237172499903693 ], [ -115.1910936, 36.237167099903388 ], [ -115.1910963, 36.237167099903388 ], [ -115.1910963, 36.237164399903229 ], [ -115.191099, 36.237164399903229 ], [ -115.191099, 36.237161699903076 ], [ -115.1911017, 36.237161699903076 ], [ -115.1911017, 36.237158999902924 ], [ -115.1911044, 36.237158999902924 ], [ -115.1911044, 36.237153599902619 ], [ -115.1911071, 36.237153599902619 ], [ -115.1911071, 36.23715089990246 ], [ -115.1911098, 36.23715089990246 ], [ -115.1911098, 36.237145499902155 ], [ -115.1911152, 36.237145499902155 ], [ -115.1911152, 36.237142799902003 ], [ -115.1911206, 36.237142799902003 ], [ -115.1911206, 36.23714009990185 ], [ -115.1911233, 36.23714009990185 ], [ -115.1911233, 36.237137399901691 ], [ -115.191126, 36.237137399901691 ], [ -115.191126, 36.237134699901539 ], [ -115.1911314, 36.237134699901539 ], [ -115.1911314, 36.23714009990185 ], [ -115.1911341, 36.23714009990185 ], [ -115.1911341, 36.237131999901386 ], [ -115.1911368, 36.237131999901386 ], [ -115.1911368, 36.23712119990077 ], [ -115.1911341, 36.23712119990077 ], [ -115.1911341, 36.237118499900618 ], [ -115.1911314, 36.237118499900618 ], [ -115.1911314, 36.237115799900465 ], [ -115.1911341, 36.237115799900465 ], [ -115.1911341, 36.237110399900153 ], [ -115.1911314, 36.237110399900153 ], [ -115.1911314, 36.237107699900001 ], [ -115.1914041, 36.237107699900001 ], [ -115.1914041, 36.237118499900618 ], [ -115.1914014, 36.237118499900618 ], [ -115.1914014, 36.237123899900922 ], [ -115.1913987, 36.237123899900922 ], [ -115.1913987, 36.237126599901075 ], [ -115.1913933, 36.237126599901075 ], [ -115.1913933, 36.237129299901234 ], [ -115.1913906, 36.237129299901234 ], [ -115.1913906, 36.237131999901386 ], [ -115.1913879, 36.237131999901386 ], [ -115.1913879, 36.237134699901539 ], [ -115.1913852, 36.237134699901539 ], [ -115.1913852, 36.23714009990185 ], [ -115.1913825, 36.23714009990185 ], [ -115.1913825, 36.237142799902003 ], [ -115.1913798, 36.237142799902003 ], [ -115.1913798, 36.237145499902155 ], [ -115.1913771, 36.237145499902155 ], [ -115.1913771, 36.23715089990246 ], [ -115.1913744, 36.23715089990246 ], [ -115.1913744, 36.237156299902772 ], [ -115.1913717, 36.237156299902772 ], [ -115.1913717, 36.237158999902924 ], [ -115.191369, 36.237158999902924 ], [ -115.191369, 36.237164399903229 ], [ -115.1913663, 36.237164399903229 ], [ -115.1913663, 36.237167099903388 ], [ -115.1913636, 36.237167099903388 ], [ -115.1913636, 36.23716979990354 ], [ -115.1913609, 36.23716979990354 ], [ -115.1913609, 36.237175199903845 ], [ -115.1913582, 36.237175199903845 ], [ -115.1913582, 36.237177899903998 ], [ -115.1913555, 36.237177899903998 ], [ -115.1913555, 36.237180599904157 ], [ -115.1913528, 36.237180599904157 ], [ -115.1913528, 36.237183299904309 ], [ -115.1913501, 36.237183299904309 ], [ -115.1913501, 36.237185999904462 ], [ -115.1913474, 36.237185999904462 ], [ -115.1913474, 36.237188699904614 ], [ -115.1913447, 36.237188699904614 ], [ -115.1913447, 36.237191399904773 ], [ -115.191342, 36.237191399904773 ], [ -115.191342, 36.237194099904926 ], [ -115.1913393, 36.237194099904926 ], [ -115.1913393, 36.23719949990523 ], [ -115.191315, 36.23719949990523 ], [ -115.191315, 36.237196799905078 ], [ -115.1913069, 36.237196799905078 ], [ -115.1913069, 36.23719949990523 ], [ -115.1913042, 36.23719949990523 ], [ -115.1913042, 36.237202199905383 ], [ -115.1913015, 36.237202199905383 ], [ -115.1913015, 36.237204899905542 ], [ -115.1912961, 36.237204899905542 ], [ -115.1912961, 36.237210299905847 ], [ -115.1912934, 36.237210299905847 ], [ -115.1912934, 36.237215699906152 ], [ -115.1912907, 36.237215699906152 ], [ -115.1912907, 36.237221099906463 ], [ -115.191288, 36.237221099906463 ], [ -115.191288, 36.237226499906768 ], [ -115.1912853, 36.237226499906768 ], [ -115.1912853, 36.237237299907385 ], [ -115.191288, 36.237237299907385 ], [ -115.191288, 36.237239999907537 ], [ -115.1912907, 36.237239999907537 ], [ -115.1912907, 36.237253499908306 ], [ -115.1912934, 36.237253499908306 ], [ -115.1912934, 36.237258899908618 ], [ -115.1912907, 36.237258899908618 ], [ -115.1912907, 36.237266999909075 ], [ -115.191288, 36.237266999909075 ], [ -115.191288, 36.237272399909386 ], [ -115.1912853, 36.237272399909386 ], [ -115.1912853, 36.237302099911076 ], [ -115.1912826, 36.237302099911076 ], [ -115.1912826, 36.237304799911229 ], [ -115.1912772, 36.237304799911229 ], [ -115.1912772, 36.237307499911388 ], [ -115.1912718, 36.237307499911388 ], [ -115.1912718, 36.237310199911541 ], [ -115.1912664, 36.237310199911541 ], [ -115.1912664, 36.237312899911693 ], [ -115.1912637, 36.237312899911693 ], [ -115.1912637, 36.237315599911845 ], [ -115.1912583, 36.237315599911845 ], [ -115.1912583, 36.237318299911998 ], [ -115.1912556, 36.237318299911998 ], [ -115.1912556, 36.237320999912157 ], [ -115.1912529, 36.237320999912157 ], [ -115.1912529, 36.237323699912309 ], [ -115.1912475, 36.237323699912309 ], [ -115.1912475, 36.237326399912462 ] ] ] } }
]
}
