{
"type": "FeatureCollection",
"crs": { "type": "name", "properties": { "name": "urn:ogc:def:crs:OGC:1.3:CRS84" } },
"features": [
{ "type": "Feature", "properties": { "value": 255.0 }, "geometry": { "type": "Polygon", "coordinates": [ [ [ -115.1798292, 36.137072699699999 ], [ -115.1796699, 36.137072699699999 ], [ -115.1796699, 36.137064599699997 ], [ -115.1796672, 36.137064599699997 ], [ -115.1796672, 36.137051099700003 ], [ -115.1796699, 36.137051099700003 ], [ -115.1796699, 36.137040299699997 ], [ -115.1796672, 36.137040299699997 ], [ -115.1796672, 36.137034899699998 ], [ -115.1796699, 36.137034899699998 ], [ -115.1796699, 36.1370186997 ], [ -115.1796726, 36.1370186997 ], [ -115.1796726, 36.136991699699998 ], [ -115.1796753, 36.136991699699998 ], [ -115.1796753, 36.136986299699998 ], [ -115.1796807, 36.136986299699998 ], [ -115.1796807, 36.136983599700002 ], [ -115.1796861, 36.136983599700002 ], [ -115.1796861, 36.136980899699999 ], [ -115.1796942, 36.136980899699999 ], [ -115.1796942, 36.136978199699996 ], [ -115.1796996, 36.136978199699996 ], [ -115.1796996, 36.136980899699999 ], [ -115.1797104, 36.136980899699999 ], [ -115.1797104, 36.136978199699996 ], [ -115.1797131, 36.136978199699996 ], [ -115.1797131, 36.1369754997 ], [ -115.1797185, 36.1369754997 ], [ -115.1797185, 36.136972799699997 ], [ -115.1797293, 36.136972799699997 ], [ -115.1797293, 36.1369754997 ], [ -115.179732, 36.1369754997 ], [ -115.179732, 36.136978199699996 ], [ -115.1797347, 36.136978199699996 ], [ -115.1797347, 36.1369754997 ], [ -115.1797428, 36.1369754997 ], [ -115.1797428, 36.136978199699996 ], [ -115.1797617, 36.136978199699996 ], [ -115.1797617, 36.1369754997 ], [ -115.1797752, 36.1369754997 ], [ -115.1797752, 36.137005199699999 ], [ -115.179786, 36.137005199699999 ], [ -115.179786, 36.137007899700002 ], [ -115.1797968, 36.137007899700002 ], [ -115.1797968, 36.1370240997 ], [ -115.1797995, 36.1370240997 ], [ -115.1797995, 36.137048399699999 ], [ -115.1798049, 36.137048399699999 ], [ -115.1798049, 36.137051099700003 ], [ -115.1798103, 36.137051099700003 ], [ -115.1798103, 36.137053799699999 ], [ -115.1798211, 36.137053799699999 ], [ -115.1798211, 36.137056499700002 ], [ -115.1798265, 36.137056499700002 ], [ -115.1798265, 36.137059199699998 ], [ -115.1798238, 36.137059199699998 ], [ -115.1798238, 36.137061899700001 ], [ -115.1798265, 36.137061899700001 ], [ -115.1798265, 36.137064599699997 ], [ -115.1798373, 36.137064599699997 ], [ -115.1798373, 36.1370672997 ], [ -115.1798346, 36.1370672997 ], [ -115.1798346, 36.137069999699996 ], [ -115.1798292, 36.137069999699996 ], [ -115.1798292, 36.137072699699999 ] ] ] } },
{ "type": "Feature", "properties": { "value": 255.0 }, "geometry": { "type": "Polygon", "coordinates": [ [ [ -115.179948, 36.137072699699999 ], [ -115.1798508, 36.137072699699999 ], [ -115.1798508, 36.137069999699996 ], [ -115.1798481, 36.137069999699996 ], [ -115.1798481, 36.137061899700001 ], [ -115.1798508, 36.137061899700001 ], [ -115.1798508, 36.137059199699998 ], [ -115.1798535, 36.137059199699998 ], [ -115.1798535, 36.137056499700002 ], [ -115.1798562, 36.137056499700002 ], [ -115.1798562, 36.137053799699999 ], [ -115.1798535, 36.137053799699999 ], [ -115.1798535, 36.137048399699999 ], [ -115.1798589, 36.137048399699999 ], [ -115.1798589, 36.1370429997 ], [ -115.1798292, 36.1370429997 ], [ -115.1798292, 36.137040299699997 ], [ -115.1798157, 36.137040299699997 ], [ -115.1798157, 36.137037599700001 ], [ -115.179813, 36.137037599700001 ], [ -115.179813, 36.137010599699998 ], [ -115.1798157, 36.137010599699998 ], [ -115.1798157, 36.136997099699997 ], [ -115.1798184, 36.136997099699997 ], [ -115.1798184, 36.136994399700001 ], [ -115.1798481, 36.136994399700001 ], [ -115.1798481, 36.136991699699998 ], [ -115.17986160000001, 36.136991699699998 ], [ -115.17986160000001, 36.136988999700002 ], [ -115.1799183, 36.136988999700002 ], [ -115.1799183, 36.136986299699998 ], [ -115.1799237, 36.136986299699998 ], [ -115.1799237, 36.136988999700002 ], [ -115.1799264, 36.136988999700002 ], [ -115.1799264, 36.136991699699998 ], [ -115.17992910000001, 36.136991699699998 ], [ -115.17992910000001, 36.1369997997 ], [ -115.1799264, 36.1369997997 ], [ -115.1799264, 36.137005199699999 ], [ -115.17992910000001, 36.137005199699999 ], [ -115.17992910000001, 36.137007899700002 ], [ -115.1799318, 36.137007899700002 ], [ -115.1799318, 36.137013299700001 ], [ -115.1799345, 36.137013299700001 ], [ -115.1799345, 36.137026799700003 ], [ -115.1799372, 36.137026799700003 ], [ -115.1799372, 36.137029499699999 ], [ -115.1799399, 36.137029499699999 ], [ -115.1799399, 36.137034899699998 ], [ -115.1799426, 36.137034899699998 ], [ -115.1799426, 36.137037599700001 ], [ -115.1799534, 36.137037599700001 ], [ -115.1799534, 36.137040299699997 ], [ -115.1799507, 36.137040299699997 ], [ -115.1799507, 36.137048399699999 ], [ -115.1799534, 36.137048399699999 ], [ -115.1799534, 36.137051099700003 ], [ -115.1799588, 36.137051099700003 ], [ -115.1799588, 36.137061899700001 ], [ -115.1799507, 36.137061899700001 ], [ -115.1799507, 36.137064599699997 ], [ -115.179948, 36.137064599699997 ], [ -115.179948, 36.137072699699999 ] ], [ [ -115.1799453, 36.137051099700003 ], [ -115.1799453, 36.1370429997 ], [ -115.1799426, 36.1370429997 ], [ -115.1799426, 36.137040299699997 ], [ -115.1799399, 36.137040299699997 ], [ -115.1799399, 36.137051099700003 ], [ -115.1799453, 36.137051099700003 ] ] ] } },
{ "type": "Feature", "properties": { "value": 255.0 }, "geometry": { "type": "Polygon", "coordinates": [ [ [ -115.1811576, 36.137072699699999 ], [ -115.18046910000001, 36.137072699699999 ], [ -115.18046910000001, 36.137045699699996 ], [ -115.1804664, 36.137045699699996 ], [ -115.1804664, 36.137037599700001 ], [ -115.18046910000001, 36.137037599700001 ], [ -115.18046910000001, 36.137032199700002 ], [ -115.1804718, 36.137032199700002 ], [ -115.1804718, 36.137029499699999 ], [ -115.18046910000001, 36.137029499699999 ], [ -115.18046910000001, 36.1370240997 ], [ -115.1804718, 36.1370240997 ], [ -115.1804718, 36.137013299700001 ], [ -115.1804745, 36.137013299700001 ], [ -115.1804745, 36.136978199699996 ], [ -115.1804799, 36.136978199699996 ], [ -115.1804799, 36.1369754997 ], [ -115.1804853, 36.1369754997 ], [ -115.1804853, 36.136972799699997 ], [ -115.1805096, 36.136972799699997 ], [ -115.1805096, 36.136970099700001 ], [ -115.1805231, 36.136970099700001 ], [ -115.1805231, 36.136967399699998 ], [ -115.1805474, 36.136967399699998 ], [ -115.1805474, 36.136964699700002 ], [ -115.1805636, 36.136964699700002 ], [ -115.1805636, 36.136967399699998 ], [ -115.1805717, 36.136967399699998 ], [ -115.1805717, 36.136964699700002 ], [ -115.1805771, 36.136964699700002 ], [ -115.1805771, 36.136967399699998 ], [ -115.180604100000011, 36.136967399699998 ], [ -115.180604100000011, 36.136964699700002 ], [ -115.180623, 36.136964699700002 ], [ -115.180623, 36.136961999699999 ], [ -115.1806824, 36.136961999699999 ], [ -115.1806824, 36.136959299700003 ], [ -115.1806878, 36.136959299700003 ], [ -115.1806878, 36.1369565997 ], [ -115.1806959, 36.1369565997 ], [ -115.1806959, 36.136953899699996 ], [ -115.1807742, 36.136953899699996 ], [ -115.1807742, 36.1369565997 ], [ -115.1807823, 36.1369565997 ], [ -115.1807823, 36.136959299700003 ], [ -115.1808282, 36.136959299700003 ], [ -115.1808282, 36.1369565997 ], [ -115.1808309, 36.1369565997 ], [ -115.1808309, 36.136959299700003 ], [ -115.18083630000001, 36.136959299700003 ], [ -115.18083630000001, 36.1369565997 ], [ -115.1808417, 36.1369565997 ], [ -115.1808417, 36.136959299700003 ], [ -115.1808633, 36.136959299700003 ], [ -115.1808633, 36.136961999699999 ], [ -115.1808795, 36.136961999699999 ], [ -115.1808795, 36.136959299700003 ], [ -115.1808903, 36.136959299700003 ], [ -115.1808903, 36.1369565997 ], [ -115.1809146, 36.1369565997 ], [ -115.1809146, 36.136953899699996 ], [ -115.1809578, 36.136953899699996 ], [ -115.1809578, 36.1369565997 ], [ -115.180974, 36.1369565997 ], [ -115.180974, 36.136959299700003 ], [ -115.1809767, 36.136959299700003 ], [ -115.1809767, 36.136961999699999 ], [ -115.1809821, 36.136961999699999 ], [ -115.1809821, 36.136964699700002 ], [ -115.1809848, 36.136964699700002 ], [ -115.1809848, 36.136967399699998 ], [ -115.18103880000001, 36.136967399699998 ], [ -115.18103880000001, 36.136970099700001 ], [ -115.1810847, 36.136970099700001 ], [ -115.1810847, 36.136972799699997 ], [ -115.181114400000013, 36.136972799699997 ], [ -115.181114400000013, 36.136970099700001 ], [ -115.1811468, 36.136970099700001 ], [ -115.1811468, 36.136972799699997 ], [ -115.1811576, 36.136972799699997 ], [ -115.1811576, 36.137072699699999 ] ] ] } },
{ "type": "Feature", "properties": { "value": 255.0 }, "geometry": { "type": "Polygon", "coordinates": [ [ [ -115.1795187, 36.137072699699999 ], [ -115.1794026, 36.137072699699999 ], [ -115.1794026, 36.136629899699997 ], [ -115.1794053, 36.136629899699997 ], [ -115.1794053, 36.1366325997 ], [ -115.179408, 36.1366325997 ], [ -115.179408, 36.136635299700004 ], [ -115.1794107, 36.136635299700004 ], [ -115.1794107, 36.1366325997 ], [ -115.1794161, 36.1366325997 ], [ -115.1794161, 36.136635299700004 ], [ -115.1794188, 36.136635299700004 ], [ -115.1794188, 36.1366379997 ], [ -115.1794161, 36.1366379997 ], [ -115.1794161, 36.136651499700001 ], [ -115.1794188, 36.136651499700001 ], [ -115.1794188, 36.136654199699997 ], [ -115.1794512, 36.136654199699997 ], [ -115.1794512, 36.1366568997 ], [ -115.1794566, 36.1366568997 ], [ -115.1794566, 36.136654199699997 ], [ -115.1794755, 36.136654199699997 ], [ -115.1794755, 36.1366568997 ], [ -115.1794836, 36.1366568997 ], [ -115.1794836, 36.136659599700003 ], [ -115.179489, 36.136659599700003 ], [ -115.179489, 36.136662299699999 ], [ -115.1794917, 36.136662299699999 ], [ -115.1794917, 36.136675799700001 ], [ -115.17949440000001, 36.136675799700001 ], [ -115.17949440000001, 36.136683899700003 ], [ -115.1794971, 36.136683899700003 ], [ -115.1794971, 36.136691999699998 ], [ -115.1795025, 36.136691999699998 ], [ -115.1795025, 36.136721699699997 ], [ -115.1795052, 36.136721699699997 ], [ -115.1795052, 36.136729799699999 ], [ -115.1795079, 36.136729799699999 ], [ -115.1795079, 36.136737899700002 ], [ -115.1795106, 36.136737899700002 ], [ -115.1795106, 36.1367486997 ], [ -115.1795079, 36.1367486997 ], [ -115.1795079, 36.1367972997 ], [ -115.1795052, 36.1367972997 ], [ -115.1795052, 36.136829699700002 ], [ -115.1795079, 36.136829699700002 ], [ -115.1795079, 36.136832399699998 ], [ -115.1795106, 36.136832399699998 ], [ -115.1795106, 36.136835099700001 ], [ -115.1795133, 36.136835099700001 ], [ -115.1795133, 36.136837799699997 ], [ -115.179516, 36.136837799699997 ], [ -115.179516, 36.1368404997 ], [ -115.1795349, 36.1368404997 ], [ -115.1795349, 36.136845899699999 ], [ -115.1795295, 36.136845899699999 ], [ -115.1795295, 36.136848599700002 ], [ -115.1795268, 36.136848599700002 ], [ -115.1795268, 36.136853999700001 ], [ -115.1795295, 36.136853999700001 ], [ -115.1795295, 36.1368593997 ], [ -115.1795268, 36.1368593997 ], [ -115.1795268, 36.1368647997 ], [ -115.1795295, 36.1368647997 ], [ -115.1795295, 36.136867499700003 ], [ -115.1795322, 36.136867499700003 ], [ -115.1795322, 36.136875599699998 ], [ -115.1795295, 36.136875599699998 ], [ -115.1795295, 36.136886399699996 ], [ -115.1795268, 36.136886399699996 ], [ -115.1795268, 36.136894499699999 ], [ -115.1795241, 36.136894499699999 ], [ -115.1795241, 36.136899899699998 ], [ -115.1795214, 36.136899899699998 ], [ -115.1795214, 36.136905299699997 ], [ -115.1795187, 36.136905299699997 ], [ -115.1795187, 36.136921499700001 ], [ -115.179516, 36.136921499700001 ], [ -115.179516, 36.136972799699997 ], [ -115.1795187, 36.136972799699997 ], [ -115.1795187, 36.137005199699999 ], [ -115.1795214, 36.137005199699999 ], [ -115.1795214, 36.137026799700003 ], [ -115.1795187, 36.137026799700003 ], [ -115.1795187, 36.137064599699997 ], [ -115.1795214, 36.137064599699997 ], [ -115.1795214, 36.137069999699996 ], [ -115.1795187, 36.137069999699996 ], [ -115.1795187, 36.137072699699999 ] ], [ [ -115.1794107, 36.136648799699998 ], [ -115.1794107, 36.1366379997 ], [ -115.179408, 36.1366379997 ], [ -115.179408, 36.136646099700002 ], [ -115.1794053, 36.136646099700002 ], [ -115.1794053, 36.136648799699998 ], [ -115.1794107, 36.136648799699998 ] ] ] } },
{ "type": "Feature", "properties": { "value": 255.0 }, "geometry": { "type": "Polygon", "coordinates": [ [ [ -115.1798778, 36.136805399700002 ], [ -115.1797752, 36.136805399700002 ], [ -115.1797752, 36.136802699699999 ], [ -115.1797185, 36.136802699699999 ], [ -115.1797185, 36.136799999700003 ], [ -115.1796132, 36.136799999700003 ], [ -115.1796132, 36.1367972997 ], [ -115.1795997, 36.1367972997 ], [ -115.1795997, 36.136799999700003 ], [ -115.1795943, 36.136799999700003 ], [ -115.1795943, 36.1367972997 ], [ -115.1795889, 36.1367972997 ], [ -115.1795889, 36.136794599699996 ], [ -115.1795808, 36.136794599699996 ], [ -115.1795808, 36.1367972997 ], [ -115.1795781, 36.1367972997 ], [ -115.1795781, 36.136794599699996 ], [ -115.1795727, 36.136794599699996 ], [ -115.1795727, 36.136799999700003 ], [ -115.17957, 36.136799999700003 ], [ -115.17957, 36.1367972997 ], [ -115.1795673, 36.1367972997 ], [ -115.1795673, 36.136767599700001 ], [ -115.17957, 36.136767599700001 ], [ -115.17957, 36.136756799700002 ], [ -115.1795673, 36.136756799700002 ], [ -115.1795673, 36.136754099699999 ], [ -115.17957, 36.136754099699999 ], [ -115.17957, 36.136745999699997 ], [ -115.1795727, 36.136745999699997 ], [ -115.1795727, 36.136743299700001 ], [ -115.1795754, 36.136743299700001 ], [ -115.1795754, 36.136745999699997 ], [ -115.1795781, 36.136745999699997 ], [ -115.1795781, 36.136743299700001 ], [ -115.1795808, 36.136743299700001 ], [ -115.1795808, 36.136737899700002 ], [ -115.1795781, 36.136737899700002 ], [ -115.1795781, 36.136735199699999 ], [ -115.1795754, 36.136735199699999 ], [ -115.1795754, 36.136737899700002 ], [ -115.1795727, 36.136737899700002 ], [ -115.1795727, 36.136732499700003 ], [ -115.17957, 36.136732499700003 ], [ -115.17957, 36.136700099700001 ], [ -115.1795835, 36.136700099700001 ], [ -115.1795835, 36.1366811997 ], [ -115.1795808, 36.1366811997 ], [ -115.1795808, 36.136675799700001 ], [ -115.1795781, 36.136675799700001 ], [ -115.1795781, 36.136662299699999 ], [ -115.1795754, 36.136662299699999 ], [ -115.1795754, 36.136627199700001 ], [ -115.1795727, 36.136627199700001 ], [ -115.1795727, 36.136594799699999 ], [ -115.1795754, 36.136594799699999 ], [ -115.1795754, 36.136592099700003 ], [ -115.1795781, 36.136592099700003 ], [ -115.1795781, 36.1365893997 ], [ -115.1796051, 36.1365893997 ], [ -115.1796051, 36.136586699699997 ], [ -115.1796078, 36.136586699699997 ], [ -115.1796078, 36.136583999700001 ], [ -115.1796132, 36.136583999700001 ], [ -115.1796132, 36.136581299699998 ], [ -115.1796213, 36.136581299699998 ], [ -115.1796213, 36.136578599700002 ], [ -115.17962940000001, 36.136578599700002 ], [ -115.17962940000001, 36.136575899699999 ], [ -115.1796321, 36.136575899699999 ], [ -115.1796321, 36.136573199700003 ], [ -115.1796348, 36.136573199700003 ], [ -115.1796348, 36.1365650997 ], [ -115.1796375, 36.1365650997 ], [ -115.1796375, 36.136562399699997 ], [ -115.1796402, 36.136562399699997 ], [ -115.1796402, 36.136559699700001 ], [ -115.1796429, 36.136559699700001 ], [ -115.1796429, 36.136556999699998 ], [ -115.1796456, 36.136556999699998 ], [ -115.1796456, 36.136554299700002 ], [ -115.1796483, 36.136554299700002 ], [ -115.1796483, 36.136551599699999 ], [ -115.1796537, 36.136551599699999 ], [ -115.1796537, 36.136548899700003 ], [ -115.17976440000001, 36.136548899700003 ], [ -115.17976440000001, 36.136551599699999 ], [ -115.1797806, 36.136551599699999 ], [ -115.1797806, 36.136554299700002 ], [ -115.1797914, 36.136554299700002 ], [ -115.1797914, 36.136551599699999 ], [ -115.1798103, 36.136551599699999 ], [ -115.1798103, 36.136548899700003 ], [ -115.1798238, 36.136548899700003 ], [ -115.1798238, 36.136551599699999 ], [ -115.1798346, 36.136551599699999 ], [ -115.1798346, 36.136554299700002 ], [ -115.17984, 36.136554299700002 ], [ -115.17984, 36.136556999699998 ], [ -115.1798427, 36.136556999699998 ], [ -115.1798427, 36.136559699700001 ], [ -115.1798454, 36.136559699700001 ], [ -115.1798454, 36.136562399699997 ], [ -115.1798589, 36.136562399699997 ], [ -115.1798589, 36.1365650997 ], [ -115.1798697, 36.1365650997 ], [ -115.1798697, 36.136567799700003 ], [ -115.1798751, 36.136567799700003 ], [ -115.1798751, 36.136570499699999 ], [ -115.17988050000001, 36.136570499699999 ], [ -115.17988050000001, 36.136573199700003 ], [ -115.1798886, 36.136573199700003 ], [ -115.1798886, 36.136575899699999 ], [ -115.1798913, 36.136575899699999 ], [ -115.1798913, 36.136578599700002 ], [ -115.179894, 36.136578599700002 ], [ -115.179894, 36.136583999700001 ], [ -115.1798967, 36.136583999700001 ], [ -115.1798967, 36.1365893997 ], [ -115.179899400000011, 36.1365893997 ], [ -115.179899400000011, 36.136592099700003 ], [ -115.1799021, 36.136592099700003 ], [ -115.1799021, 36.136605599699998 ], [ -115.1799048, 36.136605599699998 ], [ -115.1799048, 36.136621799700002 ], [ -115.1799021, 36.136621799700002 ], [ -115.1799021, 36.136643399699999 ], [ -115.179899400000011, 36.136643399699999 ], [ -115.179899400000011, 36.1366811997 ], [ -115.1798967, 36.1366811997 ], [ -115.1798967, 36.136689299700002 ], [ -115.179894, 36.136689299700002 ], [ -115.179894, 36.136691999699998 ], [ -115.1798913, 36.136691999699998 ], [ -115.1798913, 36.136694699700001 ], [ -115.1798886, 36.136694699700001 ], [ -115.1798886, 36.136697399699997 ], [ -115.1798859, 36.136697399699997 ], [ -115.1798859, 36.136700099700001 ], [ -115.179894, 36.136700099700001 ], [ -115.179894, 36.136710899699999 ], [ -115.1798967, 36.136710899699999 ], [ -115.1798967, 36.136775699700003 ], [ -115.179894, 36.136775699700003 ], [ -115.179894, 36.136794599699996 ], [ -115.1798913, 36.136794599699996 ], [ -115.1798913, 36.136799999700003 ], [ -115.1798886, 36.136799999700003 ], [ -115.1798886, 36.136802699699999 ], [ -115.1798778, 36.136802699699999 ], [ -115.1798778, 36.136805399700002 ] ] ] } },
{ "type": "Feature", "properties": { "value": 255.0 }, "geometry": { "type": "Polygon", "coordinates": [ [ [ -115.1811576, 36.136732499700003 ], [ -115.18115490000001, 36.136732499700003 ], [ -115.18115490000001, 36.1367054997 ], [ -115.1811522, 36.1367054997 ], [ -115.1811522, 36.136700099700001 ], [ -115.18115490000001, 36.136700099700001 ], [ -115.18115490000001, 36.136691999699998 ], [ -115.1811522, 36.136691999699998 ], [ -115.1811522, 36.136686599699999 ], [ -115.1811495, 36.136686599699999 ], [ -115.1811495, 36.136675799700001 ], [ -115.1811522, 36.136675799700001 ], [ -115.1811522, 36.136667699699998 ], [ -115.1811495, 36.136667699699998 ], [ -115.1811495, 36.136662299699999 ], [ -115.1811468, 36.136662299699999 ], [ -115.1811468, 36.136624499699998 ], [ -115.1811495, 36.136624499699998 ], [ -115.1811495, 36.136621799700002 ], [ -115.1811468, 36.136621799700002 ], [ -115.1811468, 36.136602899700002 ], [ -115.1811495, 36.136602899700002 ], [ -115.1811495, 36.136556999699998 ], [ -115.1811468, 36.136556999699998 ], [ -115.1811468, 36.136527299699999 ], [ -115.1811495, 36.136527299699999 ], [ -115.1811495, 36.136513799699998 ], [ -115.1811522, 36.136513799699998 ], [ -115.1811522, 36.136508399699999 ], [ -115.18115490000001, 36.136508399699999 ], [ -115.18115490000001, 36.136470599699997 ], [ -115.1811576, 36.136470599699997 ], [ -115.1811576, 36.136732499700003 ] ] ] } },
{ "type": "Feature", "properties": { "value": 255.0 }, "geometry": { "type": "Polygon", "coordinates": [ [ [ -115.179408, 36.136494899699997 ], [ -115.1794026, 36.136494899699997 ], [ -115.1794026, 36.136448999700001 ], [ -115.179408, 36.136448999700001 ], [ -115.179408, 36.136451699700004 ], [ -115.1794134, 36.136451699700004 ], [ -115.1794134, 36.1364543997 ], [ -115.1794215, 36.1364543997 ], [ -115.1794215, 36.136457099700003 ], [ -115.1794242, 36.136457099700003 ], [ -115.1794242, 36.136459799699999 ], [ -115.17942690000001, 36.136459799699999 ], [ -115.17942690000001, 36.136467899700001 ], [ -115.1794242, 36.136467899700001 ], [ -115.1794242, 36.136470599699997 ], [ -115.1794188, 36.136470599699997 ], [ -115.1794188, 36.1364786997 ], [ -115.1794161, 36.1364786997 ], [ -115.1794161, 36.136484099699999 ], [ -115.1794134, 36.136484099699999 ], [ -115.1794134, 36.136489499699998 ], [ -115.1794107, 36.136489499699998 ], [ -115.1794107, 36.136492199700001 ], [ -115.179408, 36.136492199700001 ], [ -115.179408, 36.136494899699997 ] ] ] } },
{ "type": "Feature", "properties": { "value": 255.0 }, "geometry": { "type": "Polygon", "coordinates": [ [ [ -115.1804988, 36.136818899700003 ], [ -115.1804907, 36.136818899700003 ], [ -115.1804907, 36.1368161997 ], [ -115.180353, 36.1368161997 ], [ -115.180353, 36.136813499699997 ], [ -115.18033410000001, 36.136813499699997 ], [ -115.18033410000001, 36.136810799700001 ], [ -115.180326, 36.136810799700001 ], [ -115.180326, 36.136808099699998 ], [ -115.1803179, 36.136808099699998 ], [ -115.1803179, 36.136805399700002 ], [ -115.18031520000001, 36.136805399700002 ], [ -115.18031520000001, 36.136802699699999 ], [ -115.1803125, 36.136802699699999 ], [ -115.1803125, 36.136799999700003 ], [ -115.1803098, 36.136799999700003 ], [ -115.1803098, 36.136794599699996 ], [ -115.1803125, 36.136794599699996 ], [ -115.1803125, 36.136783799699998 ], [ -115.18031520000001, 36.136783799699998 ], [ -115.18031520000001, 36.136770299699997 ], [ -115.1803179, 36.136770299699997 ], [ -115.1803179, 36.1367486997 ], [ -115.18031520000001, 36.1367486997 ], [ -115.18031520000001, 36.136745999699997 ], [ -115.1803071, 36.136745999699997 ], [ -115.1803071, 36.136743299700001 ], [ -115.180299, 36.136743299700001 ], [ -115.180299, 36.136740599699998 ], [ -115.1802774, 36.136740599699998 ], [ -115.1802774, 36.136743299700001 ], [ -115.1802126, 36.136743299700001 ], [ -115.1802126, 36.136740599699998 ], [ -115.1802072, 36.136740599699998 ], [ -115.1802072, 36.136737899700002 ], [ -115.1802045, 36.136737899700002 ], [ -115.1802045, 36.136732499700003 ], [ -115.1802018, 36.136732499700003 ], [ -115.1802018, 36.136729799699999 ], [ -115.18019910000001, 36.136729799699999 ], [ -115.18019910000001, 36.136727099700003 ], [ -115.1801964, 36.136727099700003 ], [ -115.1801964, 36.136721699699997 ], [ -115.1801937, 36.136721699699997 ], [ -115.1801937, 36.136708199700003 ], [ -115.180191, 36.136708199700003 ], [ -115.180191, 36.136700099700001 ], [ -115.1801937, 36.136700099700001 ], [ -115.1801937, 36.136694699700001 ], [ -115.1801964, 36.136694699700001 ], [ -115.1801964, 36.136691999699998 ], [ -115.1801937, 36.136691999699998 ], [ -115.1801937, 36.136683899700003 ], [ -115.180191, 36.136683899700003 ], [ -115.180191, 36.1366811997 ], [ -115.1801883, 36.1366811997 ], [ -115.1801883, 36.136678499699997 ], [ -115.1801856, 36.136678499699997 ], [ -115.1801856, 36.136675799700001 ], [ -115.1801478, 36.136675799700001 ], [ -115.1801478, 36.136673099699998 ], [ -115.1801424, 36.136673099699998 ], [ -115.1801424, 36.136675799700001 ], [ -115.1801127, 36.136675799700001 ], [ -115.1801127, 36.136683899700003 ], [ -115.18011, 36.136683899700003 ], [ -115.18011, 36.136686599699999 ], [ -115.1801073, 36.136686599699999 ], [ -115.1801073, 36.136700099700001 ], [ -115.1801181, 36.136700099700001 ], [ -115.1801181, 36.1367054997 ], [ -115.1801154, 36.1367054997 ], [ -115.1801154, 36.136713599700002 ], [ -115.1801127, 36.136713599700002 ], [ -115.1801127, 36.136718999700001 ], [ -115.1801154, 36.136718999700001 ], [ -115.1801154, 36.1367243997 ], [ -115.1801127, 36.1367243997 ], [ -115.1801127, 36.136727099700003 ], [ -115.18011, 36.136727099700003 ], [ -115.18011, 36.136729799699999 ], [ -115.1801073, 36.136729799699999 ], [ -115.1801073, 36.136735199699999 ], [ -115.1801046, 36.136735199699999 ], [ -115.1801046, 36.136737899700002 ], [ -115.1800911, 36.136737899700002 ], [ -115.1800911, 36.136740599699998 ], [ -115.1800695, 36.136740599699998 ], [ -115.1800695, 36.136743299700001 ], [ -115.1800668, 36.136743299700001 ], [ -115.1800668, 36.136740599699998 ], [ -115.1800209, 36.136740599699998 ], [ -115.1800209, 36.136743299700001 ], [ -115.1799831, 36.136743299700001 ], [ -115.1799831, 36.136740599699998 ], [ -115.1799777, 36.136740599699998 ], [ -115.1799777, 36.136737899700002 ], [ -115.179975, 36.136737899700002 ], [ -115.179975, 36.136727099700003 ], [ -115.1799723, 36.136727099700003 ], [ -115.1799723, 36.136700099700001 ], [ -115.1799777, 36.136700099700001 ], [ -115.1799777, 36.136694699700001 ], [ -115.179975, 36.136694699700001 ], [ -115.179975, 36.1366811997 ], [ -115.1799777, 36.1366811997 ], [ -115.1799777, 36.136667699699998 ], [ -115.1799804, 36.136667699699998 ], [ -115.1799804, 36.1366379997 ], [ -115.1799777, 36.1366379997 ], [ -115.1799777, 36.1365893997 ], [ -115.179975, 36.1365893997 ], [ -115.179975, 36.136581299699998 ], [ -115.1799777, 36.136581299699998 ], [ -115.1799777, 36.136562399699997 ], [ -115.1799804, 36.136562399699997 ], [ -115.1799804, 36.136554299700002 ], [ -115.1799831, 36.136554299700002 ], [ -115.1799831, 36.136551599699999 ], [ -115.1799858, 36.136551599699999 ], [ -115.1799858, 36.136548899700003 ], [ -115.1799939, 36.136548899700003 ], [ -115.1799939, 36.1365461997 ], [ -115.180002, 36.1365461997 ], [ -115.180002, 36.136543499700004 ], [ -115.1800182, 36.136543499700004 ], [ -115.1800182, 36.136540799700001 ], [ -115.1800209, 36.136540799700001 ], [ -115.1800209, 36.136543499700004 ], [ -115.180034400000011, 36.136543499700004 ], [ -115.180034400000011, 36.1365461997 ], [ -115.1800425, 36.1365461997 ], [ -115.1800425, 36.136548899700003 ], [ -115.1800587, 36.136548899700003 ], [ -115.1800587, 36.136551599699999 ], [ -115.1800803, 36.136551599699999 ], [ -115.1800803, 36.136554299700002 ], [ -115.1800938, 36.136554299700002 ], [ -115.1800938, 36.136556999699998 ], [ -115.1801073, 36.136556999699998 ], [ -115.1801073, 36.136559699700001 ], [ -115.1801154, 36.136559699700001 ], [ -115.1801154, 36.136562399699997 ], [ -115.180137, 36.136562399699997 ], [ -115.180137, 36.1365650997 ], [ -115.180169400000011, 36.1365650997 ], [ -115.180169400000011, 36.136562399699997 ], [ -115.1801802, 36.136562399699997 ], [ -115.1801802, 36.136559699700001 ], [ -115.1801937, 36.136559699700001 ], [ -115.1801937, 36.136556999699998 ], [ -115.1802612, 36.136556999699998 ], [ -115.1802612, 36.136554299700002 ], [ -115.1802693, 36.136554299700002 ], [ -115.1802693, 36.136556999699998 ], [ -115.1802801, 36.136556999699998 ], [ -115.1802801, 36.136554299700002 ], [ -115.180304400000011, 36.136554299700002 ], [ -115.180304400000011, 36.136556999699998 ], [ -115.1803233, 36.136556999699998 ], [ -115.1803233, 36.136554299700002 ], [ -115.180326, 36.136554299700002 ], [ -115.180326, 36.136543499700004 ], [ -115.1803287, 36.136543499700004 ], [ -115.1803287, 36.136532699699998 ], [ -115.180326, 36.136532699699998 ], [ -115.180326, 36.136524599700003 ], [ -115.1803233, 36.136524599700003 ], [ -115.1803233, 36.136511099700002 ], [ -115.180326, 36.136511099700002 ], [ -115.180326, 36.136508399699999 ], [ -115.1803314, 36.136508399699999 ], [ -115.1803314, 36.136505699700002 ], [ -115.1803368, 36.136505699700002 ], [ -115.1803368, 36.136502999699999 ], [ -115.1803395, 36.136502999699999 ], [ -115.1803395, 36.1364975997 ], [ -115.1803422, 36.1364975997 ], [ -115.1803422, 36.136494899699997 ], [ -115.1803449, 36.136494899699997 ], [ -115.1803449, 36.1364543997 ], [ -115.1803476, 36.1364543997 ], [ -115.1803476, 36.136413899700003 ], [ -115.1803503, 36.136413899700003 ], [ -115.1803503, 36.136400399700001 ], [ -115.180353, 36.136400399700001 ], [ -115.180353, 36.1363868997 ], [ -115.1803665, 36.1363868997 ], [ -115.1803665, 36.136384199700004 ], [ -115.1804313, 36.136384199700004 ], [ -115.1804313, 36.136381499700001 ], [ -115.1804556, 36.136381499700001 ], [ -115.1804556, 36.136384199700004 ], [ -115.1804637, 36.136384199700004 ], [ -115.1804637, 36.1363868997 ], [ -115.1804745, 36.1363868997 ], [ -115.1804745, 36.136389599700003 ], [ -115.1804799, 36.136389599700003 ], [ -115.1804799, 36.136392299699999 ], [ -115.1804907, 36.136392299699999 ], [ -115.1804907, 36.136394999700002 ], [ -115.1804988, 36.136394999700002 ], [ -115.1804988, 36.136397699699998 ], [ -115.1805285, 36.136397699699998 ], [ -115.1805285, 36.136400399700001 ], [ -115.1805312, 36.136400399700001 ], [ -115.1805312, 36.1364057997 ], [ -115.1805339, 36.1364057997 ], [ -115.1805339, 36.136411199699999 ], [ -115.1805312, 36.136411199699999 ], [ -115.1805312, 36.136427399700004 ], [ -115.1805285, 36.136427399700004 ], [ -115.1805285, 36.136438199700002 ], [ -115.1805312, 36.136438199700002 ], [ -115.1805312, 36.136457099700003 ], [ -115.1805339, 36.136457099700003 ], [ -115.1805339, 36.136462499700002 ], [ -115.180536600000011, 36.136462499700002 ], [ -115.180536600000011, 36.136465199699998 ], [ -115.1805393, 36.136465199699998 ], [ -115.1805393, 36.136467899700001 ], [ -115.180536600000011, 36.136467899700001 ], [ -115.180536600000011, 36.136516499700001 ], [ -115.1805339, 36.136516499700001 ], [ -115.1805339, 36.136654199699997 ], [ -115.1805312, 36.136654199699997 ], [ -115.1805312, 36.136689299700002 ], [ -115.1805339, 36.136689299700002 ], [ -115.1805339, 36.136691999699998 ], [ -115.1805312, 36.136691999699998 ], [ -115.1805312, 36.136727099700003 ], [ -115.1805285, 36.136727099700003 ], [ -115.1805285, 36.136743299700001 ], [ -115.1805312, 36.136743299700001 ], [ -115.1805312, 36.136799999700003 ], [ -115.1805285, 36.136799999700003 ], [ -115.1805285, 36.136808099699998 ], [ -115.1805258, 36.136808099699998 ], [ -115.1805258, 36.136813499699997 ], [ -115.1805204, 36.136813499699997 ], [ -115.1805204, 36.1368161997 ], [ -115.1804988, 36.1368161997 ], [ -115.1804988, 36.136818899700003 ] ] ] } },
{ "type": "Feature", "properties": { "value": 255.0 }, "geometry": { "type": "Polygon", "coordinates": [ [ [ -115.1806392, 36.135995399700001 ], [ -115.180596, 36.135995399700001 ], [ -115.180596, 36.135992699700004 ], [ -115.1805879, 36.135992699700004 ], [ -115.1805879, 36.135995399700001 ], [ -115.1805798, 36.135995399700001 ], [ -115.1805798, 36.135992699700004 ], [ -115.1804853, 36.135992699700004 ], [ -115.1804853, 36.135989999700001 ], [ -115.18038270000001, 36.135989999700001 ], [ -115.18038270000001, 36.135987299699998 ], [ -115.1803773, 36.135987299699998 ], [ -115.1803773, 36.135989999700001 ], [ -115.180371900000011, 36.135989999700001 ], [ -115.180371900000011, 36.135987299699998 ], [ -115.1803611, 36.135987299699998 ], [ -115.1803611, 36.135989999700001 ], [ -115.1803098, 36.135989999700001 ], [ -115.1803098, 36.135987299699998 ], [ -115.1802612, 36.135987299699998 ], [ -115.1802612, 36.135984599700002 ], [ -115.180245, 36.135984599700002 ], [ -115.180245, 36.135981899699999 ], [ -115.1802315, 36.135981899699999 ], [ -115.1802315, 36.135979199700003 ], [ -115.1802018, 36.135979199700003 ], [ -115.1802018, 36.135981899699999 ], [ -115.1801883, 36.135981899699999 ], [ -115.1801883, 36.135984599700002 ], [ -115.1801667, 36.135984599700002 ], [ -115.1801667, 36.135987299699998 ], [ -115.1801613, 36.135987299699998 ], [ -115.1801613, 36.135984599700002 ], [ -115.1800857, 36.135984599700002 ], [ -115.1800857, 36.135987299699998 ], [ -115.1800776, 36.135987299699998 ], [ -115.1800776, 36.135984599700002 ], [ -115.1800074, 36.135984599700002 ], [ -115.1800074, 36.135987299699998 ], [ -115.17999660000001, 36.135987299699998 ], [ -115.17999660000001, 36.135984599700002 ], [ -115.1797779, 36.135984599700002 ], [ -115.1797779, 36.135981899699999 ], [ -115.1797752, 36.135981899699999 ], [ -115.1797752, 36.135984599700002 ], [ -115.17976440000001, 36.135984599700002 ], [ -115.17976440000001, 36.135981899699999 ], [ -115.1797617, 36.135981899699999 ], [ -115.1797617, 36.135979199700003 ], [ -115.1797563, 36.135979199700003 ], [ -115.1797563, 36.135949499700004 ], [ -115.1797536, 36.135949499700004 ], [ -115.1797536, 36.135941399700002 ], [ -115.1797563, 36.135941399700002 ], [ -115.1797563, 36.135935999700003 ], [ -115.1797536, 36.135935999700003 ], [ -115.1797536, 36.1359278997 ], [ -115.1797563, 36.1359278997 ], [ -115.1797563, 36.135919799700005 ], [ -115.179759, 36.135919799700005 ], [ -115.179759, 36.135911699700003 ], [ -115.1797617, 36.135911699700003 ], [ -115.1797617, 36.135900899700005 ], [ -115.17976440000001, 36.135900899700005 ], [ -115.17976440000001, 36.135895499700005 ], [ -115.1797671, 36.135895499700005 ], [ -115.1797671, 36.135890099699999 ], [ -115.1797698, 36.135890099699999 ], [ -115.1797698, 36.135881999700004 ], [ -115.1797725, 36.135881999700004 ], [ -115.1797725, 36.135876599700005 ], [ -115.1797752, 36.135876599700005 ], [ -115.1797752, 36.135871199699999 ], [ -115.1797779, 36.135871199699999 ], [ -115.1797779, 36.135865799699999 ], [ -115.1797806, 36.135865799699999 ], [ -115.1797806, 36.135863099700003 ], [ -115.1797833, 36.135863099700003 ], [ -115.1797833, 36.135857699700004 ], [ -115.179786, 36.135857699700004 ], [ -115.179786, 36.135852299700005 ], [ -115.1797887, 36.135852299700005 ], [ -115.1797887, 36.135846899699999 ], [ -115.1797914, 36.135846899699999 ], [ -115.1797914, 36.135844199700003 ], [ -115.1797941, 36.135844199700003 ], [ -115.1797941, 36.135838799700004 ], [ -115.1797968, 36.135838799700004 ], [ -115.1797968, 36.135833399700005 ], [ -115.1797995, 36.135833399700005 ], [ -115.1797995, 36.135827999700005 ], [ -115.1798022, 36.135827999700005 ], [ -115.1798022, 36.135825299700002 ], [ -115.1798049, 36.135825299700002 ], [ -115.1798049, 36.135819899700003 ], [ -115.1798076, 36.135819899700003 ], [ -115.1798076, 36.1358171997 ], [ -115.1798103, 36.1358171997 ], [ -115.1798103, 36.135814499700004 ], [ -115.179813, 36.135814499700004 ], [ -115.179813, 36.135809099700005 ], [ -115.1798157, 36.135809099700005 ], [ -115.1798157, 36.135806399700002 ], [ -115.1798184, 36.135806399700002 ], [ -115.1798184, 36.135803699700006 ], [ -115.1798211, 36.135803699700006 ], [ -115.1798211, 36.135798299699999 ], [ -115.1798238, 36.135798299699999 ], [ -115.1798238, 36.135795599700003 ], [ -115.1798265, 36.135795599700003 ], [ -115.1798265, 36.1357928997 ], [ -115.1798292, 36.1357928997 ], [ -115.1798292, 36.135790199700004 ], [ -115.179831900000011, 36.135790199700004 ], [ -115.179831900000011, 36.135787499700001 ], [ -115.1798346, 36.135787499700001 ], [ -115.1798346, 36.135784799700005 ], [ -115.1798373, 36.135784799700005 ], [ -115.1798373, 36.135782099700002 ], [ -115.17984, 36.135782099700002 ], [ -115.17984, 36.135779399699999 ], [ -115.1798427, 36.135779399699999 ], [ -115.1798427, 36.1357739997 ], [ -115.1798454, 36.1357739997 ], [ -115.1798454, 36.135771299700004 ], [ -115.1798481, 36.135771299700004 ], [ -115.1798481, 36.135765899700004 ], [ -115.1798508, 36.135765899700004 ], [ -115.1798508, 36.135760499700005 ], [ -115.1798535, 36.135760499700005 ], [ -115.1798535, 36.135757799700002 ], [ -115.1799615, 36.135757799700002 ], [ -115.1799615, 36.135760499700005 ], [ -115.180169400000011, 36.135760499700005 ], [ -115.180169400000011, 36.135763199700001 ], [ -115.1803854, 36.135763199700001 ], [ -115.1803854, 36.135765899700004 ], [ -115.1805285, 36.135765899700004 ], [ -115.1805285, 36.1357685997 ], [ -115.1805339, 36.1357685997 ], [ -115.1805339, 36.135765899700004 ], [ -115.1805447, 36.135765899700004 ], [ -115.1805447, 36.1357685997 ], [ -115.1806473, 36.1357685997 ], [ -115.1806473, 36.135771299700004 ], [ -115.1806581, 36.135771299700004 ], [ -115.1806581, 36.1357739997 ], [ -115.1806608, 36.1357739997 ], [ -115.1806608, 36.135776699700003 ], [ -115.1806635, 36.135776699700003 ], [ -115.1806635, 36.135784799700005 ], [ -115.1806608, 36.135784799700005 ], [ -115.1806608, 36.1357928997 ], [ -115.1806581, 36.1357928997 ], [ -115.1806581, 36.135895499700005 ], [ -115.1806554, 36.135895499700005 ], [ -115.1806554, 36.135984599700002 ], [ -115.18065270000001, 36.135984599700002 ], [ -115.18065270000001, 36.135992699700004 ], [ -115.1806392, 36.135992699700004 ], [ -115.1806392, 36.135995399700001 ] ] ] } },
{ "type": "Feature", "properties": { "value": 255.0 }, "geometry": { "type": "Polygon", "coordinates": [ [ [ -115.180785, 36.136060199700005 ], [ -115.1807796, 36.136060199700005 ], [ -115.1807796, 36.136057499700001 ], [ -115.1807526, 36.136057499700001 ], [ -115.1807526, 36.136054799699998 ], [ -115.1807499, 36.136054799699998 ], [ -115.1807499, 36.136049399699999 ], [ -115.1807472, 36.136049399699999 ], [ -115.1807472, 36.136027799700003 ], [ -115.1807445, 36.136027799700003 ], [ -115.1807445, 36.136022399700003 ], [ -115.1807472, 36.136022399700003 ], [ -115.1807472, 36.135979199700003 ], [ -115.1807499, 36.135979199700003 ], [ -115.1807499, 36.135830699700001 ], [ -115.1807526, 36.135830699700001 ], [ -115.1807526, 36.135825299700002 ], [ -115.1807499, 36.135825299700002 ], [ -115.1807499, 36.135738899700002 ], [ -115.1807526, 36.135738899700002 ], [ -115.1807526, 36.135728099700003 ], [ -115.1807499, 36.135728099700003 ], [ -115.1807499, 36.1357253997 ], [ -115.1807526, 36.1357253997 ], [ -115.1807526, 36.135674099700005 ], [ -115.1807553, 36.135674099700005 ], [ -115.1807553, 36.135665999700002 ], [ -115.1807526, 36.135665999700002 ], [ -115.1807526, 36.135660599700003 ], [ -115.1807553, 36.135660599700003 ], [ -115.1807553, 36.135603899700001 ], [ -115.180758, 36.135603899700001 ], [ -115.180758, 36.135584999700001 ], [ -115.1807607, 36.135584999700001 ], [ -115.1807607, 36.135571499699999 ], [ -115.1807634, 36.135571499699999 ], [ -115.1807634, 36.1355660997 ], [ -115.1807607, 36.1355660997 ], [ -115.1807607, 36.135563399700004 ], [ -115.1807634, 36.135563399700004 ], [ -115.1807634, 36.135555299700002 ], [ -115.1807553, 36.135555299700002 ], [ -115.1807553, 36.135552599700006 ], [ -115.180623, 36.135552599700006 ], [ -115.180623, 36.135549899700003 ], [ -115.180488, 36.135549899700003 ], [ -115.180488, 36.1355471997 ], [ -115.180434, 36.1355471997 ], [ -115.180434, 36.135549899700003 ], [ -115.1804259, 36.135549899700003 ], [ -115.1804259, 36.1355471997 ], [ -115.1803449, 36.1355471997 ], [ -115.1803449, 36.135544499700003 ], [ -115.1800776, 36.135544499700003 ], [ -115.1800776, 36.1355471997 ], [ -115.1800371, 36.1355471997 ], [ -115.1800371, 36.135544499700003 ], [ -115.180029, 36.135544499700003 ], [ -115.180029, 36.1355417997 ], [ -115.1800263, 36.1355417997 ], [ -115.1800263, 36.135533699700005 ], [ -115.1800236, 36.135533699700005 ], [ -115.1800236, 36.1354985997 ], [ -115.1800263, 36.1354985997 ], [ -115.1800263, 36.135493199700001 ], [ -115.180029, 36.135493199700001 ], [ -115.180029, 36.135487799700002 ], [ -115.1800317, 36.135487799700002 ], [ -115.1800317, 36.135485099700006 ], [ -115.180034400000011, 36.135485099700006 ], [ -115.180034400000011, 36.135479699700007 ], [ -115.1800371, 36.135479699700007 ], [ -115.1800371, 36.1354742997 ], [ -115.1800398, 36.1354742997 ], [ -115.1800398, 36.135471599700004 ], [ -115.1800425, 36.135471599700004 ], [ -115.1800425, 36.135466199700005 ], [ -115.1800452, 36.135466199700005 ], [ -115.1800452, 36.135460799700006 ], [ -115.1800479, 36.135460799700006 ], [ -115.1800479, 36.135458099700003 ], [ -115.1800506, 36.135458099700003 ], [ -115.1800506, 36.135452699700004 ], [ -115.1800533, 36.135452699700004 ], [ -115.1800533, 36.135447299700004 ], [ -115.180056, 36.135447299700004 ], [ -115.180056, 36.135444599700001 ], [ -115.1800587, 36.135444599700001 ], [ -115.1800587, 36.135441899700005 ], [ -115.1800614, 36.135441899700005 ], [ -115.1800614, 36.135436499700006 ], [ -115.18006410000001, 36.135436499700006 ], [ -115.18006410000001, 36.1354310997 ], [ -115.1800668, 36.1354310997 ], [ -115.1800668, 36.135428399700004 ], [ -115.1800695, 36.135428399700004 ], [ -115.1800695, 36.135422999700005 ], [ -115.1800722, 36.135422999700005 ], [ -115.1800722, 36.135420299700002 ], [ -115.1800749, 36.135420299700002 ], [ -115.1800749, 36.135414899700002 ], [ -115.1800776, 36.135414899700002 ], [ -115.1800776, 36.135409499700003 ], [ -115.1800803, 36.135409499700003 ], [ -115.1800803, 36.1354067997 ], [ -115.180083, 36.1354067997 ], [ -115.180083, 36.135401399700001 ], [ -115.1800857, 36.135401399700001 ], [ -115.1800857, 36.135398699700005 ], [ -115.1800884, 36.135398699700005 ], [ -115.1800884, 36.135393299700006 ], [ -115.1800911, 36.135393299700006 ], [ -115.1800911, 36.135390599700003 ], [ -115.1800938, 36.135390599700003 ], [ -115.1800938, 36.135387899700007 ], [ -115.1800965, 36.135387899700007 ], [ -115.1800965, 36.135385199700004 ], [ -115.1800992, 36.135385199700004 ], [ -115.1800992, 36.135379799700004 ], [ -115.180101900000011, 36.135379799700004 ], [ -115.180101900000011, 36.135377099700001 ], [ -115.1801046, 36.135377099700001 ], [ -115.1801046, 36.135374399700005 ], [ -115.1801073, 36.135374399700005 ], [ -115.1801073, 36.135368999700006 ], [ -115.18011, 36.135368999700006 ], [ -115.18011, 36.135366299700003 ], [ -115.1801127, 36.135366299700003 ], [ -115.1801127, 36.135360899700004 ], [ -115.1801154, 36.135360899700004 ], [ -115.1801154, 36.135352799700001 ], [ -115.1801181, 36.135352799700001 ], [ -115.1801181, 36.135344699700006 ], [ -115.1801208, 36.135344699700006 ], [ -115.1801208, 36.1353392997 ], [ -115.1801235, 36.1353392997 ], [ -115.1801235, 36.135336599700004 ], [ -115.1801262, 36.135336599700004 ], [ -115.1801262, 36.135333899700001 ], [ -115.18013160000001, 36.135333899700001 ], [ -115.18013160000001, 36.135331199700005 ], [ -115.1801343, 36.135331199700005 ], [ -115.1801343, 36.135325799700006 ], [ -115.180137, 36.135325799700006 ], [ -115.180137, 36.135323099700003 ], [ -115.1801397, 36.135323099700003 ], [ -115.1801397, 36.135320399700007 ], [ -115.1801424, 36.135320399700007 ], [ -115.1801424, 36.135317699700003 ], [ -115.1806581, 36.135317699700003 ], [ -115.1806581, 36.135323099700003 ], [ -115.1806608, 36.135323099700003 ], [ -115.1806608, 36.135328499700002 ], [ -115.1806581, 36.135328499700002 ], [ -115.1806581, 36.135341999700003 ], [ -115.1806554, 36.135341999700003 ], [ -115.1806554, 36.135347399700002 ], [ -115.1806581, 36.135347399700002 ], [ -115.1806581, 36.135352799700001 ], [ -115.1806608, 36.135352799700001 ], [ -115.1806608, 36.1353635997 ], [ -115.1806635, 36.1353635997 ], [ -115.1806635, 36.135366299700003 ], [ -115.1806662, 36.135366299700003 ], [ -115.1806662, 36.135368999700006 ], [ -115.1806824, 36.135368999700006 ], [ -115.1806824, 36.135371699700002 ], [ -115.1807472, 36.135371699700002 ], [ -115.1807472, 36.135368999700006 ], [ -115.1807931, 36.135368999700006 ], [ -115.1807931, 36.135371699700002 ], [ -115.180839, 36.135371699700002 ], [ -115.180839, 36.135374399700005 ], [ -115.1808768, 36.135374399700005 ], [ -115.1808768, 36.135371699700002 ], [ -115.1808984, 36.135371699700002 ], [ -115.1808984, 36.135374399700005 ], [ -115.1809065, 36.135374399700005 ], [ -115.1809065, 36.135377099700001 ], [ -115.180911900000012, 36.135377099700001 ], [ -115.180911900000012, 36.135379799700004 ], [ -115.1809173, 36.135379799700004 ], [ -115.1809173, 36.1353824997 ], [ -115.180922700000011, 36.1353824997 ], [ -115.180922700000011, 36.135385199700004 ], [ -115.180941600000011, 36.135385199700004 ], [ -115.180941600000011, 36.1353824997 ], [ -115.18095240000001, 36.1353824997 ], [ -115.18095240000001, 36.135385199700004 ], [ -115.1809551, 36.135385199700004 ], [ -115.1809551, 36.135393299700006 ], [ -115.1809578, 36.135393299700006 ], [ -115.1809578, 36.135395999700002 ], [ -115.1809686, 36.135395999700002 ], [ -115.1809686, 36.135398699700005 ], [ -115.1809551, 36.135398699700005 ], [ -115.1809551, 36.135401399700001 ], [ -115.18095240000001, 36.135401399700001 ], [ -115.18095240000001, 36.1354067997 ], [ -115.1809551, 36.1354067997 ], [ -115.1809551, 36.135412199700006 ], [ -115.18095240000001, 36.135412199700006 ], [ -115.18095240000001, 36.135414899700002 ], [ -115.1809497, 36.135414899700002 ], [ -115.1809497, 36.135417599700006 ], [ -115.1809443, 36.135417599700006 ], [ -115.1809443, 36.135409499700003 ], [ -115.1809362, 36.135409499700003 ], [ -115.1809362, 36.135412199700006 ], [ -115.1809335, 36.135412199700006 ], [ -115.1809335, 36.135414899700002 ], [ -115.1809362, 36.135414899700002 ], [ -115.1809362, 36.135422999700005 ], [ -115.1809389, 36.135422999700005 ], [ -115.1809389, 36.135425699700001 ], [ -115.180941600000011, 36.135425699700001 ], [ -115.180941600000011, 36.135428399700004 ], [ -115.1809443, 36.135428399700004 ], [ -115.1809443, 36.1354310997 ], [ -115.1809551, 36.1354310997 ], [ -115.1809551, 36.135425699700001 ], [ -115.1809578, 36.135425699700001 ], [ -115.1809578, 36.1354310997 ], [ -115.1809659, 36.1354310997 ], [ -115.1809659, 36.135436499700006 ], [ -115.1809686, 36.135436499700006 ], [ -115.1809686, 36.135439199700002 ], [ -115.18097130000001, 36.135439199700002 ], [ -115.18097130000001, 36.135441899700005 ], [ -115.180974, 36.135441899700005 ], [ -115.180974, 36.135447299700004 ], [ -115.1809767, 36.135447299700004 ], [ -115.1809767, 36.135458099700003 ], [ -115.180974, 36.135458099700003 ], [ -115.180974, 36.135460799700006 ], [ -115.1809767, 36.135460799700006 ], [ -115.1809767, 36.135463499700002 ], [ -115.180979400000012, 36.135463499700002 ], [ -115.180979400000012, 36.135468899700001 ], [ -115.1809848, 36.135468899700001 ], [ -115.1809848, 36.135471599700004 ], [ -115.1809875, 36.135471599700004 ], [ -115.1809875, 36.1354742997 ], [ -115.180990200000011, 36.1354742997 ], [ -115.180990200000011, 36.135479699700007 ], [ -115.1809956, 36.135479699700007 ], [ -115.1809956, 36.135482399700003 ], [ -115.1809983, 36.135482399700003 ], [ -115.1809983, 36.135503999700006 ], [ -115.181001, 36.135503999700006 ], [ -115.181001, 36.135536399700001 ], [ -115.1810037, 36.135536399700001 ], [ -115.1810037, 36.135557999700005 ], [ -115.1810064, 36.135557999700005 ], [ -115.1810064, 36.135574199700002 ], [ -115.181009100000011, 36.135574199700002 ], [ -115.181009100000011, 36.135606599700004 ], [ -115.1810118, 36.135606599700004 ], [ -115.1810118, 36.135617399700003 ], [ -115.181009100000011, 36.135617399700003 ], [ -115.181009100000011, 36.135628199700001 ], [ -115.1810118, 36.135628199700001 ], [ -115.1810118, 36.135641699700003 ], [ -115.1810145, 36.135641699700003 ], [ -115.1810145, 36.135663299699999 ], [ -115.1810172, 36.135663299699999 ], [ -115.1810172, 36.1356821997 ], [ -115.18101990000001, 36.1356821997 ], [ -115.18101990000001, 36.135692999700005 ], [ -115.1810226, 36.135692999700005 ], [ -115.1810226, 36.135730799699999 ], [ -115.1810253, 36.135730799699999 ], [ -115.1810253, 36.1357685997 ], [ -115.181028, 36.1357685997 ], [ -115.181028, 36.135798299699999 ], [ -115.1810307, 36.135798299699999 ], [ -115.1810307, 36.135830699700001 ], [ -115.1810334, 36.135830699700001 ], [ -115.1810334, 36.135857699700004 ], [ -115.1810361, 36.135857699700004 ], [ -115.1810361, 36.135898199700001 ], [ -115.18103880000001, 36.135898199700001 ], [ -115.18103880000001, 36.135981899699999 ], [ -115.1810361, 36.135981899699999 ], [ -115.1810361, 36.135989999700001 ], [ -115.1810334, 36.135989999700001 ], [ -115.1810334, 36.135992699700004 ], [ -115.1810307, 36.135992699700004 ], [ -115.1810307, 36.135995399700001 ], [ -115.181028, 36.135995399700001 ], [ -115.181028, 36.136003499700003 ], [ -115.1810253, 36.136003499700003 ], [ -115.1810253, 36.136006199699999 ], [ -115.1810226, 36.136006199699999 ], [ -115.1810226, 36.136014299700001 ], [ -115.18101990000001, 36.136014299700001 ], [ -115.18101990000001, 36.1360196997 ], [ -115.1810172, 36.1360196997 ], [ -115.1810172, 36.136022399700003 ], [ -115.18101990000001, 36.136022399700003 ], [ -115.18101990000001, 36.136033199700002 ], [ -115.1810172, 36.136033199700002 ], [ -115.1810172, 36.1360439997 ], [ -115.1810145, 36.1360439997 ], [ -115.1810145, 36.136046699700003 ], [ -115.1810118, 36.136046699700003 ], [ -115.1810118, 36.136049399699999 ], [ -115.181001, 36.136049399699999 ], [ -115.181001, 36.136052099700002 ], [ -115.1809983, 36.136052099700002 ], [ -115.1809983, 36.136049399699999 ], [ -115.1809956, 36.136049399699999 ], [ -115.1809956, 36.136052099700002 ], [ -115.1809497, 36.136052099700002 ], [ -115.1809497, 36.136054799699998 ], [ -115.1808147, 36.136054799699998 ], [ -115.1808147, 36.136057499700001 ], [ -115.180785, 36.136057499700001 ], [ -115.180785, 36.136060199700005 ] ] ] } },
{ "type": "Feature", "properties": { "value": 255.0 }, "geometry": { "type": "Polygon", "coordinates": [ [ [ -115.17956190000001, 36.136035899700005 ], [ -115.1794998, 36.136035899700005 ], [ -115.1794998, 36.136033199700002 ], [ -115.1794161, 36.136033199700002 ], [ -115.1794161, 36.136030499699999 ], [ -115.1794026, 36.136030499699999 ], [ -115.1794026, 36.135811799700001 ], [ -115.1794053, 36.135811799700001 ], [ -115.1794053, 36.135809099700005 ], [ -115.1794107, 36.135809099700005 ], [ -115.1794107, 36.135803699700006 ], [ -115.1794134, 36.135803699700006 ], [ -115.1794134, 36.135798299699999 ], [ -115.1794161, 36.135798299699999 ], [ -115.1794161, 36.135795599700003 ], [ -115.1794188, 36.135795599700003 ], [ -115.1794188, 36.135790199700004 ], [ -115.1794215, 36.135790199700004 ], [ -115.1794215, 36.135784799700005 ], [ -115.1794242, 36.135784799700005 ], [ -115.1794242, 36.135782099700002 ], [ -115.17942690000001, 36.135782099700002 ], [ -115.17942690000001, 36.135776699700003 ], [ -115.1794296, 36.135776699700003 ], [ -115.1794296, 36.135771299700004 ], [ -115.1794323, 36.135771299700004 ], [ -115.1794323, 36.1357685997 ], [ -115.179435, 36.1357685997 ], [ -115.179435, 36.135763199700001 ], [ -115.1794377, 36.135763199700001 ], [ -115.1794377, 36.135757799700002 ], [ -115.1794404, 36.135757799700002 ], [ -115.1794404, 36.135755099699999 ], [ -115.1794431, 36.135755099699999 ], [ -115.1794431, 36.135746999700004 ], [ -115.1794458, 36.135746999700004 ], [ -115.1794458, 36.135744299700001 ], [ -115.1794485, 36.135744299700001 ], [ -115.1794485, 36.135738899700002 ], [ -115.1794512, 36.135738899700002 ], [ -115.1794512, 36.135733499700002 ], [ -115.1794539, 36.135733499700002 ], [ -115.1794539, 36.135730799699999 ], [ -115.1794566, 36.135730799699999 ], [ -115.1794566, 36.1357253997 ], [ -115.1794593, 36.1357253997 ], [ -115.1794593, 36.135717299700005 ], [ -115.179462, 36.135717299700005 ], [ -115.179462, 36.135711899700006 ], [ -115.1794647, 36.135711899700006 ], [ -115.1794647, 36.135709199700003 ], [ -115.1794674, 36.135709199700003 ], [ -115.1794674, 36.135706499699999 ], [ -115.1794701, 36.135706499699999 ], [ -115.1794701, 36.135703799700003 ], [ -115.1794728, 36.135703799700003 ], [ -115.1794728, 36.135698399700004 ], [ -115.1794755, 36.135698399700004 ], [ -115.1794755, 36.135695699700001 ], [ -115.1794782, 36.135695699700001 ], [ -115.1794782, 36.135692999700005 ], [ -115.1794809, 36.135692999700005 ], [ -115.1794809, 36.135690299700002 ], [ -115.1794998, 36.135690299700002 ], [ -115.1794998, 36.135684899700003 ], [ -115.1795025, 36.135684899700003 ], [ -115.1795025, 36.1356821997 ], [ -115.1795079, 36.1356821997 ], [ -115.1795079, 36.135679499700004 ], [ -115.1795106, 36.135679499700004 ], [ -115.1795106, 36.135674099700005 ], [ -115.1795133, 36.135674099700005 ], [ -115.1795133, 36.135671399700001 ], [ -115.179516, 36.135671399700001 ], [ -115.179516, 36.135668699700005 ], [ -115.1795214, 36.135668699700005 ], [ -115.1795214, 36.135665999700002 ], [ -115.1795241, 36.135665999700002 ], [ -115.1795241, 36.135663299699999 ], [ -115.1795268, 36.135663299699999 ], [ -115.1795268, 36.135660599700003 ], [ -115.1795295, 36.135660599700003 ], [ -115.1795295, 36.135655199700004 ], [ -115.1795322, 36.135655199700004 ], [ -115.1795322, 36.135652499700001 ], [ -115.1795349, 36.135652499700001 ], [ -115.1795349, 36.135644399700006 ], [ -115.1795376, 36.135644399700006 ], [ -115.1795376, 36.135641699700003 ], [ -115.1795403, 36.135641699700003 ], [ -115.1795403, 36.135636299700003 ], [ -115.179543, 36.135636299700003 ], [ -115.179543, 36.1356335997 ], [ -115.1795457, 36.1356335997 ], [ -115.1795457, 36.135628199700001 ], [ -115.1795484, 36.135628199700001 ], [ -115.1795484, 36.135622799700002 ], [ -115.1795511, 36.135622799700002 ], [ -115.1795511, 36.1356146997 ], [ -115.1795538, 36.1356146997 ], [ -115.1795538, 36.1356092997 ], [ -115.1795565, 36.1356092997 ], [ -115.1795565, 36.135584999700001 ], [ -115.1795592, 36.135584999700001 ], [ -115.1795592, 36.135576899700006 ], [ -115.17956190000001, 36.135576899700006 ], [ -115.17956190000001, 36.135571499699999 ], [ -115.1795646, 36.135571499699999 ], [ -115.1795646, 36.135568799700003 ], [ -115.1795673, 36.135568799700003 ], [ -115.1795673, 36.1355660997 ], [ -115.17957, 36.1355660997 ], [ -115.17957, 36.135560699700001 ], [ -115.1795727, 36.135560699700001 ], [ -115.1795727, 36.135552599700006 ], [ -115.1795754, 36.135552599700006 ], [ -115.1795754, 36.135549899700003 ], [ -115.1795781, 36.135549899700003 ], [ -115.1795781, 36.1355471997 ], [ -115.1795808, 36.1355471997 ], [ -115.1795808, 36.1355417997 ], [ -115.1795835, 36.1355417997 ], [ -115.1795835, 36.135539099700004 ], [ -115.1795862, 36.135539099700004 ], [ -115.1795862, 36.135533699700005 ], [ -115.1795889, 36.135533699700005 ], [ -115.1795889, 36.135528299700006 ], [ -115.1795916, 36.135528299700006 ], [ -115.1795916, 36.135525599700003 ], [ -115.1795943, 36.135525599700003 ], [ -115.1795943, 36.135520199700004 ], [ -115.179597, 36.135520199700004 ], [ -115.179597, 36.135514799700005 ], [ -115.1795997, 36.135514799700005 ], [ -115.1795997, 36.135509399700005 ], [ -115.1796024, 36.135509399700005 ], [ -115.1796024, 36.135506699700002 ], [ -115.1796051, 36.135506699700002 ], [ -115.1796051, 36.135503999700006 ], [ -115.1796078, 36.135503999700006 ], [ -115.1796078, 36.1354985997 ], [ -115.17961050000001, 36.1354985997 ], [ -115.17961050000001, 36.135495899700004 ], [ -115.1796132, 36.135495899700004 ], [ -115.1796132, 36.135493199700001 ], [ -115.1796159, 36.135493199700001 ], [ -115.1796159, 36.135490499700005 ], [ -115.1796186, 36.135490499700005 ], [ -115.1796186, 36.135485099700006 ], [ -115.1796213, 36.135485099700006 ], [ -115.1796213, 36.135479699700007 ], [ -115.179624, 36.135479699700007 ], [ -115.179624, 36.135476999700003 ], [ -115.1796267, 36.135476999700003 ], [ -115.1796267, 36.135471599700004 ], [ -115.17962940000001, 36.135471599700004 ], [ -115.17962940000001, 36.135468899700001 ], [ -115.1796321, 36.135468899700001 ], [ -115.1796321, 36.135466199700005 ], [ -115.1796348, 36.135466199700005 ], [ -115.1796348, 36.135460799700006 ], [ -115.1796375, 36.135460799700006 ], [ -115.1796375, 36.135458099700003 ], [ -115.1796402, 36.135458099700003 ], [ -115.1796402, 36.1354553997 ], [ -115.1796429, 36.1354553997 ], [ -115.1796429, 36.1354499997 ], [ -115.1796456, 36.1354499997 ], [ -115.1796456, 36.135444599700001 ], [ -115.1796483, 36.135444599700001 ], [ -115.1796483, 36.135439199700002 ], [ -115.179651, 36.135439199700002 ], [ -115.179651, 36.135436499700006 ], [ -115.1796537, 36.135436499700006 ], [ -115.1796537, 36.1354310997 ], [ -115.1796564, 36.1354310997 ], [ -115.1796564, 36.135425699700001 ], [ -115.1796591, 36.135425699700001 ], [ -115.1796591, 36.135420299700002 ], [ -115.1796618, 36.135420299700002 ], [ -115.1796618, 36.135417599700006 ], [ -115.1796645, 36.135417599700006 ], [ -115.1796645, 36.135412199700006 ], [ -115.1796672, 36.135412199700006 ], [ -115.1796672, 36.135409499700003 ], [ -115.1796699, 36.135409499700003 ], [ -115.1796699, 36.1354067997 ], [ -115.1796726, 36.1354067997 ], [ -115.1796726, 36.135404099700004 ], [ -115.1796753, 36.135404099700004 ], [ -115.1796753, 36.135401399700001 ], [ -115.179678, 36.135401399700001 ], [ -115.179678, 36.135395999700002 ], [ -115.1796807, 36.135395999700002 ], [ -115.1796807, 36.135390599700003 ], [ -115.1796834, 36.135390599700003 ], [ -115.1796834, 36.135387899700007 ], [ -115.1796861, 36.135387899700007 ], [ -115.1796861, 36.135385199700004 ], [ -115.1796888, 36.135385199700004 ], [ -115.1796888, 36.1353824997 ], [ -115.1796915, 36.1353824997 ], [ -115.1796915, 36.135379799700004 ], [ -115.1796942, 36.135379799700004 ], [ -115.1796942, 36.135374399700005 ], [ -115.17969690000001, 36.135374399700005 ], [ -115.17969690000001, 36.1353635997 ], [ -115.1796942, 36.1353635997 ], [ -115.1796942, 36.135355499700005 ], [ -115.17969690000001, 36.135355499700005 ], [ -115.17969690000001, 36.135347399700002 ], [ -115.1796996, 36.135347399700002 ], [ -115.1796996, 36.135341999700003 ], [ -115.17969690000001, 36.135341999700003 ], [ -115.17969690000001, 36.135333899700001 ], [ -115.1796942, 36.135333899700001 ], [ -115.1796942, 36.135331199700005 ], [ -115.17969690000001, 36.135331199700005 ], [ -115.17969690000001, 36.135317699700003 ], [ -115.1800452, 36.135317699700003 ], [ -115.1800452, 36.135328499700002 ], [ -115.1800425, 36.135328499700002 ], [ -115.1800425, 36.135331199700005 ], [ -115.1800398, 36.135331199700005 ], [ -115.1800398, 36.135336599700004 ], [ -115.1800371, 36.135336599700004 ], [ -115.1800371, 36.1353392997 ], [ -115.180034400000011, 36.1353392997 ], [ -115.180034400000011, 36.135341999700003 ], [ -115.1800317, 36.135341999700003 ], [ -115.1800317, 36.135347399700002 ], [ -115.180029, 36.135347399700002 ], [ -115.180029, 36.135350099700005 ], [ -115.1800263, 36.135350099700005 ], [ -115.1800263, 36.135352799700001 ], [ -115.1800236, 36.135352799700001 ], [ -115.1800236, 36.135355499700005 ], [ -115.1800209, 36.135355499700005 ], [ -115.1800209, 36.135358199700001 ], [ -115.1800182, 36.135358199700001 ], [ -115.1800182, 36.135360899700004 ], [ -115.18001550000001, 36.135360899700004 ], [ -115.18001550000001, 36.1353635997 ], [ -115.1800128, 36.1353635997 ], [ -115.1800128, 36.135368999700006 ], [ -115.1800101, 36.135368999700006 ], [ -115.1800101, 36.135371699700002 ], [ -115.1800074, 36.135371699700002 ], [ -115.1800074, 36.135374399700005 ], [ -115.1800047, 36.135374399700005 ], [ -115.1800047, 36.135379799700004 ], [ -115.180002, 36.135379799700004 ], [ -115.180002, 36.1353824997 ], [ -115.1799993, 36.1353824997 ], [ -115.1799993, 36.135387899700007 ], [ -115.17999660000001, 36.135387899700007 ], [ -115.17999660000001, 36.135390599700003 ], [ -115.1799939, 36.135390599700003 ], [ -115.1799939, 36.135395999700002 ], [ -115.1799912, 36.135395999700002 ], [ -115.1799912, 36.135398699700005 ], [ -115.1799885, 36.135398699700005 ], [ -115.1799885, 36.135404099700004 ], [ -115.1799858, 36.135404099700004 ], [ -115.1799858, 36.135409499700003 ], [ -115.1799831, 36.135409499700003 ], [ -115.1799831, 36.135414899700002 ], [ -115.1799804, 36.135414899700002 ], [ -115.1799804, 36.135417599700006 ], [ -115.1799777, 36.135417599700006 ], [ -115.1799777, 36.135422999700005 ], [ -115.179975, 36.135422999700005 ], [ -115.179975, 36.135428399700004 ], [ -115.1799723, 36.135428399700004 ], [ -115.1799723, 36.135433799700003 ], [ -115.1799696, 36.135433799700003 ], [ -115.1799696, 36.135436499700006 ], [ -115.179966900000011, 36.135436499700006 ], [ -115.179966900000011, 36.135441899700005 ], [ -115.1799642, 36.135441899700005 ], [ -115.1799642, 36.135444599700001 ], [ -115.1799615, 36.135444599700001 ], [ -115.1799615, 36.1354499997 ], [ -115.1799588, 36.1354499997 ], [ -115.1799588, 36.135452699700004 ], [ -115.1799561, 36.135452699700004 ], [ -115.1799561, 36.135458099700003 ], [ -115.1799534, 36.135458099700003 ], [ -115.1799534, 36.135463499700002 ], [ -115.1799507, 36.135463499700002 ], [ -115.1799507, 36.135468899700001 ], [ -115.179948, 36.135468899700001 ], [ -115.179948, 36.1354742997 ], [ -115.1799453, 36.1354742997 ], [ -115.1799453, 36.135476999700003 ], [ -115.1799426, 36.135476999700003 ], [ -115.1799426, 36.135482399700003 ], [ -115.1799399, 36.135482399700003 ], [ -115.1799399, 36.135485099700006 ], [ -115.1799372, 36.135485099700006 ], [ -115.1799372, 36.135487799700002 ], [ -115.1799345, 36.135487799700002 ], [ -115.1799345, 36.135493199700001 ], [ -115.1799318, 36.135493199700001 ], [ -115.1799318, 36.135495899700004 ], [ -115.17992910000001, 36.135495899700004 ], [ -115.17992910000001, 36.135501299700003 ], [ -115.1799264, 36.135501299700003 ], [ -115.1799264, 36.135503999700006 ], [ -115.1799237, 36.135503999700006 ], [ -115.1799237, 36.135509399700005 ], [ -115.179921, 36.135509399700005 ], [ -115.179921, 36.135512099700001 ], [ -115.1799183, 36.135512099700001 ], [ -115.1799183, 36.135517499700001 ], [ -115.1799156, 36.135517499700001 ], [ -115.1799156, 36.1355228997 ], [ -115.1799129, 36.1355228997 ], [ -115.1799129, 36.135525599700003 ], [ -115.1799102, 36.135525599700003 ], [ -115.1799102, 36.135530999700002 ], [ -115.1799075, 36.135530999700002 ], [ -115.1799075, 36.135536399700001 ], [ -115.1799048, 36.135536399700001 ], [ -115.1799048, 36.135539099700004 ], [ -115.1799021, 36.135539099700004 ], [ -115.1799021, 36.1355417997 ], [ -115.179899400000011, 36.1355417997 ], [ -115.179899400000011, 36.1355471997 ], [ -115.1798967, 36.1355471997 ], [ -115.1798967, 36.135549899700003 ], [ -115.179894, 36.135549899700003 ], [ -115.179894, 36.135555299700002 ], [ -115.1798913, 36.135555299700002 ], [ -115.1798913, 36.135557999700005 ], [ -115.1798886, 36.135557999700005 ], [ -115.1798886, 36.135563399700004 ], [ -115.1798859, 36.135563399700004 ], [ -115.1798859, 36.1355660997 ], [ -115.1798832, 36.1355660997 ], [ -115.1798832, 36.135571499699999 ], [ -115.17988050000001, 36.135571499699999 ], [ -115.17988050000001, 36.135576899700006 ], [ -115.1798778, 36.135576899700006 ], [ -115.1798778, 36.135579599700002 ], [ -115.1798751, 36.135579599700002 ], [ -115.1798751, 36.135584999700001 ], [ -115.1798724, 36.135584999700001 ], [ -115.1798724, 36.135587699700004 ], [ -115.1798697, 36.135587699700004 ], [ -115.1798697, 36.1355903997 ], [ -115.179867, 36.1355903997 ], [ -115.179867, 36.135595799700006 ], [ -115.1798643, 36.135595799700006 ], [ -115.1798643, 36.135598499700002 ], [ -115.17986160000001, 36.135598499700002 ], [ -115.17986160000001, 36.135603899700001 ], [ -115.1798589, 36.135603899700001 ], [ -115.1798589, 36.1356092997 ], [ -115.1798562, 36.1356092997 ], [ -115.1798562, 36.135611999700004 ], [ -115.1798535, 36.135611999700004 ], [ -115.1798535, 36.135617399700003 ], [ -115.1798508, 36.135617399700003 ], [ -115.1798508, 36.135622799700002 ], [ -115.1798481, 36.135622799700002 ], [ -115.1798481, 36.135625499700005 ], [ -115.1798454, 36.135625499700005 ], [ -115.1798454, 36.135630899700004 ], [ -115.1798427, 36.135630899700004 ], [ -115.1798427, 36.1356335997 ], [ -115.17984, 36.1356335997 ], [ -115.17984, 36.135638999699999 ], [ -115.1798373, 36.135638999699999 ], [ -115.1798373, 36.135641699700003 ], [ -115.1798346, 36.135641699700003 ], [ -115.1798346, 36.135647099700002 ], [ -115.179831900000011, 36.135647099700002 ], [ -115.179831900000011, 36.135649799700005 ], [ -115.1798292, 36.135649799700005 ], [ -115.1798292, 36.135655199700004 ], [ -115.1798265, 36.135655199700004 ], [ -115.1798265, 36.1356578997 ], [ -115.1798238, 36.1356578997 ], [ -115.1798238, 36.135663299699999 ], [ -115.1798211, 36.135663299699999 ], [ -115.1798211, 36.135665999700002 ], [ -115.1798184, 36.135665999700002 ], [ -115.1798184, 36.135671399700001 ], [ -115.1798157, 36.135671399700001 ], [ -115.1798157, 36.135674099700005 ], [ -115.179813, 36.135674099700005 ], [ -115.179813, 36.135679499700004 ], [ -115.1798103, 36.135679499700004 ], [ -115.1798103, 36.1356821997 ], [ -115.1798076, 36.1356821997 ], [ -115.1798076, 36.135687599700006 ], [ -115.1798049, 36.135687599700006 ], [ -115.1798049, 36.135690299700002 ], [ -115.1798022, 36.135690299700002 ], [ -115.1798022, 36.135692999700005 ], [ -115.1797995, 36.135692999700005 ], [ -115.1797995, 36.135695699700001 ], [ -115.1797968, 36.135695699700001 ], [ -115.1797968, 36.1357010997 ], [ -115.1797941, 36.1357010997 ], [ -115.1797941, 36.135703799700003 ], [ -115.1797914, 36.135703799700003 ], [ -115.1797914, 36.135706499699999 ], [ -115.1797887, 36.135706499699999 ], [ -115.1797887, 36.135711899700006 ], [ -115.179786, 36.135711899700006 ], [ -115.179786, 36.135714599700002 ], [ -115.1797833, 36.135714599700002 ], [ -115.1797833, 36.135717299700005 ], [ -115.1797806, 36.135717299700005 ], [ -115.1797806, 36.135719999700001 ], [ -115.1797779, 36.135719999700001 ], [ -115.1797779, 36.1357253997 ], [ -115.1797752, 36.1357253997 ], [ -115.1797752, 36.135730799699999 ], [ -115.1797725, 36.135730799699999 ], [ -115.1797725, 36.135736199700005 ], [ -115.1797698, 36.135736199700005 ], [ -115.1797698, 36.135741599700005 ], [ -115.1797671, 36.135741599700005 ], [ -115.1797671, 36.135744299700001 ], [ -115.17976440000001, 36.135744299700001 ], [ -115.17976440000001, 36.1357496997 ], [ -115.1797617, 36.1357496997 ], [ -115.1797617, 36.135755099699999 ], [ -115.179759, 36.135755099699999 ], [ -115.179759, 36.135757799700002 ], [ -115.1797563, 36.135757799700002 ], [ -115.1797563, 36.135763199700001 ], [ -115.1797536, 36.135763199700001 ], [ -115.1797536, 36.135765899700004 ], [ -115.1797509, 36.135765899700004 ], [ -115.1797509, 36.135771299700004 ], [ -115.1797482, 36.135771299700004 ], [ -115.1797482, 36.1357739997 ], [ -115.17974550000001, 36.1357739997 ], [ -115.17974550000001, 36.135779399699999 ], [ -115.1797428, 36.135779399699999 ], [ -115.1797428, 36.135782099700002 ], [ -115.1797401, 36.135782099700002 ], [ -115.1797401, 36.135787499700001 ], [ -115.1797374, 36.135787499700001 ], [ -115.1797374, 36.135790199700004 ], [ -115.1797347, 36.135790199700004 ], [ -115.1797347, 36.135795599700003 ], [ -115.179732, 36.135795599700003 ], [ -115.179732, 36.135798299699999 ], [ -115.1797293, 36.135798299699999 ], [ -115.1797293, 36.135800999700002 ], [ -115.1797266, 36.135800999700002 ], [ -115.1797266, 36.135803699700006 ], [ -115.1797239, 36.135803699700006 ], [ -115.1797239, 36.135809099700005 ], [ -115.1797212, 36.135809099700005 ], [ -115.1797212, 36.135811799700001 ], [ -115.1797185, 36.135811799700001 ], [ -115.1797185, 36.1358171997 ], [ -115.1797158, 36.1358171997 ], [ -115.1797158, 36.135822599699999 ], [ -115.1797131, 36.135822599699999 ], [ -115.1797131, 36.135825299700002 ], [ -115.1797104, 36.135825299700002 ], [ -115.1797104, 36.135827999700005 ], [ -115.1797077, 36.135827999700005 ], [ -115.1797077, 36.135833399700005 ], [ -115.179705, 36.135833399700005 ], [ -115.179705, 36.135836099700001 ], [ -115.1797023, 36.135836099700001 ], [ -115.1797023, 36.1358414997 ], [ -115.1796996, 36.1358414997 ], [ -115.1796996, 36.135844199700003 ], [ -115.17969690000001, 36.135844199700003 ], [ -115.17969690000001, 36.135846899699999 ], [ -115.1796942, 36.135846899699999 ], [ -115.1796942, 36.135852299700005 ], [ -115.1796915, 36.135852299700005 ], [ -115.1796915, 36.135857699700004 ], [ -115.1796888, 36.135857699700004 ], [ -115.1796888, 36.135863099700003 ], [ -115.1796861, 36.135863099700003 ], [ -115.1796861, 36.135865799699999 ], [ -115.1796834, 36.135865799699999 ], [ -115.1796834, 36.135871199699999 ], [ -115.1796807, 36.135871199699999 ], [ -115.1796807, 36.135876599700005 ], [ -115.179678, 36.135876599700005 ], [ -115.179678, 36.135879299700001 ], [ -115.1796753, 36.135879299700001 ], [ -115.1796753, 36.1358846997 ], [ -115.1796726, 36.1358846997 ], [ -115.1796726, 36.135887399700003 ], [ -115.1796699, 36.135887399700003 ], [ -115.1796699, 36.135892799700002 ], [ -115.1796672, 36.135892799700002 ], [ -115.1796672, 36.135898199700001 ], [ -115.1796645, 36.135898199700001 ], [ -115.1796645, 36.135900899700005 ], [ -115.1796618, 36.135900899700005 ], [ -115.1796618, 36.135906299700004 ], [ -115.1796591, 36.135906299700004 ], [ -115.1796591, 36.1359089997 ], [ -115.1796564, 36.1359089997 ], [ -115.1796564, 36.135914399699999 ], [ -115.1796537, 36.135914399699999 ], [ -115.1796537, 36.135917099700002 ], [ -115.179651, 36.135917099700002 ], [ -115.179651, 36.135922499700001 ], [ -115.1796483, 36.135922499700001 ], [ -115.1796483, 36.135925199700004 ], [ -115.1796456, 36.135925199700004 ], [ -115.1796456, 36.135930599700004 ], [ -115.1796429, 36.135930599700004 ], [ -115.1796429, 36.135935999700003 ], [ -115.1796402, 36.135935999700003 ], [ -115.1796402, 36.135938699699999 ], [ -115.1796375, 36.135938699699999 ], [ -115.1796375, 36.135944099700005 ], [ -115.1796348, 36.135944099700005 ], [ -115.1796348, 36.135946799700001 ], [ -115.1796321, 36.135946799700001 ], [ -115.1796321, 36.1359521997 ], [ -115.17962940000001, 36.1359521997 ], [ -115.17962940000001, 36.135954899700003 ], [ -115.1796267, 36.135954899700003 ], [ -115.1796267, 36.135960299700002 ], [ -115.179624, 36.135960299700002 ], [ -115.179624, 36.135962999699998 ], [ -115.1796213, 36.135962999699998 ], [ -115.1796213, 36.135968399700005 ], [ -115.1796186, 36.135968399700005 ], [ -115.1796186, 36.135971099700001 ], [ -115.1796159, 36.135971099700001 ], [ -115.1796159, 36.1359764997 ], [ -115.1796132, 36.1359764997 ], [ -115.1796132, 36.135979199700003 ], [ -115.17961050000001, 36.135979199700003 ], [ -115.17961050000001, 36.135984599700002 ], [ -115.1796078, 36.135984599700002 ], [ -115.1796078, 36.135989999700001 ], [ -115.1796051, 36.135989999700001 ], [ -115.1796051, 36.135992699700004 ], [ -115.1796024, 36.135992699700004 ], [ -115.1796024, 36.135998099700004 ], [ -115.1795997, 36.135998099700004 ], [ -115.1795997, 36.1360007997 ], [ -115.179597, 36.1360007997 ], [ -115.179597, 36.136006199699999 ], [ -115.1795943, 36.136006199699999 ], [ -115.1795943, 36.136008899700002 ], [ -115.1795916, 36.136008899700002 ], [ -115.1795916, 36.136014299700001 ], [ -115.1795889, 36.136014299700001 ], [ -115.1795889, 36.136016999700004 ], [ -115.1795862, 36.136016999700004 ], [ -115.1795862, 36.1360196997 ], [ -115.1795835, 36.1360196997 ], [ -115.1795835, 36.136025099699999 ], [ -115.1795808, 36.136025099699999 ], [ -115.1795808, 36.136027799700003 ], [ -115.1795781, 36.136027799700003 ], [ -115.1795781, 36.136030499699999 ], [ -115.1795727, 36.136030499699999 ], [ -115.1795727, 36.136033199700002 ], [ -115.17956190000001, 36.136033199700002 ], [ -115.17956190000001, 36.136035899700005 ] ] ] } }
]
}
