{
"type": "FeatureCollection",
"crs": { "type": "name", "properties": { "name": "urn:ogc:def:crs:OGC:1.3:CRS84" } },
"features": [
{ "type": "Feature", "properties": { "value": 255.0 }, "geometry": { "type": "Polygon", "coordinates": [ [ [ -115.2314073, 36.158132699799999 ], [ -115.230951, 36.158132699799999 ], [ -115.230951, 36.1581272998 ], [ -115.2309456, 36.1581272998 ], [ -115.2309456, 36.158124599799997 ], [ -115.2309429, 36.158124599799997 ], [ -115.2309429, 36.158121899800001 ], [ -115.2309402, 36.158121899800001 ], [ -115.2309402, 36.158119199799998 ], [ -115.2309375, 36.158119199799998 ], [ -115.2309375, 36.158116499800002 ], [ -115.2309348, 36.158116499800002 ], [ -115.2309348, 36.158113799799999 ], [ -115.2309321, 36.158113799799999 ], [ -115.2309321, 36.158111099800003 ], [ -115.2309294, 36.158111099800003 ], [ -115.2309294, 36.1581083998 ], [ -115.230924, 36.1581083998 ], [ -115.230924, 36.158105699799997 ], [ -115.2309213, 36.158105699799997 ], [ -115.2309213, 36.158100299799997 ], [ -115.2309186, 36.158100299799997 ], [ -115.2309186, 36.158097599800001 ], [ -115.2309132, 36.158097599800001 ], [ -115.2309132, 36.158094899799998 ], [ -115.2309105, 36.158094899799998 ], [ -115.2309105, 36.158092199800002 ], [ -115.2309051, 36.158092199800002 ], [ -115.2309051, 36.158089499799999 ], [ -115.230897, 36.158089499799999 ], [ -115.230897, 36.158086799799996 ], [ -115.2308943, 36.158086799799996 ], [ -115.2308943, 36.1580840998 ], [ -115.2308916, 36.1580840998 ], [ -115.2308916, 36.158075999799998 ], [ -115.2308943, 36.158075999799998 ], [ -115.2308943, 36.158048999800002 ], [ -115.230897, 36.158048999800002 ], [ -115.230897, 36.1580354998 ], [ -115.2308997, 36.1580354998 ], [ -115.2308997, 36.158008499799998 ], [ -115.2309024, 36.158008499799998 ], [ -115.2309024, 36.158005799800002 ], [ -115.2308997, 36.158005799800002 ], [ -115.2308997, 36.157994999799996 ], [ -115.2309024, 36.157994999799996 ], [ -115.2309024, 36.1579922998 ], [ -115.2308997, 36.1579922998 ], [ -115.2308997, 36.157981499800002 ], [ -115.2309024, 36.157981499800002 ], [ -115.2309024, 36.157973399799999 ], [ -115.2308997, 36.157973399799999 ], [ -115.2308997, 36.157954499799999 ], [ -115.230897, 36.157954499799999 ], [ -115.230897, 36.157938299800001 ], [ -115.2308943, 36.157938299800001 ], [ -115.2308943, 36.1579247998 ], [ -115.230897, 36.1579247998 ], [ -115.230897, 36.157911299799999 ], [ -115.2308997, 36.157911299799999 ], [ -115.2308997, 36.157905899799999 ], [ -115.2309024, 36.157905899799999 ], [ -115.2309024, 36.1579004998 ], [ -115.2309051, 36.1579004998 ], [ -115.2309051, 36.157895099800001 ], [ -115.2309078, 36.157895099800001 ], [ -115.2309078, 36.157892399799998 ], [ -115.2309132, 36.157892399799998 ], [ -115.2309132, 36.157889699800002 ], [ -115.2309159, 36.157889699800002 ], [ -115.2309159, 36.157886999799999 ], [ -115.2309186, 36.157886999799999 ], [ -115.2309186, 36.157884299799996 ], [ -115.230978, 36.157884299799996 ], [ -115.230978, 36.157886999799999 ], [ -115.2309888, 36.157886999799999 ], [ -115.2309888, 36.157889699800002 ], [ -115.2309969, 36.157889699800002 ], [ -115.2309969, 36.157892399799998 ], [ -115.2310023, 36.157892399799998 ], [ -115.2310023, 36.157895099800001 ], [ -115.231005, 36.157895099800001 ], [ -115.231005, 36.157897799799997 ], [ -115.2310077, 36.157897799799997 ], [ -115.2310077, 36.1579004998 ], [ -115.2310131, 36.1579004998 ], [ -115.2310131, 36.157903199799996 ], [ -115.2310239, 36.157903199799996 ], [ -115.2310239, 36.157905899799999 ], [ -115.2310347, 36.157905899799999 ], [ -115.2310347, 36.157908599800002 ], [ -115.2310455, 36.157908599800002 ], [ -115.2310455, 36.157911299799999 ], [ -115.2310563, 36.157911299799999 ], [ -115.2310563, 36.157913999800002 ], [ -115.2310671, 36.157913999800002 ], [ -115.2310671, 36.157916699799998 ], [ -115.2310725, 36.157916699799998 ], [ -115.2310725, 36.157919399800001 ], [ -115.2310914, 36.157919399800001 ], [ -115.2310914, 36.157922099799997 ], [ -115.2311184, 36.157922099799997 ], [ -115.2311184, 36.1579247998 ], [ -115.2311346, 36.1579247998 ], [ -115.2311346, 36.157919399800001 ], [ -115.2311373, 36.157919399800001 ], [ -115.2311373, 36.157908599800002 ], [ -115.23114, 36.157908599800002 ], [ -115.23114, 36.157895099800001 ], [ -115.2311427, 36.157895099800001 ], [ -115.2311427, 36.157884299799996 ], [ -115.2311454, 36.157884299799996 ], [ -115.2311454, 36.157859999799996 ], [ -115.2311481, 36.157859999799996 ], [ -115.2311481, 36.157843799799998 ], [ -115.2311508, 36.157843799799998 ], [ -115.2311508, 36.157838399799999 ], [ -115.2311535, 36.157838399799999 ], [ -115.2311535, 36.157830299799997 ], [ -115.2311562, 36.157830299799997 ], [ -115.2311562, 36.157827599800001 ], [ -115.2311589, 36.157827599800001 ], [ -115.2311589, 36.157824899799998 ], [ -115.2311643, 36.157824899799998 ], [ -115.2311643, 36.157822199800002 ], [ -115.2311751, 36.157822199800002 ], [ -115.2311751, 36.157819499799999 ], [ -115.2311778, 36.157819499799999 ], [ -115.2311778, 36.157814099799999 ], [ -115.2311886, 36.157814099799999 ], [ -115.2311886, 36.157819499799999 ], [ -115.2312075, 36.157819499799999 ], [ -115.2312075, 36.157822199800002 ], [ -115.2312345, 36.157822199800002 ], [ -115.2312345, 36.157824899799998 ], [ -115.2312588, 36.157824899799998 ], [ -115.2312588, 36.157827599800001 ], [ -115.2312642, 36.157827599800001 ], [ -115.2312642, 36.157830299799997 ], [ -115.2312669, 36.157830299799997 ], [ -115.2312669, 36.157835699799996 ], [ -115.2312696, 36.157835699799996 ], [ -115.2312696, 36.157838399799999 ], [ -115.2312723, 36.157838399799999 ], [ -115.2312723, 36.157849199799998 ], [ -115.2312696, 36.157849199799998 ], [ -115.2312696, 36.157854599799997 ], [ -115.2312669, 36.157854599799997 ], [ -115.2312669, 36.1578572998 ], [ -115.2312696, 36.1578572998 ], [ -115.2312696, 36.157865399800002 ], [ -115.2312723, 36.157865399800002 ], [ -115.2312723, 36.157870799800001 ], [ -115.2312777, 36.157870799800001 ], [ -115.2312777, 36.157873499799997 ], [ -115.2312858, 36.157873499799997 ], [ -115.2312858, 36.1578761998 ], [ -115.231302, 36.1578761998 ], [ -115.231302, 36.157878899799996 ], [ -115.2313182, 36.157878899799996 ], [ -115.2313182, 36.1578815998 ], [ -115.2313317, 36.1578815998 ], [ -115.2313317, 36.157884299799996 ], [ -115.2313776, 36.157884299799996 ], [ -115.2313776, 36.157886999799999 ], [ -115.231383, 36.157886999799999 ], [ -115.231383, 36.157889699800002 ], [ -115.2313857, 36.157889699800002 ], [ -115.2313857, 36.157892399799998 ], [ -115.2313884, 36.157892399799998 ], [ -115.2313884, 36.157895099800001 ], [ -115.2313911, 36.157895099800001 ], [ -115.2313911, 36.157897799799997 ], [ -115.2313938, 36.157897799799997 ], [ -115.2313938, 36.157903199799996 ], [ -115.2313965, 36.157903199799996 ], [ -115.2313965, 36.157919399800001 ], [ -115.2313992, 36.157919399800001 ], [ -115.2313992, 36.1579247998 ], [ -115.2314019, 36.1579247998 ], [ -115.2314019, 36.157932899800002 ], [ -115.2314046, 36.157932899800002 ], [ -115.2314046, 36.157940999799997 ], [ -115.2314073, 36.157940999799997 ], [ -115.2314073, 36.157943699800001 ], [ -115.23141, 36.157943699800001 ], [ -115.23141, 36.157946399799997 ], [ -115.2314127, 36.157946399799997 ], [ -115.2314127, 36.157951799799996 ], [ -115.2314154, 36.157951799799996 ], [ -115.2314154, 36.157989599799997 ], [ -115.2314181, 36.157989599799997 ], [ -115.2314181, 36.158003099799998 ], [ -115.2314154, 36.158003099799998 ], [ -115.2314154, 36.1580354998 ], [ -115.2314127, 36.1580354998 ], [ -115.2314127, 36.158043599800003 ], [ -115.2314154, 36.158043599800003 ], [ -115.2314154, 36.158046299799999 ], [ -115.2314127, 36.158046299799999 ], [ -115.2314127, 36.158073299800002 ], [ -115.23141, 36.158073299800002 ], [ -115.23141, 36.158086799799996 ], [ -115.2314073, 36.158086799799996 ], [ -115.2314073, 36.158102999800001 ], [ -115.2314046, 36.158102999800001 ], [ -115.2314046, 36.158111099800003 ], [ -115.2314073, 36.158111099800003 ], [ -115.2314073, 36.158132699799999 ] ] ] } },
{ "type": "Feature", "properties": { "value": 255.0 }, "geometry": { "type": "Polygon", "coordinates": [ [ [ -115.2319203, 36.156509999799994 ], [ -115.2319095, 36.156509999799994 ], [ -115.2319095, 36.156507299799998 ], [ -115.2319041, 36.156507299799998 ], [ -115.2319041, 36.156501899799999 ], [ -115.2318987, 36.156501899799999 ], [ -115.2318987, 36.156496499799999 ], [ -115.231896, 36.156496499799999 ], [ -115.231896, 36.156493799799996 ], [ -115.2319176, 36.156493799799996 ], [ -115.2319176, 36.156496499799999 ], [ -115.231923, 36.156496499799999 ], [ -115.231923, 36.156499199799995 ], [ -115.2319284, 36.156499199799995 ], [ -115.2319284, 36.156504599799995 ], [ -115.2319257, 36.156504599799995 ], [ -115.2319257, 36.156507299799998 ], [ -115.2319203, 36.156507299799998 ], [ -115.2319203, 36.156509999799994 ] ] ] } },
{ "type": "Feature", "properties": { "value": 255.0 }, "geometry": { "type": "Polygon", "coordinates": [ [ [ -115.2317637, 36.157047299799999 ], [ -115.2317502, 36.157047299799999 ], [ -115.2317502, 36.157044599799995 ], [ -115.23168, 36.157044599799995 ], [ -115.23168, 36.157047299799999 ], [ -115.2316503, 36.157047299799999 ], [ -115.2316503, 36.157044599799995 ], [ -115.2315693, 36.157044599799995 ], [ -115.2315693, 36.157041899799999 ], [ -115.2315666, 36.157041899799999 ], [ -115.2315666, 36.1570364998 ], [ -115.2315639, 36.1570364998 ], [ -115.2315639, 36.157025699799995 ], [ -115.2315612, 36.157025699799995 ], [ -115.2315612, 36.157001399799995 ], [ -115.2315639, 36.157001399799995 ], [ -115.2315639, 36.156987899800001 ], [ -115.2315612, 36.156987899800001 ], [ -115.2315612, 36.156982499799994 ], [ -115.2315585, 36.156982499799994 ], [ -115.2315585, 36.156979799799998 ], [ -115.2315558, 36.156979799799998 ], [ -115.2315558, 36.156977099799995 ], [ -115.2315585, 36.156977099799995 ], [ -115.2315585, 36.156966299799997 ], [ -115.2315558, 36.156966299799997 ], [ -115.2315558, 36.156960899799998 ], [ -115.2315504, 36.156960899799998 ], [ -115.2315504, 36.156958199799995 ], [ -115.2315477, 36.156958199799995 ], [ -115.2315477, 36.156955499799999 ], [ -115.2315423, 36.156955499799999 ], [ -115.2315423, 36.156952799799996 ], [ -115.2315369, 36.156952799799996 ], [ -115.2315369, 36.1569500998 ], [ -115.2315288, 36.1569500998 ], [ -115.2315288, 36.156947399799996 ], [ -115.2315261, 36.156947399799996 ], [ -115.2315261, 36.1569446998 ], [ -115.2315207, 36.1569446998 ], [ -115.2315207, 36.156941999799997 ], [ -115.231518, 36.156941999799997 ], [ -115.231518, 36.156939299799994 ], [ -115.2315153, 36.156939299799994 ], [ -115.2315153, 36.156936599799998 ], [ -115.2315099, 36.156936599799998 ], [ -115.2315099, 36.156941999799997 ], [ -115.2315072, 36.156941999799997 ], [ -115.2315072, 36.156939299799994 ], [ -115.2315045, 36.156939299799994 ], [ -115.2315045, 36.156923099799997 ], [ -115.2315018, 36.156923099799997 ], [ -115.2315018, 36.156920399800001 ], [ -115.2314991, 36.156920399800001 ], [ -115.2314991, 36.156904199799996 ], [ -115.2314964, 36.156904199799996 ], [ -115.2314964, 36.1568771998 ], [ -115.2314937, 36.1568771998 ], [ -115.2314937, 36.156828599800001 ], [ -115.231491, 36.156828599800001 ], [ -115.231491, 36.156763799799997 ], [ -115.2314883, 36.156763799799997 ], [ -115.2314883, 36.156755699799994 ], [ -115.231491, 36.156755699799994 ], [ -115.231491, 36.156739499799997 ], [ -115.2314937, 36.156739499799997 ], [ -115.2314937, 36.156736799799994 ], [ -115.231491, 36.156736799799994 ], [ -115.231491, 36.156723299799999 ], [ -115.2314937, 36.156723299799999 ], [ -115.2314937, 36.1566989998 ], [ -115.2314964, 36.1566989998 ], [ -115.2314964, 36.156693599800001 ], [ -115.2314937, 36.156693599800001 ], [ -115.2314937, 36.156690899799997 ], [ -115.2314964, 36.156690899799997 ], [ -115.2314964, 36.156680099799999 ], [ -115.2314991, 36.156680099799999 ], [ -115.2314991, 36.156671999799997 ], [ -115.2315018, 36.156671999799997 ], [ -115.2315018, 36.156666599799998 ], [ -115.2315045, 36.156666599799998 ], [ -115.2315045, 36.156661199799998 ], [ -115.2315072, 36.156661199799998 ], [ -115.2315072, 36.156658499799995 ], [ -115.2315045, 36.156658499799995 ], [ -115.2315045, 36.156653099799996 ], [ -115.2315018, 36.156653099799996 ], [ -115.2315018, 36.156647699799997 ], [ -115.2314991, 36.156647699799997 ], [ -115.2314991, 36.156639599799995 ], [ -115.2314964, 36.156639599799995 ], [ -115.2314964, 36.156599099799998 ], [ -115.2314991, 36.156599099799998 ], [ -115.2314991, 36.156590999799995 ], [ -115.2315018, 36.156590999799995 ], [ -115.2315018, 36.1565828998 ], [ -115.2315045, 36.1565828998 ], [ -115.2315045, 36.156580199799997 ], [ -115.2315099, 36.156580199799997 ], [ -115.2315099, 36.156577499799994 ], [ -115.2315126, 36.156577499799994 ], [ -115.2315126, 36.156572099799995 ], [ -115.231518, 36.156572099799995 ], [ -115.231518, 36.156566699799995 ], [ -115.2315207, 36.156566699799995 ], [ -115.2315207, 36.156563999799999 ], [ -115.2315396, 36.156563999799999 ], [ -115.2315396, 36.156561299799996 ], [ -115.2315639, 36.156561299799996 ], [ -115.2315639, 36.156563999799999 ], [ -115.2315774, 36.156563999799999 ], [ -115.2315774, 36.156561299799996 ], [ -115.2315855, 36.156561299799996 ], [ -115.2315855, 36.156555899799997 ], [ -115.231599, 36.156555899799997 ], [ -115.231599, 36.156563999799999 ], [ -115.2316071, 36.156563999799999 ], [ -115.2316071, 36.156561299799996 ], [ -115.2316098, 36.156561299799996 ], [ -115.2316098, 36.1565585998 ], [ -115.2316314, 36.1565585998 ], [ -115.2316314, 36.156555899799997 ], [ -115.2316341, 36.156555899799997 ], [ -115.2316341, 36.156550499799998 ], [ -115.2316287, 36.156550499799998 ], [ -115.2316287, 36.156545099799999 ], [ -115.2316314, 36.156545099799999 ], [ -115.2316314, 36.156542399799996 ], [ -115.2316341, 36.156542399799996 ], [ -115.2316341, 36.1565396998 ], [ -115.2316395, 36.1565396998 ], [ -115.2316395, 36.156534299799993 ], [ -115.2316476, 36.156534299799993 ], [ -115.2316476, 36.156536999799997 ], [ -115.231653, 36.156536999799997 ], [ -115.231653, 36.156534299799993 ], [ -115.2316584, 36.156534299799993 ], [ -115.2316584, 36.156531599799997 ], [ -115.2316638, 36.156531599799997 ], [ -115.2316638, 36.156534299799993 ], [ -115.2316665, 36.156534299799993 ], [ -115.2316665, 36.156536999799997 ], [ -115.2316719, 36.156536999799997 ], [ -115.2316719, 36.1565396998 ], [ -115.2316773, 36.1565396998 ], [ -115.2316773, 36.156536999799997 ], [ -115.23168, 36.156536999799997 ], [ -115.23168, 36.156528899799994 ], [ -115.2316854, 36.156528899799994 ], [ -115.2316854, 36.156531599799997 ], [ -115.2317259, 36.156531599799997 ], [ -115.2317259, 36.156528899799994 ], [ -115.2317286, 36.156528899799994 ], [ -115.2317286, 36.156526199799998 ], [ -115.2317313, 36.156526199799998 ], [ -115.2317313, 36.156523499799995 ], [ -115.231734, 36.156523499799995 ], [ -115.231734, 36.156520799799999 ], [ -115.2317421, 36.156520799799999 ], [ -115.2317421, 36.156518099799996 ], [ -115.2317448, 36.156518099799996 ], [ -115.2317448, 36.1565153998 ], [ -115.2317475, 36.1565153998 ], [ -115.2317475, 36.156504599799995 ], [ -115.2317502, 36.156504599799995 ], [ -115.2317502, 36.156496499799999 ], [ -115.2317529, 36.156496499799999 ], [ -115.2317529, 36.1564910998 ], [ -115.2317502, 36.1564910998 ], [ -115.2317502, 36.156458699799998 ], [ -115.2317529, 36.156458699799998 ], [ -115.2317529, 36.156450599799996 ], [ -115.2317502, 36.156450599799996 ], [ -115.2317502, 36.156439799799998 ], [ -115.2317475, 36.156439799799998 ], [ -115.2317475, 36.156418199799994 ], [ -115.2317502, 36.156418199799994 ], [ -115.2317502, 36.156410099799999 ], [ -115.2317475, 36.156410099799999 ], [ -115.2317475, 36.156407399799996 ], [ -115.2317394, 36.156407399799996 ], [ -115.2317394, 36.156404699799999 ], [ -115.2317286, 36.156404699799999 ], [ -115.2317286, 36.156407399799996 ], [ -115.2317124, 36.156407399799996 ], [ -115.2317124, 36.156410099799999 ], [ -115.2317097, 36.156410099799999 ], [ -115.2317097, 36.156412799799995 ], [ -115.2317016, 36.156412799799995 ], [ -115.2317016, 36.156410099799999 ], [ -115.2316935, 36.156410099799999 ], [ -115.2316935, 36.156412799799995 ], [ -115.2316881, 36.156412799799995 ], [ -115.2316881, 36.156415499799998 ], [ -115.23168, 36.156415499799998 ], [ -115.23168, 36.156377699799997 ], [ -115.2317232, 36.156377699799997 ], [ -115.2317232, 36.1563803998 ], [ -115.2317286, 36.1563803998 ], [ -115.2317286, 36.156383099799996 ], [ -115.2317448, 36.156383099799996 ], [ -115.2317448, 36.1563803998 ], [ -115.2317502, 36.1563803998 ], [ -115.2317502, 36.156377699799997 ], [ -115.2318204, 36.156377699799997 ], [ -115.2318204, 36.1563803998 ], [ -115.231842, 36.1563803998 ], [ -115.231842, 36.156383099799996 ], [ -115.2318474, 36.156383099799996 ], [ -115.2318474, 36.156388499799995 ], [ -115.2318582, 36.156388499799995 ], [ -115.2318582, 36.156385799799999 ], [ -115.2318717, 36.156385799799999 ], [ -115.2318717, 36.156388499799995 ], [ -115.2318771, 36.156388499799995 ], [ -115.2318771, 36.156385799799999 ], [ -115.2318798, 36.156385799799999 ], [ -115.2318798, 36.156383099799996 ], [ -115.2318879, 36.156383099799996 ], [ -115.2318879, 36.156385799799999 ], [ -115.2318906, 36.156385799799999 ], [ -115.2318906, 36.156391199799998 ], [ -115.2318879, 36.156391199799998 ], [ -115.2318879, 36.156396599799997 ], [ -115.2319014, 36.156396599799997 ], [ -115.2319014, 36.156399299799993 ], [ -115.2319176, 36.156399299799993 ], [ -115.2319176, 36.156401999799996 ], [ -115.2319365, 36.156401999799996 ], [ -115.2319365, 36.156404699799999 ], [ -115.2319473, 36.156404699799999 ], [ -115.2319473, 36.156407399799996 ], [ -115.2319527, 36.156407399799996 ], [ -115.2319527, 36.156412799799995 ], [ -115.23195, 36.156412799799995 ], [ -115.23195, 36.156415499799998 ], [ -115.2319662, 36.156415499799998 ], [ -115.2319662, 36.156418199799994 ], [ -115.2319716, 36.156418199799994 ], [ -115.2319716, 36.156415499799998 ], [ -115.2319851, 36.156415499799998 ], [ -115.2319851, 36.156412799799995 ], [ -115.2320121, 36.156412799799995 ], [ -115.2320121, 36.156410099799999 ], [ -115.2320148, 36.156410099799999 ], [ -115.2320148, 36.156407399799996 ], [ -115.2320202, 36.156407399799996 ], [ -115.2320202, 36.156404699799999 ], [ -115.2320337, 36.156404699799999 ], [ -115.2320337, 36.156407399799996 ], [ -115.2320391, 36.156407399799996 ], [ -115.2320391, 36.156404699799999 ], [ -115.2320445, 36.156404699799999 ], [ -115.2320445, 36.156407399799996 ], [ -115.2320472, 36.156407399799996 ], [ -115.2320472, 36.156404699799999 ], [ -115.2320526, 36.156404699799999 ], [ -115.2320526, 36.156455999799995 ], [ -115.2320364, 36.156455999799995 ], [ -115.2320364, 36.156453299799999 ], [ -115.2320256, 36.156453299799999 ], [ -115.2320256, 36.156450599799996 ], [ -115.23200940000001, 36.156450599799996 ], [ -115.23200940000001, 36.1564478998 ], [ -115.2319932, 36.1564478998 ], [ -115.2319932, 36.156445199799997 ], [ -115.2319824, 36.156445199799997 ], [ -115.2319824, 36.156442499799994 ], [ -115.2319743, 36.156442499799994 ], [ -115.2319743, 36.156439799799998 ], [ -115.2319662, 36.156439799799998 ], [ -115.2319662, 36.156431699799995 ], [ -115.2319635, 36.156431699799995 ], [ -115.2319635, 36.156428999799999 ], [ -115.2319554, 36.156428999799999 ], [ -115.2319554, 36.156426299799996 ], [ -115.2319527, 36.156426299799996 ], [ -115.2319527, 36.1564235998 ], [ -115.2319554, 36.1564235998 ], [ -115.2319554, 36.156420899799997 ], [ -115.2319473, 36.156420899799997 ], [ -115.2319473, 36.156426299799996 ], [ -115.2319446, 36.156426299799996 ], [ -115.2319446, 36.156428999799999 ], [ -115.2319365, 36.156428999799999 ], [ -115.2319365, 36.156431699799995 ], [ -115.2319338, 36.156431699799995 ], [ -115.2319338, 36.156434399799998 ], [ -115.2319203, 36.156434399799998 ], [ -115.2319203, 36.156437099799994 ], [ -115.2319122, 36.156437099799994 ], [ -115.2319122, 36.156439799799998 ], [ -115.2319041, 36.156439799799998 ], [ -115.2319041, 36.156437099799994 ], [ -115.2318933, 36.156437099799994 ], [ -115.2318933, 36.156434399799998 ], [ -115.2318798, 36.156434399799998 ], [ -115.2318798, 36.156437099799994 ], [ -115.2318771, 36.156437099799994 ], [ -115.2318771, 36.156439799799998 ], [ -115.2318798, 36.156439799799998 ], [ -115.2318798, 36.156474899799996 ], [ -115.2318825, 36.156474899799996 ], [ -115.2318825, 36.156480299799995 ], [ -115.2318852, 36.156480299799995 ], [ -115.2318852, 36.156488399799997 ], [ -115.2318879, 36.156488399799997 ], [ -115.2318879, 36.1564910998 ], [ -115.2318906, 36.1564910998 ], [ -115.2318906, 36.156493799799996 ], [ -115.2318933, 36.156493799799996 ], [ -115.2318933, 36.156499199799995 ], [ -115.2318879, 36.156499199799995 ], [ -115.2318879, 36.156501899799999 ], [ -115.2318852, 36.156501899799999 ], [ -115.2318852, 36.156504599799995 ], [ -115.2318906, 36.156504599799995 ], [ -115.2318906, 36.156509999799994 ], [ -115.2318879, 36.156509999799994 ], [ -115.2318879, 36.1565153998 ], [ -115.2318852, 36.1565153998 ], [ -115.2318852, 36.156520799799999 ], [ -115.2318825, 36.156520799799999 ], [ -115.2318825, 36.156526199799998 ], [ -115.2318852, 36.156526199799998 ], [ -115.2318852, 36.156528899799994 ], [ -115.2319149, 36.156528899799994 ], [ -115.2319149, 36.156523499799995 ], [ -115.2319311, 36.156523499799995 ], [ -115.2319311, 36.156526199799998 ], [ -115.23194190000001, 36.156526199799998 ], [ -115.23194190000001, 36.156523499799995 ], [ -115.2319608, 36.156523499799995 ], [ -115.2319608, 36.156520799799999 ], [ -115.2319635, 36.156520799799999 ], [ -115.2319635, 36.156512699799997 ], [ -115.2319689, 36.156512699799997 ], [ -115.2319689, 36.156509999799994 ], [ -115.2319986, 36.156509999799994 ], [ -115.2319986, 36.156512699799997 ], [ -115.2320121, 36.156512699799997 ], [ -115.2320121, 36.156509999799994 ], [ -115.2320229, 36.156509999799994 ], [ -115.2320229, 36.156507299799998 ], [ -115.2320256, 36.156507299799998 ], [ -115.2320256, 36.156504599799995 ], [ -115.2320283, 36.156504599799995 ], [ -115.2320283, 36.156501899799999 ], [ -115.232031, 36.156501899799999 ], [ -115.232031, 36.156493799799996 ], [ -115.2320337, 36.156493799799996 ], [ -115.2320337, 36.1564910998 ], [ -115.2320526, 36.1564910998 ], [ -115.2320526, 36.156731399799995 ], [ -115.2320445, 36.156731399799995 ], [ -115.2320445, 36.156734099799998 ], [ -115.2320391, 36.156734099799998 ], [ -115.2320391, 36.156731399799995 ], [ -115.232004, 36.156731399799995 ], [ -115.232004, 36.156728699799999 ], [ -115.2319959, 36.156728699799999 ], [ -115.2319959, 36.156731399799995 ], [ -115.2319905, 36.156731399799995 ], [ -115.2319905, 36.156728699799999 ], [ -115.2319851, 36.156728699799999 ], [ -115.2319851, 36.156731399799995 ], [ -115.2319635, 36.156731399799995 ], [ -115.2319635, 36.156734099799998 ], [ -115.2319257, 36.156734099799998 ], [ -115.2319257, 36.156731399799995 ], [ -115.2319203, 36.156731399799995 ], [ -115.2319203, 36.156728699799999 ], [ -115.2319041, 36.156728699799999 ], [ -115.2319041, 36.156731399799995 ], [ -115.2318717, 36.156731399799995 ], [ -115.2318717, 36.156734099799998 ], [ -115.2318582, 36.156734099799998 ], [ -115.2318582, 36.156731399799995 ], [ -115.2318447, 36.156731399799995 ], [ -115.2318447, 36.156728699799999 ], [ -115.2318231, 36.156728699799999 ], [ -115.2318231, 36.156731399799995 ], [ -115.231815, 36.156731399799995 ], [ -115.231815, 36.156734099799998 ], [ -115.2318096, 36.156734099799998 ], [ -115.2318096, 36.156736799799994 ], [ -115.2317988, 36.156736799799994 ], [ -115.2317988, 36.156739499799997 ], [ -115.2317853, 36.156739499799997 ], [ -115.2317853, 36.156744899799996 ], [ -115.2317826, 36.156744899799996 ], [ -115.2317826, 36.156750299799995 ], [ -115.2317691, 36.156750299799995 ], [ -115.2317691, 36.156752999799998 ], [ -115.2317718, 36.156752999799998 ], [ -115.2317718, 36.156758399799998 ], [ -115.2317691, 36.156758399799998 ], [ -115.2317691, 36.156801599799998 ], [ -115.2317718, 36.156801599799998 ], [ -115.2317718, 36.156806999799997 ], [ -115.2317691, 36.156806999799997 ], [ -115.2317691, 36.156815099799999 ], [ -115.2317718, 36.156815099799999 ], [ -115.2317718, 36.156844799799998 ], [ -115.2317691, 36.156844799799998 ], [ -115.2317691, 36.156863699799999 ], [ -115.2317664, 36.156863699799999 ], [ -115.2317664, 36.156879899799996 ], [ -115.2317691, 36.156879899799996 ], [ -115.2317691, 36.156882599799999 ], [ -115.2318042, 36.156882599799999 ], [ -115.2318042, 36.156885299799995 ], [ -115.2318582, 36.156885299799995 ], [ -115.2318582, 36.156882599799999 ], [ -115.2319068, 36.156882599799999 ], [ -115.2319068, 36.156879899799996 ], [ -115.2319608, 36.156879899799996 ], [ -115.2319608, 36.156882599799999 ], [ -115.2320445, 36.156882599799999 ], [ -115.2320445, 36.156885299799995 ], [ -115.2320472, 36.156885299799995 ], [ -115.2320472, 36.156882599799999 ], [ -115.2320526, 36.156882599799999 ], [ -115.2320526, 36.156990599799997 ], [ -115.2320499, 36.156990599799997 ], [ -115.2320499, 36.1569932998 ], [ -115.2319986, 36.1569932998 ], [ -115.2319986, 36.156995999799996 ], [ -115.2318933, 36.156995999799996 ], [ -115.2318933, 36.156998699799999 ], [ -115.231842, 36.156998699799999 ], [ -115.231842, 36.156995999799996 ], [ -115.2318312, 36.156995999799996 ], [ -115.2318312, 36.156998699799999 ], [ -115.2318069, 36.156998699799999 ], [ -115.2318069, 36.156995999799996 ], [ -115.2317853, 36.156995999799996 ], [ -115.2317853, 36.156998699799999 ], [ -115.2317745, 36.156998699799999 ], [ -115.2317745, 36.157031099800001 ], [ -115.2317691, 36.157031099800001 ], [ -115.2317691, 36.157039199799996 ], [ -115.2317664, 36.157039199799996 ], [ -115.2317664, 36.157044599799995 ], [ -115.2317637, 36.157044599799995 ], [ -115.2317637, 36.157047299799999 ] ], [ [ -115.2316476, 36.156723299799999 ], [ -115.2316476, 36.156720599799996 ], [ -115.2316422, 36.156720599799996 ], [ -115.2316422, 36.156723299799999 ], [ -115.2316476, 36.156723299799999 ] ] ] } }
]
}
