{
"type": "FeatureCollection",
"crs": { "type": "name", "properties": { "name": "urn:ogc:def:crs:OGC:1.3:CRS84" } },
"features": [
{ "type": "Feature", "properties": { "value": 255.0 }, "geometry": { "type": "Polygon", "coordinates": [ [ [ -115.1932131, 36.194342399900002 ], [ -115.1931672, 36.194342399900002 ], [ -115.1931672, 36.194339699899999 ], [ -115.1931645, 36.194339699899999 ], [ -115.1931645, 36.194258699899997 ], [ -115.1932077, 36.194258699899997 ], [ -115.1932077, 36.1942613999 ], [ -115.1932347, 36.1942613999 ], [ -115.1932347, 36.194264099899996 ], [ -115.1932914, 36.194264099899996 ], [ -115.1932914, 36.194266799899999 ], [ -115.1933157, 36.194266799899999 ], [ -115.1933157, 36.194264099899996 ], [ -115.1933292, 36.194264099899996 ], [ -115.1933292, 36.194266799899999 ], [ -115.1933751, 36.194266799899999 ], [ -115.1933751, 36.194264099899996 ], [ -115.1934156, 36.194264099899996 ], [ -115.1934156, 36.1942613999 ], [ -115.1934426, 36.1942613999 ], [ -115.1934426, 36.194336999899996 ], [ -115.193367, 36.194336999899996 ], [ -115.193367, 36.194339699899999 ], [ -115.1932131, 36.194339699899999 ], [ -115.1932131, 36.194342399900002 ] ] ] } },
{ "type": "Feature", "properties": { "value": 255.0 }, "geometry": { "type": "Polygon", "coordinates": [ [ [ -115.1925624, 36.193880699899999 ], [ -115.1924436, 36.193880699899999 ], [ -115.1924436, 36.193877999899996 ], [ -115.1924409, 36.193877999899996 ], [ -115.1924409, 36.193840199900002 ], [ -115.1924436, 36.193840199900002 ], [ -115.1924436, 36.193837499899999 ], [ -115.1924463, 36.193837499899999 ], [ -115.1924463, 36.193834799900003 ], [ -115.192449, 36.193834799900003 ], [ -115.192449, 36.1938320999 ], [ -115.1925057, 36.1938320999 ], [ -115.1925057, 36.193829399899997 ], [ -115.1925732, 36.193829399899997 ], [ -115.1925732, 36.193826699900001 ], [ -115.1925894, 36.193826699900001 ], [ -115.1925894, 36.193829399899997 ], [ -115.1925948, 36.193829399899997 ], [ -115.1925948, 36.1938320999 ], [ -115.1925975, 36.1938320999 ], [ -115.1925975, 36.193867199899998 ], [ -115.1925948, 36.193867199899998 ], [ -115.1925948, 36.193877999899996 ], [ -115.1925624, 36.193877999899996 ], [ -115.1925624, 36.193880699899999 ] ] ] } },
{ "type": "Feature", "properties": { "value": 255.0 }, "geometry": { "type": "Polygon", "coordinates": [ [ [ -115.1932671, 36.193869899900001 ], [ -115.1932563, 36.193869899900001 ], [ -115.1932563, 36.193867199899998 ], [ -115.1932482, 36.193867199899998 ], [ -115.1932482, 36.193864499900002 ], [ -115.1932455, 36.193864499900002 ], [ -115.1932455, 36.193859099900003 ], [ -115.1932482, 36.193859099900003 ], [ -115.1932482, 36.1938563999 ], [ -115.1932455, 36.1938563999 ], [ -115.1932455, 36.193829399899997 ], [ -115.1932428, 36.193829399899997 ], [ -115.1932428, 36.193823999899998 ], [ -115.1932455, 36.193823999899998 ], [ -115.1932455, 36.193821299900002 ], [ -115.1932644, 36.193821299900002 ], [ -115.1932644, 36.193823999899998 ], [ -115.1932698, 36.193823999899998 ], [ -115.1932698, 36.193840199900002 ], [ -115.1932671, 36.193840199900002 ], [ -115.1932671, 36.193853699899996 ], [ -115.1932698, 36.193853699899996 ], [ -115.1932698, 36.193867199899998 ], [ -115.1932671, 36.193867199899998 ], [ -115.1932671, 36.193869899900001 ] ], [ [ -115.1932644, 36.193861799899999 ], [ -115.1932644, 36.193853699899996 ], [ -115.1932617, 36.193853699899996 ], [ -115.1932617, 36.193861799899999 ], [ -115.1932644, 36.193861799899999 ] ] ] } },
{ "type": "Feature", "properties": { "value": 255.0 }, "geometry": { "type": "Polygon", "coordinates": [ [ [ -115.1934345, 36.1937834999 ], [ -115.1934156, 36.1937834999 ], [ -115.1934156, 36.193780799899997 ], [ -115.1933886, 36.193780799899997 ], [ -115.1933886, 36.193778099900001 ], [ -115.1933427, 36.193778099900001 ], [ -115.1933427, 36.193780799899997 ], [ -115.1933238, 36.193780799899997 ], [ -115.1933238, 36.193778099900001 ], [ -115.1933184, 36.193778099900001 ], [ -115.1933184, 36.193772699900002 ], [ -115.1933157, 36.193772699900002 ], [ -115.1933157, 36.193769999899999 ], [ -115.1933184, 36.193769999899999 ], [ -115.1933184, 36.193756499899997 ], [ -115.1933211, 36.193756499899997 ], [ -115.1933211, 36.193753799900001 ], [ -115.1933265, 36.193753799900001 ], [ -115.1933265, 36.193756499899997 ], [ -115.1933616, 36.193756499899997 ], [ -115.1933616, 36.193759199900001 ], [ -115.1934237, 36.193759199900001 ], [ -115.1934237, 36.193756499899997 ], [ -115.1934264, 36.193756499899997 ], [ -115.1934264, 36.193759199900001 ], [ -115.1934291, 36.193759199900001 ], [ -115.1934291, 36.193761899899997 ], [ -115.1934345, 36.193761899899997 ], [ -115.1934345, 36.193767299900003 ], [ -115.1934372, 36.193767299900003 ], [ -115.1934372, 36.1937645999 ], [ -115.1934399, 36.1937645999 ], [ -115.1934399, 36.193759199900001 ], [ -115.1934426, 36.193759199900001 ], [ -115.1934426, 36.193780799899997 ], [ -115.1934345, 36.193780799899997 ], [ -115.1934345, 36.1937834999 ] ] ] } },
{ "type": "Feature", "properties": { "value": 255.0 }, "geometry": { "type": "Polygon", "coordinates": [ [ [ -115.1918469, 36.194183099900002 ], [ -115.1918253, 36.194183099900002 ], [ -115.1918253, 36.194180399899999 ], [ -115.1918199, 36.194180399899999 ], [ -115.1918199, 36.194177699899996 ], [ -115.191817199999988, 36.194177699899996 ], [ -115.191817199999988, 36.194172299899996 ], [ -115.1918145, 36.194172299899996 ], [ -115.1918145, 36.194166899899997 ], [ -115.1918118, 36.194166899899997 ], [ -115.1918118, 36.194164199900001 ], [ -115.1918091, 36.194164199900001 ], [ -115.1918091, 36.194161499899998 ], [ -115.1918064, 36.194161499899998 ], [ -115.1918064, 36.194158799900002 ], [ -115.191801, 36.194158799900002 ], [ -115.191801, 36.194156099899999 ], [ -115.191798299999988, 36.194156099899999 ], [ -115.191798299999988, 36.194153399899996 ], [ -115.1917956, 36.194153399899996 ], [ -115.1917956, 36.194145299900001 ], [ -115.1917929, 36.194145299900001 ], [ -115.1917929, 36.194142599899997 ], [ -115.1917902, 36.194142599899997 ], [ -115.1917902, 36.194137199899998 ], [ -115.1917875, 36.194137199899998 ], [ -115.1917875, 36.1941263999 ], [ -115.1917848, 36.1941263999 ], [ -115.1917848, 36.194123699899997 ], [ -115.1917821, 36.194123699899997 ], [ -115.1917821, 36.194120999900001 ], [ -115.191774, 36.194120999900001 ], [ -115.191774, 36.194118299899998 ], [ -115.1917659, 36.194118299899998 ], [ -115.1917659, 36.194115599900002 ], [ -115.1917632, 36.194115599900002 ], [ -115.1917632, 36.194112899899999 ], [ -115.1917605, 36.194112899899999 ], [ -115.1917605, 36.194110199899995 ], [ -115.1917578, 36.194110199899995 ], [ -115.1917578, 36.194107499899999 ], [ -115.1917551, 36.194107499899999 ], [ -115.1917551, 36.194104799899996 ], [ -115.191747, 36.194104799899996 ], [ -115.191747, 36.194099399899997 ], [ -115.1917443, 36.194099399899997 ], [ -115.1917443, 36.194093999899998 ], [ -115.1917416, 36.194093999899998 ], [ -115.1917416, 36.194091299900002 ], [ -115.1917389, 36.194091299900002 ], [ -115.1917389, 36.194088599899999 ], [ -115.1917254, 36.194088599899999 ], [ -115.1917254, 36.194091299900002 ], [ -115.1917119, 36.194091299900002 ], [ -115.1917119, 36.194088599899999 ], [ -115.1917065, 36.194088599899999 ], [ -115.1917065, 36.194085899899996 ], [ -115.1916984, 36.194085899899996 ], [ -115.1916984, 36.1940831999 ], [ -115.1916903, 36.1940831999 ], [ -115.1916903, 36.194080499899997 ], [ -115.1916876, 36.194080499899997 ], [ -115.1916876, 36.193840199900002 ], [ -115.1916903, 36.193840199900002 ], [ -115.1916903, 36.193842899899998 ], [ -115.191693, 36.193842899899998 ], [ -115.191693, 36.193840199900002 ], [ -115.1916957, 36.193840199900002 ], [ -115.1916957, 36.193834799900003 ], [ -115.1917038, 36.193834799900003 ], [ -115.1917038, 36.1938320999 ], [ -115.1917065, 36.1938320999 ], [ -115.1917065, 36.193829399899997 ], [ -115.1917092, 36.193829399899997 ], [ -115.1917092, 36.193826699900001 ], [ -115.1917119, 36.193826699900001 ], [ -115.1917119, 36.193823999899998 ], [ -115.1917146, 36.193823999899998 ], [ -115.1917146, 36.193821299900002 ], [ -115.1917173, 36.193821299900002 ], [ -115.1917173, 36.193818599899998 ], [ -115.1917227, 36.193818599899998 ], [ -115.1917227, 36.193813199899999 ], [ -115.1917254, 36.193813199899999 ], [ -115.1917254, 36.1938077999 ], [ -115.1917281, 36.1938077999 ], [ -115.1917281, 36.193805099899997 ], [ -115.191730799999988, 36.193805099899997 ], [ -115.191730799999988, 36.193802399900001 ], [ -115.1917362, 36.193802399900001 ], [ -115.1917362, 36.193799699899998 ], [ -115.1917443, 36.193799699899998 ], [ -115.1917443, 36.193796999900002 ], [ -115.191747, 36.193796999900002 ], [ -115.191747, 36.193794299899999 ], [ -115.1917551, 36.193794299899999 ], [ -115.1917551, 36.193791599900003 ], [ -115.1917632, 36.193791599900003 ], [ -115.1917632, 36.193788899899999 ], [ -115.1917659, 36.193788899899999 ], [ -115.1917659, 36.1937834999 ], [ -115.1917713, 36.1937834999 ], [ -115.1917713, 36.193780799899997 ], [ -115.191774, 36.193780799899997 ], [ -115.191774, 36.193778099900001 ], [ -115.1917767, 36.193778099900001 ], [ -115.1917767, 36.193775399899998 ], [ -115.1917794, 36.193775399899998 ], [ -115.1917794, 36.193772699900002 ], [ -115.1917821, 36.193772699900002 ], [ -115.1917821, 36.193769999899999 ], [ -115.1917848, 36.193769999899999 ], [ -115.1917848, 36.1937645999 ], [ -115.1917902, 36.1937645999 ], [ -115.1917902, 36.193761899899997 ], [ -115.1917956, 36.193761899899997 ], [ -115.1917956, 36.193759199900001 ], [ -115.1918199, 36.193759199900001 ], [ -115.1918199, 36.193756499899997 ], [ -115.1918766, 36.193756499899997 ], [ -115.1918766, 36.193753799900001 ], [ -115.1919765, 36.193753799900001 ], [ -115.1919765, 36.193756499899997 ], [ -115.1919792, 36.193756499899997 ], [ -115.1919792, 36.193761899899997 ], [ -115.1919765, 36.193761899899997 ], [ -115.1919765, 36.193769999899999 ], [ -115.1919792, 36.193769999899999 ], [ -115.1919792, 36.193772699900002 ], [ -115.1919765, 36.193772699900002 ], [ -115.1919765, 36.193788899899999 ], [ -115.1919792, 36.193788899899999 ], [ -115.1919792, 36.193829399899997 ], [ -115.1919819, 36.193829399899997 ], [ -115.1919819, 36.193842899899998 ], [ -115.1919846, 36.193842899899998 ], [ -115.1919846, 36.193845599900001 ], [ -115.1919873, 36.193845599900001 ], [ -115.1919873, 36.193848299899997 ], [ -115.1920062, 36.193848299899997 ], [ -115.1920062, 36.1938509999 ], [ -115.1920467, 36.1938509999 ], [ -115.1920467, 36.193848299899997 ], [ -115.1920845, 36.193848299899997 ], [ -115.1920845, 36.1938509999 ], [ -115.192098, 36.1938509999 ], [ -115.192098, 36.193848299899997 ], [ -115.1921034, 36.193848299899997 ], [ -115.1921034, 36.1938509999 ], [ -115.1921196, 36.1938509999 ], [ -115.1921196, 36.193848299899997 ], [ -115.1922303, 36.193848299899997 ], [ -115.1922303, 36.193845599900001 ], [ -115.192233, 36.193845599900001 ], [ -115.192233, 36.193840199900002 ], [ -115.1922411, 36.193840199900002 ], [ -115.1922411, 36.193837499899999 ], [ -115.1922654, 36.193837499899999 ], [ -115.1922654, 36.193834799900003 ], [ -115.192270799999989, 36.193834799900003 ], [ -115.192270799999989, 36.193837499899999 ], [ -115.1922762, 36.193837499899999 ], [ -115.1922762, 36.193840199900002 ], [ -115.1922789, 36.193840199900002 ], [ -115.1922789, 36.193842899899998 ], [ -115.1922816, 36.193842899899998 ], [ -115.1922816, 36.193848299899997 ], [ -115.1922843, 36.193848299899997 ], [ -115.1922843, 36.1938509999 ], [ -115.192287, 36.1938509999 ], [ -115.192287, 36.193853699899996 ], [ -115.192289699999989, 36.193853699899996 ], [ -115.192289699999989, 36.1938563999 ], [ -115.1922924, 36.1938563999 ], [ -115.1922924, 36.193861799899999 ], [ -115.1922951, 36.193861799899999 ], [ -115.1922951, 36.193867199899998 ], [ -115.1922924, 36.193867199899998 ], [ -115.1922924, 36.193872599899997 ], [ -115.1922951, 36.193872599899997 ], [ -115.1922951, 36.193877999899996 ], [ -115.1922978, 36.193877999899996 ], [ -115.1922978, 36.193904999899999 ], [ -115.1922951, 36.193904999899999 ], [ -115.1922951, 36.193907699900002 ], [ -115.1922924, 36.193907699900002 ], [ -115.1922924, 36.193913099900001 ], [ -115.192289699999989, 36.193913099900001 ], [ -115.192289699999989, 36.193918499900001 ], [ -115.192287, 36.193918499900001 ], [ -115.192287, 36.193921199899997 ], [ -115.1922843, 36.193921199899997 ], [ -115.1922843, 36.1939238999 ], [ -115.1922816, 36.1939238999 ], [ -115.1922816, 36.193926599900003 ], [ -115.1922789, 36.193926599900003 ], [ -115.1922789, 36.193929299899999 ], [ -115.1922762, 36.193929299899999 ], [ -115.1922762, 36.193931999900002 ], [ -115.192270799999989, 36.193931999900002 ], [ -115.192270799999989, 36.193934699899998 ], [ -115.1922654, 36.193934699899998 ], [ -115.1922654, 36.193937399900001 ], [ -115.1922627, 36.193937399900001 ], [ -115.1922627, 36.193940099899997 ], [ -115.1922573, 36.193940099899997 ], [ -115.1922573, 36.1939427999 ], [ -115.1922519, 36.1939427999 ], [ -115.1922519, 36.193945499899996 ], [ -115.1922465, 36.193945499899996 ], [ -115.1922465, 36.193948199899999 ], [ -115.1922411, 36.193948199899999 ], [ -115.1922411, 36.193950899900003 ], [ -115.1922357, 36.193950899900003 ], [ -115.1922357, 36.193953599899999 ], [ -115.1922303, 36.193953599899999 ], [ -115.1922303, 36.193956299900002 ], [ -115.1922276, 36.193956299900002 ], [ -115.1922276, 36.193958999899998 ], [ -115.192222199999989, 36.193958999899998 ], [ -115.192222199999989, 36.193961699900001 ], [ -115.1922141, 36.193961699900001 ], [ -115.1922141, 36.193964399899997 ], [ -115.1922087, 36.193964399899997 ], [ -115.1922087, 36.1939670999 ], [ -115.192206, 36.1939670999 ], [ -115.192206, 36.193969799899996 ], [ -115.1922006, 36.193969799899996 ], [ -115.1922006, 36.193972499899999 ], [ -115.1921979, 36.193972499899999 ], [ -115.1921979, 36.193975199900002 ], [ -115.1921925, 36.193975199900002 ], [ -115.1921925, 36.193977899899998 ], [ -115.1921871, 36.193977899899998 ], [ -115.1921871, 36.193980599900001 ], [ -115.1921844, 36.193980599900001 ], [ -115.1921844, 36.193983299899998 ], [ -115.192179, 36.193983299899998 ], [ -115.192179, 36.193985999900001 ], [ -115.1921763, 36.193985999900001 ], [ -115.1921763, 36.193988699899997 ], [ -115.1921736, 36.193988699899997 ], [ -115.1921736, 36.193994099899996 ], [ -115.1921709, 36.193994099899996 ], [ -115.1921709, 36.193996799899999 ], [ -115.1921682, 36.193996799899999 ], [ -115.1921682, 36.194002199899998 ], [ -115.1921655, 36.194002199899998 ], [ -115.1921655, 36.194007599899997 ], [ -115.1921628, 36.194007599899997 ], [ -115.1921628, 36.1940102999 ], [ -115.1921574, 36.1940102999 ], [ -115.1921574, 36.194012999899996 ], [ -115.192154699999989, 36.194012999899996 ], [ -115.192154699999989, 36.194018399900003 ], [ -115.1921466, 36.194018399900003 ], [ -115.1921466, 36.194021099899999 ], [ -115.1921412, 36.194021099899999 ], [ -115.1921412, 36.194023799900002 ], [ -115.1921385, 36.194023799900002 ], [ -115.1921385, 36.1940345999 ], [ -115.1921277, 36.1940345999 ], [ -115.1921277, 36.194037299899996 ], [ -115.1921196, 36.194037299899996 ], [ -115.1921196, 36.194039999899999 ], [ -115.1921115, 36.194039999899999 ], [ -115.1921115, 36.194042699900002 ], [ -115.1921034, 36.194042699900002 ], [ -115.1921034, 36.194045399899998 ], [ -115.192098, 36.194045399899998 ], [ -115.192098, 36.194048099900002 ], [ -115.1920953, 36.194048099900002 ], [ -115.1920953, 36.194050799899998 ], [ -115.1920926, 36.194050799899998 ], [ -115.1920926, 36.194053499900001 ], [ -115.1920899, 36.194053499900001 ], [ -115.1920899, 36.194056199899997 ], [ -115.192087199999989, 36.194056199899997 ], [ -115.192087199999989, 36.1940588999 ], [ -115.1920818, 36.1940588999 ], [ -115.1920818, 36.194061599899996 ], [ -115.1920737, 36.194061599899996 ], [ -115.1920737, 36.194064299899999 ], [ -115.192068299999988, 36.194064299899999 ], [ -115.192068299999988, 36.194066999900002 ], [ -115.1920602, 36.194066999900002 ], [ -115.1920602, 36.194075099899997 ], [ -115.1920575, 36.194075099899997 ], [ -115.1920575, 36.194077799900001 ], [ -115.1920548, 36.194077799900001 ], [ -115.1920548, 36.194080499899997 ], [ -115.1920494, 36.194080499899997 ], [ -115.1920494, 36.1940831999 ], [ -115.192044, 36.1940831999 ], [ -115.192044, 36.194085899899996 ], [ -115.1920305, 36.194085899899996 ], [ -115.1920305, 36.194088599899999 ], [ -115.1920251, 36.194088599899999 ], [ -115.1920251, 36.194091299900002 ], [ -115.1920224, 36.194091299900002 ], [ -115.1920224, 36.194093999899998 ], [ -115.192019699999989, 36.194093999899998 ], [ -115.192019699999989, 36.194099399899997 ], [ -115.192017, 36.194099399899997 ], [ -115.192017, 36.194104799899996 ], [ -115.1919981, 36.194104799899996 ], [ -115.1919981, 36.194107499899999 ], [ -115.1919846, 36.194107499899999 ], [ -115.1919846, 36.194104799899996 ], [ -115.191971099999989, 36.194104799899996 ], [ -115.191971099999989, 36.1941020999 ], [ -115.191963, 36.1941020999 ], [ -115.191963, 36.194104799899996 ], [ -115.1919576, 36.194104799899996 ], [ -115.1919576, 36.194107499899999 ], [ -115.191952199999989, 36.194107499899999 ], [ -115.191952199999989, 36.194110199899995 ], [ -115.1919495, 36.194110199899995 ], [ -115.1919495, 36.194112899899999 ], [ -115.1919441, 36.194112899899999 ], [ -115.1919441, 36.194115599900002 ], [ -115.1919387, 36.194115599900002 ], [ -115.1919387, 36.194118299899998 ], [ -115.191936, 36.194118299899998 ], [ -115.191936, 36.194120999900001 ], [ -115.191933299999988, 36.194120999900001 ], [ -115.191933299999988, 36.194123699899997 ], [ -115.1919306, 36.194123699899997 ], [ -115.1919306, 36.1941263999 ], [ -115.1919279, 36.1941263999 ], [ -115.1919279, 36.194129099899996 ], [ -115.1919252, 36.194129099899996 ], [ -115.1919252, 36.194131799899999 ], [ -115.1919225, 36.194131799899999 ], [ -115.1919225, 36.194134499900002 ], [ -115.1919198, 36.194134499900002 ], [ -115.1919198, 36.194137199899998 ], [ -115.1919171, 36.194137199899998 ], [ -115.1919171, 36.194139899900001 ], [ -115.1919144, 36.194139899900001 ], [ -115.1919144, 36.194142599899997 ], [ -115.191903599999989, 36.194142599899997 ], [ -115.191903599999989, 36.194145299900001 ], [ -115.1918982, 36.194145299900001 ], [ -115.1918982, 36.194147999899997 ], [ -115.1918928, 36.194147999899997 ], [ -115.1918928, 36.1941506999 ], [ -115.1918901, 36.1941506999 ], [ -115.1918901, 36.194153399899996 ], [ -115.191884699999989, 36.194153399899996 ], [ -115.191884699999989, 36.194156099899999 ], [ -115.191882, 36.194156099899999 ], [ -115.191882, 36.194158799900002 ], [ -115.1918766, 36.194158799900002 ], [ -115.1918766, 36.194161499899998 ], [ -115.1918739, 36.194161499899998 ], [ -115.1918739, 36.194164199900001 ], [ -115.1918685, 36.194164199900001 ], [ -115.1918685, 36.194166899899997 ], [ -115.191865799999988, 36.194166899899997 ], [ -115.191865799999988, 36.1941695999 ], [ -115.1918631, 36.1941695999 ], [ -115.1918631, 36.194172299899996 ], [ -115.1918604, 36.194172299899996 ], [ -115.1918604, 36.1941749999 ], [ -115.1918577, 36.1941749999 ], [ -115.1918577, 36.194177699899996 ], [ -115.1918523, 36.194177699899996 ], [ -115.1918523, 36.194180399899999 ], [ -115.1918469, 36.194180399899999 ], [ -115.1918469, 36.194183099900002 ] ] ] } },
{ "type": "Feature", "properties": { "value": 255.0 }, "geometry": { "type": "Polygon", "coordinates": [ [ [ -115.192503, 36.193799699899998 ], [ -115.1924976, 36.193799699899998 ], [ -115.1924976, 36.193796999900002 ], [ -115.1924895, 36.193796999900002 ], [ -115.1924895, 36.193799699899998 ], [ -115.192449, 36.193799699899998 ], [ -115.192449, 36.193791599900003 ], [ -115.1924517, 36.193791599900003 ], [ -115.1924517, 36.193786199899996 ], [ -115.192449, 36.193786199899996 ], [ -115.192449, 36.193769999899999 ], [ -115.1924517, 36.193769999899999 ], [ -115.1924517, 36.1937645999 ], [ -115.192449, 36.1937645999 ], [ -115.192449, 36.193759199900001 ], [ -115.1924517, 36.193759199900001 ], [ -115.1924517, 36.193753799900001 ], [ -115.1924544, 36.193753799900001 ], [ -115.1924544, 36.193748399900002 ], [ -115.1924571, 36.193748399900002 ], [ -115.1924571, 36.193742999900003 ], [ -115.1924598, 36.193742999900003 ], [ -115.1924598, 36.1937402999 ], [ -115.1924625, 36.1937402999 ], [ -115.1924625, 36.193742999900003 ], [ -115.1924679, 36.193742999900003 ], [ -115.1924679, 36.193748399900002 ], [ -115.1924895, 36.193748399900002 ], [ -115.1924895, 36.193751099899998 ], [ -115.1925003, 36.193751099899998 ], [ -115.1925003, 36.193753799900001 ], [ -115.192503, 36.193753799900001 ], [ -115.192503, 36.193756499899997 ], [ -115.1925111, 36.193756499899997 ], [ -115.1925111, 36.193759199900001 ], [ -115.1925138, 36.193759199900001 ], [ -115.1925138, 36.193761899899997 ], [ -115.1925192, 36.193761899899997 ], [ -115.1925192, 36.1937645999 ], [ -115.1925219, 36.1937645999 ], [ -115.1925219, 36.193767299900003 ], [ -115.1925273, 36.193767299900003 ], [ -115.1925273, 36.1937645999 ], [ -115.1925354, 36.1937645999 ], [ -115.1925354, 36.193767299900003 ], [ -115.1925381, 36.193767299900003 ], [ -115.1925381, 36.193769999899999 ], [ -115.192540799999989, 36.193769999899999 ], [ -115.192540799999989, 36.193772699900002 ], [ -115.1925435, 36.193772699900002 ], [ -115.1925435, 36.193775399899998 ], [ -115.192540799999989, 36.193775399899998 ], [ -115.192540799999989, 36.193778099900001 ], [ -115.1925435, 36.193778099900001 ], [ -115.1925435, 36.193780799899997 ], [ -115.1925489, 36.193780799899997 ], [ -115.1925489, 36.193786199899996 ], [ -115.1925462, 36.193786199899996 ], [ -115.1925462, 36.193788899899999 ], [ -115.1925435, 36.193788899899999 ], [ -115.1925435, 36.193791599900003 ], [ -115.1925354, 36.193791599900003 ], [ -115.1925354, 36.193794299899999 ], [ -115.1925192, 36.193794299899999 ], [ -115.1925192, 36.193796999900002 ], [ -115.192503, 36.193796999900002 ], [ -115.192503, 36.193799699899998 ] ] ] } },
{ "type": "Feature", "properties": { "value": 255.0 }, "geometry": { "type": "Polygon", "coordinates": [ [ [ -115.1928351, 36.193562099899999 ], [ -115.1928, 36.193562099899999 ], [ -115.1928, 36.1935566999 ], [ -115.1927973, 36.1935566999 ], [ -115.1927973, 36.193535099900004 ], [ -115.1928, 36.193535099900004 ], [ -115.1928, 36.1935323999 ], [ -115.1928297, 36.1935323999 ], [ -115.1928297, 36.193535099900004 ], [ -115.1928351, 36.193535099900004 ], [ -115.1928351, 36.1935377999 ], [ -115.1928378, 36.1935377999 ], [ -115.1928378, 36.193559399900003 ], [ -115.1928351, 36.193559399900003 ], [ -115.1928351, 36.193562099899999 ] ] ] } },
{ "type": "Feature", "properties": { "value": 255.0 }, "geometry": { "type": "Polygon", "coordinates": [ [ [ -115.1933697, 36.193702499899999 ], [ -115.1933454, 36.193702499899999 ], [ -115.1933454, 36.193699799900003 ], [ -115.1932482, 36.193699799900003 ], [ -115.1932482, 36.1936970999 ], [ -115.193205, 36.1936970999 ], [ -115.193205, 36.193694399899996 ], [ -115.1931942, 36.193694399899996 ], [ -115.1931942, 36.1936970999 ], [ -115.1931888, 36.1936970999 ], [ -115.1931888, 36.193694399899996 ], [ -115.1931834, 36.193694399899996 ], [ -115.1931834, 36.1936916999 ], [ -115.1931807, 36.1936916999 ], [ -115.1931807, 36.193664699899998 ], [ -115.193178, 36.193664699899998 ], [ -115.193178, 36.193656599900002 ], [ -115.1931807, 36.193656599900002 ], [ -115.1931807, 36.1936484999 ], [ -115.193178, 36.1936484999 ], [ -115.193178, 36.193643099900001 ], [ -115.1931807, 36.193643099900001 ], [ -115.1931807, 36.1936295999 ], [ -115.1931834, 36.1936295999 ], [ -115.1931834, 36.193559399900003 ], [ -115.1931807, 36.193559399900003 ], [ -115.1931807, 36.193553999899997 ], [ -115.193178, 36.193553999899997 ], [ -115.193178, 36.193540499900003 ], [ -115.1931807, 36.193540499900003 ], [ -115.1931807, 36.193526999900001 ], [ -115.1931834, 36.193526999900001 ], [ -115.1931834, 36.193524299899998 ], [ -115.1931861, 36.193524299899998 ], [ -115.1931861, 36.193521599900002 ], [ -115.1932779, 36.193521599900002 ], [ -115.1932779, 36.193524299899998 ], [ -115.1933211, 36.193524299899998 ], [ -115.1933211, 36.193526999900001 ], [ -115.1933238, 36.193526999900001 ], [ -115.1933238, 36.193535099900004 ], [ -115.1933265, 36.193535099900004 ], [ -115.1933265, 36.193551299900001 ], [ -115.1933292, 36.193551299900001 ], [ -115.1933292, 36.193567499899999 ], [ -115.1933319, 36.193567499899999 ], [ -115.1933319, 36.193594499900001 ], [ -115.1933292, 36.193594499900001 ], [ -115.1933292, 36.193599899900001 ], [ -115.1933319, 36.193599899900001 ], [ -115.1933319, 36.1936052999 ], [ -115.1933724, 36.1936052999 ], [ -115.1933724, 36.193602599900004 ], [ -115.1934156, 36.193602599900004 ], [ -115.1934156, 36.193599899900001 ], [ -115.1934318, 36.193599899900001 ], [ -115.1934318, 36.193602599900004 ], [ -115.1934345, 36.193602599900004 ], [ -115.1934345, 36.193599899900001 ], [ -115.1934372, 36.193599899900001 ], [ -115.1934372, 36.193602599900004 ], [ -115.1934426, 36.193602599900004 ], [ -115.1934426, 36.193699799900003 ], [ -115.1933697, 36.193699799900003 ], [ -115.1933697, 36.193702499899999 ] ] ] } },
{ "type": "Feature", "properties": { "value": 255.0 }, "geometry": { "type": "Polygon", "coordinates": [ [ [ -115.1925219, 36.193688999899997 ], [ -115.1925165, 36.193688999899997 ], [ -115.1925165, 36.193686299900001 ], [ -115.1924517, 36.193686299900001 ], [ -115.1924517, 36.193683599899998 ], [ -115.192449, 36.193683599899998 ], [ -115.192449, 36.193670099899997 ], [ -115.1924463, 36.193670099899997 ], [ -115.1924463, 36.193637699900002 ], [ -115.192449, 36.193637699900002 ], [ -115.192449, 36.1935566999 ], [ -115.1924517, 36.1935566999 ], [ -115.1924517, 36.193548599899998 ], [ -115.192449, 36.193548599899998 ], [ -115.192449, 36.1935323999 ], [ -115.1924463, 36.1935323999 ], [ -115.1924463, 36.193526999900001 ], [ -115.192449, 36.193526999900001 ], [ -115.192449, 36.193524299899998 ], [ -115.1924517, 36.193524299899998 ], [ -115.1924517, 36.193521599900002 ], [ -115.1925273, 36.193521599900002 ], [ -115.1925273, 36.193518899899999 ], [ -115.1925327, 36.193518899899999 ], [ -115.1925327, 36.193516199900003 ], [ -115.1925354, 36.193516199900003 ], [ -115.1925354, 36.1935134999 ], [ -115.1925381, 36.1935134999 ], [ -115.1925381, 36.193510799900004 ], [ -115.1925462, 36.193510799900004 ], [ -115.1925462, 36.193508099900001 ], [ -115.1925921, 36.193508099900001 ], [ -115.1925921, 36.193505399899998 ], [ -115.1926137, 36.193505399899998 ], [ -115.1926137, 36.193508099900001 ], [ -115.192638, 36.193508099900001 ], [ -115.192638, 36.193505399899998 ], [ -115.1926461, 36.193505399899998 ], [ -115.1926461, 36.193508099900001 ], [ -115.192692, 36.193508099900001 ], [ -115.192692, 36.193510799900004 ], [ -115.1927352, 36.193510799900004 ], [ -115.1927352, 36.1935134999 ], [ -115.1927379, 36.1935134999 ], [ -115.1927379, 36.193518899899999 ], [ -115.1927406, 36.193518899899999 ], [ -115.1927406, 36.193553999899997 ], [ -115.1927379, 36.193553999899997 ], [ -115.1927379, 36.1936052999 ], [ -115.1927244, 36.1936052999 ], [ -115.1927244, 36.193607999900003 ], [ -115.192719, 36.193607999900003 ], [ -115.192719, 36.193610699899999 ], [ -115.1927163, 36.193610699899999 ], [ -115.1927163, 36.193613399900002 ], [ -115.192675799999989, 36.193613399900002 ], [ -115.192675799999989, 36.193616099899998 ], [ -115.192584, 36.193616099899998 ], [ -115.192584, 36.193613399900002 ], [ -115.1925381, 36.193613399900002 ], [ -115.1925381, 36.193616099899998 ], [ -115.1925354, 36.193616099899998 ], [ -115.1925354, 36.193626899900003 ], [ -115.1925327, 36.193626899900003 ], [ -115.1925327, 36.193678199899999 ], [ -115.19253, 36.193678199899999 ], [ -115.19253, 36.193686299900001 ], [ -115.1925219, 36.193686299900001 ], [ -115.1925219, 36.193688999899997 ] ] ] } },
{ "type": "Feature", "properties": { "value": 255.0 }, "geometry": { "type": "Polygon", "coordinates": [ [ [ -115.1920899, 36.193270499900002 ], [ -115.1920818, 36.193270499900002 ], [ -115.1920818, 36.193267799899999 ], [ -115.1920548, 36.193267799899999 ], [ -115.1920548, 36.193270499900002 ], [ -115.192038599999989, 36.193270499900002 ], [ -115.192038599999989, 36.193267799899999 ], [ -115.1919873, 36.193267799899999 ], [ -115.1919873, 36.193265099900003 ], [ -115.1919846, 36.193265099900003 ], [ -115.1919846, 36.1932623999 ], [ -115.1919873, 36.1932623999 ], [ -115.1919873, 36.193256999900001 ], [ -115.1919846, 36.193256999900001 ], [ -115.1919846, 36.193243499899999 ], [ -115.1919819, 36.193243499899999 ], [ -115.1919819, 36.1932380999 ], [ -115.1919846, 36.1932380999 ], [ -115.1919846, 36.193232699900001 ], [ -115.1922384, 36.193232699900001 ], [ -115.1922384, 36.193254299899998 ], [ -115.1922357, 36.193254299899998 ], [ -115.1922357, 36.193256999900001 ], [ -115.1922384, 36.193256999900001 ], [ -115.1922384, 36.1932623999 ], [ -115.1922357, 36.1932623999 ], [ -115.1922357, 36.193265099900003 ], [ -115.192233, 36.193265099900003 ], [ -115.192233, 36.193267799899999 ], [ -115.1920899, 36.193267799899999 ], [ -115.1920899, 36.193270499900002 ] ] ] } },
{ "type": "Feature", "properties": { "value": 255.0 }, "geometry": { "type": "Polygon", "coordinates": [ [ [ -115.1924841, 36.193246199900003 ], [ -115.1924679, 36.193246199900003 ], [ -115.1924679, 36.193243499899999 ], [ -115.1924652, 36.193243499899999 ], [ -115.1924652, 36.193240799900003 ], [ -115.1924625, 36.193240799900003 ], [ -115.1924625, 36.193232699900001 ], [ -115.1924868, 36.193232699900001 ], [ -115.1924868, 36.1932380999 ], [ -115.1924895, 36.1932380999 ], [ -115.1924895, 36.193240799900003 ], [ -115.1924868, 36.193240799900003 ], [ -115.1924868, 36.193243499899999 ], [ -115.1924841, 36.193243499899999 ], [ -115.1924841, 36.193246199900003 ] ] ] } }
]
}
