{
"type": "FeatureCollection",
"crs": { "type": "name", "properties": { "name": "urn:ogc:def:crs:OGC:1.3:CRS84" } },
"features": [
{ "type": "Feature", "properties": { "value": 255.0 }, "geometry": { "type": "Polygon", "coordinates": [ [ [ -115.2022176, 36.156377699799997 ], [ -115.2007002, 36.156377699799997 ], [ -115.2007002, 36.156347999799998 ], [ -115.2007029, 36.156347999799998 ], [ -115.2007029, 36.1562642998 ], [ -115.2007002, 36.1562642998 ], [ -115.2007002, 36.156261599799997 ], [ -115.2006975, 36.156261599799997 ], [ -115.2006975, 36.156258899799994 ], [ -115.2006921, 36.156258899799994 ], [ -115.2006921, 36.156253499799995 ], [ -115.2006948, 36.156253499799995 ], [ -115.2006948, 36.156250799799999 ], [ -115.2007002, 36.156250799799999 ], [ -115.2007002, 36.156248099799996 ], [ -115.2007029, 36.156248099799996 ], [ -115.2007029, 36.1562453998 ], [ -115.2006975, 36.1562453998 ], [ -115.2006975, 36.156242699799996 ], [ -115.2006759, 36.156242699799996 ], [ -115.2006759, 36.1562453998 ], [ -115.2006678, 36.1562453998 ], [ -115.2006678, 36.156242699799996 ], [ -115.2006624, 36.156242699799996 ], [ -115.2006624, 36.1562399998 ], [ -115.20063, 36.1562399998 ], [ -115.20063, 36.156242699799996 ], [ -115.2005679, 36.156242699799996 ], [ -115.2005679, 36.1562399998 ], [ -115.2004923, 36.1562399998 ], [ -115.2004923, 36.156242699799996 ], [ -115.2004707, 36.156242699799996 ], [ -115.2004707, 36.1562453998 ], [ -115.200468, 36.1562453998 ], [ -115.200468, 36.156242699799996 ], [ -115.2004653, 36.156242699799996 ], [ -115.2004653, 36.1562399998 ], [ -115.2004626, 36.1562399998 ], [ -115.2004626, 36.156094199799995 ], [ -115.200495, 36.156094199799995 ], [ -115.200495, 36.156096899799998 ], [ -115.2005301, 36.156096899799998 ], [ -115.2005301, 36.156094199799995 ], [ -115.2005382, 36.156094199799995 ], [ -115.2005382, 36.156096899799998 ], [ -115.2005652, 36.156096899799998 ], [ -115.2005652, 36.156094199799995 ], [ -115.2005976, 36.156094199799995 ], [ -115.2005976, 36.156096899799998 ], [ -115.2006192, 36.156096899799998 ], [ -115.2006192, 36.156094199799995 ], [ -115.2006489, 36.156094199799995 ], [ -115.2006489, 36.156096899799998 ], [ -115.2006975, 36.156096899799998 ], [ -115.2006975, 36.156099599799994 ], [ -115.2007029, 36.156099599799994 ], [ -115.2007029, 36.156096899799998 ], [ -115.200708299999988, 36.156096899799998 ], [ -115.200708299999988, 36.156099599799994 ], [ -115.200711, 36.156099599799994 ], [ -115.200711, 36.156096899799998 ], [ -115.2007137, 36.156096899799998 ], [ -115.2007137, 36.156099599799994 ], [ -115.2007164, 36.156099599799994 ], [ -115.2007164, 36.156096899799998 ], [ -115.2007191, 36.156096899799998 ], [ -115.2007191, 36.156091499799999 ], [ -115.2007218, 36.156091499799999 ], [ -115.2007218, 36.156088799799996 ], [ -115.200727199999989, 36.156088799799996 ], [ -115.200727199999989, 36.1560860998 ], [ -115.2007299, 36.1560860998 ], [ -115.2007299, 36.156083399799996 ], [ -115.2007353, 36.156083399799996 ], [ -115.2007353, 36.1560806998 ], [ -115.2007407, 36.1560806998 ], [ -115.2007407, 36.156072599799998 ], [ -115.200738, 36.156072599799998 ], [ -115.200738, 36.156069899799995 ], [ -115.2007434, 36.156069899799995 ], [ -115.2007434, 36.156067199799999 ], [ -115.2007407, 36.156067199799999 ], [ -115.2007407, 36.156064499799996 ], [ -115.2007515, 36.156064499799996 ], [ -115.2007515, 36.1560617998 ], [ -115.2007623, 36.1560617998 ], [ -115.2007623, 36.156059099799997 ], [ -115.2007677, 36.156059099799997 ], [ -115.2007677, 36.156056399800001 ], [ -115.2007623, 36.156056399800001 ], [ -115.2007623, 36.156053699799998 ], [ -115.2007596, 36.156053699799998 ], [ -115.2007596, 36.156045599799995 ], [ -115.200765, 36.156045599799995 ], [ -115.200765, 36.156042899799999 ], [ -115.2007677, 36.156042899799999 ], [ -115.2007677, 36.156034799799997 ], [ -115.2007785, 36.156034799799997 ], [ -115.2007785, 36.156032099800001 ], [ -115.2008082, 36.156032099800001 ], [ -115.2008082, 36.156029399799998 ], [ -115.200813599999989, 36.156029399799998 ], [ -115.200813599999989, 36.156026699799995 ], [ -115.2008163, 36.156026699799995 ], [ -115.2008163, 36.156015899799996 ], [ -115.200819, 36.156015899799996 ], [ -115.200819, 36.155996999799996 ], [ -115.2008163, 36.155996999799996 ], [ -115.2008163, 36.155991599799997 ], [ -115.200813599999989, 36.155991599799997 ], [ -115.200813599999989, 36.155983499799994 ], [ -115.2008109, 36.155983499799994 ], [ -115.2008109, 36.155897099800001 ], [ -115.200813599999989, 36.155897099800001 ], [ -115.200813599999989, 36.155867399799995 ], [ -115.2008163, 36.155867399799995 ], [ -115.2008163, 36.155859299799999 ], [ -115.200819, 36.155859299799999 ], [ -115.200819, 36.155848499800001 ], [ -115.2008217, 36.155848499800001 ], [ -115.2008217, 36.155837699799996 ], [ -115.2008244, 36.155837699799996 ], [ -115.2008244, 36.155821499799998 ], [ -115.2008271, 36.155821499799998 ], [ -115.2008271, 36.155816099799999 ], [ -115.2008244, 36.155816099799999 ], [ -115.2008244, 36.155799899799995 ], [ -115.2008271, 36.155799899799995 ], [ -115.2008271, 36.155789099799996 ], [ -115.2008298, 36.155789099799996 ], [ -115.2008298, 36.155770199799996 ], [ -115.2008325, 36.155770199799996 ], [ -115.2008325, 36.155729699799998 ], [ -115.2008298, 36.155729699799998 ], [ -115.2008298, 36.155708099800002 ], [ -115.2008271, 36.155708099800002 ], [ -115.2008271, 36.155699999799999 ], [ -115.2008298, 36.155699999799999 ], [ -115.2008298, 36.155697299799996 ], [ -115.2008352, 36.155697299799996 ], [ -115.2008352, 36.1556945998 ], [ -115.200846, 36.1556945998 ], [ -115.200846, 36.155691899799997 ], [ -115.2008595, 36.155691899799997 ], [ -115.2008595, 36.1556945998 ], [ -115.2009189, 36.1556945998 ], [ -115.2009189, 36.155691899799997 ], [ -115.2009378, 36.155691899799997 ], [ -115.2009378, 36.1556945998 ], [ -115.2009405, 36.1556945998 ], [ -115.2009405, 36.155702699799996 ], [ -115.2009432, 36.155702699799996 ], [ -115.2009432, 36.155716199799997 ], [ -115.2009459, 36.155716199799997 ], [ -115.2009459, 36.155729699799998 ], [ -115.2009486, 36.155729699799998 ], [ -115.2009486, 36.155735099799998 ], [ -115.2009513, 36.155735099799998 ], [ -115.2009513, 36.1557431998 ], [ -115.200954, 36.1557431998 ], [ -115.200954, 36.1557674998 ], [ -115.2009567, 36.1557674998 ], [ -115.2009567, 36.155775599799995 ], [ -115.2009594, 36.155775599799995 ], [ -115.2009594, 36.155780999800001 ], [ -115.2009567, 36.155780999800001 ], [ -115.2009567, 36.155791799799999 ], [ -115.2009594, 36.155791799799999 ], [ -115.2009594, 36.155807999799997 ], [ -115.2009621, 36.155807999799997 ], [ -115.2009621, 36.155821499799998 ], [ -115.2009756, 36.155821499799998 ], [ -115.2009756, 36.155824199800001 ], [ -115.2010053, 36.155824199800001 ], [ -115.2010053, 36.155821499799998 ], [ -115.2010107, 36.155821499799998 ], [ -115.2010107, 36.155818799799995 ], [ -115.2010134, 36.155818799799995 ], [ -115.2010134, 36.155816099799999 ], [ -115.2010161, 36.155816099799999 ], [ -115.2010161, 36.155813399799996 ], [ -115.2010215, 36.155813399799996 ], [ -115.2010215, 36.1558106998 ], [ -115.2010269, 36.1558106998 ], [ -115.2010269, 36.155807999799997 ], [ -115.2010296, 36.155807999799997 ], [ -115.2010296, 36.155805299800001 ], [ -115.2010323, 36.155805299800001 ], [ -115.2010323, 36.155807999799997 ], [ -115.201045799999989, 36.155807999799997 ], [ -115.201045799999989, 36.1558106998 ], [ -115.2010566, 36.1558106998 ], [ -115.2010566, 36.155807999799997 ], [ -115.2010593, 36.155807999799997 ], [ -115.2010593, 36.155805299800001 ], [ -115.201062, 36.155805299800001 ], [ -115.201062, 36.155802599799998 ], [ -115.2010674, 36.155802599799998 ], [ -115.2010674, 36.155799899799995 ], [ -115.201064699999989, 36.155799899799995 ], [ -115.201064699999989, 36.155797199799999 ], [ -115.2010593, 36.155797199799999 ], [ -115.2010593, 36.155794499799995 ], [ -115.2010566, 36.155794499799995 ], [ -115.2010566, 36.155791799799999 ], [ -115.2010512, 36.155791799799999 ], [ -115.2010512, 36.155789099799996 ], [ -115.2010404, 36.155789099799996 ], [ -115.2010404, 36.1557863998 ], [ -115.2010377, 36.1557863998 ], [ -115.2010377, 36.155783699799997 ], [ -115.2010323, 36.155783699799997 ], [ -115.2010323, 36.155778299799998 ], [ -115.2010269, 36.155778299799998 ], [ -115.2010269, 36.155775599799995 ], [ -115.2010215, 36.155775599799995 ], [ -115.2010215, 36.155772899799999 ], [ -115.2010188, 36.155772899799999 ], [ -115.2010188, 36.155764799799996 ], [ -115.2010215, 36.155764799799996 ], [ -115.2010215, 36.1557620998 ], [ -115.2010161, 36.1557620998 ], [ -115.2010161, 36.155759399799997 ], [ -115.201008, 36.155759399799997 ], [ -115.201008, 36.155756699800001 ], [ -115.2010053, 36.155756699800001 ], [ -115.2010053, 36.155740499799997 ], [ -115.201008, 36.155740499799997 ], [ -115.201008, 36.155737799800001 ], [ -115.2010134, 36.155737799800001 ], [ -115.2010134, 36.155735099799998 ], [ -115.2010485, 36.155735099799998 ], [ -115.2010485, 36.155737799800001 ], [ -115.2010782, 36.155737799800001 ], [ -115.2010782, 36.155735099799998 ], [ -115.2010998, 36.155735099799998 ], [ -115.2010998, 36.155737799800001 ], [ -115.201116, 36.155737799800001 ], [ -115.201116, 36.155740499799997 ], [ -115.2011241, 36.155740499799997 ], [ -115.2011241, 36.1557431998 ], [ -115.2011295, 36.1557431998 ], [ -115.2011295, 36.155753999799998 ], [ -115.2011349, 36.155753999799998 ], [ -115.2011349, 36.155756699800001 ], [ -115.2011376, 36.155756699800001 ], [ -115.2011376, 36.155759399799997 ], [ -115.2011403, 36.155759399799997 ], [ -115.2011403, 36.1557620998 ], [ -115.2011538, 36.1557620998 ], [ -115.2011538, 36.155759399799997 ], [ -115.2011781, 36.155759399799997 ], [ -115.2011781, 36.155756699800001 ], [ -115.201199699999989, 36.155756699800001 ], [ -115.201199699999989, 36.155759399799997 ], [ -115.2012132, 36.155759399799997 ], [ -115.2012132, 36.1557620998 ], [ -115.2012267, 36.1557620998 ], [ -115.2012267, 36.155764799799996 ], [ -115.2012348, 36.155764799799996 ], [ -115.2012348, 36.1557674998 ], [ -115.2012402, 36.1557674998 ], [ -115.2012402, 36.155770199799996 ], [ -115.201251, 36.155770199799996 ], [ -115.201251, 36.155772899799999 ], [ -115.2012672, 36.155772899799999 ], [ -115.2012672, 36.155775599799995 ], [ -115.2012861, 36.155775599799995 ], [ -115.2012861, 36.155778299799998 ], [ -115.201305, 36.155778299799998 ], [ -115.201305, 36.155780999800001 ], [ -115.2013185, 36.155780999800001 ], [ -115.2013185, 36.155783699799997 ], [ -115.2013239, 36.155783699799997 ], [ -115.2013239, 36.155791799799999 ], [ -115.201315799999989, 36.155791799799999 ], [ -115.201315799999989, 36.155789099799996 ], [ -115.2013077, 36.155789099799996 ], [ -115.2013077, 36.155791799799999 ], [ -115.201305, 36.155791799799999 ], [ -115.201305, 36.155794499799995 ], [ -115.2013077, 36.155794499799995 ], [ -115.2013077, 36.155797199799999 ], [ -115.2013131, 36.155797199799999 ], [ -115.2013131, 36.155799899799995 ], [ -115.201315799999989, 36.155799899799995 ], [ -115.201315799999989, 36.155802599799998 ], [ -115.2013077, 36.155802599799998 ], [ -115.2013077, 36.155805299800001 ], [ -115.2013023, 36.155805299800001 ], [ -115.2013023, 36.155818799799995 ], [ -115.2012996, 36.155818799799995 ], [ -115.2012996, 36.155821499799998 ], [ -115.2012969, 36.155821499799998 ], [ -115.2012969, 36.155824199800001 ], [ -115.2013077, 36.155824199800001 ], [ -115.2013077, 36.155826899799997 ], [ -115.2013131, 36.155826899799997 ], [ -115.2013131, 36.155829599800001 ], [ -115.2013212, 36.155829599800001 ], [ -115.2013212, 36.155832299799997 ], [ -115.2013482, 36.155832299799997 ], [ -115.2013482, 36.1558349998 ], [ -115.2013698, 36.1558349998 ], [ -115.2013698, 36.155832299799997 ], [ -115.201386, 36.155832299799997 ], [ -115.201386, 36.155829599800001 ], [ -115.2013968, 36.155829599800001 ], [ -115.2013968, 36.155826899799997 ], [ -115.2014481, 36.155826899799997 ], [ -115.2014481, 36.155824199800001 ], [ -115.2014859, 36.155824199800001 ], [ -115.2014859, 36.155826899799997 ], [ -115.2015156, 36.155826899799997 ], [ -115.2015156, 36.155824199800001 ], [ -115.2016668, 36.155824199800001 ], [ -115.2016668, 36.155826899799997 ], [ -115.2017262, 36.155826899799997 ], [ -115.2017262, 36.155824199800001 ], [ -115.201845, 36.155824199800001 ], [ -115.201845, 36.155821499799998 ], [ -115.2019125, 36.155821499799998 ], [ -115.2019125, 36.155824199800001 ], [ -115.2020151, 36.155824199800001 ], [ -115.2020151, 36.155826899799997 ], [ -115.2020205, 36.155826899799997 ], [ -115.2020205, 36.155824199800001 ], [ -115.2020313, 36.155824199800001 ], [ -115.2020313, 36.155826899799997 ], [ -115.2020421, 36.155826899799997 ], [ -115.2020421, 36.155829599800001 ], [ -115.2020583, 36.155829599800001 ], [ -115.2020583, 36.155826899799997 ], [ -115.202061, 36.155826899799997 ], [ -115.202061, 36.155829599800001 ], [ -115.2020664, 36.155829599800001 ], [ -115.2020664, 36.155832299799997 ], [ -115.2020826, 36.155832299799997 ], [ -115.2020826, 36.1558349998 ], [ -115.2021042, 36.1558349998 ], [ -115.2021042, 36.155832299799997 ], [ -115.2021339, 36.155832299799997 ], [ -115.2021339, 36.155829599800001 ], [ -115.2021447, 36.155829599800001 ], [ -115.2021447, 36.155832299799997 ], [ -115.2021555, 36.155832299799997 ], [ -115.2021555, 36.155837699799996 ], [ -115.202169, 36.155837699799996 ], [ -115.202169, 36.1558349998 ], [ -115.2021771, 36.1558349998 ], [ -115.2021771, 36.155832299799997 ], [ -115.2021798, 36.155832299799997 ], [ -115.2021798, 36.1558349998 ], [ -115.2021906, 36.1558349998 ], [ -115.2021906, 36.155837699799996 ], [ -115.2022041, 36.155837699799996 ], [ -115.2022041, 36.155840399799999 ], [ -115.2022095, 36.155840399799999 ], [ -115.2022095, 36.155843099799995 ], [ -115.2022149, 36.155843099799995 ], [ -115.2022149, 36.155848499800001 ], [ -115.2022176, 36.155848499800001 ], [ -115.2022176, 36.156377699799997 ] ], [ [ -115.2010863, 36.155764799799996 ], [ -115.2010863, 36.1557620998 ], [ -115.2010782, 36.1557620998 ], [ -115.2010782, 36.155764799799996 ], [ -115.2010863, 36.155764799799996 ] ] ] } },
{ "type": "Feature", "properties": { "value": 255.0 }, "geometry": { "type": "Polygon", "coordinates": [ [ [ -115.2017856, 36.155597399800001 ], [ -115.2016128, 36.155597399800001 ], [ -115.2016128, 36.155594699799998 ], [ -115.2016101, 36.155594699799998 ], [ -115.2016101, 36.155581199799997 ], [ -115.2016074, 36.155581199799997 ], [ -115.2016074, 36.155575799799998 ], [ -115.2016101, 36.155575799799998 ], [ -115.2016101, 36.155564999799999 ], [ -115.2016074, 36.155564999799999 ], [ -115.2016074, 36.155548799800002 ], [ -115.2016101, 36.155548799800002 ], [ -115.2016101, 36.155537999799996 ], [ -115.2016128, 36.155537999799996 ], [ -115.2016128, 36.155527199799998 ], [ -115.2016182, 36.155527199799998 ], [ -115.2016182, 36.155524499800002 ], [ -115.2016533, 36.155524499800002 ], [ -115.2016533, 36.155521799799999 ], [ -115.201656, 36.155521799799999 ], [ -115.201656, 36.155524499800002 ], [ -115.2017829, 36.155524499800002 ], [ -115.2017829, 36.155527199799998 ], [ -115.2017883, 36.155527199799998 ], [ -115.2017883, 36.155594699799998 ], [ -115.2017856, 36.155594699799998 ], [ -115.2017856, 36.155597399800001 ] ] ] } },
{ "type": "Feature", "properties": { "value": 255.0 }, "geometry": { "type": "Polygon", "coordinates": [ [ [ -115.2015831, 36.155597399800001 ], [ -115.2014103, 36.155597399800001 ], [ -115.2014103, 36.155594699799998 ], [ -115.2014076, 36.155594699799998 ], [ -115.2014076, 36.155548799800002 ], [ -115.2014103, 36.155548799800002 ], [ -115.2014103, 36.1555406998 ], [ -115.201413, 36.1555406998 ], [ -115.201413, 36.155537999799996 ], [ -115.2014157, 36.155537999799996 ], [ -115.2014157, 36.155532599799997 ], [ -115.2014184, 36.155532599799997 ], [ -115.2014184, 36.155527199799998 ], [ -115.2014211, 36.155527199799998 ], [ -115.2014211, 36.155537999799996 ], [ -115.2014265, 36.155537999799996 ], [ -115.2014265, 36.155532599799997 ], [ -115.2014292, 36.155532599799997 ], [ -115.2014292, 36.155529899800001 ], [ -115.2014454, 36.155529899800001 ], [ -115.2014454, 36.155527199799998 ], [ -115.2014643, 36.155527199799998 ], [ -115.2014643, 36.155529899800001 ], [ -115.2014724, 36.155529899800001 ], [ -115.2014724, 36.155532599799997 ], [ -115.2014805, 36.155532599799997 ], [ -115.2014805, 36.1555352998 ], [ -115.2014886, 36.1555352998 ], [ -115.2014886, 36.155537999799996 ], [ -115.2014913, 36.155537999799996 ], [ -115.2014913, 36.1555352998 ], [ -115.2015021, 36.1555352998 ], [ -115.2015021, 36.155532599799997 ], [ -115.2015318, 36.155532599799997 ], [ -115.2015318, 36.155529899800001 ], [ -115.2015345, 36.155529899800001 ], [ -115.2015345, 36.155527199799998 ], [ -115.2015399, 36.155527199799998 ], [ -115.2015399, 36.155524499800002 ], [ -115.2015777, 36.155524499800002 ], [ -115.2015777, 36.155527199799998 ], [ -115.2015804, 36.155527199799998 ], [ -115.2015804, 36.1555352998 ], [ -115.2015831, 36.1555352998 ], [ -115.2015831, 36.155546099799999 ], [ -115.201585799999989, 36.155546099799999 ], [ -115.201585799999989, 36.155594699799998 ], [ -115.2015831, 36.155594699799998 ], [ -115.2015831, 36.155597399800001 ] ] ] } },
{ "type": "Feature", "properties": { "value": 255.0 }, "geometry": { "type": "Polygon", "coordinates": [ [ [ -115.2007893, 36.155564999799999 ], [ -115.2006651, 36.155564999799999 ], [ -115.2006651, 36.155562299799996 ], [ -115.2006192, 36.155562299799996 ], [ -115.2006192, 36.1555595998 ], [ -115.2006165, 36.1555595998 ], [ -115.2006165, 36.155556899799997 ], [ -115.2006138, 36.155556899799997 ], [ -115.2006138, 36.1555406998 ], [ -115.200678599999989, 36.1555406998 ], [ -115.200678599999989, 36.155537999799996 ], [ -115.2006894, 36.155537999799996 ], [ -115.2006894, 36.1555352998 ], [ -115.2006948, 36.1555352998 ], [ -115.2006948, 36.155532599799997 ], [ -115.2006975, 36.155532599799997 ], [ -115.2006975, 36.155529899800001 ], [ -115.2007029, 36.155529899800001 ], [ -115.2007029, 36.155527199799998 ], [ -115.200711, 36.155527199799998 ], [ -115.200711, 36.155524499800002 ], [ -115.200727199999989, 36.155524499800002 ], [ -115.200727199999989, 36.155521799799999 ], [ -115.2007353, 36.155521799799999 ], [ -115.2007353, 36.155524499800002 ], [ -115.2007515, 36.155524499800002 ], [ -115.2007515, 36.155521799799999 ], [ -115.2007542, 36.155521799799999 ], [ -115.2007542, 36.155524499800002 ], [ -115.2007704, 36.155524499800002 ], [ -115.2007704, 36.155521799799999 ], [ -115.2007731, 36.155521799799999 ], [ -115.2007731, 36.155524499800002 ], [ -115.2007893, 36.155524499800002 ], [ -115.2007893, 36.155529899800001 ], [ -115.200792, 36.155529899800001 ], [ -115.200792, 36.155562299799996 ], [ -115.2007893, 36.155562299799996 ], [ -115.2007893, 36.155564999799999 ] ] ] } },
{ "type": "Feature", "properties": { "value": 255.0 }, "geometry": { "type": "Polygon", "coordinates": [ [ [ -115.2011268, 36.155556899799997 ], [ -115.2011187, 36.155556899799997 ], [ -115.2011187, 36.155554199800001 ], [ -115.2010917, 36.155554199800001 ], [ -115.2010917, 36.155551499799998 ], [ -115.2010836, 36.155551499799998 ], [ -115.2010836, 36.155548799800002 ], [ -115.2010782, 36.155548799800002 ], [ -115.2010782, 36.155543399799996 ], [ -115.2010755, 36.155543399799996 ], [ -115.2010755, 36.1555352998 ], [ -115.2010809, 36.1555352998 ], [ -115.2010809, 36.155532599799997 ], [ -115.2010917, 36.155532599799997 ], [ -115.2010917, 36.155529899800001 ], [ -115.2010944, 36.155529899800001 ], [ -115.2010944, 36.155527199799998 ], [ -115.2010971, 36.155527199799998 ], [ -115.2010971, 36.155524499800002 ], [ -115.2010998, 36.155524499800002 ], [ -115.2010998, 36.155521799799999 ], [ -115.2011079, 36.155521799799999 ], [ -115.2011079, 36.155524499800002 ], [ -115.201113299999989, 36.155524499800002 ], [ -115.201113299999989, 36.155527199799998 ], [ -115.201116, 36.155527199799998 ], [ -115.201116, 36.155529899800001 ], [ -115.2011268, 36.155529899800001 ], [ -115.2011268, 36.155532599799997 ], [ -115.2011457, 36.155532599799997 ], [ -115.2011457, 36.1555352998 ], [ -115.2011727, 36.1555352998 ], [ -115.2011727, 36.155532599799997 ], [ -115.2011754, 36.155532599799997 ], [ -115.2011754, 36.155529899800001 ], [ -115.2011862, 36.155529899800001 ], [ -115.2011862, 36.155532599799997 ], [ -115.2012051, 36.155532599799997 ], [ -115.2012051, 36.1555352998 ], [ -115.2012078, 36.1555352998 ], [ -115.2012078, 36.155548799800002 ], [ -115.2012051, 36.155548799800002 ], [ -115.2012051, 36.155551499799998 ], [ -115.201199699999989, 36.155551499799998 ], [ -115.201199699999989, 36.155548799800002 ], [ -115.2011916, 36.155548799800002 ], [ -115.2011916, 36.1555406998 ], [ -115.2011835, 36.1555406998 ], [ -115.2011835, 36.155543399799996 ], [ -115.201180799999989, 36.155543399799996 ], [ -115.201180799999989, 36.155546099799999 ], [ -115.2011781, 36.155546099799999 ], [ -115.2011781, 36.155548799800002 ], [ -115.2011646, 36.155548799800002 ], [ -115.2011646, 36.155551499799998 ], [ -115.201143, 36.155551499799998 ], [ -115.201143, 36.155554199800001 ], [ -115.2011268, 36.155554199800001 ], [ -115.2011268, 36.155556899799997 ] ] ] } },
{ "type": "Feature", "properties": { "value": 255.0 }, "geometry": { "type": "Polygon", "coordinates": [ [ [ -115.2017856, 36.155473199799999 ], [ -115.2016911, 36.155473199799999 ], [ -115.2016911, 36.155470499799996 ], [ -115.2016857, 36.155470499799996 ], [ -115.2016857, 36.155465099799997 ], [ -115.201683, 36.155465099799997 ], [ -115.201683, 36.155459699799998 ], [ -115.2016857, 36.155459699799998 ], [ -115.2016857, 36.155402999799996 ], [ -115.2016884, 36.155402999799996 ], [ -115.2016884, 36.1553813998 ], [ -115.2016911, 36.1553813998 ], [ -115.2016911, 36.155378699799996 ], [ -115.2017019, 36.155378699799996 ], [ -115.2017019, 36.1553759998 ], [ -115.2017046, 36.1553759998 ], [ -115.2017046, 36.155378699799996 ], [ -115.2017235, 36.155378699799996 ], [ -115.2017235, 36.1553759998 ], [ -115.2017883, 36.1553759998 ], [ -115.2017883, 36.155378699799996 ], [ -115.2018423, 36.155378699799996 ], [ -115.2018423, 36.1553813998 ], [ -115.201845, 36.1553813998 ], [ -115.201845, 36.155386799799999 ], [ -115.2018504, 36.155386799799999 ], [ -115.2018504, 36.155392199799998 ], [ -115.2018531, 36.155392199799998 ], [ -115.2018531, 36.1554002998 ], [ -115.2018558, 36.1554002998 ], [ -115.2018558, 36.155405699799999 ], [ -115.2018585, 36.155405699799999 ], [ -115.2018585, 36.155413799800002 ], [ -115.2018558, 36.155413799800002 ], [ -115.2018558, 36.155427299799996 ], [ -115.2018531, 36.155427299799996 ], [ -115.2018531, 36.155429999799999 ], [ -115.201845, 36.155429999799999 ], [ -115.201845, 36.1554245998 ], [ -115.2018423, 36.1554245998 ], [ -115.2018423, 36.155427299799996 ], [ -115.2018369, 36.155427299799996 ], [ -115.2018369, 36.155429999799999 ], [ -115.2018342, 36.155429999799999 ], [ -115.2018342, 36.155438099800001 ], [ -115.2018315, 36.155438099800001 ], [ -115.2018315, 36.155470499799996 ], [ -115.2017856, 36.155470499799996 ], [ -115.2017856, 36.155473199799999 ] ] ] } },
{ "type": "Feature", "properties": { "value": 255.0 }, "geometry": { "type": "Polygon", "coordinates": [ [ [ -115.2007164, 36.155465099799997 ], [ -115.200592199999988, 36.155465099799997 ], [ -115.200592199999988, 36.155462399800001 ], [ -115.2005571, 36.155462399800001 ], [ -115.2005571, 36.155459699799998 ], [ -115.2005544, 36.155459699799998 ], [ -115.2005544, 36.155419199800001 ], [ -115.2005571, 36.155419199800001 ], [ -115.2005571, 36.155351699800001 ], [ -115.2005598, 36.155351699800001 ], [ -115.2005598, 36.155300399799998 ], [ -115.2005625, 36.155300399799998 ], [ -115.2005625, 36.155297699800002 ], [ -115.2005949, 36.155297699800002 ], [ -115.2005949, 36.155300399799998 ], [ -115.2006246, 36.155300399799998 ], [ -115.2006246, 36.155303099800001 ], [ -115.20063, 36.155303099800001 ], [ -115.20063, 36.155305799799997 ], [ -115.2006381, 36.155305799799997 ], [ -115.2006381, 36.1553084998 ], [ -115.200659699999989, 36.1553084998 ], [ -115.200659699999989, 36.155311199799996 ], [ -115.2007299, 36.155311199799996 ], [ -115.2007299, 36.155335499799996 ], [ -115.200727199999989, 36.155335499799996 ], [ -115.200727199999989, 36.155343599799998 ], [ -115.2007245, 36.155343599799998 ], [ -115.2007245, 36.155348999799998 ], [ -115.2007218, 36.155348999799998 ], [ -115.2007218, 36.155351699800001 ], [ -115.2007191, 36.155351699800001 ], [ -115.2007191, 36.155362499799999 ], [ -115.2007164, 36.155362499799999 ], [ -115.2007164, 36.155365199800002 ], [ -115.2007191, 36.155365199800002 ], [ -115.2007191, 36.155367899799998 ], [ -115.2007218, 36.155367899799998 ], [ -115.2007218, 36.155370599800001 ], [ -115.200727199999989, 36.155370599800001 ], [ -115.200727199999989, 36.155373299799997 ], [ -115.2007299, 36.155373299799997 ], [ -115.2007299, 36.155378699799996 ], [ -115.2007326, 36.155378699799996 ], [ -115.2007326, 36.155386799799999 ], [ -115.2007299, 36.155386799799999 ], [ -115.2007299, 36.155397599799997 ], [ -115.2007326, 36.155397599799997 ], [ -115.2007326, 36.155440799799997 ], [ -115.2007299, 36.155440799799997 ], [ -115.2007299, 36.155454299799999 ], [ -115.200727199999989, 36.155454299799999 ], [ -115.200727199999989, 36.155459699799998 ], [ -115.2007245, 36.155459699799998 ], [ -115.2007245, 36.155462399800001 ], [ -115.2007164, 36.155462399800001 ], [ -115.2007164, 36.155465099799997 ] ] ] } },
{ "type": "Feature", "properties": { "value": 255.0 }, "geometry": { "type": "Polygon", "coordinates": [ [ [ -115.2021339, 36.155473199799999 ], [ -115.2020313, 36.155473199799999 ], [ -115.2020313, 36.155470499799996 ], [ -115.2019935, 36.155470499799996 ], [ -115.2019935, 36.1554677998 ], [ -115.2019908, 36.1554677998 ], [ -115.2019908, 36.155465099799997 ], [ -115.2019881, 36.155465099799997 ], [ -115.2019881, 36.1554488998 ], [ -115.2019854, 36.1554488998 ], [ -115.2019854, 36.155432699800002 ], [ -115.2019827, 36.155432699800002 ], [ -115.2019827, 36.1554002998 ], [ -115.20198, 36.1554002998 ], [ -115.20198, 36.155389499800002 ], [ -115.2019827, 36.155389499800002 ], [ -115.2019827, 36.1553759998 ], [ -115.2019854, 36.1553759998 ], [ -115.2019854, 36.155365199800002 ], [ -115.2019881, 36.155365199800002 ], [ -115.2019881, 36.155362499799999 ], [ -115.2019854, 36.155362499799999 ], [ -115.2019854, 36.155359799799996 ], [ -115.2019827, 36.155359799799996 ], [ -115.2019827, 36.155351699800001 ], [ -115.2019854, 36.155351699800001 ], [ -115.2019854, 36.155348999799998 ], [ -115.2019908, 36.155348999799998 ], [ -115.2019908, 36.155346299800001 ], [ -115.2019935, 36.155346299800001 ], [ -115.2019935, 36.155348999799998 ], [ -115.2019962, 36.155348999799998 ], [ -115.2019962, 36.155340899800002 ], [ -115.2019989, 36.155340899800002 ], [ -115.2019989, 36.155330099799997 ], [ -115.2020016, 36.155330099799997 ], [ -115.2020016, 36.155327399800001 ], [ -115.2020043, 36.155327399800001 ], [ -115.2020043, 36.155324699799998 ], [ -115.202007, 36.155324699799998 ], [ -115.202007, 36.155321999800002 ], [ -115.2020097, 36.155321999800002 ], [ -115.2020097, 36.155316599800003 ], [ -115.2020124, 36.155316599800003 ], [ -115.2020124, 36.155305799799997 ], [ -115.2020151, 36.155305799799997 ], [ -115.2020151, 36.155294999799999 ], [ -115.2020124, 36.155294999799999 ], [ -115.2020124, 36.155286899799997 ], [ -115.2020097, 36.155286899799997 ], [ -115.2020097, 36.155276099799998 ], [ -115.2020124, 36.155276099799998 ], [ -115.2020124, 36.155273399800002 ], [ -115.2020205, 36.155273399800002 ], [ -115.2020205, 36.155270699799999 ], [ -115.2020232, 36.155270699799999 ], [ -115.2020232, 36.155267999799996 ], [ -115.2020286, 36.155267999799996 ], [ -115.2020286, 36.155270699799999 ], [ -115.2020394, 36.155270699799999 ], [ -115.2020394, 36.155267999799996 ], [ -115.2020448, 36.155267999799996 ], [ -115.2020448, 36.155270699799999 ], [ -115.2020502, 36.155270699799999 ], [ -115.2020502, 36.155273399800002 ], [ -115.2020556, 36.155273399800002 ], [ -115.2020556, 36.155276099799998 ], [ -115.2020664, 36.155276099799998 ], [ -115.2020664, 36.155278799800001 ], [ -115.2020853, 36.155278799800001 ], [ -115.2020853, 36.155281499799997 ], [ -115.2020988, 36.155281499799997 ], [ -115.2020988, 36.155278799800001 ], [ -115.2021312, 36.155278799800001 ], [ -115.2021312, 36.155276099799998 ], [ -115.2021582, 36.155276099799998 ], [ -115.2021582, 36.155278799800001 ], [ -115.2021609, 36.155278799800001 ], [ -115.2021609, 36.155281499799997 ], [ -115.2021636, 36.155281499799997 ], [ -115.2021636, 36.155305799799997 ], [ -115.2021609, 36.155305799799997 ], [ -115.2021609, 36.155311199799996 ], [ -115.2021636, 36.155311199799996 ], [ -115.2021636, 36.155338199799999 ], [ -115.2021609, 36.155338199799999 ], [ -115.2021609, 36.155340899800002 ], [ -115.2021501, 36.155340899800002 ], [ -115.2021501, 36.155343599799998 ], [ -115.2021393, 36.155343599799998 ], [ -115.2021393, 36.155359799799996 ], [ -115.202142, 36.155359799799996 ], [ -115.202142, 36.155362499799999 ], [ -115.2021447, 36.155362499799999 ], [ -115.2021447, 36.155367899799998 ], [ -115.2021474, 36.155367899799998 ], [ -115.2021474, 36.1553759998 ], [ -115.2021501, 36.1553759998 ], [ -115.2021501, 36.155392199799998 ], [ -115.2021528, 36.155392199799998 ], [ -115.2021528, 36.155402999799996 ], [ -115.2021555, 36.155402999799996 ], [ -115.2021555, 36.1554245998 ], [ -115.2021582, 36.1554245998 ], [ -115.2021582, 36.155429999799999 ], [ -115.2021555, 36.155429999799999 ], [ -115.2021555, 36.155459699799998 ], [ -115.2021528, 36.155459699799998 ], [ -115.2021528, 36.155465099799997 ], [ -115.2021501, 36.155465099799997 ], [ -115.2021501, 36.1554677998 ], [ -115.2021447, 36.1554677998 ], [ -115.2021447, 36.155470499799996 ], [ -115.2021339, 36.155470499799996 ], [ -115.2021339, 36.155473199799999 ] ] ] } },
{ "type": "Feature", "properties": { "value": 255.0 }, "geometry": { "type": "Polygon", "coordinates": [ [ [ -115.201251, 36.155473199799999 ], [ -115.2012429, 36.155473199799999 ], [ -115.2012429, 36.155470499799996 ], [ -115.201132199999989, 36.155470499799996 ], [ -115.201132199999989, 36.1554677998 ], [ -115.2011295, 36.1554677998 ], [ -115.2011295, 36.155432699800002 ], [ -115.201132199999989, 36.155432699800002 ], [ -115.201132199999989, 36.155429999799999 ], [ -115.2011295, 36.155429999799999 ], [ -115.2011295, 36.155408399800002 ], [ -115.201132199999989, 36.155408399800002 ], [ -115.201132199999989, 36.155397599799997 ], [ -115.2011349, 36.155397599799997 ], [ -115.2011349, 36.155386799799999 ], [ -115.2011376, 36.155386799799999 ], [ -115.2011376, 36.155378699799996 ], [ -115.2011349, 36.155378699799996 ], [ -115.2011349, 36.1553759998 ], [ -115.2011295, 36.1553759998 ], [ -115.2011295, 36.155370599800001 ], [ -115.2011268, 36.155370599800001 ], [ -115.2011268, 36.155348999799998 ], [ -115.2011241, 36.155348999799998 ], [ -115.2011241, 36.1553327998 ], [ -115.2011268, 36.1553327998 ], [ -115.2011268, 36.155297699800002 ], [ -115.2011241, 36.155297699800002 ], [ -115.2011241, 36.155294999799999 ], [ -115.2011214, 36.155294999799999 ], [ -115.2011214, 36.155292299799996 ], [ -115.2011025, 36.155292299799996 ], [ -115.2011025, 36.1552895998 ], [ -115.2010971, 36.1552895998 ], [ -115.2010971, 36.155284199800001 ], [ -115.2010944, 36.155284199800001 ], [ -115.2010944, 36.155262599799997 ], [ -115.2010971, 36.155262599799997 ], [ -115.2010971, 36.155257199799998 ], [ -115.2010998, 36.155257199799998 ], [ -115.2010998, 36.155251799799998 ], [ -115.2011052, 36.155251799799998 ], [ -115.2011052, 36.155249099800002 ], [ -115.2011079, 36.155249099800002 ], [ -115.2011079, 36.155251799799998 ], [ -115.2011268, 36.155251799799998 ], [ -115.2011268, 36.155238299799997 ], [ -115.2011295, 36.155238299799997 ], [ -115.2011295, 36.155235599800001 ], [ -115.2011349, 36.155235599800001 ], [ -115.2011349, 36.155232899799998 ], [ -115.2011376, 36.155232899799998 ], [ -115.2011376, 36.155230199800002 ], [ -115.2011565, 36.155230199800002 ], [ -115.2011565, 36.155227499799999 ], [ -115.2011727, 36.155227499799999 ], [ -115.2011727, 36.155230199800002 ], [ -115.201199699999989, 36.155230199800002 ], [ -115.201199699999989, 36.155227499799999 ], [ -115.2012132, 36.155227499799999 ], [ -115.2012132, 36.155224799800003 ], [ -115.2012267, 36.155224799800003 ], [ -115.2012267, 36.1552220998 ], [ -115.2012456, 36.1552220998 ], [ -115.2012456, 36.155219399799996 ], [ -115.2012699, 36.155219399799996 ], [ -115.2012699, 36.1552220998 ], [ -115.2012834, 36.1552220998 ], [ -115.2012834, 36.155224799800003 ], [ -115.2012942, 36.155224799800003 ], [ -115.2012942, 36.155227499799999 ], [ -115.2012969, 36.155227499799999 ], [ -115.2012969, 36.155232899799998 ], [ -115.2012996, 36.155232899799998 ], [ -115.2012996, 36.155235599800001 ], [ -115.2013023, 36.155235599800001 ], [ -115.2013023, 36.155251799799998 ], [ -115.2012996, 36.155251799799998 ], [ -115.2012996, 36.155267999799996 ], [ -115.2012969, 36.155267999799996 ], [ -115.2012969, 36.155276099799998 ], [ -115.2012942, 36.155276099799998 ], [ -115.2012942, 36.155281499799997 ], [ -115.2012915, 36.155281499799997 ], [ -115.2012915, 36.155284199800001 ], [ -115.2012753, 36.155284199800001 ], [ -115.2012753, 36.155286899799997 ], [ -115.2012618, 36.155286899799997 ], [ -115.2012618, 36.1552895998 ], [ -115.2012429, 36.1552895998 ], [ -115.2012429, 36.155292299799996 ], [ -115.2012348, 36.155292299799996 ], [ -115.2012348, 36.155294999799999 ], [ -115.2012294, 36.155294999799999 ], [ -115.2012294, 36.1553084998 ], [ -115.2012321, 36.1553084998 ], [ -115.2012321, 36.155311199799996 ], [ -115.2012348, 36.155311199799996 ], [ -115.2012348, 36.155313899799999 ], [ -115.2012429, 36.155313899799999 ], [ -115.2012429, 36.155316599800003 ], [ -115.2012699, 36.155316599800003 ], [ -115.2012699, 36.155313899799999 ], [ -115.2012753, 36.155313899799999 ], [ -115.2012753, 36.155316599800003 ], [ -115.2012915, 36.155316599800003 ], [ -115.2012915, 36.155319299799999 ], [ -115.2012942, 36.155319299799999 ], [ -115.2012942, 36.155321999800002 ], [ -115.2012969, 36.155321999800002 ], [ -115.2012969, 36.155340899800002 ], [ -115.2012942, 36.155340899800002 ], [ -115.2012942, 36.155348999799998 ], [ -115.2012915, 36.155348999799998 ], [ -115.2012915, 36.155354399799997 ], [ -115.2012861, 36.155354399799997 ], [ -115.2012861, 36.155359799799996 ], [ -115.2012834, 36.155359799799996 ], [ -115.2012834, 36.155370599800001 ], [ -115.2012861, 36.155370599800001 ], [ -115.2012861, 36.1553759998 ], [ -115.2012888, 36.1553759998 ], [ -115.2012888, 36.155378699799996 ], [ -115.2012996, 36.155378699799996 ], [ -115.2012996, 36.155397599799997 ], [ -115.2012969, 36.155397599799997 ], [ -115.2012969, 36.1554245998 ], [ -115.2012942, 36.1554245998 ], [ -115.2012942, 36.155427299799996 ], [ -115.2012834, 36.155427299799996 ], [ -115.2012834, 36.155429999799999 ], [ -115.201278, 36.155429999799999 ], [ -115.201278, 36.155435399799998 ], [ -115.2012753, 36.155435399799998 ], [ -115.2012753, 36.155456999800002 ], [ -115.2012726, 36.155456999800002 ], [ -115.2012726, 36.1554677998 ], [ -115.2012699, 36.1554677998 ], [ -115.2012699, 36.155470499799996 ], [ -115.201251, 36.155470499799996 ], [ -115.201251, 36.155473199799999 ] ] ] } },
{ "type": "Feature", "properties": { "value": 255.0 }, "geometry": { "type": "Polygon", "coordinates": [ [ [ -115.2010134, 36.1554677998 ], [ -115.2008973, 36.1554677998 ], [ -115.2008973, 36.155465099799997 ], [ -115.2008676, 36.155465099799997 ], [ -115.2008676, 36.155462399800001 ], [ -115.2008649, 36.155462399800001 ], [ -115.2008649, 36.155435399799998 ], [ -115.200862199999989, 36.155435399799998 ], [ -115.200862199999989, 36.155432699800002 ], [ -115.2008568, 36.155432699800002 ], [ -115.2008568, 36.155429999799999 ], [ -115.2008352, 36.155429999799999 ], [ -115.2008352, 36.155427299799996 ], [ -115.2008325, 36.155427299799996 ], [ -115.2008325, 36.155384099799996 ], [ -115.2008298, 36.155384099799996 ], [ -115.2008298, 36.155370599800001 ], [ -115.2008325, 36.155370599800001 ], [ -115.2008325, 36.155311199799996 ], [ -115.2008352, 36.155311199799996 ], [ -115.2008352, 36.1553084998 ], [ -115.200843299999988, 36.1553084998 ], [ -115.200843299999988, 36.155305799799997 ], [ -115.2008595, 36.155305799799997 ], [ -115.2008595, 36.155303099800001 ], [ -115.2008757, 36.155303099800001 ], [ -115.2008757, 36.155294999799999 ], [ -115.2008784, 36.155294999799999 ], [ -115.2008784, 36.155292299799996 ], [ -115.2008757, 36.155292299799996 ], [ -115.2008757, 36.155286899799997 ], [ -115.2008676, 36.155286899799997 ], [ -115.2008676, 36.155284199800001 ], [ -115.2008568, 36.155284199800001 ], [ -115.2008568, 36.155281499799997 ], [ -115.2008487, 36.155281499799997 ], [ -115.2008487, 36.155278799800001 ], [ -115.2008406, 36.155278799800001 ], [ -115.2008406, 36.155276099799998 ], [ -115.2008352, 36.155276099799998 ], [ -115.2008352, 36.155259899800001 ], [ -115.2008325, 36.155259899800001 ], [ -115.2008325, 36.1552166998 ], [ -115.2008352, 36.1552166998 ], [ -115.2008352, 36.155211299800001 ], [ -115.2009081, 36.155211299800001 ], [ -115.2009081, 36.155213999799997 ], [ -115.2009243, 36.155213999799997 ], [ -115.2009243, 36.1552166998 ], [ -115.2009351, 36.1552166998 ], [ -115.2009351, 36.155219399799996 ], [ -115.2009405, 36.155219399799996 ], [ -115.2009405, 36.1552220998 ], [ -115.2009459, 36.1552220998 ], [ -115.2009459, 36.155224799800003 ], [ -115.2009486, 36.155224799800003 ], [ -115.2009486, 36.155227499799999 ], [ -115.2009513, 36.155227499799999 ], [ -115.2009513, 36.155230199800002 ], [ -115.2009729, 36.155230199800002 ], [ -115.2009729, 36.155227499799999 ], [ -115.200978299999989, 36.155227499799999 ], [ -115.200978299999989, 36.155224799800003 ], [ -115.2010026, 36.155224799800003 ], [ -115.2010026, 36.155227499799999 ], [ -115.2010053, 36.155227499799999 ], [ -115.2010053, 36.155235599800001 ], [ -115.201008, 36.155235599800001 ], [ -115.201008, 36.1552409998 ], [ -115.2010107, 36.1552409998 ], [ -115.2010107, 36.155246399799999 ], [ -115.2010134, 36.155246399799999 ], [ -115.2010134, 36.155249099800002 ], [ -115.2010161, 36.155249099800002 ], [ -115.2010161, 36.155370599800001 ], [ -115.2010134, 36.155370599800001 ], [ -115.2010134, 36.155373299799997 ], [ -115.201008, 36.155373299799997 ], [ -115.201008, 36.1553759998 ], [ -115.200997199999989, 36.1553759998 ], [ -115.200997199999989, 36.155378699799996 ], [ -115.2009891, 36.155378699799996 ], [ -115.2009891, 36.1553813998 ], [ -115.2009864, 36.1553813998 ], [ -115.2009864, 36.155392199799998 ], [ -115.2009891, 36.155392199799998 ], [ -115.2009891, 36.1554002998 ], [ -115.2009918, 36.1554002998 ], [ -115.2009918, 36.155402999799996 ], [ -115.2010134, 36.155402999799996 ], [ -115.2010134, 36.155408399800002 ], [ -115.2010161, 36.155408399800002 ], [ -115.2010161, 36.155438099800001 ], [ -115.2010134, 36.155438099800001 ], [ -115.2010134, 36.155446199799997 ], [ -115.2010161, 36.155446199799997 ], [ -115.2010161, 36.155462399800001 ], [ -115.2010134, 36.155462399800001 ], [ -115.2010134, 36.1554677998 ] ], [ [ -115.2009, 36.155300399799998 ], [ -115.2009, 36.155294999799999 ], [ -115.2008838, 36.155294999799999 ], [ -115.2008838, 36.155297699800002 ], [ -115.200881099999989, 36.155297699800002 ], [ -115.200881099999989, 36.155300399799998 ], [ -115.2009, 36.155300399799998 ] ] ] } },
{ "type": "Feature", "properties": { "value": 255.0 }, "geometry": { "type": "Polygon", "coordinates": [ [ [ -115.2017478, 36.155362499799999 ], [ -115.201737, 36.155362499799999 ], [ -115.201737, 36.155359799799996 ], [ -115.2017262, 36.155359799799996 ], [ -115.2017262, 36.155362499799999 ], [ -115.2017235, 36.155362499799999 ], [ -115.2017235, 36.155359799799996 ], [ -115.20171, 36.155359799799996 ], [ -115.20171, 36.155362499799999 ], [ -115.2017073, 36.155362499799999 ], [ -115.2017073, 36.155359799799996 ], [ -115.2017019, 36.155359799799996 ], [ -115.2017019, 36.1553570998 ], [ -115.2016992, 36.1553570998 ], [ -115.2016992, 36.155354399799997 ], [ -115.2016965, 36.155354399799997 ], [ -115.2016965, 36.155351699800001 ], [ -115.2016938, 36.155351699800001 ], [ -115.2016938, 36.155348999799998 ], [ -115.2016911, 36.155348999799998 ], [ -115.2016911, 36.155346299800001 ], [ -115.2016884, 36.155346299800001 ], [ -115.2016884, 36.155343599799998 ], [ -115.2016857, 36.155343599799998 ], [ -115.2016857, 36.155338199799999 ], [ -115.201683, 36.155338199799999 ], [ -115.201683, 36.155324699799998 ], [ -115.2016803, 36.155324699799998 ], [ -115.2016803, 36.155297699800002 ], [ -115.201683, 36.155297699800002 ], [ -115.201683, 36.1552895998 ], [ -115.2016803, 36.1552895998 ], [ -115.2016803, 36.155284199800001 ], [ -115.201683, 36.155284199800001 ], [ -115.201683, 36.155211299800001 ], [ -115.2016857, 36.155211299800001 ], [ -115.2016857, 36.155203199799999 ], [ -115.2016884, 36.155203199799999 ], [ -115.2016884, 36.155195099799997 ], [ -115.2016911, 36.155195099799997 ], [ -115.2016911, 36.155192399800001 ], [ -115.2016884, 36.155192399800001 ], [ -115.2016884, 36.155181599800002 ], [ -115.2016857, 36.155181599800002 ], [ -115.2016857, 36.155176199799996 ], [ -115.2016884, 36.155176199799996 ], [ -115.2016884, 36.155168099800001 ], [ -115.2016911, 36.155168099800001 ], [ -115.2016911, 36.155165399799998 ], [ -115.2016884, 36.155165399799998 ], [ -115.2016884, 36.155162699800002 ], [ -115.2016911, 36.155162699800002 ], [ -115.2016911, 36.155159999799999 ], [ -115.2016965, 36.155159999799999 ], [ -115.2016965, 36.155157299800003 ], [ -115.2017343, 36.155157299800003 ], [ -115.2017343, 36.155154599799999 ], [ -115.2017478, 36.155154599799999 ], [ -115.2017478, 36.155157299800003 ], [ -115.2018477, 36.155157299800003 ], [ -115.2018477, 36.155159999799999 ], [ -115.2018585, 36.155159999799999 ], [ -115.2018585, 36.155165399799998 ], [ -115.2018612, 36.155165399799998 ], [ -115.2018612, 36.155186999800002 ], [ -115.2018639, 36.155186999800002 ], [ -115.2018639, 36.155200499800003 ], [ -115.2018612, 36.155200499800003 ], [ -115.2018612, 36.155246399799999 ], [ -115.2018585, 36.155246399799999 ], [ -115.2018585, 36.155249099800002 ], [ -115.2018504, 36.155249099800002 ], [ -115.2018504, 36.155251799799998 ], [ -115.201845, 36.155251799799998 ], [ -115.201845, 36.155262599799997 ], [ -115.2018477, 36.155262599799997 ], [ -115.2018477, 36.1552652998 ], [ -115.2018504, 36.1552652998 ], [ -115.2018504, 36.155267999799996 ], [ -115.2018531, 36.155267999799996 ], [ -115.2018531, 36.155270699799999 ], [ -115.2018558, 36.155270699799999 ], [ -115.2018558, 36.155273399800002 ], [ -115.2018585, 36.155273399800002 ], [ -115.2018585, 36.155276099799998 ], [ -115.2018612, 36.155276099799998 ], [ -115.2018612, 36.155284199800001 ], [ -115.2018639, 36.155284199800001 ], [ -115.2018639, 36.155292299799996 ], [ -115.2018666, 36.155292299799996 ], [ -115.2018666, 36.155294999799999 ], [ -115.2018639, 36.155294999799999 ], [ -115.2018639, 36.155303099800001 ], [ -115.2018612, 36.155303099800001 ], [ -115.2018612, 36.155321999800002 ], [ -115.2018585, 36.155321999800002 ], [ -115.2018585, 36.155324699799998 ], [ -115.2018558, 36.155324699799998 ], [ -115.2018558, 36.155321999800002 ], [ -115.2018531, 36.155321999800002 ], [ -115.2018531, 36.155324699799998 ], [ -115.201845, 36.155324699799998 ], [ -115.201845, 36.155319299799999 ], [ -115.2018423, 36.155319299799999 ], [ -115.2018423, 36.155321999800002 ], [ -115.2018396, 36.155321999800002 ], [ -115.2018396, 36.155324699799998 ], [ -115.2018369, 36.155324699799998 ], [ -115.2018369, 36.155340899800002 ], [ -115.2018342, 36.155340899800002 ], [ -115.2018342, 36.155351699800001 ], [ -115.2018315, 36.155351699800001 ], [ -115.2018315, 36.1553570998 ], [ -115.2017937, 36.1553570998 ], [ -115.2017937, 36.155359799799996 ], [ -115.2017478, 36.155359799799996 ], [ -115.2017478, 36.155362499799999 ] ] ] } },
{ "type": "Feature", "properties": { "value": 255.0 }, "geometry": { "type": "Polygon", "coordinates": [ [ [ -115.2021312, 36.155267999799996 ], [ -115.2020907, 36.155267999799996 ], [ -115.2020907, 36.1552652998 ], [ -115.2020637, 36.1552652998 ], [ -115.2020637, 36.155262599799997 ], [ -115.2020583, 36.155262599799997 ], [ -115.2020583, 36.155259899800001 ], [ -115.2020286, 36.155259899800001 ], [ -115.2020286, 36.155257199799998 ], [ -115.2020151, 36.155257199799998 ], [ -115.2020151, 36.155254499800002 ], [ -115.2020097, 36.155254499800002 ], [ -115.2020097, 36.155251799799998 ], [ -115.2019935, 36.155251799799998 ], [ -115.2019935, 36.155249099800002 ], [ -115.2019854, 36.155249099800002 ], [ -115.2019854, 36.1552409998 ], [ -115.2019827, 36.1552409998 ], [ -115.2019827, 36.155192399800001 ], [ -115.2019854, 36.155192399800001 ], [ -115.2019854, 36.155189699799998 ], [ -115.2019908, 36.155189699799998 ], [ -115.2019908, 36.155186999800002 ], [ -115.2020016, 36.155186999800002 ], [ -115.2020016, 36.155184299799998 ], [ -115.2020097, 36.155184299799998 ], [ -115.2020097, 36.155181599800002 ], [ -115.2020124, 36.155181599800002 ], [ -115.2020124, 36.155176199799996 ], [ -115.2020151, 36.155176199799996 ], [ -115.2020151, 36.1551734998 ], [ -115.2020178, 36.1551734998 ], [ -115.2020178, 36.155170799799997 ], [ -115.2020205, 36.155170799799997 ], [ -115.2020205, 36.155168099800001 ], [ -115.2020259, 36.155168099800001 ], [ -115.2020259, 36.155165399799998 ], [ -115.2020421, 36.155165399799998 ], [ -115.2020421, 36.155162699800002 ], [ -115.2020961, 36.155162699800002 ], [ -115.2020961, 36.155165399799998 ], [ -115.2021609, 36.155165399799998 ], [ -115.2021609, 36.155170799799997 ], [ -115.2021636, 36.155170799799997 ], [ -115.2021636, 36.155181599800002 ], [ -115.2021663, 36.155181599800002 ], [ -115.2021663, 36.155192399800001 ], [ -115.2021636, 36.155192399800001 ], [ -115.2021636, 36.155224799800003 ], [ -115.2021555, 36.155224799800003 ], [ -115.2021555, 36.155227499799999 ], [ -115.2021366, 36.155227499799999 ], [ -115.2021366, 36.155230199800002 ], [ -115.2021339, 36.155230199800002 ], [ -115.2021339, 36.155246399799999 ], [ -115.2021366, 36.155246399799999 ], [ -115.2021366, 36.155251799799998 ], [ -115.2021339, 36.155251799799998 ], [ -115.2021339, 36.1552652998 ], [ -115.2021312, 36.1552652998 ], [ -115.2021312, 36.155267999799996 ] ] ] } },
{ "type": "Feature", "properties": { "value": 255.0 }, "geometry": { "type": "Polygon", "coordinates": [ [ [ -115.2015777, 36.1554677998 ], [ -115.2014265, 36.1554677998 ], [ -115.2014265, 36.155465099799997 ], [ -115.2014211, 36.155465099799997 ], [ -115.2014211, 36.155462399800001 ], [ -115.2014184, 36.155462399800001 ], [ -115.2014184, 36.155454299799999 ], [ -115.2014157, 36.155454299799999 ], [ -115.2014157, 36.155435399799998 ], [ -115.201413, 36.155435399799998 ], [ -115.201413, 36.1553759998 ], [ -115.2014157, 36.1553759998 ], [ -115.2014157, 36.155370599800001 ], [ -115.2014184, 36.155370599800001 ], [ -115.2014184, 36.155367899799998 ], [ -115.2014211, 36.155367899799998 ], [ -115.2014211, 36.155365199800002 ], [ -115.2014265, 36.155365199800002 ], [ -115.2014265, 36.155362499799999 ], [ -115.2014292, 36.155362499799999 ], [ -115.2014292, 36.155359799799996 ], [ -115.2014346, 36.155359799799996 ], [ -115.2014346, 36.1553570998 ], [ -115.2014373, 36.1553570998 ], [ -115.2014373, 36.155354399799997 ], [ -115.20144, 36.155354399799997 ], [ -115.20144, 36.1553084998 ], [ -115.2014427, 36.1553084998 ], [ -115.2014427, 36.155305799799997 ], [ -115.20144, 36.155305799799997 ], [ -115.20144, 36.1552895998 ], [ -115.2014373, 36.1552895998 ], [ -115.2014373, 36.155273399800002 ], [ -115.20144, 36.155273399800002 ], [ -115.20144, 36.155270699799999 ], [ -115.2014427, 36.155270699799999 ], [ -115.2014427, 36.1552652998 ], [ -115.2014481, 36.1552652998 ], [ -115.2014481, 36.155262599799997 ], [ -115.201450799999989, 36.155262599799997 ], [ -115.201450799999989, 36.155259899800001 ], [ -115.2014535, 36.155259899800001 ], [ -115.2014535, 36.155257199799998 ], [ -115.201450799999989, 36.155257199799998 ], [ -115.201450799999989, 36.155254499800002 ], [ -115.2014427, 36.155254499800002 ], [ -115.2014427, 36.155251799799998 ], [ -115.20144, 36.155251799799998 ], [ -115.20144, 36.155249099800002 ], [ -115.2014346, 36.155249099800002 ], [ -115.2014346, 36.155246399799999 ], [ -115.2014157, 36.155246399799999 ], [ -115.2014157, 36.1552409998 ], [ -115.201413, 36.1552409998 ], [ -115.201413, 36.155224799800003 ], [ -115.2014157, 36.155224799800003 ], [ -115.2014157, 36.1552166998 ], [ -115.2014184, 36.1552166998 ], [ -115.2014184, 36.155211299800001 ], [ -115.2014211, 36.155211299800001 ], [ -115.2014211, 36.155208599799998 ], [ -115.2014238, 36.155208599799998 ], [ -115.2014238, 36.155205899800002 ], [ -115.2014292, 36.155205899800002 ], [ -115.2014292, 36.155203199799999 ], [ -115.2014319, 36.155203199799999 ], [ -115.2014319, 36.155200499800003 ], [ -115.2014346, 36.155200499800003 ], [ -115.2014346, 36.155195099799997 ], [ -115.2014373, 36.155195099799997 ], [ -115.2014373, 36.155189699799998 ], [ -115.20144, 36.155189699799998 ], [ -115.20144, 36.155186999800002 ], [ -115.2014373, 36.155186999800002 ], [ -115.2014373, 36.155159999799999 ], [ -115.20144, 36.155159999799999 ], [ -115.20144, 36.155157299800003 ], [ -115.2014427, 36.155157299800003 ], [ -115.2014427, 36.155154599799999 ], [ -115.2014913, 36.155154599799999 ], [ -115.2014913, 36.155157299800003 ], [ -115.2015669, 36.155157299800003 ], [ -115.2015669, 36.155154599799999 ], [ -115.201575, 36.155154599799999 ], [ -115.201575, 36.155157299800003 ], [ -115.2015885, 36.155157299800003 ], [ -115.2015885, 36.155162699800002 ], [ -115.2015912, 36.155162699800002 ], [ -115.2015912, 36.1551734998 ], [ -115.2015939, 36.1551734998 ], [ -115.2015939, 36.155176199799996 ], [ -115.2015912, 36.155176199799996 ], [ -115.2015912, 36.155181599800002 ], [ -115.2015939, 36.155181599800002 ], [ -115.2015939, 36.155211299800001 ], [ -115.2015912, 36.155211299800001 ], [ -115.2015912, 36.1552220998 ], [ -115.2015885, 36.1552220998 ], [ -115.2015885, 36.155224799800003 ], [ -115.201585799999989, 36.155224799800003 ], [ -115.201585799999989, 36.155227499799999 ], [ -115.2015804, 36.155227499799999 ], [ -115.2015804, 36.155230199800002 ], [ -115.2015777, 36.155230199800002 ], [ -115.2015777, 36.155232899799998 ], [ -115.201585799999989, 36.155232899799998 ], [ -115.201585799999989, 36.1552409998 ], [ -115.2015885, 36.1552409998 ], [ -115.2015885, 36.155246399799999 ], [ -115.2015912, 36.155246399799999 ], [ -115.2015912, 36.155249099800002 ], [ -115.2015885, 36.155249099800002 ], [ -115.2015885, 36.155251799799998 ], [ -115.201585799999989, 36.155251799799998 ], [ -115.201585799999989, 36.155254499800002 ], [ -115.2015696, 36.155254499800002 ], [ -115.2015696, 36.155257199799998 ], [ -115.2015669, 36.155257199799998 ], [ -115.2015669, 36.155259899800001 ], [ -115.2015642, 36.155259899800001 ], [ -115.2015642, 36.155262599799997 ], [ -115.2015588, 36.155262599799997 ], [ -115.2015588, 36.1552652998 ], [ -115.2015237, 36.1552652998 ], [ -115.2015237, 36.155262599799997 ], [ -115.2014967, 36.155262599799997 ], [ -115.2014967, 36.155259899800001 ], [ -115.2014886, 36.155259899800001 ], [ -115.2014886, 36.155257199799998 ], [ -115.2014805, 36.155257199799998 ], [ -115.2014805, 36.155259899800001 ], [ -115.2014778, 36.155259899800001 ], [ -115.2014778, 36.155262599799997 ], [ -115.2014832, 36.155262599799997 ], [ -115.2014832, 36.1552652998 ], [ -115.2014859, 36.1552652998 ], [ -115.2014859, 36.155267999799996 ], [ -115.2014913, 36.155267999799996 ], [ -115.2014913, 36.155270699799999 ], [ -115.2015102, 36.155270699799999 ], [ -115.2015102, 36.155273399800002 ], [ -115.2015453, 36.155273399800002 ], [ -115.2015453, 36.155276099799998 ], [ -115.2015588, 36.155276099799998 ], [ -115.2015588, 36.155273399800002 ], [ -115.2015885, 36.155273399800002 ], [ -115.2015885, 36.155294999799999 ], [ -115.2015912, 36.155294999799999 ], [ -115.2015912, 36.155316599800003 ], [ -115.2015939, 36.155316599800003 ], [ -115.2015939, 36.1553327998 ], [ -115.2015912, 36.1553327998 ], [ -115.2015912, 36.155335499799996 ], [ -115.2015885, 36.155335499799996 ], [ -115.2015885, 36.155338199799999 ], [ -115.2015777, 36.155338199799999 ], [ -115.2015777, 36.155340899800002 ], [ -115.2015723, 36.155340899800002 ], [ -115.2015723, 36.155343599799998 ], [ -115.201575, 36.155343599799998 ], [ -115.201575, 36.155346299800001 ], [ -115.2015831, 36.155346299800001 ], [ -115.2015831, 36.155348999799998 ], [ -115.201585799999989, 36.155348999799998 ], [ -115.201585799999989, 36.155351699800001 ], [ -115.2015885, 36.155351699800001 ], [ -115.2015885, 36.155354399799997 ], [ -115.2015912, 36.155354399799997 ], [ -115.2015912, 36.155378699799996 ], [ -115.2015885, 36.155378699799996 ], [ -115.2015885, 36.155402999799996 ], [ -115.201585799999989, 36.155402999799996 ], [ -115.201585799999989, 36.155405699799999 ], [ -115.2015885, 36.155405699799999 ], [ -115.2015885, 36.155465099799997 ], [ -115.2015777, 36.155465099799997 ], [ -115.2015777, 36.1554677998 ] ], [ [ -115.2015777, 36.1552409998 ], [ -115.2015777, 36.155235599800001 ], [ -115.201575, 36.155235599800001 ], [ -115.201575, 36.1552409998 ], [ -115.2015777, 36.1552409998 ] ] ] } },
{ "type": "Feature", "properties": { "value": 255.0 }, "geometry": { "type": "Polygon", "coordinates": [ [ [ -115.2012267, 36.155192399800001 ], [ -115.2011538, 36.155192399800001 ], [ -115.2011538, 36.155189699799998 ], [ -115.2011511, 36.155189699799998 ], [ -115.2011511, 36.155184299799998 ], [ -115.2011484, 36.155184299799998 ], [ -115.2011484, 36.155178899799999 ], [ -115.2011457, 36.155178899799999 ], [ -115.2011457, 36.155170799799997 ], [ -115.2011484, 36.155170799799997 ], [ -115.2011484, 36.155146499799997 ], [ -115.2011511, 36.155146499799997 ], [ -115.2011511, 36.155143799800001 ], [ -115.2011565, 36.155143799800001 ], [ -115.2011565, 36.155141099799998 ], [ -115.2011916, 36.155141099799998 ], [ -115.2011916, 36.155138399800002 ], [ -115.2012078, 36.155138399800002 ], [ -115.2012078, 36.155141099799998 ], [ -115.2012159, 36.155141099799998 ], [ -115.2012159, 36.155143799800001 ], [ -115.201224, 36.155143799800001 ], [ -115.201224, 36.155146499799997 ], [ -115.2012267, 36.155146499799997 ], [ -115.2012267, 36.155151899799996 ], [ -115.2012294, 36.155151899799996 ], [ -115.2012294, 36.155159999799999 ], [ -115.2012321, 36.155159999799999 ], [ -115.2012321, 36.155162699800002 ], [ -115.2012348, 36.155162699800002 ], [ -115.2012348, 36.155168099800001 ], [ -115.2012375, 36.155168099800001 ], [ -115.2012375, 36.155178899799999 ], [ -115.2012348, 36.155178899799999 ], [ -115.2012348, 36.155184299799998 ], [ -115.2012375, 36.155184299799998 ], [ -115.2012375, 36.155186999800002 ], [ -115.2012348, 36.155186999800002 ], [ -115.2012348, 36.155189699799998 ], [ -115.2012267, 36.155189699799998 ], [ -115.2012267, 36.155192399800001 ] ] ] } },
{ "type": "Feature", "properties": { "value": 255.0 }, "geometry": { "type": "Polygon", "coordinates": [ [ [ -115.2006327, 36.155276099799998 ], [ -115.2005625, 36.155276099799998 ], [ -115.2005625, 36.155273399800002 ], [ -115.2005571, 36.155273399800002 ], [ -115.2005571, 36.155178899799999 ], [ -115.2005598, 36.155178899799999 ], [ -115.2005598, 36.155168099800001 ], [ -115.2005571, 36.155168099800001 ], [ -115.2005571, 36.155159999799999 ], [ -115.2005544, 36.155159999799999 ], [ -115.2005544, 36.155108699800003 ], [ -115.2005571, 36.155108699800003 ], [ -115.2005571, 36.155100599800001 ], [ -115.2005652, 36.155100599800001 ], [ -115.2005652, 36.155097899799998 ], [ -115.2005679, 36.155097899799998 ], [ -115.2005679, 36.155100599800001 ], [ -115.200611099999989, 36.155100599800001 ], [ -115.200611099999989, 36.155103299799997 ], [ -115.20063, 36.155103299799997 ], [ -115.20063, 36.155100599800001 ], [ -115.2006975, 36.155100599800001 ], [ -115.2006975, 36.155103299799997 ], [ -115.2007029, 36.155103299799997 ], [ -115.2007029, 36.155111399799999 ], [ -115.2007056, 36.155111399799999 ], [ -115.2007056, 36.155138399800002 ], [ -115.200708299999988, 36.155138399800002 ], [ -115.200708299999988, 36.155141099799998 ], [ -115.200711, 36.155141099799998 ], [ -115.200711, 36.155143799800001 ], [ -115.2007137, 36.155143799800001 ], [ -115.2007137, 36.1551491998 ], [ -115.2007164, 36.1551491998 ], [ -115.2007164, 36.155151899799996 ], [ -115.2007191, 36.155151899799996 ], [ -115.2007191, 36.155154599799999 ], [ -115.2007218, 36.155154599799999 ], [ -115.2007218, 36.155170799799997 ], [ -115.2007245, 36.155170799799997 ], [ -115.2007245, 36.155178899799999 ], [ -115.200727199999989, 36.155178899799999 ], [ -115.200727199999989, 36.155186999800002 ], [ -115.2007299, 36.155186999800002 ], [ -115.2007299, 36.155192399800001 ], [ -115.2007326, 36.155192399800001 ], [ -115.2007326, 36.1552409998 ], [ -115.2007299, 36.1552409998 ], [ -115.2007299, 36.155246399799999 ], [ -115.200727199999989, 36.155246399799999 ], [ -115.200727199999989, 36.155249099800002 ], [ -115.2007245, 36.155249099800002 ], [ -115.2007245, 36.155251799799998 ], [ -115.2007218, 36.155251799799998 ], [ -115.2007218, 36.155254499800002 ], [ -115.2006813, 36.155254499800002 ], [ -115.2006813, 36.155257199799998 ], [ -115.200659699999989, 36.155257199799998 ], [ -115.200659699999989, 36.155259899800001 ], [ -115.2006489, 36.155259899800001 ], [ -115.2006489, 36.155262599799997 ], [ -115.2006435, 36.155262599799997 ], [ -115.2006435, 36.1552652998 ], [ -115.200640799999988, 36.1552652998 ], [ -115.200640799999988, 36.155267999799996 ], [ -115.2006381, 36.155267999799996 ], [ -115.2006381, 36.155273399800002 ], [ -115.2006327, 36.155273399800002 ], [ -115.2006327, 36.155276099799998 ] ] ] } },
{ "type": "Feature", "properties": { "value": 255.0 }, "geometry": { "type": "Polygon", "coordinates": [ [ [ -115.200476099999989, 36.155238299799997 ], [ -115.2004626, 36.155238299799997 ], [ -115.2004626, 36.155103299799997 ], [ -115.2004734, 36.155103299799997 ], [ -115.2004734, 36.1551059998 ], [ -115.2004788, 36.1551059998 ], [ -115.2004788, 36.155108699800003 ], [ -115.2004815, 36.155108699800003 ], [ -115.2004815, 36.155227499799999 ], [ -115.2004788, 36.155227499799999 ], [ -115.2004788, 36.155235599800001 ], [ -115.200476099999989, 36.155235599800001 ], [ -115.200476099999989, 36.155238299799997 ] ] ] } },
{ "type": "Feature", "properties": { "value": 255.0 }, "geometry": { "type": "Polygon", "coordinates": [ [ [ -115.20171, 36.155000699799999 ], [ -115.2017046, 36.155000699799999 ], [ -115.2017046, 36.154997999800003 ], [ -115.2016911, 36.154997999800003 ], [ -115.2016911, 36.154995299799999 ], [ -115.201683, 36.154995299799999 ], [ -115.201683, 36.154992599800003 ], [ -115.2016803, 36.154992599800003 ], [ -115.2016803, 36.1549898998 ], [ -115.201683, 36.1549898998 ], [ -115.201683, 36.154984499800001 ], [ -115.2016803, 36.154984499800001 ], [ -115.2016803, 36.154979099800002 ], [ -115.201683, 36.154979099800002 ], [ -115.201683, 36.154973699800003 ], [ -115.2016857, 36.154973699800003 ], [ -115.2016857, 36.154954799800002 ], [ -115.201683, 36.154954799800002 ], [ -115.201683, 36.154935899800002 ], [ -115.2016803, 36.154935899800002 ], [ -115.2016803, 36.154925099800003 ], [ -115.201683, 36.154925099800003 ], [ -115.201683, 36.154914299799998 ], [ -115.2016857, 36.154914299799998 ], [ -115.2016857, 36.154892699800001 ], [ -115.2016884, 36.154892699800001 ], [ -115.2016884, 36.154884599799999 ], [ -115.2016857, 36.154884599799999 ], [ -115.2016857, 36.154860299799999 ], [ -115.2016884, 36.154860299799999 ], [ -115.2016884, 36.154846799799998 ], [ -115.2016911, 36.154846799799998 ], [ -115.2016911, 36.154808999800004 ], [ -115.2016938, 36.154808999800004 ], [ -115.2016938, 36.154800899800001 ], [ -115.2016965, 36.154800899800001 ], [ -115.2016965, 36.154798199799998 ], [ -115.2017019, 36.154798199799998 ], [ -115.2017019, 36.154800899800001 ], [ -115.2018558, 36.154800899800001 ], [ -115.2018558, 36.154803599799997 ], [ -115.2018585, 36.154803599799997 ], [ -115.2018585, 36.154814399800003 ], [ -115.2018612, 36.154814399800003 ], [ -115.2018612, 36.154838699800003 ], [ -115.2018639, 36.154838699800003 ], [ -115.2018639, 36.154887299800002 ], [ -115.2018612, 36.154887299800002 ], [ -115.2018612, 36.154889999799998 ], [ -115.2018585, 36.154889999799998 ], [ -115.2018585, 36.154892699800001 ], [ -115.2018531, 36.154892699800001 ], [ -115.2018531, 36.154895399799997 ], [ -115.2018477, 36.154895399799997 ], [ -115.2018477, 36.1548980998 ], [ -115.2018504, 36.1548980998 ], [ -115.2018504, 36.154900799800004 ], [ -115.2018531, 36.154900799800004 ], [ -115.2018531, 36.1549034998 ], [ -115.2018558, 36.1549034998 ], [ -115.2018558, 36.154906199800003 ], [ -115.2018585, 36.154906199800003 ], [ -115.2018585, 36.154908899799999 ], [ -115.2018612, 36.154908899799999 ], [ -115.2018612, 36.154916999800001 ], [ -115.2018639, 36.154916999800001 ], [ -115.2018639, 36.154925099800003 ], [ -115.2018666, 36.154925099800003 ], [ -115.2018666, 36.154927799799999 ], [ -115.201872, 36.154927799799999 ], [ -115.201872, 36.154930499800003 ], [ -115.2018747, 36.154930499800003 ], [ -115.2018747, 36.154938599799998 ], [ -115.201872, 36.154938599799998 ], [ -115.201872, 36.154943999799997 ], [ -115.2018666, 36.154943999799997 ], [ -115.2018666, 36.154952099799999 ], [ -115.2018639, 36.154952099799999 ], [ -115.2018639, 36.154957499799998 ], [ -115.201845, 36.154957499799998 ], [ -115.201845, 36.154962899799997 ], [ -115.2018423, 36.154962899799997 ], [ -115.2018423, 36.154965599800001 ], [ -115.2018396, 36.154965599800001 ], [ -115.2018396, 36.1549709998 ], [ -115.2018369, 36.1549709998 ], [ -115.2018369, 36.154979099800002 ], [ -115.2018342, 36.154979099800002 ], [ -115.2018342, 36.154992599800003 ], [ -115.2018315, 36.154992599800003 ], [ -115.2018315, 36.154995299799999 ], [ -115.2017775, 36.154995299799999 ], [ -115.2017775, 36.154997999800003 ], [ -115.20171, 36.154997999800003 ], [ -115.20171, 36.155000699799999 ] ] ] } },
{ "type": "Feature", "properties": { "value": 255.0 }, "geometry": { "type": "Polygon", "coordinates": [ [ [ -115.2006624, 36.154933199799999 ], [ -115.2006192, 36.154933199799999 ], [ -115.2006192, 36.154930499800003 ], [ -115.2006165, 36.154930499800003 ], [ -115.2006165, 36.154927799799999 ], [ -115.2006138, 36.154927799799999 ], [ -115.2006138, 36.154925099800003 ], [ -115.2006057, 36.154925099800003 ], [ -115.2006057, 36.1549223998 ], [ -115.2005787, 36.1549223998 ], [ -115.2005787, 36.154925099800003 ], [ -115.2005706, 36.154925099800003 ], [ -115.2005706, 36.154927799799999 ], [ -115.2005679, 36.154927799799999 ], [ -115.2005679, 36.154930499800003 ], [ -115.2005517, 36.154930499800003 ], [ -115.2005517, 36.154933199799999 ], [ -115.2005301, 36.154933199799999 ], [ -115.2005301, 36.154930499800003 ], [ -115.2005274, 36.154930499800003 ], [ -115.2005274, 36.154919699799997 ], [ -115.200524699999988, 36.154919699799997 ], [ -115.200524699999988, 36.154911599800002 ], [ -115.2005274, 36.154911599800002 ], [ -115.2005274, 36.1548980998 ], [ -115.2005301, 36.1548980998 ], [ -115.2005301, 36.154881899800003 ], [ -115.2005274, 36.154881899800003 ], [ -115.2005274, 36.1548791998 ], [ -115.200522, 36.1548791998 ], [ -115.200522, 36.154876499799997 ], [ -115.2005112, 36.154876499799997 ], [ -115.2005112, 36.154873799800001 ], [ -115.2005085, 36.154873799800001 ], [ -115.2005085, 36.154871099799998 ], [ -115.200505799999988, 36.154871099799998 ], [ -115.200505799999988, 36.1548116998 ], [ -115.2005085, 36.1548116998 ], [ -115.2005085, 36.154806299800001 ], [ -115.200505799999988, 36.154806299800001 ], [ -115.200505799999988, 36.154800899800001 ], [ -115.2005085, 36.154800899800001 ], [ -115.2005085, 36.154792799799999 ], [ -115.2005328, 36.154792799799999 ], [ -115.2005328, 36.154790099800003 ], [ -115.2005841, 36.154790099800003 ], [ -115.2005841, 36.1547873998 ], [ -115.2006057, 36.1547873998 ], [ -115.2006057, 36.154790099800003 ], [ -115.2006381, 36.154790099800003 ], [ -115.2006381, 36.154792799799999 ], [ -115.200684, 36.154792799799999 ], [ -115.200684, 36.154790099800003 ], [ -115.2007056, 36.154790099800003 ], [ -115.2007056, 36.154792799799999 ], [ -115.2007137, 36.154792799799999 ], [ -115.2007137, 36.154800899800001 ], [ -115.2007164, 36.154800899800001 ], [ -115.2007164, 36.154871099799998 ], [ -115.2007137, 36.154871099799998 ], [ -115.2007137, 36.154895399799997 ], [ -115.200711, 36.154895399799997 ], [ -115.200711, 36.154900799800004 ], [ -115.2007137, 36.154900799800004 ], [ -115.2007137, 36.154911599800002 ], [ -115.200711, 36.154911599800002 ], [ -115.200711, 36.154925099800003 ], [ -115.200708299999988, 36.154925099800003 ], [ -115.200708299999988, 36.154927799799999 ], [ -115.2006894, 36.154927799799999 ], [ -115.2006894, 36.154930499800003 ], [ -115.2006624, 36.154930499800003 ], [ -115.2006624, 36.154933199799999 ] ] ] } },
{ "type": "Feature", "properties": { "value": 255.0 }, "geometry": { "type": "Polygon", "coordinates": [ [ [ -115.2015426, 36.154997999800003 ], [ -115.2015237, 36.154997999800003 ], [ -115.2015237, 36.154995299799999 ], [ -115.2014346, 36.154995299799999 ], [ -115.2014346, 36.154992599800003 ], [ -115.2014265, 36.154992599800003 ], [ -115.2014265, 36.1549898998 ], [ -115.2014238, 36.1549898998 ], [ -115.2014238, 36.1549466998 ], [ -115.2014211, 36.1549466998 ], [ -115.2014211, 36.1549034998 ], [ -115.2014238, 36.1549034998 ], [ -115.2014238, 36.154900799800004 ], [ -115.2014265, 36.154900799800004 ], [ -115.2014265, 36.1548980998 ], [ -115.2014373, 36.1548980998 ], [ -115.2014373, 36.154895399799997 ], [ -115.20144, 36.154895399799997 ], [ -115.20144, 36.154892699800001 ], [ -115.2014427, 36.154892699800001 ], [ -115.2014427, 36.154889999799998 ], [ -115.2014454, 36.154889999799998 ], [ -115.2014454, 36.1548791998 ], [ -115.2014427, 36.1548791998 ], [ -115.2014427, 36.154865699799998 ], [ -115.2014454, 36.154865699799998 ], [ -115.2014454, 36.154849499800001 ], [ -115.2014481, 36.154849499800001 ], [ -115.2014481, 36.154844099800002 ], [ -115.201450799999989, 36.154844099800002 ], [ -115.201450799999989, 36.154841399799999 ], [ -115.2014535, 36.154841399799999 ], [ -115.2014535, 36.154838699800003 ], [ -115.2014562, 36.154838699800003 ], [ -115.2014562, 36.154833299800003 ], [ -115.2014589, 36.154833299800003 ], [ -115.2014589, 36.154806299800001 ], [ -115.2014643, 36.154806299800001 ], [ -115.2014643, 36.154803599799997 ], [ -115.2014778, 36.154803599799997 ], [ -115.2014778, 36.154800899800001 ], [ -115.2015021, 36.154800899800001 ], [ -115.2015021, 36.154803599799997 ], [ -115.2015966, 36.154803599799997 ], [ -115.2015966, 36.154806299800001 ], [ -115.2015993, 36.154806299800001 ], [ -115.2015993, 36.154825199800001 ], [ -115.201602, 36.154825199800001 ], [ -115.201602, 36.154860299799999 ], [ -115.2015993, 36.154860299799999 ], [ -115.2015993, 36.154868399800002 ], [ -115.2015966, 36.154868399800002 ], [ -115.2015966, 36.1548791998 ], [ -115.2015993, 36.1548791998 ], [ -115.2015993, 36.154889999799998 ], [ -115.2015966, 36.154889999799998 ], [ -115.2015966, 36.154995299799999 ], [ -115.2015426, 36.154995299799999 ], [ -115.2015426, 36.154997999800003 ] ] ] } },
{ "type": "Feature", "properties": { "value": 255.0 }, "geometry": { "type": "Polygon", "coordinates": [ [ [ -115.2021393, 36.154997999800003 ], [ -115.2020178, 36.154997999800003 ], [ -115.2020178, 36.154995299799999 ], [ -115.2019935, 36.154995299799999 ], [ -115.2019935, 36.154992599800003 ], [ -115.2019908, 36.154992599800003 ], [ -115.2019908, 36.154981799799998 ], [ -115.2019881, 36.154981799799998 ], [ -115.2019881, 36.154962899799997 ], [ -115.2019908, 36.154962899799997 ], [ -115.2019908, 36.154960199800001 ], [ -115.2019881, 36.154960199800001 ], [ -115.2019881, 36.154906199800003 ], [ -115.2019908, 36.154906199800003 ], [ -115.2019908, 36.154884599799999 ], [ -115.2019881, 36.154884599799999 ], [ -115.2019881, 36.1548791998 ], [ -115.2019908, 36.1548791998 ], [ -115.2019908, 36.154873799800001 ], [ -115.2019962, 36.154873799800001 ], [ -115.2019962, 36.154876499799997 ], [ -115.2019989, 36.154876499799997 ], [ -115.2019989, 36.154873799800001 ], [ -115.2020016, 36.154873799800001 ], [ -115.2020016, 36.154871099799998 ], [ -115.2020043, 36.154871099799998 ], [ -115.2020043, 36.154865699799998 ], [ -115.202007, 36.154865699799998 ], [ -115.202007, 36.154852199799997 ], [ -115.2020097, 36.154852199799997 ], [ -115.2020097, 36.154849499800001 ], [ -115.2020124, 36.154849499800001 ], [ -115.2020124, 36.1548359998 ], [ -115.2020151, 36.1548359998 ], [ -115.2020151, 36.154806299800001 ], [ -115.2020178, 36.154806299800001 ], [ -115.2020178, 36.154803599799997 ], [ -115.2020799, 36.154803599799997 ], [ -115.2020799, 36.154806299800001 ], [ -115.2021663, 36.154806299800001 ], [ -115.2021663, 36.154808999800004 ], [ -115.202169, 36.154808999800004 ], [ -115.202169, 36.154819799800002 ], [ -115.2021717, 36.154819799800002 ], [ -115.2021717, 36.154825199800001 ], [ -115.202169, 36.154825199800001 ], [ -115.202169, 36.154849499800001 ], [ -115.2021717, 36.154849499800001 ], [ -115.2021717, 36.154852199799997 ], [ -115.202169, 36.154852199799997 ], [ -115.202169, 36.154865699799998 ], [ -115.2021663, 36.154865699799998 ], [ -115.2021663, 36.154871099799998 ], [ -115.2021555, 36.154871099799998 ], [ -115.2021555, 36.154873799800001 ], [ -115.2021501, 36.154873799800001 ], [ -115.2021501, 36.154876499799997 ], [ -115.2021582, 36.154876499799997 ], [ -115.2021582, 36.1548791998 ], [ -115.2021609, 36.1548791998 ], [ -115.2021609, 36.154881899800003 ], [ -115.2021636, 36.154881899800003 ], [ -115.2021636, 36.154892699800001 ], [ -115.2021663, 36.154892699800001 ], [ -115.2021663, 36.1548980998 ], [ -115.2021636, 36.1548980998 ], [ -115.2021636, 36.1549034998 ], [ -115.2021609, 36.1549034998 ], [ -115.2021609, 36.154906199800003 ], [ -115.2021555, 36.154906199800003 ], [ -115.2021555, 36.154930499800003 ], [ -115.2021582, 36.154930499800003 ], [ -115.2021582, 36.154933199799999 ], [ -115.2021555, 36.154933199799999 ], [ -115.2021555, 36.154987199799997 ], [ -115.2021582, 36.154987199799997 ], [ -115.2021582, 36.1549898998 ], [ -115.2021555, 36.1549898998 ], [ -115.2021555, 36.154995299799999 ], [ -115.2021393, 36.154995299799999 ], [ -115.2021393, 36.154997999800003 ] ] ] } },
{ "type": "Feature", "properties": { "value": 255.0 }, "geometry": { "type": "Polygon", "coordinates": [ [ [ -115.2011754, 36.154916999800001 ], [ -115.2011511, 36.154916999800001 ], [ -115.2011511, 36.154914299799998 ], [ -115.2011268, 36.154914299799998 ], [ -115.2011268, 36.154911599800002 ], [ -115.2011241, 36.154911599800002 ], [ -115.2011241, 36.154908899799999 ], [ -115.2011214, 36.154908899799999 ], [ -115.2011214, 36.154881899800003 ], [ -115.2011187, 36.154881899800003 ], [ -115.2011187, 36.1548791998 ], [ -115.201116, 36.1548791998 ], [ -115.201116, 36.154876499799997 ], [ -115.2011052, 36.154876499799997 ], [ -115.2011052, 36.1548791998 ], [ -115.2010971, 36.1548791998 ], [ -115.2010971, 36.154876499799997 ], [ -115.2010944, 36.154876499799997 ], [ -115.2010944, 36.154873799800001 ], [ -115.2010917, 36.154873799800001 ], [ -115.2010917, 36.154868399800002 ], [ -115.201089, 36.154868399800002 ], [ -115.201089, 36.154857599800003 ], [ -115.2010863, 36.154857599800003 ], [ -115.2010863, 36.154852199799997 ], [ -115.201089, 36.154852199799997 ], [ -115.201089, 36.154846799799998 ], [ -115.2010917, 36.154846799799998 ], [ -115.2010917, 36.154844099800002 ], [ -115.2010944, 36.154844099800002 ], [ -115.2010944, 36.154841399799999 ], [ -115.2010971, 36.154841399799999 ], [ -115.2010971, 36.154838699800003 ], [ -115.2010998, 36.154838699800003 ], [ -115.2010998, 36.1548359998 ], [ -115.2011025, 36.1548359998 ], [ -115.2011025, 36.154838699800003 ], [ -115.201113299999989, 36.154838699800003 ], [ -115.201113299999989, 36.1548359998 ], [ -115.201116, 36.1548359998 ], [ -115.201116, 36.154833299800003 ], [ -115.2011187, 36.154833299800003 ], [ -115.2011187, 36.1548116998 ], [ -115.201116, 36.1548116998 ], [ -115.201116, 36.154808999800004 ], [ -115.2011079, 36.154808999800004 ], [ -115.2011079, 36.154806299800001 ], [ -115.2011025, 36.154806299800001 ], [ -115.2011025, 36.154803599799997 ], [ -115.2010998, 36.154803599799997 ], [ -115.2010998, 36.154792799799999 ], [ -115.2010971, 36.154792799799999 ], [ -115.2010971, 36.154784699800004 ], [ -115.2010998, 36.154784699800004 ], [ -115.2010998, 36.154781999800001 ], [ -115.2011052, 36.154781999800001 ], [ -115.2011052, 36.154779299799998 ], [ -115.201116, 36.154779299799998 ], [ -115.201116, 36.154771199800003 ], [ -115.2011106, 36.154771199800003 ], [ -115.2011106, 36.154765799800003 ], [ -115.201113299999989, 36.154765799800003 ], [ -115.201113299999989, 36.1547630998 ], [ -115.2011187, 36.1547630998 ], [ -115.2011187, 36.154760399799997 ], [ -115.2011214, 36.154760399799997 ], [ -115.2011214, 36.154746899800003 ], [ -115.2011241, 36.154746899800003 ], [ -115.2011241, 36.1547387998 ], [ -115.2011214, 36.1547387998 ], [ -115.2011214, 36.154736099799997 ], [ -115.2011241, 36.154736099799997 ], [ -115.2011241, 36.154698299800003 ], [ -115.2011214, 36.154698299800003 ], [ -115.2011214, 36.1546712998 ], [ -115.2011187, 36.1546712998 ], [ -115.2011187, 36.154641599800001 ], [ -115.2011214, 36.154641599800001 ], [ -115.2011214, 36.154638899799998 ], [ -115.2011187, 36.154638899799998 ], [ -115.2011187, 36.154633499799999 ], [ -115.201116, 36.154633499799999 ], [ -115.201116, 36.1546280998 ], [ -115.2011187, 36.1546280998 ], [ -115.2011187, 36.154625399800004 ], [ -115.201113299999989, 36.154625399800004 ], [ -115.201113299999989, 36.154622699800001 ], [ -115.2012942, 36.154622699800001 ], [ -115.2012942, 36.1546280998 ], [ -115.2012969, 36.1546280998 ], [ -115.2012969, 36.154717199800004 ], [ -115.2012942, 36.154717199800004 ], [ -115.2012942, 36.154722599800003 ], [ -115.2012915, 36.154722599800003 ], [ -115.2012915, 36.154725299799999 ], [ -115.2012888, 36.154725299799999 ], [ -115.2012888, 36.154727999800002 ], [ -115.2012861, 36.154727999800002 ], [ -115.2012861, 36.154730699799998 ], [ -115.2012618, 36.154730699799998 ], [ -115.2012618, 36.154733399800001 ], [ -115.201251, 36.154733399800001 ], [ -115.201251, 36.154736099799997 ], [ -115.2012375, 36.154736099799997 ], [ -115.2012375, 36.1547387998 ], [ -115.2012294, 36.1547387998 ], [ -115.2012294, 36.154741499800004 ], [ -115.2012267, 36.154741499800004 ], [ -115.2012267, 36.1547441998 ], [ -115.201224, 36.1547441998 ], [ -115.201224, 36.154754999799998 ], [ -115.2012267, 36.154754999799998 ], [ -115.2012267, 36.154757699800001 ], [ -115.2012294, 36.154757699800001 ], [ -115.2012294, 36.1547630998 ], [ -115.2012888, 36.1547630998 ], [ -115.2012888, 36.154765799800003 ], [ -115.2012915, 36.154765799800003 ], [ -115.2012915, 36.154771199800003 ], [ -115.2012942, 36.154771199800003 ], [ -115.2012942, 36.154790099800003 ], [ -115.2012915, 36.154790099800003 ], [ -115.2012915, 36.154798199799998 ], [ -115.2012888, 36.154798199799998 ], [ -115.2012888, 36.154800899800001 ], [ -115.2012861, 36.154800899800001 ], [ -115.2012861, 36.154803599799997 ], [ -115.2012834, 36.154803599799997 ], [ -115.2012834, 36.1548116998 ], [ -115.2012807, 36.1548116998 ], [ -115.2012807, 36.154817099799999 ], [ -115.2012834, 36.154817099799999 ], [ -115.2012834, 36.154822499799998 ], [ -115.2012861, 36.154822499799998 ], [ -115.2012861, 36.154825199800001 ], [ -115.2012942, 36.154825199800001 ], [ -115.2012942, 36.154827899799997 ], [ -115.2012969, 36.154827899799997 ], [ -115.2012969, 36.154841399799999 ], [ -115.2012942, 36.154841399799999 ], [ -115.2012942, 36.154857599800003 ], [ -115.2012915, 36.154857599800003 ], [ -115.2012915, 36.154862999800002 ], [ -115.2012888, 36.154862999800002 ], [ -115.2012888, 36.154865699799998 ], [ -115.2012861, 36.154865699799998 ], [ -115.2012861, 36.154868399800002 ], [ -115.2012807, 36.154868399800002 ], [ -115.2012807, 36.154871099799998 ], [ -115.2012753, 36.154871099799998 ], [ -115.2012753, 36.154876499799997 ], [ -115.2012699, 36.154876499799997 ], [ -115.2012699, 36.1548791998 ], [ -115.2012618, 36.1548791998 ], [ -115.2012618, 36.154884599799999 ], [ -115.2012645, 36.154884599799999 ], [ -115.2012645, 36.154895399799997 ], [ -115.2012672, 36.154895399799997 ], [ -115.2012672, 36.1549034998 ], [ -115.2012645, 36.1549034998 ], [ -115.2012645, 36.154906199800003 ], [ -115.2012618, 36.154906199800003 ], [ -115.2012618, 36.154908899799999 ], [ -115.2012591, 36.154908899799999 ], [ -115.2012591, 36.154911599800002 ], [ -115.2012051, 36.154911599800002 ], [ -115.2012051, 36.154914299799998 ], [ -115.2011754, 36.154914299799998 ], [ -115.2011754, 36.154916999800001 ] ], [ [ -115.2011079, 36.154844099800002 ], [ -115.2011079, 36.154841399799999 ], [ -115.2011052, 36.154841399799999 ], [ -115.2011052, 36.154844099800002 ], [ -115.2011079, 36.154844099800002 ] ] ] } },
{ "type": "Feature", "properties": { "value": 255.0 }, "geometry": { "type": "Polygon", "coordinates": [ [ [ -115.2006165, 36.154752299800002 ], [ -115.2006057, 36.154752299800002 ], [ -115.2006057, 36.154749599799999 ], [ -115.2005652, 36.154749599799999 ], [ -115.2005652, 36.154746899800003 ], [ -115.2005625, 36.154746899800003 ], [ -115.2005625, 36.1547441998 ], [ -115.2005598, 36.1547441998 ], [ -115.2005598, 36.154741499800004 ], [ -115.2005544, 36.154741499800004 ], [ -115.2005544, 36.1547387998 ], [ -115.2005301, 36.1547387998 ], [ -115.2005301, 36.154736099799997 ], [ -115.200524699999988, 36.154736099799997 ], [ -115.200524699999988, 36.154733399800001 ], [ -115.200522, 36.154733399800001 ], [ -115.200522, 36.1547198998 ], [ -115.200524699999988, 36.1547198998 ], [ -115.200524699999988, 36.154711799799998 ], [ -115.2005274, 36.154711799799998 ], [ -115.2005274, 36.154706399799998 ], [ -115.2005301, 36.154706399799998 ], [ -115.2005301, 36.154700999799999 ], [ -115.200543599999989, 36.154700999799999 ], [ -115.200543599999989, 36.1546955998 ], [ -115.2005463, 36.1546955998 ], [ -115.2005463, 36.154692899800004 ], [ -115.200549, 36.154692899800004 ], [ -115.200549, 36.154698299800003 ], [ -115.2005517, 36.154698299800003 ], [ -115.2005517, 36.1546955998 ], [ -115.2005544, 36.1546955998 ], [ -115.2005544, 36.154673999800004 ], [ -115.2005571, 36.154673999800004 ], [ -115.2005571, 36.154665899800001 ], [ -115.2005544, 36.154665899800001 ], [ -115.2005544, 36.154644299799997 ], [ -115.2005571, 36.154644299799997 ], [ -115.2005571, 36.154636199800002 ], [ -115.2005544, 36.154636199800002 ], [ -115.2005544, 36.154633499799999 ], [ -115.2005598, 36.154633499799999 ], [ -115.2005598, 36.154630799800003 ], [ -115.2006003, 36.154630799800003 ], [ -115.2006003, 36.1546280998 ], [ -115.200603, 36.1546280998 ], [ -115.200603, 36.154625399800004 ], [ -115.2006084, 36.154625399800004 ], [ -115.2006084, 36.154622699800001 ], [ -115.2006246, 36.154622699800001 ], [ -115.2006246, 36.154625399800004 ], [ -115.2006273, 36.154625399800004 ], [ -115.2006273, 36.1546280998 ], [ -115.2006327, 36.1546280998 ], [ -115.2006327, 36.154622699800001 ], [ -115.2007353, 36.154622699800001 ], [ -115.2007353, 36.1546712998 ], [ -115.200738, 36.1546712998 ], [ -115.200738, 36.1546955998 ], [ -115.2007353, 36.1546955998 ], [ -115.2007353, 36.154717199800004 ], [ -115.2007326, 36.154717199800004 ], [ -115.2007326, 36.154722599800003 ], [ -115.2007299, 36.154722599800003 ], [ -115.2007299, 36.154727999800002 ], [ -115.2006975, 36.154727999800002 ], [ -115.2006975, 36.154730699799998 ], [ -115.2006678, 36.154730699799998 ], [ -115.2006678, 36.154733399800001 ], [ -115.200657, 36.154733399800001 ], [ -115.200657, 36.154736099799997 ], [ -115.2006543, 36.154736099799997 ], [ -115.2006543, 36.1547387998 ], [ -115.2006489, 36.1547387998 ], [ -115.2006489, 36.154741499800004 ], [ -115.2006462, 36.154741499800004 ], [ -115.2006462, 36.1547441998 ], [ -115.200640799999988, 36.1547441998 ], [ -115.200640799999988, 36.154746899800003 ], [ -115.2006381, 36.154746899800003 ], [ -115.2006381, 36.154749599799999 ], [ -115.2006165, 36.154749599799999 ], [ -115.2006165, 36.154752299800002 ] ] ] } },
{ "type": "Feature", "properties": { "value": 255.0 }, "geometry": { "type": "Polygon", "coordinates": [ [ [ -115.201764, 36.154781999800001 ], [ -115.2017235, 36.154781999800001 ], [ -115.2017235, 36.154779299799998 ], [ -115.2016884, 36.154779299799998 ], [ -115.2016884, 36.154730699799998 ], [ -115.2016857, 36.154730699799998 ], [ -115.2016857, 36.154727999800002 ], [ -115.2016884, 36.154727999800002 ], [ -115.2016884, 36.154714499800001 ], [ -115.2016857, 36.154714499800001 ], [ -115.2016857, 36.154698299800003 ], [ -115.201683, 36.154698299800003 ], [ -115.201683, 36.154687499799998 ], [ -115.2016803, 36.154687499799998 ], [ -115.2016803, 36.1546712998 ], [ -115.2016776, 36.1546712998 ], [ -115.2016776, 36.154660499800002 ], [ -115.2016803, 36.154660499800002 ], [ -115.2016803, 36.154655099800003 ], [ -115.2016776, 36.154655099800003 ], [ -115.2016776, 36.1546523998 ], [ -115.2016803, 36.1546523998 ], [ -115.2016803, 36.154644299799997 ], [ -115.2016776, 36.154644299799997 ], [ -115.2016776, 36.154630799800003 ], [ -115.201683, 36.154630799800003 ], [ -115.201683, 36.1546280998 ], [ -115.2016857, 36.1546280998 ], [ -115.2016857, 36.154622699800001 ], [ -115.2018612, 36.154622699800001 ], [ -115.2018612, 36.154625399800004 ], [ -115.2018639, 36.154625399800004 ], [ -115.2018639, 36.1546280998 ], [ -115.2018666, 36.1546280998 ], [ -115.2018666, 36.154665899800001 ], [ -115.2018639, 36.154665899800001 ], [ -115.2018639, 36.1546712998 ], [ -115.2018504, 36.1546712998 ], [ -115.2018504, 36.154673999800004 ], [ -115.2018477, 36.154673999800004 ], [ -115.2018477, 36.1546766998 ], [ -115.201845, 36.1546766998 ], [ -115.201845, 36.154684799800002 ], [ -115.2018477, 36.154684799800002 ], [ -115.2018477, 36.154687499799998 ], [ -115.2018585, 36.154687499799998 ], [ -115.2018585, 36.154690199800001 ], [ -115.2018612, 36.154690199800001 ], [ -115.2018612, 36.1546955998 ], [ -115.2018639, 36.1546955998 ], [ -115.2018639, 36.154727999800002 ], [ -115.2018612, 36.154727999800002 ], [ -115.2018612, 36.154733399800001 ], [ -115.2018585, 36.154733399800001 ], [ -115.2018585, 36.154736099799997 ], [ -115.2018558, 36.154736099799997 ], [ -115.2018558, 36.1547387998 ], [ -115.2018531, 36.1547387998 ], [ -115.2018531, 36.154736099799997 ], [ -115.2018504, 36.154736099799997 ], [ -115.2018504, 36.1547387998 ], [ -115.2018477, 36.1547387998 ], [ -115.2018477, 36.154741499800004 ], [ -115.201845, 36.154741499800004 ], [ -115.201845, 36.154746899800003 ], [ -115.2018423, 36.154746899800003 ], [ -115.2018423, 36.1547630998 ], [ -115.2018396, 36.1547630998 ], [ -115.2018396, 36.154776599800002 ], [ -115.2018369, 36.154776599800002 ], [ -115.2018369, 36.154779299799998 ], [ -115.201764, 36.154779299799998 ], [ -115.201764, 36.154781999800001 ] ] ] } },
{ "type": "Feature", "properties": { "value": 255.0 }, "geometry": { "type": "Polygon", "coordinates": [ [ [ -115.2010134, 36.154916999800001 ], [ -115.2009891, 36.154916999800001 ], [ -115.2009891, 36.154914299799998 ], [ -115.2009594, 36.154914299799998 ], [ -115.2009594, 36.154911599800002 ], [ -115.2009405, 36.154911599800002 ], [ -115.2009405, 36.154914299799998 ], [ -115.200910799999988, 36.154914299799998 ], [ -115.200910799999988, 36.154911599800002 ], [ -115.2008919, 36.154911599800002 ], [ -115.2008919, 36.154908899799999 ], [ -115.2008892, 36.154908899799999 ], [ -115.2008892, 36.154906199800003 ], [ -115.2008784, 36.154906199800003 ], [ -115.2008784, 36.1549034998 ], [ -115.200873, 36.1549034998 ], [ -115.200873, 36.154887299800002 ], [ -115.2008703, 36.154887299800002 ], [ -115.2008703, 36.154881899800003 ], [ -115.2008676, 36.154881899800003 ], [ -115.2008676, 36.1548791998 ], [ -115.2008649, 36.1548791998 ], [ -115.2008649, 36.154876499799997 ], [ -115.2008568, 36.154876499799997 ], [ -115.2008568, 36.154873799800001 ], [ -115.2008514, 36.154873799800001 ], [ -115.2008514, 36.154871099799998 ], [ -115.200843299999988, 36.154871099799998 ], [ -115.200843299999988, 36.154868399800002 ], [ -115.2008379, 36.154868399800002 ], [ -115.2008379, 36.154865699799998 ], [ -115.2008352, 36.154865699799998 ], [ -115.2008352, 36.154871099799998 ], [ -115.2008271, 36.154871099799998 ], [ -115.2008271, 36.154865699799998 ], [ -115.2008244, 36.154865699799998 ], [ -115.2008244, 36.1548548998 ], [ -115.2008271, 36.1548548998 ], [ -115.2008271, 36.154841399799999 ], [ -115.2008298, 36.154841399799999 ], [ -115.2008298, 36.154833299800003 ], [ -115.2008325, 36.154833299800003 ], [ -115.2008325, 36.154825199800001 ], [ -115.2008352, 36.154825199800001 ], [ -115.2008352, 36.154822499799998 ], [ -115.2008379, 36.154822499799998 ], [ -115.2008379, 36.154760399799997 ], [ -115.200843299999988, 36.154760399799997 ], [ -115.200843299999988, 36.154757699800001 ], [ -115.2008595, 36.154757699800001 ], [ -115.2008595, 36.154760399799997 ], [ -115.200873, 36.154760399799997 ], [ -115.200873, 36.154757699800001 ], [ -115.2009081, 36.154757699800001 ], [ -115.2009081, 36.154754999799998 ], [ -115.2009135, 36.154754999799998 ], [ -115.2009135, 36.154752299800002 ], [ -115.2009162, 36.154752299800002 ], [ -115.2009162, 36.154749599799999 ], [ -115.2009189, 36.154749599799999 ], [ -115.2009189, 36.1547441998 ], [ -115.2009216, 36.1547441998 ], [ -115.2009216, 36.1547387998 ], [ -115.2009189, 36.1547387998 ], [ -115.2009189, 36.154736099799997 ], [ -115.2009162, 36.154736099799997 ], [ -115.2009162, 36.154733399800001 ], [ -115.2009081, 36.154733399800001 ], [ -115.2009081, 36.154730699799998 ], [ -115.2008649, 36.154730699799998 ], [ -115.2008649, 36.154727999800002 ], [ -115.2008568, 36.154727999800002 ], [ -115.2008568, 36.154725299799999 ], [ -115.2008487, 36.154725299799999 ], [ -115.2008487, 36.154722599800003 ], [ -115.200843299999988, 36.154722599800003 ], [ -115.200843299999988, 36.1547198998 ], [ -115.2008406, 36.1547198998 ], [ -115.2008406, 36.154717199800004 ], [ -115.2008379, 36.154717199800004 ], [ -115.2008379, 36.154709099800002 ], [ -115.2008352, 36.154709099800002 ], [ -115.2008352, 36.154703699800002 ], [ -115.2008325, 36.154703699800002 ], [ -115.2008325, 36.1546955998 ], [ -115.2008298, 36.1546955998 ], [ -115.2008298, 36.154690199800001 ], [ -115.2008271, 36.154690199800001 ], [ -115.2008271, 36.154684799800002 ], [ -115.2008244, 36.154684799800002 ], [ -115.2008244, 36.154682099799999 ], [ -115.2008271, 36.154682099799999 ], [ -115.2008271, 36.154673999800004 ], [ -115.2008325, 36.154673999800004 ], [ -115.2008325, 36.1546712998 ], [ -115.2008352, 36.1546712998 ], [ -115.2008352, 36.154673999800004 ], [ -115.2008379, 36.154673999800004 ], [ -115.2008379, 36.1546712998 ], [ -115.2008406, 36.1546712998 ], [ -115.2008406, 36.154657799799999 ], [ -115.200843299999988, 36.154657799799999 ], [ -115.200843299999988, 36.154622699800001 ], [ -115.2010215, 36.154622699800001 ], [ -115.2010215, 36.154646999800001 ], [ -115.2010242, 36.154646999800001 ], [ -115.2010242, 36.1546523998 ], [ -115.2010215, 36.1546523998 ], [ -115.2010215, 36.154673999800004 ], [ -115.2010242, 36.154673999800004 ], [ -115.2010242, 36.154679399800003 ], [ -115.2010269, 36.154679399800003 ], [ -115.2010269, 36.154684799800002 ], [ -115.2010296, 36.154684799800002 ], [ -115.2010296, 36.1546955998 ], [ -115.2010269, 36.1546955998 ], [ -115.2010269, 36.154773899799999 ], [ -115.2010242, 36.154773899799999 ], [ -115.2010242, 36.154779299799998 ], [ -115.2010269, 36.154779299799998 ], [ -115.2010269, 36.154792799799999 ], [ -115.2010242, 36.154792799799999 ], [ -115.2010242, 36.154800899800001 ], [ -115.2010269, 36.154800899800001 ], [ -115.2010269, 36.154817099799999 ], [ -115.2010242, 36.154817099799999 ], [ -115.2010242, 36.154822499799998 ], [ -115.2010215, 36.154822499799998 ], [ -115.2010215, 36.154825199800001 ], [ -115.2010188, 36.154825199800001 ], [ -115.2010188, 36.154827899799997 ], [ -115.201008, 36.154827899799997 ], [ -115.201008, 36.1548305998 ], [ -115.2010026, 36.1548305998 ], [ -115.2010026, 36.154833299800003 ], [ -115.2009999, 36.154833299800003 ], [ -115.2009999, 36.154841399799999 ], [ -115.2010026, 36.154841399799999 ], [ -115.2010026, 36.154844099800002 ], [ -115.201008, 36.154844099800002 ], [ -115.201008, 36.154846799799998 ], [ -115.2010188, 36.154846799799998 ], [ -115.2010188, 36.154849499800001 ], [ -115.2010215, 36.154849499800001 ], [ -115.2010215, 36.154852199799997 ], [ -115.2010242, 36.154852199799997 ], [ -115.2010242, 36.154871099799998 ], [ -115.2010269, 36.154871099799998 ], [ -115.2010269, 36.154884599799999 ], [ -115.2010242, 36.154884599799999 ], [ -115.2010242, 36.154900799800004 ], [ -115.2010269, 36.154900799800004 ], [ -115.2010269, 36.1549034998 ], [ -115.2010242, 36.1549034998 ], [ -115.2010242, 36.154911599800002 ], [ -115.2010215, 36.154911599800002 ], [ -115.2010215, 36.154914299799998 ], [ -115.2010134, 36.154914299799998 ], [ -115.2010134, 36.154916999800001 ] ] ] } },
{ "type": "Feature", "properties": { "value": 255.0 }, "geometry": { "type": "Polygon", "coordinates": [ [ [ -115.2015669, 36.154781999800001 ], [ -115.2015453, 36.154781999800001 ], [ -115.2015453, 36.154779299799998 ], [ -115.2014724, 36.154779299799998 ], [ -115.2014724, 36.154776599800002 ], [ -115.2014616, 36.154776599800002 ], [ -115.2014616, 36.154771199800003 ], [ -115.2014589, 36.154771199800003 ], [ -115.2014589, 36.154760399799997 ], [ -115.2014562, 36.154760399799997 ], [ -115.2014562, 36.154749599799999 ], [ -115.2014535, 36.154749599799999 ], [ -115.2014535, 36.1547387998 ], [ -115.201450799999989, 36.1547387998 ], [ -115.201450799999989, 36.154733399800001 ], [ -115.2014481, 36.154733399800001 ], [ -115.2014481, 36.154711799799998 ], [ -115.2014454, 36.154711799799998 ], [ -115.2014454, 36.154684799800002 ], [ -115.2014427, 36.154684799800002 ], [ -115.2014427, 36.154679399800003 ], [ -115.20144, 36.154679399800003 ], [ -115.20144, 36.154622699800001 ], [ -115.2015912, 36.154622699800001 ], [ -115.2015912, 36.1546280998 ], [ -115.2015885, 36.1546280998 ], [ -115.2015885, 36.154630799800003 ], [ -115.2015912, 36.154630799800003 ], [ -115.2015912, 36.154636199800002 ], [ -115.2015885, 36.154636199800002 ], [ -115.2015885, 36.154641599800001 ], [ -115.2015912, 36.154641599800001 ], [ -115.2015912, 36.154660499800002 ], [ -115.2015939, 36.154660499800002 ], [ -115.2015939, 36.154668599799997 ], [ -115.2015966, 36.154668599799997 ], [ -115.2015966, 36.154673999800004 ], [ -115.2015993, 36.154673999800004 ], [ -115.2015993, 36.154711799799998 ], [ -115.201602, 36.154711799799998 ], [ -115.201602, 36.154730699799998 ], [ -115.2016047, 36.154730699799998 ], [ -115.2016047, 36.1547387998 ], [ -115.201602, 36.1547387998 ], [ -115.201602, 36.154776599800002 ], [ -115.2015993, 36.154776599800002 ], [ -115.2015993, 36.154779299799998 ], [ -115.2015669, 36.154779299799998 ], [ -115.2015669, 36.154781999800001 ] ] ] } },
{ "type": "Feature", "properties": { "value": 255.0 }, "geometry": { "type": "Polygon", "coordinates": [ [ [ -115.2021501, 36.154784699800004 ], [ -115.2021258, 36.154784699800004 ], [ -115.2021258, 36.154781999800001 ], [ -115.2020691, 36.154781999800001 ], [ -115.2020691, 36.154779299799998 ], [ -115.2020394, 36.154779299799998 ], [ -115.2020394, 36.154781999800001 ], [ -115.2020313, 36.154781999800001 ], [ -115.2020313, 36.154779299799998 ], [ -115.2020205, 36.154779299799998 ], [ -115.2020205, 36.154776599800002 ], [ -115.2020178, 36.154776599800002 ], [ -115.2020178, 36.154768499799999 ], [ -115.2020151, 36.154768499799999 ], [ -115.2020151, 36.154760399799997 ], [ -115.2020097, 36.154760399799997 ], [ -115.2020097, 36.154749599799999 ], [ -115.2019962, 36.154749599799999 ], [ -115.2019962, 36.154746899800003 ], [ -115.2019908, 36.154746899800003 ], [ -115.2019908, 36.1547441998 ], [ -115.2019881, 36.1547441998 ], [ -115.2019881, 36.154741499800004 ], [ -115.2019854, 36.154741499800004 ], [ -115.2019854, 36.154717199800004 ], [ -115.2019881, 36.154717199800004 ], [ -115.2019881, 36.154709099800002 ], [ -115.2019854, 36.154709099800002 ], [ -115.2019854, 36.154700999799999 ], [ -115.2019881, 36.154700999799999 ], [ -115.2019881, 36.154687499799998 ], [ -115.2019908, 36.154687499799998 ], [ -115.2019908, 36.154684799800002 ], [ -115.2019935, 36.154684799800002 ], [ -115.2019935, 36.154687499799998 ], [ -115.2019989, 36.154687499799998 ], [ -115.2019989, 36.154684799800002 ], [ -115.2020016, 36.154684799800002 ], [ -115.2020016, 36.154682099799999 ], [ -115.2019989, 36.154682099799999 ], [ -115.2019989, 36.154679399800003 ], [ -115.2019962, 36.154679399800003 ], [ -115.2019962, 36.1546766998 ], [ -115.2019935, 36.1546766998 ], [ -115.2019935, 36.154673999800004 ], [ -115.2019908, 36.154673999800004 ], [ -115.2019908, 36.1546712998 ], [ -115.2019881, 36.1546712998 ], [ -115.2019881, 36.154668599799997 ], [ -115.2019854, 36.154668599799997 ], [ -115.2019854, 36.154660499800002 ], [ -115.2019881, 36.154660499800002 ], [ -115.2019881, 36.154649699800004 ], [ -115.2019908, 36.154649699800004 ], [ -115.2019908, 36.154644299799997 ], [ -115.2019935, 36.154644299799997 ], [ -115.2019935, 36.154630799800003 ], [ -115.2019962, 36.154630799800003 ], [ -115.2019962, 36.154622699800001 ], [ -115.2021582, 36.154622699800001 ], [ -115.2021582, 36.154625399800004 ], [ -115.2021555, 36.154625399800004 ], [ -115.2021555, 36.1546280998 ], [ -115.2021582, 36.1546280998 ], [ -115.2021582, 36.154630799800003 ], [ -115.2021609, 36.154630799800003 ], [ -115.2021609, 36.154633499799999 ], [ -115.2021636, 36.154633499799999 ], [ -115.2021636, 36.154636199800002 ], [ -115.2021663, 36.154636199800002 ], [ -115.2021663, 36.154682099799999 ], [ -115.2021636, 36.154682099799999 ], [ -115.2021636, 36.154690199800001 ], [ -115.2021609, 36.154690199800001 ], [ -115.2021609, 36.154698299800003 ], [ -115.2021582, 36.154698299800003 ], [ -115.2021582, 36.154706399799998 ], [ -115.2021609, 36.154706399799998 ], [ -115.2021609, 36.154711799799998 ], [ -115.2021636, 36.154711799799998 ], [ -115.2021636, 36.154714499800001 ], [ -115.2021663, 36.154714499800001 ], [ -115.2021663, 36.154717199800004 ], [ -115.202169, 36.154717199800004 ], [ -115.202169, 36.1547198998 ], [ -115.2021717, 36.1547198998 ], [ -115.2021717, 36.154733399800001 ], [ -115.2021771, 36.154733399800001 ], [ -115.2021771, 36.154736099799997 ], [ -115.2021852, 36.154736099799997 ], [ -115.2021852, 36.1547387998 ], [ -115.2021933, 36.1547387998 ], [ -115.2021933, 36.154773899799999 ], [ -115.202169, 36.154773899799999 ], [ -115.202169, 36.154779299799998 ], [ -115.2021663, 36.154779299799998 ], [ -115.2021663, 36.154781999800001 ], [ -115.2021501, 36.154781999800001 ], [ -115.2021501, 36.154784699800004 ] ] ] } }
]
}
