{
"type": "FeatureCollection",
"crs": { "type": "name", "properties": { "name": "urn:ogc:def:crs:OGC:1.3:CRS84" } },
"features": [
{ "type": "Feature", "properties": { "value": 255.0 }, "geometry": { "type": "Polygon", "coordinates": [ [ [ -115.2403686, 36.196523999900002 ], [ -115.2402795, 36.196523999900002 ], [ -115.2402795, 36.196521299899999 ], [ -115.2402201, 36.196521299899999 ], [ -115.2402201, 36.196523999900002 ], [ -115.2401958, 36.196523999900002 ], [ -115.2401958, 36.196521299899999 ], [ -115.2401553, 36.196521299899999 ], [ -115.2401553, 36.196518599900003 ], [ -115.2401526, 36.196518599900003 ], [ -115.2401526, 36.1965158999 ], [ -115.2401445, 36.1965158999 ], [ -115.2401445, 36.196513199899996 ], [ -115.2401418, 36.196513199899996 ], [ -115.2401418, 36.196505099900001 ], [ -115.2401391, 36.196505099900001 ], [ -115.2401391, 36.196486199900001 ], [ -115.2401418, 36.196486199900001 ], [ -115.2401418, 36.196478099899998 ], [ -115.2401445, 36.196478099899998 ], [ -115.2401445, 36.196469999899996 ], [ -115.2401472, 36.196469999899996 ], [ -115.2401472, 36.196434899899998 ], [ -115.2401445, 36.196434899899998 ], [ -115.2401445, 36.1964240999 ], [ -115.2401418, 36.1964240999 ], [ -115.2401418, 36.196405199899999 ], [ -115.2401445, 36.196405199899999 ], [ -115.2401445, 36.1963997999 ], [ -115.2401472, 36.1963997999 ], [ -115.2401472, 36.196386299899999 ], [ -115.2401499, 36.196386299899999 ], [ -115.2401499, 36.196305299899997 ], [ -115.2401526, 36.196305299899997 ], [ -115.2401526, 36.196299899899998 ], [ -115.240158, 36.196299899899998 ], [ -115.240158, 36.196297199900002 ], [ -115.2401607, 36.196297199900002 ], [ -115.2401607, 36.196299899899998 ], [ -115.2401634, 36.196299899899998 ], [ -115.2401634, 36.196297199900002 ], [ -115.2401769, 36.196297199900002 ], [ -115.2401769, 36.196299899899998 ], [ -115.2401823, 36.196299899899998 ], [ -115.2401823, 36.196297199900002 ], [ -115.2401877, 36.196297199900002 ], [ -115.2401877, 36.196294499899999 ], [ -115.2401904, 36.196294499899999 ], [ -115.2401904, 36.196291799899996 ], [ -115.2402066, 36.196291799899996 ], [ -115.2402066, 36.196294499899999 ], [ -115.2402093, 36.196294499899999 ], [ -115.2402093, 36.196297199900002 ], [ -115.240212, 36.196297199900002 ], [ -115.240212, 36.196299899899998 ], [ -115.2402174, 36.196299899899998 ], [ -115.2402174, 36.196302599900001 ], [ -115.2402228, 36.196302599900001 ], [ -115.2402228, 36.196305299899997 ], [ -115.2402363, 36.196305299899997 ], [ -115.2402363, 36.1963079999 ], [ -115.2402525, 36.1963079999 ], [ -115.2402525, 36.196305299899997 ], [ -115.2402687, 36.196305299899997 ], [ -115.2402687, 36.1963079999 ], [ -115.2403605, 36.1963079999 ], [ -115.2403605, 36.196310699899996 ], [ -115.2403686, 36.196310699899996 ], [ -115.2403686, 36.196313399899999 ], [ -115.2403713, 36.196313399899999 ], [ -115.2403713, 36.196361999899999 ], [ -115.2403686, 36.196361999899999 ], [ -115.2403686, 36.196370099900001 ], [ -115.2403713, 36.196370099900001 ], [ -115.2403713, 36.196378199899996 ], [ -115.240374, 36.196378199899996 ], [ -115.240374, 36.196388999900002 ], [ -115.2403713, 36.196388999900002 ], [ -115.2403713, 36.196391699899998 ], [ -115.2403686, 36.196391699899998 ], [ -115.2403686, 36.196394399900001 ], [ -115.2403578, 36.196394399900001 ], [ -115.2403578, 36.196397099899997 ], [ -115.2403551, 36.196397099899997 ], [ -115.2403551, 36.1963997999 ], [ -115.2403335, 36.1963997999 ], [ -115.2403335, 36.196402499899996 ], [ -115.2403281, 36.196402499899996 ], [ -115.2403281, 36.196413299900001 ], [ -115.2403254, 36.196413299900001 ], [ -115.2403254, 36.196415999899997 ], [ -115.2403281, 36.196415999899997 ], [ -115.2403281, 36.196418699900001 ], [ -115.2403308, 36.196418699900001 ], [ -115.2403308, 36.196421399899997 ], [ -115.2403335, 36.196421399899997 ], [ -115.2403335, 36.1964240999 ], [ -115.2403362, 36.1964240999 ], [ -115.2403362, 36.196426799899996 ], [ -115.2403389, 36.196426799899996 ], [ -115.2403389, 36.196429499899999 ], [ -115.2403416, 36.196429499899999 ], [ -115.2403416, 36.196432199900002 ], [ -115.2403443, 36.196432199900002 ], [ -115.2403443, 36.196434899899998 ], [ -115.240347, 36.196434899899998 ], [ -115.240347, 36.196437599900001 ], [ -115.2403497, 36.196437599900001 ], [ -115.2403497, 36.196440299899997 ], [ -115.2403551, 36.196440299899997 ], [ -115.2403551, 36.196445699899996 ], [ -115.2403578, 36.196445699899996 ], [ -115.2403578, 36.1964483999 ], [ -115.2403605, 36.1964483999 ], [ -115.2403605, 36.196453799899999 ], [ -115.2403632, 36.196453799899999 ], [ -115.2403632, 36.196475399900002 ], [ -115.2403659, 36.196475399900002 ], [ -115.2403659, 36.196488899899997 ], [ -115.2403686, 36.196488899899997 ], [ -115.2403686, 36.196523999900002 ] ] ] } },
{ "type": "Feature", "properties": { "value": 255.0 }, "geometry": { "type": "Polygon", "coordinates": [ [ [ -115.2408087, 36.1965158999 ], [ -115.2407142, 36.1965158999 ], [ -115.2407142, 36.196513199899996 ], [ -115.2407115, 36.196513199899996 ], [ -115.2407115, 36.1965104999 ], [ -115.2407088, 36.1965104999 ], [ -115.2407088, 36.196499699900002 ], [ -115.2407061, 36.196499699900002 ], [ -115.2407061, 36.196483499899998 ], [ -115.2407034, 36.196483499899998 ], [ -115.2407034, 36.1964672999 ], [ -115.2407007, 36.1964672999 ], [ -115.2407007, 36.196397099899997 ], [ -115.240698, 36.196397099899997 ], [ -115.240698, 36.196370099900001 ], [ -115.2407007, 36.196370099900001 ], [ -115.2407007, 36.196316099900002 ], [ -115.2407034, 36.196316099900002 ], [ -115.2407034, 36.196294499899999 ], [ -115.2407061, 36.196294499899999 ], [ -115.2407061, 36.196243199899996 ], [ -115.2407088, 36.196243199899996 ], [ -115.2407088, 36.1962404999 ], [ -115.2407115, 36.1962404999 ], [ -115.2407115, 36.196235099900001 ], [ -115.2407142, 36.196235099900001 ], [ -115.2407142, 36.196224299899995 ], [ -115.24071690000001, 36.196224299899995 ], [ -115.24071690000001, 36.196218899899996 ], [ -115.2407196, 36.196218899899996 ], [ -115.2407196, 36.1962161999 ], [ -115.2407223, 36.1962161999 ], [ -115.2407223, 36.196213499899997 ], [ -115.2407304, 36.196213499899997 ], [ -115.2407304, 36.196210799900001 ], [ -115.2407331, 36.196210799900001 ], [ -115.2407331, 36.196208099899998 ], [ -115.2407412, 36.196208099899998 ], [ -115.2407412, 36.196205399900002 ], [ -115.2407628, 36.196205399900002 ], [ -115.2407628, 36.196202699899999 ], [ -115.2408222, 36.196202699899999 ], [ -115.2408222, 36.196199999899996 ], [ -115.2408276, 36.196199999899996 ], [ -115.2408276, 36.196421399899997 ], [ -115.2408249, 36.196421399899997 ], [ -115.2408249, 36.196432199900002 ], [ -115.2408276, 36.196432199900002 ], [ -115.2408276, 36.196445699899996 ], [ -115.2408249, 36.196445699899996 ], [ -115.2408249, 36.1964483999 ], [ -115.2408276, 36.1964483999 ], [ -115.2408276, 36.196464599899997 ], [ -115.2408249, 36.196464599899997 ], [ -115.2408249, 36.1964672999 ], [ -115.2408222, 36.1964672999 ], [ -115.2408222, 36.196505099900001 ], [ -115.2408195, 36.196505099900001 ], [ -115.2408195, 36.1965104999 ], [ -115.2408168, 36.1965104999 ], [ -115.2408168, 36.196513199899996 ], [ -115.2408087, 36.196513199899996 ], [ -115.2408087, 36.1965158999 ] ] ] } },
{ "type": "Feature", "properties": { "value": 255.0 }, "geometry": { "type": "Polygon", "coordinates": [ [ [ -115.2405549, 36.1958057999 ], [ -115.2405522, 36.1958057999 ], [ -115.2405522, 36.195803099899997 ], [ -115.2404847, 36.195803099899997 ], [ -115.2404847, 36.195800399900001 ], [ -115.240482, 36.195800399900001 ], [ -115.240482, 36.195784199899997 ], [ -115.2404847, 36.195784199899997 ], [ -115.2404847, 36.195751799899995 ], [ -115.240482, 36.195751799899995 ], [ -115.240482, 36.195716699899997 ], [ -115.2404847, 36.195716699899997 ], [ -115.2404847, 36.195614099899998 ], [ -115.2404874, 36.195614099899998 ], [ -115.2404874, 36.195611399899995 ], [ -115.2405495, 36.195611399899995 ], [ -115.2405495, 36.195608699899999 ], [ -115.2405684, 36.195608699899999 ], [ -115.2405684, 36.195611399899995 ], [ -115.2405738, 36.195611399899995 ], [ -115.2405738, 36.195659999899995 ], [ -115.2405765, 36.195659999899995 ], [ -115.2405765, 36.195662699899998 ], [ -115.2405792, 36.195662699899998 ], [ -115.2405792, 36.195665399900001 ], [ -115.2405846, 36.195665399900001 ], [ -115.2405846, 36.195668099899997 ], [ -115.24059, 36.195668099899997 ], [ -115.24059, 36.195673499899996 ], [ -115.2405927, 36.195673499899996 ], [ -115.2405927, 36.195697799899996 ], [ -115.24059, 36.195697799899996 ], [ -115.24059, 36.195703199899995 ], [ -115.2405927, 36.195703199899995 ], [ -115.2405927, 36.195711299899997 ], [ -115.24059, 36.195711299899997 ], [ -115.24059, 36.195716699899997 ], [ -115.2405927, 36.195716699899997 ], [ -115.2405927, 36.195724799899999 ], [ -115.24059, 36.195724799899999 ], [ -115.24059, 36.195757199900001 ], [ -115.2405873, 36.195757199900001 ], [ -115.2405873, 36.195784199899997 ], [ -115.24059, 36.195784199899997 ], [ -115.24059, 36.195789599899996 ], [ -115.2405873, 36.195789599899996 ], [ -115.2405873, 36.195803099899997 ], [ -115.2405549, 36.195803099899997 ], [ -115.2405549, 36.1958057999 ] ] ] } },
{ "type": "Feature", "properties": { "value": 255.0 }, "geometry": { "type": "Polygon", "coordinates": [ [ [ -115.2407385, 36.195776099900002 ], [ -115.2407196, 36.195776099900002 ], [ -115.2407196, 36.195770699899995 ], [ -115.24071690000001, 36.195770699899995 ], [ -115.24071690000001, 36.195767999899999 ], [ -115.2407142, 36.195767999899999 ], [ -115.2407142, 36.1957625999 ], [ -115.2407115, 36.1957625999 ], [ -115.2407115, 36.195757199900001 ], [ -115.2407088, 36.195757199900001 ], [ -115.2407088, 36.195751799899995 ], [ -115.2407061, 36.195751799899995 ], [ -115.2407061, 36.195749099899999 ], [ -115.2407034, 36.195749099899999 ], [ -115.2407034, 36.1957436999 ], [ -115.2407007, 36.1957436999 ], [ -115.2407007, 36.195740999899996 ], [ -115.240698, 36.195740999899996 ], [ -115.240698, 36.195735599899997 ], [ -115.2406953, 36.195735599899997 ], [ -115.2406953, 36.195732899900001 ], [ -115.2406926, 36.195732899900001 ], [ -115.2406926, 36.195727499899995 ], [ -115.2406899, 36.195727499899995 ], [ -115.2406899, 36.195722099899996 ], [ -115.2406872, 36.195722099899996 ], [ -115.2406872, 36.195716699899997 ], [ -115.2406845, 36.195716699899997 ], [ -115.2406845, 36.195713999900001 ], [ -115.2406818, 36.195713999900001 ], [ -115.2406818, 36.195708599900001 ], [ -115.2406791, 36.195708599900001 ], [ -115.2406791, 36.195703199899995 ], [ -115.2406764, 36.195703199899995 ], [ -115.2406764, 36.195700499899999 ], [ -115.2406737, 36.195700499899999 ], [ -115.2406737, 36.1956950999 ], [ -115.240671, 36.1956950999 ], [ -115.240671, 36.195689699900001 ], [ -115.2406683, 36.195689699900001 ], [ -115.2406683, 36.195684299899995 ], [ -115.240671, 36.195684299899995 ], [ -115.240671, 36.195681599899999 ], [ -115.2406737, 36.195681599899999 ], [ -115.2406737, 36.195678899899995 ], [ -115.2406764, 36.195678899899995 ], [ -115.2406764, 36.195662699899998 ], [ -115.2406737, 36.195662699899998 ], [ -115.2406737, 36.195657299899999 ], [ -115.240671, 36.195657299899999 ], [ -115.240671, 36.1956518999 ], [ -115.2406683, 36.1956518999 ], [ -115.2406683, 36.1956464999 ], [ -115.2406656, 36.1956464999 ], [ -115.2406656, 36.195643799899997 ], [ -115.2406629, 36.195643799899997 ], [ -115.2406629, 36.195641099900001 ], [ -115.2406602, 36.195641099900001 ], [ -115.2406602, 36.195635699899995 ], [ -115.2406575, 36.195635699899995 ], [ -115.2406575, 36.195624899899997 ], [ -115.2406602, 36.195624899899997 ], [ -115.2406602, 36.195622199900001 ], [ -115.2406683, 36.195622199900001 ], [ -115.2406683, 36.195619499899998 ], [ -115.2406764, 36.195619499899998 ], [ -115.2406764, 36.195616799899994 ], [ -115.2406818, 36.195616799899994 ], [ -115.2406818, 36.195614099899998 ], [ -115.2406899, 36.195614099899998 ], [ -115.2406899, 36.195611399899995 ], [ -115.240698, 36.195611399899995 ], [ -115.240698, 36.195608699899999 ], [ -115.2407034, 36.195608699899999 ], [ -115.2407034, 36.195605999899996 ], [ -115.2407088, 36.195605999899996 ], [ -115.2407088, 36.1956032999 ], [ -115.24071690000001, 36.1956032999 ], [ -115.24071690000001, 36.195600599899997 ], [ -115.2407277, 36.195600599899997 ], [ -115.2407277, 36.1956032999 ], [ -115.2407304, 36.1956032999 ], [ -115.2407304, 36.195605999899996 ], [ -115.2407331, 36.195605999899996 ], [ -115.2407331, 36.195608699899999 ], [ -115.2407358, 36.195608699899999 ], [ -115.2407358, 36.195616799899994 ], [ -115.2407385, 36.195616799899994 ], [ -115.2407385, 36.195622199900001 ], [ -115.2407412, 36.195622199900001 ], [ -115.2407412, 36.1956275999 ], [ -115.2407439, 36.1956275999 ], [ -115.2407439, 36.195632999899999 ], [ -115.2407466, 36.195632999899999 ], [ -115.2407466, 36.195635699899995 ], [ -115.2407493, 36.195635699899995 ], [ -115.2407493, 36.195638399899998 ], [ -115.240752, 36.195638399899998 ], [ -115.240752, 36.195641099900001 ], [ -115.2407547, 36.195641099900001 ], [ -115.2407547, 36.195643799899997 ], [ -115.2407574, 36.195643799899997 ], [ -115.2407574, 36.195649199899997 ], [ -115.2407601, 36.195649199899997 ], [ -115.2407601, 36.195654599899996 ], [ -115.2407628, 36.195654599899996 ], [ -115.2407628, 36.195659999899995 ], [ -115.2407655, 36.195659999899995 ], [ -115.2407655, 36.195665399900001 ], [ -115.2407682, 36.195665399900001 ], [ -115.2407682, 36.1956707999 ], [ -115.2407709, 36.1956707999 ], [ -115.2407709, 36.195678899899995 ], [ -115.2407736, 36.195678899899995 ], [ -115.2407736, 36.195681599899999 ], [ -115.2407763, 36.195681599899999 ], [ -115.2407763, 36.195686999899998 ], [ -115.240779, 36.195686999899998 ], [ -115.240779, 36.195689699900001 ], [ -115.2407817, 36.195689699900001 ], [ -115.2407817, 36.195697799899996 ], [ -115.24078440000001, 36.195697799899996 ], [ -115.24078440000001, 36.195700499899999 ], [ -115.2407871, 36.195700499899999 ], [ -115.2407871, 36.195705899899998 ], [ -115.2407898, 36.195705899899998 ], [ -115.2407898, 36.195711299899997 ], [ -115.2407925, 36.195711299899997 ], [ -115.2407925, 36.195713999900001 ], [ -115.2407952, 36.195713999900001 ], [ -115.2407952, 36.195722099899996 ], [ -115.2407979, 36.195722099899996 ], [ -115.2407979, 36.195727499899995 ], [ -115.2408006, 36.195727499899995 ], [ -115.2408006, 36.195732899900001 ], [ -115.2408033, 36.195732899900001 ], [ -115.2408033, 36.1957382999 ], [ -115.240806, 36.1957382999 ], [ -115.240806, 36.195746399899996 ], [ -115.2408033, 36.195746399899996 ], [ -115.2408033, 36.195749099899999 ], [ -115.2408006, 36.195749099899999 ], [ -115.2408006, 36.195751799899995 ], [ -115.2407952, 36.195751799899995 ], [ -115.2407952, 36.195754499899998 ], [ -115.2407871, 36.195754499899998 ], [ -115.2407871, 36.195757199900001 ], [ -115.2407817, 36.195757199900001 ], [ -115.2407817, 36.195759899899997 ], [ -115.240779, 36.195759899899997 ], [ -115.240779, 36.1957625999 ], [ -115.2407736, 36.1957625999 ], [ -115.2407736, 36.195765299899996 ], [ -115.2407655, 36.195765299899996 ], [ -115.2407655, 36.195767999899999 ], [ -115.2407547, 36.195767999899999 ], [ -115.2407547, 36.195770699899995 ], [ -115.2407439, 36.195770699899995 ], [ -115.2407439, 36.195773399899998 ], [ -115.2407385, 36.195773399899998 ], [ -115.2407385, 36.195776099900002 ] ] ] } },
{ "type": "Feature", "properties": { "value": 255.0 }, "geometry": { "type": "Polygon", "coordinates": [ [ [ -115.2404523, 36.195776099900002 ], [ -115.2403524, 36.195776099900002 ], [ -115.2403524, 36.195773399899998 ], [ -115.2403497, 36.195773399899998 ], [ -115.2403497, 36.195770699899995 ], [ -115.240347, 36.195770699899995 ], [ -115.240347, 36.195724799899999 ], [ -115.2403443, 36.195724799899999 ], [ -115.2403443, 36.195635699899995 ], [ -115.240347, 36.195635699899995 ], [ -115.240347, 36.195632999899999 ], [ -115.2403443, 36.195632999899999 ], [ -115.2403443, 36.195624899899997 ], [ -115.240347, 36.195624899899997 ], [ -115.240347, 36.195619499899998 ], [ -115.2403767, 36.195619499899998 ], [ -115.2403767, 36.195587099899996 ], [ -115.2403794, 36.195587099899996 ], [ -115.2403794, 36.1955843999 ], [ -115.2404226, 36.1955843999 ], [ -115.2404226, 36.195587099899996 ], [ -115.2404307, 36.195587099899996 ], [ -115.2404307, 36.1955843999 ], [ -115.2404442, 36.1955843999 ], [ -115.2404442, 36.195587099899996 ], [ -115.2404577, 36.195587099899996 ], [ -115.2404577, 36.195684299899995 ], [ -115.240455, 36.195684299899995 ], [ -115.240455, 36.195773399899998 ], [ -115.2404523, 36.195773399899998 ], [ -115.2404523, 36.195776099900002 ] ] ] } },
{ "type": "Feature", "properties": { "value": 255.0 }, "geometry": { "type": "Polygon", "coordinates": [ [ [ -115.2400392, 36.1957382999 ], [ -115.2399447, 36.1957382999 ], [ -115.2399447, 36.195735599899997 ], [ -115.239942, 36.195735599899997 ], [ -115.239942, 36.195716699899997 ], [ -115.2399393, 36.195716699899997 ], [ -115.2399393, 36.195662699899998 ], [ -115.2399366, 36.195662699899998 ], [ -115.2399366, 36.195597899900001 ], [ -115.2399339, 36.195597899900001 ], [ -115.2399339, 36.195581699899996 ], [ -115.2399366, 36.195581699899996 ], [ -115.2399366, 36.195576299899997 ], [ -115.2400149, 36.195576299899997 ], [ -115.2400149, 36.1955789999 ], [ -115.2400176, 36.1955789999 ], [ -115.2400176, 36.195619499899998 ], [ -115.2400203, 36.195619499899998 ], [ -115.2400203, 36.195622199900001 ], [ -115.240023, 36.195622199900001 ], [ -115.240023, 36.195624899899997 ], [ -115.2400284, 36.195624899899997 ], [ -115.2400284, 36.1956275999 ], [ -115.2400338, 36.1956275999 ], [ -115.2400338, 36.195630299899996 ], [ -115.2400365, 36.195630299899996 ], [ -115.2400365, 36.195632999899999 ], [ -115.2400392, 36.195632999899999 ], [ -115.2400392, 36.195708599900001 ], [ -115.2400419, 36.195708599900001 ], [ -115.2400419, 36.195735599899997 ], [ -115.2400392, 36.195735599899997 ], [ -115.2400392, 36.1957382999 ] ] ] } },
{ "type": "Feature", "properties": { "value": 255.0 }, "geometry": { "type": "Polygon", "coordinates": [ [ [ -115.2399042, 36.1957382999 ], [ -115.2398151, 36.1957382999 ], [ -115.2398151, 36.195735599899997 ], [ -115.2398124, 36.195735599899997 ], [ -115.2398124, 36.195730199899998 ], [ -115.2398097, 36.195730199899998 ], [ -115.2398097, 36.195659999899995 ], [ -115.2398124, 36.195659999899995 ], [ -115.2398124, 36.195632999899999 ], [ -115.2398151, 36.195632999899999 ], [ -115.2398151, 36.1956275999 ], [ -115.2398178, 36.1956275999 ], [ -115.2398178, 36.195624899899997 ], [ -115.2398205, 36.195624899899997 ], [ -115.2398205, 36.195619499899998 ], [ -115.2398232, 36.195619499899998 ], [ -115.2398232, 36.195608699899999 ], [ -115.2398259, 36.195608699899999 ], [ -115.2398259, 36.1956032999 ], [ -115.2398232, 36.1956032999 ], [ -115.2398232, 36.195595199899998 ], [ -115.2398259, 36.195595199899998 ], [ -115.2398259, 36.195576299899997 ], [ -115.2398313, 36.195576299899997 ], [ -115.2398313, 36.195573599900001 ], [ -115.2398448, 36.195573599900001 ], [ -115.2398448, 36.195576299899997 ], [ -115.2399069, 36.195576299899997 ], [ -115.2399069, 36.195581699899996 ], [ -115.2399096, 36.195581699899996 ], [ -115.2399096, 36.195616799899994 ], [ -115.2399123, 36.195616799899994 ], [ -115.2399123, 36.195735599899997 ], [ -115.2399042, 36.195735599899997 ], [ -115.2399042, 36.1957382999 ] ] ] } },
{ "type": "Feature", "properties": { "value": 255.0 }, "geometry": { "type": "Polygon", "coordinates": [ [ [ -115.2397476, 36.195767999899999 ], [ -115.2397314, 36.195767999899999 ], [ -115.2397314, 36.195765299899996 ], [ -115.2397287, 36.195765299899996 ], [ -115.2397287, 36.195767999899999 ], [ -115.2397098, 36.195767999899999 ], [ -115.2397098, 36.195765299899996 ], [ -115.2396612, 36.195765299899996 ], [ -115.2396612, 36.1957625999 ], [ -115.2396585, 36.1957625999 ], [ -115.2396585, 36.195754499899998 ], [ -115.2396558, 36.195754499899998 ], [ -115.2396558, 36.195740999899996 ], [ -115.2396585, 36.195740999899996 ], [ -115.2396585, 36.195692399899997 ], [ -115.2396558, 36.195692399899997 ], [ -115.2396558, 36.195662699899998 ], [ -115.2396585, 36.195662699899998 ], [ -115.2396585, 36.1956032999 ], [ -115.2396612, 36.1956032999 ], [ -115.2396612, 36.195573599900001 ], [ -115.2397368, 36.195573599900001 ], [ -115.2397368, 36.195576299899997 ], [ -115.2397395, 36.195576299899997 ], [ -115.2397395, 36.195597899900001 ], [ -115.2397422, 36.195597899900001 ], [ -115.2397422, 36.195608699899999 ], [ -115.2397449, 36.195608699899999 ], [ -115.2397449, 36.195611399899995 ], [ -115.2397638, 36.195611399899995 ], [ -115.2397638, 36.195614099899998 ], [ -115.2397665, 36.195614099899998 ], [ -115.2397665, 36.195730199899998 ], [ -115.2397638, 36.195730199899998 ], [ -115.2397638, 36.195757199900001 ], [ -115.2397665, 36.195757199900001 ], [ -115.2397665, 36.195759899899997 ], [ -115.2397638, 36.195759899899997 ], [ -115.2397638, 36.195765299899996 ], [ -115.2397476, 36.195765299899996 ], [ -115.2397476, 36.195767999899999 ] ] ] } },
{ "type": "Feature", "properties": { "value": 255.0 }, "geometry": { "type": "Polygon", "coordinates": [ [ [ -115.2396261, 36.195735599899997 ], [ -115.2396207, 36.195735599899997 ], [ -115.2396207, 36.195732899900001 ], [ -115.2396045, 36.195732899900001 ], [ -115.2396045, 36.195735599899997 ], [ -115.2395667, 36.195735599899997 ], [ -115.2395667, 36.195732899900001 ], [ -115.239537, 36.195732899900001 ], [ -115.239537, 36.195730199899998 ], [ -115.2395343, 36.195730199899998 ], [ -115.2395343, 36.195624899899997 ], [ -115.239537, 36.195624899899997 ], [ -115.239537, 36.195619499899998 ], [ -115.2395424, 36.195619499899998 ], [ -115.2395424, 36.195616799899994 ], [ -115.2395451, 36.195616799899994 ], [ -115.2395451, 36.195614099899998 ], [ -115.2395505, 36.195614099899998 ], [ -115.2395505, 36.195605999899996 ], [ -115.2395532, 36.195605999899996 ], [ -115.2395532, 36.195597899900001 ], [ -115.2395505, 36.195597899900001 ], [ -115.2395505, 36.195570899899998 ], [ -115.2395532, 36.195570899899998 ], [ -115.2395532, 36.195568199899995 ], [ -115.2396261, 36.195568199899995 ], [ -115.2396261, 36.195570899899998 ], [ -115.2396315, 36.195570899899998 ], [ -115.2396315, 36.195576299899997 ], [ -115.2396342, 36.195576299899997 ], [ -115.2396342, 36.195614099899998 ], [ -115.2396369, 36.195614099899998 ], [ -115.2396369, 36.195638399899998 ], [ -115.2396342, 36.195638399899998 ], [ -115.2396342, 36.1956518999 ], [ -115.2396369, 36.1956518999 ], [ -115.2396369, 36.195676199899999 ], [ -115.2396342, 36.195676199899999 ], [ -115.2396342, 36.195684299899995 ], [ -115.2396369, 36.195684299899995 ], [ -115.2396369, 36.195692399899997 ], [ -115.2396342, 36.195692399899997 ], [ -115.2396342, 36.195732899900001 ], [ -115.2396261, 36.195732899900001 ], [ -115.2396261, 36.195735599899997 ] ] ] } },
{ "type": "Feature", "properties": { "value": 255.0 }, "geometry": { "type": "Polygon", "coordinates": [ [ [ -115.2392049, 36.195759899899997 ], [ -115.2391617, 36.195759899899997 ], [ -115.2391617, 36.195757199900001 ], [ -115.2391266, 36.195757199900001 ], [ -115.2391266, 36.195759899899997 ], [ -115.2391212, 36.195759899899997 ], [ -115.2391212, 36.195757199900001 ], [ -115.239105, 36.195757199900001 ], [ -115.239105, 36.195754499899998 ], [ -115.2391023, 36.195754499899998 ], [ -115.2391023, 36.195740999899996 ], [ -115.2390996, 36.195740999899996 ], [ -115.2390996, 36.195735599899997 ], [ -115.2391023, 36.195735599899997 ], [ -115.2391023, 36.1956950999 ], [ -115.239105, 36.1956950999 ], [ -115.239105, 36.1956464999 ], [ -115.2391023, 36.1956464999 ], [ -115.2391023, 36.195638399899998 ], [ -115.239105, 36.195638399899998 ], [ -115.239105, 36.1956275999 ], [ -115.2391023, 36.1956275999 ], [ -115.2391023, 36.195611399899995 ], [ -115.239105, 36.195611399899995 ], [ -115.239105, 36.195587099899996 ], [ -115.2391023, 36.195587099899996 ], [ -115.2391023, 36.195570899899998 ], [ -115.239105, 36.195570899899998 ], [ -115.239105, 36.195568199899995 ], [ -115.2391671, 36.195568199899995 ], [ -115.2391671, 36.195565499899999 ], [ -115.2391752, 36.195565499899999 ], [ -115.2391752, 36.195568199899995 ], [ -115.239186, 36.195568199899995 ], [ -115.239186, 36.195570899899998 ], [ -115.2391887, 36.195570899899998 ], [ -115.2391887, 36.195589799899999 ], [ -115.2391914, 36.195589799899999 ], [ -115.2391914, 36.195614099899998 ], [ -115.2391941, 36.195614099899998 ], [ -115.2391941, 36.195619499899998 ], [ -115.2391968, 36.195619499899998 ], [ -115.2391968, 36.195622199900001 ], [ -115.2392076, 36.195622199900001 ], [ -115.2392076, 36.195624899899997 ], [ -115.2392103, 36.195624899899997 ], [ -115.2392103, 36.195632999899999 ], [ -115.239213, 36.195632999899999 ], [ -115.239213, 36.195635699899995 ], [ -115.2392103, 36.195635699899995 ], [ -115.2392103, 36.195638399899998 ], [ -115.239213, 36.195638399899998 ], [ -115.239213, 36.195649199899997 ], [ -115.2392103, 36.195649199899997 ], [ -115.2392103, 36.195730199899998 ], [ -115.2392076, 36.195730199899998 ], [ -115.2392076, 36.195757199900001 ], [ -115.2392049, 36.195757199900001 ], [ -115.2392049, 36.195759899899997 ] ] ] } },
{ "type": "Feature", "properties": { "value": 255.0 }, "geometry": { "type": "Polygon", "coordinates": [ [ [ -115.2403092, 36.1957868999 ], [ -115.2402984, 36.1957868999 ], [ -115.2402984, 36.195784199899997 ], [ -115.2402309, 36.195784199899997 ], [ -115.2402309, 36.195781499900001 ], [ -115.2402282, 36.195781499900001 ], [ -115.2402282, 36.195751799899995 ], [ -115.2402228, 36.195751799899995 ], [ -115.2402228, 36.195749099899999 ], [ -115.2402147, 36.195749099899999 ], [ -115.2402147, 36.1957382999 ], [ -115.240212, 36.1957382999 ], [ -115.240212, 36.195700499899999 ], [ -115.2402093, 36.195700499899999 ], [ -115.2402093, 36.195689699900001 ], [ -115.240212, 36.195689699900001 ], [ -115.240212, 36.195686999899998 ], [ -115.2402093, 36.195686999899998 ], [ -115.2402093, 36.195678899899995 ], [ -115.240212, 36.195678899899995 ], [ -115.240212, 36.195630299899996 ], [ -115.2402147, 36.195630299899996 ], [ -115.2402147, 36.195581699899996 ], [ -115.2402552, 36.195581699899996 ], [ -115.2402552, 36.1955789999 ], [ -115.240266, 36.1955789999 ], [ -115.240266, 36.195581699899996 ], [ -115.2402768, 36.195581699899996 ], [ -115.2402768, 36.1955789999 ], [ -115.2402957, 36.1955789999 ], [ -115.2402957, 36.195581699899996 ], [ -115.2403011, 36.195581699899996 ], [ -115.2403011, 36.195608699899999 ], [ -115.2402984, 36.195608699899999 ], [ -115.2402984, 36.195619499899998 ], [ -115.2403011, 36.195619499899998 ], [ -115.2403011, 36.195638399899998 ], [ -115.2403173, 36.195638399899998 ], [ -115.2403173, 36.195641099900001 ], [ -115.24032, 36.195641099900001 ], [ -115.24032, 36.1956707999 ], [ -115.2403227, 36.1956707999 ], [ -115.2403227, 36.195678899899995 ], [ -115.24032, 36.195678899899995 ], [ -115.24032, 36.195765299899996 ], [ -115.2403173, 36.195765299899996 ], [ -115.2403173, 36.195781499900001 ], [ -115.2403146, 36.195781499900001 ], [ -115.2403146, 36.195784199899997 ], [ -115.2403092, 36.195784199899997 ], [ -115.2403092, 36.1957868999 ] ] ] } },
{ "type": "Feature", "properties": { "value": 255.0 }, "geometry": { "type": "Polygon", "coordinates": [ [ [ -115.2401877, 36.195740999899996 ], [ -115.2400932, 36.195740999899996 ], [ -115.2400932, 36.1957382999 ], [ -115.2400905, 36.1957382999 ], [ -115.2400905, 36.195735599899997 ], [ -115.2400878, 36.195735599899997 ], [ -115.2400878, 36.195697799899996 ], [ -115.2400851, 36.195697799899996 ], [ -115.2400851, 36.1956950999 ], [ -115.2400878, 36.1956950999 ], [ -115.2400878, 36.195686999899998 ], [ -115.2400851, 36.195686999899998 ], [ -115.2400851, 36.195673499899996 ], [ -115.2400878, 36.195673499899996 ], [ -115.2400878, 36.1956464999 ], [ -115.2400851, 36.1956464999 ], [ -115.2400851, 36.195630299899996 ], [ -115.2400905, 36.195630299899996 ], [ -115.2400905, 36.1956275999 ], [ -115.2401067, 36.1956275999 ], [ -115.2401067, 36.195624899899997 ], [ -115.2401094, 36.195624899899997 ], [ -115.2401094, 36.195622199900001 ], [ -115.2401121, 36.195622199900001 ], [ -115.2401121, 36.195619499899998 ], [ -115.2401148, 36.195619499899998 ], [ -115.2401148, 36.195616799899994 ], [ -115.2401175, 36.195616799899994 ], [ -115.2401175, 36.195614099899998 ], [ -115.2401202, 36.195614099899998 ], [ -115.2401202, 36.195611399899995 ], [ -115.2401175, 36.195611399899995 ], [ -115.2401175, 36.195605999899996 ], [ -115.2401148, 36.195605999899996 ], [ -115.2401148, 36.195600599899997 ], [ -115.2401175, 36.195600599899997 ], [ -115.2401175, 36.195595199899998 ], [ -115.2401202, 36.195595199899998 ], [ -115.2401202, 36.195587099899996 ], [ -115.2401229, 36.195587099899996 ], [ -115.2401229, 36.1955843999 ], [ -115.2401256, 36.1955843999 ], [ -115.2401256, 36.195581699899996 ], [ -115.240158, 36.195581699899996 ], [ -115.240158, 36.1955789999 ], [ -115.2401823, 36.1955789999 ], [ -115.2401823, 36.195581699899996 ], [ -115.240185, 36.195581699899996 ], [ -115.240185, 36.1955843999 ], [ -115.2401877, 36.1955843999 ], [ -115.2401877, 36.195595199899998 ], [ -115.240185, 36.195595199899998 ], [ -115.240185, 36.1956032999 ], [ -115.2401823, 36.1956032999 ], [ -115.2401823, 36.195611399899995 ], [ -115.240185, 36.195611399899995 ], [ -115.240185, 36.195616799899994 ], [ -115.2401877, 36.195616799899994 ], [ -115.2401877, 36.195622199900001 ], [ -115.2401904, 36.195622199900001 ], [ -115.2401904, 36.1957382999 ], [ -115.2401877, 36.1957382999 ], [ -115.2401877, 36.195740999899996 ] ] ] } },
{ "type": "Feature", "properties": { "value": 255.0 }, "geometry": { "type": "Polygon", "coordinates": [ [ [ -115.2394776, 36.195732899900001 ], [ -115.2394452, 36.195732899900001 ], [ -115.2394452, 36.195730199899998 ], [ -115.2393885, 36.195730199899998 ], [ -115.2393885, 36.195727499899995 ], [ -115.2393858, 36.195727499899995 ], [ -115.2393858, 36.195716699899997 ], [ -115.2393831, 36.195716699899997 ], [ -115.2393831, 36.195614099899998 ], [ -115.2393804, 36.195614099899998 ], [ -115.2393804, 36.195570899899998 ], [ -115.2393831, 36.195570899899998 ], [ -115.2393831, 36.195568199899995 ], [ -115.2394425, 36.195568199899995 ], [ -115.2394425, 36.195570899899998 ], [ -115.2394614, 36.195570899899998 ], [ -115.2394614, 36.195573599900001 ], [ -115.2394668, 36.195573599900001 ], [ -115.2394668, 36.1955843999 ], [ -115.2394641, 36.1955843999 ], [ -115.2394641, 36.195616799899994 ], [ -115.2394695, 36.195616799899994 ], [ -115.2394695, 36.195619499899998 ], [ -115.2394749, 36.195619499899998 ], [ -115.2394749, 36.195622199900001 ], [ -115.2394803, 36.195622199900001 ], [ -115.2394803, 36.195624899899997 ], [ -115.239483, 36.195624899899997 ], [ -115.239483, 36.195676199899999 ], [ -115.2394857, 36.195676199899999 ], [ -115.2394857, 36.195730199899998 ], [ -115.2394776, 36.195730199899998 ], [ -115.2394776, 36.195732899900001 ] ] ] } },
{ "type": "Feature", "properties": { "value": 255.0 }, "geometry": { "type": "Polygon", "coordinates": [ [ [ -115.2393453, 36.195765299899996 ], [ -115.2392535, 36.195765299899996 ], [ -115.2392535, 36.1957625999 ], [ -115.2392481, 36.1957625999 ], [ -115.2392481, 36.195757199900001 ], [ -115.2392454, 36.195757199900001 ], [ -115.2392454, 36.195624899899997 ], [ -115.2392508, 36.195624899899997 ], [ -115.2392508, 36.195622199900001 ], [ -115.2392643, 36.195622199900001 ], [ -115.2392643, 36.195616799899994 ], [ -115.239267, 36.195616799899994 ], [ -115.239267, 36.195573599900001 ], [ -115.2392643, 36.195573599900001 ], [ -115.2392643, 36.195570899899998 ], [ -115.239267, 36.195570899899998 ], [ -115.239267, 36.195568199899995 ], [ -115.2392697, 36.195568199899995 ], [ -115.2392697, 36.195565499899999 ], [ -115.2392832, 36.195565499899999 ], [ -115.2392832, 36.195568199899995 ], [ -115.2393507, 36.195568199899995 ], [ -115.2393507, 36.195570899899998 ], [ -115.2393534, 36.195570899899998 ], [ -115.2393534, 36.195581699899996 ], [ -115.2393507, 36.195581699899996 ], [ -115.2393507, 36.195592499899995 ], [ -115.2393534, 36.195592499899995 ], [ -115.2393534, 36.1956950999 ], [ -115.2393507, 36.1956950999 ], [ -115.2393507, 36.195708599900001 ], [ -115.2393534, 36.195708599900001 ], [ -115.2393534, 36.195716699899997 ], [ -115.2393507, 36.195716699899997 ], [ -115.2393507, 36.1957625999 ], [ -115.2393453, 36.1957625999 ], [ -115.2393453, 36.195765299899996 ] ] ] } },
{ "type": "Feature", "properties": { "value": 255.0 }, "geometry": { "type": "Polygon", "coordinates": [ [ [ -115.2408276, 36.195727499899995 ], [ -115.2408249, 36.195727499899995 ], [ -115.2408249, 36.195724799899999 ], [ -115.2408195, 36.195724799899999 ], [ -115.2408195, 36.195697799899996 ], [ -115.2408168, 36.195697799899996 ], [ -115.2408168, 36.195692399899997 ], [ -115.2408141, 36.195692399899997 ], [ -115.2408141, 36.195686999899998 ], [ -115.2408114, 36.195686999899998 ], [ -115.2408114, 36.195681599899999 ], [ -115.2408087, 36.195681599899999 ], [ -115.2408087, 36.195676199899999 ], [ -115.240806, 36.195676199899999 ], [ -115.240806, 36.1956707999 ], [ -115.2408033, 36.1956707999 ], [ -115.2408033, 36.195665399900001 ], [ -115.2408006, 36.195665399900001 ], [ -115.2408006, 36.195662699899998 ], [ -115.2407979, 36.195662699899998 ], [ -115.2407979, 36.195657299899999 ], [ -115.2407952, 36.195657299899999 ], [ -115.2407952, 36.1956518999 ], [ -115.2407925, 36.1956518999 ], [ -115.2407925, 36.1956464999 ], [ -115.2407898, 36.1956464999 ], [ -115.2407898, 36.195641099900001 ], [ -115.2407871, 36.195641099900001 ], [ -115.2407871, 36.195635699899995 ], [ -115.24078440000001, 36.195635699899995 ], [ -115.24078440000001, 36.195630299899996 ], [ -115.2407817, 36.195630299899996 ], [ -115.2407817, 36.1956275999 ], [ -115.240779, 36.1956275999 ], [ -115.240779, 36.195624899899997 ], [ -115.2407763, 36.195624899899997 ], [ -115.2407763, 36.195619499899998 ], [ -115.2407736, 36.195619499899998 ], [ -115.2407736, 36.195614099899998 ], [ -115.2407709, 36.195614099899998 ], [ -115.2407709, 36.195608699899999 ], [ -115.2407682, 36.195608699899999 ], [ -115.2407682, 36.195605999899996 ], [ -115.2407655, 36.195605999899996 ], [ -115.2407655, 36.195600599899997 ], [ -115.2407628, 36.195600599899997 ], [ -115.2407628, 36.195595199899998 ], [ -115.2407601, 36.195595199899998 ], [ -115.2407601, 36.195587099899996 ], [ -115.2407628, 36.195587099899996 ], [ -115.2407628, 36.1955843999 ], [ -115.2407682, 36.1955843999 ], [ -115.2407682, 36.195581699899996 ], [ -115.2407763, 36.195581699899996 ], [ -115.2407763, 36.1955789999 ], [ -115.2407817, 36.1955789999 ], [ -115.2407817, 36.195576299899997 ], [ -115.2407898, 36.195576299899997 ], [ -115.2407898, 36.195573599900001 ], [ -115.2407979, 36.195573599900001 ], [ -115.2407979, 36.195570899899998 ], [ -115.2408033, 36.195570899899998 ], [ -115.2408033, 36.195568199899995 ], [ -115.2408087, 36.195568199899995 ], [ -115.2408087, 36.195565499899999 ], [ -115.2408141, 36.195565499899999 ], [ -115.2408141, 36.195562799899996 ], [ -115.2408249, 36.195562799899996 ], [ -115.2408249, 36.1955600999 ], [ -115.2408276, 36.1955600999 ], [ -115.2408276, 36.195727499899995 ] ] ] } },
{ "type": "Feature", "properties": { "value": 255.0 }, "geometry": { "type": "Polygon", "coordinates": [ [ [ -115.2404172, 36.195362999899999 ], [ -115.240401, 36.195362999899999 ], [ -115.240401, 36.195360299899995 ], [ -115.2403956, 36.195360299899995 ], [ -115.2403956, 36.1953521999 ], [ -115.2403929, 36.1953521999 ], [ -115.2403929, 36.195338699899999 ], [ -115.2403902, 36.195338699899999 ], [ -115.2403902, 36.195300899899998 ], [ -115.2403875, 36.195300899899998 ], [ -115.2403875, 36.195287399899996 ], [ -115.2403902, 36.195287399899996 ], [ -115.2403902, 36.195281999899997 ], [ -115.2403929, 36.195281999899997 ], [ -115.2403929, 36.195279299899994 ], [ -115.2405198, 36.195279299899994 ], [ -115.2405198, 36.195276599899998 ], [ -115.2405576, 36.195276599899998 ], [ -115.2405576, 36.195273899899995 ], [ -115.2405819, 36.195273899899995 ], [ -115.2405819, 36.195276599899998 ], [ -115.2405846, 36.195276599899998 ], [ -115.2405846, 36.195298199899995 ], [ -115.2405873, 36.195298199899995 ], [ -115.2405873, 36.1953332999 ], [ -115.2405846, 36.1953332999 ], [ -115.2405846, 36.195338699899999 ], [ -115.2405522, 36.195338699899999 ], [ -115.2405522, 36.195335999899996 ], [ -115.2405468, 36.195335999899996 ], [ -115.2405468, 36.195338699899999 ], [ -115.2405414, 36.195338699899999 ], [ -115.2405414, 36.195341399899995 ], [ -115.240536, 36.195341399899995 ], [ -115.240536, 36.195344099899998 ], [ -115.2405333, 36.195344099899998 ], [ -115.2405333, 36.195346799899994 ], [ -115.2405279, 36.195346799899994 ], [ -115.2405279, 36.195349499899997 ], [ -115.2405252, 36.195349499899997 ], [ -115.2405252, 36.1953521999 ], [ -115.2405225, 36.1953521999 ], [ -115.2405225, 36.195357599899999 ], [ -115.2404874, 36.195357599899999 ], [ -115.2404874, 36.195360299899995 ], [ -115.2404172, 36.195360299899995 ], [ -115.2404172, 36.195362999899999 ] ] ] } },
{ "type": "Feature", "properties": { "value": 255.0 }, "geometry": { "type": "Polygon", "coordinates": [ [ [ -115.2399393, 36.195354899899996 ], [ -115.2399285, 36.195354899899996 ], [ -115.2399285, 36.1953521999 ], [ -115.2399096, 36.1953521999 ], [ -115.2399096, 36.195346799899994 ], [ -115.2399069, 36.195346799899994 ], [ -115.2399069, 36.195314399899999 ], [ -115.2399042, 36.195314399899999 ], [ -115.2399042, 36.195306299899997 ], [ -115.2398988, 36.195306299899997 ], [ -115.2398988, 36.195303599900001 ], [ -115.2398934, 36.195303599900001 ], [ -115.2398934, 36.195300899899998 ], [ -115.2398907, 36.195300899899998 ], [ -115.2398907, 36.195276599899998 ], [ -115.2398934, 36.195276599899998 ], [ -115.2398934, 36.195268499899996 ], [ -115.2398907, 36.195268499899996 ], [ -115.2398907, 36.1952603999 ], [ -115.2398934, 36.1952603999 ], [ -115.2398934, 36.195252299899998 ], [ -115.2398907, 36.195252299899998 ], [ -115.2398907, 36.195236099900001 ], [ -115.2398934, 36.195236099900001 ], [ -115.2398934, 36.195203699899999 ], [ -115.2398961, 36.195203699899999 ], [ -115.2398961, 36.195200999899996 ], [ -115.2398988, 36.195200999899996 ], [ -115.2398988, 36.195198299899999 ], [ -115.2399069, 36.195198299899999 ], [ -115.2399069, 36.195195599899996 ], [ -115.2399096, 36.195195599899996 ], [ -115.2399096, 36.195198299899999 ], [ -115.2399447, 36.195198299899999 ], [ -115.2399447, 36.195200999899996 ], [ -115.2399798, 36.195200999899996 ], [ -115.2399798, 36.195203699899999 ], [ -115.2399852, 36.195203699899999 ], [ -115.2399852, 36.195206399899995 ], [ -115.2399879, 36.195206399899995 ], [ -115.2399879, 36.195214499899997 ], [ -115.2399906, 36.195214499899997 ], [ -115.2399906, 36.195249599899995 ], [ -115.2399933, 36.195249599899995 ], [ -115.2399933, 36.1953089999 ], [ -115.2399906, 36.1953089999 ], [ -115.2399906, 36.195319799899998 ], [ -115.2399879, 36.195319799899998 ], [ -115.2399879, 36.195322499899994 ], [ -115.2399852, 36.195322499899994 ], [ -115.2399852, 36.195325199899997 ], [ -115.2399798, 36.195325199899997 ], [ -115.2399798, 36.195327899900001 ], [ -115.2399744, 36.195327899900001 ], [ -115.2399744, 36.195330599899997 ], [ -115.239969, 36.195330599899997 ], [ -115.239969, 36.1953332999 ], [ -115.2399663, 36.1953332999 ], [ -115.2399663, 36.195341399899995 ], [ -115.239969, 36.195341399899995 ], [ -115.239969, 36.195344099899998 ], [ -115.2399663, 36.195344099899998 ], [ -115.2399663, 36.195346799899994 ], [ -115.2399636, 36.195346799899994 ], [ -115.2399636, 36.1953521999 ], [ -115.2399393, 36.1953521999 ], [ -115.2399393, 36.195354899899996 ] ] ] } },
{ "type": "Feature", "properties": { "value": 255.0 }, "geometry": { "type": "Polygon", "coordinates": [ [ [ -115.2394398, 36.195349499899997 ], [ -115.2394209, 36.195349499899997 ], [ -115.2394209, 36.195346799899994 ], [ -115.2394128, 36.195346799899994 ], [ -115.2394128, 36.195344099899998 ], [ -115.2393966, 36.195344099899998 ], [ -115.2393966, 36.195341399899995 ], [ -115.2393939, 36.195341399899995 ], [ -115.2393939, 36.195311699899996 ], [ -115.2393912, 36.195311699899996 ], [ -115.2393912, 36.195306299899997 ], [ -115.2393939, 36.195306299899997 ], [ -115.2393939, 36.195300899899998 ], [ -115.2393858, 36.195300899899998 ], [ -115.2393858, 36.195298199899995 ], [ -115.2393777, 36.195298199899995 ], [ -115.2393777, 36.195292799899995 ], [ -115.239375, 36.195292799899995 ], [ -115.239375, 36.195287399899996 ], [ -115.2393777, 36.195287399899996 ], [ -115.2393777, 36.195257699899997 ], [ -115.239375, 36.195257699899997 ], [ -115.239375, 36.195249599899995 ], [ -115.2393777, 36.195249599899995 ], [ -115.2393777, 36.1951928999 ], [ -115.2393804, 36.1951928999 ], [ -115.2393804, 36.195190199899997 ], [ -115.239429, 36.195190199899997 ], [ -115.239429, 36.1951928999 ], [ -115.2394452, 36.1951928999 ], [ -115.2394452, 36.195190199899997 ], [ -115.2394533, 36.195190199899997 ], [ -115.2394533, 36.1951928999 ], [ -115.2394776, 36.1951928999 ], [ -115.2394776, 36.195195599899996 ], [ -115.2394803, 36.195195599899996 ], [ -115.2394803, 36.195214499899997 ], [ -115.239483, 36.195214499899997 ], [ -115.239483, 36.195219899899996 ], [ -115.2394803, 36.195219899899996 ], [ -115.2394803, 36.195319799899998 ], [ -115.239483, 36.195319799899998 ], [ -115.239483, 36.195325199899997 ], [ -115.2394803, 36.195325199899997 ], [ -115.2394803, 36.195327899900001 ], [ -115.2394749, 36.195327899900001 ], [ -115.2394749, 36.195330599899997 ], [ -115.2394695, 36.195330599899997 ], [ -115.2394695, 36.1953332999 ], [ -115.2394668, 36.1953332999 ], [ -115.2394668, 36.195335999899996 ], [ -115.2394695, 36.195335999899996 ], [ -115.2394695, 36.195338699899999 ], [ -115.2394587, 36.195338699899999 ], [ -115.2394587, 36.195341399899995 ], [ -115.2394533, 36.195341399899995 ], [ -115.2394533, 36.195344099899998 ], [ -115.2394452, 36.195344099899998 ], [ -115.2394452, 36.195346799899994 ], [ -115.2394398, 36.195346799899994 ], [ -115.2394398, 36.195349499899997 ] ] ] } },
{ "type": "Feature", "properties": { "value": 255.0 }, "geometry": { "type": "Polygon", "coordinates": [ [ [ -115.2392832, 36.195344099899998 ], [ -115.2392454, 36.195344099899998 ], [ -115.2392454, 36.195341399899995 ], [ -115.2392427, 36.195341399899995 ], [ -115.2392427, 36.195344099899998 ], [ -115.23924, 36.195344099899998 ], [ -115.23924, 36.195341399899995 ], [ -115.2392319, 36.195341399899995 ], [ -115.2392319, 36.195227999899998 ], [ -115.2392346, 36.195227999899998 ], [ -115.2392346, 36.195222599899999 ], [ -115.2392319, 36.195222599899999 ], [ -115.2392319, 36.195211799899994 ], [ -115.2392346, 36.195211799899994 ], [ -115.2392346, 36.1951928999 ], [ -115.2392373, 36.1951928999 ], [ -115.2392373, 36.195190199899997 ], [ -115.23924, 36.195190199899997 ], [ -115.23924, 36.195187499899994 ], [ -115.2392859, 36.195187499899994 ], [ -115.2392859, 36.195190199899997 ], [ -115.2393318, 36.195190199899997 ], [ -115.2393318, 36.1951928999 ], [ -115.2393372, 36.1951928999 ], [ -115.2393372, 36.195195599899996 ], [ -115.2393399, 36.195195599899996 ], [ -115.2393399, 36.1952171999 ], [ -115.2393372, 36.1952171999 ], [ -115.2393372, 36.195233399899998 ], [ -115.2393345, 36.195233399899998 ], [ -115.2393345, 36.195268499899996 ], [ -115.2393372, 36.195268499899996 ], [ -115.2393372, 36.195290099899999 ], [ -115.2393345, 36.195290099899999 ], [ -115.2393345, 36.195295499899999 ], [ -115.2393318, 36.195295499899999 ], [ -115.2393318, 36.195298199899995 ], [ -115.2393264, 36.195298199899995 ], [ -115.2393264, 36.195300899899998 ], [ -115.239321, 36.195300899899998 ], [ -115.239321, 36.1953089999 ], [ -115.2393183, 36.1953089999 ], [ -115.2393183, 36.195330599899997 ], [ -115.2393156, 36.195330599899997 ], [ -115.2393156, 36.195338699899999 ], [ -115.2393129, 36.195338699899999 ], [ -115.2393129, 36.195341399899995 ], [ -115.2392832, 36.195341399899995 ], [ -115.2392832, 36.195344099899998 ] ] ] } },
{ "type": "Feature", "properties": { "value": 255.0 }, "geometry": { "type": "Polygon", "coordinates": [ [ [ -115.2400554, 36.195354899899996 ], [ -115.2400365, 36.195354899899996 ], [ -115.2400365, 36.1953521999 ], [ -115.2400176, 36.1953521999 ], [ -115.2400176, 36.195349499899997 ], [ -115.2400149, 36.195349499899997 ], [ -115.2400149, 36.195209099899998 ], [ -115.2400176, 36.195209099899998 ], [ -115.2400176, 36.195157799899995 ], [ -115.240077, 36.195157799899995 ], [ -115.240077, 36.195160499899998 ], [ -115.2400824, 36.195160499899998 ], [ -115.2400824, 36.195157799899995 ], [ -115.2401067, 36.195157799899995 ], [ -115.2401067, 36.195160499899998 ], [ -115.2401202, 36.195160499899998 ], [ -115.2401202, 36.195163199899994 ], [ -115.2401256, 36.195163199899994 ], [ -115.2401256, 36.195227999899998 ], [ -115.2401229, 36.195227999899998 ], [ -115.2401229, 36.195314399899999 ], [ -115.2401094, 36.195314399899999 ], [ -115.2401094, 36.195317099899995 ], [ -115.2400986, 36.195317099899995 ], [ -115.2400986, 36.195338699899999 ], [ -115.2400959, 36.195338699899999 ], [ -115.2400959, 36.195349499899997 ], [ -115.2400932, 36.195349499899997 ], [ -115.2400932, 36.1953521999 ], [ -115.2400554, 36.1953521999 ], [ -115.2400554, 36.195354899899996 ] ] ] } },
{ "type": "Feature", "properties": { "value": 255.0 }, "geometry": { "type": "Polygon", "coordinates": [ [ [ -115.2395343, 36.195341399899995 ], [ -115.2395289, 36.195341399899995 ], [ -115.2395289, 36.195338699899999 ], [ -115.23951, 36.195338699899999 ], [ -115.23951, 36.195335999899996 ], [ -115.2395046, 36.195335999899996 ], [ -115.2395046, 36.195276599899998 ], [ -115.2395019, 36.195276599899998 ], [ -115.2395019, 36.195209099899998 ], [ -115.2395046, 36.195209099899998 ], [ -115.2395046, 36.195184799899998 ], [ -115.2395073, 36.195184799899998 ], [ -115.2395073, 36.195179399899999 ], [ -115.23951, 36.195179399899999 ], [ -115.23951, 36.195168599900001 ], [ -115.2395127, 36.195168599900001 ], [ -115.2395127, 36.195157799899995 ], [ -115.2395208, 36.195157799899995 ], [ -115.2395208, 36.195155099899999 ], [ -115.2396018, 36.195155099899999 ], [ -115.2396018, 36.195157799899995 ], [ -115.2396045, 36.195157799899995 ], [ -115.2396045, 36.195184799899998 ], [ -115.2396072, 36.195184799899998 ], [ -115.2396072, 36.195187499899994 ], [ -115.2396099, 36.195187499899994 ], [ -115.2396099, 36.195227999899998 ], [ -115.2396072, 36.195227999899998 ], [ -115.2396072, 36.195252299899998 ], [ -115.2396045, 36.195252299899998 ], [ -115.2396045, 36.195290099899999 ], [ -115.2395991, 36.195290099899999 ], [ -115.2395991, 36.195292799899995 ], [ -115.2395937, 36.195292799899995 ], [ -115.2395937, 36.195295499899999 ], [ -115.239591, 36.195295499899999 ], [ -115.239591, 36.195298199899995 ], [ -115.2395883, 36.195298199899995 ], [ -115.2395883, 36.195303599900001 ], [ -115.2395856, 36.195303599900001 ], [ -115.2395856, 36.195306299899997 ], [ -115.2395883, 36.195306299899997 ], [ -115.2395883, 36.195314399899999 ], [ -115.2395856, 36.195314399899999 ], [ -115.2395856, 36.195330599899997 ], [ -115.2395829, 36.195330599899997 ], [ -115.2395829, 36.1953332999 ], [ -115.2395775, 36.1953332999 ], [ -115.2395775, 36.195335999899996 ], [ -115.2395586, 36.195335999899996 ], [ -115.2395586, 36.195338699899999 ], [ -115.2395343, 36.195338699899999 ], [ -115.2395343, 36.195341399899995 ] ] ] } },
{ "type": "Feature", "properties": { "value": 255.0 }, "geometry": { "type": "Polygon", "coordinates": [ [ [ -115.2391725, 36.195341399899995 ], [ -115.2391482, 36.195341399899995 ], [ -115.2391482, 36.195338699899999 ], [ -115.2391374, 36.195338699899999 ], [ -115.2391374, 36.195341399899995 ], [ -115.2391185, 36.195341399899995 ], [ -115.2391185, 36.195338699899999 ], [ -115.2391158, 36.195338699899999 ], [ -115.2391158, 36.195287399899996 ], [ -115.2391131, 36.195287399899996 ], [ -115.2391131, 36.1952846999 ], [ -115.2391077, 36.1952846999 ], [ -115.2391077, 36.195281999899997 ], [ -115.239105, 36.195281999899997 ], [ -115.239105, 36.195279299899994 ], [ -115.2391023, 36.195279299899994 ], [ -115.2391023, 36.1952657999 ], [ -115.2390996, 36.1952657999 ], [ -115.2390996, 36.195219899899996 ], [ -115.2390969, 36.195219899899996 ], [ -115.2390969, 36.195211799899994 ], [ -115.2390996, 36.195211799899994 ], [ -115.2390996, 36.1951928999 ], [ -115.2390969, 36.1951928999 ], [ -115.2390969, 36.195190199899997 ], [ -115.2390996, 36.195190199899997 ], [ -115.2390996, 36.195171299899997 ], [ -115.2391104, 36.195171299899997 ], [ -115.2391104, 36.195168599900001 ], [ -115.2391185, 36.195168599900001 ], [ -115.2391185, 36.195171299899997 ], [ -115.2392049, 36.195171299899997 ], [ -115.2392049, 36.195184799899998 ], [ -115.2392076, 36.195184799899998 ], [ -115.2392076, 36.195198299899999 ], [ -115.2392049, 36.195198299899999 ], [ -115.2392049, 36.195227999899998 ], [ -115.2392022, 36.195227999899998 ], [ -115.2392022, 36.195233399899998 ], [ -115.2392049, 36.195233399899998 ], [ -115.2392049, 36.1952414999 ], [ -115.2392022, 36.1952414999 ], [ -115.2392022, 36.195252299899998 ], [ -115.2392049, 36.195252299899998 ], [ -115.2392049, 36.195335999899996 ], [ -115.2392022, 36.195335999899996 ], [ -115.2392022, 36.195338699899999 ], [ -115.2391725, 36.195338699899999 ], [ -115.2391725, 36.195341399899995 ] ] ] } },
{ "type": "Feature", "properties": { "value": 255.0 }, "geometry": { "type": "Polygon", "coordinates": [ [ [ -115.2405441, 36.195254999899994 ], [ -115.2404523, 36.195254999899994 ], [ -115.2404523, 36.195252299899998 ], [ -115.2404199, 36.195252299899998 ], [ -115.2404199, 36.195254999899994 ], [ -115.2404037, 36.195254999899994 ], [ -115.2404037, 36.195252299899998 ], [ -115.2403983, 36.195252299899998 ], [ -115.2403983, 36.195249599899995 ], [ -115.2403956, 36.195249599899995 ], [ -115.2403956, 36.1952414999 ], [ -115.2403929, 36.1952414999 ], [ -115.2403929, 36.195236099900001 ], [ -115.2403875, 36.195236099900001 ], [ -115.2403875, 36.195233399899998 ], [ -115.2403686, 36.195233399899998 ], [ -115.2403686, 36.195236099900001 ], [ -115.2403632, 36.195236099900001 ], [ -115.2403632, 36.195233399899998 ], [ -115.2403605, 36.195233399899998 ], [ -115.2403605, 36.195230699899994 ], [ -115.2403578, 36.195230699899994 ], [ -115.2403578, 36.195222599899999 ], [ -115.2403605, 36.195222599899999 ], [ -115.2403605, 36.195184799899998 ], [ -115.2403632, 36.195184799899998 ], [ -115.2403632, 36.195179399899999 ], [ -115.2403686, 36.195179399899999 ], [ -115.2403686, 36.195176699899996 ], [ -115.2403767, 36.195176699899996 ], [ -115.2403767, 36.1951739999 ], [ -115.2403902, 36.1951739999 ], [ -115.2403902, 36.195171299899997 ], [ -115.2403956, 36.195171299899997 ], [ -115.2403956, 36.195168599900001 ], [ -115.2404415, 36.195168599900001 ], [ -115.2404415, 36.195165899899997 ], [ -115.240455, 36.195165899899997 ], [ -115.240455, 36.195168599900001 ], [ -115.2405063, 36.195168599900001 ], [ -115.2405063, 36.195171299899997 ], [ -115.2405279, 36.195171299899997 ], [ -115.2405279, 36.1951739999 ], [ -115.2405306, 36.1951739999 ], [ -115.2405306, 36.195176699899996 ], [ -115.2405333, 36.195176699899996 ], [ -115.2405333, 36.195179399899999 ], [ -115.2405522, 36.195179399899999 ], [ -115.2405522, 36.195182099899995 ], [ -115.2405738, 36.195182099899995 ], [ -115.2405738, 36.195179399899999 ], [ -115.2405846, 36.195179399899999 ], [ -115.2405846, 36.195182099899995 ], [ -115.24059, 36.195182099899995 ], [ -115.24059, 36.195184799899998 ], [ -115.2405927, 36.195184799899998 ], [ -115.2405927, 36.195187499899994 ], [ -115.2405954, 36.195187499899994 ], [ -115.2405954, 36.195195599899996 ], [ -115.2405927, 36.195195599899996 ], [ -115.2405927, 36.195222599899999 ], [ -115.24059, 36.195222599899999 ], [ -115.24059, 36.195233399899998 ], [ -115.2405873, 36.195233399899998 ], [ -115.2405873, 36.1952414999 ], [ -115.2405846, 36.1952414999 ], [ -115.2405846, 36.195244199899996 ], [ -115.2405819, 36.195244199899996 ], [ -115.2405819, 36.195246899899999 ], [ -115.2405495, 36.195246899899999 ], [ -115.2405495, 36.195249599899995 ], [ -115.2405468, 36.195249599899995 ], [ -115.2405468, 36.195252299899998 ], [ -115.2405441, 36.195252299899998 ], [ -115.2405441, 36.195254999899994 ] ] ] } },
{ "type": "Feature", "properties": { "value": 255.0 }, "geometry": { "type": "Polygon", "coordinates": [ [ [ -115.2402363, 36.195354899899996 ], [ -115.2401742, 36.195354899899996 ], [ -115.2401742, 36.1953521999 ], [ -115.2401715, 36.1953521999 ], [ -115.2401715, 36.195311699899996 ], [ -115.2401742, 36.195311699899996 ], [ -115.2401742, 36.195300899899998 ], [ -115.2401715, 36.195300899899998 ], [ -115.2401715, 36.195298199899995 ], [ -115.2401634, 36.195298199899995 ], [ -115.2401634, 36.195295499899999 ], [ -115.240158, 36.195295499899999 ], [ -115.240158, 36.1952846999 ], [ -115.2401553, 36.1952846999 ], [ -115.2401553, 36.195211799899994 ], [ -115.2401526, 36.195211799899994 ], [ -115.2401526, 36.195184799899998 ], [ -115.2401553, 36.195184799899998 ], [ -115.2401553, 36.195182099899995 ], [ -115.2401634, 36.195182099899995 ], [ -115.2401634, 36.195179399899999 ], [ -115.2401742, 36.195179399899999 ], [ -115.2401742, 36.195176699899996 ], [ -115.2401769, 36.195176699899996 ], [ -115.2401769, 36.195168599900001 ], [ -115.2401796, 36.195168599900001 ], [ -115.2401796, 36.195165899899997 ], [ -115.2402012, 36.195165899899997 ], [ -115.2402012, 36.195163199899994 ], [ -115.2402417, 36.195163199899994 ], [ -115.2402417, 36.195168599900001 ], [ -115.2402444, 36.195168599900001 ], [ -115.2402444, 36.1951739999 ], [ -115.2402417, 36.1951739999 ], [ -115.2402417, 36.195176699899996 ], [ -115.2402444, 36.195176699899996 ], [ -115.2402444, 36.195182099899995 ], [ -115.2402498, 36.195182099899995 ], [ -115.2402498, 36.195184799899998 ], [ -115.2402579, 36.195184799899998 ], [ -115.2402579, 36.195187499899994 ], [ -115.2402606, 36.195187499899994 ], [ -115.2402606, 36.195195599899996 ], [ -115.2402633, 36.195195599899996 ], [ -115.2402633, 36.195238799899997 ], [ -115.2402606, 36.195238799899997 ], [ -115.2402606, 36.195327899900001 ], [ -115.2402579, 36.195327899900001 ], [ -115.2402579, 36.195330599899997 ], [ -115.2402606, 36.195330599899997 ], [ -115.2402606, 36.195349499899997 ], [ -115.2402579, 36.195349499899997 ], [ -115.2402579, 36.1953521999 ], [ -115.2402363, 36.1953521999 ], [ -115.2402363, 36.195354899899996 ] ] ] } },
{ "type": "Feature", "properties": { "value": 255.0 }, "geometry": { "type": "Polygon", "coordinates": [ [ [ -115.240536, 36.195133499899995 ], [ -115.2403929, 36.195133499899995 ], [ -115.2403929, 36.195130799899999 ], [ -115.2403767, 36.195130799899999 ], [ -115.2403767, 36.195128099899996 ], [ -115.2403713, 36.195128099899996 ], [ -115.2403713, 36.1951253999 ], [ -115.2403686, 36.1951253999 ], [ -115.2403686, 36.195119999899994 ], [ -115.2403659, 36.195119999899994 ], [ -115.2403659, 36.195111899899999 ], [ -115.2403632, 36.195111899899999 ], [ -115.2403632, 36.195109199899996 ], [ -115.2403659, 36.195109199899996 ], [ -115.2403659, 36.195098399899997 ], [ -115.2403632, 36.195098399899997 ], [ -115.2403632, 36.195090299899995 ], [ -115.2403659, 36.195090299899995 ], [ -115.2403659, 36.1950821999 ], [ -115.2403686, 36.1950821999 ], [ -115.2403686, 36.195068699899998 ], [ -115.2403659, 36.195068699899998 ], [ -115.2403659, 36.195063299899999 ], [ -115.2403686, 36.195063299899999 ], [ -115.2403686, 36.195049799899998 ], [ -115.2403713, 36.195049799899998 ], [ -115.2403713, 36.195047099899995 ], [ -115.240374, 36.195047099899995 ], [ -115.240374, 36.195044399899999 ], [ -115.2404064, 36.195044399899999 ], [ -115.2404064, 36.195047099899995 ], [ -115.2404712, 36.195047099899995 ], [ -115.2404712, 36.195044399899999 ], [ -115.2404847, 36.195044399899999 ], [ -115.2404847, 36.195047099899995 ], [ -115.2404901, 36.195047099899995 ], [ -115.2404901, 36.195044399899999 ], [ -115.2405792, 36.195044399899999 ], [ -115.2405792, 36.195047099899995 ], [ -115.2405846, 36.195047099899995 ], [ -115.2405846, 36.195052499899994 ], [ -115.2405873, 36.195052499899994 ], [ -115.2405873, 36.195055199899997 ], [ -115.2405846, 36.195055199899997 ], [ -115.2405846, 36.195068699899998 ], [ -115.2405873, 36.195068699899998 ], [ -115.2405873, 36.195103799899996 ], [ -115.2405846, 36.195103799899996 ], [ -115.2405846, 36.195109199899996 ], [ -115.2405819, 36.195109199899996 ], [ -115.2405819, 36.195111899899999 ], [ -115.2405414, 36.195111899899999 ], [ -115.2405414, 36.195117299899998 ], [ -115.2405387, 36.195117299899998 ], [ -115.2405387, 36.195130799899999 ], [ -115.240536, 36.195130799899999 ], [ -115.240536, 36.195133499899995 ] ] ] } },
{ "type": "Feature", "properties": { "value": 255.0 }, "geometry": { "type": "Polygon", "coordinates": [ [ [ -115.2401418, 36.1951010999 ], [ -115.2401094, 36.1951010999 ], [ -115.2401094, 36.195098399899997 ], [ -115.2401067, 36.195098399899997 ], [ -115.2401067, 36.1951010999 ], [ -115.2400014, 36.1951010999 ], [ -115.2400014, 36.195098399899997 ], [ -115.2399933, 36.195098399899997 ], [ -115.2399933, 36.195095699899994 ], [ -115.2399528, 36.195095699899994 ], [ -115.2399528, 36.195092999899998 ], [ -115.2399501, 36.195092999899998 ], [ -115.2399501, 36.195087599899999 ], [ -115.2399474, 36.195087599899999 ], [ -115.2399474, 36.195047099899995 ], [ -115.2399501, 36.195047099899995 ], [ -115.2399501, 36.195028199899994 ], [ -115.2399528, 36.195028199899994 ], [ -115.2399528, 36.195025499899998 ], [ -115.2399609, 36.195025499899998 ], [ -115.2399609, 36.195022799899995 ], [ -115.2399744, 36.195022799899995 ], [ -115.2399744, 36.195020099899999 ], [ -115.2399771, 36.195020099899999 ], [ -115.2399771, 36.195022799899995 ], [ -115.2399852, 36.195022799899995 ], [ -115.2399852, 36.195020099899999 ], [ -115.239996, 36.195020099899999 ], [ -115.239996, 36.195017399899996 ], [ -115.2400338, 36.195017399899996 ], [ -115.2400338, 36.1950146999 ], [ -115.2401229, 36.1950146999 ], [ -115.2401229, 36.195017399899996 ], [ -115.2401391, 36.195017399899996 ], [ -115.2401391, 36.195020099899999 ], [ -115.2401418, 36.195020099899999 ], [ -115.2401418, 36.195022799899995 ], [ -115.2401445, 36.195022799899995 ], [ -115.2401445, 36.195098399899997 ], [ -115.2401418, 36.195098399899997 ], [ -115.2401418, 36.1951010999 ] ] ] } },
{ "type": "Feature", "properties": { "value": 255.0 }, "geometry": { "type": "Polygon", "coordinates": [ [ [ -115.2390888, 36.195087599899999 ], [ -115.2390726, 36.195087599899999 ], [ -115.2390726, 36.195001199899998 ], [ -115.2390807, 36.195001199899998 ], [ -115.2390807, 36.195003899899994 ], [ -115.2390861, 36.195003899899994 ], [ -115.2390861, 36.195006599899997 ], [ -115.2390888, 36.195006599899997 ], [ -115.2390888, 36.195009299899993 ], [ -115.2390915, 36.195009299899993 ], [ -115.2390915, 36.195025499899998 ], [ -115.2390942, 36.195025499899998 ], [ -115.2390942, 36.1950389999 ], [ -115.2390915, 36.1950389999 ], [ -115.2390915, 36.195068699899998 ], [ -115.2390942, 36.195068699899998 ], [ -115.2390942, 36.195074099899998 ], [ -115.2390915, 36.195074099899998 ], [ -115.2390915, 36.195084899899996 ], [ -115.2390888, 36.195084899899996 ], [ -115.2390888, 36.195087599899999 ] ] ] } },
{ "type": "Feature", "properties": { "value": 255.0 }, "geometry": { "type": "Polygon", "coordinates": [ [ [ -115.2395208, 36.195095699899994 ], [ -115.239429, 36.195095699899994 ], [ -115.239429, 36.195092999899998 ], [ -115.2393885, 36.195092999899998 ], [ -115.2393885, 36.195095699899994 ], [ -115.2393723, 36.195095699899994 ], [ -115.2393723, 36.195092999899998 ], [ -115.2393696, 36.195092999899998 ], [ -115.2393696, 36.195090299899995 ], [ -115.2393669, 36.195090299899995 ], [ -115.2393669, 36.195011999899997 ], [ -115.2393696, 36.195011999899997 ], [ -115.2393696, 36.195009299899993 ], [ -115.2394614, 36.195009299899993 ], [ -115.2394614, 36.195011999899997 ], [ -115.2394992, 36.195011999899997 ], [ -115.2394992, 36.1950146999 ], [ -115.2395046, 36.1950146999 ], [ -115.2395046, 36.195017399899996 ], [ -115.2395127, 36.195017399899996 ], [ -115.2395127, 36.195020099899999 ], [ -115.2395262, 36.195020099899999 ], [ -115.2395262, 36.195022799899995 ], [ -115.2395559, 36.195022799899995 ], [ -115.2395559, 36.195025499899998 ], [ -115.2395613, 36.195025499899998 ], [ -115.2395613, 36.195030899899997 ], [ -115.239564, 36.195030899899997 ], [ -115.239564, 36.195036299899996 ], [ -115.2395613, 36.195036299899996 ], [ -115.2395613, 36.195052499899994 ], [ -115.239564, 36.195052499899994 ], [ -115.239564, 36.195074099899998 ], [ -115.2395613, 36.195074099899998 ], [ -115.2395613, 36.1950821999 ], [ -115.2395586, 36.1950821999 ], [ -115.2395586, 36.195087599899999 ], [ -115.2395559, 36.195087599899999 ], [ -115.2395559, 36.195090299899995 ], [ -115.2395262, 36.195090299899995 ], [ -115.2395262, 36.195092999899998 ], [ -115.2395208, 36.195092999899998 ], [ -115.2395208, 36.195095699899994 ] ] ] } },
{ "type": "Feature", "properties": { "value": 255.0 }, "geometry": { "type": "Polygon", "coordinates": [ [ [ -115.2392913, 36.1950335999 ], [ -115.239267, 36.1950335999 ], [ -115.239267, 36.195030899899997 ], [ -115.2392643, 36.195030899899997 ], [ -115.2392643, 36.195028199899994 ], [ -115.2392616, 36.195028199899994 ], [ -115.2392616, 36.195017399899996 ], [ -115.2392589, 36.195017399899996 ], [ -115.2392589, 36.195011999899997 ], [ -115.2392616, 36.195011999899997 ], [ -115.2392616, 36.195006599899997 ], [ -115.2392643, 36.195006599899997 ], [ -115.2392643, 36.195003899899994 ], [ -115.239267, 36.195003899899994 ], [ -115.239267, 36.195001199899998 ], [ -115.2392697, 36.195001199899998 ], [ -115.2392697, 36.195003899899994 ], [ -115.2392751, 36.195003899899994 ], [ -115.2392751, 36.195001199899998 ], [ -115.2392913, 36.195001199899998 ], [ -115.2392913, 36.195003899899994 ], [ -115.239294, 36.195003899899994 ], [ -115.239294, 36.195009299899993 ], [ -115.2392967, 36.195009299899993 ], [ -115.2392967, 36.195028199899994 ], [ -115.239294, 36.195028199899994 ], [ -115.239294, 36.195030899899997 ], [ -115.2392913, 36.195030899899997 ], [ -115.2392913, 36.1950335999 ] ] ] } },
{ "type": "Feature", "properties": { "value": 255.0 }, "geometry": { "type": "Polygon", "coordinates": [ [ [ -115.240482, 36.195025499899998 ], [ -115.2404199, 36.195025499899998 ], [ -115.2404199, 36.195022799899995 ], [ -115.240374, 36.195022799899995 ], [ -115.240374, 36.195020099899999 ], [ -115.2403686, 36.195020099899999 ], [ -115.2403686, 36.195017399899996 ], [ -115.2403659, 36.195017399899996 ], [ -115.2403659, 36.1950146999 ], [ -115.2403632, 36.1950146999 ], [ -115.2403632, 36.195017399899996 ], [ -115.2403416, 36.195017399899996 ], [ -115.2403416, 36.195009299899993 ], [ -115.2403389, 36.195009299899993 ], [ -115.2403389, 36.194987699899997 ], [ -115.2405846, 36.194987699899997 ], [ -115.2405846, 36.195011999899997 ], [ -115.2405819, 36.195011999899997 ], [ -115.2405819, 36.195020099899999 ], [ -115.2405792, 36.195020099899999 ], [ -115.2405792, 36.195022799899995 ], [ -115.240482, 36.195022799899995 ], [ -115.240482, 36.195025499899998 ] ] ] } }
]
}
