{
"type": "FeatureCollection",
"crs": { "type": "name", "properties": { "name": "urn:ogc:def:crs:OGC:1.3:CRS84" } },
"features": [
{ "type": "Feature", "properties": { "value": 255.0 }, "geometry": { "type": "Polygon", "coordinates": [ [ [ -115.1803422, 36.222913799899999 ], [ -115.1803071, 36.222913799899999 ], [ -115.1803071, 36.222911099900003 ], [ -115.1803017, 36.222911099900003 ], [ -115.1803017, 36.2229083999 ], [ -115.1802747, 36.2229083999 ], [ -115.1802747, 36.222905699899997 ], [ -115.1802612, 36.222905699899997 ], [ -115.1802612, 36.2229083999 ], [ -115.1802531, 36.2229083999 ], [ -115.1802531, 36.222905699899997 ], [ -115.1802423, 36.222905699899997 ], [ -115.1802423, 36.2229083999 ], [ -115.180191, 36.2229083999 ], [ -115.180191, 36.222905699899997 ], [ -115.1801883, 36.222905699899997 ], [ -115.1801883, 36.222900299899997 ], [ -115.1801856, 36.222900299899997 ], [ -115.1801856, 36.2228840999 ], [ -115.1801829, 36.2228840999 ], [ -115.1801829, 36.222843599900003 ], [ -115.1801775, 36.222843599900003 ], [ -115.1801775, 36.2228408999 ], [ -115.1801397, 36.2228408999 ], [ -115.1801397, 36.222838199899996 ], [ -115.180137, 36.222838199899996 ], [ -115.180137, 36.222832799899997 ], [ -115.1801397, 36.222832799899997 ], [ -115.1801397, 36.222813899899997 ], [ -115.180137, 36.222813899899997 ], [ -115.180137, 36.222797699899999 ], [ -115.1801343, 36.222797699899999 ], [ -115.1801343, 36.222786899900001 ], [ -115.180137, 36.222786899900001 ], [ -115.180137, 36.222784199899998 ], [ -115.1801829, 36.222784199899998 ], [ -115.1801829, 36.222781499900002 ], [ -115.1802234, 36.222781499900002 ], [ -115.1802234, 36.222784199899998 ], [ -115.1802288, 36.222784199899998 ], [ -115.1802288, 36.222786899900001 ], [ -115.1802423, 36.222786899900001 ], [ -115.1802423, 36.222789599899997 ], [ -115.180245, 36.222789599899997 ], [ -115.180245, 36.2227922999 ], [ -115.18024770000001, 36.2227922999 ], [ -115.18024770000001, 36.222797699899999 ], [ -115.1802504, 36.222797699899999 ], [ -115.1802504, 36.222800399900002 ], [ -115.1802531, 36.222800399900002 ], [ -115.1802531, 36.222803099899998 ], [ -115.1802558, 36.222803099899998 ], [ -115.1802558, 36.222808499899998 ], [ -115.1802585, 36.222808499899998 ], [ -115.1802585, 36.222811199900001 ], [ -115.1802828, 36.222811199900001 ], [ -115.1802828, 36.222808499899998 ], [ -115.1803233, 36.222808499899998 ], [ -115.1803233, 36.222811199900001 ], [ -115.180326, 36.222811199900001 ], [ -115.180326, 36.222808499899998 ], [ -115.18033410000001, 36.222808499899998 ], [ -115.18033410000001, 36.222811199900001 ], [ -115.1803395, 36.222811199900001 ], [ -115.1803395, 36.222854399900001 ], [ -115.1803422, 36.222854399900001 ], [ -115.1803422, 36.222913799899999 ] ] ] } },
{ "type": "Feature", "properties": { "value": 255.0 }, "geometry": { "type": "Polygon", "coordinates": [ [ [ -115.1800506, 36.222921899900001 ], [ -115.1800074, 36.222921899900001 ], [ -115.1800074, 36.222919199899998 ], [ -115.180002, 36.222919199899998 ], [ -115.180002, 36.222913799899999 ], [ -115.1799993, 36.222913799899999 ], [ -115.1799993, 36.222878699900001 ], [ -115.17999660000001, 36.222878699900001 ], [ -115.17999660000001, 36.222821999899999 ], [ -115.1799939, 36.222821999899999 ], [ -115.1799939, 36.2227922999 ], [ -115.17999660000001, 36.2227922999 ], [ -115.17999660000001, 36.222776099900003 ], [ -115.1799939, 36.222776099900003 ], [ -115.1799939, 36.222773399899999 ], [ -115.1799588, 36.222773399899999 ], [ -115.1799588, 36.222770699899996 ], [ -115.1799534, 36.222770699899996 ], [ -115.1799534, 36.2227679999 ], [ -115.1799507, 36.2227679999 ], [ -115.1799507, 36.222716699899998 ], [ -115.1799534, 36.222716699899998 ], [ -115.1799534, 36.222713999900002 ], [ -115.1799885, 36.222713999900002 ], [ -115.1799885, 36.222711299899998 ], [ -115.1800452, 36.222711299899998 ], [ -115.1800452, 36.222708599900002 ], [ -115.1800506, 36.222708599900002 ], [ -115.1800506, 36.222711299899998 ], [ -115.180056, 36.222711299899998 ], [ -115.180056, 36.222738299900001 ], [ -115.1800587, 36.222738299900001 ], [ -115.1800587, 36.222751799899996 ], [ -115.1800614, 36.222751799899996 ], [ -115.1800614, 36.222754499899999 ], [ -115.1800668, 36.222754499899999 ], [ -115.1800668, 36.222751799899996 ], [ -115.1800695, 36.222751799899996 ], [ -115.1800695, 36.2227490999 ], [ -115.1800749, 36.2227490999 ], [ -115.1800749, 36.222754499899999 ], [ -115.1800803, 36.222754499899999 ], [ -115.1800803, 36.222751799899996 ], [ -115.1800938, 36.222751799899996 ], [ -115.1800938, 36.222757199900002 ], [ -115.1800965, 36.222757199900002 ], [ -115.1800965, 36.222762599900001 ], [ -115.1800992, 36.222762599900001 ], [ -115.1800992, 36.222776099900003 ], [ -115.180101900000011, 36.222776099900003 ], [ -115.180101900000011, 36.222789599899997 ], [ -115.1801046, 36.222789599899997 ], [ -115.1801046, 36.2228840999 ], [ -115.180101900000011, 36.2228840999 ], [ -115.180101900000011, 36.222900299899997 ], [ -115.1800992, 36.222900299899997 ], [ -115.1800992, 36.222916499900002 ], [ -115.1800965, 36.222916499900002 ], [ -115.1800965, 36.222919199899998 ], [ -115.1800506, 36.222919199899998 ], [ -115.1800506, 36.222921899900001 ] ] ] } },
{ "type": "Feature", "properties": { "value": 255.0 }, "geometry": { "type": "Polygon", "coordinates": [ [ [ -115.1807499, 36.222889499899999 ], [ -115.18065270000001, 36.222889499899999 ], [ -115.18065270000001, 36.2228840999 ], [ -115.18065, 36.2228840999 ], [ -115.18065, 36.222838199899996 ], [ -115.18065270000001, 36.222838199899996 ], [ -115.18065270000001, 36.2228165999 ], [ -115.18065, 36.2228165999 ], [ -115.18065, 36.222805799900001 ], [ -115.1806473, 36.222805799900001 ], [ -115.1806473, 36.222778799899999 ], [ -115.18065, 36.222778799899999 ], [ -115.18065, 36.222776099900003 ], [ -115.1806878, 36.222776099900003 ], [ -115.1806878, 36.222773399899999 ], [ -115.180690500000011, 36.222773399899999 ], [ -115.180690500000011, 36.222770699899996 ], [ -115.1806932, 36.222770699899996 ], [ -115.1806932, 36.222759899899998 ], [ -115.18070130000001, 36.222759899899998 ], [ -115.18070130000001, 36.222757199900002 ], [ -115.180709400000012, 36.222757199900002 ], [ -115.180709400000012, 36.222746399899997 ], [ -115.1807121, 36.222746399899997 ], [ -115.1807121, 36.2227247999 ], [ -115.1807148, 36.2227247999 ], [ -115.1807148, 36.222722099899997 ], [ -115.1807607, 36.222722099899997 ], [ -115.1807607, 36.2227247999 ], [ -115.180785, 36.2227247999 ], [ -115.180785, 36.222722099899997 ], [ -115.1807931, 36.222722099899997 ], [ -115.1807931, 36.2227247999 ], [ -115.1807958, 36.2227247999 ], [ -115.1807958, 36.222730199899999 ], [ -115.1807985, 36.222730199899999 ], [ -115.1807985, 36.222776099900003 ], [ -115.1807958, 36.222776099900003 ], [ -115.1807958, 36.222778799899999 ], [ -115.1807904, 36.222778799899999 ], [ -115.1807904, 36.222781499900002 ], [ -115.1807607, 36.222781499900002 ], [ -115.1807607, 36.222784199899998 ], [ -115.1807553, 36.222784199899998 ], [ -115.1807553, 36.222786899900001 ], [ -115.1807526, 36.222786899900001 ], [ -115.1807526, 36.222846299899999 ], [ -115.1807499, 36.222846299899999 ], [ -115.1807499, 36.222854399900001 ], [ -115.1807526, 36.222854399900001 ], [ -115.1807526, 36.222875999899998 ], [ -115.1807499, 36.222875999899998 ], [ -115.1807499, 36.222889499899999 ] ] ] } },
{ "type": "Feature", "properties": { "value": 255.0 }, "geometry": { "type": "Polygon", "coordinates": [ [ [ -115.1804799, 36.222900299899997 ], [ -115.1804313, 36.222900299899997 ], [ -115.1804313, 36.222897599900001 ], [ -115.1804232, 36.222897599900001 ], [ -115.1804232, 36.222894899899998 ], [ -115.180420500000011, 36.222894899899998 ], [ -115.180420500000011, 36.222892199900002 ], [ -115.1804178, 36.222892199900002 ], [ -115.1804178, 36.222881399899997 ], [ -115.1804151, 36.222881399899997 ], [ -115.1804151, 36.222867899900002 ], [ -115.1804178, 36.222867899900002 ], [ -115.1804178, 36.222848999900002 ], [ -115.1804151, 36.222848999900002 ], [ -115.1804151, 36.222838199899996 ], [ -115.1804178, 36.222838199899996 ], [ -115.1804178, 36.222819299899996 ], [ -115.1804151, 36.222819299899996 ], [ -115.1804151, 36.222797699899999 ], [ -115.1804124, 36.222797699899999 ], [ -115.1804124, 36.222773399899999 ], [ -115.1804151, 36.222773399899999 ], [ -115.1804151, 36.222765299899997 ], [ -115.1804178, 36.222765299899997 ], [ -115.1804178, 36.222762599900001 ], [ -115.1804313, 36.222762599900001 ], [ -115.1804313, 36.222759899899998 ], [ -115.1804421, 36.222759899899998 ], [ -115.1804421, 36.222762599900001 ], [ -115.1804529, 36.222762599900001 ], [ -115.1804529, 36.222759899899998 ], [ -115.1804583, 36.222759899899998 ], [ -115.1804583, 36.2227247999 ], [ -115.1805609, 36.2227247999 ], [ -115.1805609, 36.222727499899996 ], [ -115.1805636, 36.222727499899996 ], [ -115.1805636, 36.2227679999 ], [ -115.18056630000001, 36.2227679999 ], [ -115.18056630000001, 36.222773399899999 ], [ -115.1805636, 36.222773399899999 ], [ -115.1805636, 36.222781499900002 ], [ -115.1805339, 36.222781499900002 ], [ -115.1805339, 36.222784199899998 ], [ -115.1805258, 36.222784199899998 ], [ -115.1805258, 36.222827399899998 ], [ -115.1805231, 36.222827399899998 ], [ -115.1805231, 36.2228354999 ], [ -115.1805258, 36.2228354999 ], [ -115.1805258, 36.222897599900001 ], [ -115.1804799, 36.222897599900001 ], [ -115.1804799, 36.222900299899997 ] ] ] } },
{ "type": "Feature", "properties": { "value": 255.0 }, "geometry": { "type": "Polygon", "coordinates": [ [ [ -115.1809389, 36.2229272999 ], [ -115.1808768, 36.2229272999 ], [ -115.1808768, 36.222924599899997 ], [ -115.180874100000011, 36.222924599899997 ], [ -115.180874100000011, 36.222897599900001 ], [ -115.1808714, 36.222897599900001 ], [ -115.1808714, 36.222892199900002 ], [ -115.1808687, 36.222892199900002 ], [ -115.1808687, 36.222800399900002 ], [ -115.1808714, 36.222800399900002 ], [ -115.1808714, 36.222789599899997 ], [ -115.180874100000011, 36.222789599899997 ], [ -115.180874100000011, 36.222786899900001 ], [ -115.1808714, 36.222786899900001 ], [ -115.1808714, 36.222784199899998 ], [ -115.1808687, 36.222784199899998 ], [ -115.1808687, 36.222781499900002 ], [ -115.1808417, 36.222781499900002 ], [ -115.1808417, 36.222778799899999 ], [ -115.1808309, 36.222778799899999 ], [ -115.1808309, 36.222776099900003 ], [ -115.1808282, 36.222776099900003 ], [ -115.1808282, 36.222722099899997 ], [ -115.1808822, 36.222722099899997 ], [ -115.1808822, 36.222719399900001 ], [ -115.1809308, 36.222719399900001 ], [ -115.1809308, 36.222722099899997 ], [ -115.1809335, 36.222722099899997 ], [ -115.1809335, 36.222743699900001 ], [ -115.1809362, 36.222743699900001 ], [ -115.1809362, 36.222757199900002 ], [ -115.1809389, 36.222757199900002 ], [ -115.1809389, 36.222759899899998 ], [ -115.1809443, 36.222759899899998 ], [ -115.1809443, 36.222757199900002 ], [ -115.1809632, 36.222757199900002 ], [ -115.1809632, 36.222759899899998 ], [ -115.1809686, 36.222759899899998 ], [ -115.1809686, 36.222762599900001 ], [ -115.18097130000001, 36.222762599900001 ], [ -115.18097130000001, 36.222765299899997 ], [ -115.1809632, 36.222765299899997 ], [ -115.1809632, 36.2227679999 ], [ -115.1809659, 36.2227679999 ], [ -115.1809659, 36.222773399899999 ], [ -115.1809632, 36.222773399899999 ], [ -115.1809632, 36.222789599899997 ], [ -115.1809686, 36.222789599899997 ], [ -115.1809686, 36.2227922999 ], [ -115.1809767, 36.2227922999 ], [ -115.1809767, 36.222805799900001 ], [ -115.180979400000012, 36.222805799900001 ], [ -115.180979400000012, 36.222889499899999 ], [ -115.1809767, 36.222889499899999 ], [ -115.1809767, 36.222894899899998 ], [ -115.180974, 36.222894899899998 ], [ -115.180974, 36.222897599900001 ], [ -115.18097130000001, 36.222897599900001 ], [ -115.18097130000001, 36.222900299899997 ], [ -115.1809686, 36.222900299899997 ], [ -115.1809686, 36.222911099900003 ], [ -115.18097130000001, 36.222911099900003 ], [ -115.18097130000001, 36.222913799899999 ], [ -115.1809686, 36.222913799899999 ], [ -115.1809686, 36.222921899900001 ], [ -115.1809632, 36.222921899900001 ], [ -115.1809632, 36.222924599899997 ], [ -115.1809389, 36.222924599899997 ], [ -115.1809389, 36.2229272999 ] ] ] } },
{ "type": "Feature", "properties": { "value": 255.0 }, "geometry": { "type": "Polygon", "coordinates": [ [ [ -115.1794107, 36.222686999899999 ], [ -115.1794026, 36.222686999899999 ], [ -115.1794026, 36.222533099899998 ], [ -115.179408, 36.222533099899998 ], [ -115.179408, 36.222535799900001 ], [ -115.1794809, 36.222535799900001 ], [ -115.1794809, 36.222538499899997 ], [ -115.1794836, 36.222538499899997 ], [ -115.1794836, 36.222543899899996 ], [ -115.1794863, 36.222543899899996 ], [ -115.1794863, 36.222551999899999 ], [ -115.1794836, 36.222551999899999 ], [ -115.1794836, 36.222573599900002 ], [ -115.1794863, 36.222573599900002 ], [ -115.1794863, 36.222622199900002 ], [ -115.179489, 36.222622199900002 ], [ -115.179489, 36.222662699899999 ], [ -115.1794917, 36.222662699899999 ], [ -115.1794917, 36.222670799900001 ], [ -115.179489, 36.222670799900001 ], [ -115.179489, 36.222678899899996 ], [ -115.1794863, 36.222678899899996 ], [ -115.1794863, 36.2226815999 ], [ -115.1794647, 36.2226815999 ], [ -115.1794647, 36.222684299899996 ], [ -115.1794107, 36.222684299899996 ], [ -115.1794107, 36.222686999899999 ] ] ] } },
{ "type": "Feature", "properties": { "value": 255.0 }, "geometry": { "type": "Polygon", "coordinates": [ [ [ -115.1794107, 36.222427799899997 ], [ -115.1794053, 36.222427799899997 ], [ -115.1794053, 36.222425099900001 ], [ -115.1794026, 36.222425099900001 ], [ -115.1794026, 36.222403499899997 ], [ -115.1794053, 36.222403499899997 ], [ -115.1794053, 36.222400799900001 ], [ -115.1794107, 36.222400799900001 ], [ -115.1794107, 36.222398099899998 ], [ -115.1794188, 36.222398099899998 ], [ -115.1794188, 36.222400799900001 ], [ -115.1794242, 36.222400799900001 ], [ -115.1794242, 36.222398099899998 ], [ -115.17942690000001, 36.222398099899998 ], [ -115.17942690000001, 36.222400799900001 ], [ -115.179435, 36.222400799900001 ], [ -115.179435, 36.222398099899998 ], [ -115.1794431, 36.222398099899998 ], [ -115.1794431, 36.222400799900001 ], [ -115.1794458, 36.222400799900001 ], [ -115.1794458, 36.222408899899996 ], [ -115.1794485, 36.222408899899996 ], [ -115.1794485, 36.222416999899998 ], [ -115.1794458, 36.222416999899998 ], [ -115.1794458, 36.222422399899997 ], [ -115.1794431, 36.222422399899997 ], [ -115.1794431, 36.222425099900001 ], [ -115.1794107, 36.222425099900001 ], [ -115.1794107, 36.222427799899997 ] ] ] } },
{ "type": "Feature", "properties": { "value": 255.0 }, "geometry": { "type": "Polygon", "coordinates": [ [ [ -115.1800236, 36.222514199899997 ], [ -115.1800101, 36.222514199899997 ], [ -115.1800101, 36.222511499900001 ], [ -115.179948, 36.222511499900001 ], [ -115.179948, 36.222508799899998 ], [ -115.1799426, 36.222508799899998 ], [ -115.1799426, 36.222479099899999 ], [ -115.1799399, 36.222479099899999 ], [ -115.1799399, 36.222470999899997 ], [ -115.1799426, 36.222470999899997 ], [ -115.1799426, 36.2224547999 ], [ -115.1799453, 36.2224547999 ], [ -115.1799453, 36.222452099899996 ], [ -115.1799615, 36.222452099899996 ], [ -115.1799615, 36.2224493999 ], [ -115.179966900000011, 36.2224493999 ], [ -115.179966900000011, 36.222452099899996 ], [ -115.1799723, 36.222452099899996 ], [ -115.1799723, 36.2224493999 ], [ -115.1799804, 36.2224493999 ], [ -115.1799804, 36.222368399899999 ], [ -115.1799777, 36.222368399899999 ], [ -115.1799777, 36.222354899899997 ], [ -115.1799804, 36.222354899899997 ], [ -115.1799804, 36.222349499899998 ], [ -115.1799777, 36.222349499899998 ], [ -115.1799777, 36.222344099899999 ], [ -115.1799804, 36.222344099899999 ], [ -115.1799804, 36.2223386999 ], [ -115.1800803, 36.2223386999 ], [ -115.1800803, 36.222341399899996 ], [ -115.1800857, 36.222341399899996 ], [ -115.1800857, 36.2223575999 ], [ -115.1800884, 36.2223575999 ], [ -115.1800884, 36.222470999899997 ], [ -115.1800857, 36.222470999899997 ], [ -115.1800857, 36.2224736999 ], [ -115.1800776, 36.2224736999 ], [ -115.1800776, 36.222476399899996 ], [ -115.1800722, 36.222476399899996 ], [ -115.1800722, 36.222479099899999 ], [ -115.1800614, 36.222479099899999 ], [ -115.1800614, 36.222476399899996 ], [ -115.1800506, 36.222476399899996 ], [ -115.1800506, 36.222479099899999 ], [ -115.1800479, 36.222479099899999 ], [ -115.1800479, 36.222495299899997 ], [ -115.1800452, 36.222495299899997 ], [ -115.1800452, 36.222511499900001 ], [ -115.1800236, 36.222511499900001 ], [ -115.1800236, 36.222514199899997 ] ] ] } },
{ "type": "Feature", "properties": { "value": 255.0 }, "geometry": { "type": "Polygon", "coordinates": [ [ [ -115.1808984, 36.222484499899998 ], [ -115.1808714, 36.222484499899998 ], [ -115.1808714, 36.222481799899995 ], [ -115.1808282, 36.222481799899995 ], [ -115.1808282, 36.222479099899999 ], [ -115.180825500000012, 36.222479099899999 ], [ -115.180825500000012, 36.2224493999 ], [ -115.1808228, 36.2224493999 ], [ -115.1808228, 36.222438599900002 ], [ -115.180825500000012, 36.222438599900002 ], [ -115.180825500000012, 36.2224304999 ], [ -115.1808228, 36.2224304999 ], [ -115.1808228, 36.222427799899997 ], [ -115.180825500000012, 36.222427799899997 ], [ -115.180825500000012, 36.222422399899997 ], [ -115.180866, 36.222422399899997 ], [ -115.180866, 36.222419699900001 ], [ -115.1808687, 36.222419699900001 ], [ -115.1808687, 36.222416999899998 ], [ -115.1808714, 36.222416999899998 ], [ -115.1808714, 36.222414299899995 ], [ -115.1808687, 36.222414299899995 ], [ -115.1808687, 36.2224061999 ], [ -115.1808714, 36.2224061999 ], [ -115.1808714, 36.222341399899996 ], [ -115.180874100000011, 36.222341399899996 ], [ -115.180874100000011, 36.222319799899999 ], [ -115.18090380000001, 36.222319799899999 ], [ -115.18090380000001, 36.222317099899996 ], [ -115.18095240000001, 36.222317099899996 ], [ -115.18095240000001, 36.222319799899999 ], [ -115.1809686, 36.222319799899999 ], [ -115.1809686, 36.222333299900001 ], [ -115.18097130000001, 36.222333299900001 ], [ -115.18097130000001, 36.222344099899999 ], [ -115.180974, 36.222344099899999 ], [ -115.180974, 36.222352199900001 ], [ -115.1809767, 36.222352199900001 ], [ -115.1809767, 36.222368399899999 ], [ -115.180979400000012, 36.222368399899999 ], [ -115.180979400000012, 36.222392699899999 ], [ -115.1809821, 36.222392699899999 ], [ -115.1809821, 36.222433199899996 ], [ -115.180979400000012, 36.222433199899996 ], [ -115.180979400000012, 36.2224493999 ], [ -115.1809767, 36.2224493999 ], [ -115.1809767, 36.222452099899996 ], [ -115.1809659, 36.222452099899996 ], [ -115.1809659, 36.2224547999 ], [ -115.180960500000012, 36.2224547999 ], [ -115.180960500000012, 36.222452099899996 ], [ -115.18092, 36.222452099899996 ], [ -115.18092, 36.2224547999 ], [ -115.1809173, 36.2224547999 ], [ -115.1809173, 36.222468299900001 ], [ -115.1809146, 36.222468299900001 ], [ -115.1809146, 36.222470999899997 ], [ -115.1809173, 36.222470999899997 ], [ -115.1809173, 36.2224736999 ], [ -115.1809146, 36.2224736999 ], [ -115.1809146, 36.222479099899999 ], [ -115.180911900000012, 36.222479099899999 ], [ -115.180911900000012, 36.222481799899995 ], [ -115.1808984, 36.222481799899995 ], [ -115.1808984, 36.222484499899998 ] ] ] } },
{ "type": "Feature", "properties": { "value": 255.0 }, "geometry": { "type": "Polygon", "coordinates": [ [ [ -115.180555500000011, 36.222484499899998 ], [ -115.1804826, 36.222484499899998 ], [ -115.1804826, 36.222481799899995 ], [ -115.1804799, 36.222481799899995 ], [ -115.1804799, 36.222479099899999 ], [ -115.1804772, 36.222479099899999 ], [ -115.1804772, 36.222452099899996 ], [ -115.1804664, 36.222452099899996 ], [ -115.1804664, 36.2224493999 ], [ -115.1804583, 36.2224493999 ], [ -115.1804583, 36.222433199899996 ], [ -115.1804556, 36.222433199899996 ], [ -115.1804556, 36.2224304999 ], [ -115.1804232, 36.2224304999 ], [ -115.1804232, 36.222427799899997 ], [ -115.1804151, 36.222427799899997 ], [ -115.1804151, 36.222425099900001 ], [ -115.1804124, 36.222425099900001 ], [ -115.1804124, 36.222346799899995 ], [ -115.1804097, 36.222346799899995 ], [ -115.1804097, 36.222319799899999 ], [ -115.1804124, 36.222319799899999 ], [ -115.1804124, 36.222317099899996 ], [ -115.1804313, 36.222317099899996 ], [ -115.1804313, 36.2223143999 ], [ -115.180506900000012, 36.2223143999 ], [ -115.180506900000012, 36.222317099899996 ], [ -115.1805123, 36.222317099899996 ], [ -115.1805123, 36.222322499899995 ], [ -115.180515, 36.222322499899995 ], [ -115.180515, 36.222354899899997 ], [ -115.18051770000001, 36.222354899899997 ], [ -115.18051770000001, 36.222408899899996 ], [ -115.1805204, 36.222408899899996 ], [ -115.1805204, 36.222414299899995 ], [ -115.18051770000001, 36.222414299899995 ], [ -115.18051770000001, 36.222419699900001 ], [ -115.1805204, 36.222419699900001 ], [ -115.1805204, 36.222425099900001 ], [ -115.1805609, 36.222425099900001 ], [ -115.1805609, 36.222481799899995 ], [ -115.180555500000011, 36.222481799899995 ], [ -115.180555500000011, 36.222484499899998 ] ] ] } },
{ "type": "Feature", "properties": { "value": 255.0 }, "geometry": { "type": "Polygon", "coordinates": [ [ [ -115.1802045, 36.222433199899996 ], [ -115.180191, 36.222433199899996 ], [ -115.180191, 36.2224304999 ], [ -115.1801883, 36.2224304999 ], [ -115.1801883, 36.222433199899996 ], [ -115.1801856, 36.222433199899996 ], [ -115.1801856, 36.2224304999 ], [ -115.1801748, 36.2224304999 ], [ -115.1801748, 36.222433199899996 ], [ -115.1801667, 36.222433199899996 ], [ -115.1801667, 36.2224304999 ], [ -115.1801586, 36.2224304999 ], [ -115.1801586, 36.222433199899996 ], [ -115.1801289, 36.222433199899996 ], [ -115.1801289, 36.2224304999 ], [ -115.1801235, 36.2224304999 ], [ -115.1801235, 36.222427799899997 ], [ -115.1801208, 36.222427799899997 ], [ -115.1801208, 36.222408899899996 ], [ -115.1801181, 36.222408899899996 ], [ -115.1801181, 36.222376499900001 ], [ -115.1801262, 36.222376499900001 ], [ -115.1801262, 36.222373799899998 ], [ -115.1801397, 36.222373799899998 ], [ -115.1801397, 36.222376499900001 ], [ -115.1801586, 36.222376499900001 ], [ -115.1801586, 36.222373799899998 ], [ -115.180164, 36.222373799899998 ], [ -115.180164, 36.222371099900002 ], [ -115.1801667, 36.222371099900002 ], [ -115.1801667, 36.222317099899996 ], [ -115.180164, 36.222317099899996 ], [ -115.180164, 36.2222954999 ], [ -115.180169400000011, 36.2222954999 ], [ -115.180169400000011, 36.222292799899996 ], [ -115.1801802, 36.222292799899996 ], [ -115.1801802, 36.2222954999 ], [ -115.18019910000001, 36.2222954999 ], [ -115.18019910000001, 36.222292799899996 ], [ -115.1802639, 36.222292799899996 ], [ -115.1802639, 36.2222954999 ], [ -115.18026660000001, 36.2222954999 ], [ -115.18026660000001, 36.222300899899999 ], [ -115.1802693, 36.222300899899999 ], [ -115.1802693, 36.222319799899999 ], [ -115.180272, 36.222319799899999 ], [ -115.180272, 36.222325199899998 ], [ -115.1802747, 36.222325199899998 ], [ -115.1802747, 36.222373799899998 ], [ -115.1802774, 36.222373799899998 ], [ -115.1802774, 36.222387299899999 ], [ -115.1802747, 36.222387299899999 ], [ -115.1802747, 36.222400799900001 ], [ -115.180272, 36.222400799900001 ], [ -115.180272, 36.222403499899997 ], [ -115.18026660000001, 36.222403499899997 ], [ -115.18026660000001, 36.2224061999 ], [ -115.1802288, 36.2224061999 ], [ -115.1802288, 36.222403499899997 ], [ -115.180218, 36.222403499899997 ], [ -115.180218, 36.2224061999 ], [ -115.1802153, 36.2224061999 ], [ -115.1802153, 36.222411599899999 ], [ -115.1802126, 36.222411599899999 ], [ -115.1802126, 36.222422399899997 ], [ -115.1802099, 36.222422399899997 ], [ -115.1802099, 36.2224304999 ], [ -115.1802045, 36.2224304999 ], [ -115.1802045, 36.222433199899996 ] ] ] } },
{ "type": "Feature", "properties": { "value": 255.0 }, "geometry": { "type": "Polygon", "coordinates": [ [ [ -115.180785, 36.222484499899998 ], [ -115.1807067, 36.222484499899998 ], [ -115.1807067, 36.222481799899995 ], [ -115.1806959, 36.222481799899995 ], [ -115.1806959, 36.222479099899999 ], [ -115.1806932, 36.222479099899999 ], [ -115.1806932, 36.222465599899998 ], [ -115.180690500000011, 36.222465599899998 ], [ -115.180690500000011, 36.222457499899996 ], [ -115.1806851, 36.222457499899996 ], [ -115.1806851, 36.2224547999 ], [ -115.180671600000011, 36.2224547999 ], [ -115.180671600000011, 36.222452099899996 ], [ -115.1806662, 36.222452099899996 ], [ -115.1806662, 36.2224493999 ], [ -115.1806608, 36.2224493999 ], [ -115.1806608, 36.222446699899997 ], [ -115.18065270000001, 36.222446699899997 ], [ -115.18065270000001, 36.222443999900001 ], [ -115.1806473, 36.222443999900001 ], [ -115.1806473, 36.222441299899998 ], [ -115.1806446, 36.222441299899998 ], [ -115.1806446, 36.222319799899999 ], [ -115.180641900000012, 36.222319799899999 ], [ -115.180641900000012, 36.222317099899996 ], [ -115.1806446, 36.222317099899996 ], [ -115.1806446, 36.2223143999 ], [ -115.1806473, 36.2223143999 ], [ -115.1806473, 36.222311699899997 ], [ -115.18065, 36.222311699899997 ], [ -115.18065, 36.222308999900001 ], [ -115.18065270000001, 36.222308999900001 ], [ -115.18065270000001, 36.222306299899998 ], [ -115.1806554, 36.222306299899998 ], [ -115.1806554, 36.222298199899996 ], [ -115.1806581, 36.222298199899996 ], [ -115.1806581, 36.222292799899996 ], [ -115.1806554, 36.222292799899996 ], [ -115.1806554, 36.222284699900001 ], [ -115.1806581, 36.222284699900001 ], [ -115.1806581, 36.222281999899998 ], [ -115.1806608, 36.222281999899998 ], [ -115.1806608, 36.222279299899995 ], [ -115.1806662, 36.222279299899995 ], [ -115.1806662, 36.222281999899998 ], [ -115.180671600000011, 36.222281999899998 ], [ -115.180671600000011, 36.222284699900001 ], [ -115.1806797, 36.222284699900001 ], [ -115.1806797, 36.222287399899997 ], [ -115.1806932, 36.222287399899997 ], [ -115.1806932, 36.2222900999 ], [ -115.1807283, 36.2222900999 ], [ -115.1807283, 36.222292799899996 ], [ -115.180739100000011, 36.222292799899996 ], [ -115.180739100000011, 36.2222900999 ], [ -115.1807418, 36.2222900999 ], [ -115.1807418, 36.222287399899997 ], [ -115.1807445, 36.222287399899997 ], [ -115.1807445, 36.222281999899998 ], [ -115.1807472, 36.222281999899998 ], [ -115.1807472, 36.222284699900001 ], [ -115.1807499, 36.222284699900001 ], [ -115.1807499, 36.222306299899998 ], [ -115.1807526, 36.222306299899998 ], [ -115.1807526, 36.222368399899999 ], [ -115.1807553, 36.222368399899999 ], [ -115.1807553, 36.222376499900001 ], [ -115.1807526, 36.222376499900001 ], [ -115.1807526, 36.222387299899999 ], [ -115.1807553, 36.222387299899999 ], [ -115.1807553, 36.222422399899997 ], [ -115.1807931, 36.222422399899997 ], [ -115.1807931, 36.222425099900001 ], [ -115.1807958, 36.222425099900001 ], [ -115.1807958, 36.222479099899999 ], [ -115.1807931, 36.222479099899999 ], [ -115.1807931, 36.222481799899995 ], [ -115.180785, 36.222481799899995 ], [ -115.180785, 36.222484499899998 ] ] ] } },
{ "type": "Feature", "properties": { "value": 255.0 }, "geometry": { "type": "Polygon", "coordinates": [ [ [ -115.18013160000001, 36.222287399899997 ], [ -115.1801289, 36.222287399899997 ], [ -115.1801289, 36.222284699900001 ], [ -115.1801235, 36.222284699900001 ], [ -115.1801235, 36.222279299899995 ], [ -115.1801262, 36.222279299899995 ], [ -115.1801262, 36.222276599899999 ], [ -115.180137, 36.222276599899999 ], [ -115.180137, 36.222279299899995 ], [ -115.1801424, 36.222279299899995 ], [ -115.1801424, 36.222284699900001 ], [ -115.18013160000001, 36.222284699900001 ], [ -115.18013160000001, 36.222287399899997 ] ] ] } },
{ "type": "Feature", "properties": { "value": 255.0 }, "geometry": { "type": "Polygon", "coordinates": [ [ [ -115.1794728, 36.222360299899997 ], [ -115.1794026, 36.222360299899997 ], [ -115.1794026, 36.222233399899999 ], [ -115.1794053, 36.222233399899999 ], [ -115.1794053, 36.222236099900002 ], [ -115.1794134, 36.222236099900002 ], [ -115.1794134, 36.222233399899999 ], [ -115.179462, 36.222233399899999 ], [ -115.179462, 36.222236099900002 ], [ -115.1794674, 36.222236099900002 ], [ -115.1794674, 36.222257699899998 ], [ -115.1794701, 36.222257699899998 ], [ -115.1794701, 36.222284699900001 ], [ -115.1794728, 36.222284699900001 ], [ -115.1794728, 36.222322499899995 ], [ -115.1794755, 36.222322499899995 ], [ -115.1794755, 36.222341399899996 ], [ -115.1794782, 36.222341399899996 ], [ -115.1794782, 36.222344099899999 ], [ -115.1794755, 36.222344099899999 ], [ -115.1794755, 36.2223575999 ], [ -115.1794728, 36.2223575999 ], [ -115.1794728, 36.222360299899997 ] ] ] } },
{ "type": "Feature", "properties": { "value": 255.0 }, "geometry": { "type": "Polygon", "coordinates": [ [ [ -115.18024770000001, 36.222227999899999 ], [ -115.1801748, 36.222227999899999 ], [ -115.1801748, 36.222225299899996 ], [ -115.1801667, 36.222225299899996 ], [ -115.1801667, 36.2222225999 ], [ -115.180164, 36.2222225999 ], [ -115.180164, 36.222209099899999 ], [ -115.1801613, 36.222209099899999 ], [ -115.1801613, 36.222160499899999 ], [ -115.1801559, 36.222160499899999 ], [ -115.1801559, 36.222157799899996 ], [ -115.180150500000011, 36.222157799899996 ], [ -115.180150500000011, 36.2221550999 ], [ -115.1801451, 36.2221550999 ], [ -115.1801451, 36.222149699900001 ], [ -115.1801424, 36.222149699900001 ], [ -115.1801424, 36.222117299899999 ], [ -115.1801451, 36.222117299899999 ], [ -115.1801451, 36.222114599899996 ], [ -115.1801424, 36.222114599899996 ], [ -115.1801424, 36.222109199899997 ], [ -115.1801451, 36.222109199899997 ], [ -115.1801451, 36.222103799899998 ], [ -115.1801478, 36.222103799899998 ], [ -115.1801478, 36.222101099900001 ], [ -115.1802099, 36.222101099900001 ], [ -115.1802099, 36.222103799899998 ], [ -115.1802126, 36.222103799899998 ], [ -115.1802126, 36.222109199899997 ], [ -115.1802153, 36.222109199899997 ], [ -115.1802153, 36.2221118999 ], [ -115.1802207, 36.2221118999 ], [ -115.1802207, 36.222114599899996 ], [ -115.1802288, 36.222114599899996 ], [ -115.1802288, 36.222117299899999 ], [ -115.1802315, 36.222117299899999 ], [ -115.1802315, 36.222128099899997 ], [ -115.1802342, 36.222128099899997 ], [ -115.1802342, 36.2221307999 ], [ -115.180236900000011, 36.2221307999 ], [ -115.180236900000011, 36.222133499899996 ], [ -115.18026660000001, 36.222133499899996 ], [ -115.18026660000001, 36.2221361999 ], [ -115.1802693, 36.2221361999 ], [ -115.1802693, 36.222138899899996 ], [ -115.180272, 36.222138899899996 ], [ -115.180272, 36.222165899899998 ], [ -115.1802747, 36.222165899899998 ], [ -115.1802747, 36.222171299899998 ], [ -115.180272, 36.222171299899998 ], [ -115.180272, 36.222184799899999 ], [ -115.1802693, 36.222184799899999 ], [ -115.1802693, 36.222217199900001 ], [ -115.18026660000001, 36.222217199900001 ], [ -115.18026660000001, 36.222225299899996 ], [ -115.18024770000001, 36.222225299899996 ], [ -115.18024770000001, 36.222227999899999 ] ] ] } },
{ "type": "Feature", "properties": { "value": 255.0 }, "geometry": { "type": "Polygon", "coordinates": [ [ [ -115.179921, 36.222114599899996 ], [ -115.1798967, 36.222114599899996 ], [ -115.1798967, 36.2221118999 ], [ -115.179894, 36.2221118999 ], [ -115.179894, 36.222101099900001 ], [ -115.1798913, 36.222101099900001 ], [ -115.1798913, 36.2220632999 ], [ -115.1799102, 36.2220632999 ], [ -115.1799102, 36.222065999899996 ], [ -115.1799183, 36.222065999899996 ], [ -115.1799183, 36.222068699899999 ], [ -115.179921, 36.222068699899999 ], [ -115.179921, 36.222071399899995 ], [ -115.1799237, 36.222071399899995 ], [ -115.1799237, 36.2221118999 ], [ -115.179921, 36.2221118999 ], [ -115.179921, 36.222114599899996 ] ] ] } },
{ "type": "Feature", "properties": { "value": 255.0 }, "geometry": { "type": "Polygon", "coordinates": [ [ [ -115.1809065, 36.222217199900001 ], [ -115.18090380000001, 36.222217199900001 ], [ -115.18090380000001, 36.222214499899998 ], [ -115.1808633, 36.222214499899998 ], [ -115.1808633, 36.222211799899995 ], [ -115.1808606, 36.222211799899995 ], [ -115.1808606, 36.222198299900001 ], [ -115.1808579, 36.222198299900001 ], [ -115.1808579, 36.2221793999 ], [ -115.1808606, 36.2221793999 ], [ -115.1808606, 36.222117299899999 ], [ -115.1808633, 36.222117299899999 ], [ -115.1808633, 36.222101099900001 ], [ -115.1808579, 36.222101099900001 ], [ -115.1808579, 36.222098399899998 ], [ -115.1808228, 36.222098399899998 ], [ -115.1808228, 36.222095699899995 ], [ -115.1808201, 36.222095699899995 ], [ -115.1808201, 36.222082199900001 ], [ -115.1808174, 36.222082199900001 ], [ -115.1808174, 36.222076799899995 ], [ -115.1808201, 36.222076799899995 ], [ -115.1808201, 36.222065999899996 ], [ -115.1808174, 36.222065999899996 ], [ -115.1808174, 36.2220443999 ], [ -115.1808201, 36.2220443999 ], [ -115.1808201, 36.222038999900001 ], [ -115.1809254, 36.222038999900001 ], [ -115.1809254, 36.222076799899995 ], [ -115.1809281, 36.222076799899995 ], [ -115.1809281, 36.222079499899998 ], [ -115.1809686, 36.222079499899998 ], [ -115.1809686, 36.222117299899999 ], [ -115.18097130000001, 36.222117299899999 ], [ -115.18097130000001, 36.222125399900001 ], [ -115.1809686, 36.222125399900001 ], [ -115.1809686, 36.222206399899996 ], [ -115.1809659, 36.222206399899996 ], [ -115.1809659, 36.222211799899995 ], [ -115.1809578, 36.222211799899995 ], [ -115.1809578, 36.222214499899998 ], [ -115.1809065, 36.222214499899998 ], [ -115.1809065, 36.222217199900001 ] ] ] } },
{ "type": "Feature", "properties": { "value": 255.0 }, "geometry": { "type": "Polygon", "coordinates": [ [ [ -115.18006410000001, 36.222249599899996 ], [ -115.1800614, 36.222249599899996 ], [ -115.1800614, 36.2222468999 ], [ -115.1800425, 36.2222468999 ], [ -115.1800425, 36.222249599899996 ], [ -115.1799804, 36.222249599899996 ], [ -115.1799804, 36.2222468999 ], [ -115.179975, 36.2222468999 ], [ -115.179975, 36.222244199899997 ], [ -115.1799723, 36.222244199899997 ], [ -115.1799723, 36.222241499900001 ], [ -115.1799696, 36.222241499900001 ], [ -115.1799696, 36.222233399899999 ], [ -115.179966900000011, 36.222233399899999 ], [ -115.179966900000011, 36.222225299899996 ], [ -115.1799642, 36.222225299899996 ], [ -115.1799642, 36.2222225999 ], [ -115.1799615, 36.2222225999 ], [ -115.1799615, 36.222219899899997 ], [ -115.1799588, 36.222219899899997 ], [ -115.1799588, 36.222214499899998 ], [ -115.1799561, 36.222214499899998 ], [ -115.1799561, 36.222195599899997 ], [ -115.1799534, 36.222195599899997 ], [ -115.1799534, 36.222187499899995 ], [ -115.1799507, 36.222187499899995 ], [ -115.1799507, 36.222182099899996 ], [ -115.179948, 36.222182099899996 ], [ -115.179948, 36.222165899899998 ], [ -115.1799507, 36.222165899899998 ], [ -115.1799507, 36.222163199899995 ], [ -115.179966900000011, 36.222163199899995 ], [ -115.179966900000011, 36.222160499899999 ], [ -115.1799723, 36.222160499899999 ], [ -115.1799723, 36.222157799899996 ], [ -115.179975, 36.222157799899996 ], [ -115.179975, 36.222128099899997 ], [ -115.1799777, 36.222128099899997 ], [ -115.1799777, 36.222122699899998 ], [ -115.179975, 36.222122699899998 ], [ -115.179975, 36.222119999899995 ], [ -115.1799777, 36.222119999899995 ], [ -115.1799777, 36.222103799899998 ], [ -115.179975, 36.222103799899998 ], [ -115.179975, 36.222101099900001 ], [ -115.1799561, 36.222101099900001 ], [ -115.1799561, 36.222098399899998 ], [ -115.1799507, 36.222098399899998 ], [ -115.1799507, 36.222101099900001 ], [ -115.179948, 36.222101099900001 ], [ -115.179948, 36.222098399899998 ], [ -115.1799399, 36.222098399899998 ], [ -115.1799399, 36.222074099899999 ], [ -115.1799372, 36.222074099899999 ], [ -115.1799372, 36.222047099899996 ], [ -115.1799399, 36.222047099899996 ], [ -115.1799399, 36.222041699899997 ], [ -115.1799453, 36.222041699899997 ], [ -115.1799453, 36.222038999900001 ], [ -115.1799912, 36.222038999900001 ], [ -115.1799912, 36.222041699899997 ], [ -115.1800425, 36.222041699899997 ], [ -115.1800425, 36.2220443999 ], [ -115.1800452, 36.2220443999 ], [ -115.1800452, 36.222065999899996 ], [ -115.1800479, 36.222065999899996 ], [ -115.1800479, 36.222074099899999 ], [ -115.1800533, 36.222074099899999 ], [ -115.1800533, 36.222076799899995 ], [ -115.1800749, 36.222076799899995 ], [ -115.1800749, 36.222079499899998 ], [ -115.1800857, 36.222079499899998 ], [ -115.1800857, 36.222082199900001 ], [ -115.1800884, 36.222082199900001 ], [ -115.1800884, 36.2220875999 ], [ -115.1800857, 36.2220875999 ], [ -115.1800857, 36.222117299899999 ], [ -115.1800884, 36.222117299899999 ], [ -115.1800884, 36.2221361999 ], [ -115.1800911, 36.2221361999 ], [ -115.1800911, 36.222146999899998 ], [ -115.1800938, 36.222146999899998 ], [ -115.1800938, 36.222157799899996 ], [ -115.1800965, 36.222157799899996 ], [ -115.1800965, 36.222173999900001 ], [ -115.1800938, 36.222173999900001 ], [ -115.1800938, 36.2221793999 ], [ -115.1800965, 36.2221793999 ], [ -115.1800965, 36.222195599899997 ], [ -115.1800992, 36.222195599899997 ], [ -115.1800992, 36.2222036999 ], [ -115.180101900000011, 36.2222036999 ], [ -115.180101900000011, 36.222217199900001 ], [ -115.1801046, 36.222217199900001 ], [ -115.1801046, 36.222244199899997 ], [ -115.180101900000011, 36.222244199899997 ], [ -115.180101900000011, 36.2222468999 ], [ -115.18006410000001, 36.2222468999 ], [ -115.18006410000001, 36.222249599899996 ] ] ] } },
{ "type": "Feature", "properties": { "value": 255.0 }, "geometry": { "type": "Polygon", "coordinates": [ [ [ -115.1805096, 36.222209099899999 ], [ -115.1804151, 36.222209099899999 ], [ -115.1804151, 36.222206399899996 ], [ -115.1804124, 36.222206399899996 ], [ -115.1804124, 36.222149699900001 ], [ -115.1804097, 36.222149699900001 ], [ -115.1804097, 36.2221307999 ], [ -115.180407, 36.2221307999 ], [ -115.180407, 36.222098399899998 ], [ -115.1804097, 36.222098399899998 ], [ -115.1804097, 36.222095699899995 ], [ -115.1804151, 36.222095699899995 ], [ -115.1804151, 36.222092999899999 ], [ -115.1804475, 36.222092999899999 ], [ -115.1804475, 36.222090299899996 ], [ -115.18045020000001, 36.222090299899996 ], [ -115.18045020000001, 36.222084899899997 ], [ -115.1804529, 36.222084899899997 ], [ -115.1804529, 36.222079499899998 ], [ -115.18046910000001, 36.222079499899998 ], [ -115.18046910000001, 36.222076799899995 ], [ -115.1804718, 36.222076799899995 ], [ -115.1804718, 36.222041699899997 ], [ -115.1804745, 36.222041699899997 ], [ -115.1804745, 36.222038999900001 ], [ -115.1804907, 36.222038999900001 ], [ -115.1804907, 36.222036299899997 ], [ -115.1805285, 36.222036299899997 ], [ -115.1805285, 36.222038999900001 ], [ -115.1805447, 36.222038999900001 ], [ -115.1805447, 36.222041699899997 ], [ -115.1805501, 36.222041699899997 ], [ -115.1805501, 36.2220443999 ], [ -115.1805528, 36.2220443999 ], [ -115.1805528, 36.222049799899999 ], [ -115.180555500000011, 36.222049799899999 ], [ -115.180555500000011, 36.222055199899998 ], [ -115.1805582, 36.222055199899998 ], [ -115.1805582, 36.222090299899996 ], [ -115.180555500000011, 36.222090299899996 ], [ -115.180555500000011, 36.222098399899998 ], [ -115.1805501, 36.222098399899998 ], [ -115.1805501, 36.222101099900001 ], [ -115.1805447, 36.222101099900001 ], [ -115.1805447, 36.222106499900001 ], [ -115.180542, 36.222106499900001 ], [ -115.180542, 36.222149699900001 ], [ -115.1805393, 36.222149699900001 ], [ -115.1805393, 36.222152399899997 ], [ -115.1805204, 36.222152399899997 ], [ -115.1805204, 36.2221550999 ], [ -115.180515, 36.2221550999 ], [ -115.180515, 36.222157799899996 ], [ -115.1805123, 36.222157799899996 ], [ -115.1805123, 36.222165899899998 ], [ -115.1805096, 36.222165899899998 ], [ -115.1805096, 36.222182099899996 ], [ -115.1805123, 36.222182099899996 ], [ -115.1805123, 36.222190199899998 ], [ -115.1805096, 36.222190199899998 ], [ -115.1805096, 36.222209099899999 ] ] ] } },
{ "type": "Feature", "properties": { "value": 255.0 }, "geometry": { "type": "Polygon", "coordinates": [ [ [ -115.1807445, 36.222165899899998 ], [ -115.180641900000012, 36.222165899899998 ], [ -115.180641900000012, 36.2221550999 ], [ -115.1806392, 36.2221550999 ], [ -115.1806392, 36.222152399899997 ], [ -115.180641900000012, 36.222152399899997 ], [ -115.180641900000012, 36.2221118999 ], [ -115.1806392, 36.2221118999 ], [ -115.1806392, 36.222106499900001 ], [ -115.1806365, 36.222106499900001 ], [ -115.1806365, 36.222084899899997 ], [ -115.1806392, 36.222084899899997 ], [ -115.1806392, 36.222076799899995 ], [ -115.180641900000012, 36.222076799899995 ], [ -115.180641900000012, 36.222071399899995 ], [ -115.1806689, 36.222071399899995 ], [ -115.1806689, 36.222068699899999 ], [ -115.180671600000011, 36.222068699899999 ], [ -115.180671600000011, 36.222065999899996 ], [ -115.1806743, 36.222065999899996 ], [ -115.1806743, 36.222060599899997 ], [ -115.180677, 36.222060599899997 ], [ -115.180677, 36.222055199899998 ], [ -115.1806797, 36.222055199899998 ], [ -115.1806797, 36.222052499899995 ], [ -115.1806851, 36.222052499899995 ], [ -115.1806851, 36.222047099899996 ], [ -115.1806878, 36.222047099899996 ], [ -115.1806878, 36.2220443999 ], [ -115.1806932, 36.2220443999 ], [ -115.1806932, 36.222041699899997 ], [ -115.1806959, 36.222041699899997 ], [ -115.1806959, 36.222038999900001 ], [ -115.18070130000001, 36.222038999900001 ], [ -115.18070130000001, 36.222036299899997 ], [ -115.1807121, 36.222036299899997 ], [ -115.1807121, 36.222038999900001 ], [ -115.180785, 36.222038999900001 ], [ -115.180785, 36.222041699899997 ], [ -115.18078770000001, 36.222041699899997 ], [ -115.18078770000001, 36.222071399899995 ], [ -115.1807904, 36.222071399899995 ], [ -115.1807904, 36.222084899899997 ], [ -115.18078770000001, 36.222084899899997 ], [ -115.18078770000001, 36.222095699899995 ], [ -115.1807796, 36.222095699899995 ], [ -115.1807796, 36.222098399899998 ], [ -115.1807553, 36.222098399899998 ], [ -115.1807553, 36.222101099900001 ], [ -115.1807499, 36.222101099900001 ], [ -115.1807499, 36.2221118999 ], [ -115.1807526, 36.2221118999 ], [ -115.1807526, 36.222125399900001 ], [ -115.1807499, 36.222125399900001 ], [ -115.1807499, 36.222152399899997 ], [ -115.1807472, 36.222152399899997 ], [ -115.1807472, 36.222163199899995 ], [ -115.1807445, 36.222163199899995 ], [ -115.1807445, 36.222165899899998 ] ] ] } },
{ "type": "Feature", "properties": { "value": 255.0 }, "geometry": { "type": "Polygon", "coordinates": [ [ [ -115.1794053, 36.222071399899995 ], [ -115.1794026, 36.222071399899995 ], [ -115.1794026, 36.222017399899997 ], [ -115.1794134, 36.222017399899997 ], [ -115.1794134, 36.222030899899998 ], [ -115.1794161, 36.222030899899998 ], [ -115.1794161, 36.222060599899997 ], [ -115.1794134, 36.222060599899997 ], [ -115.1794134, 36.222068699899999 ], [ -115.1794053, 36.222068699899999 ], [ -115.1794053, 36.222071399899995 ] ] ] } },
{ "type": "Feature", "properties": { "value": 255.0 }, "geometry": { "type": "Polygon", "coordinates": [ [ [ -115.179462, 36.221984999899995 ], [ -115.1794485, 36.221984999899995 ], [ -115.1794485, 36.221982299899999 ], [ -115.179435, 36.221982299899999 ], [ -115.179435, 36.221979599899996 ], [ -115.1794026, 36.221979599899996 ], [ -115.1794026, 36.221912099899995 ], [ -115.179435, 36.221912099899995 ], [ -115.179435, 36.221909399899999 ], [ -115.1794647, 36.221909399899999 ], [ -115.1794647, 36.221912099899995 ], [ -115.1794701, 36.221912099899995 ], [ -115.1794701, 36.2219714999 ], [ -115.1794728, 36.2219714999 ], [ -115.1794728, 36.221979599899996 ], [ -115.1794701, 36.221979599899996 ], [ -115.1794701, 36.221982299899999 ], [ -115.179462, 36.221982299899999 ], [ -115.179462, 36.221984999899995 ] ] ] } },
{ "type": "Feature", "properties": { "value": 255.0 }, "geometry": { "type": "Polygon", "coordinates": [ [ [ -115.1808903, 36.221804099899998 ], [ -115.1808687, 36.221804099899998 ], [ -115.1808687, 36.221801399899995 ], [ -115.1807796, 36.221801399899995 ], [ -115.1807796, 36.221798699899999 ], [ -115.1807634, 36.221798699899999 ], [ -115.1807634, 36.221795999899996 ], [ -115.1807607, 36.221795999899996 ], [ -115.1807607, 36.221720399900001 ], [ -115.1807634, 36.221720399900001 ], [ -115.1807634, 36.221717699899997 ], [ -115.1808228, 36.221717699899997 ], [ -115.1808228, 36.221720399900001 ], [ -115.1808336, 36.221720399900001 ], [ -115.1808336, 36.221717699899997 ], [ -115.18083630000001, 36.221717699899997 ], [ -115.18083630000001, 36.221712299899998 ], [ -115.180839, 36.221712299899998 ], [ -115.180839, 36.221687999899999 ], [ -115.18083630000001, 36.221687999899999 ], [ -115.18083630000001, 36.221679899899996 ], [ -115.180839, 36.221679899899996 ], [ -115.180839, 36.2216771999 ], [ -115.1808768, 36.2216771999 ], [ -115.1808768, 36.221679899899996 ], [ -115.1808849, 36.221679899899996 ], [ -115.1808849, 36.2216771999 ], [ -115.1808876, 36.2216771999 ], [ -115.1808876, 36.221679899899996 ], [ -115.1808903, 36.221679899899996 ], [ -115.1808903, 36.2216771999 ], [ -115.1809686, 36.2216771999 ], [ -115.1809686, 36.2217446999 ], [ -115.1809632, 36.2217446999 ], [ -115.1809632, 36.221747399899996 ], [ -115.1809281, 36.221747399899996 ], [ -115.1809281, 36.221750099899999 ], [ -115.1809254, 36.221750099899999 ], [ -115.1809254, 36.221760899899998 ], [ -115.180922700000011, 36.221760899899998 ], [ -115.180922700000011, 36.221763599900001 ], [ -115.18090380000001, 36.221763599900001 ], [ -115.18090380000001, 36.221766299899997 ], [ -115.1809011, 36.221766299899997 ], [ -115.1809011, 36.221795999899996 ], [ -115.1808984, 36.221795999899996 ], [ -115.1808984, 36.221798699899999 ], [ -115.1808957, 36.221798699899999 ], [ -115.1808957, 36.221801399899995 ], [ -115.1808903, 36.221801399899995 ], [ -115.1808903, 36.221804099899998 ] ] ] } },
{ "type": "Feature", "properties": { "value": 255.0 }, "geometry": { "type": "Polygon", "coordinates": [ [ [ -115.1806203, 36.221801399899995 ], [ -115.1806095, 36.221801399899995 ], [ -115.1806095, 36.221798699899999 ], [ -115.180596, 36.221798699899999 ], [ -115.180596, 36.221795999899996 ], [ -115.1805933, 36.221795999899996 ], [ -115.1805933, 36.221785199899998 ], [ -115.1805906, 36.221785199899998 ], [ -115.1805906, 36.221782499899994 ], [ -115.1805879, 36.221782499899994 ], [ -115.1805879, 36.221779799899998 ], [ -115.18058520000001, 36.221779799899998 ], [ -115.18058520000001, 36.221774399899999 ], [ -115.1805528, 36.221774399899999 ], [ -115.1805528, 36.221771699899996 ], [ -115.1805501, 36.221771699899996 ], [ -115.1805501, 36.2217689999 ], [ -115.1805474, 36.2217689999 ], [ -115.1805474, 36.221766299899997 ], [ -115.1805447, 36.221766299899997 ], [ -115.1805447, 36.221763599900001 ], [ -115.180542, 36.221763599900001 ], [ -115.180542, 36.221760899899998 ], [ -115.1805393, 36.221760899899998 ], [ -115.1805393, 36.221758199899995 ], [ -115.1805339, 36.221758199899995 ], [ -115.1805339, 36.221752799899996 ], [ -115.1805312, 36.221752799899996 ], [ -115.1805312, 36.221736599899998 ], [ -115.1805285, 36.221736599899998 ], [ -115.1805285, 36.221733899899995 ], [ -115.1805231, 36.221733899899995 ], [ -115.1805231, 36.221731199899999 ], [ -115.180515, 36.221731199899999 ], [ -115.180515, 36.221733899899995 ], [ -115.1804988, 36.221733899899995 ], [ -115.1804988, 36.221731199899999 ], [ -115.1804961, 36.221731199899999 ], [ -115.1804961, 36.221687999899999 ], [ -115.1804988, 36.221687999899999 ], [ -115.1804988, 36.2216771999 ], [ -115.1805015, 36.2216771999 ], [ -115.1805015, 36.221674499899997 ], [ -115.1805285, 36.221674499899997 ], [ -115.1805285, 36.221671799899994 ], [ -115.1805312, 36.221671799899994 ], [ -115.1805312, 36.221660999899996 ], [ -115.1806284, 36.221660999899996 ], [ -115.1806284, 36.221663699899999 ], [ -115.18063380000001, 36.221663699899999 ], [ -115.18063380000001, 36.221666399899995 ], [ -115.1806365, 36.221666399899995 ], [ -115.1806365, 36.221685299899995 ], [ -115.1806392, 36.221685299899995 ], [ -115.1806392, 36.221693399899998 ], [ -115.180641900000012, 36.221693399899998 ], [ -115.180641900000012, 36.221728499899996 ], [ -115.1806446, 36.221728499899996 ], [ -115.1806446, 36.221736599899998 ], [ -115.1806473, 36.221736599899998 ], [ -115.1806473, 36.221739299899994 ], [ -115.18065, 36.221739299899994 ], [ -115.18065, 36.221741999899997 ], [ -115.180677, 36.221741999899997 ], [ -115.180677, 36.2217446999 ], [ -115.1806797, 36.2217446999 ], [ -115.1806797, 36.221795999899996 ], [ -115.180677, 36.221795999899996 ], [ -115.180677, 36.221798699899999 ], [ -115.1806203, 36.221798699899999 ], [ -115.1806203, 36.221801399899995 ] ] ] } },
{ "type": "Feature", "properties": { "value": 255.0 }, "geometry": { "type": "Polygon", "coordinates": [ [ [ -115.180439400000012, 36.221804099899998 ], [ -115.18040160000001, 36.221804099899998 ], [ -115.18040160000001, 36.221801399899995 ], [ -115.1803989, 36.221801399899995 ], [ -115.1803989, 36.221798699899999 ], [ -115.1803962, 36.221798699899999 ], [ -115.1803962, 36.221795999899996 ], [ -115.1803935, 36.221795999899996 ], [ -115.1803935, 36.2217932999 ], [ -115.1803908, 36.2217932999 ], [ -115.1803908, 36.221790599899997 ], [ -115.1803881, 36.221790599899997 ], [ -115.1803881, 36.221787899900001 ], [ -115.1803854, 36.221787899900001 ], [ -115.1803854, 36.221785199899998 ], [ -115.18038270000001, 36.221785199899998 ], [ -115.18038270000001, 36.221787899900001 ], [ -115.18038, 36.221787899900001 ], [ -115.18038, 36.221785199899998 ], [ -115.1803692, 36.221785199899998 ], [ -115.1803692, 36.221779799899998 ], [ -115.1803665, 36.221779799899998 ], [ -115.1803665, 36.221777099899995 ], [ -115.1803611, 36.221777099899995 ], [ -115.1803611, 36.221774399899999 ], [ -115.1803557, 36.221774399899999 ], [ -115.1803557, 36.221771699899996 ], [ -115.1803449, 36.221771699899996 ], [ -115.1803449, 36.2217689999 ], [ -115.1803395, 36.2217689999 ], [ -115.1803395, 36.221766299899997 ], [ -115.1803287, 36.221766299899997 ], [ -115.1803287, 36.221763599900001 ], [ -115.180326, 36.221763599900001 ], [ -115.180326, 36.221760899899998 ], [ -115.1803233, 36.221760899899998 ], [ -115.1803233, 36.221728499899996 ], [ -115.180326, 36.221728499899996 ], [ -115.180326, 36.221717699899997 ], [ -115.1803287, 36.221717699899997 ], [ -115.1803287, 36.2216339999 ], [ -115.1803314, 36.2216339999 ], [ -115.1803314, 36.221631299899997 ], [ -115.1804232, 36.221631299899997 ], [ -115.1804232, 36.221628599900001 ], [ -115.1804313, 36.221628599900001 ], [ -115.1804313, 36.221631299899997 ], [ -115.180434, 36.221631299899997 ], [ -115.180434, 36.221636699899996 ], [ -115.1804367, 36.221636699899996 ], [ -115.1804367, 36.221736599899998 ], [ -115.180439400000012, 36.221736599899998 ], [ -115.180439400000012, 36.221741999899997 ], [ -115.1804745, 36.221741999899997 ], [ -115.1804745, 36.2217446999 ], [ -115.1804772, 36.2217446999 ], [ -115.1804772, 36.221798699899999 ], [ -115.1804745, 36.221798699899999 ], [ -115.1804745, 36.221801399899995 ], [ -115.180439400000012, 36.221801399899995 ], [ -115.180439400000012, 36.221804099899998 ] ] ] } },
{ "type": "Feature", "properties": { "value": 255.0 }, "geometry": { "type": "Polygon", "coordinates": [ [ [ -115.1794566, 36.2217014999 ], [ -115.1794107, 36.2217014999 ], [ -115.1794107, 36.221698799899997 ], [ -115.1794026, 36.221698799899997 ], [ -115.1794026, 36.2216339999 ], [ -115.1794107, 36.2216339999 ], [ -115.1794107, 36.221631299899997 ], [ -115.1794539, 36.221631299899997 ], [ -115.1794539, 36.2216339999 ], [ -115.1794566, 36.2216339999 ], [ -115.1794566, 36.221666399899995 ], [ -115.1794593, 36.221666399899995 ], [ -115.1794593, 36.221698799899997 ], [ -115.1794566, 36.221698799899997 ], [ -115.1794566, 36.2217014999 ] ] ] } },
{ "type": "Feature", "properties": { "value": 255.0 }, "geometry": { "type": "Polygon", "coordinates": [ [ [ -115.1799993, 36.221831099900001 ], [ -115.1799021, 36.221831099900001 ], [ -115.1799021, 36.221828399899998 ], [ -115.179899400000011, 36.221828399899998 ], [ -115.179899400000011, 36.221825699899995 ], [ -115.1798967, 36.221825699899995 ], [ -115.1798967, 36.221758199899995 ], [ -115.1799345, 36.221758199899995 ], [ -115.1799345, 36.221755499899999 ], [ -115.1799372, 36.221755499899999 ], [ -115.1799372, 36.221682599899999 ], [ -115.1799399, 36.221682599899999 ], [ -115.1799399, 36.221655599899997 ], [ -115.1799426, 36.221655599899997 ], [ -115.1799426, 36.221620499899998 ], [ -115.1799453, 36.221620499899998 ], [ -115.1799453, 36.221617799899995 ], [ -115.1800317, 36.221617799899995 ], [ -115.1800317, 36.221620499899998 ], [ -115.180034400000011, 36.221620499899998 ], [ -115.180034400000011, 36.221655599899997 ], [ -115.1800371, 36.221655599899997 ], [ -115.1800371, 36.2216582999 ], [ -115.1800398, 36.2216582999 ], [ -115.1800398, 36.221660999899996 ], [ -115.1800452, 36.221660999899996 ], [ -115.1800452, 36.221685299899995 ], [ -115.1800479, 36.221685299899995 ], [ -115.1800479, 36.221787899900001 ], [ -115.1800452, 36.221787899900001 ], [ -115.1800452, 36.221790599899997 ], [ -115.1800425, 36.221790599899997 ], [ -115.1800425, 36.2217932999 ], [ -115.1800371, 36.2217932999 ], [ -115.1800371, 36.221795999899996 ], [ -115.1800263, 36.221795999899996 ], [ -115.1800263, 36.221798699899999 ], [ -115.1800209, 36.221798699899999 ], [ -115.1800209, 36.221795999899996 ], [ -115.1800101, 36.221795999899996 ], [ -115.1800101, 36.221798699899999 ], [ -115.1800074, 36.221798699899999 ], [ -115.1800074, 36.221801399899995 ], [ -115.1800047, 36.221801399899995 ], [ -115.1800047, 36.221804099899998 ], [ -115.1800074, 36.221804099899998 ], [ -115.1800074, 36.221814899899996 ], [ -115.1800047, 36.221814899899996 ], [ -115.1800047, 36.221828399899998 ], [ -115.1799993, 36.221828399899998 ], [ -115.1799993, 36.221831099900001 ] ] ] } },
{ "type": "Feature", "properties": { "value": 255.0 }, "geometry": { "type": "Polygon", "coordinates": [ [ [ -115.1801532, 36.221750099899999 ], [ -115.1800803, 36.221750099899999 ], [ -115.1800803, 36.221747399899996 ], [ -115.1800776, 36.221747399899996 ], [ -115.1800776, 36.2217446999 ], [ -115.1800749, 36.2217446999 ], [ -115.1800749, 36.221717699899997 ], [ -115.1800776, 36.221717699899997 ], [ -115.1800776, 36.221709599899995 ], [ -115.1800749, 36.221709599899995 ], [ -115.1800749, 36.221706899899999 ], [ -115.1800776, 36.221706899899999 ], [ -115.1800776, 36.221693399899998 ], [ -115.1800803, 36.221693399899998 ], [ -115.1800803, 36.221690699899995 ], [ -115.1801154, 36.221690699899995 ], [ -115.1801154, 36.221687999899999 ], [ -115.1801181, 36.221687999899999 ], [ -115.1801181, 36.221685299899995 ], [ -115.1801208, 36.221685299899995 ], [ -115.1801208, 36.221604299899994 ], [ -115.1801235, 36.221604299899994 ], [ -115.1801235, 36.2215907999 ], [ -115.1801262, 36.2215907999 ], [ -115.1801262, 36.221588099899996 ], [ -115.1801289, 36.221588099899996 ], [ -115.1801289, 36.2215853999 ], [ -115.1801424, 36.2215853999 ], [ -115.1801424, 36.221582699899997 ], [ -115.1802126, 36.221582699899997 ], [ -115.1802126, 36.2215853999 ], [ -115.1802234, 36.2215853999 ], [ -115.1802234, 36.221598899899995 ], [ -115.1802261, 36.221598899899995 ], [ -115.1802261, 36.221612399899996 ], [ -115.1802423, 36.221612399899996 ], [ -115.1802423, 36.221615099899999 ], [ -115.1802531, 36.221615099899999 ], [ -115.1802531, 36.221612399899996 ], [ -115.18026660000001, 36.221612399899996 ], [ -115.18026660000001, 36.221615099899999 ], [ -115.1802693, 36.221615099899999 ], [ -115.1802693, 36.221620499899998 ], [ -115.180272, 36.221620499899998 ], [ -115.180272, 36.2216528999 ], [ -115.1802747, 36.2216528999 ], [ -115.1802747, 36.221679899899996 ], [ -115.180272, 36.221679899899996 ], [ -115.180272, 36.221685299899995 ], [ -115.1802585, 36.221685299899995 ], [ -115.1802585, 36.221687999899999 ], [ -115.180236900000011, 36.221687999899999 ], [ -115.180236900000011, 36.221696099900001 ], [ -115.1802342, 36.221696099900001 ], [ -115.1802342, 36.221709599899995 ], [ -115.1802315, 36.221709599899995 ], [ -115.1802315, 36.221720399900001 ], [ -115.1802288, 36.221720399900001 ], [ -115.1802288, 36.221723099899997 ], [ -115.1801856, 36.221723099899997 ], [ -115.1801856, 36.221720399900001 ], [ -115.1801721, 36.221720399900001 ], [ -115.1801721, 36.221723099899997 ], [ -115.180169400000011, 36.221723099899997 ], [ -115.180169400000011, 36.221733899899995 ], [ -115.1801667, 36.221733899899995 ], [ -115.1801667, 36.2217446999 ], [ -115.180164, 36.2217446999 ], [ -115.180164, 36.221747399899996 ], [ -115.1801532, 36.221747399899996 ], [ -115.1801532, 36.221750099899999 ] ] ] } },
{ "type": "Feature", "properties": { "value": 255.0 }, "geometry": { "type": "Polygon", "coordinates": [ [ [ -115.180911900000012, 36.221620499899998 ], [ -115.1808957, 36.221620499899998 ], [ -115.1808957, 36.221617799899995 ], [ -115.180893, 36.221617799899995 ], [ -115.180893, 36.221620499899998 ], [ -115.1808822, 36.221620499899998 ], [ -115.1808822, 36.221617799899995 ], [ -115.1808282, 36.221617799899995 ], [ -115.1808282, 36.221615099899999 ], [ -115.1808201, 36.221615099899999 ], [ -115.1808201, 36.221612399899996 ], [ -115.1807634, 36.221612399899996 ], [ -115.1807634, 36.2216096999 ], [ -115.1807607, 36.2216096999 ], [ -115.1807607, 36.221606999899997 ], [ -115.180758, 36.221606999899997 ], [ -115.180758, 36.2215664999 ], [ -115.1807553, 36.2215664999 ], [ -115.1807553, 36.221528699899999 ], [ -115.180758, 36.221528699899999 ], [ -115.180758, 36.221525999899995 ], [ -115.1807607, 36.221525999899995 ], [ -115.1807607, 36.221523299899999 ], [ -115.1807823, 36.221523299899999 ], [ -115.1807823, 36.221525999899995 ], [ -115.180785, 36.221525999899995 ], [ -115.180785, 36.221523299899999 ], [ -115.1807931, 36.221523299899999 ], [ -115.1807931, 36.221520599899996 ], [ -115.180806600000011, 36.221520599899996 ], [ -115.180806600000011, 36.221523299899999 ], [ -115.1808282, 36.221523299899999 ], [ -115.1808282, 36.221520599899996 ], [ -115.1808498, 36.221520599899996 ], [ -115.1808498, 36.221523299899999 ], [ -115.180855200000011, 36.221523299899999 ], [ -115.180855200000011, 36.221520599899996 ], [ -115.1808579, 36.221520599899996 ], [ -115.1808579, 36.221509799899998 ], [ -115.1808606, 36.221509799899998 ], [ -115.1808606, 36.221507099899995 ], [ -115.1808633, 36.221507099899995 ], [ -115.1808633, 36.221504399899999 ], [ -115.180866, 36.221504399899999 ], [ -115.180866, 36.221507099899995 ], [ -115.1808795, 36.221507099899995 ], [ -115.1808795, 36.221504399899999 ], [ -115.1808903, 36.221504399899999 ], [ -115.1808903, 36.221496299899997 ], [ -115.180893, 36.221496299899997 ], [ -115.180893, 36.221493599900001 ], [ -115.1808957, 36.221493599900001 ], [ -115.1808957, 36.221490899899997 ], [ -115.180922700000011, 36.221490899899997 ], [ -115.180922700000011, 36.221493599900001 ], [ -115.1809551, 36.221493599900001 ], [ -115.1809551, 36.221490899899997 ], [ -115.1809578, 36.221490899899997 ], [ -115.1809578, 36.221493599900001 ], [ -115.1809659, 36.221493599900001 ], [ -115.1809659, 36.221531399899995 ], [ -115.1809686, 36.221531399899995 ], [ -115.1809686, 36.221547599899999 ], [ -115.1809659, 36.221547599899999 ], [ -115.1809659, 36.221558399899997 ], [ -115.1809632, 36.221558399899997 ], [ -115.1809632, 36.221561099900001 ], [ -115.1809497, 36.221561099900001 ], [ -115.1809497, 36.221563799899997 ], [ -115.180947, 36.221563799899997 ], [ -115.180947, 36.221579999899994 ], [ -115.1809443, 36.221579999899994 ], [ -115.1809443, 36.221582699899997 ], [ -115.1809389, 36.221582699899997 ], [ -115.1809389, 36.2215853999 ], [ -115.1809335, 36.2215853999 ], [ -115.1809335, 36.221588099899996 ], [ -115.1809308, 36.221588099899996 ], [ -115.1809308, 36.221612399899996 ], [ -115.1809281, 36.221612399899996 ], [ -115.1809281, 36.221615099899999 ], [ -115.18092, 36.221615099899999 ], [ -115.18092, 36.221617799899995 ], [ -115.180911900000012, 36.221617799899995 ], [ -115.180911900000012, 36.221620499899998 ] ] ] } },
{ "type": "Feature", "properties": { "value": 255.0 }, "geometry": { "type": "Polygon", "coordinates": [ [ [ -115.1802099, 36.221523299899999 ], [ -115.1801127, 36.221523299899999 ], [ -115.1801127, 36.2215178999 ], [ -115.18011, 36.2215178999 ], [ -115.18011, 36.221471999899997 ], [ -115.1801127, 36.221471999899997 ], [ -115.1801127, 36.221469299899994 ], [ -115.18011, 36.221469299899994 ], [ -115.18011, 36.221444999899994 ], [ -115.1801073, 36.221444999899994 ], [ -115.1801073, 36.221428799899996 ], [ -115.1801046, 36.221428799899996 ], [ -115.1801046, 36.221417999899998 ], [ -115.1801073, 36.221417999899998 ], [ -115.1801073, 36.221412599899999 ], [ -115.18011, 36.221412599899999 ], [ -115.18011, 36.221409899899996 ], [ -115.1801262, 36.221409899899996 ], [ -115.1801262, 36.2214071999 ], [ -115.1801397, 36.2214071999 ], [ -115.1801397, 36.221404499899997 ], [ -115.1801532, 36.221404499899997 ], [ -115.1801532, 36.221399099899998 ], [ -115.1801559, 36.221399099899998 ], [ -115.1801559, 36.221396399899994 ], [ -115.1801586, 36.221396399899994 ], [ -115.1801586, 36.221393699899998 ], [ -115.1801667, 36.221393699899998 ], [ -115.1801667, 36.221390999899995 ], [ -115.1801748, 36.221390999899995 ], [ -115.1801748, 36.221361299899996 ], [ -115.1801775, 36.221361299899996 ], [ -115.1801775, 36.2213585999 ], [ -115.1802531, 36.2213585999 ], [ -115.1802531, 36.221361299899996 ], [ -115.1802558, 36.221361299899996 ], [ -115.1802558, 36.221363999899999 ], [ -115.1802585, 36.221363999899999 ], [ -115.1802585, 36.221501699899996 ], [ -115.1802504, 36.221501699899996 ], [ -115.1802504, 36.221504399899999 ], [ -115.1802153, 36.221504399899999 ], [ -115.1802153, 36.221507099899995 ], [ -115.1802126, 36.221507099899995 ], [ -115.1802126, 36.2215178999 ], [ -115.1802099, 36.2215178999 ], [ -115.1802099, 36.221523299899999 ] ] ] } },
{ "type": "Feature", "properties": { "value": 255.0 }, "geometry": { "type": "Polygon", "coordinates": [ [ [ -115.1794404, 36.2214260999 ], [ -115.1794026, 36.2214260999 ], [ -115.1794026, 36.221355899899997 ], [ -115.1794377, 36.221355899899997 ], [ -115.1794377, 36.2213585999 ], [ -115.1794404, 36.2213585999 ], [ -115.1794404, 36.2213828999 ], [ -115.1794431, 36.2213828999 ], [ -115.1794431, 36.221423399899997 ], [ -115.1794404, 36.221423399899997 ], [ -115.1794404, 36.2214260999 ] ] ] } },
{ "type": "Feature", "properties": { "value": 255.0 }, "geometry": { "type": "Polygon", "coordinates": [ [ [ -115.180569, 36.221520599899996 ], [ -115.180515, 36.221520599899996 ], [ -115.180515, 36.2215178999 ], [ -115.1805042, 36.2215178999 ], [ -115.1805042, 36.221509799899998 ], [ -115.1805015, 36.221509799899998 ], [ -115.1805015, 36.221507099899995 ], [ -115.1805042, 36.221507099899995 ], [ -115.1805042, 36.221442299899998 ], [ -115.1805015, 36.221442299899998 ], [ -115.1805015, 36.221434199899996 ], [ -115.1805042, 36.221434199899996 ], [ -115.1805042, 36.221396399899994 ], [ -115.180506900000012, 36.221396399899994 ], [ -115.180506900000012, 36.221393699899998 ], [ -115.1805096, 36.221393699899998 ], [ -115.1805096, 36.221388299899999 ], [ -115.180515, 36.221388299899999 ], [ -115.180515, 36.221385599899996 ], [ -115.1805609, 36.221385599899996 ], [ -115.1805609, 36.221396399899994 ], [ -115.1805636, 36.221396399899994 ], [ -115.1805636, 36.221404499899997 ], [ -115.180569, 36.221404499899997 ], [ -115.180569, 36.221401799899994 ], [ -115.1805717, 36.221401799899994 ], [ -115.1805717, 36.221396399899994 ], [ -115.180574400000012, 36.221396399899994 ], [ -115.180574400000012, 36.221355899899997 ], [ -115.1805771, 36.221355899899997 ], [ -115.1805771, 36.221353199899994 ], [ -115.1806554, 36.221353199899994 ], [ -115.1806554, 36.221350499899998 ], [ -115.1806608, 36.221350499899998 ], [ -115.1806608, 36.221353199899994 ], [ -115.180677, 36.221353199899994 ], [ -115.180677, 36.221404499899997 ], [ -115.1806743, 36.221404499899997 ], [ -115.1806743, 36.221423399899997 ], [ -115.180671600000011, 36.221423399899997 ], [ -115.180671600000011, 36.221447699899997 ], [ -115.1806743, 36.221447699899997 ], [ -115.1806743, 36.221496299899997 ], [ -115.180671600000011, 36.221496299899997 ], [ -115.180671600000011, 36.221515199899997 ], [ -115.1806689, 36.221515199899997 ], [ -115.1806689, 36.2215178999 ], [ -115.180569, 36.2215178999 ], [ -115.180569, 36.221520599899996 ] ] ] } },
{ "type": "Feature", "properties": { "value": 255.0 }, "geometry": { "type": "Polygon", "coordinates": [ [ [ -115.1803989, 36.221531399899995 ], [ -115.1803368, 36.221531399899995 ], [ -115.1803368, 36.221528699899999 ], [ -115.18033410000001, 36.221528699899999 ], [ -115.18033410000001, 36.221525999899995 ], [ -115.1803287, 36.221525999899995 ], [ -115.1803287, 36.221523299899999 ], [ -115.180326, 36.221523299899999 ], [ -115.180326, 36.2215178999 ], [ -115.1803233, 36.2215178999 ], [ -115.1803233, 36.221471999899997 ], [ -115.180326, 36.221471999899997 ], [ -115.180326, 36.221447699899997 ], [ -115.1803233, 36.221447699899997 ], [ -115.1803233, 36.221434199899996 ], [ -115.1803206, 36.221434199899996 ], [ -115.1803206, 36.221420699899994 ], [ -115.1803179, 36.221420699899994 ], [ -115.1803179, 36.2214071999 ], [ -115.1803206, 36.2214071999 ], [ -115.1803206, 36.221396399899994 ], [ -115.1803233, 36.221396399899994 ], [ -115.1803233, 36.221393699899998 ], [ -115.1803368, 36.221393699899998 ], [ -115.1803368, 36.221390999899995 ], [ -115.1803503, 36.221390999899995 ], [ -115.1803503, 36.221393699899998 ], [ -115.1803611, 36.221393699899998 ], [ -115.1803611, 36.221390999899995 ], [ -115.1803638, 36.221390999899995 ], [ -115.1803638, 36.221388299899999 ], [ -115.1803665, 36.221388299899999 ], [ -115.1803665, 36.221355899899997 ], [ -115.1803692, 36.221355899899997 ], [ -115.1803692, 36.221353199899994 ], [ -115.1804718, 36.221353199899994 ], [ -115.1804718, 36.221361299899996 ], [ -115.1804745, 36.221361299899996 ], [ -115.1804745, 36.221366699899995 ], [ -115.1804718, 36.221366699899995 ], [ -115.1804718, 36.221388299899999 ], [ -115.1804745, 36.221388299899999 ], [ -115.1804745, 36.221396399899994 ], [ -115.1804718, 36.221396399899994 ], [ -115.1804718, 36.2214071999 ], [ -115.18046910000001, 36.2214071999 ], [ -115.18046910000001, 36.221409899899996 ], [ -115.1804556, 36.221409899899996 ], [ -115.1804556, 36.221412599899999 ], [ -115.1804367, 36.221412599899999 ], [ -115.1804367, 36.221415299899995 ], [ -115.180434, 36.221415299899995 ], [ -115.180434, 36.221434199899996 ], [ -115.1804313, 36.221434199899996 ], [ -115.1804313, 36.221463899899994 ], [ -115.1804286, 36.221463899899994 ], [ -115.1804286, 36.221469299899994 ], [ -115.1804313, 36.221469299899994 ], [ -115.1804313, 36.221488199899994 ], [ -115.180434, 36.221488199899994 ], [ -115.180434, 36.2215178999 ], [ -115.1804313, 36.2215178999 ], [ -115.1804313, 36.221523299899999 ], [ -115.1804286, 36.221523299899999 ], [ -115.1804286, 36.221525999899995 ], [ -115.1804232, 36.221525999899995 ], [ -115.1804232, 36.221528699899999 ], [ -115.1803989, 36.221528699899999 ], [ -115.1803989, 36.221531399899995 ] ] ] } },
{ "type": "Feature", "properties": { "value": 255.0 }, "geometry": { "type": "Polygon", "coordinates": [ [ [ -115.180960500000012, 36.221466599899998 ], [ -115.1808957, 36.221466599899998 ], [ -115.1808957, 36.221463899899994 ], [ -115.180893, 36.221463899899994 ], [ -115.180893, 36.221461199899998 ], [ -115.1808903, 36.221461199899998 ], [ -115.1808903, 36.221436899899999 ], [ -115.1808849, 36.221436899899999 ], [ -115.1808849, 36.221434199899996 ], [ -115.1808471, 36.221434199899996 ], [ -115.1808471, 36.2214314999 ], [ -115.180825500000012, 36.2214314999 ], [ -115.180825500000012, 36.221434199899996 ], [ -115.1807175, 36.221434199899996 ], [ -115.1807175, 36.2214314999 ], [ -115.1807148, 36.2214314999 ], [ -115.1807148, 36.221353199899994 ], [ -115.1807175, 36.221353199899994 ], [ -115.1807175, 36.221336999899997 ], [ -115.1807364, 36.221336999899997 ], [ -115.1807364, 36.2213396999 ], [ -115.180758, 36.2213396999 ], [ -115.180758, 36.221342399899996 ], [ -115.1807607, 36.221342399899996 ], [ -115.1807607, 36.2213396999 ], [ -115.1808012, 36.2213396999 ], [ -115.1808012, 36.221342399899996 ], [ -115.1809146, 36.221342399899996 ], [ -115.1809146, 36.221345099899999 ], [ -115.18092, 36.221345099899999 ], [ -115.18092, 36.221355899899997 ], [ -115.180922700000011, 36.221355899899997 ], [ -115.180922700000011, 36.221361299899996 ], [ -115.1809254, 36.221361299899996 ], [ -115.1809254, 36.221366699899995 ], [ -115.1809281, 36.221366699899995 ], [ -115.1809281, 36.221372099899995 ], [ -115.1809335, 36.221372099899995 ], [ -115.1809335, 36.221374799899998 ], [ -115.1809443, 36.221374799899998 ], [ -115.1809443, 36.221377499899994 ], [ -115.180960500000012, 36.221377499899994 ], [ -115.180960500000012, 36.221380199899997 ], [ -115.1809632, 36.221380199899997 ], [ -115.1809632, 36.221428799899996 ], [ -115.1809659, 36.221428799899996 ], [ -115.1809659, 36.221439599899995 ], [ -115.1809632, 36.221439599899995 ], [ -115.1809632, 36.221444999899994 ], [ -115.1809659, 36.221444999899994 ], [ -115.1809659, 36.221461199899998 ], [ -115.1809632, 36.221461199899998 ], [ -115.1809632, 36.221463899899994 ], [ -115.180960500000012, 36.221463899899994 ], [ -115.180960500000012, 36.221466599899998 ] ] ] } },
{ "type": "Feature", "properties": { "value": 255.0 }, "geometry": { "type": "Polygon", "coordinates": [ [ [ -115.1805204, 36.221361299899996 ], [ -115.18051770000001, 36.221361299899996 ], [ -115.18051770000001, 36.2213585999 ], [ -115.180515, 36.2213585999 ], [ -115.180515, 36.221347799899995 ], [ -115.1805123, 36.221347799899995 ], [ -115.1805123, 36.221342399899996 ], [ -115.180515, 36.221342399899996 ], [ -115.180515, 36.221336999899997 ], [ -115.1805258, 36.221336999899997 ], [ -115.1805258, 36.2213396999 ], [ -115.1805312, 36.2213396999 ], [ -115.1805312, 36.221342399899996 ], [ -115.1805339, 36.221342399899996 ], [ -115.1805339, 36.221353199899994 ], [ -115.1805312, 36.221353199899994 ], [ -115.1805312, 36.221355899899997 ], [ -115.1805285, 36.221355899899997 ], [ -115.1805285, 36.2213585999 ], [ -115.1805204, 36.2213585999 ], [ -115.1805204, 36.221361299899996 ] ] ] } },
{ "type": "Feature", "properties": { "value": 255.0 }, "geometry": { "type": "Polygon", "coordinates": [ [ [ -115.180002, 36.2215178999 ], [ -115.1799696, 36.2215178999 ], [ -115.1799696, 36.221515199899997 ], [ -115.179966900000011, 36.221515199899997 ], [ -115.179966900000011, 36.221509799899998 ], [ -115.1799642, 36.221509799899998 ], [ -115.1799642, 36.221507099899995 ], [ -115.1799615, 36.221507099899995 ], [ -115.1799615, 36.2214989999 ], [ -115.1799642, 36.2214989999 ], [ -115.1799642, 36.221493599900001 ], [ -115.1799561, 36.221493599900001 ], [ -115.1799561, 36.221490899899997 ], [ -115.1799507, 36.221490899899997 ], [ -115.1799507, 36.221488199899994 ], [ -115.179948, 36.221488199899994 ], [ -115.179948, 36.221485499899998 ], [ -115.1799102, 36.221485499899998 ], [ -115.1799102, 36.221482799899995 ], [ -115.1799075, 36.221482799899995 ], [ -115.1799075, 36.221439599899995 ], [ -115.1799048, 36.221439599899995 ], [ -115.1799048, 36.221434199899996 ], [ -115.1799021, 36.221434199899996 ], [ -115.1799021, 36.2214260999 ], [ -115.179899400000011, 36.2214260999 ], [ -115.179899400000011, 36.221401799899994 ], [ -115.1799021, 36.221401799899994 ], [ -115.1799021, 36.221393699899998 ], [ -115.1799264, 36.221393699899998 ], [ -115.1799264, 36.221390999899995 ], [ -115.1799318, 36.221390999899995 ], [ -115.1799318, 36.221385599899996 ], [ -115.1799345, 36.221385599899996 ], [ -115.1799345, 36.221374799899998 ], [ -115.1799372, 36.221374799899998 ], [ -115.1799372, 36.221372099899995 ], [ -115.1799399, 36.221372099899995 ], [ -115.1799399, 36.221369399899999 ], [ -115.1799453, 36.221369399899999 ], [ -115.1799453, 36.221363999899999 ], [ -115.179948, 36.221363999899999 ], [ -115.179948, 36.2213585999 ], [ -115.1799507, 36.2213585999 ], [ -115.1799507, 36.221355899899997 ], [ -115.1799561, 36.221355899899997 ], [ -115.1799561, 36.221353199899994 ], [ -115.1799588, 36.221353199899994 ], [ -115.1799588, 36.221347799899995 ], [ -115.1799615, 36.221347799899995 ], [ -115.1799615, 36.221345099899999 ], [ -115.1799642, 36.221345099899999 ], [ -115.1799642, 36.221336999899997 ], [ -115.1799696, 36.221336999899997 ], [ -115.1799696, 36.221334299899993 ], [ -115.1799723, 36.221334299899993 ], [ -115.1799723, 36.221331599899997 ], [ -115.179975, 36.221331599899997 ], [ -115.179975, 36.221328899899994 ], [ -115.1799777, 36.221328899899994 ], [ -115.1799777, 36.221326199899998 ], [ -115.179975, 36.221326199899998 ], [ -115.179975, 36.2213153999 ], [ -115.1799777, 36.2213153999 ], [ -115.1799777, 36.221312699899997 ], [ -115.1799804, 36.221312699899997 ], [ -115.1799804, 36.2213153999 ], [ -115.1799858, 36.2213153999 ], [ -115.1799858, 36.221323499899995 ], [ -115.1799831, 36.221323499899995 ], [ -115.1799831, 36.221326199899998 ], [ -115.1799804, 36.221326199899998 ], [ -115.1799804, 36.221328899899994 ], [ -115.1799831, 36.221328899899994 ], [ -115.1799831, 36.221347799899995 ], [ -115.1799858, 36.221347799899995 ], [ -115.1799858, 36.221353199899994 ], [ -115.1799885, 36.221353199899994 ], [ -115.1799885, 36.221355899899997 ], [ -115.1800425, 36.221355899899997 ], [ -115.1800425, 36.2213585999 ], [ -115.1800452, 36.2213585999 ], [ -115.1800452, 36.221361299899996 ], [ -115.1800479, 36.221361299899996 ], [ -115.1800479, 36.221369399899999 ], [ -115.1800452, 36.221369399899999 ], [ -115.1800452, 36.221380199899997 ], [ -115.1800479, 36.221380199899997 ], [ -115.1800479, 36.221409899899996 ], [ -115.1800452, 36.221409899899996 ], [ -115.1800452, 36.221412599899999 ], [ -115.1800398, 36.221412599899999 ], [ -115.1800398, 36.221415299899995 ], [ -115.1800182, 36.221415299899995 ], [ -115.1800182, 36.221417999899998 ], [ -115.1800128, 36.221417999899998 ], [ -115.1800128, 36.221420699899994 ], [ -115.1800101, 36.221420699899994 ], [ -115.1800101, 36.221434199899996 ], [ -115.1800128, 36.221434199899996 ], [ -115.1800128, 36.221442299899998 ], [ -115.1800101, 36.221442299899998 ], [ -115.1800101, 36.221477399899996 ], [ -115.1800074, 36.221477399899996 ], [ -115.1800074, 36.221485499899998 ], [ -115.1800047, 36.221485499899998 ], [ -115.1800047, 36.221501699899996 ], [ -115.180002, 36.221501699899996 ], [ -115.180002, 36.2215178999 ] ], [ [ -115.17999660000001, 36.221515199899997 ], [ -115.17999660000001, 36.221512499899994 ], [ -115.1799993, 36.221512499899994 ], [ -115.1799993, 36.221507099899995 ], [ -115.1799912, 36.221507099899995 ], [ -115.1799912, 36.221509799899998 ], [ -115.1799858, 36.221509799899998 ], [ -115.1799858, 36.221512499899994 ], [ -115.1799831, 36.221512499899994 ], [ -115.1799831, 36.221515199899997 ], [ -115.17999660000001, 36.221515199899997 ] ], [ [ -115.1799831, 36.221512499899994 ], [ -115.1799831, 36.221509799899998 ], [ -115.1799777, 36.221509799899998 ], [ -115.1799777, 36.221512499899994 ], [ -115.1799831, 36.221512499899994 ] ] ] } }
]
}
