{
"type": "FeatureCollection",
"crs": { "type": "name", "properties": { "name": "urn:ogc:def:crs:OGC:1.3:CRS84" } },
"features": [
{ "type": "Feature", "properties": { "value": 255.0 }, "geometry": { "type": "Polygon", "coordinates": [ [ [ -115.1781255, 36.1528082998 ], [ -115.1780958, 36.1528082998 ], [ -115.1780958, 36.152805599799997 ], [ -115.1780823, 36.152805599799997 ], [ -115.1780823, 36.152802899800001 ], [ -115.1780796, 36.152802899800001 ], [ -115.1780796, 36.152794799799999 ], [ -115.1780769, 36.152794799799999 ], [ -115.1780769, 36.1527650998 ], [ -115.1780796, 36.1527650998 ], [ -115.1780796, 36.152762399799997 ], [ -115.1781228, 36.152762399799997 ], [ -115.1781228, 36.1527650998 ], [ -115.1781282, 36.1527650998 ], [ -115.1781282, 36.152767799799996 ], [ -115.1781309, 36.152767799799996 ], [ -115.1781309, 36.152805599799997 ], [ -115.1781255, 36.152805599799997 ], [ -115.1781255, 36.1528082998 ] ] ] } },
{ "type": "Feature", "properties": { "value": 255.0 }, "geometry": { "type": "Polygon", "coordinates": [ [ [ -115.1776503, 36.152767799799996 ], [ -115.1776476, 36.152767799799996 ], [ -115.1776476, 36.152646299799997 ], [ -115.177653, 36.152646299799997 ], [ -115.177653, 36.152643599800001 ], [ -115.1776557, 36.152643599800001 ], [ -115.1776557, 36.152646299799997 ], [ -115.1777016, 36.152646299799997 ], [ -115.1777016, 36.152643599800001 ], [ -115.177707, 36.152643599800001 ], [ -115.177707, 36.152646299799997 ], [ -115.1777691, 36.152646299799997 ], [ -115.1777691, 36.1526489998 ], [ -115.1777745, 36.1526489998 ], [ -115.1777745, 36.152651699799996 ], [ -115.1777772, 36.152651699799996 ], [ -115.1777772, 36.1527407998 ], [ -115.1777745, 36.1527407998 ], [ -115.1777745, 36.152743499799996 ], [ -115.1777178, 36.152743499799996 ], [ -115.1777178, 36.152746199799999 ], [ -115.1777151, 36.152746199799999 ], [ -115.1777151, 36.152748899799995 ], [ -115.1777097, 36.152748899799995 ], [ -115.1777097, 36.152751599799998 ], [ -115.1776719, 36.152751599799998 ], [ -115.1776719, 36.152748899799995 ], [ -115.1776584, 36.152748899799995 ], [ -115.1776584, 36.152751599799998 ], [ -115.1776557, 36.152751599799998 ], [ -115.1776557, 36.152754299800002 ], [ -115.177653, 36.152754299800002 ], [ -115.177653, 36.1527650998 ], [ -115.1776503, 36.1527650998 ], [ -115.1776503, 36.152767799799996 ] ] ] } },
{ "type": "Feature", "properties": { "value": 255.0 }, "geometry": { "type": "Polygon", "coordinates": [ [ [ -115.1778366, 36.152773199799995 ], [ -115.1778312, 36.152773199799995 ], [ -115.1778312, 36.152770499799999 ], [ -115.1778258, 36.152770499799999 ], [ -115.1778258, 36.152746199799999 ], [ -115.1778231, 36.152746199799999 ], [ -115.1778231, 36.1527407998 ], [ -115.1778204, 36.1527407998 ], [ -115.1778204, 36.152729999800002 ], [ -115.1778177, 36.152729999800002 ], [ -115.1778177, 36.152719199799996 ], [ -115.1778204, 36.152719199799996 ], [ -115.1778204, 36.152713799799997 ], [ -115.1778177, 36.152713799799997 ], [ -115.1778177, 36.152684099799998 ], [ -115.1778204, 36.152684099799998 ], [ -115.1778204, 36.152651699799996 ], [ -115.1778231, 36.152651699799996 ], [ -115.1778231, 36.152640899799998 ], [ -115.1778258, 36.152640899799998 ], [ -115.1778258, 36.152632799799996 ], [ -115.1778339, 36.152632799799996 ], [ -115.1778339, 36.152627399799997 ], [ -115.1778501, 36.152627399799997 ], [ -115.1778501, 36.1526300998 ], [ -115.1778528, 36.1526300998 ], [ -115.1778528, 36.152632799799996 ], [ -115.1778555, 36.152632799799996 ], [ -115.1778555, 36.152635499799999 ], [ -115.1778609, 36.152635499799999 ], [ -115.1778609, 36.152632799799996 ], [ -115.1778744, 36.152632799799996 ], [ -115.1778744, 36.152635499799999 ], [ -115.1778771, 36.152635499799999 ], [ -115.1778771, 36.152632799799996 ], [ -115.1778825, 36.152632799799996 ], [ -115.1778825, 36.152635499799999 ], [ -115.1778879, 36.152635499799999 ], [ -115.1778879, 36.152638199800002 ], [ -115.177896, 36.152638199800002 ], [ -115.177896, 36.152640899799998 ], [ -115.1779014, 36.152640899799998 ], [ -115.1779014, 36.152643599800001 ], [ -115.1779068, 36.152643599800001 ], [ -115.1779068, 36.152646299799997 ], [ -115.1779257, 36.152646299799997 ], [ -115.1779257, 36.152643599800001 ], [ -115.1779392, 36.152643599800001 ], [ -115.1779392, 36.152640899799998 ], [ -115.1779851, 36.152640899799998 ], [ -115.1779851, 36.152643599800001 ], [ -115.1780013, 36.152643599800001 ], [ -115.1780013, 36.152646299799997 ], [ -115.1780499, 36.152646299799997 ], [ -115.1780499, 36.1526489998 ], [ -115.1780553, 36.1526489998 ], [ -115.1780553, 36.152651699799996 ], [ -115.178058, 36.152651699799996 ], [ -115.178058, 36.152689499799997 ], [ -115.1780553, 36.152689499799997 ], [ -115.1780553, 36.152692199800001 ], [ -115.178058, 36.152692199800001 ], [ -115.178058, 36.152702999799999 ], [ -115.1780553, 36.152702999799999 ], [ -115.1780553, 36.152713799799997 ], [ -115.178058, 36.152713799799997 ], [ -115.178058, 36.152729999800002 ], [ -115.1780553, 36.152729999800002 ], [ -115.1780553, 36.1527407998 ], [ -115.1780526, 36.1527407998 ], [ -115.1780526, 36.152743499799996 ], [ -115.1780499, 36.152743499799996 ], [ -115.1780499, 36.152746199799999 ], [ -115.1780283, 36.152746199799999 ], [ -115.1780283, 36.152748899799995 ], [ -115.1779392, 36.152748899799995 ], [ -115.1779392, 36.152746199799999 ], [ -115.1779284, 36.152746199799999 ], [ -115.1779284, 36.152748899799995 ], [ -115.1779257, 36.152748899799995 ], [ -115.1779257, 36.152767799799996 ], [ -115.177923, 36.152767799799996 ], [ -115.177923, 36.152770499799999 ], [ -115.1778366, 36.152770499799999 ], [ -115.1778366, 36.152773199799995 ] ] ] } },
{ "type": "Feature", "properties": { "value": 255.0 }, "geometry": { "type": "Polygon", "coordinates": [ [ [ -115.1787411, 36.152775899799998 ], [ -115.1787303, 36.152775899799998 ], [ -115.1787303, 36.152773199799995 ], [ -115.1787222, 36.152773199799995 ], [ -115.1787222, 36.152767799799996 ], [ -115.1787195, 36.152767799799996 ], [ -115.1787195, 36.1527650998 ], [ -115.1787168, 36.1527650998 ], [ -115.1787168, 36.152759699800001 ], [ -115.1787141, 36.152759699800001 ], [ -115.1787141, 36.152751599799998 ], [ -115.1787114, 36.152751599799998 ], [ -115.1787114, 36.152746199799999 ], [ -115.1787087, 36.152746199799999 ], [ -115.1787087, 36.152743499799996 ], [ -115.1786817, 36.152743499799996 ], [ -115.1786817, 36.1527407998 ], [ -115.1786601, 36.1527407998 ], [ -115.1786601, 36.152743499799996 ], [ -115.1786331, 36.152743499799996 ], [ -115.1786331, 36.1527407998 ], [ -115.1786277, 36.1527407998 ], [ -115.1786277, 36.152675999799996 ], [ -115.1786304, 36.152675999799996 ], [ -115.1786304, 36.152667899800001 ], [ -115.1786331, 36.152667899800001 ], [ -115.1786331, 36.152665199799998 ], [ -115.1786358, 36.152665199799998 ], [ -115.1786358, 36.152640899799998 ], [ -115.1786331, 36.152640899799998 ], [ -115.1786331, 36.152616599799998 ], [ -115.1786385, 36.152616599799998 ], [ -115.1786385, 36.152613899800002 ], [ -115.1786601, 36.152613899800002 ], [ -115.1786601, 36.152611199799999 ], [ -115.1786682, 36.152611199799999 ], [ -115.1786682, 36.152613899800002 ], [ -115.1787006, 36.152613899800002 ], [ -115.1787006, 36.152616599799998 ], [ -115.1787168, 36.152616599799998 ], [ -115.1787168, 36.152613899800002 ], [ -115.1787357, 36.152613899800002 ], [ -115.1787357, 36.152611199799999 ], [ -115.1787519, 36.152611199799999 ], [ -115.1787519, 36.152608499799996 ], [ -115.1787708, 36.152608499799996 ], [ -115.1787708, 36.152611199799999 ], [ -115.1787924, 36.152611199799999 ], [ -115.1787924, 36.152613899800002 ], [ -115.1787978, 36.152613899800002 ], [ -115.1787978, 36.152611199799999 ], [ -115.1788545, 36.152611199799999 ], [ -115.1788545, 36.152613899800002 ], [ -115.1788599, 36.152613899800002 ], [ -115.1788599, 36.152616599799998 ], [ -115.1788626, 36.152616599799998 ], [ -115.1788626, 36.152678699799999 ], [ -115.1788653, 36.152678699799999 ], [ -115.1788653, 36.152692199800001 ], [ -115.178868, 36.152692199800001 ], [ -115.178868, 36.152700299799996 ], [ -115.1788707, 36.152700299799996 ], [ -115.1788707, 36.152708399799998 ], [ -115.1788734, 36.152708399799998 ], [ -115.1788734, 36.152732699799998 ], [ -115.1788761, 36.152732699799998 ], [ -115.1788761, 36.1527650998 ], [ -115.1788734, 36.1527650998 ], [ -115.1788734, 36.152767799799996 ], [ -115.1788545, 36.152767799799996 ], [ -115.1788545, 36.1527650998 ], [ -115.1787816, 36.1527650998 ], [ -115.1787816, 36.152767799799996 ], [ -115.1787681, 36.152767799799996 ], [ -115.1787681, 36.152770499799999 ], [ -115.1787573, 36.152770499799999 ], [ -115.1787573, 36.152773199799995 ], [ -115.1787411, 36.152773199799995 ], [ -115.1787411, 36.152775899799998 ] ] ] } },
{ "type": "Feature", "properties": { "value": 255.0 }, "geometry": { "type": "Polygon", "coordinates": [ [ [ -115.1784009, 36.152840699799995 ], [ -115.1783793, 36.152840699799995 ], [ -115.1783793, 36.152837999799999 ], [ -115.1783685, 36.152837999799999 ], [ -115.1783685, 36.152835299799996 ], [ -115.1783604, 36.152835299799996 ], [ -115.1783604, 36.1528325998 ], [ -115.178355, 36.1528325998 ], [ -115.178355, 36.152829899799997 ], [ -115.1783523, 36.152829899799997 ], [ -115.1783523, 36.152824499799998 ], [ -115.1783496, 36.152824499799998 ], [ -115.1783496, 36.152805599799997 ], [ -115.1783469, 36.152805599799997 ], [ -115.1783469, 36.1527839998 ], [ -115.1783496, 36.1527839998 ], [ -115.1783496, 36.152773199799995 ], [ -115.1783469, 36.152773199799995 ], [ -115.1783469, 36.1527650998 ], [ -115.1783442, 36.1527650998 ], [ -115.1783442, 36.152759699800001 ], [ -115.1783469, 36.152759699800001 ], [ -115.1783469, 36.152751599799998 ], [ -115.1783496, 36.152751599799998 ], [ -115.1783496, 36.152743499799996 ], [ -115.178355, 36.152743499799996 ], [ -115.178355, 36.1527407998 ], [ -115.1783577, 36.1527407998 ], [ -115.1783577, 36.1527218998 ], [ -115.1783604, 36.1527218998 ], [ -115.1783604, 36.152711099800001 ], [ -115.1783577, 36.152711099800001 ], [ -115.1783577, 36.152686799800001 ], [ -115.178355, 36.152686799800001 ], [ -115.178355, 36.1526057998 ], [ -115.1783577, 36.1526057998 ], [ -115.1783577, 36.152600399800001 ], [ -115.1783712, 36.152600399800001 ], [ -115.1783712, 36.152597699799998 ], [ -115.1784144, 36.152597699799998 ], [ -115.1784144, 36.152600399800001 ], [ -115.1784333, 36.152600399800001 ], [ -115.1784333, 36.152597699799998 ], [ -115.1784576, 36.152597699799998 ], [ -115.1784576, 36.152594999800002 ], [ -115.1784792, 36.152594999800002 ], [ -115.1784792, 36.152597699799998 ], [ -115.1784846, 36.152597699799998 ], [ -115.1784846, 36.152594999800002 ], [ -115.1785089, 36.152594999800002 ], [ -115.1785089, 36.152597699799998 ], [ -115.1785143, 36.152597699799998 ], [ -115.1785143, 36.152621999799997 ], [ -115.178517, 36.152621999799997 ], [ -115.178517, 36.152632799799996 ], [ -115.1785143, 36.152632799799996 ], [ -115.1785143, 36.152643599800001 ], [ -115.178517, 36.152643599800001 ], [ -115.178517, 36.152651699799996 ], [ -115.1785197, 36.152651699799996 ], [ -115.1785197, 36.152654399799999 ], [ -115.1785413, 36.152654399799999 ], [ -115.1785413, 36.152651699799996 ], [ -115.1785548, 36.152651699799996 ], [ -115.1785548, 36.152654399799999 ], [ -115.1785764, 36.152654399799999 ], [ -115.1785764, 36.152657099799995 ], [ -115.1785791, 36.152657099799995 ], [ -115.1785791, 36.152659799799999 ], [ -115.1785818, 36.152659799799999 ], [ -115.1785818, 36.152746199799999 ], [ -115.1785791, 36.152746199799999 ], [ -115.1785791, 36.152748899799995 ], [ -115.1785467, 36.152748899799995 ], [ -115.1785467, 36.152751599799998 ], [ -115.1785386, 36.152751599799998 ], [ -115.1785386, 36.152754299800002 ], [ -115.1785116, 36.152754299800002 ], [ -115.1785116, 36.152751599799998 ], [ -115.1784981, 36.152751599799998 ], [ -115.1784981, 36.152748899799995 ], [ -115.1784684, 36.152748899799995 ], [ -115.1784684, 36.152746199799999 ], [ -115.1784603, 36.152746199799999 ], [ -115.1784603, 36.152748899799995 ], [ -115.1784468, 36.152748899799995 ], [ -115.1784468, 36.152754299800002 ], [ -115.1784441, 36.152754299800002 ], [ -115.1784441, 36.152770499799999 ], [ -115.1784414, 36.152770499799999 ], [ -115.1784414, 36.152775899799998 ], [ -115.178409, 36.152775899799998 ], [ -115.178409, 36.152778599800001 ], [ -115.1784063, 36.152778599800001 ], [ -115.1784063, 36.1527839998 ], [ -115.1784036, 36.1527839998 ], [ -115.1784036, 36.1527893998 ], [ -115.1784063, 36.1527893998 ], [ -115.1784063, 36.152829899799997 ], [ -115.1784036, 36.152829899799997 ], [ -115.1784036, 36.152837999799999 ], [ -115.1784009, 36.152837999799999 ], [ -115.1784009, 36.152840699799995 ] ] ] } },
{ "type": "Feature", "properties": { "value": 255.0 }, "geometry": { "type": "Polygon", "coordinates": [ [ [ -115.1782902, 36.152775899799998 ], [ -115.1782848, 36.152775899799998 ], [ -115.1782848, 36.152773199799995 ], [ -115.1782362, 36.152773199799995 ], [ -115.1782362, 36.152775899799998 ], [ -115.1782254, 36.152775899799998 ], [ -115.1782254, 36.152773199799995 ], [ -115.1782146, 36.152773199799995 ], [ -115.1782146, 36.152767799799996 ], [ -115.1782119, 36.152767799799996 ], [ -115.1782119, 36.152754299800002 ], [ -115.1782092, 36.152754299800002 ], [ -115.1782092, 36.152751599799998 ], [ -115.1782038, 36.152751599799998 ], [ -115.1782038, 36.152748899799995 ], [ -115.1781309, 36.152748899799995 ], [ -115.1781309, 36.152751599799998 ], [ -115.1781255, 36.152751599799998 ], [ -115.1781255, 36.152748899799995 ], [ -115.1780931, 36.152748899799995 ], [ -115.1780931, 36.152746199799999 ], [ -115.1780904, 36.152746199799999 ], [ -115.1780904, 36.1527407998 ], [ -115.1780877, 36.1527407998 ], [ -115.1780877, 36.152738099799997 ], [ -115.178085, 36.152738099799997 ], [ -115.178085, 36.152732699799998 ], [ -115.1780823, 36.152732699799998 ], [ -115.1780823, 36.152729999800002 ], [ -115.1780796, 36.152729999800002 ], [ -115.1780796, 36.152727299799999 ], [ -115.1780769, 36.152727299799999 ], [ -115.1780769, 36.152719199799996 ], [ -115.1780796, 36.152719199799996 ], [ -115.1780796, 36.1527164998 ], [ -115.1780823, 36.1527164998 ], [ -115.1780823, 36.152713799799997 ], [ -115.178085, 36.152713799799997 ], [ -115.178085, 36.152667899800001 ], [ -115.1780877, 36.152667899800001 ], [ -115.1780877, 36.152662499800002 ], [ -115.178085, 36.152662499800002 ], [ -115.178085, 36.152657099799995 ], [ -115.1780823, 36.152657099799995 ], [ -115.1780823, 36.152654399799999 ], [ -115.178085, 36.152654399799999 ], [ -115.178085, 36.152651699799996 ], [ -115.1780877, 36.152651699799996 ], [ -115.1780877, 36.1526489998 ], [ -115.1782335, 36.1526489998 ], [ -115.1782335, 36.152640899799998 ], [ -115.1782362, 36.152640899799998 ], [ -115.1782362, 36.1526246998 ], [ -115.1782389, 36.1526246998 ], [ -115.1782389, 36.152616599799998 ], [ -115.1782416, 36.152616599799998 ], [ -115.1782416, 36.152613899800002 ], [ -115.1782443, 36.152613899800002 ], [ -115.1782443, 36.152611199799999 ], [ -115.1782524, 36.152611199799999 ], [ -115.1782524, 36.152608499799996 ], [ -115.1782578, 36.152608499799996 ], [ -115.1782578, 36.1526057998 ], [ -115.1782713, 36.1526057998 ], [ -115.1782713, 36.152603099799997 ], [ -115.1782848, 36.152603099799997 ], [ -115.1782848, 36.152600399800001 ], [ -115.1782875, 36.152600399800001 ], [ -115.1782875, 36.152603099799997 ], [ -115.1782956, 36.152603099799997 ], [ -115.1782956, 36.152600399800001 ], [ -115.1783064, 36.152600399800001 ], [ -115.1783064, 36.152603099799997 ], [ -115.1783172, 36.152603099799997 ], [ -115.1783172, 36.1526057998 ], [ -115.1783199, 36.1526057998 ], [ -115.1783199, 36.152621999799997 ], [ -115.1783226, 36.152621999799997 ], [ -115.1783226, 36.152632799799996 ], [ -115.1783199, 36.152632799799996 ], [ -115.1783199, 36.152689499799997 ], [ -115.1783226, 36.152689499799997 ], [ -115.1783226, 36.1527407998 ], [ -115.1783199, 36.1527407998 ], [ -115.1783199, 36.152746199799999 ], [ -115.1783172, 36.152746199799999 ], [ -115.1783172, 36.152751599799998 ], [ -115.1783145, 36.152751599799998 ], [ -115.1783145, 36.152767799799996 ], [ -115.1783118, 36.152767799799996 ], [ -115.1783118, 36.152773199799995 ], [ -115.1782902, 36.152773199799995 ], [ -115.1782902, 36.152775899799998 ] ] ] } },
{ "type": "Feature", "properties": { "value": 255.0 }, "geometry": { "type": "Polygon", "coordinates": [ [ [ -115.1793729, 36.152775899799998 ], [ -115.17929190000001, 36.152775899799998 ], [ -115.17929190000001, 36.152773199799995 ], [ -115.1792838, 36.152773199799995 ], [ -115.1792838, 36.152770499799999 ], [ -115.1792703, 36.152770499799999 ], [ -115.1792703, 36.152767799799996 ], [ -115.17922440000001, 36.152767799799996 ], [ -115.17922440000001, 36.1527650998 ], [ -115.1791542, 36.1527650998 ], [ -115.1791542, 36.152759699800001 ], [ -115.1791515, 36.152759699800001 ], [ -115.1791515, 36.152751599799998 ], [ -115.1791488, 36.152751599799998 ], [ -115.1791488, 36.152732699799998 ], [ -115.1791515, 36.152732699799998 ], [ -115.1791515, 36.152681399799995 ], [ -115.1791542, 36.152681399799995 ], [ -115.1791542, 36.152651699799996 ], [ -115.1791515, 36.152651699799996 ], [ -115.1791515, 36.152632799799996 ], [ -115.1791542, 36.152632799799996 ], [ -115.1791542, 36.152616599799998 ], [ -115.17915690000001, 36.152616599799998 ], [ -115.17915690000001, 36.152611199799999 ], [ -115.1791596, 36.152611199799999 ], [ -115.1791596, 36.152608499799996 ], [ -115.179165, 36.152608499799996 ], [ -115.179165, 36.1526057998 ], [ -115.1791677, 36.1526057998 ], [ -115.1791677, 36.152603099799997 ], [ -115.1791704, 36.152603099799997 ], [ -115.1791704, 36.152600399800001 ], [ -115.1791731, 36.152600399800001 ], [ -115.1791731, 36.152597699799998 ], [ -115.1791839, 36.152597699799998 ], [ -115.1791839, 36.152594999800002 ], [ -115.1791866, 36.152594999800002 ], [ -115.1791866, 36.152592299799998 ], [ -115.1791893, 36.152592299799998 ], [ -115.1791893, 36.152594999800002 ], [ -115.179192, 36.152594999800002 ], [ -115.179192, 36.152592299799998 ], [ -115.1791974, 36.152592299799998 ], [ -115.1791974, 36.152594999800002 ], [ -115.1792082, 36.152594999800002 ], [ -115.1792082, 36.152592299799998 ], [ -115.1792622, 36.152592299799998 ], [ -115.1792622, 36.152594999800002 ], [ -115.1792676, 36.152594999800002 ], [ -115.1792676, 36.152592299799998 ], [ -115.179327, 36.152592299799998 ], [ -115.179327, 36.152594999800002 ], [ -115.1793567, 36.152594999800002 ], [ -115.1793567, 36.152592299799998 ], [ -115.17935940000001, 36.152592299799998 ], [ -115.17935940000001, 36.152594999800002 ], [ -115.1793729, 36.152594999800002 ], [ -115.1793729, 36.152597699799998 ], [ -115.1793918, 36.152597699799998 ], [ -115.1793918, 36.152603099799997 ], [ -115.1793945, 36.152603099799997 ], [ -115.1793945, 36.1526057998 ], [ -115.1793999, 36.1526057998 ], [ -115.1793999, 36.152608499799996 ], [ -115.1794026, 36.152608499799996 ], [ -115.1794026, 36.152762399799997 ], [ -115.1793999, 36.152762399799997 ], [ -115.1793999, 36.1527650998 ], [ -115.1793864, 36.1527650998 ], [ -115.1793864, 36.152767799799996 ], [ -115.1793756, 36.152767799799996 ], [ -115.1793756, 36.152770499799999 ], [ -115.1793729, 36.152770499799999 ], [ -115.1793729, 36.152775899799998 ] ] ] } },
{ "type": "Feature", "properties": { "value": 255.0 }, "geometry": { "type": "Polygon", "coordinates": [ [ [ -115.1778852, 36.152308799799997 ], [ -115.1778663, 36.152308799799997 ], [ -115.1778663, 36.152306099800001 ], [ -115.1778501, 36.152306099800001 ], [ -115.1778501, 36.152303399799997 ], [ -115.1778339, 36.152303399799997 ], [ -115.1778339, 36.152300699800001 ], [ -115.1778285, 36.152300699800001 ], [ -115.1778285, 36.152297999799998 ], [ -115.1778231, 36.152297999799998 ], [ -115.1778231, 36.152295299800002 ], [ -115.1778204, 36.152295299800002 ], [ -115.1778204, 36.152292599799999 ], [ -115.1778177, 36.152292599799999 ], [ -115.1778177, 36.1522871998 ], [ -115.177815, 36.1522871998 ], [ -115.177815, 36.1522628998 ], [ -115.1778123, 36.1522628998 ], [ -115.1778123, 36.1521953998 ], [ -115.177815, 36.1521953998 ], [ -115.177815, 36.152168399799997 ], [ -115.1778177, 36.152168399799997 ], [ -115.1778177, 36.152157599799999 ], [ -115.177815, 36.152157599799999 ], [ -115.177815, 36.1521521998 ], [ -115.1778177, 36.1521521998 ], [ -115.1778177, 36.152149499799997 ], [ -115.1778339, 36.152149499799997 ], [ -115.1778339, 36.152146799800001 ], [ -115.177842, 36.152146799800001 ], [ -115.177842, 36.152144099799997 ], [ -115.1778474, 36.152144099799997 ], [ -115.1778474, 36.152141399800001 ], [ -115.1778555, 36.152141399800001 ], [ -115.1778555, 36.152138699799998 ], [ -115.1778771, 36.152138699799998 ], [ -115.1778771, 36.152141399800001 ], [ -115.177896, 36.152141399800001 ], [ -115.177896, 36.152138699799998 ], [ -115.1779095, 36.152138699799998 ], [ -115.1779095, 36.152141399800001 ], [ -115.1779365, 36.152141399800001 ], [ -115.1779365, 36.152144099799997 ], [ -115.1779581, 36.152144099799997 ], [ -115.1779581, 36.152146799800001 ], [ -115.177977, 36.152146799800001 ], [ -115.177977, 36.152144099799997 ], [ -115.1779905, 36.152144099799997 ], [ -115.1779905, 36.152138699799998 ], [ -115.1779932, 36.152138699799998 ], [ -115.1779932, 36.152135999800002 ], [ -115.1779959, 36.152135999800002 ], [ -115.1779959, 36.152133299799999 ], [ -115.1780094, 36.152133299799999 ], [ -115.1780094, 36.152130599800003 ], [ -115.1780418, 36.152130599800003 ], [ -115.1780418, 36.152133299799999 ], [ -115.1780445, 36.152133299799999 ], [ -115.1780445, 36.1521521998 ], [ -115.1780472, 36.1521521998 ], [ -115.1780472, 36.152154899800003 ], [ -115.1780499, 36.152154899800003 ], [ -115.1780499, 36.152160299800002 ], [ -115.1780526, 36.152160299800002 ], [ -115.1780526, 36.152214299800001 ], [ -115.1780553, 36.152214299800001 ], [ -115.1780553, 36.152233199800001 ], [ -115.1780526, 36.152233199800001 ], [ -115.1780526, 36.152249399799999 ], [ -115.1779203, 36.152249399799999 ], [ -115.1779203, 36.152252099800002 ], [ -115.1779014, 36.152252099800002 ], [ -115.1779014, 36.152260199799997 ], [ -115.1778987, 36.152260199799997 ], [ -115.1778987, 36.1522628998 ], [ -115.1779014, 36.1522628998 ], [ -115.1779014, 36.152273699799998 ], [ -115.1778987, 36.152273699799998 ], [ -115.1778987, 36.152303399799997 ], [ -115.177896, 36.152303399799997 ], [ -115.177896, 36.152306099800001 ], [ -115.1778852, 36.152306099800001 ], [ -115.1778852, 36.152308799799997 ] ] ] } },
{ "type": "Feature", "properties": { "value": 255.0 }, "geometry": { "type": "Polygon", "coordinates": [ [ [ -115.1777772, 36.152300699800001 ], [ -115.1777448, 36.152300699800001 ], [ -115.1777448, 36.152297999799998 ], [ -115.1777232, 36.152297999799998 ], [ -115.1777232, 36.152300699800001 ], [ -115.1777016, 36.152300699800001 ], [ -115.1777016, 36.152297999799998 ], [ -115.1776962, 36.152297999799998 ], [ -115.1776962, 36.152252099800002 ], [ -115.1776935, 36.152252099800002 ], [ -115.1776935, 36.152249399799999 ], [ -115.1776881, 36.152249399799999 ], [ -115.1776881, 36.152246699800003 ], [ -115.1776584, 36.152246699800003 ], [ -115.1776584, 36.152249399799999 ], [ -115.1776476, 36.152249399799999 ], [ -115.1776476, 36.152154899800003 ], [ -115.1776584, 36.152154899800003 ], [ -115.1776584, 36.1521521998 ], [ -115.1776638, 36.1521521998 ], [ -115.1776638, 36.152146799800001 ], [ -115.1776665, 36.152146799800001 ], [ -115.1776665, 36.152141399800001 ], [ -115.1776638, 36.152141399800001 ], [ -115.1776638, 36.152135999800002 ], [ -115.1776665, 36.152135999800002 ], [ -115.1776665, 36.152133299799999 ], [ -115.1776692, 36.152133299799999 ], [ -115.1776692, 36.152130599800003 ], [ -115.1776773, 36.152130599800003 ], [ -115.1776773, 36.1521278998 ], [ -115.1776854, 36.1521278998 ], [ -115.1776854, 36.152125199799997 ], [ -115.1777745, 36.152125199799997 ], [ -115.1777745, 36.152130599800003 ], [ -115.1777772, 36.152130599800003 ], [ -115.1777772, 36.152146799800001 ], [ -115.1777799, 36.152146799800001 ], [ -115.1777799, 36.152162999799998 ], [ -115.1777826, 36.152162999799998 ], [ -115.1777826, 36.152206199799998 ], [ -115.1777799, 36.152206199799998 ], [ -115.1777799, 36.152297999799998 ], [ -115.1777772, 36.152297999799998 ], [ -115.1777772, 36.152300699800001 ] ] ] } },
{ "type": "Feature", "properties": { "value": 255.0 }, "geometry": { "type": "Polygon", "coordinates": [ [ [ -115.1783118, 36.152306099800001 ], [ -115.1782497, 36.152306099800001 ], [ -115.1782497, 36.152303399799997 ], [ -115.1782416, 36.152303399799997 ], [ -115.1782416, 36.152297999799998 ], [ -115.1782389, 36.152297999799998 ], [ -115.1782389, 36.152246699800003 ], [ -115.1782335, 36.152246699800003 ], [ -115.1782335, 36.1522439998 ], [ -115.1781606, 36.1522439998 ], [ -115.1781606, 36.152246699800003 ], [ -115.1781417, 36.152246699800003 ], [ -115.1781417, 36.1522439998 ], [ -115.1780958, 36.1522439998 ], [ -115.1780958, 36.1522385998 ], [ -115.1780931, 36.1522385998 ], [ -115.1780931, 36.152211599799998 ], [ -115.1780958, 36.152211599799998 ], [ -115.1780958, 36.1521710998 ], [ -115.1780985, 36.1521710998 ], [ -115.1780985, 36.152165699800001 ], [ -115.1780958, 36.152165699800001 ], [ -115.1780958, 36.152157599799999 ], [ -115.1780985, 36.152157599799999 ], [ -115.1780985, 36.152154899800003 ], [ -115.1781012, 36.152154899800003 ], [ -115.1781012, 36.1521521998 ], [ -115.1781552, 36.1521521998 ], [ -115.1781552, 36.152154899800003 ], [ -115.1781633, 36.152154899800003 ], [ -115.1781633, 36.1521521998 ], [ -115.1782119, 36.1521521998 ], [ -115.1782119, 36.152149499799997 ], [ -115.1782173, 36.152149499799997 ], [ -115.1782173, 36.152141399800001 ], [ -115.17822, 36.152141399800001 ], [ -115.17822, 36.152135999800002 ], [ -115.1782227, 36.152135999800002 ], [ -115.1782227, 36.152133299799999 ], [ -115.1782362, 36.152133299799999 ], [ -115.1782362, 36.152130599800003 ], [ -115.1782929, 36.152130599800003 ], [ -115.1782929, 36.152133299799999 ], [ -115.1782956, 36.152133299799999 ], [ -115.1782956, 36.152141399800001 ], [ -115.1782983, 36.152141399800001 ], [ -115.1782983, 36.1521521998 ], [ -115.178301, 36.1521521998 ], [ -115.178301, 36.152154899800003 ], [ -115.1783145, 36.152154899800003 ], [ -115.1783145, 36.152157599799999 ], [ -115.1783226, 36.152157599799999 ], [ -115.1783226, 36.152203499800002 ], [ -115.1783199, 36.152203499800002 ], [ -115.1783199, 36.152211599799998 ], [ -115.1783226, 36.152211599799998 ], [ -115.1783226, 36.152216999799997 ], [ -115.1783199, 36.152216999799997 ], [ -115.1783199, 36.152284499799997 ], [ -115.1783172, 36.152284499799997 ], [ -115.1783172, 36.152303399799997 ], [ -115.1783118, 36.152303399799997 ], [ -115.1783118, 36.152306099800001 ] ] ] } },
{ "type": "Feature", "properties": { "value": 255.0 }, "geometry": { "type": "Polygon", "coordinates": [ [ [ -115.178544, 36.152308799799997 ], [ -115.1785062, 36.152308799799997 ], [ -115.1785062, 36.152306099800001 ], [ -115.1785008, 36.152306099800001 ], [ -115.1785008, 36.152300699800001 ], [ -115.1784981, 36.152300699800001 ], [ -115.1784981, 36.152289899799996 ], [ -115.1785008, 36.152289899799996 ], [ -115.1785008, 36.152260199799997 ], [ -115.1784981, 36.152260199799997 ], [ -115.1784981, 36.152257499800001 ], [ -115.1784954, 36.152257499800001 ], [ -115.1784954, 36.152254799799998 ], [ -115.1783631, 36.152254799799998 ], [ -115.1783631, 36.152252099800002 ], [ -115.1783604, 36.152252099800002 ], [ -115.1783604, 36.152249399799999 ], [ -115.1783577, 36.152249399799999 ], [ -115.1783577, 36.152187299799998 ], [ -115.178355, 36.152187299799998 ], [ -115.178355, 36.152162999799998 ], [ -115.1783577, 36.152162999799998 ], [ -115.1783577, 36.1521521998 ], [ -115.1783712, 36.1521521998 ], [ -115.1783712, 36.152149499799997 ], [ -115.1784036, 36.152149499799997 ], [ -115.1784036, 36.152146799800001 ], [ -115.1784117, 36.152146799800001 ], [ -115.1784117, 36.152144099799997 ], [ -115.1784252, 36.152144099799997 ], [ -115.1784252, 36.152146799800001 ], [ -115.1784333, 36.152146799800001 ], [ -115.1784333, 36.152144099799997 ], [ -115.1784441, 36.152144099799997 ], [ -115.1784441, 36.152141399800001 ], [ -115.1784549, 36.152141399800001 ], [ -115.1784549, 36.152138699799998 ], [ -115.1784603, 36.152138699799998 ], [ -115.1784603, 36.152135999800002 ], [ -115.1784684, 36.152135999800002 ], [ -115.1784684, 36.152133299799999 ], [ -115.1784819, 36.152133299799999 ], [ -115.1784819, 36.152130599800003 ], [ -115.1785305, 36.152130599800003 ], [ -115.1785305, 36.152133299799999 ], [ -115.1785359, 36.152133299799999 ], [ -115.1785359, 36.152130599800003 ], [ -115.1785386, 36.152130599800003 ], [ -115.1785386, 36.152133299799999 ], [ -115.1785791, 36.152133299799999 ], [ -115.1785791, 36.152135999800002 ], [ -115.1785818, 36.152135999800002 ], [ -115.1785818, 36.152146799800001 ], [ -115.1785845, 36.152146799800001 ], [ -115.1785845, 36.152165699800001 ], [ -115.1785872, 36.152165699800001 ], [ -115.1785872, 36.152189999800001 ], [ -115.1785845, 36.152189999800001 ], [ -115.1785845, 36.152227799800002 ], [ -115.1785872, 36.152227799800002 ], [ -115.1785872, 36.152270999800002 ], [ -115.1785845, 36.152270999800002 ], [ -115.1785845, 36.152306099800001 ], [ -115.178544, 36.152306099800001 ], [ -115.178544, 36.152308799799997 ] ] ] } },
{ "type": "Feature", "properties": { "value": 255.0 }, "geometry": { "type": "Polygon", "coordinates": [ [ [ -115.1787006, 36.152308799799997 ], [ -115.1786223, 36.152308799799997 ], [ -115.1786223, 36.152306099800001 ], [ -115.1786196, 36.152306099800001 ], [ -115.1786196, 36.152268299799999 ], [ -115.1786223, 36.152268299799999 ], [ -115.1786223, 36.152214299800001 ], [ -115.1786196, 36.152214299800001 ], [ -115.1786196, 36.152189999800001 ], [ -115.1786223, 36.152189999800001 ], [ -115.1786223, 36.152146799800001 ], [ -115.178625, 36.152146799800001 ], [ -115.178625, 36.152144099799997 ], [ -115.1786223, 36.152144099799997 ], [ -115.1786223, 36.152135999800002 ], [ -115.178625, 36.152135999800002 ], [ -115.178625, 36.152119799799998 ], [ -115.1786277, 36.152119799799998 ], [ -115.1786277, 36.152108999799999 ], [ -115.1786385, 36.152108999799999 ], [ -115.1786385, 36.152106299800003 ], [ -115.178679, 36.152106299800003 ], [ -115.178679, 36.152108999799999 ], [ -115.1786898, 36.152108999799999 ], [ -115.1786898, 36.152106299800003 ], [ -115.1788059, 36.152106299800003 ], [ -115.1788059, 36.1521035998 ], [ -115.1788113, 36.1521035998 ], [ -115.1788113, 36.152106299800003 ], [ -115.1788275, 36.152106299800003 ], [ -115.1788275, 36.1521035998 ], [ -115.1788383, 36.1521035998 ], [ -115.1788383, 36.152106299800003 ], [ -115.1788437, 36.152106299800003 ], [ -115.1788437, 36.1521035998 ], [ -115.178868, 36.1521035998 ], [ -115.178868, 36.152100899799997 ], [ -115.1788788, 36.152100899799997 ], [ -115.1788788, 36.1521035998 ], [ -115.1788815, 36.1521035998 ], [ -115.1788815, 36.152106299800003 ], [ -115.1788842, 36.152106299800003 ], [ -115.1788842, 36.152108999799999 ], [ -115.1788869, 36.152108999799999 ], [ -115.1788869, 36.152125199799997 ], [ -115.1788896, 36.152125199799997 ], [ -115.1788896, 36.1521521998 ], [ -115.1788869, 36.1521521998 ], [ -115.1788869, 36.152154899800003 ], [ -115.1788653, 36.152154899800003 ], [ -115.1788653, 36.152157599799999 ], [ -115.1788626, 36.152157599799999 ], [ -115.1788626, 36.152165699800001 ], [ -115.1788599, 36.152165699800001 ], [ -115.1788599, 36.152184599800002 ], [ -115.1788626, 36.152184599800002 ], [ -115.1788626, 36.152216999799997 ], [ -115.1788599, 36.152216999799997 ], [ -115.1788599, 36.152225099799999 ], [ -115.1788626, 36.152225099799999 ], [ -115.1788626, 36.1522385998 ], [ -115.1788599, 36.1522385998 ], [ -115.1788599, 36.152249399799999 ], [ -115.1788572, 36.152249399799999 ], [ -115.1788572, 36.152252099800002 ], [ -115.1788545, 36.152252099800002 ], [ -115.1788545, 36.152254799799998 ], [ -115.1788356, 36.152254799799998 ], [ -115.1788356, 36.152257499800001 ], [ -115.1787087, 36.152257499800001 ], [ -115.1787087, 36.152303399799997 ], [ -115.178706, 36.152303399799997 ], [ -115.178706, 36.152306099800001 ], [ -115.1787006, 36.152306099800001 ], [ -115.1787006, 36.152308799799997 ] ] ] } },
{ "type": "Feature", "properties": { "value": 255.0 }, "geometry": { "type": "Polygon", "coordinates": [ [ [ -115.1791974, 36.152327699799997 ], [ -115.1791893, 36.152327699799997 ], [ -115.1791893, 36.152324999800001 ], [ -115.17915690000001, 36.152324999800001 ], [ -115.17915690000001, 36.152322299799998 ], [ -115.1791542, 36.152322299799998 ], [ -115.1791542, 36.152308799799997 ], [ -115.1791515, 36.152308799799997 ], [ -115.1791515, 36.152198099800003 ], [ -115.1791542, 36.152198099800003 ], [ -115.1791542, 36.152141399800001 ], [ -115.17915690000001, 36.152141399800001 ], [ -115.17915690000001, 36.1520846998 ], [ -115.1791596, 36.1520846998 ], [ -115.1791596, 36.1520792998 ], [ -115.1791623, 36.1520792998 ], [ -115.1791623, 36.152076599799997 ], [ -115.179165, 36.152076599799997 ], [ -115.179165, 36.152073899800001 ], [ -115.1791947, 36.152073899800001 ], [ -115.1791947, 36.152076599799997 ], [ -115.1792406, 36.152076599799997 ], [ -115.1792406, 36.1520792998 ], [ -115.1792433, 36.1520792998 ], [ -115.1792433, 36.152081999799996 ], [ -115.179246, 36.152081999799996 ], [ -115.179246, 36.152181899799999 ], [ -115.1792487, 36.152181899799999 ], [ -115.1792487, 36.152187299799998 ], [ -115.1792514, 36.152187299799998 ], [ -115.1792514, 36.152189999800001 ], [ -115.179273, 36.152189999800001 ], [ -115.179273, 36.152187299799998 ], [ -115.17929190000001, 36.152187299799998 ], [ -115.17929190000001, 36.152184599800002 ], [ -115.1793243, 36.152184599800002 ], [ -115.1793243, 36.152181899799999 ], [ -115.1793432, 36.152181899799999 ], [ -115.1793432, 36.152184599800002 ], [ -115.1793513, 36.152184599800002 ], [ -115.1793513, 36.152181899799999 ], [ -115.179354, 36.152181899799999 ], [ -115.179354, 36.152184599800002 ], [ -115.1793756, 36.152184599800002 ], [ -115.1793756, 36.152181899799999 ], [ -115.1793864, 36.152181899799999 ], [ -115.1793864, 36.152179199800003 ], [ -115.1793918, 36.152179199800003 ], [ -115.1793918, 36.152184599800002 ], [ -115.1793945, 36.152184599800002 ], [ -115.1793945, 36.152198099800003 ], [ -115.1793918, 36.152198099800003 ], [ -115.1793918, 36.152206199799998 ], [ -115.1793945, 36.152206199799998 ], [ -115.1793945, 36.152211599799998 ], [ -115.1793918, 36.152211599799998 ], [ -115.1793918, 36.152216999799997 ], [ -115.1793891, 36.152216999799997 ], [ -115.1793891, 36.152260199799997 ], [ -115.1793918, 36.152260199799997 ], [ -115.1793918, 36.152273699799998 ], [ -115.1793891, 36.152273699799998 ], [ -115.1793891, 36.152281799800001 ], [ -115.1793864, 36.152281799800001 ], [ -115.1793864, 36.152303399799997 ], [ -115.1793837, 36.152303399799997 ], [ -115.1793837, 36.152314199800003 ], [ -115.179381, 36.152314199800003 ], [ -115.179381, 36.152316899799999 ], [ -115.1793648, 36.152316899799999 ], [ -115.1793648, 36.152319599800002 ], [ -115.179354, 36.152319599800002 ], [ -115.179354, 36.152322299799998 ], [ -115.1793432, 36.152322299799998 ], [ -115.1793432, 36.152324999800001 ], [ -115.1793, 36.152324999800001 ], [ -115.1793, 36.152319599800002 ], [ -115.1792973, 36.152319599800002 ], [ -115.1792973, 36.152300699800001 ], [ -115.1792946, 36.152300699800001 ], [ -115.1792946, 36.152297999799998 ], [ -115.17929190000001, 36.152297999799998 ], [ -115.17929190000001, 36.152295299800002 ], [ -115.1792514, 36.152295299800002 ], [ -115.1792514, 36.152297999799998 ], [ -115.1792433, 36.152297999799998 ], [ -115.1792433, 36.152295299800002 ], [ -115.1792352, 36.152295299800002 ], [ -115.1792352, 36.152297999799998 ], [ -115.1792298, 36.152297999799998 ], [ -115.1792298, 36.152316899799999 ], [ -115.1792271, 36.152316899799999 ], [ -115.1792271, 36.152324999800001 ], [ -115.1791974, 36.152324999800001 ], [ -115.1791974, 36.152327699799997 ] ] ] } },
{ "type": "Feature", "properties": { "value": 255.0 }, "geometry": { "type": "Polygon", "coordinates": [ [ [ -115.1791191, 36.152073899800001 ], [ -115.1791002, 36.152073899800001 ], [ -115.1791002, 36.152071199799998 ], [ -115.1790975, 36.152071199799998 ], [ -115.1790975, 36.152057699799997 ], [ -115.1791002, 36.152057699799997 ], [ -115.1791002, 36.152054999800001 ], [ -115.1791164, 36.152054999800001 ], [ -115.1791164, 36.152052299799998 ], [ -115.1791191, 36.152052299799998 ], [ -115.1791191, 36.152054999800001 ], [ -115.1791245, 36.152054999800001 ], [ -115.1791245, 36.152068499800002 ], [ -115.1791218, 36.152068499800002 ], [ -115.1791218, 36.152071199799998 ], [ -115.1791191, 36.152071199799998 ], [ -115.1791191, 36.152073899800001 ] ] ] } },
{ "type": "Feature", "properties": { "value": 255.0 }, "geometry": { "type": "Polygon", "coordinates": [ [ [ -115.1776584, 36.151987499800001 ], [ -115.1776476, 36.151987499800001 ], [ -115.1776476, 36.151865999800002 ], [ -115.1777124, 36.151865999800002 ], [ -115.1777124, 36.151868699799998 ], [ -115.1777772, 36.151868699799998 ], [ -115.1777772, 36.151871399800001 ], [ -115.1777826, 36.151871399800001 ], [ -115.1777826, 36.151879499800003 ], [ -115.1777853, 36.151879499800003 ], [ -115.1777853, 36.151887599799998 ], [ -115.1777826, 36.151887599799998 ], [ -115.1777826, 36.1519010998 ], [ -115.1777853, 36.1519010998 ], [ -115.1777853, 36.151922699800004 ], [ -115.1777826, 36.151922699800004 ], [ -115.1777826, 36.151952399800003 ], [ -115.1777799, 36.151952399800003 ], [ -115.1777799, 36.151963199800001 ], [ -115.1777772, 36.151963199800001 ], [ -115.1777772, 36.1519685998 ], [ -115.1777745, 36.1519685998 ], [ -115.1777745, 36.151971299800003 ], [ -115.1777718, 36.151971299800003 ], [ -115.1777718, 36.151973999799999 ], [ -115.1777475, 36.151973999799999 ], [ -115.1777475, 36.151971299800003 ], [ -115.1777313, 36.151971299800003 ], [ -115.1777313, 36.1519685998 ], [ -115.1777151, 36.1519685998 ], [ -115.1777151, 36.151971299800003 ], [ -115.1777097, 36.151971299800003 ], [ -115.1777097, 36.1519685998 ], [ -115.177707, 36.1519685998 ], [ -115.177707, 36.151971299800003 ], [ -115.1777043, 36.151971299800003 ], [ -115.1777043, 36.1519685998 ], [ -115.1776989, 36.1519685998 ], [ -115.1776989, 36.151965899799997 ], [ -115.1776962, 36.151965899799997 ], [ -115.1776962, 36.151963199800001 ], [ -115.1776908, 36.151963199800001 ], [ -115.1776908, 36.151965899799997 ], [ -115.1776881, 36.151965899799997 ], [ -115.1776881, 36.151973999799999 ], [ -115.17768, 36.151973999799999 ], [ -115.17768, 36.151971299800003 ], [ -115.1776773, 36.151971299800003 ], [ -115.1776773, 36.1519685998 ], [ -115.1776746, 36.1519685998 ], [ -115.1776746, 36.151971299800003 ], [ -115.1776719, 36.151971299800003 ], [ -115.1776719, 36.151979399799998 ], [ -115.1776665, 36.151979399799998 ], [ -115.1776665, 36.151982099800001 ], [ -115.1776638, 36.151982099800001 ], [ -115.1776638, 36.151984799799997 ], [ -115.1776584, 36.151984799799997 ], [ -115.1776584, 36.151987499800001 ] ] ] } },
{ "type": "Feature", "properties": { "value": 255.0 }, "geometry": { "type": "Polygon", "coordinates": [ [ [ -115.1780229, 36.151990199799997 ], [ -115.1779554, 36.151990199799997 ], [ -115.1779554, 36.151973999799999 ], [ -115.1779527, 36.151973999799999 ], [ -115.1779527, 36.151971299800003 ], [ -115.17795, 36.151971299800003 ], [ -115.17795, 36.1519685998 ], [ -115.1779473, 36.1519685998 ], [ -115.1779473, 36.151965899799997 ], [ -115.1779392, 36.151965899799997 ], [ -115.1779392, 36.151963199800001 ], [ -115.1778933, 36.151963199800001 ], [ -115.1778933, 36.151965899799997 ], [ -115.1778825, 36.151965899799997 ], [ -115.1778825, 36.151963199800001 ], [ -115.1778312, 36.151963199800001 ], [ -115.1778312, 36.151960499799998 ], [ -115.1778285, 36.151960499799998 ], [ -115.1778285, 36.151955099799999 ], [ -115.1778258, 36.151955099799999 ], [ -115.1778258, 36.151938899800001 ], [ -115.1778285, 36.151938899800001 ], [ -115.1778285, 36.151906499799999 ], [ -115.1778312, 36.151906499799999 ], [ -115.1778312, 36.151898399800004 ], [ -115.1778285, 36.151898399800004 ], [ -115.1778285, 36.151865999800002 ], [ -115.1778312, 36.151865999800002 ], [ -115.1778312, 36.151863299799999 ], [ -115.1779284, 36.151863299799999 ], [ -115.1779284, 36.151865999800002 ], [ -115.1779527, 36.151865999800002 ], [ -115.1779527, 36.151863299799999 ], [ -115.1779905, 36.151863299799999 ], [ -115.1779905, 36.151865999800002 ], [ -115.1780121, 36.151865999800002 ], [ -115.1780121, 36.151863299799999 ], [ -115.1780202, 36.151863299799999 ], [ -115.1780202, 36.1518578998 ], [ -115.1780229, 36.1518578998 ], [ -115.1780229, 36.151860599800003 ], [ -115.1780337, 36.151860599800003 ], [ -115.1780337, 36.1518578998 ], [ -115.1780445, 36.1518578998 ], [ -115.1780445, 36.151860599800003 ], [ -115.1780526, 36.151860599800003 ], [ -115.1780526, 36.151863299799999 ], [ -115.1780553, 36.151863299799999 ], [ -115.1780553, 36.151871399800001 ], [ -115.178058, 36.151871399800001 ], [ -115.178058, 36.151960499799998 ], [ -115.1780553, 36.151960499799998 ], [ -115.1780553, 36.151963199800001 ], [ -115.178031, 36.151963199800001 ], [ -115.178031, 36.151965899799997 ], [ -115.1780283, 36.151965899799997 ], [ -115.1780283, 36.151982099800001 ], [ -115.1780256, 36.151982099800001 ], [ -115.1780256, 36.151987499800001 ], [ -115.1780229, 36.151987499800001 ], [ -115.1780229, 36.151990199799997 ] ] ] } },
{ "type": "Feature", "properties": { "value": 255.0 }, "geometry": { "type": "Polygon", "coordinates": [ [ [ -115.1784657, 36.1519928998 ], [ -115.1783982, 36.1519928998 ], [ -115.1783982, 36.151990199799997 ], [ -115.1783955, 36.151990199799997 ], [ -115.1783955, 36.151979399799998 ], [ -115.1783928, 36.151979399799998 ], [ -115.1783928, 36.1519685998 ], [ -115.1783874, 36.1519685998 ], [ -115.1783874, 36.151965899799997 ], [ -115.178382, 36.151965899799997 ], [ -115.178382, 36.1519685998 ], [ -115.1783631, 36.1519685998 ], [ -115.1783631, 36.151965899799997 ], [ -115.1783577, 36.151965899799997 ], [ -115.1783577, 36.151960499799998 ], [ -115.178355, 36.151960499799998 ], [ -115.178355, 36.151938899800001 ], [ -115.1783523, 36.151938899800001 ], [ -115.1783523, 36.1519199998 ], [ -115.1783496, 36.1519199998 ], [ -115.1783496, 36.151909199800002 ], [ -115.1783523, 36.151909199800002 ], [ -115.1783523, 36.151903799800003 ], [ -115.1783496, 36.151903799800003 ], [ -115.1783496, 36.1519010998 ], [ -115.1783523, 36.1519010998 ], [ -115.1783523, 36.151882199799999 ], [ -115.178355, 36.151882199799999 ], [ -115.178355, 36.151871399800001 ], [ -115.1783577, 36.151871399800001 ], [ -115.1783577, 36.151841699800002 ], [ -115.1783604, 36.151841699800002 ], [ -115.1783604, 36.151838999799999 ], [ -115.1783631, 36.151838999799999 ], [ -115.1783631, 36.151836299800003 ], [ -115.1783658, 36.151836299800003 ], [ -115.1783658, 36.1518335998 ], [ -115.1783739, 36.1518335998 ], [ -115.1783739, 36.151836299800003 ], [ -115.1783982, 36.151836299800003 ], [ -115.1783982, 36.151838999799999 ], [ -115.1784144, 36.151838999799999 ], [ -115.1784144, 36.151841699800002 ], [ -115.1784306, 36.151841699800002 ], [ -115.1784306, 36.151844399799998 ], [ -115.178436, 36.151844399799998 ], [ -115.178436, 36.151849799799997 ], [ -115.1784387, 36.151849799799997 ], [ -115.1784387, 36.1518524998 ], [ -115.1784414, 36.1518524998 ], [ -115.1784414, 36.151855199800004 ], [ -115.1784468, 36.151855199800004 ], [ -115.1784468, 36.1518578998 ], [ -115.1784522, 36.1518578998 ], [ -115.1784522, 36.151860599800003 ], [ -115.1784657, 36.151860599800003 ], [ -115.1784657, 36.151863299799999 ], [ -115.1785197, 36.151863299799999 ], [ -115.1785197, 36.151865999800002 ], [ -115.1785413, 36.151865999800002 ], [ -115.1785413, 36.151863299799999 ], [ -115.178544, 36.151863299799999 ], [ -115.178544, 36.151865999800002 ], [ -115.1785521, 36.151865999800002 ], [ -115.1785521, 36.151863299799999 ], [ -115.1785548, 36.151863299799999 ], [ -115.1785548, 36.151865999800002 ], [ -115.1785629, 36.151865999800002 ], [ -115.1785629, 36.151871399800001 ], [ -115.1785656, 36.151871399800001 ], [ -115.1785656, 36.151874099799997 ], [ -115.1785683, 36.151874099799997 ], [ -115.1785683, 36.151882199799999 ], [ -115.178571, 36.151882199799999 ], [ -115.178571, 36.151892999799998 ], [ -115.1785737, 36.151892999799998 ], [ -115.1785737, 36.151922699800004 ], [ -115.1785764, 36.151922699800004 ], [ -115.1785764, 36.151928099800003 ], [ -115.1785791, 36.151928099800003 ], [ -115.1785791, 36.151933499800002 ], [ -115.1785818, 36.151933499800002 ], [ -115.1785818, 36.151960499799998 ], [ -115.1785791, 36.151960499799998 ], [ -115.1785791, 36.151965899799997 ], [ -115.1785764, 36.151965899799997 ], [ -115.1785764, 36.1519685998 ], [ -115.1785116, 36.1519685998 ], [ -115.1785116, 36.151965899799997 ], [ -115.1785035, 36.151965899799997 ], [ -115.1785035, 36.151963199800001 ], [ -115.1784954, 36.151963199800001 ], [ -115.1784954, 36.151965899799997 ], [ -115.1784819, 36.151965899799997 ], [ -115.1784819, 36.1519685998 ], [ -115.1784711, 36.1519685998 ], [ -115.1784711, 36.151971299800003 ], [ -115.1784684, 36.151971299800003 ], [ -115.1784684, 36.151990199799997 ], [ -115.1784657, 36.151990199799997 ], [ -115.1784657, 36.1519928998 ] ] ] } },
{ "type": "Feature", "properties": { "value": 255.0 }, "geometry": { "type": "Polygon", "coordinates": [ [ [ -115.1787249, 36.151995599800003 ], [ -115.1786601, 36.151995599800003 ], [ -115.1786601, 36.1519928998 ], [ -115.1786574, 36.1519928998 ], [ -115.1786574, 36.151990199799997 ], [ -115.1786547, 36.151990199799997 ], [ -115.1786547, 36.151973999799999 ], [ -115.178652, 36.151973999799999 ], [ -115.178652, 36.151971299800003 ], [ -115.1786493, 36.151971299800003 ], [ -115.1786493, 36.151965899799997 ], [ -115.1786466, 36.151965899799997 ], [ -115.1786466, 36.151955099799999 ], [ -115.1786439, 36.151955099799999 ], [ -115.1786439, 36.151941599799997 ], [ -115.1786412, 36.151941599799997 ], [ -115.1786412, 36.151933499800002 ], [ -115.1786385, 36.151933499800002 ], [ -115.1786385, 36.151930799799999 ], [ -115.1786358, 36.151930799799999 ], [ -115.1786358, 36.1519253998 ], [ -115.1786331, 36.1519253998 ], [ -115.1786331, 36.151922699800004 ], [ -115.1786304, 36.151922699800004 ], [ -115.1786304, 36.1519199998 ], [ -115.1786277, 36.1519199998 ], [ -115.1786277, 36.151917299799997 ], [ -115.178625, 36.151917299799997 ], [ -115.178625, 36.151911899799998 ], [ -115.1786223, 36.151911899799998 ], [ -115.1786223, 36.151884899800002 ], [ -115.178625, 36.151884899800002 ], [ -115.178625, 36.151828199800001 ], [ -115.1786277, 36.151828199800001 ], [ -115.1786277, 36.151825499799997 ], [ -115.1786331, 36.151825499799997 ], [ -115.1786331, 36.151822799800001 ], [ -115.178706, 36.151822799800001 ], [ -115.178706, 36.151825499799997 ], [ -115.1787087, 36.151825499799997 ], [ -115.1787087, 36.151855199800004 ], [ -115.178706, 36.151855199800004 ], [ -115.178706, 36.1518578998 ], [ -115.1787087, 36.1518578998 ], [ -115.1787087, 36.151868699799998 ], [ -115.1787114, 36.151868699799998 ], [ -115.1787114, 36.151871399800001 ], [ -115.1787195, 36.151871399800001 ], [ -115.1787195, 36.151874099799997 ], [ -115.1787303, 36.151874099799997 ], [ -115.1787303, 36.151871399800001 ], [ -115.1787384, 36.151871399800001 ], [ -115.1787384, 36.151874099799997 ], [ -115.1787492, 36.151874099799997 ], [ -115.1787492, 36.151871399800001 ], [ -115.1787681, 36.151871399800001 ], [ -115.1787681, 36.151874099799997 ], [ -115.1788086, 36.151874099799997 ], [ -115.1788086, 36.151871399800001 ], [ -115.1788545, 36.151871399800001 ], [ -115.1788545, 36.151874099799997 ], [ -115.1788599, 36.151874099799997 ], [ -115.1788599, 36.151879499800003 ], [ -115.1788626, 36.151879499800003 ], [ -115.1788626, 36.151895699800001 ], [ -115.1788653, 36.151895699800001 ], [ -115.1788653, 36.151906499799999 ], [ -115.178868, 36.151906499799999 ], [ -115.178868, 36.151911899799998 ], [ -115.1788707, 36.151911899799998 ], [ -115.1788707, 36.151917299799997 ], [ -115.1788734, 36.151917299799997 ], [ -115.1788734, 36.1519442998 ], [ -115.1788761, 36.1519442998 ], [ -115.1788761, 36.151952399800003 ], [ -115.1788734, 36.151952399800003 ], [ -115.1788734, 36.151955099799999 ], [ -115.1788707, 36.151955099799999 ], [ -115.1788707, 36.151957799800002 ], [ -115.178868, 36.151957799800002 ], [ -115.178868, 36.151960499799998 ], [ -115.1788653, 36.151960499799998 ], [ -115.1788653, 36.151965899799997 ], [ -115.1788626, 36.151965899799997 ], [ -115.1788626, 36.1519685998 ], [ -115.1788572, 36.1519685998 ], [ -115.1788572, 36.151971299800003 ], [ -115.1787627, 36.151971299800003 ], [ -115.1787627, 36.1519685998 ], [ -115.17876, 36.1519685998 ], [ -115.17876, 36.151971299800003 ], [ -115.1787303, 36.151971299800003 ], [ -115.1787303, 36.151976699800002 ], [ -115.1787276, 36.151976699800002 ], [ -115.1787276, 36.1519928998 ], [ -115.1787249, 36.1519928998 ], [ -115.1787249, 36.151995599800003 ] ] ] } },
{ "type": "Feature", "properties": { "value": 255.0 }, "geometry": { "type": "Polygon", "coordinates": [ [ [ -115.1781876, 36.151990199799997 ], [ -115.1781255, 36.151990199799997 ], [ -115.1781255, 36.151987499800001 ], [ -115.1781228, 36.151987499800001 ], [ -115.1781228, 36.151982099800001 ], [ -115.1781201, 36.151982099800001 ], [ -115.1781201, 36.151973999799999 ], [ -115.1781174, 36.151973999799999 ], [ -115.1781174, 36.151971299800003 ], [ -115.1781147, 36.151971299800003 ], [ -115.1781147, 36.1519685998 ], [ -115.1781093, 36.1519685998 ], [ -115.1781093, 36.151965899799997 ], [ -115.1781012, 36.151965899799997 ], [ -115.1781012, 36.151963199800001 ], [ -115.1780985, 36.151963199800001 ], [ -115.1780985, 36.151955099799999 ], [ -115.1780958, 36.151955099799999 ], [ -115.1780958, 36.151941599799997 ], [ -115.1780985, 36.151941599799997 ], [ -115.1780985, 36.151909199800002 ], [ -115.1780958, 36.151909199800002 ], [ -115.1780958, 36.1518578998 ], [ -115.1780931, 36.1518578998 ], [ -115.1780931, 36.1518524998 ], [ -115.1780904, 36.1518524998 ], [ -115.1780904, 36.151841699800002 ], [ -115.1780877, 36.151841699800002 ], [ -115.1780877, 36.1518335998 ], [ -115.178085, 36.1518335998 ], [ -115.178085, 36.151822799800001 ], [ -115.1780823, 36.151822799800001 ], [ -115.1780823, 36.151817399800002 ], [ -115.178085, 36.151817399800002 ], [ -115.178085, 36.151814699799999 ], [ -115.1780931, 36.151814699799999 ], [ -115.1780931, 36.151811999800003 ], [ -115.1781714, 36.151811999800003 ], [ -115.1781714, 36.151814699799999 ], [ -115.1781768, 36.151814699799999 ], [ -115.1781768, 36.151863299799999 ], [ -115.1781795, 36.151863299799999 ], [ -115.1781795, 36.151868699799998 ], [ -115.1781822, 36.151868699799998 ], [ -115.1781822, 36.151871399800001 ], [ -115.1782173, 36.151871399800001 ], [ -115.1782173, 36.151874099799997 ], [ -115.1782254, 36.151874099799997 ], [ -115.1782254, 36.151871399800001 ], [ -115.1782308, 36.151871399800001 ], [ -115.1782308, 36.151874099799997 ], [ -115.1782524, 36.151874099799997 ], [ -115.1782524, 36.151871399800001 ], [ -115.1782767, 36.151871399800001 ], [ -115.1782767, 36.151874099799997 ], [ -115.1783172, 36.151874099799997 ], [ -115.1783172, 36.1518767998 ], [ -115.1783199, 36.1518767998 ], [ -115.1783199, 36.151879499800003 ], [ -115.1783226, 36.151879499800003 ], [ -115.1783226, 36.151890299800002 ], [ -115.1783199, 36.151890299800002 ], [ -115.1783199, 36.151963199800001 ], [ -115.1783145, 36.151963199800001 ], [ -115.1783145, 36.151965899799997 ], [ -115.1782767, 36.151965899799997 ], [ -115.1782767, 36.1519685998 ], [ -115.178274, 36.1519685998 ], [ -115.178274, 36.151973999799999 ], [ -115.1782497, 36.151973999799999 ], [ -115.1782497, 36.151971299800003 ], [ -115.1782443, 36.151971299800003 ], [ -115.1782443, 36.1519685998 ], [ -115.1782389, 36.1519685998 ], [ -115.1782389, 36.151965899799997 ], [ -115.1781903, 36.151965899799997 ], [ -115.1781903, 36.151984799799997 ], [ -115.1781876, 36.151984799799997 ], [ -115.1781876, 36.151990199799997 ] ] ] } },
{ "type": "Feature", "properties": { "value": 255.0 }, "geometry": { "type": "Polygon", "coordinates": [ [ [ -115.179381, 36.151955099799999 ], [ -115.1793324, 36.151955099799999 ], [ -115.1793324, 36.151952399800003 ], [ -115.1793297, 36.151952399800003 ], [ -115.1793297, 36.151949699799999 ], [ -115.179327, 36.151949699799999 ], [ -115.179327, 36.1519442998 ], [ -115.1793027, 36.1519442998 ], [ -115.1793027, 36.151941599799997 ], [ -115.1792892, 36.151941599799997 ], [ -115.1792892, 36.151933499800002 ], [ -115.1792865, 36.151933499800002 ], [ -115.1792865, 36.151930799799999 ], [ -115.1792838, 36.151930799799999 ], [ -115.1792838, 36.151928099800003 ], [ -115.1792676, 36.151928099800003 ], [ -115.1792676, 36.151930799799999 ], [ -115.1792649, 36.151930799799999 ], [ -115.1792649, 36.151933499800002 ], [ -115.1792514, 36.151933499800002 ], [ -115.1792514, 36.151930799799999 ], [ -115.1792433, 36.151930799799999 ], [ -115.1792433, 36.151933499800002 ], [ -115.1792325, 36.151933499800002 ], [ -115.1792325, 36.151936199799998 ], [ -115.1792298, 36.151936199799998 ], [ -115.1792298, 36.151938899800001 ], [ -115.1792271, 36.151938899800001 ], [ -115.1792271, 36.1519442998 ], [ -115.1792217, 36.1519442998 ], [ -115.1792217, 36.151946999800003 ], [ -115.1792055, 36.151946999800003 ], [ -115.1792055, 36.1519442998 ], [ -115.1792001, 36.1519442998 ], [ -115.1792001, 36.151946999800003 ], [ -115.1791677, 36.151946999800003 ], [ -115.1791677, 36.1519442998 ], [ -115.179165, 36.1519442998 ], [ -115.179165, 36.151938899800001 ], [ -115.1791623, 36.151938899800001 ], [ -115.1791623, 36.1519199998 ], [ -115.179165, 36.1519199998 ], [ -115.179165, 36.1518767998 ], [ -115.1791623, 36.1518767998 ], [ -115.1791623, 36.151871399800001 ], [ -115.179165, 36.151871399800001 ], [ -115.179165, 36.151811999800003 ], [ -115.1791677, 36.151811999800003 ], [ -115.1791677, 36.1518092998 ], [ -115.1791785, 36.1518092998 ], [ -115.1791785, 36.151806599800004 ], [ -115.1792055, 36.151806599800004 ], [ -115.1792055, 36.151803899800001 ], [ -115.1792622, 36.151803899800001 ], [ -115.1792622, 36.151806599800004 ], [ -115.1792703, 36.151806599800004 ], [ -115.1792703, 36.151811999800003 ], [ -115.179273, 36.151811999800003 ], [ -115.179273, 36.151817399800002 ], [ -115.1792784, 36.151817399800002 ], [ -115.1792784, 36.151803899800001 ], [ -115.1792811, 36.151803899800001 ], [ -115.1792811, 36.151787699800003 ], [ -115.1792865, 36.151787699800003 ], [ -115.1792865, 36.1517849998 ], [ -115.1793864, 36.1517849998 ], [ -115.1793864, 36.151787699800003 ], [ -115.1793918, 36.151787699800003 ], [ -115.1793918, 36.151795799799999 ], [ -115.1793945, 36.151795799799999 ], [ -115.1793945, 36.151798499800002 ], [ -115.1793918, 36.151798499800002 ], [ -115.1793918, 36.151811999800003 ], [ -115.1793891, 36.151811999800003 ], [ -115.1793891, 36.151817399800002 ], [ -115.1793918, 36.151817399800002 ], [ -115.1793918, 36.151849799799997 ], [ -115.1793945, 36.151849799799997 ], [ -115.1793945, 36.151860599800003 ], [ -115.1793918, 36.151860599800003 ], [ -115.1793918, 36.151863299799999 ], [ -115.179381, 36.151863299799999 ], [ -115.179381, 36.151865999800002 ], [ -115.1793756, 36.151865999800002 ], [ -115.1793756, 36.151868699799998 ], [ -115.1793729, 36.151868699799998 ], [ -115.1793729, 36.151871399800001 ], [ -115.1793756, 36.151871399800001 ], [ -115.1793756, 36.1518767998 ], [ -115.1793729, 36.1518767998 ], [ -115.1793729, 36.151879499800003 ], [ -115.1793756, 36.151879499800003 ], [ -115.1793756, 36.151882199799999 ], [ -115.1793729, 36.151882199799999 ], [ -115.1793729, 36.151892999799998 ], [ -115.1793756, 36.151892999799998 ], [ -115.1793756, 36.151909199800002 ], [ -115.1793783, 36.151909199800002 ], [ -115.1793783, 36.151917299799997 ], [ -115.179381, 36.151917299799997 ], [ -115.179381, 36.151936199799998 ], [ -115.1793837, 36.151936199799998 ], [ -115.1793837, 36.1519442998 ], [ -115.179381, 36.1519442998 ], [ -115.179381, 36.151955099799999 ] ] ] } },
{ "type": "Feature", "properties": { "value": 255.0 }, "geometry": { "type": "Polygon", "coordinates": [ [ [ -115.17768, 36.151482599800005 ], [ -115.1776638, 36.151482599800005 ], [ -115.1776638, 36.151479899800002 ], [ -115.1776584, 36.151479899800002 ], [ -115.1776584, 36.151477199799999 ], [ -115.1776557, 36.151477199799999 ], [ -115.1776557, 36.151474499800003 ], [ -115.1776638, 36.151474499800003 ], [ -115.1776638, 36.151471799799999 ], [ -115.1776692, 36.151471799799999 ], [ -115.1776692, 36.151474499800003 ], [ -115.1776773, 36.151474499800003 ], [ -115.1776773, 36.151477199799999 ], [ -115.1776827, 36.151477199799999 ], [ -115.1776827, 36.151479899800002 ], [ -115.17768, 36.151479899800002 ], [ -115.17768, 36.151482599800005 ] ] ] } },
{ "type": "Feature", "properties": { "value": 255.0 }, "geometry": { "type": "Polygon", "coordinates": [ [ [ -115.1791245, 36.151415099800005 ], [ -115.1791164, 36.151415099800005 ], [ -115.1791164, 36.151412399800002 ], [ -115.179111, 36.151412399800002 ], [ -115.179111, 36.151409699799999 ], [ -115.1791083, 36.151409699799999 ], [ -115.1791083, 36.151406999800002 ], [ -115.1791056, 36.151406999800002 ], [ -115.1791056, 36.151401599800003 ], [ -115.1791029, 36.151401599800003 ], [ -115.1791029, 36.1513988998 ], [ -115.1791002, 36.1513988998 ], [ -115.1791002, 36.151390799800005 ], [ -115.1790975, 36.151390799800005 ], [ -115.1790975, 36.151388099800002 ], [ -115.1790948, 36.151388099800002 ], [ -115.1790948, 36.151385399799999 ], [ -115.1790867, 36.151385399799999 ], [ -115.1790867, 36.151382699800003 ], [ -115.179084, 36.151382699800003 ], [ -115.179084, 36.1513799998 ], [ -115.1790813, 36.1513799998 ], [ -115.1790813, 36.151377299800004 ], [ -115.1790786, 36.151377299800004 ], [ -115.1790786, 36.151369199800001 ], [ -115.1790759, 36.151369199800001 ], [ -115.1790759, 36.151350299800001 ], [ -115.1790786, 36.151350299800001 ], [ -115.1790786, 36.151347599800005 ], [ -115.1790813, 36.151347599800005 ], [ -115.1790813, 36.151342199799998 ], [ -115.179084, 36.151342199799998 ], [ -115.179084, 36.151339499800002 ], [ -115.1790867, 36.151339499800002 ], [ -115.1790867, 36.151336799799999 ], [ -115.1791002, 36.151336799799999 ], [ -115.1791002, 36.151339499800002 ], [ -115.1791029, 36.151339499800002 ], [ -115.1791029, 36.151342199799998 ], [ -115.1791056, 36.151342199799998 ], [ -115.1791056, 36.151344899800002 ], [ -115.1791083, 36.151344899800002 ], [ -115.1791083, 36.151347599800005 ], [ -115.1791137, 36.151347599800005 ], [ -115.1791137, 36.151350299800001 ], [ -115.1791191, 36.151350299800001 ], [ -115.1791191, 36.151352999800004 ], [ -115.1791272, 36.151352999800004 ], [ -115.1791272, 36.1513556998 ], [ -115.1791326, 36.1513556998 ], [ -115.1791326, 36.151358399800003 ], [ -115.1791353, 36.151358399800003 ], [ -115.1791353, 36.151361099799999 ], [ -115.179138, 36.151361099799999 ], [ -115.179138, 36.151363799800002 ], [ -115.1791461, 36.151363799800002 ], [ -115.1791461, 36.151366499799998 ], [ -115.1791515, 36.151366499799998 ], [ -115.1791515, 36.151369199800001 ], [ -115.1791542, 36.151369199800001 ], [ -115.1791542, 36.151371899800004 ], [ -115.1791596, 36.151371899800004 ], [ -115.1791596, 36.1513745998 ], [ -115.1791623, 36.1513745998 ], [ -115.1791623, 36.151377299800004 ], [ -115.1791677, 36.151377299800004 ], [ -115.1791677, 36.1513799998 ], [ -115.1791704, 36.1513799998 ], [ -115.1791704, 36.151382699800003 ], [ -115.1791731, 36.151382699800003 ], [ -115.1791731, 36.151385399799999 ], [ -115.1791758, 36.151385399799999 ], [ -115.1791758, 36.151390799800005 ], [ -115.1791731, 36.151390799800005 ], [ -115.1791731, 36.151388099800002 ], [ -115.1791677, 36.151388099800002 ], [ -115.1791677, 36.151390799800005 ], [ -115.179165, 36.151390799800005 ], [ -115.179165, 36.1513988998 ], [ -115.1791623, 36.1513988998 ], [ -115.1791623, 36.151401599800003 ], [ -115.17915690000001, 36.151401599800003 ], [ -115.17915690000001, 36.151404299799999 ], [ -115.1791542, 36.151404299799999 ], [ -115.1791542, 36.151406999800002 ], [ -115.1791461, 36.151406999800002 ], [ -115.1791461, 36.151409699799999 ], [ -115.1791353, 36.151409699799999 ], [ -115.1791353, 36.151412399800002 ], [ -115.1791245, 36.151412399800002 ], [ -115.1791245, 36.151415099800005 ] ] ] } },
{ "type": "Feature", "properties": { "value": 255.0 }, "geometry": { "type": "Polygon", "coordinates": [ [ [ -115.1789247, 36.151433999799998 ], [ -115.1788302, 36.151433999799998 ], [ -115.1788302, 36.151431299800002 ], [ -115.1788275, 36.151431299800002 ], [ -115.1788275, 36.151390799800005 ], [ -115.1788302, 36.151390799800005 ], [ -115.1788302, 36.151382699800003 ], [ -115.1788275, 36.151382699800003 ], [ -115.1788275, 36.151377299800004 ], [ -115.1788248, 36.151377299800004 ], [ -115.1788248, 36.1513745998 ], [ -115.1788194, 36.1513745998 ], [ -115.1788194, 36.151371899800004 ], [ -115.1788113, 36.151371899800004 ], [ -115.1788113, 36.1513745998 ], [ -115.1788032, 36.1513745998 ], [ -115.1788032, 36.151371899800004 ], [ -115.1787978, 36.151371899800004 ], [ -115.1787978, 36.151366499799998 ], [ -115.1787951, 36.151366499799998 ], [ -115.1787951, 36.151358399800003 ], [ -115.1787924, 36.151358399800003 ], [ -115.1787924, 36.151323299800005 ], [ -115.1787951, 36.151323299800005 ], [ -115.1787951, 36.151317899799999 ], [ -115.1787978, 36.151317899799999 ], [ -115.1787978, 36.151309799800003 ], [ -115.1788005, 36.151309799800003 ], [ -115.1788005, 36.1512881998 ], [ -115.1788032, 36.1512881998 ], [ -115.1788032, 36.151285499800004 ], [ -115.1788518, 36.151285499800004 ], [ -115.1788518, 36.1512881998 ], [ -115.1788707, 36.1512881998 ], [ -115.1788707, 36.151290899800003 ], [ -115.1789004, 36.151290899800003 ], [ -115.1789004, 36.151293599799999 ], [ -115.1789112, 36.151293599799999 ], [ -115.1789112, 36.151296299800002 ], [ -115.1789193, 36.151296299800002 ], [ -115.1789193, 36.151293599799999 ], [ -115.1789301, 36.151293599799999 ], [ -115.1789301, 36.151296299800002 ], [ -115.1789409, 36.151296299800002 ], [ -115.1789409, 36.151298999800005 ], [ -115.1789544, 36.151298999800005 ], [ -115.1789544, 36.151301699800001 ], [ -115.178976, 36.151301699800001 ], [ -115.178976, 36.151304399800004 ], [ -115.1789868, 36.151304399800004 ], [ -115.1789868, 36.1513070998 ], [ -115.1789949, 36.1513070998 ], [ -115.1789949, 36.151309799800003 ], [ -115.1789976, 36.151309799800003 ], [ -115.1789976, 36.1513124998 ], [ -115.1790003, 36.1513124998 ], [ -115.1790003, 36.151323299800005 ], [ -115.179003, 36.151323299800005 ], [ -115.179003, 36.151328699800004 ], [ -115.1790057, 36.151328699800004 ], [ -115.1790057, 36.151339499800002 ], [ -115.1790084, 36.151339499800002 ], [ -115.1790084, 36.151344899800002 ], [ -115.1790111, 36.151344899800002 ], [ -115.1790111, 36.151350299800001 ], [ -115.1790165, 36.151350299800001 ], [ -115.1790165, 36.151352999800004 ], [ -115.1790192, 36.151352999800004 ], [ -115.1790192, 36.151358399800003 ], [ -115.1790219, 36.151358399800003 ], [ -115.1790219, 36.151361099799999 ], [ -115.1790273, 36.151361099799999 ], [ -115.1790273, 36.151363799800002 ], [ -115.1790327, 36.151363799800002 ], [ -115.1790327, 36.151366499799998 ], [ -115.1790354, 36.151366499799998 ], [ -115.1790354, 36.151404299799999 ], [ -115.1790327, 36.151404299799999 ], [ -115.1790327, 36.151406999800002 ], [ -115.17903, 36.151406999800002 ], [ -115.17903, 36.151409699799999 ], [ -115.1789976, 36.151409699799999 ], [ -115.1789976, 36.151412399800002 ], [ -115.1789949, 36.151412399800002 ], [ -115.1789949, 36.151415099800005 ], [ -115.1789922, 36.151415099800005 ], [ -115.1789922, 36.151420499800004 ], [ -115.1789895, 36.151420499800004 ], [ -115.1789895, 36.1514231998 ], [ -115.1789841, 36.1514231998 ], [ -115.1789841, 36.151425899800003 ], [ -115.1789598, 36.151425899800003 ], [ -115.1789598, 36.1514231998 ], [ -115.1789571, 36.1514231998 ], [ -115.1789571, 36.151420499800004 ], [ -115.1789544, 36.151420499800004 ], [ -115.1789544, 36.151415099800005 ], [ -115.1789463, 36.151415099800005 ], [ -115.1789463, 36.151420499800004 ], [ -115.1789436, 36.151420499800004 ], [ -115.1789436, 36.151431299800002 ], [ -115.1789247, 36.151431299800002 ], [ -115.1789247, 36.151433999799998 ] ] ] } },
{ "type": "Feature", "properties": { "value": 255.0 }, "geometry": { "type": "Polygon", "coordinates": [ [ [ -115.1785332, 36.151417799800001 ], [ -115.1785116, 36.151417799800001 ], [ -115.1785116, 36.151415099800005 ], [ -115.1785089, 36.151415099800005 ], [ -115.1785089, 36.151412399800002 ], [ -115.1785062, 36.151412399800002 ], [ -115.1785062, 36.151409699799999 ], [ -115.1785035, 36.151409699799999 ], [ -115.1785035, 36.151371899800004 ], [ -115.1785062, 36.151371899800004 ], [ -115.1785062, 36.151336799799999 ], [ -115.1785089, 36.151336799799999 ], [ -115.1785089, 36.151320599800002 ], [ -115.1785116, 36.151320599800002 ], [ -115.1785116, 36.151266599800003 ], [ -115.1785143, 36.151266599800003 ], [ -115.1785143, 36.1512638998 ], [ -115.178517, 36.1512638998 ], [ -115.178517, 36.151261199800004 ], [ -115.1785224, 36.151261199800004 ], [ -115.1785224, 36.151258499800001 ], [ -115.1785278, 36.151258499800001 ], [ -115.1785278, 36.151255799800005 ], [ -115.1785332, 36.151255799800005 ], [ -115.1785332, 36.151253099800002 ], [ -115.1785872, 36.151253099800002 ], [ -115.1785872, 36.151255799800005 ], [ -115.1786061, 36.151255799800005 ], [ -115.1786061, 36.151258499800001 ], [ -115.1786142, 36.151258499800001 ], [ -115.1786142, 36.151261199800004 ], [ -115.1786196, 36.151261199800004 ], [ -115.1786196, 36.1512638998 ], [ -115.178625, 36.1512638998 ], [ -115.178625, 36.151266599800003 ], [ -115.1786385, 36.151266599800003 ], [ -115.1786385, 36.151269299799999 ], [ -115.1786493, 36.151269299799999 ], [ -115.1786493, 36.151266599800003 ], [ -115.1786547, 36.151266599800003 ], [ -115.1786547, 36.151269299799999 ], [ -115.1786682, 36.151269299799999 ], [ -115.1786682, 36.151271999800002 ], [ -115.1786898, 36.151271999800002 ], [ -115.1786898, 36.151274699800005 ], [ -115.1786952, 36.151274699800005 ], [ -115.1786952, 36.151277399800001 ], [ -115.1787033, 36.151277399800001 ], [ -115.1787033, 36.151280099800005 ], [ -115.1787249, 36.151280099800005 ], [ -115.1787249, 36.151282799800001 ], [ -115.178733, 36.151282799800001 ], [ -115.178733, 36.151285499800004 ], [ -115.1787384, 36.151285499800004 ], [ -115.1787384, 36.1512881998 ], [ -115.1787465, 36.1512881998 ], [ -115.1787465, 36.151290899800003 ], [ -115.1787627, 36.151290899800003 ], [ -115.1787627, 36.151293599799999 ], [ -115.1787654, 36.151293599799999 ], [ -115.1787654, 36.151309799800003 ], [ -115.1787681, 36.151309799800003 ], [ -115.1787681, 36.151347599800005 ], [ -115.1787708, 36.151347599800005 ], [ -115.1787708, 36.151396199800004 ], [ -115.1787681, 36.151396199800004 ], [ -115.1787681, 36.151406999800002 ], [ -115.1787654, 36.151406999800002 ], [ -115.1787654, 36.151409699799999 ], [ -115.1787546, 36.151409699799999 ], [ -115.1787546, 36.151412399800002 ], [ -115.1785386, 36.151412399800002 ], [ -115.1785386, 36.151415099800005 ], [ -115.1785332, 36.151415099800005 ], [ -115.1785332, 36.151417799800001 ] ] ] } },
{ "type": "Feature", "properties": { "value": 255.0 }, "geometry": { "type": "Polygon", "coordinates": [ [ [ -115.178166, 36.151396199800004 ], [ -115.1781525, 36.151396199800004 ], [ -115.1781525, 36.151393499800001 ], [ -115.1781093, 36.151393499800001 ], [ -115.1781093, 36.151396199800004 ], [ -115.1779932, 36.151396199800004 ], [ -115.1779932, 36.151393499800001 ], [ -115.1779635, 36.151393499800001 ], [ -115.1779635, 36.151390799800005 ], [ -115.1779608, 36.151390799800005 ], [ -115.1779608, 36.1513799998 ], [ -115.1779635, 36.1513799998 ], [ -115.1779635, 36.151377299800004 ], [ -115.1779608, 36.151377299800004 ], [ -115.1779608, 36.151371899800004 ], [ -115.1779635, 36.151371899800004 ], [ -115.1779635, 36.151339499800002 ], [ -115.1779662, 36.151339499800002 ], [ -115.1779662, 36.151309799800003 ], [ -115.1779635, 36.151309799800003 ], [ -115.1779635, 36.1513070998 ], [ -115.1779581, 36.1513070998 ], [ -115.1779581, 36.151304399800004 ], [ -115.1779392, 36.151304399800004 ], [ -115.1779392, 36.151301699800001 ], [ -115.1779365, 36.151301699800001 ], [ -115.1779365, 36.151244999799999 ], [ -115.1779392, 36.151244999799999 ], [ -115.1779392, 36.1512395998 ], [ -115.1779446, 36.1512395998 ], [ -115.1779446, 36.151236899800004 ], [ -115.1780067, 36.151236899800004 ], [ -115.1780067, 36.151234199800001 ], [ -115.1780526, 36.151234199800001 ], [ -115.1780526, 36.151236899800004 ], [ -115.178058, 36.151236899800004 ], [ -115.178058, 36.1512395998 ], [ -115.1780607, 36.1512395998 ], [ -115.1780607, 36.151242299800003 ], [ -115.1780634, 36.151242299800003 ], [ -115.1780634, 36.151247699800003 ], [ -115.1780661, 36.151247699800003 ], [ -115.1780661, 36.151250399799999 ], [ -115.1780688, 36.151250399799999 ], [ -115.1780688, 36.151253099800002 ], [ -115.1781012, 36.151253099800002 ], [ -115.1781012, 36.151255799800005 ], [ -115.1781147, 36.151255799800005 ], [ -115.1781147, 36.151253099800002 ], [ -115.178166, 36.151253099800002 ], [ -115.178166, 36.151255799800005 ], [ -115.1781714, 36.151255799800005 ], [ -115.1781714, 36.151377299800004 ], [ -115.1781687, 36.151377299800004 ], [ -115.1781687, 36.151393499800001 ], [ -115.178166, 36.151393499800001 ], [ -115.178166, 36.151396199800004 ] ] ] } },
{ "type": "Feature", "properties": { "value": 255.0 }, "geometry": { "type": "Polygon", "coordinates": [ [ [ -115.1777529, 36.151393499800001 ], [ -115.1776476, 36.151393499800001 ], [ -115.1776476, 36.151242299800003 ], [ -115.1776503, 36.151242299800003 ], [ -115.1776503, 36.151244999799999 ], [ -115.1776557, 36.151244999799999 ], [ -115.1776557, 36.151242299800003 ], [ -115.1776719, 36.151242299800003 ], [ -115.1776719, 36.151244999799999 ], [ -115.1776908, 36.151244999799999 ], [ -115.1776908, 36.151247699800003 ], [ -115.1777286, 36.151247699800003 ], [ -115.1777286, 36.151244999799999 ], [ -115.1777394, 36.151244999799999 ], [ -115.1777394, 36.151247699800003 ], [ -115.1777907, 36.151247699800003 ], [ -115.1777907, 36.151250399799999 ], [ -115.1778096, 36.151250399799999 ], [ -115.1778096, 36.151253099800002 ], [ -115.1778204, 36.151253099800002 ], [ -115.1778204, 36.151255799800005 ], [ -115.1778258, 36.151255799800005 ], [ -115.1778258, 36.151258499800001 ], [ -115.1778285, 36.151258499800001 ], [ -115.1778285, 36.151261199800004 ], [ -115.1778312, 36.151261199800004 ], [ -115.1778312, 36.1512638998 ], [ -115.1778339, 36.1512638998 ], [ -115.1778339, 36.151266599800003 ], [ -115.1778366, 36.151266599800003 ], [ -115.1778366, 36.151269299799999 ], [ -115.1778393, 36.151269299799999 ], [ -115.1778393, 36.151271999800002 ], [ -115.177842, 36.151271999800002 ], [ -115.177842, 36.151277399800001 ], [ -115.1778447, 36.151277399800001 ], [ -115.1778447, 36.151280099800005 ], [ -115.1778474, 36.151280099800005 ], [ -115.1778474, 36.151282799800001 ], [ -115.1778501, 36.151282799800001 ], [ -115.1778501, 36.151296299800002 ], [ -115.1778474, 36.151296299800002 ], [ -115.1778474, 36.151301699800001 ], [ -115.1778447, 36.151301699800001 ], [ -115.1778447, 36.1513070998 ], [ -115.1778393, 36.1513070998 ], [ -115.1778393, 36.151309799800003 ], [ -115.1778177, 36.151309799800003 ], [ -115.1778177, 36.1513124998 ], [ -115.1778069, 36.1513124998 ], [ -115.1778069, 36.151315199800003 ], [ -115.1778042, 36.151315199800003 ], [ -115.1778042, 36.151317899799999 ], [ -115.1778015, 36.151317899799999 ], [ -115.1778015, 36.151336799799999 ], [ -115.1777988, 36.151336799799999 ], [ -115.1777988, 36.151350299800001 ], [ -115.1777961, 36.151350299800001 ], [ -115.1777961, 36.151369199800001 ], [ -115.1777934, 36.151369199800001 ], [ -115.1777934, 36.1513799998 ], [ -115.1777907, 36.1513799998 ], [ -115.1777907, 36.151390799800005 ], [ -115.1777529, 36.151390799800005 ], [ -115.1777529, 36.151393499800001 ] ] ] } },
{ "type": "Feature", "properties": { "value": 255.0 }, "geometry": { "type": "Polygon", "coordinates": [ [ [ -115.178247, 36.151442099800001 ], [ -115.1782281, 36.151442099800001 ], [ -115.1782281, 36.151439399800005 ], [ -115.1781984, 36.151439399800005 ], [ -115.1781984, 36.151436699800001 ], [ -115.1781957, 36.151436699800001 ], [ -115.1781957, 36.151415099800005 ], [ -115.178193, 36.151415099800005 ], [ -115.178193, 36.151390799800005 ], [ -115.1781957, 36.151390799800005 ], [ -115.1781957, 36.151261199800004 ], [ -115.1781984, 36.151261199800004 ], [ -115.1781984, 36.151258499800001 ], [ -115.1782173, 36.151258499800001 ], [ -115.1782173, 36.151261199800004 ], [ -115.1782551, 36.151261199800004 ], [ -115.1782551, 36.151258499800001 ], [ -115.1782848, 36.151258499800001 ], [ -115.1782848, 36.151255799800005 ], [ -115.178301, 36.151255799800005 ], [ -115.178301, 36.151250399799999 ], [ -115.1783037, 36.151250399799999 ], [ -115.1783037, 36.151242299800003 ], [ -115.1783064, 36.151242299800003 ], [ -115.1783064, 36.1512395998 ], [ -115.1783172, 36.1512395998 ], [ -115.1783172, 36.151236899800004 ], [ -115.1784036, 36.151236899800004 ], [ -115.1784036, 36.1512395998 ], [ -115.1784252, 36.1512395998 ], [ -115.1784252, 36.151244999799999 ], [ -115.1784279, 36.151244999799999 ], [ -115.1784279, 36.151250399799999 ], [ -115.1784252, 36.151250399799999 ], [ -115.1784252, 36.151304399800004 ], [ -115.1784225, 36.151304399800004 ], [ -115.1784225, 36.1513070998 ], [ -115.1784036, 36.1513070998 ], [ -115.1784036, 36.151309799800003 ], [ -115.1783982, 36.151309799800003 ], [ -115.1783982, 36.151317899799999 ], [ -115.1783955, 36.151317899799999 ], [ -115.1783955, 36.151358399800003 ], [ -115.1783928, 36.151358399800003 ], [ -115.1783928, 36.151390799800005 ], [ -115.1783901, 36.151390799800005 ], [ -115.1783901, 36.151393499800001 ], [ -115.1783847, 36.151393499800001 ], [ -115.1783847, 36.151396199800004 ], [ -115.1783766, 36.151396199800004 ], [ -115.1783766, 36.151393499800001 ], [ -115.1782821, 36.151393499800001 ], [ -115.1782821, 36.151396199800004 ], [ -115.1782794, 36.151396199800004 ], [ -115.1782794, 36.151415099800005 ], [ -115.1782821, 36.151415099800005 ], [ -115.1782821, 36.151425899800003 ], [ -115.1782848, 36.151425899800003 ], [ -115.1782848, 36.151431299800002 ], [ -115.1782821, 36.151431299800002 ], [ -115.1782821, 36.151433999799998 ], [ -115.1782794, 36.151433999799998 ], [ -115.1782794, 36.151436699800001 ], [ -115.178274, 36.151436699800001 ], [ -115.178274, 36.151439399800005 ], [ -115.178247, 36.151439399800005 ], [ -115.178247, 36.151442099800001 ] ] ] } },
{ "type": "Feature", "properties": { "value": 255.0 }, "geometry": { "type": "Polygon", "coordinates": [ [ [ -115.1793135, 36.151352999800004 ], [ -115.1792973, 36.151352999800004 ], [ -115.1792973, 36.151350299800001 ], [ -115.1792865, 36.151350299800001 ], [ -115.1792865, 36.151347599800005 ], [ -115.1792784, 36.151347599800005 ], [ -115.1792784, 36.151344899800002 ], [ -115.1792757, 36.151344899800002 ], [ -115.1792757, 36.151347599800005 ], [ -115.179273, 36.151347599800005 ], [ -115.179273, 36.151344899800002 ], [ -115.1792568, 36.151344899800002 ], [ -115.1792568, 36.151342199799998 ], [ -115.1792514, 36.151342199799998 ], [ -115.1792514, 36.151339499800002 ], [ -115.179246, 36.151339499800002 ], [ -115.179246, 36.151336799799999 ], [ -115.1792406, 36.151336799799999 ], [ -115.1792406, 36.151334099800003 ], [ -115.1792325, 36.151334099800003 ], [ -115.1792325, 36.1513313998 ], [ -115.1792298, 36.1513313998 ], [ -115.1792298, 36.151328699800004 ], [ -115.17922440000001, 36.151328699800004 ], [ -115.17922440000001, 36.151325999800001 ], [ -115.1792217, 36.151325999800001 ], [ -115.1792217, 36.151323299800005 ], [ -115.1792163, 36.151323299800005 ], [ -115.1792163, 36.151320599800002 ], [ -115.1792136, 36.151320599800002 ], [ -115.1792136, 36.151317899799999 ], [ -115.1792109, 36.151317899799999 ], [ -115.1792109, 36.151315199800003 ], [ -115.1792028, 36.151315199800003 ], [ -115.1792028, 36.1513124998 ], [ -115.1791812, 36.1513124998 ], [ -115.1791812, 36.151315199800003 ], [ -115.1791758, 36.151315199800003 ], [ -115.1791758, 36.151317899799999 ], [ -115.1791704, 36.151317899799999 ], [ -115.1791704, 36.151320599800002 ], [ -115.179165, 36.151320599800002 ], [ -115.179165, 36.151323299800005 ], [ -115.17915690000001, 36.151323299800005 ], [ -115.17915690000001, 36.151320599800002 ], [ -115.1791488, 36.151320599800002 ], [ -115.1791488, 36.151317899799999 ], [ -115.1791407, 36.151317899799999 ], [ -115.1791407, 36.151315199800003 ], [ -115.1791326, 36.151315199800003 ], [ -115.1791326, 36.1513124998 ], [ -115.1791272, 36.1513124998 ], [ -115.1791272, 36.151309799800003 ], [ -115.1791191, 36.151309799800003 ], [ -115.1791191, 36.1513070998 ], [ -115.1791164, 36.1513070998 ], [ -115.1791164, 36.151304399800004 ], [ -115.1791137, 36.151304399800004 ], [ -115.1791137, 36.151301699800001 ], [ -115.179111, 36.151301699800001 ], [ -115.179111, 36.151293599799999 ], [ -115.1791137, 36.151293599799999 ], [ -115.1791137, 36.151290899800003 ], [ -115.1791164, 36.151290899800003 ], [ -115.1791164, 36.151285499800004 ], [ -115.1791191, 36.151285499800004 ], [ -115.1791191, 36.151282799800001 ], [ -115.1791218, 36.151282799800001 ], [ -115.1791218, 36.151280099800005 ], [ -115.1791245, 36.151280099800005 ], [ -115.1791245, 36.151274699800005 ], [ -115.1791272, 36.151274699800005 ], [ -115.1791272, 36.151271999800002 ], [ -115.1791299, 36.151271999800002 ], [ -115.1791299, 36.151269299799999 ], [ -115.1791326, 36.151269299799999 ], [ -115.1791326, 36.1512638998 ], [ -115.1791353, 36.1512638998 ], [ -115.1791353, 36.151261199800004 ], [ -115.179138, 36.151261199800004 ], [ -115.179138, 36.151255799800005 ], [ -115.1791407, 36.151255799800005 ], [ -115.1791407, 36.151253099800002 ], [ -115.1791434, 36.151253099800002 ], [ -115.1791434, 36.151250399799999 ], [ -115.1791461, 36.151250399799999 ], [ -115.1791461, 36.151247699800003 ], [ -115.1791488, 36.151247699800003 ], [ -115.1791488, 36.151242299800003 ], [ -115.1791515, 36.151242299800003 ], [ -115.1791515, 36.1512395998 ], [ -115.1791542, 36.1512395998 ], [ -115.1791542, 36.151236899800004 ], [ -115.1791596, 36.151236899800004 ], [ -115.1791596, 36.151234199800001 ], [ -115.1791623, 36.151234199800001 ], [ -115.1791623, 36.151231499800005 ], [ -115.1791677, 36.151231499800005 ], [ -115.1791677, 36.151226099799999 ], [ -115.1791704, 36.151226099799999 ], [ -115.1791704, 36.151223399800003 ], [ -115.1791731, 36.151223399800003 ], [ -115.1791731, 36.1512206998 ], [ -115.1791785, 36.1512206998 ], [ -115.1791785, 36.151217999800004 ], [ -115.1791812, 36.151217999800004 ], [ -115.1791812, 36.1512152998 ], [ -115.1791839, 36.1512152998 ], [ -115.1791839, 36.151212599800004 ], [ -115.1791947, 36.151212599800004 ], [ -115.1791947, 36.151209899800001 ], [ -115.1791974, 36.151209899800001 ], [ -115.1791974, 36.151212599800004 ], [ -115.1792001, 36.151212599800004 ], [ -115.1792001, 36.1512152998 ], [ -115.1792055, 36.1512152998 ], [ -115.1792055, 36.151212599800004 ], [ -115.1792109, 36.151212599800004 ], [ -115.1792109, 36.1512152998 ], [ -115.1792136, 36.1512152998 ], [ -115.1792136, 36.151217999800004 ], [ -115.1792163, 36.151217999800004 ], [ -115.1792163, 36.1512206998 ], [ -115.179219, 36.1512206998 ], [ -115.179219, 36.151223399800003 ], [ -115.1792217, 36.151223399800003 ], [ -115.1792217, 36.151226099799999 ], [ -115.1792271, 36.151226099799999 ], [ -115.1792271, 36.151228799800002 ], [ -115.1792298, 36.151228799800002 ], [ -115.1792298, 36.151231499800005 ], [ -115.1792352, 36.151231499800005 ], [ -115.1792352, 36.151234199800001 ], [ -115.1792406, 36.151234199800001 ], [ -115.1792406, 36.151228799800002 ], [ -115.1792433, 36.151228799800002 ], [ -115.1792433, 36.151226099799999 ], [ -115.179246, 36.151226099799999 ], [ -115.179246, 36.151223399800003 ], [ -115.1792487, 36.151223399800003 ], [ -115.1792487, 36.1512206998 ], [ -115.1792514, 36.1512206998 ], [ -115.1792514, 36.1512152998 ], [ -115.1792541, 36.1512152998 ], [ -115.1792541, 36.151209899800001 ], [ -115.1792568, 36.151209899800001 ], [ -115.1792568, 36.151204499800002 ], [ -115.1792595, 36.151204499800002 ], [ -115.1792595, 36.151201799799999 ], [ -115.1792649, 36.151201799799999 ], [ -115.1792649, 36.151199099800003 ], [ -115.1792784, 36.151199099800003 ], [ -115.1792784, 36.151201799799999 ], [ -115.1792865, 36.151201799799999 ], [ -115.1792865, 36.151204499800002 ], [ -115.17929190000001, 36.151204499800002 ], [ -115.17929190000001, 36.151207199800005 ], [ -115.1792973, 36.151207199800005 ], [ -115.1792973, 36.151209899800001 ], [ -115.1793027, 36.151209899800001 ], [ -115.1793027, 36.151212599800004 ], [ -115.1793108, 36.151212599800004 ], [ -115.1793108, 36.1512152998 ], [ -115.1793162, 36.1512152998 ], [ -115.1793162, 36.151217999800004 ], [ -115.1793216, 36.151217999800004 ], [ -115.1793216, 36.1512206998 ], [ -115.1793297, 36.1512206998 ], [ -115.1793297, 36.151223399800003 ], [ -115.1793567, 36.151223399800003 ], [ -115.1793567, 36.151226099799999 ], [ -115.1793621, 36.151226099799999 ], [ -115.1793621, 36.151228799800002 ], [ -115.1793675, 36.151228799800002 ], [ -115.1793675, 36.151231499800005 ], [ -115.1793729, 36.151231499800005 ], [ -115.1793729, 36.151234199800001 ], [ -115.1793756, 36.151234199800001 ], [ -115.1793756, 36.151236899800004 ], [ -115.1793783, 36.151236899800004 ], [ -115.1793783, 36.1512395998 ], [ -115.179381, 36.1512395998 ], [ -115.179381, 36.151242299800003 ], [ -115.1793837, 36.151242299800003 ], [ -115.1793837, 36.151244999799999 ], [ -115.1793864, 36.151244999799999 ], [ -115.1793864, 36.151247699800003 ], [ -115.1793918, 36.151247699800003 ], [ -115.1793918, 36.151250399799999 ], [ -115.1793945, 36.151250399799999 ], [ -115.1793945, 36.151253099800002 ], [ -115.1793972, 36.151253099800002 ], [ -115.1793972, 36.151255799800005 ], [ -115.1794026, 36.151255799800005 ], [ -115.1794026, 36.151282799800001 ], [ -115.1793999, 36.151282799800001 ], [ -115.1793999, 36.1512881998 ], [ -115.1793972, 36.1512881998 ], [ -115.1793972, 36.151290899800003 ], [ -115.1793945, 36.151290899800003 ], [ -115.1793945, 36.151296299800002 ], [ -115.1793918, 36.151296299800002 ], [ -115.1793918, 36.151298999800005 ], [ -115.1793864, 36.151298999800005 ], [ -115.1793864, 36.151301699800001 ], [ -115.1793783, 36.151301699800001 ], [ -115.1793783, 36.151298999800005 ], [ -115.1793756, 36.151298999800005 ], [ -115.1793756, 36.151301699800001 ], [ -115.1793702, 36.151301699800001 ], [ -115.1793702, 36.151304399800004 ], [ -115.1793675, 36.151304399800004 ], [ -115.1793675, 36.1513070998 ], [ -115.1793648, 36.1513070998 ], [ -115.1793648, 36.151309799800003 ], [ -115.1793621, 36.151309799800003 ], [ -115.1793621, 36.1513124998 ], [ -115.17935940000001, 36.1513124998 ], [ -115.17935940000001, 36.151315199800003 ], [ -115.1793567, 36.151315199800003 ], [ -115.1793567, 36.151317899799999 ], [ -115.179354, 36.151317899799999 ], [ -115.179354, 36.151320599800002 ], [ -115.1793513, 36.151320599800002 ], [ -115.1793513, 36.151323299800005 ], [ -115.1793405, 36.151323299800005 ], [ -115.1793405, 36.151325999800001 ], [ -115.1793351, 36.151325999800001 ], [ -115.1793351, 36.151328699800004 ], [ -115.1793324, 36.151328699800004 ], [ -115.1793324, 36.1513313998 ], [ -115.1793297, 36.1513313998 ], [ -115.1793297, 36.151334099800003 ], [ -115.179327, 36.151334099800003 ], [ -115.179327, 36.151339499800002 ], [ -115.1793243, 36.151339499800002 ], [ -115.1793243, 36.151342199799998 ], [ -115.1793216, 36.151342199799998 ], [ -115.1793216, 36.151344899800002 ], [ -115.1793189, 36.151344899800002 ], [ -115.1793189, 36.151347599800005 ], [ -115.1793162, 36.151347599800005 ], [ -115.1793162, 36.151350299800001 ], [ -115.1793135, 36.151350299800001 ], [ -115.1793135, 36.151352999800004 ] ] ] } },
{ "type": "Feature", "properties": { "value": 255.0 }, "geometry": { "type": "Polygon", "coordinates": [ [ [ -115.1793972, 36.151163999800005 ], [ -115.1793891, 36.151163999800005 ], [ -115.1793891, 36.151161299800002 ], [ -115.1793837, 36.151161299800002 ], [ -115.1793837, 36.151158599799999 ], [ -115.1793864, 36.151158599799999 ], [ -115.1793864, 36.151155899800003 ], [ -115.1793891, 36.151155899800003 ], [ -115.1793891, 36.1511531998 ], [ -115.1793864, 36.1511531998 ], [ -115.1793864, 36.1511477998 ], [ -115.1793891, 36.1511477998 ], [ -115.1793891, 36.151145099800004 ], [ -115.1793999, 36.151145099800004 ], [ -115.1793999, 36.1511477998 ], [ -115.1794026, 36.1511477998 ], [ -115.1794026, 36.151161299800002 ], [ -115.1793972, 36.151161299800002 ], [ -115.1793972, 36.151163999800005 ] ] ] } },
{ "type": "Feature", "properties": { "value": 255.0 }, "geometry": { "type": "Polygon", "coordinates": [ [ [ -115.1792946, 36.151134299799999 ], [ -115.179273, 36.151134299799999 ], [ -115.179273, 36.151131599800003 ], [ -115.1792649, 36.151131599800003 ], [ -115.1792649, 36.1511288998 ], [ -115.1792622, 36.1511288998 ], [ -115.1792622, 36.151126199800004 ], [ -115.1792595, 36.151126199800004 ], [ -115.1792595, 36.151120799800005 ], [ -115.1792568, 36.151120799800005 ], [ -115.1792568, 36.151112699800002 ], [ -115.1793756, 36.151112699800002 ], [ -115.1793756, 36.151115399800005 ], [ -115.1793675, 36.151115399800005 ], [ -115.1793675, 36.151118099800001 ], [ -115.1793621, 36.151118099800001 ], [ -115.1793621, 36.151120799800005 ], [ -115.1793513, 36.151120799800005 ], [ -115.1793513, 36.151123499800001 ], [ -115.1793432, 36.151123499800001 ], [ -115.1793432, 36.151126199800004 ], [ -115.1793324, 36.151126199800004 ], [ -115.1793324, 36.1511288998 ], [ -115.1793189, 36.1511288998 ], [ -115.1793189, 36.151131599800003 ], [ -115.1792946, 36.151131599800003 ], [ -115.1792946, 36.151134299799999 ] ] ] } }
]
}
