{
"type": "FeatureCollection",
"crs": { "type": "name", "properties": { "name": "urn:ogc:def:crs:OGC:1.3:CRS84" } },
"features": [
{ "type": "Feature", "properties": { "value": 255.0 }, "geometry": { "type": "Polygon", "coordinates": [ [ [ -115.30422630000001, 36.217802699899998 ], [ -115.3040076, 36.217802699899998 ], [ -115.3040076, 36.217775699899995 ], [ -115.3040103, 36.217775699899995 ], [ -115.3040103, 36.217772999899999 ], [ -115.3040157, 36.217772999899999 ], [ -115.3040157, 36.217770299899996 ], [ -115.3040184, 36.217770299899996 ], [ -115.3040184, 36.217772999899999 ], [ -115.30404, 36.217772999899999 ], [ -115.30404, 36.2177675999 ], [ -115.304042700000011, 36.2177675999 ], [ -115.304042700000011, 36.217762199900001 ], [ -115.30404, 36.217762199900001 ], [ -115.30404, 36.217754099899999 ], [ -115.3040292, 36.217754099899999 ], [ -115.3040292, 36.217751399899996 ], [ -115.3040184, 36.217751399899996 ], [ -115.3040184, 36.217737899900001 ], [ -115.3040157, 36.217737899900001 ], [ -115.3040157, 36.217732499899995 ], [ -115.3040076, 36.217732499899995 ], [ -115.3040076, 36.217662299899999 ], [ -115.3040103, 36.217662299899999 ], [ -115.3040103, 36.217664999900002 ], [ -115.304031900000012, 36.217664999900002 ], [ -115.304031900000012, 36.217662299899999 ], [ -115.3040562, 36.217662299899999 ], [ -115.3040562, 36.217664999900002 ], [ -115.3041372, 36.217664999900002 ], [ -115.3041372, 36.217662299899999 ], [ -115.3041723, 36.217662299899999 ], [ -115.3041723, 36.217659599899996 ], [ -115.3041858, 36.217659599899996 ], [ -115.3041858, 36.217662299899999 ], [ -115.304202, 36.217662299899999 ], [ -115.304202, 36.217664999900002 ], [ -115.3042047, 36.217664999900002 ], [ -115.3042047, 36.217667699899998 ], [ -115.30420740000001, 36.217667699899998 ], [ -115.30420740000001, 36.217691999899998 ], [ -115.3042101, 36.217691999899998 ], [ -115.3042101, 36.217697399899997 ], [ -115.30420740000001, 36.217697399899997 ], [ -115.30420740000001, 36.217718999900001 ], [ -115.3042101, 36.217718999900001 ], [ -115.3042101, 36.217737899900001 ], [ -115.3042209, 36.217737899900001 ], [ -115.3042209, 36.217740599899997 ], [ -115.30422630000001, 36.217740599899997 ], [ -115.30422630000001, 36.217772999899999 ], [ -115.304229, 36.217772999899999 ], [ -115.304229, 36.217775699899995 ], [ -115.30422630000001, 36.217775699899995 ], [ -115.30422630000001, 36.217802699899998 ] ] ] } },
{ "type": "Feature", "properties": { "value": 255.0 }, "geometry": { "type": "Polygon", "coordinates": [ [ [ -115.304958, 36.217783799899998 ], [ -115.3049472, 36.217783799899998 ], [ -115.3049472, 36.217781099900002 ], [ -115.3049391, 36.217781099900002 ], [ -115.3049391, 36.217778399899998 ], [ -115.3049364, 36.217778399899998 ], [ -115.3049364, 36.217775699899995 ], [ -115.3049337, 36.217775699899995 ], [ -115.3049337, 36.217770299899996 ], [ -115.304931, 36.217770299899996 ], [ -115.304931, 36.217740599899997 ], [ -115.3049283, 36.217740599899997 ], [ -115.3049283, 36.217729799899999 ], [ -115.3049256, 36.217729799899999 ], [ -115.3049256, 36.217694699900001 ], [ -115.3049229, 36.217694699900001 ], [ -115.3049229, 36.217689299900002 ], [ -115.3049256, 36.217689299900002 ], [ -115.3049256, 36.217683899899995 ], [ -115.3049283, 36.217683899899995 ], [ -115.3049283, 36.217678499899996 ], [ -115.304931, 36.217678499899996 ], [ -115.304931, 36.217670399900001 ], [ -115.3049337, 36.217670399900001 ], [ -115.3049337, 36.217629899899997 ], [ -115.3049445, 36.217629899899997 ], [ -115.3049445, 36.217627199900001 ], [ -115.3049472, 36.217627199900001 ], [ -115.3049472, 36.217629899899997 ], [ -115.3049661, 36.217629899899997 ], [ -115.3049661, 36.217627199900001 ], [ -115.3050255, 36.217627199900001 ], [ -115.3050255, 36.217624499899998 ], [ -115.3050795, 36.217624499899998 ], [ -115.3050795, 36.217627199900001 ], [ -115.3050903, 36.217627199900001 ], [ -115.3050903, 36.217629899899997 ], [ -115.305093, 36.217629899899997 ], [ -115.305093, 36.217646099900001 ], [ -115.3050957, 36.217646099900001 ], [ -115.3050957, 36.217681199899999 ], [ -115.3050903, 36.217681199899999 ], [ -115.3050903, 36.217683899899995 ], [ -115.3050849, 36.217683899899995 ], [ -115.3050849, 36.217681199899999 ], [ -115.3050687, 36.217681199899999 ], [ -115.3050687, 36.217683899899995 ], [ -115.3050606, 36.217683899899995 ], [ -115.3050606, 36.217708199899995 ], [ -115.3050579, 36.217708199899995 ], [ -115.3050579, 36.217737899900001 ], [ -115.3050606, 36.217737899900001 ], [ -115.3050606, 36.2177432999 ], [ -115.3050633, 36.2177432999 ], [ -115.3050633, 36.2177486999 ], [ -115.305066, 36.2177486999 ], [ -115.305066, 36.217756799900002 ], [ -115.3050687, 36.217756799900002 ], [ -115.3050687, 36.217770299899996 ], [ -115.305066, 36.217770299899996 ], [ -115.305066, 36.217775699899995 ], [ -115.3050579, 36.217775699899995 ], [ -115.3050579, 36.217778399899998 ], [ -115.3050282, 36.217778399899998 ], [ -115.3050282, 36.217781099900002 ], [ -115.304958, 36.217781099900002 ], [ -115.304958, 36.217783799899998 ] ] ] } },
{ "type": "Feature", "properties": { "value": 255.0 }, "geometry": { "type": "Polygon", "coordinates": [ [ [ -115.3056519, 36.217759499899998 ], [ -115.3056303, 36.217759499899998 ], [ -115.3056303, 36.217756799900002 ], [ -115.3056276, 36.217756799900002 ], [ -115.3056276, 36.217759499899998 ], [ -115.3056087, 36.217759499899998 ], [ -115.3056087, 36.217756799900002 ], [ -115.3055898, 36.217756799900002 ], [ -115.3055898, 36.217759499899998 ], [ -115.3055628, 36.217759499899998 ], [ -115.3055628, 36.217756799900002 ], [ -115.3055601, 36.217756799900002 ], [ -115.3055601, 36.2177432999 ], [ -115.3055574, 36.2177432999 ], [ -115.3055574, 36.217737899900001 ], [ -115.3055547, 36.217737899900001 ], [ -115.3055547, 36.217735199899998 ], [ -115.3055493, 36.217735199899998 ], [ -115.3055493, 36.217727099899996 ], [ -115.3055466, 36.217727099899996 ], [ -115.3055466, 36.217708199899995 ], [ -115.3055493, 36.217708199899995 ], [ -115.3055493, 36.217705499899999 ], [ -115.3055574, 36.217705499899999 ], [ -115.3055574, 36.2177000999 ], [ -115.3055601, 36.2177000999 ], [ -115.3055601, 36.217683899899995 ], [ -115.3054791, 36.217683899899995 ], [ -115.3054791, 36.217681199899999 ], [ -115.305476399999989, 36.217681199899999 ], [ -115.305476399999989, 36.217678499899996 ], [ -115.3054737, 36.217678499899996 ], [ -115.3054737, 36.217624499899998 ], [ -115.305476399999989, 36.217624499899998 ], [ -115.305476399999989, 36.217621799900002 ], [ -115.3055466, 36.217621799900002 ], [ -115.3055466, 36.217619099899999 ], [ -115.3056033, 36.217619099899999 ], [ -115.3056033, 36.217621799900002 ], [ -115.3056708, 36.217621799900002 ], [ -115.3056708, 36.217624499899998 ], [ -115.3056816, 36.217624499899998 ], [ -115.3056816, 36.217627199900001 ], [ -115.3056843, 36.217627199900001 ], [ -115.3056843, 36.217635299899996 ], [ -115.305687, 36.217635299899996 ], [ -115.305687, 36.217643399899998 ], [ -115.3056843, 36.217643399899998 ], [ -115.3056843, 36.217648799899997 ], [ -115.305687, 36.217648799899997 ], [ -115.305687, 36.217681199899999 ], [ -115.3056843, 36.217681199899999 ], [ -115.3056843, 36.217691999899998 ], [ -115.3056816, 36.217691999899998 ], [ -115.3056816, 36.217718999900001 ], [ -115.3056789, 36.217718999900001 ], [ -115.3056789, 36.217721699899997 ], [ -115.3056735, 36.217721699899997 ], [ -115.3056735, 36.2177243999 ], [ -115.30566, 36.2177243999 ], [ -115.30566, 36.217754099899999 ], [ -115.3056573, 36.217754099899999 ], [ -115.3056573, 36.217756799900002 ], [ -115.3056519, 36.217756799900002 ], [ -115.3056519, 36.217759499899998 ] ] ] } },
{ "type": "Feature", "properties": { "value": 255.0 }, "geometry": { "type": "Polygon", "coordinates": [ [ [ -115.3040832, 36.217621799900002 ], [ -115.3040562, 36.217621799900002 ], [ -115.3040562, 36.217619099899999 ], [ -115.3040076, 36.217619099899999 ], [ -115.3040076, 36.217443599900001 ], [ -115.30402380000001, 36.217443599900001 ], [ -115.30402380000001, 36.217440899899998 ], [ -115.304031900000012, 36.217440899899998 ], [ -115.304031900000012, 36.217443599900001 ], [ -115.30404, 36.217443599900001 ], [ -115.30404, 36.217440899899998 ], [ -115.3040751, 36.217440899899998 ], [ -115.3040751, 36.217443599900001 ], [ -115.304121, 36.217443599900001 ], [ -115.304121, 36.217440899899998 ], [ -115.30415880000001, 36.217440899899998 ], [ -115.30415880000001, 36.217443599900001 ], [ -115.304177700000011, 36.217443599900001 ], [ -115.304177700000011, 36.217446299899997 ], [ -115.3041804, 36.217446299899997 ], [ -115.3041804, 36.217465199899998 ], [ -115.3041831, 36.217465199899998 ], [ -115.3041831, 36.2174732999 ], [ -115.3041858, 36.2174732999 ], [ -115.3041858, 36.217481399900002 ], [ -115.3041885, 36.217481399900002 ], [ -115.3041885, 36.217484099899998 ], [ -115.3041858, 36.217484099899998 ], [ -115.3041858, 36.217502999899999 ], [ -115.3041885, 36.217502999899999 ], [ -115.3041885, 36.217529999900002 ], [ -115.3041858, 36.217529999900002 ], [ -115.3041858, 36.217538099899997 ], [ -115.3041831, 36.217538099899997 ], [ -115.3041831, 36.2175407999 ], [ -115.3041804, 36.2175407999 ], [ -115.3041804, 36.217543499899996 ], [ -115.304177700000011, 36.217543499899996 ], [ -115.304177700000011, 36.217551599899998 ], [ -115.304175, 36.217551599899998 ], [ -115.304175, 36.217556999899998 ], [ -115.3041723, 36.217556999899998 ], [ -115.3041723, 36.217567799899996 ], [ -115.304175, 36.217567799899996 ], [ -115.304175, 36.217570499899999 ], [ -115.3041723, 36.217570499899999 ], [ -115.3041723, 36.217575899899998 ], [ -115.304175, 36.217575899899998 ], [ -115.304175, 36.217581299899997 ], [ -115.304177700000011, 36.217581299899997 ], [ -115.304177700000011, 36.2176082999 ], [ -115.304175, 36.2176082999 ], [ -115.304175, 36.217610999899996 ], [ -115.3041723, 36.217610999899996 ], [ -115.3041723, 36.217613699899999 ], [ -115.3041615, 36.217613699899999 ], [ -115.3041615, 36.217616399899995 ], [ -115.3041372, 36.217616399899995 ], [ -115.3041372, 36.217619099899999 ], [ -115.3040832, 36.217619099899999 ], [ -115.3040832, 36.217621799900002 ] ] ] } },
{ "type": "Feature", "properties": { "value": 255.0 }, "geometry": { "type": "Polygon", "coordinates": [ [ [ -115.305471, 36.217570499899999 ], [ -115.3054332, 36.217570499899999 ], [ -115.3054332, 36.2175650999 ], [ -115.3054305, 36.2175650999 ], [ -115.3054305, 36.217556999899998 ], [ -115.3054332, 36.217556999899998 ], [ -115.3054332, 36.217527299899999 ], [ -115.3054305, 36.217527299899999 ], [ -115.3054305, 36.217519199899996 ], [ -115.3054332, 36.217519199899996 ], [ -115.3054332, 36.2175164999 ], [ -115.3054305, 36.2175164999 ], [ -115.3054305, 36.217505699900002 ], [ -115.3054386, 36.217505699900002 ], [ -115.3054386, 36.217502999899999 ], [ -115.3054602, 36.217502999899999 ], [ -115.3054602, 36.217505699900002 ], [ -115.3054737, 36.217505699900002 ], [ -115.3054737, 36.217502999899999 ], [ -115.3054818, 36.217502999899999 ], [ -115.3054818, 36.217505699900002 ], [ -115.3054953, 36.217505699900002 ], [ -115.3054953, 36.217502999899999 ], [ -115.3055142, 36.217502999899999 ], [ -115.3055142, 36.217489499899997 ], [ -115.3055115, 36.217489499899997 ], [ -115.3055115, 36.217486799900001 ], [ -115.3055088, 36.217486799900001 ], [ -115.3055088, 36.217484099899998 ], [ -115.3054818, 36.217484099899998 ], [ -115.3054818, 36.217481399900002 ], [ -115.305476399999989, 36.217481399900002 ], [ -115.305476399999989, 36.217478699899999 ], [ -115.3054737, 36.217478699899999 ], [ -115.3054737, 36.217475999899996 ], [ -115.305471, 36.217475999899996 ], [ -115.305471, 36.217467899900001 ], [ -115.3054683, 36.217467899900001 ], [ -115.3054683, 36.217451699899996 ], [ -115.305471, 36.217451699899996 ], [ -115.305471, 36.217435499899999 ], [ -115.3054737, 36.217435499899999 ], [ -115.3054737, 36.217432799899996 ], [ -115.3054791, 36.217432799899996 ], [ -115.3054791, 36.2174300999 ], [ -115.3056249, 36.2174300999 ], [ -115.3056249, 36.217432799899996 ], [ -115.3056384, 36.217432799899996 ], [ -115.3056384, 36.217435499899999 ], [ -115.305641099999988, 36.217435499899999 ], [ -115.305641099999988, 36.217440899899998 ], [ -115.3056438, 36.217440899899998 ], [ -115.3056438, 36.217443599900001 ], [ -115.3056465, 36.217443599900001 ], [ -115.3056465, 36.217451699899996 ], [ -115.3056492, 36.217451699899996 ], [ -115.3056492, 36.217465199899998 ], [ -115.3056465, 36.217465199899998 ], [ -115.3056465, 36.217519199899996 ], [ -115.3056438, 36.217519199899996 ], [ -115.3056438, 36.217524599899996 ], [ -115.305633, 36.217524599899996 ], [ -115.305633, 36.217527299899999 ], [ -115.3056276, 36.217527299899999 ], [ -115.3056276, 36.217535399900001 ], [ -115.3056249, 36.217535399900001 ], [ -115.3056249, 36.217543499899996 ], [ -115.3056276, 36.217543499899996 ], [ -115.3056276, 36.217551599899998 ], [ -115.3056249, 36.217551599899998 ], [ -115.3056249, 36.217567799899996 ], [ -115.305471, 36.217567799899996 ], [ -115.305471, 36.217570499899999 ] ] ] } },
{ "type": "Feature", "properties": { "value": 255.0 }, "geometry": { "type": "Polygon", "coordinates": [ [ [ -115.305012, 36.217594799899999 ], [ -115.3048959, 36.217594799899999 ], [ -115.3048959, 36.2175893999 ], [ -115.3048932, 36.2175893999 ], [ -115.3048932, 36.217559699900001 ], [ -115.3048905, 36.217559699900001 ], [ -115.3048905, 36.217556999899998 ], [ -115.3048878, 36.217556999899998 ], [ -115.3048878, 36.217554299900002 ], [ -115.3048851, 36.217554299900002 ], [ -115.3048851, 36.217551599899998 ], [ -115.3048824, 36.217551599899998 ], [ -115.3048824, 36.217532699899998 ], [ -115.3048797, 36.217532699899998 ], [ -115.3048797, 36.217492199900001 ], [ -115.3048743, 36.217492199900001 ], [ -115.3048743, 36.217489499899997 ], [ -115.3048662, 36.217489499899997 ], [ -115.3048662, 36.217486799900001 ], [ -115.3048635, 36.217486799900001 ], [ -115.3048635, 36.217484099899998 ], [ -115.3048581, 36.217484099899998 ], [ -115.3048581, 36.217481399900002 ], [ -115.3048446, 36.217481399900002 ], [ -115.3048446, 36.217478699899999 ], [ -115.3048365, 36.217478699899999 ], [ -115.3048365, 36.217481399900002 ], [ -115.304823, 36.217481399900002 ], [ -115.304823, 36.217475999899996 ], [ -115.3048203, 36.217475999899996 ], [ -115.3048203, 36.217446299899997 ], [ -115.304823, 36.217446299899997 ], [ -115.304823, 36.2174300999 ], [ -115.3048797, 36.2174300999 ], [ -115.3048797, 36.217427399899996 ], [ -115.3048851, 36.217427399899996 ], [ -115.3048851, 36.2174246999 ], [ -115.3049337, 36.2174246999 ], [ -115.3049337, 36.217421999899997 ], [ -115.3050525, 36.217421999899997 ], [ -115.3050525, 36.217419299900001 ], [ -115.3050768, 36.217419299900001 ], [ -115.3050768, 36.217421999899997 ], [ -115.3050795, 36.217421999899997 ], [ -115.3050795, 36.2174300999 ], [ -115.3050849, 36.2174300999 ], [ -115.3050849, 36.217465199899998 ], [ -115.3050822, 36.217465199899998 ], [ -115.3050822, 36.217478699899999 ], [ -115.3050849, 36.217478699899999 ], [ -115.3050849, 36.217481399900002 ], [ -115.3050822, 36.217481399900002 ], [ -115.3050822, 36.217484099899998 ], [ -115.3050849, 36.217484099899998 ], [ -115.3050849, 36.217489499899997 ], [ -115.3051389, 36.217489499899997 ], [ -115.3051389, 36.217492199900001 ], [ -115.3051443, 36.217492199900001 ], [ -115.3051443, 36.217494899899997 ], [ -115.305147, 36.217494899899997 ], [ -115.305147, 36.217527299899999 ], [ -115.3051497, 36.217527299899999 ], [ -115.3051497, 36.2175839999 ], [ -115.305147, 36.2175839999 ], [ -115.305147, 36.217586699899996 ], [ -115.3051173, 36.217586699899996 ], [ -115.3051173, 36.2175893999 ], [ -115.305039, 36.2175893999 ], [ -115.305039, 36.217592099899996 ], [ -115.305012, 36.217592099899996 ], [ -115.305012, 36.217594799899999 ] ] ] } },
{ "type": "Feature", "properties": { "value": 255.0 }, "geometry": { "type": "Polygon", "coordinates": [ [ [ -115.3040103, 36.217205999900003 ], [ -115.3040076, 36.217205999900003 ], [ -115.3040076, 36.2170439999 ], [ -115.3040103, 36.2170439999 ], [ -115.3040103, 36.217046699900003 ], [ -115.304013, 36.217046699900003 ], [ -115.304013, 36.217060199899997 ], [ -115.3040157, 36.217060199899997 ], [ -115.3040157, 36.217073699899998 ], [ -115.3040184, 36.217073699899998 ], [ -115.3040184, 36.217133099900003 ], [ -115.3040157, 36.217133099900003 ], [ -115.3040157, 36.217200599899996 ], [ -115.3040103, 36.217200599899996 ], [ -115.3040103, 36.217205999900003 ] ] ] } },
{ "type": "Feature", "properties": { "value": 255.0 }, "geometry": { "type": "Polygon", "coordinates": [ [ [ -115.3051119, 36.217181699900003 ], [ -115.3050903, 36.217181699900003 ], [ -115.3050903, 36.2171789999 ], [ -115.3050336, 36.2171789999 ], [ -115.3050336, 36.217176299899997 ], [ -115.3050039, 36.217176299899997 ], [ -115.3050039, 36.217173599900001 ], [ -115.3049715, 36.217173599900001 ], [ -115.3049715, 36.217170899899997 ], [ -115.3049526, 36.217170899899997 ], [ -115.3049526, 36.217168199900001 ], [ -115.3049445, 36.217168199900001 ], [ -115.3049445, 36.217165499899998 ], [ -115.3049418, 36.217165499899998 ], [ -115.3049418, 36.217160099899999 ], [ -115.3049391, 36.217160099899999 ], [ -115.3049391, 36.217141199899999 ], [ -115.3049418, 36.217141199899999 ], [ -115.3049418, 36.217135799899999 ], [ -115.3049445, 36.217135799899999 ], [ -115.3049445, 36.2171303999 ], [ -115.3049472, 36.2171303999 ], [ -115.3049472, 36.2170871999 ], [ -115.3049445, 36.2170871999 ], [ -115.3049445, 36.217081799900001 ], [ -115.3049472, 36.217081799900001 ], [ -115.3049472, 36.217079099899998 ], [ -115.3049499, 36.217079099899998 ], [ -115.3049499, 36.217076399900002 ], [ -115.3049526, 36.217076399900002 ], [ -115.3049526, 36.217073699899998 ], [ -115.3049634, 36.217073699899998 ], [ -115.3049634, 36.217070999900002 ], [ -115.3049715, 36.217070999900002 ], [ -115.3049715, 36.217068299899999 ], [ -115.3049769, 36.217068299899999 ], [ -115.3049769, 36.217065599900003 ], [ -115.3049823, 36.217065599900003 ], [ -115.3049823, 36.217060199899997 ], [ -115.304985, 36.217060199899997 ], [ -115.304985, 36.217046699900003 ], [ -115.3049877, 36.217046699900003 ], [ -115.3049877, 36.217041299900004 ], [ -115.3050336, 36.217041299900004 ], [ -115.3050336, 36.2170439999 ], [ -115.3050552, 36.2170439999 ], [ -115.3050552, 36.217046699900003 ], [ -115.3051119, 36.217046699900003 ], [ -115.3051119, 36.217049399899999 ], [ -115.3051362, 36.217049399899999 ], [ -115.3051362, 36.217052099900002 ], [ -115.3051686, 36.217052099900002 ], [ -115.3051686, 36.217054799899998 ], [ -115.305174, 36.217054799899998 ], [ -115.305174, 36.217095299900002 ], [ -115.3051713, 36.217095299900002 ], [ -115.3051713, 36.2171114999 ], [ -115.3051686, 36.2171114999 ], [ -115.3051686, 36.217114199900003 ], [ -115.3051308, 36.217114199900003 ], [ -115.3051308, 36.2171114999 ], [ -115.3050903, 36.2171114999 ], [ -115.3050903, 36.217127699899997 ], [ -115.3051038, 36.217127699899997 ], [ -115.3051038, 36.2171303999 ], [ -115.3051173, 36.2171303999 ], [ -115.3051173, 36.217133099900003 ], [ -115.3051227, 36.217133099900003 ], [ -115.3051227, 36.217143899900002 ], [ -115.30512, 36.217143899900002 ], [ -115.30512, 36.217170899899997 ], [ -115.3051173, 36.217170899899997 ], [ -115.3051173, 36.2171789999 ], [ -115.3051119, 36.2171789999 ], [ -115.3051119, 36.217181699900003 ] ] ] } },
{ "type": "Feature", "properties": { "value": 255.0 }, "geometry": { "type": "Polygon", "coordinates": [ [ [ -115.305592499999989, 36.217187099900002 ], [ -115.3055763, 36.217187099900002 ], [ -115.3055763, 36.217184399899999 ], [ -115.3055223, 36.217184399899999 ], [ -115.3055223, 36.217181699900003 ], [ -115.3055169, 36.217181699900003 ], [ -115.3055169, 36.2171789999 ], [ -115.3055115, 36.2171789999 ], [ -115.3055115, 36.217176299899997 ], [ -115.3055088, 36.217176299899997 ], [ -115.3055088, 36.217173599900001 ], [ -115.3055061, 36.217173599900001 ], [ -115.3055061, 36.217143899900002 ], [ -115.3055088, 36.217143899900002 ], [ -115.3055088, 36.217141199899999 ], [ -115.3055115, 36.217141199899999 ], [ -115.3055115, 36.217135799899999 ], [ -115.3055142, 36.217135799899999 ], [ -115.3055142, 36.217133099900003 ], [ -115.3055196, 36.217133099900003 ], [ -115.3055196, 36.2171303999 ], [ -115.305525, 36.2171303999 ], [ -115.305525, 36.217127699899997 ], [ -115.3055277, 36.217127699899997 ], [ -115.3055277, 36.217097999899998 ], [ -115.3054791, 36.217097999899998 ], [ -115.3054791, 36.217095299900002 ], [ -115.305476399999989, 36.217095299900002 ], [ -115.305476399999989, 36.2170385999 ], [ -115.3054791, 36.2170385999 ], [ -115.3054791, 36.217035899899997 ], [ -115.3055601, 36.217035899899997 ], [ -115.3055601, 36.217033199900001 ], [ -115.3055817, 36.217033199900001 ], [ -115.3055817, 36.217035899899997 ], [ -115.3056627, 36.217035899899997 ], [ -115.3056627, 36.2170385999 ], [ -115.3056654, 36.2170385999 ], [ -115.3056654, 36.217060199899997 ], [ -115.3056627, 36.217060199899997 ], [ -115.3056627, 36.217079099899998 ], [ -115.30566, 36.217079099899998 ], [ -115.30566, 36.217092599899999 ], [ -115.3056627, 36.217092599899999 ], [ -115.3056627, 36.217095299900002 ], [ -115.3056654, 36.217095299900002 ], [ -115.3056654, 36.217097999899998 ], [ -115.3056708, 36.217097999899998 ], [ -115.3056708, 36.217100699900001 ], [ -115.3056735, 36.217100699900001 ], [ -115.3056735, 36.217146599899998 ], [ -115.3056708, 36.217146599899998 ], [ -115.3056708, 36.217165499899998 ], [ -115.3056681, 36.217165499899998 ], [ -115.3056681, 36.217176299899997 ], [ -115.3056654, 36.217176299899997 ], [ -115.3056654, 36.2171789999 ], [ -115.30566, 36.2171789999 ], [ -115.30566, 36.217181699900003 ], [ -115.3056438, 36.217181699900003 ], [ -115.3056438, 36.217184399899999 ], [ -115.305592499999989, 36.217184399899999 ], [ -115.305592499999989, 36.217187099900002 ] ] ] } },
{ "type": "Feature", "properties": { "value": 255.0 }, "geometry": { "type": "Polygon", "coordinates": [ [ [ -115.304256, 36.217205999900003 ], [ -115.304175, 36.217205999900003 ], [ -115.304175, 36.2172032999 ], [ -115.3041723, 36.2172032999 ], [ -115.3041723, 36.217176299899997 ], [ -115.3041696, 36.217176299899997 ], [ -115.3041696, 36.217173599900001 ], [ -115.3041345, 36.217173599900001 ], [ -115.3041345, 36.217176299899997 ], [ -115.3041156, 36.217176299899997 ], [ -115.3041156, 36.2171789999 ], [ -115.3040832, 36.2171789999 ], [ -115.3040832, 36.217176299899997 ], [ -115.304080500000012, 36.217176299899997 ], [ -115.304080500000012, 36.217106099900001 ], [ -115.3040778, 36.217106099900001 ], [ -115.3040778, 36.217068299899999 ], [ -115.3040751, 36.217068299899999 ], [ -115.3040751, 36.217046699900003 ], [ -115.30407240000001, 36.217046699900003 ], [ -115.30407240000001, 36.217022399900003 ], [ -115.3040751, 36.217022399900003 ], [ -115.3040751, 36.217011599899998 ], [ -115.30407240000001, 36.217011599899998 ], [ -115.30407240000001, 36.217008899900001 ], [ -115.3040751, 36.217008899900001 ], [ -115.3040751, 36.217006199899998 ], [ -115.3040778, 36.217006199899998 ], [ -115.3040778, 36.217003499900002 ], [ -115.304080500000012, 36.217003499900002 ], [ -115.304080500000012, 36.217000799899999 ], [ -115.3040859, 36.217000799899999 ], [ -115.3040859, 36.216998099900003 ], [ -115.3041264, 36.216998099900003 ], [ -115.3041264, 36.217000799899999 ], [ -115.3041318, 36.217000799899999 ], [ -115.3041318, 36.216998099900003 ], [ -115.3041345, 36.216998099900003 ], [ -115.3041345, 36.216989999900001 ], [ -115.3041372, 36.216989999900001 ], [ -115.3041372, 36.216987299899998 ], [ -115.30413990000001, 36.216987299899998 ], [ -115.30413990000001, 36.216984599900002 ], [ -115.3041534, 36.216984599900002 ], [ -115.3041534, 36.216981899899999 ], [ -115.3041642, 36.216981899899999 ], [ -115.3041642, 36.216984599900002 ], [ -115.3041696, 36.216984599900002 ], [ -115.3041696, 36.216987299899998 ], [ -115.3041804, 36.216987299899998 ], [ -115.3041804, 36.216989999900001 ], [ -115.3041831, 36.216989999900001 ], [ -115.3041831, 36.216992699899997 ], [ -115.3041858, 36.216992699899997 ], [ -115.3041858, 36.216998099900003 ], [ -115.3041939, 36.216998099900003 ], [ -115.3041939, 36.216992699899997 ], [ -115.304202, 36.216992699899997 ], [ -115.304202, 36.216998099900003 ], [ -115.3042047, 36.216998099900003 ], [ -115.3042047, 36.217000799899999 ], [ -115.3042155, 36.217000799899999 ], [ -115.3042155, 36.217003499900002 ], [ -115.3042209, 36.217003499900002 ], [ -115.3042209, 36.217000799899999 ], [ -115.304229, 36.217000799899999 ], [ -115.304229, 36.217011599899998 ], [ -115.3042317, 36.217011599899998 ], [ -115.3042317, 36.217016999899997 ], [ -115.3042344, 36.217016999899997 ], [ -115.3042344, 36.2170196999 ], [ -115.3042398, 36.2170196999 ], [ -115.3042398, 36.217022399900003 ], [ -115.3042803, 36.217022399900003 ], [ -115.3042803, 36.217025099899999 ], [ -115.3042857, 36.217025099899999 ], [ -115.3042857, 36.217030499899998 ], [ -115.3042884, 36.217030499899998 ], [ -115.3042884, 36.217046699900003 ], [ -115.3042911, 36.217046699900003 ], [ -115.3042911, 36.217065599900003 ], [ -115.304293800000011, 36.217065599900003 ], [ -115.304293800000011, 36.217079099899998 ], [ -115.3042911, 36.217079099899998 ], [ -115.3042911, 36.217089899900003 ], [ -115.304293800000011, 36.217089899900003 ], [ -115.304293800000011, 36.217122299899998 ], [ -115.3042965, 36.217122299899998 ], [ -115.3042965, 36.2171303999 ], [ -115.3042992, 36.2171303999 ], [ -115.3042992, 36.217114199900003 ], [ -115.3043019, 36.217114199900003 ], [ -115.3043019, 36.2171114999 ], [ -115.3043046, 36.2171114999 ], [ -115.3043046, 36.217108799899997 ], [ -115.3043181, 36.217108799899997 ], [ -115.3043181, 36.2171114999 ], [ -115.3043208, 36.2171114999 ], [ -115.3043208, 36.217133099900003 ], [ -115.3043181, 36.217133099900003 ], [ -115.3043181, 36.217141199899999 ], [ -115.3043154, 36.217141199899999 ], [ -115.3043154, 36.217151999899997 ], [ -115.3043181, 36.217151999899997 ], [ -115.3043181, 36.2171546999 ], [ -115.3043154, 36.2171546999 ], [ -115.3043154, 36.217157399900003 ], [ -115.3043127, 36.217157399900003 ], [ -115.3043127, 36.217162799900002 ], [ -115.30431, 36.217162799900002 ], [ -115.30431, 36.217165499899998 ], [ -115.3043046, 36.217165499899998 ], [ -115.3043046, 36.217168199900001 ], [ -115.3043019, 36.217168199900001 ], [ -115.3043019, 36.217170899899997 ], [ -115.3042992, 36.217170899899997 ], [ -115.3042992, 36.217173599900001 ], [ -115.3042965, 36.217173599900001 ], [ -115.3042965, 36.217181699900003 ], [ -115.304293800000011, 36.217181699900003 ], [ -115.304293800000011, 36.217187099900002 ], [ -115.3042911, 36.217187099900002 ], [ -115.3042911, 36.217200599899996 ], [ -115.3042884, 36.217200599899996 ], [ -115.3042884, 36.2172032999 ], [ -115.304256, 36.2172032999 ], [ -115.304256, 36.217205999900003 ] ] ] } },
{ "type": "Feature", "properties": { "value": 255.0 }, "geometry": { "type": "Polygon", "coordinates": [ [ [ -115.3055547, 36.217000799899999 ], [ -115.3055412, 36.217000799899999 ], [ -115.3055412, 36.216998099900003 ], [ -115.3055115, 36.216998099900003 ], [ -115.3055115, 36.2169953999 ], [ -115.3055088, 36.2169953999 ], [ -115.3055088, 36.216987299899998 ], [ -115.3055115, 36.216987299899998 ], [ -115.3055115, 36.216962999899998 ], [ -115.3055142, 36.216962999899998 ], [ -115.3055142, 36.216941399900001 ], [ -115.3055169, 36.216941399900001 ], [ -115.3055169, 36.216938699899998 ], [ -115.3055223, 36.216938699899998 ], [ -115.3055223, 36.216935999900002 ], [ -115.305525, 36.216935999900002 ], [ -115.305525, 36.216938699899998 ], [ -115.3055331, 36.216938699899998 ], [ -115.3055331, 36.216935999900002 ], [ -115.3055385, 36.216935999900002 ], [ -115.3055385, 36.2169035999 ], [ -115.3055358, 36.2169035999 ], [ -115.3055358, 36.216900899899997 ], [ -115.3055169, 36.216900899899997 ], [ -115.3055169, 36.216898199900001 ], [ -115.3055142, 36.216898199900001 ], [ -115.3055142, 36.216846899899998 ], [ -115.3055169, 36.216846899899998 ], [ -115.3055169, 36.216844199900002 ], [ -115.305633, 36.216844199900002 ], [ -115.305633, 36.216841499899999 ], [ -115.3056735, 36.216841499899999 ], [ -115.3056735, 36.216846899899998 ], [ -115.3056762, 36.216846899899998 ], [ -115.3056762, 36.216871199899998 ], [ -115.3056924, 36.216871199899998 ], [ -115.3056924, 36.216873899900001 ], [ -115.3057005, 36.216873899900001 ], [ -115.3057005, 36.216871199899998 ], [ -115.305708599999988, 36.216871199899998 ], [ -115.305708599999988, 36.216873899900001 ], [ -115.3057113, 36.216873899900001 ], [ -115.3057113, 36.216876599899997 ], [ -115.305708599999988, 36.216876599899997 ], [ -115.305708599999988, 36.2168792999 ], [ -115.3057059, 36.2168792999 ], [ -115.3057059, 36.216876599899997 ], [ -115.3057005, 36.216876599899997 ], [ -115.3057005, 36.216881999900004 ], [ -115.305708599999988, 36.216881999900004 ], [ -115.305708599999988, 36.216890099899999 ], [ -115.3057059, 36.216890099899999 ], [ -115.3057059, 36.216895499899998 ], [ -115.305708599999988, 36.216895499899998 ], [ -115.305708599999988, 36.216898199900001 ], [ -115.3057113, 36.216898199900001 ], [ -115.3057113, 36.216900899899997 ], [ -115.305714, 36.216900899899997 ], [ -115.305714, 36.216925199900004 ], [ -115.3057167, 36.216925199900004 ], [ -115.3057167, 36.216933299899999 ], [ -115.305714, 36.216933299899999 ], [ -115.305714, 36.216944099899997 ], [ -115.3057113, 36.216944099899997 ], [ -115.3057113, 36.216946799900001 ], [ -115.305708599999988, 36.216946799900001 ], [ -115.305708599999988, 36.216949499900004 ], [ -115.3056924, 36.216949499900004 ], [ -115.3056924, 36.2169521999 ], [ -115.305689699999988, 36.2169521999 ], [ -115.305689699999988, 36.216954899900003 ], [ -115.305687, 36.216954899900003 ], [ -115.305687, 36.216979199900003 ], [ -115.3056843, 36.216979199900003 ], [ -115.3056843, 36.216989999900001 ], [ -115.3056816, 36.216989999900001 ], [ -115.3056816, 36.216992699899997 ], [ -115.3056789, 36.216992699899997 ], [ -115.3056789, 36.2169953999 ], [ -115.3056546, 36.2169953999 ], [ -115.3056546, 36.216998099900003 ], [ -115.3055547, 36.216998099900003 ], [ -115.3055547, 36.217000799899999 ] ] ] } },
{ "type": "Feature", "properties": { "value": 255.0 }, "geometry": { "type": "Polygon", "coordinates": [ [ [ -115.3051605, 36.217000799899999 ], [ -115.3051173, 36.217000799899999 ], [ -115.3051173, 36.216998099900003 ], [ -115.3050633, 36.216998099900003 ], [ -115.3050633, 36.2169953999 ], [ -115.3050471, 36.2169953999 ], [ -115.3050471, 36.216992699899997 ], [ -115.3050336, 36.216992699899997 ], [ -115.3050336, 36.216989999900001 ], [ -115.3050066, 36.216989999900001 ], [ -115.3050066, 36.216987299899998 ], [ -115.3049742, 36.216987299899998 ], [ -115.3049742, 36.216984599900002 ], [ -115.3049715, 36.216984599900002 ], [ -115.3049715, 36.216965699900001 ], [ -115.3049742, 36.216965699900001 ], [ -115.3049742, 36.216944099899997 ], [ -115.3049769, 36.216944099899997 ], [ -115.3049769, 36.216922499900001 ], [ -115.3049796, 36.216922499900001 ], [ -115.3049796, 36.2168792999 ], [ -115.3049823, 36.2168792999 ], [ -115.3049823, 36.216871199899998 ], [ -115.304985, 36.216871199899998 ], [ -115.304985, 36.2168603999 ], [ -115.3049877, 36.2168603999 ], [ -115.3049877, 36.216852299899998 ], [ -115.304985, 36.216852299899998 ], [ -115.304985, 36.216844199900002 ], [ -115.3049823, 36.216844199900002 ], [ -115.3049823, 36.216838799900003 ], [ -115.304985, 36.216838799900003 ], [ -115.304985, 36.216830699900001 ], [ -115.3049877, 36.216830699900001 ], [ -115.3049877, 36.216819899900003 ], [ -115.304985, 36.216819899900003 ], [ -115.304985, 36.216817199899999 ], [ -115.3049877, 36.216817199899999 ], [ -115.3049877, 36.2168117999 ], [ -115.3049985, 36.2168117999 ], [ -115.3049985, 36.216809099899997 ], [ -115.305012, 36.216809099899997 ], [ -115.305012, 36.2168117999 ], [ -115.305039, 36.2168117999 ], [ -115.305039, 36.216814499900003 ], [ -115.305066, 36.216814499900003 ], [ -115.305066, 36.216817199899999 ], [ -115.3050822, 36.216817199899999 ], [ -115.3050822, 36.216819899900003 ], [ -115.3051119, 36.216819899900003 ], [ -115.3051119, 36.216822599899999 ], [ -115.3051659, 36.216822599899999 ], [ -115.3051659, 36.216825299900002 ], [ -115.3051794, 36.216825299900002 ], [ -115.3051794, 36.216827999899998 ], [ -115.3051848, 36.216827999899998 ], [ -115.3051848, 36.216830699900001 ], [ -115.3051929, 36.216830699900001 ], [ -115.3051929, 36.216833399900004 ], [ -115.3052091, 36.216833399900004 ], [ -115.3052091, 36.216838799900003 ], [ -115.3052118, 36.216838799900003 ], [ -115.3052118, 36.216873899900001 ], [ -115.3052091, 36.216873899900001 ], [ -115.3052091, 36.216890099899999 ], [ -115.3052064, 36.216890099899999 ], [ -115.3052064, 36.216895499899998 ], [ -115.305201, 36.216895499899998 ], [ -115.305201, 36.216898199900001 ], [ -115.3051983, 36.216898199900001 ], [ -115.3051983, 36.216895499899998 ], [ -115.3051929, 36.216895499899998 ], [ -115.3051929, 36.216898199900001 ], [ -115.3051875, 36.216898199900001 ], [ -115.3051875, 36.216900899899997 ], [ -115.3051848, 36.216900899899997 ], [ -115.3051848, 36.216911699900002 ], [ -115.3051821, 36.216911699900002 ], [ -115.3051821, 36.216914399899999 ], [ -115.3051767, 36.216914399899999 ], [ -115.3051767, 36.216917099900002 ], [ -115.3051605, 36.216917099900002 ], [ -115.3051605, 36.216922499900001 ], [ -115.3051578, 36.216922499900001 ], [ -115.3051578, 36.216938699899998 ], [ -115.3051605, 36.216938699899998 ], [ -115.3051605, 36.2169521999 ], [ -115.3051632, 36.2169521999 ], [ -115.3051632, 36.2169710999 ], [ -115.3051659, 36.2169710999 ], [ -115.3051659, 36.216979199900003 ], [ -115.3051632, 36.216979199900003 ], [ -115.3051632, 36.216998099900003 ], [ -115.3051605, 36.216998099900003 ], [ -115.3051605, 36.217000799899999 ] ] ] } },
{ "type": "Feature", "properties": { "value": 255.0 }, "geometry": { "type": "Polygon", "coordinates": [ [ [ -115.3056492, 36.216800999900002 ], [ -115.3055979, 36.216800999900002 ], [ -115.3055979, 36.216798299899999 ], [ -115.3055871, 36.216798299899999 ], [ -115.3055871, 36.216795599900003 ], [ -115.3055601, 36.216795599900003 ], [ -115.3055601, 36.2167928999 ], [ -115.3055574, 36.2167928999 ], [ -115.3055574, 36.216779399899998 ], [ -115.3055601, 36.216779399899998 ], [ -115.3055601, 36.216763199900001 ], [ -115.3055628, 36.216763199900001 ], [ -115.3055628, 36.216752399900003 ], [ -115.3055601, 36.216752399900003 ], [ -115.3055601, 36.216722699900004 ], [ -115.3055628, 36.216722699900004 ], [ -115.3055628, 36.216711899899998 ], [ -115.3055601, 36.216711899899998 ], [ -115.3055601, 36.216706499899999 ], [ -115.3055574, 36.216706499899999 ], [ -115.3055574, 36.216703799900003 ], [ -115.3055277, 36.216703799900003 ], [ -115.3055277, 36.2167010999 ], [ -115.305525, 36.2167010999 ], [ -115.305525, 36.216698399900004 ], [ -115.3055223, 36.216698399900004 ], [ -115.3055223, 36.216647099900001 ], [ -115.305525, 36.216647099900001 ], [ -115.305525, 36.216644399899998 ], [ -115.3055547, 36.216644399899998 ], [ -115.3055547, 36.216641699900002 ], [ -115.3055682, 36.216641699900002 ], [ -115.3055682, 36.216644399899998 ], [ -115.3056843, 36.216644399899998 ], [ -115.3056843, 36.216647099900001 ], [ -115.305687, 36.216647099900001 ], [ -115.305687, 36.216649799900004 ], [ -115.305689699999988, 36.216649799900004 ], [ -115.305689699999988, 36.216655199900003 ], [ -115.3056924, 36.216655199900003 ], [ -115.3056924, 36.216660599900003 ], [ -115.305689699999988, 36.216660599900003 ], [ -115.305689699999988, 36.216679499900003 ], [ -115.305687, 36.216679499900003 ], [ -115.305687, 36.216684899900002 ], [ -115.3056843, 36.216684899900002 ], [ -115.3056843, 36.216690299900002 ], [ -115.305687, 36.216690299900002 ], [ -115.305687, 36.216695699900001 ], [ -115.3056924, 36.216695699900001 ], [ -115.3056924, 36.216698399900004 ], [ -115.305708599999988, 36.216698399900004 ], [ -115.305708599999988, 36.2167010999 ], [ -115.305714, 36.2167010999 ], [ -115.305714, 36.216706499899999 ], [ -115.3057167, 36.216706499899999 ], [ -115.3057167, 36.216709199900002 ], [ -115.3057194, 36.216709199900002 ], [ -115.3057194, 36.216711899899998 ], [ -115.3057221, 36.216711899899998 ], [ -115.3057221, 36.216714599900001 ], [ -115.3057248, 36.216714599900001 ], [ -115.3057248, 36.2167199999 ], [ -115.305727499999989, 36.2167199999 ], [ -115.305727499999989, 36.2167253999 ], [ -115.3057248, 36.2167253999 ], [ -115.3057248, 36.216728099900003 ], [ -115.3057221, 36.216728099900003 ], [ -115.3057221, 36.216738899900001 ], [ -115.3057194, 36.216738899900001 ], [ -115.3057194, 36.216741599900004 ], [ -115.3057113, 36.216741599900004 ], [ -115.3057113, 36.2167442999 ], [ -115.3057005, 36.2167442999 ], [ -115.3057005, 36.216746999900003 ], [ -115.3056924, 36.216746999900003 ], [ -115.3056924, 36.216749699899999 ], [ -115.305689699999988, 36.216749699899999 ], [ -115.305689699999988, 36.216773999899999 ], [ -115.3056924, 36.216773999899999 ], [ -115.3056924, 36.216787499900001 ], [ -115.305689699999988, 36.216787499900001 ], [ -115.305689699999988, 36.2167928999 ], [ -115.305687, 36.2167928999 ], [ -115.305687, 36.216795599900003 ], [ -115.3056843, 36.216795599900003 ], [ -115.3056843, 36.216798299899999 ], [ -115.3056492, 36.216798299899999 ], [ -115.3056492, 36.216800999900002 ] ] ] } },
{ "type": "Feature", "properties": { "value": 255.0 }, "geometry": { "type": "Polygon", "coordinates": [ [ [ -115.3051848, 36.216784799899997 ], [ -115.3051713, 36.216784799899997 ], [ -115.3051713, 36.216782099900001 ], [ -115.305147, 36.216782099900001 ], [ -115.305147, 36.216779399899998 ], [ -115.3051119, 36.216779399899998 ], [ -115.3051119, 36.216776699900002 ], [ -115.3050876, 36.216776699900002 ], [ -115.3050876, 36.216773999899999 ], [ -115.3050579, 36.216773999899999 ], [ -115.3050579, 36.216771299900003 ], [ -115.3050039, 36.216771299900003 ], [ -115.3050039, 36.2167685999 ], [ -115.3049985, 36.2167685999 ], [ -115.3049985, 36.216728099900003 ], [ -115.3050012, 36.216728099900003 ], [ -115.3050012, 36.2167010999 ], [ -115.3050039, 36.2167010999 ], [ -115.3050039, 36.216674099900004 ], [ -115.3050066, 36.216674099900004 ], [ -115.3050066, 36.216668699899998 ], [ -115.305012, 36.216668699899998 ], [ -115.305012, 36.216665999900002 ], [ -115.3050147, 36.216665999900002 ], [ -115.3050147, 36.216663299899999 ], [ -115.3050174, 36.216663299899999 ], [ -115.3050174, 36.216660599900003 ], [ -115.3050201, 36.216660599900003 ], [ -115.3050201, 36.216641699900002 ], [ -115.3050228, 36.216641699900002 ], [ -115.3050228, 36.216606599900004 ], [ -115.3050255, 36.216606599900004 ], [ -115.3050255, 36.216595799899999 ], [ -115.3050309, 36.216595799899999 ], [ -115.3050309, 36.216593099900003 ], [ -115.3050417, 36.216593099900003 ], [ -115.3050417, 36.216595799899999 ], [ -115.3050876, 36.216595799899999 ], [ -115.3050876, 36.216598499900002 ], [ -115.3051308, 36.216598499900002 ], [ -115.3051308, 36.216601199899998 ], [ -115.3051632, 36.216601199899998 ], [ -115.3051632, 36.216598499900002 ], [ -115.3051659, 36.216598499900002 ], [ -115.3051659, 36.216601199899998 ], [ -115.3052253, 36.216601199899998 ], [ -115.3052253, 36.216603899900001 ], [ -115.3052334, 36.216603899900001 ], [ -115.3052334, 36.216606599900004 ], [ -115.3052361, 36.216606599900004 ], [ -115.3052361, 36.216630899900004 ], [ -115.3052388, 36.216630899900004 ], [ -115.3052388, 36.2166578999 ], [ -115.3052361, 36.2166578999 ], [ -115.3052361, 36.216665999900002 ], [ -115.3052334, 36.216665999900002 ], [ -115.3052334, 36.216671399900001 ], [ -115.3052307, 36.216671399900001 ], [ -115.3052307, 36.216674099900004 ], [ -115.305228, 36.216674099900004 ], [ -115.305228, 36.2166767999 ], [ -115.3052145, 36.2166767999 ], [ -115.3052145, 36.216679499900003 ], [ -115.3052118, 36.216679499900003 ], [ -115.3052118, 36.216682199899999 ], [ -115.3052091, 36.216682199899999 ], [ -115.3052091, 36.216690299900002 ], [ -115.3052064, 36.216690299900002 ], [ -115.3052064, 36.216695699900001 ], [ -115.305201, 36.216695699900001 ], [ -115.305201, 36.216698399900004 ], [ -115.3051929, 36.216698399900004 ], [ -115.3051929, 36.216695699900001 ], [ -115.3051875, 36.216695699900001 ], [ -115.3051875, 36.216698399900004 ], [ -115.3051848, 36.216698399900004 ], [ -115.3051848, 36.216706499899999 ], [ -115.3051875, 36.216706499899999 ], [ -115.3051875, 36.216749699899999 ], [ -115.3051902, 36.216749699899999 ], [ -115.3051902, 36.2167685999 ], [ -115.3051875, 36.2167685999 ], [ -115.3051875, 36.216782099900001 ], [ -115.3051848, 36.216782099900001 ], [ -115.3051848, 36.216784799899997 ] ] ] } },
{ "type": "Feature", "properties": { "value": 255.0 }, "geometry": { "type": "Polygon", "coordinates": [ [ [ -115.3057032, 36.216593099900003 ], [ -115.3055412, 36.216593099900003 ], [ -115.3055412, 36.216590399899999 ], [ -115.3055358, 36.216590399899999 ], [ -115.3055358, 36.216587699900003 ], [ -115.3055331, 36.216587699900003 ], [ -115.3055331, 36.216563399900004 ], [ -115.3055358, 36.216563399900004 ], [ -115.3055358, 36.2165417999 ], [ -115.3055385, 36.2165417999 ], [ -115.3055385, 36.216536399900001 ], [ -115.3055412, 36.216536399900001 ], [ -115.3055412, 36.216533699900005 ], [ -115.305543899999989, 36.216533699900005 ], [ -115.305543899999989, 36.216530999900002 ], [ -115.3055493, 36.216530999900002 ], [ -115.3055493, 36.216528299899998 ], [ -115.305552, 36.216528299899998 ], [ -115.305552, 36.216525599900002 ], [ -115.3055547, 36.216525599900002 ], [ -115.3055547, 36.216522899899999 ], [ -115.3055601, 36.216522899899999 ], [ -115.3055601, 36.216520199900003 ], [ -115.3055628, 36.216520199900003 ], [ -115.3055628, 36.2165174999 ], [ -115.3055682, 36.2165174999 ], [ -115.3055682, 36.216514799900004 ], [ -115.3055709, 36.216514799900004 ], [ -115.3055709, 36.216503999899999 ], [ -115.3055682, 36.216503999899999 ], [ -115.3055682, 36.216501299900003 ], [ -115.3055655, 36.216501299900003 ], [ -115.3055655, 36.2164985999 ], [ -115.3055466, 36.2164985999 ], [ -115.3055466, 36.216495899900004 ], [ -115.305543899999989, 36.216495899900004 ], [ -115.305543899999989, 36.216455399899999 ], [ -115.3055466, 36.216455399899999 ], [ -115.3055466, 36.216452699900003 ], [ -115.3055493, 36.216452699900003 ], [ -115.3055493, 36.216447299900004 ], [ -115.305552, 36.216447299900004 ], [ -115.305552, 36.216444599900001 ], [ -115.3055547, 36.216444599900001 ], [ -115.3055547, 36.216441899900005 ], [ -115.3055601, 36.216441899900005 ], [ -115.3055601, 36.216439199900002 ], [ -115.3055682, 36.216439199900002 ], [ -115.3055682, 36.216436499899999 ], [ -115.3056357, 36.216436499899999 ], [ -115.3056357, 36.216439199900002 ], [ -115.3056465, 36.216439199900002 ], [ -115.3056465, 36.216436499899999 ], [ -115.3057059, 36.216436499899999 ], [ -115.3057059, 36.216439199900002 ], [ -115.305708599999988, 36.216439199900002 ], [ -115.305708599999988, 36.216441899900005 ], [ -115.3057113, 36.216441899900005 ], [ -115.3057113, 36.2164499999 ], [ -115.305708599999988, 36.2164499999 ], [ -115.305708599999988, 36.216471599900004 ], [ -115.3057113, 36.216471599900004 ], [ -115.3057113, 36.216490499900004 ], [ -115.305714, 36.216490499900004 ], [ -115.305714, 36.216495899900004 ], [ -115.3057167, 36.216495899900004 ], [ -115.3057167, 36.2164985999 ], [ -115.3057356, 36.2164985999 ], [ -115.3057356, 36.216501299900003 ], [ -115.305738299999987, 36.216501299900003 ], [ -115.305738299999987, 36.216503999899999 ], [ -115.305741, 36.216503999899999 ], [ -115.305741, 36.2165174999 ], [ -115.3057437, 36.2165174999 ], [ -115.3057437, 36.216530999900002 ], [ -115.305741, 36.216530999900002 ], [ -115.305741, 36.2165417999 ], [ -115.305738299999987, 36.2165417999 ], [ -115.305738299999987, 36.216544499900003 ], [ -115.305727499999989, 36.216544499900003 ], [ -115.305727499999989, 36.216547199899999 ], [ -115.3057194, 36.216547199899999 ], [ -115.3057194, 36.216549899900002 ], [ -115.3057167, 36.216549899900002 ], [ -115.3057167, 36.216576899899998 ], [ -115.305714, 36.216576899899998 ], [ -115.305714, 36.216582299900004 ], [ -115.3057113, 36.216582299900004 ], [ -115.3057113, 36.216587699900003 ], [ -115.305708599999988, 36.216587699900003 ], [ -115.305708599999988, 36.216590399899999 ], [ -115.3057032, 36.216590399899999 ], [ -115.3057032, 36.216593099900003 ] ] ] } },
{ "type": "Feature", "properties": { "value": 255.0 }, "geometry": { "type": "Polygon", "coordinates": [ [ [ -115.3051362, 36.216552599899998 ], [ -115.3051065, 36.216552599899998 ], [ -115.3051065, 36.216549899900002 ], [ -115.3050282, 36.216549899900002 ], [ -115.3050282, 36.216547199899999 ], [ -115.3050201, 36.216547199899999 ], [ -115.3050201, 36.216544499900003 ], [ -115.3050174, 36.216544499900003 ], [ -115.3050174, 36.2165417999 ], [ -115.3050147, 36.2165417999 ], [ -115.3050147, 36.216536399900001 ], [ -115.305012, 36.216536399900001 ], [ -115.305012, 36.216520199900003 ], [ -115.3050093, 36.216520199900003 ], [ -115.3050093, 36.216512099900001 ], [ -115.3050066, 36.216512099900001 ], [ -115.3050066, 36.2164931999 ], [ -115.3050039, 36.2164931999 ], [ -115.3050039, 36.216487799900001 ], [ -115.3050066, 36.216487799900001 ], [ -115.3050066, 36.216468899900001 ], [ -115.3050093, 36.216468899900001 ], [ -115.3050093, 36.216455399899999 ], [ -115.3050066, 36.216455399899999 ], [ -115.3050066, 36.216452699900003 ], [ -115.3050093, 36.216452699900003 ], [ -115.3050093, 36.216447299900004 ], [ -115.305012, 36.216447299900004 ], [ -115.305012, 36.216444599900001 ], [ -115.3050174, 36.216444599900001 ], [ -115.3050174, 36.216441899900005 ], [ -115.3050255, 36.216441899900005 ], [ -115.3050255, 36.216439199900002 ], [ -115.3050282, 36.216439199900002 ], [ -115.3050282, 36.216436499899999 ], [ -115.3050309, 36.216436499899999 ], [ -115.3050309, 36.216422999900004 ], [ -115.3050255, 36.216422999900004 ], [ -115.3050255, 36.216420299900001 ], [ -115.3050282, 36.216420299900001 ], [ -115.3050282, 36.216417599900005 ], [ -115.3050309, 36.216417599900005 ], [ -115.3050309, 36.216412199899999 ], [ -115.3050282, 36.216412199899999 ], [ -115.3050282, 36.216404099900004 ], [ -115.3050255, 36.216404099900004 ], [ -115.3050255, 36.216390599900002 ], [ -115.3050282, 36.216390599900002 ], [ -115.3050282, 36.216385199900003 ], [ -115.3050309, 36.216385199900003 ], [ -115.3050309, 36.2163824999 ], [ -115.3050336, 36.2163824999 ], [ -115.3050336, 36.216377099900001 ], [ -115.3050363, 36.216377099900001 ], [ -115.3050363, 36.216374399900005 ], [ -115.3050444, 36.216374399900005 ], [ -115.3050444, 36.216371699900002 ], [ -115.3050552, 36.216371699900002 ], [ -115.3050552, 36.216368999899998 ], [ -115.3051038, 36.216368999899998 ], [ -115.3051038, 36.216366299900002 ], [ -115.3051092, 36.216366299900002 ], [ -115.3051092, 36.216368999899998 ], [ -115.3051794, 36.216368999899998 ], [ -115.3051794, 36.216371699900002 ], [ -115.3052253, 36.216371699900002 ], [ -115.3052253, 36.216374399900005 ], [ -115.3052307, 36.216374399900005 ], [ -115.3052307, 36.216377099900001 ], [ -115.3052334, 36.216377099900001 ], [ -115.3052334, 36.216387899899999 ], [ -115.3052361, 36.216387899899999 ], [ -115.3052361, 36.216412199899999 ], [ -115.3052388, 36.216412199899999 ], [ -115.3052388, 36.216417599900005 ], [ -115.3052415, 36.216417599900005 ], [ -115.3052415, 36.216458099900002 ], [ -115.3052388, 36.216458099900002 ], [ -115.3052388, 36.216463499900001 ], [ -115.3052253, 36.216463499900001 ], [ -115.3052253, 36.216466199900005 ], [ -115.3051983, 36.216466199900005 ], [ -115.3051983, 36.2164742999 ], [ -115.3052091, 36.2164742999 ], [ -115.3052091, 36.216476999900003 ], [ -115.3052199, 36.216476999900003 ], [ -115.3052199, 36.2164931999 ], [ -115.3052226, 36.2164931999 ], [ -115.3052226, 36.216503999899999 ], [ -115.3052253, 36.216503999899999 ], [ -115.3052253, 36.216528299899998 ], [ -115.305228, 36.216528299899998 ], [ -115.305228, 36.216533699900005 ], [ -115.3052253, 36.216533699900005 ], [ -115.3052253, 36.216544499900003 ], [ -115.3052226, 36.216544499900003 ], [ -115.3052226, 36.216547199899999 ], [ -115.3051713, 36.216547199899999 ], [ -115.3051713, 36.216549899900002 ], [ -115.3051362, 36.216549899900002 ], [ -115.3051362, 36.216552599899998 ] ] ] } },
{ "type": "Feature", "properties": { "value": 255.0 }, "geometry": { "type": "Polygon", "coordinates": [ [ [ -115.3057356, 36.216393299899998 ], [ -115.3056006, 36.216393299899998 ], [ -115.3056006, 36.216390599900002 ], [ -115.3055655, 36.216390599900002 ], [ -115.3055655, 36.216387899899999 ], [ -115.3055628, 36.216387899899999 ], [ -115.3055628, 36.216385199900003 ], [ -115.3055601, 36.216385199900003 ], [ -115.3055601, 36.216379799900004 ], [ -115.3055574, 36.216379799900004 ], [ -115.3055574, 36.2163392999 ], [ -115.3055601, 36.2163392999 ], [ -115.3055601, 36.216328499900001 ], [ -115.3055628, 36.216328499900001 ], [ -115.3055628, 36.216325799900005 ], [ -115.3055682, 36.216325799900005 ], [ -115.3055682, 36.216323099900002 ], [ -115.3055898, 36.216323099900002 ], [ -115.3055898, 36.216325799900005 ], [ -115.3056006, 36.216325799900005 ], [ -115.3056006, 36.216323099900002 ], [ -115.3056141, 36.216323099900002 ], [ -115.3056141, 36.216317699900003 ], [ -115.3056168, 36.216317699900003 ], [ -115.3056168, 36.216304199900001 ], [ -115.3056141, 36.216304199900001 ], [ -115.3056141, 36.216301499899998 ], [ -115.3056087, 36.216301499899998 ], [ -115.3056087, 36.216298799900002 ], [ -115.3055601, 36.216298799900002 ], [ -115.3055601, 36.216301499899998 ], [ -115.3055466, 36.216301499899998 ], [ -115.3055466, 36.216298799900002 ], [ -115.3055358, 36.216298799900002 ], [ -115.3055358, 36.216296099899999 ], [ -115.3055331, 36.216296099899999 ], [ -115.3055331, 36.2162474999 ], [ -115.3055358, 36.2162474999 ], [ -115.3055358, 36.216242099900001 ], [ -115.3055412, 36.216242099900001 ], [ -115.3055412, 36.216239399900005 ], [ -115.3055493, 36.216239399900005 ], [ -115.3055493, 36.216236699900001 ], [ -115.3057194, 36.216236699900001 ], [ -115.3057194, 36.216233999900005 ], [ -115.3057356, 36.216233999900005 ], [ -115.3057356, 36.216236699900001 ], [ -115.305738299999987, 36.216236699900001 ], [ -115.305738299999987, 36.216239399900005 ], [ -115.305741, 36.216239399900005 ], [ -115.305741, 36.216250199900003 ], [ -115.3057437, 36.216250199900003 ], [ -115.3057437, 36.216260999900001 ], [ -115.305741, 36.216260999900001 ], [ -115.305741, 36.2162663999 ], [ -115.3057437, 36.2162663999 ], [ -115.3057437, 36.216274499900003 ], [ -115.3057491, 36.216274499900003 ], [ -115.3057491, 36.216277199899999 ], [ -115.305757199999988, 36.216277199899999 ], [ -115.305757199999988, 36.216279899900002 ], [ -115.3057599, 36.216279899900002 ], [ -115.3057599, 36.216304199900001 ], [ -115.305757199999988, 36.216304199900001 ], [ -115.305757199999988, 36.216344699899999 ], [ -115.3057545, 36.216344699899999 ], [ -115.3057545, 36.216347399900002 ], [ -115.3057491, 36.216347399900002 ], [ -115.3057491, 36.216350099900005 ], [ -115.3057437, 36.216350099900005 ], [ -115.3057437, 36.216352799900001 ], [ -115.305741, 36.216352799900001 ], [ -115.305741, 36.216355499900004 ], [ -115.3057437, 36.216355499900004 ], [ -115.3057437, 36.216387899899999 ], [ -115.305741, 36.216387899899999 ], [ -115.305741, 36.216390599900002 ], [ -115.3057356, 36.216390599900002 ], [ -115.3057356, 36.216393299899998 ] ] ] } },
{ "type": "Feature", "properties": { "value": 255.0 }, "geometry": { "type": "Polygon", "coordinates": [ [ [ -115.3051821, 36.216325799900005 ], [ -115.3050984, 36.216325799900005 ], [ -115.3050984, 36.216323099900002 ], [ -115.3050768, 36.216323099900002 ], [ -115.3050768, 36.216325799900005 ], [ -115.3050525, 36.216325799900005 ], [ -115.3050525, 36.216323099900002 ], [ -115.3050498, 36.216323099900002 ], [ -115.3050498, 36.216320399899999 ], [ -115.3050444, 36.216320399899999 ], [ -115.3050444, 36.216317699900003 ], [ -115.305039, 36.216317699900003 ], [ -115.305039, 36.2163149999 ], [ -115.3050336, 36.2163149999 ], [ -115.3050336, 36.216309599900001 ], [ -115.3050309, 36.216309599900001 ], [ -115.3050309, 36.216306899900005 ], [ -115.3050282, 36.216306899900005 ], [ -115.3050282, 36.216304199900001 ], [ -115.3050255, 36.216304199900001 ], [ -115.3050255, 36.216301499899998 ], [ -115.3050228, 36.216301499899998 ], [ -115.3050228, 36.216285299900001 ], [ -115.3050201, 36.216285299900001 ], [ -115.3050201, 36.216282599900005 ], [ -115.3050174, 36.216282599900005 ], [ -115.3050174, 36.216263699900004 ], [ -115.3050201, 36.216263699900004 ], [ -115.3050201, 36.216252899899999 ], [ -115.3050228, 36.216252899899999 ], [ -115.3050228, 36.216250199900003 ], [ -115.3050201, 36.216250199900003 ], [ -115.3050201, 36.2162474999 ], [ -115.3050174, 36.2162474999 ], [ -115.3050174, 36.216225899900003 ], [ -115.3050201, 36.216225899900003 ], [ -115.3050201, 36.216220499900004 ], [ -115.3050228, 36.216220499900004 ], [ -115.3050228, 36.216217799900001 ], [ -115.3050255, 36.216217799900001 ], [ -115.3050255, 36.216209699900006 ], [ -115.3050282, 36.216209699900006 ], [ -115.3050282, 36.216188099900002 ], [ -115.3050309, 36.216188099900002 ], [ -115.3050309, 36.2161799999 ], [ -115.3050336, 36.2161799999 ], [ -115.3050336, 36.2161745999 ], [ -115.3050309, 36.2161745999 ], [ -115.3050309, 36.216169199900001 ], [ -115.3050336, 36.216169199900001 ], [ -115.3050336, 36.216163799900002 ], [ -115.3050363, 36.216163799900002 ], [ -115.3050363, 36.216158399900003 ], [ -115.3050336, 36.216158399900003 ], [ -115.3050336, 36.216152999900004 ], [ -115.3050309, 36.216152999900004 ], [ -115.3050309, 36.216150299900001 ], [ -115.3050336, 36.216150299900001 ], [ -115.3050336, 36.216147599900005 ], [ -115.305093, 36.216147599900005 ], [ -115.305093, 36.216144899900002 ], [ -115.3051848, 36.216144899900002 ], [ -115.3051848, 36.216142199900005 ], [ -115.3052334, 36.216142199900005 ], [ -115.3052334, 36.216144899900002 ], [ -115.3052361, 36.216144899900002 ], [ -115.3052361, 36.216206999900002 ], [ -115.3052334, 36.216206999900002 ], [ -115.3052334, 36.216209699900006 ], [ -115.3052307, 36.216209699900006 ], [ -115.3052307, 36.216212399900002 ], [ -115.305228, 36.216212399900002 ], [ -115.305228, 36.216217799900001 ], [ -115.3052253, 36.216217799900001 ], [ -115.3052253, 36.216220499900004 ], [ -115.3052226, 36.216220499900004 ], [ -115.3052226, 36.2162231999 ], [ -115.3052199, 36.2162231999 ], [ -115.3052199, 36.216225899900003 ], [ -115.3052145, 36.216225899900003 ], [ -115.3052145, 36.216228599899999 ], [ -115.3052118, 36.216228599899999 ], [ -115.3052118, 36.216231299900002 ], [ -115.3052037, 36.216231299900002 ], [ -115.3052037, 36.216233999900005 ], [ -115.3051983, 36.216233999900005 ], [ -115.3051983, 36.216236699900001 ], [ -115.3051956, 36.216236699900001 ], [ -115.3051956, 36.216244799900004 ], [ -115.3051983, 36.216244799900004 ], [ -115.3051983, 36.216252899899999 ], [ -115.305201, 36.216252899899999 ], [ -115.305201, 36.216260999900001 ], [ -115.3052037, 36.216260999900001 ], [ -115.3052037, 36.216271799899999 ], [ -115.3052064, 36.216271799899999 ], [ -115.3052064, 36.216285299900001 ], [ -115.3052091, 36.216285299900001 ], [ -115.3052091, 36.216304199900001 ], [ -115.3052118, 36.216304199900001 ], [ -115.3052118, 36.2163149999 ], [ -115.3052091, 36.2163149999 ], [ -115.3052091, 36.216320399899999 ], [ -115.3052064, 36.216320399899999 ], [ -115.3052064, 36.216323099900002 ], [ -115.3051821, 36.216323099900002 ], [ -115.3051821, 36.216325799900005 ] ] ] } },
{ "type": "Feature", "properties": { "value": 255.0 }, "geometry": { "type": "Polygon", "coordinates": [ [ [ -115.3056222, 36.216193499900001 ], [ -115.3056141, 36.216193499900001 ], [ -115.3056141, 36.216190799900005 ], [ -115.305606, 36.216190799900005 ], [ -115.305606, 36.216188099900002 ], [ -115.3056033, 36.216188099900002 ], [ -115.3056033, 36.216169199900001 ], [ -115.3055871, 36.216169199900001 ], [ -115.3055871, 36.216166499900005 ], [ -115.3055655, 36.216166499900005 ], [ -115.3055655, 36.216161099899999 ], [ -115.3055628, 36.216161099899999 ], [ -115.3055628, 36.2161313999 ], [ -115.3055655, 36.2161313999 ], [ -115.3055655, 36.216125999900001 ], [ -115.3055682, 36.216125999900001 ], [ -115.3055682, 36.216123299900005 ], [ -115.3055736, 36.216123299900005 ], [ -115.3055736, 36.216120599900002 ], [ -115.3055763, 36.216120599900002 ], [ -115.3055763, 36.216109799900003 ], [ -115.3055736, 36.216109799900003 ], [ -115.3055736, 36.2161070999 ], [ -115.3055574, 36.2161070999 ], [ -115.3055574, 36.216104399900004 ], [ -115.3055331, 36.216104399900004 ], [ -115.3055331, 36.216101699900001 ], [ -115.3055277, 36.216101699900001 ], [ -115.3055277, 36.216082799900001 ], [ -115.305525, 36.216082799900001 ], [ -115.305525, 36.216077399900001 ], [ -115.3055277, 36.216077399900001 ], [ -115.3055277, 36.216047699900002 ], [ -115.3056843, 36.216047699900002 ], [ -115.3056843, 36.216066599900003 ], [ -115.305687, 36.216066599900003 ], [ -115.305687, 36.216069299899999 ], [ -115.3056924, 36.216069299899999 ], [ -115.3056924, 36.216074699900005 ], [ -115.3056951, 36.216074699900005 ], [ -115.3056951, 36.216077399900001 ], [ -115.3057005, 36.216077399900001 ], [ -115.3057005, 36.216080099900005 ], [ -115.3057032, 36.216080099900005 ], [ -115.3057032, 36.216082799900001 ], [ -115.3057059, 36.216082799900001 ], [ -115.3057059, 36.2160881999 ], [ -115.305708599999988, 36.2160881999 ], [ -115.305708599999988, 36.216117899900006 ], [ -115.3057113, 36.216117899900006 ], [ -115.3057113, 36.216120599900002 ], [ -115.3057194, 36.216120599900002 ], [ -115.3057194, 36.216123299900005 ], [ -115.3057221, 36.216123299900005 ], [ -115.3057221, 36.216125999900001 ], [ -115.3057248, 36.216125999900001 ], [ -115.3057248, 36.216177299900004 ], [ -115.3057221, 36.216177299900004 ], [ -115.3057221, 36.2161799999 ], [ -115.3056951, 36.2161799999 ], [ -115.3056951, 36.216182699900003 ], [ -115.305689699999988, 36.216182699900003 ], [ -115.305689699999988, 36.216185399899999 ], [ -115.3056843, 36.216185399899999 ], [ -115.3056843, 36.216188099900002 ], [ -115.3056789, 36.216188099900002 ], [ -115.3056789, 36.216190799900005 ], [ -115.3056222, 36.216190799900005 ], [ -115.3056222, 36.216193499900001 ] ] ] } },
{ "type": "Feature", "properties": { "value": 255.0 }, "geometry": { "type": "Polygon", "coordinates": [ [ [ -115.3051686, 36.216104399900004 ], [ -115.305147, 36.216104399900004 ], [ -115.305147, 36.216101699900001 ], [ -115.3051443, 36.216101699900001 ], [ -115.3051443, 36.216104399900004 ], [ -115.3051389, 36.216104399900004 ], [ -115.3051389, 36.216101699900001 ], [ -115.3050714, 36.216101699900001 ], [ -115.3050714, 36.216098999900005 ], [ -115.305066, 36.216098999900005 ], [ -115.305066, 36.216085499900004 ], [ -115.3050687, 36.216085499900004 ], [ -115.3050687, 36.216074699900005 ], [ -115.305066, 36.216074699900005 ], [ -115.305066, 36.216061199900004 ], [ -115.3050606, 36.216061199900004 ], [ -115.3050606, 36.216058499900001 ], [ -115.305039, 36.216058499900001 ], [ -115.305039, 36.216055799900005 ], [ -115.3050363, 36.216055799900005 ], [ -115.3050363, 36.216050399900006 ], [ -115.3050336, 36.216050399900006 ], [ -115.3050336, 36.216047699900002 ], [ -115.3052361, 36.216047699900002 ], [ -115.3052361, 36.216058499900001 ], [ -115.3052388, 36.216058499900001 ], [ -115.3052388, 36.216096299900002 ], [ -115.3052361, 36.216096299900002 ], [ -115.3052361, 36.216098999900005 ], [ -115.3052334, 36.216098999900005 ], [ -115.3052334, 36.216101699900001 ], [ -115.3051686, 36.216101699900001 ], [ -115.3051686, 36.216104399900004 ] ] ] } }
]
}
