{
"type": "FeatureCollection",
"crs": { "type": "name", "properties": { "name": "urn:ogc:def:crs:OGC:1.3:CRS84" } },
"features": [
{ "type": "Feature", "properties": { "value": 255.0 }, "geometry": { "type": "Polygon", "coordinates": [ [ [ -115.1674848, 36.212213699899998 ], [ -115.1674605, 36.212213699899998 ], [ -115.1674605, 36.212210999899995 ], [ -115.1674254, 36.212210999899995 ], [ -115.1674254, 36.212208299899999 ], [ -115.1674227, 36.212208299899999 ], [ -115.1674227, 36.212202899899999 ], [ -115.16742, 36.212202899899999 ], [ -115.16742, 36.212194799899997 ], [ -115.1674173, 36.212194799899997 ], [ -115.1674173, 36.212192099900001 ], [ -115.1674146, 36.212192099900001 ], [ -115.1674146, 36.212189399899998 ], [ -115.1674119, 36.212189399899998 ], [ -115.1674119, 36.212181299899996 ], [ -115.1674146, 36.212181299899996 ], [ -115.1674146, 36.2121785999 ], [ -115.1674119, 36.2121785999 ], [ -115.1674119, 36.212175899899997 ], [ -115.1674092, 36.212175899899997 ], [ -115.1674092, 36.2121731999 ], [ -115.1674065, 36.2121731999 ], [ -115.1674065, 36.212167799899994 ], [ -115.1674038, 36.212167799899994 ], [ -115.1674038, 36.212165099899998 ], [ -115.167447, 36.212165099899998 ], [ -115.167447, 36.212162399899995 ], [ -115.1674497, 36.212162399899995 ], [ -115.1674497, 36.212159699899999 ], [ -115.1674659, 36.212159699899999 ], [ -115.1674659, 36.212165099899998 ], [ -115.167501, 36.212165099899998 ], [ -115.167501, 36.212162399899995 ], [ -115.1675145, 36.212162399899995 ], [ -115.1675145, 36.212165099899998 ], [ -115.1676171, 36.212165099899998 ], [ -115.1676171, 36.212186699899995 ], [ -115.1676198, 36.212186699899995 ], [ -115.1676198, 36.212200199899996 ], [ -115.1676171, 36.212200199899996 ], [ -115.1676171, 36.212208299899999 ], [ -115.1676009, 36.212208299899999 ], [ -115.1676009, 36.212210999899995 ], [ -115.1674848, 36.212210999899995 ], [ -115.1674848, 36.212213699899998 ] ] ] } },
{ "type": "Feature", "properties": { "value": 255.0 }, "geometry": { "type": "Polygon", "coordinates": [ [ [ -115.1676522, 36.212186699899995 ], [ -115.167636, 36.212186699899995 ], [ -115.167636, 36.212183999899999 ], [ -115.1676333, 36.212183999899999 ], [ -115.1676333, 36.212175899899997 ], [ -115.1676306, 36.212175899899997 ], [ -115.1676306, 36.2121731999 ], [ -115.1676333, 36.2121731999 ], [ -115.1676333, 36.212167799899994 ], [ -115.167636, 36.212167799899994 ], [ -115.167636, 36.212165099899998 ], [ -115.1676576, 36.212165099899998 ], [ -115.1676576, 36.212167799899994 ], [ -115.1676603, 36.212167799899994 ], [ -115.1676603, 36.212170499899997 ], [ -115.167663, 36.212170499899997 ], [ -115.167663, 36.2121785999 ], [ -115.1676576, 36.2121785999 ], [ -115.1676576, 36.212181299899996 ], [ -115.1676549, 36.212181299899996 ], [ -115.1676549, 36.212183999899999 ], [ -115.1676522, 36.212183999899999 ], [ -115.1676522, 36.212186699899995 ] ] ] } },
{ "type": "Feature", "properties": { "value": 255.0 }, "geometry": { "type": "Polygon", "coordinates": [ [ [ -115.16796, 36.212146199899998 ], [ -115.1679357, 36.212146199899998 ], [ -115.1679357, 36.212143499899994 ], [ -115.1679303, 36.212143499899994 ], [ -115.1679303, 36.212140799899998 ], [ -115.1679276, 36.212140799899998 ], [ -115.1679276, 36.212138099899995 ], [ -115.1679249, 36.212138099899995 ], [ -115.1679249, 36.212124599900001 ], [ -115.1679276, 36.212124599900001 ], [ -115.1679276, 36.212119199899995 ], [ -115.167933, 36.212119199899995 ], [ -115.167933, 36.212116499899999 ], [ -115.16796, 36.212116499899999 ], [ -115.16796, 36.212119199899995 ], [ -115.1679654, 36.212119199899995 ], [ -115.1679654, 36.212121899899998 ], [ -115.1679681, 36.212121899899998 ], [ -115.1679681, 36.212124599900001 ], [ -115.1679708, 36.212124599900001 ], [ -115.1679708, 36.212138099899995 ], [ -115.1679681, 36.212138099899995 ], [ -115.1679681, 36.212140799899998 ], [ -115.1679654, 36.212140799899998 ], [ -115.1679654, 36.212143499899994 ], [ -115.16796, 36.212143499899994 ], [ -115.16796, 36.212146199899998 ] ] ] } },
{ "type": "Feature", "properties": { "value": 255.0 }, "geometry": { "type": "Polygon", "coordinates": [ [ [ -115.1678115, 36.212135399899999 ], [ -115.1678034, 36.212135399899999 ], [ -115.1678034, 36.212116499899999 ], [ -115.1678196, 36.212116499899999 ], [ -115.1678196, 36.212119199899995 ], [ -115.1678223, 36.212119199899995 ], [ -115.1678223, 36.212121899899998 ], [ -115.1678115, 36.212121899899998 ], [ -115.1678115, 36.212124599900001 ], [ -115.1678088, 36.212124599900001 ], [ -115.1678088, 36.2121299999 ], [ -115.1678115, 36.2121299999 ], [ -115.1678115, 36.212135399899999 ] ] ] } },
{ "type": "Feature", "properties": { "value": 255.0 }, "geometry": { "type": "Polygon", "coordinates": [ [ [ -115.1680194, 36.212156999899996 ], [ -115.1679951, 36.212156999899996 ], [ -115.1679951, 36.2121542999 ], [ -115.1679897, 36.2121542999 ], [ -115.1679897, 36.212151599899997 ], [ -115.167987, 36.212151599899997 ], [ -115.167987, 36.212146199899998 ], [ -115.1679843, 36.212146199899998 ], [ -115.1679843, 36.212124599900001 ], [ -115.167987, 36.212124599900001 ], [ -115.167987, 36.2121056999 ], [ -115.1679897, 36.2121056999 ], [ -115.1679897, 36.212102999899997 ], [ -115.1679924, 36.212102999899997 ], [ -115.1679924, 36.212100299900001 ], [ -115.1680005, 36.212100299900001 ], [ -115.1680005, 36.212097599899998 ], [ -115.1680707, 36.212097599899998 ], [ -115.1680707, 36.212100299900001 ], [ -115.1680842, 36.212100299900001 ], [ -115.1680842, 36.2121110999 ], [ -115.1680869, 36.2121110999 ], [ -115.1680869, 36.212138099899995 ], [ -115.1680842, 36.212138099899995 ], [ -115.1680842, 36.212146199899998 ], [ -115.1680815, 36.212146199899998 ], [ -115.1680815, 36.212148899900001 ], [ -115.1680788, 36.212148899900001 ], [ -115.1680788, 36.212151599899997 ], [ -115.1680572, 36.212151599899997 ], [ -115.1680572, 36.2121542999 ], [ -115.1680194, 36.2121542999 ], [ -115.1680194, 36.212156999899996 ] ] ] } },
{ "type": "Feature", "properties": { "value": 255.0 }, "geometry": { "type": "Polygon", "coordinates": [ [ [ -115.1677764, 36.2120867999 ], [ -115.1677737, 36.2120867999 ], [ -115.1677737, 36.212084099899997 ], [ -115.1677683, 36.212084099899997 ], [ -115.1677683, 36.212081399900001 ], [ -115.1677656, 36.212081399900001 ], [ -115.1677656, 36.212059799899997 ], [ -115.1677683, 36.212059799899997 ], [ -115.1677683, 36.212057099900001 ], [ -115.167771, 36.212057099900001 ], [ -115.167771, 36.212054399899998 ], [ -115.1677872, 36.212054399899998 ], [ -115.1677872, 36.212057099900001 ], [ -115.1677953, 36.212057099900001 ], [ -115.1677953, 36.212054399899998 ], [ -115.1678034, 36.212054399899998 ], [ -115.1678034, 36.212057099900001 ], [ -115.1678088, 36.212057099900001 ], [ -115.1678088, 36.212081399900001 ], [ -115.1678061, 36.212081399900001 ], [ -115.1678061, 36.212084099899997 ], [ -115.1677764, 36.212084099899997 ], [ -115.1677764, 36.2120867999 ] ] ] } },
{ "type": "Feature", "properties": { "value": 255.0 }, "geometry": { "type": "Polygon", "coordinates": [ [ [ -115.1677251, 36.212051699899995 ], [ -115.1676468, 36.212051699899995 ], [ -115.1676468, 36.212030099899998 ], [ -115.1676441, 36.212030099899998 ], [ -115.1676441, 36.212027399899995 ], [ -115.1676468, 36.212027399899995 ], [ -115.1676468, 36.2119706999 ], [ -115.1676495, 36.2119706999 ], [ -115.1676495, 36.211884299899999 ], [ -115.1676522, 36.211884299899999 ], [ -115.1676522, 36.2118788999 ], [ -115.1676549, 36.2118788999 ], [ -115.1676549, 36.211876199899997 ], [ -115.1677251, 36.211876199899997 ], [ -115.1677251, 36.2118788999 ], [ -115.1677278, 36.2118788999 ], [ -115.1677278, 36.211881599899996 ], [ -115.1677305, 36.211881599899996 ], [ -115.1677305, 36.211895099899998 ], [ -115.1677278, 36.211895099899998 ], [ -115.1677278, 36.211897799900001 ], [ -115.1677305, 36.211897799900001 ], [ -115.1677305, 36.2119031999 ], [ -115.1677278, 36.2119031999 ], [ -115.1677278, 36.212043599899999 ], [ -115.1677251, 36.212043599899999 ], [ -115.1677251, 36.212051699899995 ] ] ] } },
{ "type": "Feature", "properties": { "value": 255.0 }, "geometry": { "type": "Polygon", "coordinates": [ [ [ -115.1673363, 36.212308199900001 ], [ -115.1673309, 36.212308199900001 ], [ -115.1673309, 36.212305499899998 ], [ -115.167312, 36.212305499899998 ], [ -115.167312, 36.212308199900001 ], [ -115.1671689, 36.212308199900001 ], [ -115.1671689, 36.212305499899998 ], [ -115.1671203, 36.212305499899998 ], [ -115.1671203, 36.212302799899994 ], [ -115.1671176, 36.212302799899994 ], [ -115.1671176, 36.211784399899997 ], [ -115.1671203, 36.211784399899997 ], [ -115.1671203, 36.2117870999 ], [ -115.167123, 36.2117870999 ], [ -115.167123, 36.211784399899997 ], [ -115.1671257, 36.211784399899997 ], [ -115.1671257, 36.211781699900001 ], [ -115.1671284, 36.211781699900001 ], [ -115.1671284, 36.211784399899997 ], [ -115.1671392, 36.211784399899997 ], [ -115.1671392, 36.211781699900001 ], [ -115.1671851, 36.211781699900001 ], [ -115.1671851, 36.211778999899998 ], [ -115.1671878, 36.211778999899998 ], [ -115.1671878, 36.2116763999 ], [ -115.1671851, 36.2116763999 ], [ -115.1671851, 36.211657499899999 ], [ -115.1671878, 36.211657499899999 ], [ -115.1671878, 36.211649399899997 ], [ -115.1671905, 36.211649399899997 ], [ -115.1671905, 36.211646699900001 ], [ -115.1671932, 36.211646699900001 ], [ -115.1671932, 36.211643999899998 ], [ -115.1671959, 36.211643999899998 ], [ -115.1671959, 36.211641299900002 ], [ -115.1671986, 36.211641299900002 ], [ -115.1671986, 36.211638599899999 ], [ -115.1672067, 36.211638599899999 ], [ -115.1672067, 36.211641299900002 ], [ -115.1672391, 36.211641299900002 ], [ -115.1672391, 36.211643999899998 ], [ -115.1672553, 36.211643999899998 ], [ -115.1672553, 36.211646699900001 ], [ -115.1672769, 36.211646699900001 ], [ -115.1672769, 36.211649399899997 ], [ -115.1673039, 36.211649399899997 ], [ -115.1673039, 36.211646699900001 ], [ -115.1673255, 36.211646699900001 ], [ -115.1673255, 36.211643999899998 ], [ -115.1673282, 36.211643999899998 ], [ -115.1673282, 36.211641299900002 ], [ -115.1673471, 36.211641299900002 ], [ -115.1673471, 36.211638599899999 ], [ -115.1673525, 36.211638599899999 ], [ -115.1673525, 36.211643999899998 ], [ -115.1673552, 36.211643999899998 ], [ -115.1673552, 36.211646699900001 ], [ -115.1673579, 36.211646699900001 ], [ -115.1673579, 36.2116520999 ], [ -115.1673606, 36.2116520999 ], [ -115.1673606, 36.211654799899996 ], [ -115.1673633, 36.211654799899996 ], [ -115.1673633, 36.2116763999 ], [ -115.1673606, 36.2116763999 ], [ -115.1673606, 36.211697999899997 ], [ -115.1673633, 36.211697999899997 ], [ -115.1673633, 36.211706099899999 ], [ -115.1673606, 36.211706099899999 ], [ -115.1673606, 36.211746599899996 ], [ -115.1673633, 36.211746599899996 ], [ -115.1673633, 36.211751999899995 ], [ -115.1673606, 36.211751999899995 ], [ -115.1673606, 36.211784399899997 ], [ -115.1673633, 36.211784399899997 ], [ -115.1673633, 36.211846499899998 ], [ -115.1673606, 36.211846499899998 ], [ -115.1673606, 36.211943699899997 ], [ -115.1673633, 36.211943699899997 ], [ -115.1673633, 36.211989599900001 ], [ -115.167366, 36.211989599900001 ], [ -115.167366, 36.212011199899997 ], [ -115.1673633, 36.212011199899997 ], [ -115.1673633, 36.212016599899997 ], [ -115.167366, 36.212016599899997 ], [ -115.167366, 36.212021999899996 ], [ -115.1673633, 36.212021999899996 ], [ -115.1673633, 36.212024699899999 ], [ -115.167366, 36.212024699899999 ], [ -115.167366, 36.212040899899996 ], [ -115.1673633, 36.212040899899996 ], [ -115.1673633, 36.2121299999 ], [ -115.167366, 36.2121299999 ], [ -115.167366, 36.212146199899998 ], [ -115.1673687, 36.212146199899998 ], [ -115.1673687, 36.212165099899998 ], [ -115.1673714, 36.212165099899998 ], [ -115.1673714, 36.212186699899995 ], [ -115.1673741, 36.212186699899995 ], [ -115.1673741, 36.2121974999 ], [ -115.1673714, 36.2121974999 ], [ -115.1673714, 36.212227199899999 ], [ -115.1673741, 36.212227199899999 ], [ -115.1673741, 36.212248799899996 ], [ -115.1673714, 36.212248799899996 ], [ -115.1673714, 36.2122649999 ], [ -115.1673741, 36.2122649999 ], [ -115.1673741, 36.212300099899998 ], [ -115.1673714, 36.212300099899998 ], [ -115.1673714, 36.212302799899994 ], [ -115.167366, 36.212302799899994 ], [ -115.167366, 36.212305499899998 ], [ -115.1673363, 36.212305499899998 ], [ -115.1673363, 36.212308199900001 ] ] ] } },
{ "type": "Feature", "properties": { "value": 255.0 }, "geometry": { "type": "Polygon", "coordinates": [ [ [ -115.1677278, 36.211822199899999 ], [ -115.1677062, 36.211822199899999 ], [ -115.1677062, 36.211819499899995 ], [ -115.1677035, 36.211819499899995 ], [ -115.1677035, 36.211822199899999 ], [ -115.1676549, 36.211822199899999 ], [ -115.1676549, 36.211819499899995 ], [ -115.1676522, 36.211819499899995 ], [ -115.1676522, 36.211738499900001 ], [ -115.1676549, 36.211738499900001 ], [ -115.1676549, 36.211703399899996 ], [ -115.1676522, 36.211703399899996 ], [ -115.1676522, 36.211665599900002 ], [ -115.1676495, 36.211665599900002 ], [ -115.1676495, 36.2116520999 ], [ -115.1676522, 36.2116520999 ], [ -115.1676522, 36.211646699900001 ], [ -115.1677278, 36.211646699900001 ], [ -115.1677278, 36.211649399899997 ], [ -115.1677332, 36.211649399899997 ], [ -115.1677332, 36.211654799899996 ], [ -115.1677359, 36.211654799899996 ], [ -115.1677359, 36.211660199899995 ], [ -115.1677332, 36.211660199899995 ], [ -115.1677332, 36.2116763999 ], [ -115.1677359, 36.2116763999 ], [ -115.1677359, 36.211724999899999 ], [ -115.1677332, 36.211724999899999 ], [ -115.1677332, 36.2118113999 ], [ -115.1677305, 36.2118113999 ], [ -115.1677305, 36.211819499899995 ], [ -115.1677278, 36.211819499899995 ], [ -115.1677278, 36.211822199899999 ] ] ] } },
{ "type": "Feature", "properties": { "value": 255.0 }, "geometry": { "type": "Polygon", "coordinates": [ [ [ -115.168176, 36.211271399899999 ], [ -115.1680626, 36.211271399899999 ], [ -115.1680626, 36.211268699900003 ], [ -115.1680599, 36.211268699900003 ], [ -115.1680599, 36.2112659999 ], [ -115.1680572, 36.2112659999 ], [ -115.1680572, 36.211225499900003 ], [ -115.1680599, 36.211225499900003 ], [ -115.1680599, 36.2112227999 ], [ -115.1680788, 36.2112227999 ], [ -115.1680788, 36.211220099899997 ], [ -115.1680815, 36.211220099899997 ], [ -115.1680815, 36.2112227999 ], [ -115.1681058, 36.2112227999 ], [ -115.1681058, 36.211220099899997 ], [ -115.168149, 36.211220099899997 ], [ -115.168149, 36.2112227999 ], [ -115.1681787, 36.2112227999 ], [ -115.1681787, 36.211268699900003 ], [ -115.168176, 36.211268699900003 ], [ -115.168176, 36.211271399899999 ] ] ] } },
{ "type": "Feature", "properties": { "value": 255.0 }, "geometry": { "type": "Polygon", "coordinates": [ [ [ -115.168041, 36.2112227999 ], [ -115.1679843, 36.2112227999 ], [ -115.1679843, 36.2111984999 ], [ -115.1679816, 36.2111984999 ], [ -115.1679816, 36.211147199899997 ], [ -115.1679789, 36.211147199899997 ], [ -115.1679789, 36.211133699900003 ], [ -115.1679816, 36.211133699900003 ], [ -115.1679816, 36.211128299899997 ], [ -115.1680005, 36.211128299899997 ], [ -115.1680005, 36.211125599900001 ], [ -115.1680383, 36.211125599900001 ], [ -115.1680383, 36.211128299899997 ], [ -115.168041, 36.211128299899997 ], [ -115.168041, 36.2112227999 ] ] ] } },
{ "type": "Feature", "properties": { "value": 255.0 }, "geometry": { "type": "Polygon", "coordinates": [ [ [ -115.1686053, 36.211141799899998 ], [ -115.1685729, 36.211141799899998 ], [ -115.1685729, 36.211139099900002 ], [ -115.1685702, 36.211139099900002 ], [ -115.1685702, 36.211098599899998 ], [ -115.1685729, 36.211098599899998 ], [ -115.1685729, 36.211095899900002 ], [ -115.1685864, 36.211095899900002 ], [ -115.1685864, 36.211093199899999 ], [ -115.1685891, 36.211093199899999 ], [ -115.1685891, 36.211095899900002 ], [ -115.1685972, 36.211095899900002 ], [ -115.1685972, 36.211098599899998 ], [ -115.1686026, 36.211098599899998 ], [ -115.1686026, 36.211095899900002 ], [ -115.1686053, 36.211095899900002 ], [ -115.1686053, 36.211093199899999 ], [ -115.168608, 36.211093199899999 ], [ -115.168608, 36.211095899900002 ], [ -115.1686188, 36.211095899900002 ], [ -115.1686188, 36.211098599899998 ], [ -115.1686269, 36.211098599899998 ], [ -115.1686269, 36.211101299900001 ], [ -115.1686323, 36.211101299900001 ], [ -115.1686323, 36.211098599899998 ], [ -115.1686431, 36.211098599899998 ], [ -115.1686431, 36.211095899900002 ], [ -115.1686647, 36.211095899900002 ], [ -115.1686647, 36.211093199899999 ], [ -115.1686755, 36.211093199899999 ], [ -115.1686755, 36.211095899900002 ], [ -115.1686809, 36.211095899900002 ], [ -115.1686809, 36.211098599899998 ], [ -115.1686944, 36.211098599899998 ], [ -115.1686944, 36.211101299900001 ], [ -115.1686971, 36.211101299900001 ], [ -115.1686971, 36.211103999899997 ], [ -115.1686944, 36.211103999899997 ], [ -115.1686944, 36.211109399900003 ], [ -115.1686971, 36.211109399900003 ], [ -115.1686971, 36.211120199900002 ], [ -115.1686998, 36.211120199900002 ], [ -115.1686998, 36.211125599900001 ], [ -115.1687079, 36.211125599900001 ], [ -115.1687079, 36.211122899899998 ], [ -115.1687106, 36.211122899899998 ], [ -115.1687106, 36.211114799900002 ], [ -115.1687241, 36.211114799900002 ], [ -115.1687241, 36.211120199900002 ], [ -115.168716, 36.211120199900002 ], [ -115.168716, 36.211125599900001 ], [ -115.1687133, 36.211125599900001 ], [ -115.1687133, 36.211128299899997 ], [ -115.1686998, 36.211128299899997 ], [ -115.1686998, 36.2111309999 ], [ -115.1686971, 36.2111309999 ], [ -115.1686971, 36.211133699900003 ], [ -115.1686863, 36.211133699900003 ], [ -115.1686863, 36.211136399899999 ], [ -115.1686674, 36.211136399899999 ], [ -115.1686674, 36.211139099900002 ], [ -115.1686593, 36.211139099900002 ], [ -115.1686593, 36.211136399899999 ], [ -115.1686458, 36.211136399899999 ], [ -115.1686458, 36.211133699900003 ], [ -115.1686431, 36.211133699900003 ], [ -115.1686431, 36.2111309999 ], [ -115.1686404, 36.2111309999 ], [ -115.1686404, 36.211128299899997 ], [ -115.1686323, 36.211128299899997 ], [ -115.1686323, 36.211125599900001 ], [ -115.1686269, 36.211125599900001 ], [ -115.1686269, 36.211128299899997 ], [ -115.1686242, 36.211128299899997 ], [ -115.1686242, 36.2111309999 ], [ -115.1686215, 36.2111309999 ], [ -115.1686215, 36.211133699900003 ], [ -115.1686161, 36.211133699900003 ], [ -115.1686161, 36.211136399899999 ], [ -115.1686134, 36.211136399899999 ], [ -115.1686134, 36.211139099900002 ], [ -115.1686053, 36.211139099900002 ], [ -115.1686053, 36.211141799899998 ] ], [ [ -115.1686377, 36.211109399900003 ], [ -115.1686377, 36.2111066999 ], [ -115.1686404, 36.2111066999 ], [ -115.1686404, 36.211103999899997 ], [ -115.168635, 36.211103999899997 ], [ -115.168635, 36.2111066999 ], [ -115.1686323, 36.2111066999 ], [ -115.1686323, 36.211109399900003 ], [ -115.1686377, 36.211109399900003 ] ] ] } },
{ "type": "Feature", "properties": { "value": 255.0 }, "geometry": { "type": "Polygon", "coordinates": [ [ [ -115.1688672, 36.211033799900001 ], [ -115.1688645, 36.211033799900001 ], [ -115.1688645, 36.211022999900003 ], [ -115.1688618, 36.211022999900003 ], [ -115.1688618, 36.211020299899999 ], [ -115.1688591, 36.211020299899999 ], [ -115.1688591, 36.211017599900003 ], [ -115.1688564, 36.211017599900003 ], [ -115.1688564, 36.211020299899999 ], [ -115.1688537, 36.211020299899999 ], [ -115.1688537, 36.211022999900003 ], [ -115.168851, 36.211022999900003 ], [ -115.168851, 36.211025699899999 ], [ -115.1688375, 36.211025699899999 ], [ -115.1688375, 36.211009499900001 ], [ -115.1688321, 36.211009499900001 ], [ -115.1688321, 36.211012199899997 ], [ -115.1688267, 36.211012199899997 ], [ -115.1688267, 36.211017599900003 ], [ -115.168824, 36.211017599900003 ], [ -115.168824, 36.211020299899999 ], [ -115.1688213, 36.211020299899999 ], [ -115.1688213, 36.211006799899998 ], [ -115.168824, 36.211006799899998 ], [ -115.168824, 36.211001399899999 ], [ -115.1688294, 36.211001399899999 ], [ -115.1688294, 36.2109959999 ], [ -115.1688375, 36.2109959999 ], [ -115.1688375, 36.210998699900003 ], [ -115.1688429, 36.210998699900003 ], [ -115.1688429, 36.2109959999 ], [ -115.1688483, 36.2109959999 ], [ -115.1688483, 36.210990599900001 ], [ -115.168851, 36.210990599900001 ], [ -115.168851, 36.210987899899997 ], [ -115.1688618, 36.210987899899997 ], [ -115.1688618, 36.210990599900001 ], [ -115.1688672, 36.210990599900001 ], [ -115.1688672, 36.210993299900004 ], [ -115.1688699, 36.210993299900004 ], [ -115.1688699, 36.211012199899997 ], [ -115.1688726, 36.211012199899997 ], [ -115.1688726, 36.2110148999 ], [ -115.1688699, 36.2110148999 ], [ -115.1688699, 36.211031099899998 ], [ -115.1688672, 36.211031099899998 ], [ -115.1688672, 36.211033799900001 ] ] ] } },
{ "type": "Feature", "properties": { "value": 255.0 }, "geometry": { "type": "Polygon", "coordinates": [ [ [ -115.1688726, 36.210966299900001 ], [ -115.1688672, 36.210966299900001 ], [ -115.1688672, 36.210963599899998 ], [ -115.1688645, 36.210963599899998 ], [ -115.1688645, 36.210966299900001 ], [ -115.1688591, 36.210966299900001 ], [ -115.1688591, 36.210958199899999 ], [ -115.1688618, 36.210958199899999 ], [ -115.1688618, 36.210955499900003 ], [ -115.1688672, 36.210955499900003 ], [ -115.1688672, 36.210952799899999 ], [ -115.1688726, 36.210952799899999 ], [ -115.1688726, 36.210966299900001 ] ] ] } },
{ "type": "Feature", "properties": { "value": 255.0 }, "geometry": { "type": "Polygon", "coordinates": [ [ [ -115.1680356, 36.211101299900001 ], [ -115.1679789, 36.211101299900001 ], [ -115.1679789, 36.211052699900002 ], [ -115.1679762, 36.211052699900002 ], [ -115.1679762, 36.210914999899998 ], [ -115.1679735, 36.210914999899998 ], [ -115.1679735, 36.2108555999 ], [ -115.1679762, 36.2108555999 ], [ -115.1679762, 36.210852899900004 ], [ -115.1680302, 36.210852899900004 ], [ -115.1680302, 36.2108555999 ], [ -115.1680329, 36.2108555999 ], [ -115.1680329, 36.210909599899999 ], [ -115.1680356, 36.210909599899999 ], [ -115.1680356, 36.211025699899999 ], [ -115.1680383, 36.211025699899999 ], [ -115.1680383, 36.211098599899998 ], [ -115.1680356, 36.211098599899998 ], [ -115.1680356, 36.211101299900001 ] ] ] } },
{ "type": "Feature", "properties": { "value": 255.0 }, "geometry": { "type": "Polygon", "coordinates": [ [ [ -115.1681814, 36.2111309999 ], [ -115.1681247, 36.2111309999 ], [ -115.1681247, 36.211128299899997 ], [ -115.1681193, 36.211128299899997 ], [ -115.1681193, 36.211022999900003 ], [ -115.1681166, 36.211022999900003 ], [ -115.1681166, 36.210941999900001 ], [ -115.1681139, 36.210941999900001 ], [ -115.1681139, 36.210782699900001 ], [ -115.1682246, 36.210782699900001 ], [ -115.1682246, 36.2108366999 ], [ -115.1682273, 36.2108366999 ], [ -115.1682273, 36.210882599900003 ], [ -115.16823, 36.210882599900003 ], [ -115.16823, 36.211036499899997 ], [ -115.1682327, 36.211036499899997 ], [ -115.1682327, 36.211055399899998 ], [ -115.1682354, 36.211055399899998 ], [ -115.1682354, 36.211074299899998 ], [ -115.1682381, 36.211074299899998 ], [ -115.1682381, 36.211125599900001 ], [ -115.1682354, 36.211125599900001 ], [ -115.1682354, 36.211128299899997 ], [ -115.1681814, 36.211128299899997 ], [ -115.1681814, 36.2111309999 ] ] ] } },
{ "type": "Feature", "properties": { "value": 255.0 }, "geometry": { "type": "Polygon", "coordinates": [ [ [ -115.1685783, 36.210977099899999 ], [ -115.1685243, 36.210977099899999 ], [ -115.1685243, 36.210893399900002 ], [ -115.1685216, 36.210893399900002 ], [ -115.1685216, 36.210782699900001 ], [ -115.168635, 36.210782699900001 ], [ -115.168635, 36.210815099900003 ], [ -115.1686377, 36.210815099900003 ], [ -115.1686377, 36.210831299900001 ], [ -115.1686404, 36.210831299900001 ], [ -115.1686404, 36.210839399900003 ], [ -115.1686377, 36.210839399900003 ], [ -115.1686377, 36.210842099899999 ], [ -115.1686404, 36.210842099899999 ], [ -115.1686404, 36.210941999900001 ], [ -115.1686431, 36.210941999900001 ], [ -115.1686431, 36.210944699900004 ], [ -115.1686404, 36.210944699900004 ], [ -115.1686404, 36.2109473999 ], [ -115.1685891, 36.2109473999 ], [ -115.1685891, 36.210950099900003 ], [ -115.1685837, 36.210950099900003 ], [ -115.1685837, 36.2109716999 ], [ -115.168581, 36.2109716999 ], [ -115.168581, 36.210974399900003 ], [ -115.1685783, 36.210974399900003 ], [ -115.1685783, 36.210977099899999 ] ] ] } },
{ "type": "Feature", "properties": { "value": 255.0 }, "geometry": { "type": "Polygon", "coordinates": [ [ [ -115.1680302, 36.210839399900003 ], [ -115.1680194, 36.210839399900003 ], [ -115.1680194, 36.2108366999 ], [ -115.1679762, 36.2108366999 ], [ -115.1679762, 36.210833999900004 ], [ -115.1679735, 36.210833999900004 ], [ -115.1679735, 36.210831299900001 ], [ -115.1679708, 36.210831299900001 ], [ -115.1679708, 36.210782699900001 ], [ -115.1680302, 36.210782699900001 ], [ -115.1680302, 36.210793499899999 ], [ -115.1680329, 36.210793499899999 ], [ -115.1680329, 36.2108366999 ], [ -115.1680302, 36.2108366999 ], [ -115.1680302, 36.210839399900003 ] ] ] } },
{ "type": "Feature", "properties": { "value": 255.0 }, "geometry": { "type": "Polygon", "coordinates": [ [ [ -115.1688402, 36.210796199900003 ], [ -115.1687241, 36.210796199900003 ], [ -115.1687241, 36.210782699900001 ], [ -115.1688402, 36.210782699900001 ], [ -115.1688402, 36.210796199900003 ] ] ] } },
{ "type": "Feature", "properties": { "value": 255.0 }, "geometry": { "type": "Polygon", "coordinates": [ [ [ -115.167501, 36.2114738999 ], [ -115.1674929, 36.2114738999 ], [ -115.1674929, 36.211471199899997 ], [ -115.1674902, 36.211471199899997 ], [ -115.1674902, 36.2114684999 ], [ -115.1674875, 36.2114684999 ], [ -115.1674875, 36.211471199899997 ], [ -115.1674767, 36.211471199899997 ], [ -115.1674767, 36.2114684999 ], [ -115.167474, 36.2114684999 ], [ -115.167474, 36.211471199899997 ], [ -115.1673876, 36.211471199899997 ], [ -115.1673876, 36.2114684999 ], [ -115.1673714, 36.2114684999 ], [ -115.1673714, 36.211471199899997 ], [ -115.1673363, 36.211471199899997 ], [ -115.1673363, 36.2114684999 ], [ -115.1673201, 36.2114684999 ], [ -115.1673201, 36.211471199899997 ], [ -115.1672742, 36.211471199899997 ], [ -115.1672742, 36.2114738999 ], [ -115.1672526, 36.2114738999 ], [ -115.1672526, 36.211471199899997 ], [ -115.1672202, 36.211471199899997 ], [ -115.1672202, 36.2114684999 ], [ -115.1672067, 36.2114684999 ], [ -115.1672067, 36.211465799899997 ], [ -115.167204, 36.211465799899997 ], [ -115.167204, 36.2114684999 ], [ -115.1672013, 36.2114684999 ], [ -115.1672013, 36.211471199899997 ], [ -115.1671932, 36.211471199899997 ], [ -115.1671932, 36.2114684999 ], [ -115.1671905, 36.2114684999 ], [ -115.1671905, 36.211471199899997 ], [ -115.1671797, 36.211471199899997 ], [ -115.1671797, 36.2114684999 ], [ -115.1671662, 36.2114684999 ], [ -115.1671662, 36.211471199899997 ], [ -115.1671581, 36.211471199899997 ], [ -115.1671581, 36.2114684999 ], [ -115.1671554, 36.2114684999 ], [ -115.1671554, 36.211471199899997 ], [ -115.1671473, 36.211471199899997 ], [ -115.1671473, 36.2114738999 ], [ -115.1671392, 36.2114738999 ], [ -115.1671392, 36.211471199899997 ], [ -115.1671257, 36.211471199899997 ], [ -115.1671257, 36.2114738999 ], [ -115.1671176, 36.2114738999 ], [ -115.1671176, 36.210782699900001 ], [ -115.167609, 36.210782699900001 ], [ -115.167609, 36.210790799900003 ], [ -115.1676063, 36.210790799900003 ], [ -115.1676063, 36.210820499900002 ], [ -115.167609, 36.210820499900002 ], [ -115.167609, 36.210828599899997 ], [ -115.1676063, 36.210828599899997 ], [ -115.1676063, 36.210847499899998 ], [ -115.1676036, 36.210847499899998 ], [ -115.1676036, 36.210850199900001 ], [ -115.1676063, 36.210850199900001 ], [ -115.1676063, 36.210871799899998 ], [ -115.167609, 36.210871799899998 ], [ -115.167609, 36.210890699899998 ], [ -115.1676117, 36.210890699899998 ], [ -115.1676117, 36.210896099899998 ], [ -115.167609, 36.210896099899998 ], [ -115.167609, 36.210906899900003 ], [ -115.1676063, 36.210906899900003 ], [ -115.1676063, 36.2109230999 ], [ -115.1676036, 36.2109230999 ], [ -115.1676036, 36.210936599900002 ], [ -115.1676009, 36.210936599900002 ], [ -115.1676009, 36.210939299899998 ], [ -115.1675982, 36.210939299899998 ], [ -115.1675982, 36.2109473999 ], [ -115.1675874, 36.2109473999 ], [ -115.1675874, 36.210950099900003 ], [ -115.167582, 36.210950099900003 ], [ -115.167582, 36.210952799899999 ], [ -115.1675847, 36.210952799899999 ], [ -115.1675847, 36.210955499900003 ], [ -115.1675793, 36.210955499900003 ], [ -115.1675793, 36.210958199899999 ], [ -115.1675739, 36.210958199899999 ], [ -115.1675739, 36.210960899900002 ], [ -115.1675766, 36.210960899900002 ], [ -115.1675766, 36.210963599899998 ], [ -115.1675793, 36.210963599899998 ], [ -115.1675793, 36.210966299900001 ], [ -115.167582, 36.210966299900001 ], [ -115.167582, 36.2109716999 ], [ -115.1675847, 36.2109716999 ], [ -115.1675847, 36.210974399900003 ], [ -115.1675901, 36.210974399900003 ], [ -115.1675901, 36.210977099899999 ], [ -115.1675874, 36.210977099899999 ], [ -115.1675874, 36.210979799900002 ], [ -115.1675847, 36.210979799900002 ], [ -115.1675847, 36.210982499899998 ], [ -115.167582, 36.210982499899998 ], [ -115.167582, 36.210985199900001 ], [ -115.1675847, 36.210985199900001 ], [ -115.1675847, 36.210990599900001 ], [ -115.1675874, 36.210990599900001 ], [ -115.1675874, 36.210993299900004 ], [ -115.1675847, 36.210993299900004 ], [ -115.1675847, 36.2109959999 ], [ -115.1675793, 36.2109959999 ], [ -115.1675793, 36.210998699900003 ], [ -115.1675766, 36.210998699900003 ], [ -115.1675766, 36.211009499900001 ], [ -115.1675928, 36.211009499900001 ], [ -115.1675928, 36.211012199899997 ], [ -115.1676036, 36.211012199899997 ], [ -115.1676036, 36.211020299899999 ], [ -115.1676063, 36.211020299899999 ], [ -115.1676063, 36.211058099900001 ], [ -115.167609, 36.211058099900001 ], [ -115.167609, 36.211157999900003 ], [ -115.1676117, 36.211157999900003 ], [ -115.1676117, 36.211160699899999 ], [ -115.167609, 36.211160699899999 ], [ -115.167609, 36.211190399899998 ], [ -115.1676117, 36.211190399899998 ], [ -115.1676117, 36.211233599899998 ], [ -115.1676144, 36.211233599899998 ], [ -115.1676144, 36.211387499899999 ], [ -115.1676171, 36.211387499899999 ], [ -115.1676171, 36.211395599900001 ], [ -115.1676144, 36.211395599900001 ], [ -115.1676144, 36.211454999899999 ], [ -115.1676117, 36.211454999899999 ], [ -115.1676117, 36.211463099900001 ], [ -115.167609, 36.211463099900001 ], [ -115.167609, 36.211465799899997 ], [ -115.1676036, 36.211465799899997 ], [ -115.1676036, 36.2114684999 ], [ -115.1675793, 36.2114684999 ], [ -115.1675793, 36.211465799899997 ], [ -115.1675712, 36.211465799899997 ], [ -115.1675712, 36.211463099900001 ], [ -115.1675685, 36.211463099900001 ], [ -115.1675685, 36.211465799899997 ], [ -115.1675523, 36.211465799899997 ], [ -115.1675523, 36.2114684999 ], [ -115.1675361, 36.2114684999 ], [ -115.1675361, 36.211471199899997 ], [ -115.167501, 36.211471199899997 ], [ -115.167501, 36.2114738999 ] ] ] } },
{ "type": "Feature", "properties": { "value": 255.0 }, "geometry": { "type": "Polygon", "coordinates": [ [ [ -115.1683731, 36.211128299899997 ], [ -115.1683245, 36.211128299899997 ], [ -115.1683245, 36.211125599900001 ], [ -115.1683218, 36.211125599900001 ], [ -115.1683218, 36.211098599899998 ], [ -115.1683191, 36.211098599899998 ], [ -115.1683191, 36.211071599900002 ], [ -115.1683218, 36.211071599900002 ], [ -115.1683218, 36.211020299899999 ], [ -115.1683191, 36.211020299899999 ], [ -115.1683191, 36.210896099899998 ], [ -115.1683164, 36.210896099899998 ], [ -115.1683164, 36.210790799900003 ], [ -115.1683137, 36.210790799900003 ], [ -115.1683137, 36.210785399900004 ], [ -115.1683164, 36.210785399900004 ], [ -115.1683164, 36.210782699900001 ], [ -115.1684298, 36.210782699900001 ], [ -115.1684298, 36.2107880999 ], [ -115.1684271, 36.2107880999 ], [ -115.1684271, 36.210820499900002 ], [ -115.1684298, 36.210820499900002 ], [ -115.1684298, 36.2108609999 ], [ -115.1684325, 36.2108609999 ], [ -115.1684325, 36.210874499900001 ], [ -115.1684352, 36.210874499900001 ], [ -115.1684352, 36.210917699900001 ], [ -115.1684379, 36.210917699900001 ], [ -115.1684379, 36.2109473999 ], [ -115.1684352, 36.2109473999 ], [ -115.1684352, 36.210977099899999 ], [ -115.1684325, 36.210977099899999 ], [ -115.1684325, 36.210987899899997 ], [ -115.1684352, 36.210987899899997 ], [ -115.1684352, 36.211009499900001 ], [ -115.1684379, 36.211009499900001 ], [ -115.1684379, 36.211036499899997 ], [ -115.1684406, 36.211036499899997 ], [ -115.1684406, 36.211122899899998 ], [ -115.1684379, 36.211122899899998 ], [ -115.1684379, 36.211125599900001 ], [ -115.1683731, 36.211125599900001 ], [ -115.1683731, 36.211128299899997 ] ] ] } }
]
}
