{
"type": "FeatureCollection",
"crs": { "type": "name", "properties": { "name": "urn:ogc:def:crs:OGC:1.3:CRS84" } },
"features": [
{ "type": "Feature", "properties": { "value": 255.0 }, "geometry": { "type": "Polygon", "coordinates": [ [ [ -115.2211068, 36.175682699799999 ], [ -115.2209124, 36.175682699799999 ], [ -115.2209124, 36.175671899800001 ], [ -115.2209205, 36.175671899800001 ], [ -115.2209205, 36.175669199799998 ], [ -115.2209421, 36.175669199799998 ], [ -115.2209421, 36.175666499800002 ], [ -115.2210852, 36.175666499800002 ], [ -115.2210852, 36.175669199799998 ], [ -115.2210987, 36.175669199799998 ], [ -115.2210987, 36.175671899800001 ], [ -115.2211095, 36.175671899800001 ], [ -115.2211095, 36.175674599799997 ], [ -115.221123, 36.175674599799997 ], [ -115.221123, 36.1756772998 ], [ -115.2211257, 36.1756772998 ], [ -115.2211257, 36.175679999799996 ], [ -115.2211068, 36.175679999799996 ], [ -115.2211068, 36.175682699799999 ] ] ] } },
{ "type": "Feature", "properties": { "value": 255.0 }, "geometry": { "type": "Polygon", "coordinates": [ [ [ -115.2215226, 36.175682699799999 ], [ -115.2213552, 36.175682699799999 ], [ -115.2213552, 36.175679999799996 ], [ -115.2213525, 36.175679999799996 ], [ -115.2213525, 36.175663799799999 ], [ -115.2213498, 36.175663799799999 ], [ -115.2213498, 36.1756583998 ], [ -115.2213525, 36.1756583998 ], [ -115.2213525, 36.1756529998 ], [ -115.2213741, 36.1756529998 ], [ -115.2213741, 36.175650299799997 ], [ -115.2213768, 36.175650299799997 ], [ -115.2213768, 36.175655699799997 ], [ -115.2213795, 36.175655699799997 ], [ -115.2213795, 36.175661099800003 ], [ -115.2213876, 36.175661099800003 ], [ -115.2213876, 36.1756583998 ], [ -115.2213849, 36.1756583998 ], [ -115.2213849, 36.175650299799997 ], [ -115.2213876, 36.175650299799997 ], [ -115.2213876, 36.175647599800001 ], [ -115.221393, 36.175647599800001 ], [ -115.221393, 36.175644899799998 ], [ -115.2213957, 36.175644899799998 ], [ -115.2213957, 36.175642199800002 ], [ -115.2214767, 36.175642199800002 ], [ -115.2214767, 36.175639499799999 ], [ -115.2214821, 36.175639499799999 ], [ -115.2214821, 36.175636799799996 ], [ -115.2214848, 36.175636799799996 ], [ -115.2214848, 36.175604399800001 ], [ -115.2215226, 36.175604399800001 ], [ -115.2215226, 36.175682699799999 ] ] ] } },
{ "type": "Feature", "properties": { "value": 255.0 }, "geometry": { "type": "Polygon", "coordinates": [ [ [ -115.2200268, 36.175682699799999 ], [ -115.2197703, 36.175682699799999 ], [ -115.2197703, 36.175679999799996 ], [ -115.2197676, 36.175679999799996 ], [ -115.2197676, 36.175577399799998 ], [ -115.2197811, 36.175577399799998 ], [ -115.2197811, 36.175580099800001 ], [ -115.2197838, 36.175580099800001 ], [ -115.2197838, 36.175582799799997 ], [ -115.2197919, 36.175582799799997 ], [ -115.2197919, 36.1755854998 ], [ -115.2197946, 36.1755854998 ], [ -115.2197946, 36.175588199799996 ], [ -115.2197973, 36.175588199799996 ], [ -115.2197973, 36.1755908998 ], [ -115.2198027, 36.1755908998 ], [ -115.2198027, 36.175588199799996 ], [ -115.2198081, 36.175588199799996 ], [ -115.2198081, 36.1755908998 ], [ -115.2198216, 36.1755908998 ], [ -115.2198216, 36.175593599800003 ], [ -115.219881, 36.175593599800003 ], [ -115.219881, 36.175596299799999 ], [ -115.219908, 36.175596299799999 ], [ -115.219908, 36.175593599800003 ], [ -115.2199539, 36.175593599800003 ], [ -115.2199539, 36.175596299799999 ], [ -115.219962, 36.175596299799999 ], [ -115.219962, 36.175593599800003 ], [ -115.2199701, 36.175593599800003 ], [ -115.2199701, 36.175596299799999 ], [ -115.2199917, 36.175596299799999 ], [ -115.2199917, 36.175601699799998 ], [ -115.2199944, 36.175601699799998 ], [ -115.2199944, 36.175604399800001 ], [ -115.2199998, 36.175604399800001 ], [ -115.2199998, 36.175607099799997 ], [ -115.2200052, 36.175607099799997 ], [ -115.2200052, 36.1756097998 ], [ -115.2200106, 36.1756097998 ], [ -115.2200106, 36.175612499799996 ], [ -115.2200133, 36.175612499799996 ], [ -115.2200133, 36.175617899800002 ], [ -115.220016, 36.175617899800002 ], [ -115.220016, 36.175620599799998 ], [ -115.2200187, 36.175620599799998 ], [ -115.2200187, 36.175617899800002 ], [ -115.2200214, 36.175617899800002 ], [ -115.2200214, 36.175620599799998 ], [ -115.2200241, 36.175620599799998 ], [ -115.2200241, 36.175625999799998 ], [ -115.2200214, 36.175625999799998 ], [ -115.2200214, 36.175647599800001 ], [ -115.2200241, 36.175647599800001 ], [ -115.2200241, 36.1756583998 ], [ -115.2200268, 36.1756583998 ], [ -115.2200268, 36.175682699799999 ] ] ] } },
{ "type": "Feature", "properties": { "value": 255.0 }, "geometry": { "type": "Polygon", "coordinates": [ [ [ -115.2206073, 36.175682699799999 ], [ -115.2205047, 36.175682699799999 ], [ -115.2205047, 36.175536899800001 ], [ -115.2205074, 36.175536899800001 ], [ -115.2205074, 36.175523399799999 ], [ -115.2205047, 36.175523399799999 ], [ -115.2205047, 36.175515299799997 ], [ -115.2205074, 36.175515299799997 ], [ -115.2205074, 36.175420799800001 ], [ -115.2205101, 36.175420799800001 ], [ -115.2205101, 36.175412699799999 ], [ -115.2205695, 36.175412699799999 ], [ -115.2205695, 36.175415399800002 ], [ -115.2205992, 36.175415399800002 ], [ -115.2205992, 36.175418099799998 ], [ -115.2206127, 36.175418099799998 ], [ -115.2206127, 36.1754315998 ], [ -115.2206154, 36.1754315998 ], [ -115.2206154, 36.175469399800001 ], [ -115.2206127, 36.175469399800001 ], [ -115.2206127, 36.175536899800001 ], [ -115.22061, 36.175536899800001 ], [ -115.22061, 36.175571999799999 ], [ -115.2206073, 36.175571999799999 ], [ -115.2206073, 36.175607099799997 ], [ -115.2206046, 36.175607099799997 ], [ -115.2206046, 36.175636799799996 ], [ -115.2206073, 36.175636799799996 ], [ -115.2206073, 36.175655699799997 ], [ -115.22061, 36.175655699799997 ], [ -115.22061, 36.175674599799997 ], [ -115.2206073, 36.175674599799997 ], [ -115.2206073, 36.175682699799999 ] ] ] } },
{ "type": "Feature", "properties": { "value": 255.0 }, "geometry": { "type": "Polygon", "coordinates": [ [ [ -115.2204129, 36.175682699799999 ], [ -115.2203049, 36.175682699799999 ], [ -115.2203049, 36.175671899800001 ], [ -115.2203022, 36.175671899800001 ], [ -115.2203022, 36.175669199799998 ], [ -115.2203049, 36.175669199799998 ], [ -115.2203049, 36.175631399799997 ], [ -115.2203076, 36.175631399799997 ], [ -115.2203076, 36.175493699800001 ], [ -115.2203103, 36.175493699800001 ], [ -115.2203103, 36.175412699799999 ], [ -115.220313, 36.175412699799999 ], [ -115.220313, 36.175409999799996 ], [ -115.2203832, 36.175409999799996 ], [ -115.2203832, 36.1754072998 ], [ -115.2203859, 36.1754072998 ], [ -115.2203859, 36.175409999799996 ], [ -115.220421, 36.175409999799996 ], [ -115.220421, 36.175428899799996 ], [ -115.2204183, 36.175428899799996 ], [ -115.2204183, 36.1754315998 ], [ -115.220421, 36.1754315998 ], [ -115.220421, 36.175445099800001 ], [ -115.2204183, 36.175445099800001 ], [ -115.2204183, 36.175461299799998 ], [ -115.220421, 36.175461299799998 ], [ -115.220421, 36.175466699799998 ], [ -115.2204183, 36.175466699799998 ], [ -115.2204183, 36.175520699799996 ], [ -115.2204156, 36.175520699799996 ], [ -115.2204156, 36.175598999800002 ], [ -115.2204129, 36.175598999800002 ], [ -115.2204129, 36.175669199799998 ], [ -115.2204156, 36.175669199799998 ], [ -115.2204156, 36.175674599799997 ], [ -115.2204129, 36.175674599799997 ], [ -115.2204129, 36.175682699799999 ] ] ] } },
{ "type": "Feature", "properties": { "value": 255.0 }, "geometry": { "type": "Polygon", "coordinates": [ [ [ -115.2197784, 36.1754747998 ], [ -115.219773, 36.1754747998 ], [ -115.219773, 36.175472099799997 ], [ -115.2197676, 36.175472099799997 ], [ -115.2197676, 36.175331699799997 ], [ -115.2197838, 36.175331699799997 ], [ -115.2197838, 36.175334399800001 ], [ -115.2197865, 36.175334399800001 ], [ -115.2197865, 36.175331699799997 ], [ -115.2197946, 36.175331699799997 ], [ -115.2197946, 36.175334399800001 ], [ -115.2199161, 36.175334399800001 ], [ -115.2199161, 36.175337099799997 ], [ -115.220016, 36.175337099799997 ], [ -115.220016, 36.1753397998 ], [ -115.2200322, 36.1753397998 ], [ -115.2200322, 36.175350599799998 ], [ -115.2200349, 36.175350599799998 ], [ -115.2200349, 36.175361399799996 ], [ -115.2200322, 36.175361399799996 ], [ -115.2200322, 36.1754072998 ], [ -115.2200295, 36.1754072998 ], [ -115.2200295, 36.1754315998 ], [ -115.2200268, 36.1754315998 ], [ -115.2200268, 36.175453199799996 ], [ -115.2200241, 36.175453199799996 ], [ -115.2200241, 36.175455899799999 ], [ -115.2200214, 36.175455899799999 ], [ -115.2200214, 36.175458599800002 ], [ -115.2200187, 36.175458599800002 ], [ -115.2200187, 36.175466699799998 ], [ -115.220016, 36.175466699799998 ], [ -115.220016, 36.175469399800001 ], [ -115.2200133, 36.175469399800001 ], [ -115.2200133, 36.175472099799997 ], [ -115.2199944, 36.175472099799997 ], [ -115.2199944, 36.175463999800002 ], [ -115.2199917, 36.175463999800002 ], [ -115.2199917, 36.175458599800002 ], [ -115.2199863, 36.175458599800002 ], [ -115.2199863, 36.175455899799999 ], [ -115.2199647, 36.175455899799999 ], [ -115.2199647, 36.175453199799996 ], [ -115.2199269, 36.175453199799996 ], [ -115.2199269, 36.1754504998 ], [ -115.2198135, 36.1754504998 ], [ -115.2198135, 36.175453199799996 ], [ -115.2197946, 36.175453199799996 ], [ -115.2197946, 36.175455899799999 ], [ -115.2197892, 36.175455899799999 ], [ -115.2197892, 36.175458599800002 ], [ -115.2197865, 36.175458599800002 ], [ -115.2197865, 36.175469399800001 ], [ -115.2197838, 36.175469399800001 ], [ -115.2197838, 36.175472099799997 ], [ -115.2197784, 36.175472099799997 ], [ -115.2197784, 36.1754747998 ] ] ] } },
{ "type": "Feature", "properties": { "value": 255.0 }, "geometry": { "type": "Polygon", "coordinates": [ [ [ -115.2206208, 36.175388399799999 ], [ -115.2205182, 36.175388399799999 ], [ -115.2205182, 36.175385699799996 ], [ -115.2204291, 36.175385699799996 ], [ -115.2204291, 36.1753829998 ], [ -115.2204264, 36.1753829998 ], [ -115.2204264, 36.175380299799997 ], [ -115.220421, 36.175380299799997 ], [ -115.220421, 36.175377599800001 ], [ -115.2203535, 36.175377599800001 ], [ -115.2203535, 36.175374899799998 ], [ -115.2203508, 36.175374899799998 ], [ -115.2203508, 36.175355999799997 ], [ -115.2203535, 36.175355999799997 ], [ -115.2203535, 36.175345199799999 ], [ -115.2203508, 36.175345199799999 ], [ -115.2203508, 36.175326299799998 ], [ -115.2203535, 36.175326299799998 ], [ -115.2203535, 36.175310099800001 ], [ -115.2203589, 36.175310099800001 ], [ -115.2203589, 36.175301999799998 ], [ -115.2203562, 36.175301999799998 ], [ -115.2203562, 36.175299299799995 ], [ -115.2203535, 36.175299299799995 ], [ -115.2203535, 36.175296599799999 ], [ -115.2203292, 36.175296599799999 ], [ -115.2203292, 36.175293899799996 ], [ -115.2203184, 36.175293899799996 ], [ -115.2203184, 36.1752911998 ], [ -115.2203157, 36.1752911998 ], [ -115.2203157, 36.175269599799996 ], [ -115.2203184, 36.175269599799996 ], [ -115.2203184, 36.175261499800001 ], [ -115.2203211, 36.175261499800001 ], [ -115.2203211, 36.175253399799999 ], [ -115.2203238, 36.175253399799999 ], [ -115.2203238, 36.175231799799995 ], [ -115.2203265, 36.175231799799995 ], [ -115.2203265, 36.175229099799999 ], [ -115.2203292, 36.175229099799999 ], [ -115.2203292, 36.175193999800001 ], [ -115.2203319, 36.175193999800001 ], [ -115.2203319, 36.175191299799998 ], [ -115.2203346, 36.175191299799998 ], [ -115.2203346, 36.175188599800002 ], [ -115.2203454, 36.175188599800002 ], [ -115.2203454, 36.175191299799998 ], [ -115.2203481, 36.175191299799998 ], [ -115.2203481, 36.175196699799997 ], [ -115.2203535, 36.175196699799997 ], [ -115.2203535, 36.175191299799998 ], [ -115.2203589, 36.175191299799998 ], [ -115.2203589, 36.1751993998 ], [ -115.2203616, 36.1751993998 ], [ -115.2203616, 36.175210199799999 ], [ -115.2203643, 36.175210199799999 ], [ -115.2203643, 36.175207499799996 ], [ -115.220367, 36.175207499799996 ], [ -115.220367, 36.175196699799997 ], [ -115.2203697, 36.175196699799997 ], [ -115.2203697, 36.175185899799999 ], [ -115.2203724, 36.175185899799999 ], [ -115.2203724, 36.175183199799996 ], [ -115.2203751, 36.175183199799996 ], [ -115.2203751, 36.175193999800001 ], [ -115.2203778, 36.175193999800001 ], [ -115.2203778, 36.175210199799999 ], [ -115.2203805, 36.175210199799999 ], [ -115.2203805, 36.175226399799996 ], [ -115.2203778, 36.175226399799996 ], [ -115.2203778, 36.175229099799999 ], [ -115.2203805, 36.175229099799999 ], [ -115.2203805, 36.175250699799996 ], [ -115.2203832, 36.175250699799996 ], [ -115.2203832, 36.175256099800002 ], [ -115.2203859, 36.175256099800002 ], [ -115.2203859, 36.175258799799998 ], [ -115.2204021, 36.175258799799998 ], [ -115.2204021, 36.175261499800001 ], [ -115.2204129, 36.175261499800001 ], [ -115.2204129, 36.175264199799997 ], [ -115.2204183, 36.175264199799997 ], [ -115.2204183, 36.1752668998 ], [ -115.220421, 36.1752668998 ], [ -115.220421, 36.175280399800002 ], [ -115.2204237, 36.175280399800002 ], [ -115.2204237, 36.175288499799997 ], [ -115.2204264, 36.175288499799997 ], [ -115.2204264, 36.1752911998 ], [ -115.2204291, 36.1752911998 ], [ -115.2204291, 36.175293899799996 ], [ -115.2204318, 36.175293899799996 ], [ -115.2204318, 36.175296599799999 ], [ -115.2204345, 36.175296599799999 ], [ -115.2204345, 36.175299299799995 ], [ -115.2204426, 36.175299299799995 ], [ -115.2204426, 36.175301999799998 ], [ -115.2204561, 36.175301999799998 ], [ -115.2204561, 36.175304699800002 ], [ -115.2204588, 36.175304699800002 ], [ -115.2204588, 36.175301999799998 ], [ -115.2204696, 36.175301999799998 ], [ -115.2204696, 36.175299299799995 ], [ -115.2204885, 36.175299299799995 ], [ -115.2204885, 36.175296599799999 ], [ -115.2205236, 36.175296599799999 ], [ -115.2205236, 36.175299299799995 ], [ -115.2205668, 36.175299299799995 ], [ -115.2205668, 36.175296599799999 ], [ -115.2206181, 36.175296599799999 ], [ -115.2206181, 36.175299299799995 ], [ -115.2206208, 36.175299299799995 ], [ -115.2206208, 36.175342499799996 ], [ -115.2206235, 36.175342499799996 ], [ -115.2206235, 36.175380299799997 ], [ -115.2206208, 36.175380299799997 ], [ -115.2206208, 36.175388399799999 ] ] ] } },
{ "type": "Feature", "properties": { "value": 255.0 }, "geometry": { "type": "Polygon", "coordinates": [ [ [ -115.2199782, 36.175304699800002 ], [ -115.2199701, 36.175304699800002 ], [ -115.2199701, 36.175301999799998 ], [ -115.2199107, 36.175301999799998 ], [ -115.2199107, 36.175299299799995 ], [ -115.2198216, 36.175299299799995 ], [ -115.2198216, 36.175301999799998 ], [ -115.2197784, 36.175301999799998 ], [ -115.2197784, 36.175299299799995 ], [ -115.2197676, 36.175299299799995 ], [ -115.2197676, 36.175126499800001 ], [ -115.2197757, 36.175126499800001 ], [ -115.2197757, 36.175123799799998 ], [ -115.2197784, 36.175123799799998 ], [ -115.2197784, 36.175126499800001 ], [ -115.2197919, 36.175126499800001 ], [ -115.2197919, 36.175123799799998 ], [ -115.2198027, 36.175123799799998 ], [ -115.2198027, 36.175126499800001 ], [ -115.219827, 36.175126499800001 ], [ -115.219827, 36.175129199799997 ], [ -115.2198351, 36.175129199799997 ], [ -115.2198351, 36.1751318998 ], [ -115.2198459, 36.1751318998 ], [ -115.2198459, 36.175134599799996 ], [ -115.2198594, 36.175134599799996 ], [ -115.2198594, 36.1751318998 ], [ -115.2199782, 36.1751318998 ], [ -115.2199782, 36.175134599799996 ], [ -115.2199917, 36.175134599799996 ], [ -115.2199917, 36.175137299799999 ], [ -115.220016, 36.175137299799999 ], [ -115.220016, 36.175139999799995 ], [ -115.2200214, 36.175139999799995 ], [ -115.2200214, 36.175142699799999 ], [ -115.2200241, 36.175142699799999 ], [ -115.2200241, 36.175145399800002 ], [ -115.2200268, 36.175145399800002 ], [ -115.2200268, 36.175231799799995 ], [ -115.2200241, 36.175231799799995 ], [ -115.2200241, 36.175280399800002 ], [ -115.2200214, 36.175280399800002 ], [ -115.2200214, 36.175288499799997 ], [ -115.2200187, 36.175288499799997 ], [ -115.2200187, 36.1752911998 ], [ -115.2200133, 36.1752911998 ], [ -115.2200133, 36.175293899799996 ], [ -115.2199944, 36.175293899799996 ], [ -115.2199944, 36.175296599799999 ], [ -115.2199863, 36.175296599799999 ], [ -115.2199863, 36.175299299799995 ], [ -115.2199836, 36.175299299799995 ], [ -115.2199836, 36.175301999799998 ], [ -115.2199782, 36.175301999799998 ], [ -115.2199782, 36.175304699800002 ] ] ] } },
{ "type": "Feature", "properties": { "value": 255.0 }, "geometry": { "type": "Polygon", "coordinates": [ [ [ -115.2205857, 36.175126499800001 ], [ -115.2204858, 36.175126499800001 ], [ -115.2204858, 36.175123799799998 ], [ -115.2204777, 36.175123799799998 ], [ -115.2204777, 36.175126499800001 ], [ -115.220475, 36.175126499800001 ], [ -115.220475, 36.175123799799998 ], [ -115.2204291, 36.175123799799998 ], [ -115.2204291, 36.175126499800001 ], [ -115.2203859, 36.175126499800001 ], [ -115.2203859, 36.175123799799998 ], [ -115.2203805, 36.175123799799998 ], [ -115.2203805, 36.175121099800002 ], [ -115.2203346, 36.175121099800002 ], [ -115.2203346, 36.175118399799999 ], [ -115.2203238, 36.175118399799999 ], [ -115.2203238, 36.175115699799996 ], [ -115.2203211, 36.175115699799996 ], [ -115.2203211, 36.1751129998 ], [ -115.2203184, 36.1751129998 ], [ -115.2203184, 36.175102199800001 ], [ -115.2203157, 36.175102199800001 ], [ -115.2203157, 36.175053599800002 ], [ -115.2203184, 36.175053599800002 ], [ -115.2203184, 36.175034699800001 ], [ -115.2203211, 36.175034699800001 ], [ -115.2203211, 36.175031999799998 ], [ -115.2203319, 36.175031999799998 ], [ -115.2203319, 36.175029299799995 ], [ -115.2204345, 36.175029299799995 ], [ -115.2204345, 36.175031999799998 ], [ -115.2204615, 36.175031999799998 ], [ -115.2204615, 36.175034699800001 ], [ -115.2204777, 36.175034699800001 ], [ -115.2204777, 36.175037399799997 ], [ -115.2205938, 36.175037399799997 ], [ -115.2205938, 36.175034699800001 ], [ -115.2205992, 36.175034699800001 ], [ -115.2205992, 36.175037399799997 ], [ -115.2206127, 36.175037399799997 ], [ -115.2206127, 36.1750400998 ], [ -115.2206154, 36.1750400998 ], [ -115.2206154, 36.175042799799996 ], [ -115.2206127, 36.175042799799996 ], [ -115.2206127, 36.175048199799996 ], [ -115.2206154, 36.175048199799996 ], [ -115.2206154, 36.175099499799998 ], [ -115.2206127, 36.175099499799998 ], [ -115.2206127, 36.175123799799998 ], [ -115.2205857, 36.175123799799998 ], [ -115.2205857, 36.175126499800001 ] ] ] } },
{ "type": "Feature", "properties": { "value": 255.0 }, "geometry": { "type": "Polygon", "coordinates": [ [ [ -115.2199836, 36.175094099799999 ], [ -115.2199755, 36.175094099799999 ], [ -115.2199755, 36.175091399799996 ], [ -115.2199701, 36.175091399799996 ], [ -115.2199701, 36.175094099799999 ], [ -115.219827, 36.175094099799999 ], [ -115.219827, 36.175091399799996 ], [ -115.2197811, 36.175091399799996 ], [ -115.2197811, 36.1750886998 ], [ -115.2197676, 36.1750886998 ], [ -115.2197676, 36.174921299799998 ], [ -115.2197865, 36.174921299799998 ], [ -115.2197865, 36.174918599800002 ], [ -115.2198324, 36.174918599800002 ], [ -115.2198324, 36.174921299799998 ], [ -115.219854, 36.174921299799998 ], [ -115.219854, 36.174923999800001 ], [ -115.2198783, 36.174923999800001 ], [ -115.2198783, 36.174921299799998 ], [ -115.2198972, 36.174921299799998 ], [ -115.2198972, 36.174923999800001 ], [ -115.2199593, 36.174923999800001 ], [ -115.2199593, 36.174926699799997 ], [ -115.2199917, 36.174926699799997 ], [ -115.2199917, 36.1749293998 ], [ -115.2200214, 36.1749293998 ], [ -115.2200214, 36.174932099799996 ], [ -115.2200268, 36.174932099799996 ], [ -115.2200268, 36.174937499799995 ], [ -115.2200295, 36.174937499799995 ], [ -115.2200295, 36.1749536998 ], [ -115.2200322, 36.1749536998 ], [ -115.2200322, 36.175023899799996 ], [ -115.2200295, 36.175023899799996 ], [ -115.2200295, 36.175083299800001 ], [ -115.2200268, 36.175083299800001 ], [ -115.2200268, 36.175085999799997 ], [ -115.2200052, 36.175085999799997 ], [ -115.2200052, 36.1750886998 ], [ -115.2199917, 36.1750886998 ], [ -115.2199917, 36.175091399799996 ], [ -115.2199836, 36.175091399799996 ], [ -115.2199836, 36.175094099799999 ] ] ] } },
{ "type": "Feature", "properties": { "value": 255.0 }, "geometry": { "type": "Polygon", "coordinates": [ [ [ -115.2199863, 36.1748861998 ], [ -115.2198027, 36.1748861998 ], [ -115.2198027, 36.174883499799996 ], [ -115.2197811, 36.174883499799996 ], [ -115.2197811, 36.1748807998 ], [ -115.219773, 36.1748807998 ], [ -115.219773, 36.174878099799997 ], [ -115.2197676, 36.174878099799997 ], [ -115.2197676, 36.174716099800001 ], [ -115.2197703, 36.174716099800001 ], [ -115.2197703, 36.174718799799997 ], [ -115.2197757, 36.174718799799997 ], [ -115.2197757, 36.174716099800001 ], [ -115.2198189, 36.174716099800001 ], [ -115.2198189, 36.174713399799998 ], [ -115.2198297, 36.174713399799998 ], [ -115.2198297, 36.174716099800001 ], [ -115.2198864, 36.174716099800001 ], [ -115.2198864, 36.174718799799997 ], [ -115.2199215, 36.174718799799997 ], [ -115.2199215, 36.1747214998 ], [ -115.2199971, 36.1747214998 ], [ -115.2199971, 36.174724199799996 ], [ -115.220016, 36.174724199799996 ], [ -115.220016, 36.1747268998 ], [ -115.2200268, 36.1747268998 ], [ -115.2200268, 36.174729599799996 ], [ -115.2200322, 36.174729599799996 ], [ -115.2200322, 36.174737699799998 ], [ -115.2200349, 36.174737699799998 ], [ -115.2200349, 36.1748132998 ], [ -115.2200322, 36.1748132998 ], [ -115.2200322, 36.174856499800001 ], [ -115.2200349, 36.174856499800001 ], [ -115.2200349, 36.174869999799995 ], [ -115.2200322, 36.174869999799995 ], [ -115.2200322, 36.174878099799997 ], [ -115.2200214, 36.174878099799997 ], [ -115.2200214, 36.1748807998 ], [ -115.2199998, 36.1748807998 ], [ -115.2199998, 36.174883499799996 ], [ -115.2199863, 36.174883499799996 ], [ -115.2199863, 36.1748861998 ] ] ] } },
{ "type": "Feature", "properties": { "value": 255.0 }, "geometry": { "type": "Polygon", "coordinates": [ [ [ -115.2209367, 36.174597299799998 ], [ -115.2209286, 36.174597299799998 ], [ -115.2209286, 36.174594599799995 ], [ -115.2209259, 36.174594599799995 ], [ -115.2209259, 36.174591899799999 ], [ -115.2209286, 36.174591899799999 ], [ -115.2209286, 36.174589199799996 ], [ -115.2209448, 36.174589199799996 ], [ -115.2209448, 36.174591899799999 ], [ -115.2209475, 36.174591899799999 ], [ -115.2209475, 36.174594599799995 ], [ -115.2209367, 36.174594599799995 ], [ -115.2209367, 36.174597299799998 ] ] ] } },
{ "type": "Feature", "properties": { "value": 255.0 }, "geometry": { "type": "Polygon", "coordinates": [ [ [ -115.2206235, 36.175002299799999 ], [ -115.2205938, 36.175002299799999 ], [ -115.2205938, 36.174999599799996 ], [ -115.2205884, 36.174999599799996 ], [ -115.2205884, 36.175002299799999 ], [ -115.2205803, 36.175002299799999 ], [ -115.2205803, 36.174999599799996 ], [ -115.2205209, 36.174999599799996 ], [ -115.2205209, 36.1749968998 ], [ -115.2205155, 36.1749968998 ], [ -115.2205155, 36.174991499800001 ], [ -115.2205128, 36.174991499800001 ], [ -115.2205128, 36.174975299799996 ], [ -115.2205101, 36.174975299799996 ], [ -115.2205101, 36.174967199800001 ], [ -115.2205074, 36.174967199800001 ], [ -115.2205074, 36.1749536998 ], [ -115.2205047, 36.1749536998 ], [ -115.2205047, 36.174950999799997 ], [ -115.2205074, 36.174950999799997 ], [ -115.2205074, 36.174937499799995 ], [ -115.2205101, 36.174937499799995 ], [ -115.2205101, 36.174907799799996 ], [ -115.2205128, 36.174907799799996 ], [ -115.2205128, 36.174899699800001 ], [ -115.2205101, 36.174899699800001 ], [ -115.2205101, 36.174894299799995 ], [ -115.2205128, 36.174894299799995 ], [ -115.2205128, 36.174888899799996 ], [ -115.2205101, 36.174888899799996 ], [ -115.2205101, 36.174883499799996 ], [ -115.2205128, 36.174883499799996 ], [ -115.2205128, 36.174872699799998 ], [ -115.2205155, 36.174872699799998 ], [ -115.2205155, 36.174869999799995 ], [ -115.2205128, 36.174869999799995 ], [ -115.2205128, 36.174864599799996 ], [ -115.2205155, 36.174864599799996 ], [ -115.2205155, 36.1748618998 ], [ -115.2205182, 36.1748618998 ], [ -115.2205182, 36.174845699799995 ], [ -115.2205209, 36.174845699799995 ], [ -115.2205209, 36.174842999799999 ], [ -115.2205182, 36.174842999799999 ], [ -115.2205182, 36.1748375998 ], [ -115.2205209, 36.1748375998 ], [ -115.2205209, 36.174791699799997 ], [ -115.2205236, 36.174791699799997 ], [ -115.2205236, 36.174662099799995 ], [ -115.2205263, 36.174662099799995 ], [ -115.2205263, 36.1746539998 ], [ -115.2205236, 36.1746539998 ], [ -115.2205236, 36.174640499799999 ], [ -115.2205209, 36.174640499799999 ], [ -115.2205209, 36.1746350998 ], [ -115.2205182, 36.1746350998 ], [ -115.2205182, 36.174626999799997 ], [ -115.2205155, 36.174626999799997 ], [ -115.2205155, 36.174618899799995 ], [ -115.2205182, 36.174618899799995 ], [ -115.2205182, 36.174578399799998 ], [ -115.2205209, 36.174578399799998 ], [ -115.2205209, 36.174575699799995 ], [ -115.2206316, 36.174575699799995 ], [ -115.2206316, 36.174578399799998 ], [ -115.2206343, 36.174578399799998 ], [ -115.2206343, 36.174624299799994 ], [ -115.2206316, 36.174624299799994 ], [ -115.2206316, 36.174697199800001 ], [ -115.2206289, 36.174697199800001 ], [ -115.2206289, 36.174748499799996 ], [ -115.2206262, 36.174748499799996 ], [ -115.2206262, 36.174764699800001 ], [ -115.2206289, 36.174764699800001 ], [ -115.2206289, 36.174778199799995 ], [ -115.2206262, 36.174778199799995 ], [ -115.2206262, 36.174851099800001 ], [ -115.2206235, 36.174851099800001 ], [ -115.2206235, 36.174902399799997 ], [ -115.2206208, 36.174902399799997 ], [ -115.2206208, 36.174932099799996 ], [ -115.2206235, 36.174932099799996 ], [ -115.2206235, 36.174975299799996 ], [ -115.2206262, 36.174975299799996 ], [ -115.2206262, 36.174986099800002 ], [ -115.2206235, 36.174986099800002 ], [ -115.2206235, 36.174994199799997 ], [ -115.2206262, 36.174994199799997 ], [ -115.2206262, 36.1749968998 ], [ -115.2206235, 36.1749968998 ], [ -115.2206235, 36.175002299799999 ] ] ] } },
{ "type": "Feature", "properties": { "value": 255.0 }, "geometry": { "type": "Polygon", "coordinates": [ [ [ -115.2203643, 36.174999599799996 ], [ -115.2203265, 36.174999599799996 ], [ -115.2203265, 36.1749968998 ], [ -115.2203238, 36.1749968998 ], [ -115.2203238, 36.174945599799997 ], [ -115.2203211, 36.174945599799997 ], [ -115.2203211, 36.174942899800001 ], [ -115.2203238, 36.174942899800001 ], [ -115.2203238, 36.174940199799998 ], [ -115.2203211, 36.174940199799998 ], [ -115.2203211, 36.1748807998 ], [ -115.2203238, 36.1748807998 ], [ -115.2203238, 36.174788999800001 ], [ -115.2203265, 36.174788999800001 ], [ -115.2203265, 36.174667499799995 ], [ -115.2203292, 36.174667499799995 ], [ -115.2203292, 36.174572999799999 ], [ -115.2204345, 36.174572999799999 ], [ -115.2204345, 36.174575699799995 ], [ -115.2204399, 36.174575699799995 ], [ -115.2204399, 36.174624299799994 ], [ -115.2204372, 36.174624299799994 ], [ -115.2204372, 36.174651299799997 ], [ -115.2204399, 36.174651299799997 ], [ -115.2204399, 36.174697199800001 ], [ -115.2204372, 36.174697199800001 ], [ -115.2204372, 36.174743099799997 ], [ -115.2204345, 36.174743099799997 ], [ -115.2204345, 36.174756599799998 ], [ -115.2204372, 36.174756599799998 ], [ -115.2204372, 36.1747943998 ], [ -115.2204345, 36.1747943998 ], [ -115.2204345, 36.1748132998 ], [ -115.2204318, 36.1748132998 ], [ -115.2204318, 36.174834899799997 ], [ -115.2204345, 36.174834899799997 ], [ -115.2204345, 36.174869999799995 ], [ -115.2204372, 36.174869999799995 ], [ -115.2204372, 36.174875399800001 ], [ -115.2204345, 36.174875399800001 ], [ -115.2204345, 36.1748861998 ], [ -115.2204318, 36.1748861998 ], [ -115.2204318, 36.174896999799998 ], [ -115.2204345, 36.174896999799998 ], [ -115.2204345, 36.174915899799998 ], [ -115.2204318, 36.174915899799998 ], [ -115.2204318, 36.174926699799997 ], [ -115.2204291, 36.174926699799997 ], [ -115.2204291, 36.174937499799995 ], [ -115.2204264, 36.174937499799995 ], [ -115.2204264, 36.174959099799999 ], [ -115.2204291, 36.174959099799999 ], [ -115.2204291, 36.174991499800001 ], [ -115.2204264, 36.174991499800001 ], [ -115.2204264, 36.174994199799997 ], [ -115.2204237, 36.174994199799997 ], [ -115.2204237, 36.1749968998 ], [ -115.2203643, 36.1749968998 ], [ -115.2203643, 36.174999599799996 ] ] ] } },
{ "type": "Feature", "properties": { "value": 255.0 }, "geometry": { "type": "Polygon", "coordinates": [ [ [ -115.2209286, 36.174581099800001 ], [ -115.2209205, 36.174581099800001 ], [ -115.2209205, 36.174578399799998 ], [ -115.2209178, 36.174578399799998 ], [ -115.2209178, 36.174572999799999 ], [ -115.2209286, 36.174572999799999 ], [ -115.2209286, 36.174570299799996 ], [ -115.2209448, 36.174570299799996 ], [ -115.2209448, 36.174575699799995 ], [ -115.220934, 36.174575699799995 ], [ -115.220934, 36.174578399799998 ], [ -115.2209286, 36.174578399799998 ], [ -115.2209286, 36.174581099800001 ] ] ] } }
]
}
