{
"type": "FeatureCollection",
"crs": { "type": "name", "properties": { "name": "urn:ogc:def:crs:OGC:1.3:CRS84" } },
"features": [
{ "type": "Feature", "properties": { "value": 255.0 }, "geometry": { "type": "Polygon", "coordinates": [ [ [ -115.216263, 36.156134699799999 ], [ -115.2162576, 36.156134699799999 ], [ -115.2162576, 36.156069899799995 ], [ -115.2162603, 36.156069899799995 ], [ -115.2162603, 36.156075299799994 ], [ -115.216263, 36.156075299799994 ], [ -115.216263, 36.156083399799996 ], [ -115.2162657, 36.156083399799996 ], [ -115.2162657, 36.156088799799996 ], [ -115.2162684, 36.156088799799996 ], [ -115.2162684, 36.156131999799996 ], [ -115.216263, 36.156131999799996 ], [ -115.216263, 36.156134699799999 ] ] ] } },
{ "type": "Feature", "properties": { "value": 255.0 }, "geometry": { "type": "Polygon", "coordinates": [ [ [ -115.2177588, 36.156337199799999 ], [ -115.2177507, 36.156337199799999 ], [ -115.2177507, 36.156334499799996 ], [ -115.2177453, 36.156334499799996 ], [ -115.2177453, 36.156329099799997 ], [ -115.2177426, 36.156329099799997 ], [ -115.2177426, 36.156326399799994 ], [ -115.2177399, 36.156326399799994 ], [ -115.2177399, 36.156320999799995 ], [ -115.2177372, 36.156320999799995 ], [ -115.2177372, 36.156315599799996 ], [ -115.2177345, 36.156315599799996 ], [ -115.2177345, 36.156310199799996 ], [ -115.2177318, 36.156310199799996 ], [ -115.2177318, 36.156304799799997 ], [ -115.2177291, 36.156304799799997 ], [ -115.2177291, 36.156299399799998 ], [ -115.217726399999989, 36.156299399799998 ], [ -115.217726399999989, 36.156293999799999 ], [ -115.2177237, 36.156293999799999 ], [ -115.2177237, 36.1562885998 ], [ -115.217721, 36.1562885998 ], [ -115.217721, 36.156285899799997 ], [ -115.2177183, 36.156285899799997 ], [ -115.2177183, 36.156280499799998 ], [ -115.2177156, 36.156280499799998 ], [ -115.2177156, 36.156275099799998 ], [ -115.2177129, 36.156275099799998 ], [ -115.2177129, 36.156269699799999 ], [ -115.2177102, 36.156269699799999 ], [ -115.2177102, 36.1562642998 ], [ -115.2177075, 36.1562642998 ], [ -115.2177075, 36.156258899799994 ], [ -115.2177048, 36.156258899799994 ], [ -115.2177048, 36.156253499799995 ], [ -115.2177021, 36.156253499799995 ], [ -115.2177021, 36.156250799799999 ], [ -115.2176994, 36.156250799799999 ], [ -115.2176994, 36.156248099799996 ], [ -115.2176913, 36.156248099799996 ], [ -115.2176913, 36.1562453998 ], [ -115.2176886, 36.1562453998 ], [ -115.2176886, 36.156242699799996 ], [ -115.2176859, 36.156242699799996 ], [ -115.2176859, 36.1562399998 ], [ -115.2176832, 36.1562399998 ], [ -115.2176832, 36.156237299799997 ], [ -115.2176805, 36.156237299799997 ], [ -115.2176805, 36.156234599799994 ], [ -115.2176778, 36.156234599799994 ], [ -115.2176778, 36.156231899799998 ], [ -115.2176751, 36.156231899799998 ], [ -115.2176751, 36.156229199799995 ], [ -115.2176724, 36.156229199799995 ], [ -115.2176724, 36.156226499799999 ], [ -115.2176697, 36.156226499799999 ], [ -115.2176697, 36.1562210998 ], [ -115.217667, 36.1562210998 ], [ -115.217667, 36.156218399799997 ], [ -115.2176643, 36.156218399799997 ], [ -115.2176643, 36.156215699799994 ], [ -115.2176616, 36.156215699799994 ], [ -115.2176616, 36.156199499799996 ], [ -115.2176589, 36.156199499799996 ], [ -115.2176589, 36.156194099799997 ], [ -115.2176562, 36.156194099799997 ], [ -115.2176562, 36.156191399799994 ], [ -115.2176535, 36.156191399799994 ], [ -115.2176535, 36.156188699799998 ], [ -115.2176508, 36.156188699799998 ], [ -115.2176508, 36.156185999799995 ], [ -115.2176481, 36.156185999799995 ], [ -115.2176481, 36.156180599799995 ], [ -115.2176454, 36.156180599799995 ], [ -115.2176454, 36.156177899799999 ], [ -115.2176427, 36.156177899799999 ], [ -115.2176427, 36.156175199799996 ], [ -115.21764, 36.156175199799996 ], [ -115.21764, 36.1561724998 ], [ -115.2176373, 36.1561724998 ], [ -115.2176373, 36.156169799799997 ], [ -115.2176346, 36.156169799799997 ], [ -115.2176346, 36.156167099799994 ], [ -115.2176319, 36.156167099799994 ], [ -115.2176319, 36.156164399799998 ], [ -115.2176292, 36.156164399799998 ], [ -115.2176292, 36.156158999799999 ], [ -115.2176265, 36.156158999799999 ], [ -115.2176265, 36.156156299799996 ], [ -115.2176238, 36.156156299799996 ], [ -115.2176238, 36.1561535998 ], [ -115.2176211, 36.1561535998 ], [ -115.2176211, 36.156150899799997 ], [ -115.2176184, 36.156150899799997 ], [ -115.2176184, 36.1561481998 ], [ -115.2176157, 36.1561481998 ], [ -115.2176157, 36.156145499799997 ], [ -115.217613, 36.156145499799997 ], [ -115.217613, 36.156140099799998 ], [ -115.2176103, 36.156140099799998 ], [ -115.2176103, 36.156137399799995 ], [ -115.2176076, 36.156137399799995 ], [ -115.2176076, 36.156131999799996 ], [ -115.2176049, 36.156131999799996 ], [ -115.2176049, 36.1561292998 ], [ -115.2175968, 36.1561292998 ], [ -115.2175968, 36.156126599799997 ], [ -115.2175239, 36.156126599799997 ], [ -115.2175239, 36.156123899800001 ], [ -115.2175212, 36.156123899800001 ], [ -115.2175212, 36.156064499799996 ], [ -115.2175185, 36.156064499799996 ], [ -115.2175185, 36.156059099799997 ], [ -115.2175212, 36.156059099799997 ], [ -115.2175212, 36.156056399800001 ], [ -115.2175455, 36.156056399800001 ], [ -115.2175455, 36.156053699799998 ], [ -115.2176022, 36.156053699799998 ], [ -115.2176022, 36.156056399800001 ], [ -115.2176049, 36.156056399800001 ], [ -115.2176049, 36.156067199799999 ], [ -115.2176076, 36.156067199799999 ], [ -115.2176076, 36.156088799799996 ], [ -115.2176103, 36.156088799799996 ], [ -115.2176103, 36.156091499799999 ], [ -115.2176319, 36.156091499799999 ], [ -115.2176319, 36.156088799799996 ], [ -115.21764, 36.156088799799996 ], [ -115.21764, 36.156072599799998 ], [ -115.2176427, 36.156072599799998 ], [ -115.2176427, 36.156069899799995 ], [ -115.2176454, 36.156069899799995 ], [ -115.2176454, 36.156067199799999 ], [ -115.2176751, 36.156067199799999 ], [ -115.2176751, 36.156064499799996 ], [ -115.2176778, 36.156064499799996 ], [ -115.2176778, 36.1560617998 ], [ -115.2176886, 36.1560617998 ], [ -115.2176886, 36.156064499799996 ], [ -115.2176967, 36.156064499799996 ], [ -115.2176967, 36.1560617998 ], [ -115.2177183, 36.1560617998 ], [ -115.2177183, 36.156067199799999 ], [ -115.217721, 36.156067199799999 ], [ -115.217721, 36.156069899799995 ], [ -115.2177237, 36.156069899799995 ], [ -115.2177237, 36.156072599799998 ], [ -115.217726399999989, 36.156072599799998 ], [ -115.217726399999989, 36.156077999799997 ], [ -115.2177291, 36.156077999799997 ], [ -115.2177291, 36.1560806998 ], [ -115.2177318, 36.1560806998 ], [ -115.2177318, 36.156083399799996 ], [ -115.2177345, 36.156083399799996 ], [ -115.2177345, 36.1560860998 ], [ -115.2177372, 36.1560860998 ], [ -115.2177372, 36.156088799799996 ], [ -115.2177399, 36.156088799799996 ], [ -115.2177399, 36.156091499799999 ], [ -115.2177426, 36.156091499799999 ], [ -115.2177426, 36.156094199799995 ], [ -115.2177453, 36.156094199799995 ], [ -115.2177453, 36.156096899799998 ], [ -115.217748, 36.156096899799998 ], [ -115.217748, 36.156099599799994 ], [ -115.2177507, 36.156099599799994 ], [ -115.2177507, 36.156102299799997 ], [ -115.2177534, 36.156102299799997 ], [ -115.2177534, 36.1561049998 ], [ -115.2177561, 36.1561049998 ], [ -115.2177561, 36.156107699799996 ], [ -115.2177588, 36.156107699799996 ], [ -115.2177588, 36.156110399799999 ], [ -115.2177615, 36.156110399799999 ], [ -115.2177615, 36.156113099799995 ], [ -115.2177642, 36.156113099799995 ], [ -115.2177642, 36.156115799799998 ], [ -115.2177669, 36.156115799799998 ], [ -115.2177669, 36.156118499799994 ], [ -115.2177696, 36.156118499799994 ], [ -115.2177696, 36.156121199799998 ], [ -115.2177723, 36.156121199799998 ], [ -115.2177723, 36.156126599799997 ], [ -115.217775, 36.156126599799997 ], [ -115.217775, 36.1561292998 ], [ -115.2177777, 36.1561292998 ], [ -115.2177777, 36.156131999799996 ], [ -115.2177804, 36.156131999799996 ], [ -115.2177804, 36.156134699799999 ], [ -115.2177831, 36.156134699799999 ], [ -115.2177831, 36.156140099799998 ], [ -115.2177858, 36.156140099799998 ], [ -115.2177858, 36.156142799799994 ], [ -115.2177885, 36.156142799799994 ], [ -115.2177885, 36.156145499799997 ], [ -115.2177912, 36.156145499799997 ], [ -115.2177912, 36.1561481998 ], [ -115.2177939, 36.1561481998 ], [ -115.2177939, 36.1561535998 ], [ -115.2177966, 36.1561535998 ], [ -115.2177966, 36.156158999799999 ], [ -115.2177993, 36.156158999799999 ], [ -115.2177993, 36.156164399799998 ], [ -115.217802, 36.156164399799998 ], [ -115.217802, 36.156169799799997 ], [ -115.2178047, 36.156169799799997 ], [ -115.2178047, 36.156177899799999 ], [ -115.2178074, 36.156177899799999 ], [ -115.2178074, 36.156183299799999 ], [ -115.2178101, 36.156183299799999 ], [ -115.2178101, 36.156191399799994 ], [ -115.2178128, 36.156191399799994 ], [ -115.2178128, 36.1561967998 ], [ -115.2178155, 36.1561967998 ], [ -115.2178155, 36.156204899799995 ], [ -115.2178182, 36.156204899799995 ], [ -115.2178182, 36.156210299799994 ], [ -115.2178209, 36.156210299799994 ], [ -115.2178209, 36.156218399799997 ], [ -115.2178236, 36.156218399799997 ], [ -115.2178236, 36.156223799799996 ], [ -115.2178263, 36.156223799799996 ], [ -115.2178263, 36.156229199799995 ], [ -115.217829, 36.156229199799995 ], [ -115.217829, 36.156231899799998 ], [ -115.2178317, 36.156231899799998 ], [ -115.2178317, 36.156234599799994 ], [ -115.2178344, 36.156234599799994 ], [ -115.2178344, 36.1562399998 ], [ -115.2178371, 36.1562399998 ], [ -115.2178371, 36.156242699799996 ], [ -115.2178398, 36.156242699799996 ], [ -115.2178398, 36.156248099799996 ], [ -115.217842499999989, 36.156248099799996 ], [ -115.217842499999989, 36.156250799799999 ], [ -115.2178452, 36.156250799799999 ], [ -115.2178452, 36.156256199799998 ], [ -115.2178479, 36.156256199799998 ], [ -115.2178479, 36.156261599799997 ], [ -115.2178506, 36.156261599799997 ], [ -115.2178506, 36.1562642998 ], [ -115.2178533, 36.1562642998 ], [ -115.2178533, 36.156269699799999 ], [ -115.217856, 36.156269699799999 ], [ -115.217856, 36.156275099799998 ], [ -115.2178587, 36.156275099799998 ], [ -115.2178587, 36.156277799799994 ], [ -115.2178614, 36.156277799799994 ], [ -115.2178614, 36.156280499799998 ], [ -115.2178641, 36.156280499799998 ], [ -115.2178641, 36.156285899799997 ], [ -115.2178668, 36.156285899799997 ], [ -115.2178668, 36.1562885998 ], [ -115.2178695, 36.1562885998 ], [ -115.2178695, 36.156296699799995 ], [ -115.2178668, 36.156296699799995 ], [ -115.2178668, 36.156299399799998 ], [ -115.2178587, 36.156299399799998 ], [ -115.2178587, 36.156302099799994 ], [ -115.2178452, 36.156302099799994 ], [ -115.2178452, 36.156304799799997 ], [ -115.2178344, 36.156304799799997 ], [ -115.2178344, 36.156307499799993 ], [ -115.2178263, 36.156307499799993 ], [ -115.2178263, 36.156310199799996 ], [ -115.2178209, 36.156310199799996 ], [ -115.2178209, 36.1563128998 ], [ -115.2178128, 36.1563128998 ], [ -115.2178128, 36.156315599799996 ], [ -115.2178047, 36.156315599799996 ], [ -115.2178047, 36.156318299799999 ], [ -115.2177993, 36.156318299799999 ], [ -115.2177993, 36.156320999799995 ], [ -115.2177939, 36.156320999799995 ], [ -115.2177939, 36.156323699799998 ], [ -115.2177885, 36.156323699799998 ], [ -115.2177885, 36.156326399799994 ], [ -115.2177804, 36.156326399799994 ], [ -115.2177804, 36.156329099799997 ], [ -115.2177723, 36.156329099799997 ], [ -115.2177723, 36.1563317998 ], [ -115.2177642, 36.1563317998 ], [ -115.2177642, 36.156334499799996 ], [ -115.2177588, 36.156334499799996 ], [ -115.2177588, 36.156337199799999 ] ] ] } },
{ "type": "Feature", "properties": { "value": 255.0 }, "geometry": { "type": "Polygon", "coordinates": [ [ [ -115.2172458, 36.156256199799998 ], [ -115.2171999, 36.156256199799998 ], [ -115.2171999, 36.156253499799995 ], [ -115.2171972, 36.156253499799995 ], [ -115.2171972, 36.156248099799996 ], [ -115.2171945, 36.156248099799996 ], [ -115.2171945, 36.156242699799996 ], [ -115.2171918, 36.156242699799996 ], [ -115.2171918, 36.1562399998 ], [ -115.2171864, 36.1562399998 ], [ -115.2171864, 36.156237299799997 ], [ -115.217181, 36.156237299799997 ], [ -115.217181, 36.156234599799994 ], [ -115.2171702, 36.156234599799994 ], [ -115.2171702, 36.156231899799998 ], [ -115.2171648, 36.156231899799998 ], [ -115.2171648, 36.156229199799995 ], [ -115.2171567, 36.156229199799995 ], [ -115.2171567, 36.156226499799999 ], [ -115.217127, 36.156226499799999 ], [ -115.217127, 36.156223799799996 ], [ -115.2171135, 36.156223799799996 ], [ -115.2171135, 36.1562210998 ], [ -115.2170784, 36.1562210998 ], [ -115.2170784, 36.156218399799997 ], [ -115.2170757, 36.156218399799997 ], [ -115.2170757, 36.156215699799994 ], [ -115.217073, 36.156215699799994 ], [ -115.217073, 36.156169799799997 ], [ -115.2170757, 36.156169799799997 ], [ -115.2170757, 36.156088799799996 ], [ -115.217073, 36.156088799799996 ], [ -115.217073, 36.156064499799996 ], [ -115.2170757, 36.156064499799996 ], [ -115.2170757, 36.156059099799997 ], [ -115.2170784, 36.156059099799997 ], [ -115.2170784, 36.156056399800001 ], [ -115.2170811, 36.156056399800001 ], [ -115.2170811, 36.156053699799998 ], [ -115.2170946, 36.156053699799998 ], [ -115.2170946, 36.156056399800001 ], [ -115.2171, 36.156056399800001 ], [ -115.2171, 36.156053699799998 ], [ -115.2171027, 36.156053699799998 ], [ -115.2171027, 36.156048299799998 ], [ -115.2171054, 36.156048299799998 ], [ -115.2171054, 36.1560374998 ], [ -115.2171081, 36.1560374998 ], [ -115.2171081, 36.156034799799997 ], [ -115.2171243, 36.156034799799997 ], [ -115.2171243, 36.1560374998 ], [ -115.2171675, 36.1560374998 ], [ -115.2171675, 36.156048299799998 ], [ -115.2171702, 36.156048299799998 ], [ -115.2171702, 36.156056399800001 ], [ -115.2171729, 36.156056399800001 ], [ -115.2171729, 36.156059099799997 ], [ -115.217235, 36.156059099799997 ], [ -115.217235, 36.156056399800001 ], [ -115.2173025, 36.156056399800001 ], [ -115.2173025, 36.156059099799997 ], [ -115.2173187, 36.156059099799997 ], [ -115.2173187, 36.1560617998 ], [ -115.2173268, 36.1560617998 ], [ -115.2173268, 36.156064499799996 ], [ -115.2173295, 36.156064499799996 ], [ -115.2173295, 36.1560860998 ], [ -115.2173322, 36.1560860998 ], [ -115.2173322, 36.1561724998 ], [ -115.2173376, 36.1561724998 ], [ -115.2173376, 36.156175199799996 ], [ -115.2173592, 36.156175199799996 ], [ -115.2173592, 36.1561724998 ], [ -115.2173835, 36.1561724998 ], [ -115.2173835, 36.156175199799996 ], [ -115.2173997, 36.156175199799996 ], [ -115.2173997, 36.156177899799999 ], [ -115.2174105, 36.156177899799999 ], [ -115.2174105, 36.156183299799999 ], [ -115.2174132, 36.156183299799999 ], [ -115.2174132, 36.156210299799994 ], [ -115.2174105, 36.156210299799994 ], [ -115.2174105, 36.156212999799997 ], [ -115.2174051, 36.156212999799997 ], [ -115.2174051, 36.156215699799994 ], [ -115.2173052, 36.156215699799994 ], [ -115.2173052, 36.156212999799997 ], [ -115.2172917, 36.156212999799997 ], [ -115.2172917, 36.156215699799994 ], [ -115.2172755, 36.156215699799994 ], [ -115.2172755, 36.156218399799997 ], [ -115.2172728, 36.156218399799997 ], [ -115.2172728, 36.1562210998 ], [ -115.2172701, 36.1562210998 ], [ -115.2172701, 36.156234599799994 ], [ -115.2172674, 36.156234599799994 ], [ -115.2172674, 36.156237299799997 ], [ -115.2172539, 36.156237299799997 ], [ -115.2172539, 36.1562399998 ], [ -115.2172512, 36.1562399998 ], [ -115.2172512, 36.1562453998 ], [ -115.2172485, 36.1562453998 ], [ -115.2172485, 36.156253499799995 ], [ -115.2172458, 36.156253499799995 ], [ -115.2172458, 36.156256199799998 ] ] ] } },
{ "type": "Feature", "properties": { "value": 255.0 }, "geometry": { "type": "Polygon", "coordinates": [ [ [ -115.2164709, 36.156134699799999 ], [ -115.2164007, 36.156134699799999 ], [ -115.2164007, 36.156131999799996 ], [ -115.216398, 36.156131999799996 ], [ -115.216398, 36.156107699799996 ], [ -115.2163953, 36.156107699799996 ], [ -115.2163953, 36.1561049998 ], [ -115.2163926, 36.1561049998 ], [ -115.2163926, 36.156102299799997 ], [ -115.2163845, 36.156102299799997 ], [ -115.2163845, 36.156099599799994 ], [ -115.2163764, 36.156099599799994 ], [ -115.2163764, 36.156102299799997 ], [ -115.2163737, 36.156102299799997 ], [ -115.2163737, 36.156099599799994 ], [ -115.2163629, 36.156099599799994 ], [ -115.2163629, 36.156096899799998 ], [ -115.216360200000011, 36.156096899799998 ], [ -115.216360200000011, 36.156088799799996 ], [ -115.2163575, 36.156088799799996 ], [ -115.2163575, 36.1560860998 ], [ -115.2163494, 36.1560860998 ], [ -115.2163494, 36.156083399799996 ], [ -115.216330500000012, 36.156083399799996 ], [ -115.216330500000012, 36.156077999799997 ], [ -115.2163278, 36.156077999799997 ], [ -115.2163278, 36.156069899799995 ], [ -115.2163251, 36.156069899799995 ], [ -115.2163251, 36.156067199799999 ], [ -115.21632240000001, 36.156067199799999 ], [ -115.21632240000001, 36.156064499799996 ], [ -115.2163197, 36.156064499799996 ], [ -115.2163197, 36.1560617998 ], [ -115.216317, 36.1560617998 ], [ -115.216317, 36.156005099799998 ], [ -115.2163332, 36.156005099799998 ], [ -115.2163332, 36.156002399799995 ], [ -115.216398, 36.156002399799995 ], [ -115.216398, 36.155999699799999 ], [ -115.2164196, 36.155999699799999 ], [ -115.2164196, 36.156002399799995 ], [ -115.2164331, 36.156002399799995 ], [ -115.2164331, 36.156005099799998 ], [ -115.2164439, 36.156005099799998 ], [ -115.2164439, 36.156029399799998 ], [ -115.2164466, 36.156029399799998 ], [ -115.2164466, 36.156034799799997 ], [ -115.2164493, 36.156034799799997 ], [ -115.2164493, 36.1560617998 ], [ -115.216452, 36.1560617998 ], [ -115.216452, 36.156064499799996 ], [ -115.2164682, 36.156064499799996 ], [ -115.2164682, 36.156067199799999 ], [ -115.2164709, 36.156067199799999 ], [ -115.2164709, 36.156083399799996 ], [ -115.2164736, 36.156083399799996 ], [ -115.2164736, 36.156096899799998 ], [ -115.2164709, 36.156096899799998 ], [ -115.2164709, 36.156113099799995 ], [ -115.2164736, 36.156113099799995 ], [ -115.2164736, 36.156115799799998 ], [ -115.2164709, 36.156115799799998 ], [ -115.2164709, 36.156134699799999 ] ] ] } },
{ "type": "Feature", "properties": { "value": 255.0 }, "geometry": { "type": "Polygon", "coordinates": [ [ [ -115.2165357, 36.156140099799998 ], [ -115.216533, 36.156140099799998 ], [ -115.216533, 36.156137399799995 ], [ -115.2165303, 36.156137399799995 ], [ -115.2165303, 36.156134699799999 ], [ -115.2165276, 36.156134699799999 ], [ -115.2165276, 36.156094199799995 ], [ -115.2165195, 36.156094199799995 ], [ -115.2165195, 36.156091499799999 ], [ -115.2165168, 36.156091499799999 ], [ -115.2165168, 36.156088799799996 ], [ -115.2165141, 36.156088799799996 ], [ -115.2165141, 36.156091499799999 ], [ -115.2165114, 36.156091499799999 ], [ -115.2165114, 36.156094199799995 ], [ -115.2165087, 36.156094199799995 ], [ -115.2165087, 36.1560860998 ], [ -115.2165114, 36.1560860998 ], [ -115.2165114, 36.156083399799996 ], [ -115.2165141, 36.156083399799996 ], [ -115.2165141, 36.1560806998 ], [ -115.21652490000001, 36.1560806998 ], [ -115.21652490000001, 36.156077999799997 ], [ -115.2165276, 36.156077999799997 ], [ -115.2165276, 36.156075299799994 ], [ -115.21652490000001, 36.156075299799994 ], [ -115.21652490000001, 36.156053699799998 ], [ -115.2165222, 36.156053699799998 ], [ -115.2165222, 36.156050999799994 ], [ -115.2165195, 36.156050999799994 ], [ -115.2165195, 36.156053699799998 ], [ -115.2165033, 36.156053699799998 ], [ -115.2165033, 36.156045599799995 ], [ -115.2165006, 36.156045599799995 ], [ -115.2165006, 36.156023999799999 ], [ -115.2164979, 36.156023999799999 ], [ -115.2164979, 36.156021299799995 ], [ -115.2165006, 36.156021299799995 ], [ -115.2165006, 36.1560131998 ], [ -115.21652490000001, 36.1560131998 ], [ -115.21652490000001, 36.156007799799994 ], [ -115.2165276, 36.156007799799994 ], [ -115.2165276, 36.156005099799998 ], [ -115.21659240000001, 36.156005099799998 ], [ -115.21659240000001, 36.156002399799995 ], [ -115.2165978, 36.156002399799995 ], [ -115.2165978, 36.155999699799999 ], [ -115.2166653, 36.155999699799999 ], [ -115.2166653, 36.156005099799998 ], [ -115.2166707, 36.156005099799998 ], [ -115.2166707, 36.156072599799998 ], [ -115.2166248, 36.156072599799998 ], [ -115.2166248, 36.156075299799994 ], [ -115.2166194, 36.156075299799994 ], [ -115.2166194, 36.156077999799997 ], [ -115.2166167, 36.156077999799997 ], [ -115.2166167, 36.156096899799998 ], [ -115.2166194, 36.156096899799998 ], [ -115.2166194, 36.156134699799999 ], [ -115.2166167, 36.156134699799999 ], [ -115.2166167, 36.156137399799995 ], [ -115.2165357, 36.156137399799995 ], [ -115.2165357, 36.156140099799998 ] ], [ [ -115.2165114, 36.156048299799998 ], [ -115.2165114, 36.156045599799995 ], [ -115.2165087, 36.156045599799995 ], [ -115.2165087, 36.156048299799998 ], [ -115.2165114, 36.156048299799998 ] ] ] } },
{ "type": "Feature", "properties": { "value": 255.0 }, "geometry": { "type": "Polygon", "coordinates": [ [ [ -115.2166761, 36.155959199799995 ], [ -115.2166734, 36.155959199799995 ], [ -115.2166734, 36.155956499799998 ], [ -115.2166707, 36.155956499799998 ], [ -115.2166707, 36.155942999799997 ], [ -115.2166896, 36.155942999799997 ], [ -115.2166896, 36.1559456998 ], [ -115.2166923, 36.1559456998 ], [ -115.2166923, 36.155953799799995 ], [ -115.2166842, 36.155953799799995 ], [ -115.2166842, 36.155956499799998 ], [ -115.2166761, 36.155956499799998 ], [ -115.2166761, 36.155959199799995 ] ] ] } },
{ "type": "Feature", "properties": { "value": 255.0 }, "geometry": { "type": "Polygon", "coordinates": [ [ [ -115.217046, 36.156021299799995 ], [ -115.2170298, 36.156021299799995 ], [ -115.2170298, 36.156018599799999 ], [ -115.2170109, 36.156018599799999 ], [ -115.2170109, 36.156015899799996 ], [ -115.2170082, 36.156015899799996 ], [ -115.2170082, 36.155951099799999 ], [ -115.2170055, 36.155951099799999 ], [ -115.2170055, 36.155913299799998 ], [ -115.2170082, 36.155913299799998 ], [ -115.2170082, 36.155907899799999 ], [ -115.217046, 36.155907899799999 ], [ -115.217046, 36.155905199799996 ], [ -115.217073, 36.155905199799996 ], [ -115.217073, 36.155907899799999 ], [ -115.2170757, 36.155907899799999 ], [ -115.2170757, 36.155932199799999 ], [ -115.2170784, 36.155932199799999 ], [ -115.2170784, 36.155986199799997 ], [ -115.2170757, 36.155986199799997 ], [ -115.2170757, 36.156005099799998 ], [ -115.2170784, 36.156005099799998 ], [ -115.2170784, 36.1560131998 ], [ -115.2170757, 36.1560131998 ], [ -115.2170757, 36.156018599799999 ], [ -115.217046, 36.156018599799999 ], [ -115.217046, 36.156021299799995 ] ] ] } },
{ "type": "Feature", "properties": { "value": 255.0 }, "geometry": { "type": "Polygon", "coordinates": [ [ [ -115.2163251, 36.1559267998 ], [ -115.2162981, 36.1559267998 ], [ -115.2162981, 36.155924099799996 ], [ -115.2162954, 36.155924099799996 ], [ -115.2162954, 36.155905199799996 ], [ -115.2162981, 36.155905199799996 ], [ -115.2162981, 36.1559024998 ], [ -115.2163251, 36.1559024998 ], [ -115.2163251, 36.155905199799996 ], [ -115.2163278, 36.155905199799996 ], [ -115.2163278, 36.155924099799996 ], [ -115.2163251, 36.155924099799996 ], [ -115.2163251, 36.1559267998 ] ] ] } },
{ "type": "Feature", "properties": { "value": 255.0 }, "geometry": { "type": "Polygon", "coordinates": [ [ [ -115.2174294, 36.155942999799997 ], [ -115.2173727, 36.155942999799997 ], [ -115.2173727, 36.155940299800001 ], [ -115.2173538, 36.155940299800001 ], [ -115.2173538, 36.155937599799998 ], [ -115.2173484, 36.155937599799998 ], [ -115.2173484, 36.155932199799999 ], [ -115.2173457, 36.155932199799999 ], [ -115.2173457, 36.155929499799996 ], [ -115.2173376, 36.155929499799996 ], [ -115.2173376, 36.1559267998 ], [ -115.217316, 36.1559267998 ], [ -115.217316, 36.155929499799996 ], [ -115.2173133, 36.155929499799996 ], [ -115.2173133, 36.155932199799999 ], [ -115.2173106, 36.155932199799999 ], [ -115.2173106, 36.155934899799995 ], [ -115.2173079, 36.155934899799995 ], [ -115.2173079, 36.155937599799998 ], [ -115.2172971, 36.155937599799998 ], [ -115.2172971, 36.155934899799995 ], [ -115.2172593, 36.155934899799995 ], [ -115.2172593, 36.155937599799998 ], [ -115.2172377, 36.155937599799998 ], [ -115.2172377, 36.155940299800001 ], [ -115.2172026, 36.155940299800001 ], [ -115.2172026, 36.155937599799998 ], [ -115.2171918, 36.155937599799998 ], [ -115.2171918, 36.155934899799995 ], [ -115.217127, 36.155934899799995 ], [ -115.217127, 36.155932199799999 ], [ -115.2171243, 36.155932199799999 ], [ -115.2171243, 36.1559213998 ], [ -115.217127, 36.1559213998 ], [ -115.217127, 36.155910599799995 ], [ -115.2171243, 36.155910599799995 ], [ -115.2171243, 36.155905199799996 ], [ -115.217127, 36.155905199799996 ], [ -115.217127, 36.155894399799998 ], [ -115.2171243, 36.155894399799998 ], [ -115.2171243, 36.155891699799994 ], [ -115.217127, 36.155891699799994 ], [ -115.217127, 36.155886299799995 ], [ -115.2171324, 36.155886299799995 ], [ -115.2171324, 36.155883599799999 ], [ -115.2171459, 36.155883599799999 ], [ -115.2171459, 36.155880899799996 ], [ -115.2171729, 36.155880899799996 ], [ -115.2171729, 36.1558781998 ], [ -115.2171891, 36.1558781998 ], [ -115.2171891, 36.155875499799997 ], [ -115.2171918, 36.155875499799997 ], [ -115.2171918, 36.155867399799995 ], [ -115.2171891, 36.155867399799995 ], [ -115.2171891, 36.155864699799999 ], [ -115.2171837, 36.155864699799999 ], [ -115.2171837, 36.155861999799995 ], [ -115.2171621, 36.155861999799995 ], [ -115.2171621, 36.155864699799999 ], [ -115.2171567, 36.155864699799999 ], [ -115.2171567, 36.155861999799995 ], [ -115.2171405, 36.155861999799995 ], [ -115.2171405, 36.155864699799999 ], [ -115.2171297, 36.155864699799999 ], [ -115.2171297, 36.155867399799995 ], [ -115.2171216, 36.155867399799995 ], [ -115.2171216, 36.155870099799998 ], [ -115.2171162, 36.155870099799998 ], [ -115.2171162, 36.155872799800001 ], [ -115.2171081, 36.155872799800001 ], [ -115.2171081, 36.155875499799997 ], [ -115.2170892, 36.155875499799997 ], [ -115.2170892, 36.155872799800001 ], [ -115.2170865, 36.155872799800001 ], [ -115.2170865, 36.155867399799995 ], [ -115.2170838, 36.155867399799995 ], [ -115.2170838, 36.1558538998 ], [ -115.2170811, 36.1558538998 ], [ -115.2170811, 36.155848499800001 ], [ -115.2170838, 36.155848499800001 ], [ -115.2170838, 36.155794499799995 ], [ -115.2170865, 36.155794499799995 ], [ -115.2170865, 36.155791799799999 ], [ -115.2170919, 36.155791799799999 ], [ -115.2170919, 36.155789099799996 ], [ -115.2171702, 36.155789099799996 ], [ -115.2171702, 36.155791799799999 ], [ -115.2172026, 36.155791799799999 ], [ -115.2172026, 36.155794499799995 ], [ -115.2172323, 36.155794499799995 ], [ -115.2172323, 36.155791799799999 ], [ -115.2172404, 36.155791799799999 ], [ -115.2172404, 36.155789099799996 ], [ -115.2172431, 36.155789099799996 ], [ -115.2172431, 36.1557863998 ], [ -115.2172485, 36.1557863998 ], [ -115.2172485, 36.155783699799997 ], [ -115.2173052, 36.155783699799997 ], [ -115.2173052, 36.1557863998 ], [ -115.2173511, 36.1557863998 ], [ -115.2173511, 36.155789099799996 ], [ -115.2173538, 36.155789099799996 ], [ -115.2173538, 36.155797199799999 ], [ -115.2173565, 36.155797199799999 ], [ -115.2173565, 36.155799899799995 ], [ -115.2174267, 36.155799899799995 ], [ -115.2174267, 36.155802599799998 ], [ -115.2174375, 36.155802599799998 ], [ -115.2174375, 36.155807999799997 ], [ -115.2174402, 36.155807999799997 ], [ -115.2174402, 36.1558349998 ], [ -115.2174375, 36.1558349998 ], [ -115.2174375, 36.155859299799999 ], [ -115.2174348, 36.155859299799999 ], [ -115.2174348, 36.155937599799998 ], [ -115.2174321, 36.155937599799998 ], [ -115.2174321, 36.155940299800001 ], [ -115.2174294, 36.155940299800001 ], [ -115.2174294, 36.155942999799997 ] ] ] } },
{ "type": "Feature", "properties": { "value": 255.0 }, "geometry": { "type": "Polygon", "coordinates": [ [ [ -115.2167166, 36.155816099799999 ], [ -115.2166896, 36.155816099799999 ], [ -115.2166896, 36.155813399799996 ], [ -115.2166869, 36.155813399799996 ], [ -115.2166869, 36.155791799799999 ], [ -115.2166896, 36.155791799799999 ], [ -115.2166896, 36.155789099799996 ], [ -115.2167166, 36.155789099799996 ], [ -115.2167166, 36.155791799799999 ], [ -115.2167193, 36.155791799799999 ], [ -115.2167193, 36.1558106998 ], [ -115.2167166, 36.1558106998 ], [ -115.2167166, 36.155816099799999 ] ] ] } },
{ "type": "Feature", "properties": { "value": 255.0 }, "geometry": { "type": "Polygon", "coordinates": [ [ [ -115.2164007, 36.155867399799995 ], [ -115.2163953, 36.155867399799995 ], [ -115.2163953, 36.155864699799999 ], [ -115.2163143, 36.155864699799999 ], [ -115.2163143, 36.155861999799995 ], [ -115.2163089, 36.155861999799995 ], [ -115.2163089, 36.155859299799999 ], [ -115.2163062, 36.155859299799999 ], [ -115.2163062, 36.155856599799996 ], [ -115.2163035, 36.155856599799996 ], [ -115.2163035, 36.155840399799999 ], [ -115.2163062, 36.155840399799999 ], [ -115.2163062, 36.155818799799995 ], [ -115.2163089, 36.155818799799995 ], [ -115.2163089, 36.155780999800001 ], [ -115.2163062, 36.155780999800001 ], [ -115.2163062, 36.155772899799999 ], [ -115.2163089, 36.155772899799999 ], [ -115.2163089, 36.155770199799996 ], [ -115.216317, 36.155770199799996 ], [ -115.216317, 36.1557674998 ], [ -115.216344, 36.1557674998 ], [ -115.216344, 36.155770199799996 ], [ -115.2163629, 36.155770199799996 ], [ -115.2163629, 36.1557674998 ], [ -115.2163764, 36.1557674998 ], [ -115.2163764, 36.155764799799996 ], [ -115.2163845, 36.155764799799996 ], [ -115.2163845, 36.1557620998 ], [ -115.2163926, 36.1557620998 ], [ -115.2163926, 36.155726999799995 ], [ -115.2163953, 36.155726999799995 ], [ -115.2163953, 36.155724299799999 ], [ -115.216398, 36.155724299799999 ], [ -115.216398, 36.155721599799996 ], [ -115.2164709, 36.155721599799996 ], [ -115.2164709, 36.155724299799999 ], [ -115.2164736, 36.155724299799999 ], [ -115.2164736, 36.155726999799995 ], [ -115.216476300000011, 36.155726999799995 ], [ -115.216476300000011, 36.155780999800001 ], [ -115.2164736, 36.155780999800001 ], [ -115.2164736, 36.155807999799997 ], [ -115.2164709, 36.155807999799997 ], [ -115.2164709, 36.155824199800001 ], [ -115.2164682, 36.155824199800001 ], [ -115.2164682, 36.155848499800001 ], [ -115.2164655, 36.155848499800001 ], [ -115.2164655, 36.155861999799995 ], [ -115.2164628, 36.155861999799995 ], [ -115.2164628, 36.155864699799999 ], [ -115.2164007, 36.155864699799999 ], [ -115.2164007, 36.155867399799995 ] ] ] } },
{ "type": "Feature", "properties": { "value": 255.0 }, "geometry": { "type": "Polygon", "coordinates": [ [ [ -115.2178047, 36.155980799799998 ], [ -115.2177021, 36.155980799799998 ], [ -115.2177021, 36.155978099799995 ], [ -115.2176967, 36.155978099799995 ], [ -115.2176967, 36.155975399799999 ], [ -115.217694, 36.155975399799999 ], [ -115.217694, 36.155972699799996 ], [ -115.2176913, 36.155972699799996 ], [ -115.2176913, 36.1559699998 ], [ -115.2176886, 36.1559699998 ], [ -115.2176886, 36.155967299799997 ], [ -115.2176859, 36.155967299799997 ], [ -115.2176859, 36.155964599800001 ], [ -115.2176832, 36.155964599800001 ], [ -115.2176832, 36.155961899799998 ], [ -115.2176805, 36.155961899799998 ], [ -115.2176805, 36.155959199799995 ], [ -115.2176751, 36.155959199799995 ], [ -115.2176751, 36.155956499799998 ], [ -115.2176724, 36.155956499799998 ], [ -115.2176724, 36.155953799799995 ], [ -115.2176697, 36.155953799799995 ], [ -115.2176697, 36.155951099799999 ], [ -115.217667, 36.155951099799999 ], [ -115.217667, 36.155948399799996 ], [ -115.2176616, 36.155948399799996 ], [ -115.2176616, 36.1559456998 ], [ -115.2176589, 36.1559456998 ], [ -115.2176589, 36.155934899799995 ], [ -115.2176562, 36.155934899799995 ], [ -115.2176562, 36.155932199799999 ], [ -115.2176535, 36.155932199799999 ], [ -115.2176535, 36.155929499799996 ], [ -115.21764, 36.155929499799996 ], [ -115.21764, 36.155932199799999 ], [ -115.217505, 36.155932199799999 ], [ -115.217505, 36.155929499799996 ], [ -115.2175023, 36.155929499799996 ], [ -115.2175023, 36.155913299799998 ], [ -115.2174996, 36.155913299799998 ], [ -115.2174996, 36.155791799799999 ], [ -115.2175023, 36.155791799799999 ], [ -115.2175023, 36.1557863998 ], [ -115.217505, 36.1557863998 ], [ -115.217505, 36.155783699799997 ], [ -115.2175131, 36.155783699799997 ], [ -115.2175131, 36.155780999800001 ], [ -115.217532, 36.155780999800001 ], [ -115.217532, 36.155778299799998 ], [ -115.2175374, 36.155778299799998 ], [ -115.2175374, 36.155780999800001 ], [ -115.2175401, 36.155780999800001 ], [ -115.2175401, 36.155778299799998 ], [ -115.2175428, 36.155778299799998 ], [ -115.2175428, 36.155780999800001 ], [ -115.2175536, 36.155780999800001 ], [ -115.2175536, 36.155778299799998 ], [ -115.2175887, 36.155778299799998 ], [ -115.2175887, 36.155780999800001 ], [ -115.2176373, 36.155780999800001 ], [ -115.2176373, 36.155783699799997 ], [ -115.21764, 36.155783699799997 ], [ -115.21764, 36.155780999800001 ], [ -115.2176454, 36.155780999800001 ], [ -115.2176454, 36.155783699799997 ], [ -115.2176535, 36.155783699799997 ], [ -115.2176535, 36.155780999800001 ], [ -115.2176643, 36.155780999800001 ], [ -115.2176643, 36.155753999799998 ], [ -115.217667, 36.155753999799998 ], [ -115.217667, 36.155745899799996 ], [ -115.2176643, 36.155745899799996 ], [ -115.2176643, 36.155732399800002 ], [ -115.2176616, 36.155732399800002 ], [ -115.2176616, 36.155726999799995 ], [ -115.2176643, 36.155726999799995 ], [ -115.2176643, 36.155724299799999 ], [ -115.2176697, 36.155724299799999 ], [ -115.2176697, 36.155721599799996 ], [ -115.2177372, 36.155721599799996 ], [ -115.2177372, 36.155724299799999 ], [ -115.2177453, 36.155724299799999 ], [ -115.2177453, 36.155726999799995 ], [ -115.217748, 36.155726999799995 ], [ -115.217748, 36.155729699799998 ], [ -115.2177534, 36.155729699799998 ], [ -115.2177534, 36.155732399800002 ], [ -115.2177939, 36.155732399800002 ], [ -115.2177939, 36.155735099799998 ], [ -115.2178317, 36.155735099799998 ], [ -115.2178317, 36.155737799800001 ], [ -115.2178344, 36.155737799800001 ], [ -115.2178344, 36.155740499799997 ], [ -115.2178371, 36.155740499799997 ], [ -115.2178371, 36.155759399799997 ], [ -115.2178344, 36.155759399799997 ], [ -115.2178344, 36.155799899799995 ], [ -115.2178317, 36.155799899799995 ], [ -115.2178317, 36.155802599799998 ], [ -115.2177453, 36.155802599799998 ], [ -115.2177453, 36.155807999799997 ], [ -115.2177426, 36.155807999799997 ], [ -115.2177426, 36.155843099799995 ], [ -115.2177453, 36.155843099799995 ], [ -115.2177453, 36.155851199799997 ], [ -115.2177426, 36.155851199799997 ], [ -115.2177426, 36.155870099799998 ], [ -115.2177453, 36.155870099799998 ], [ -115.2177453, 36.155880899799996 ], [ -115.217748, 36.155880899799996 ], [ -115.217748, 36.155883599799999 ], [ -115.2177588, 36.155883599799999 ], [ -115.2177588, 36.155886299799995 ], [ -115.2177966, 36.155886299799995 ], [ -115.2177966, 36.155888999799998 ], [ -115.2177993, 36.155888999799998 ], [ -115.2177993, 36.155891699799994 ], [ -115.217802, 36.155891699799994 ], [ -115.217802, 36.155899799799997 ], [ -115.2178047, 36.155899799799997 ], [ -115.2178047, 36.155940299800001 ], [ -115.2178074, 36.155940299800001 ], [ -115.2178074, 36.155967299799997 ], [ -115.2178047, 36.155967299799997 ], [ -115.2178047, 36.155980799799998 ] ] ] } },
{ "type": "Feature", "properties": { "value": 255.0 }, "geometry": { "type": "Polygon", "coordinates": [ [ [ -115.2166653, 36.155870099799998 ], [ -115.2165519, 36.155870099799998 ], [ -115.2165519, 36.155864699799999 ], [ -115.2165492, 36.155864699799999 ], [ -115.2165492, 36.155816099799999 ], [ -115.2165519, 36.155816099799999 ], [ -115.2165519, 36.155802599799998 ], [ -115.2165492, 36.155802599799998 ], [ -115.2165492, 36.155799899799995 ], [ -115.2165465, 36.155799899799995 ], [ -115.2165465, 36.155797199799999 ], [ -115.2165141, 36.155797199799999 ], [ -115.2165141, 36.155794499799995 ], [ -115.2165114, 36.155794499799995 ], [ -115.2165114, 36.155791799799999 ], [ -115.2165087, 36.155791799799999 ], [ -115.2165087, 36.155740499799997 ], [ -115.2165114, 36.155740499799997 ], [ -115.2165114, 36.155726999799995 ], [ -115.2165141, 36.155726999799995 ], [ -115.2165141, 36.155724299799999 ], [ -115.2165789, 36.155724299799999 ], [ -115.2165789, 36.155726999799995 ], [ -115.216587, 36.155726999799995 ], [ -115.216587, 36.155737799800001 ], [ -115.2165843, 36.155737799800001 ], [ -115.2165843, 36.155753999799998 ], [ -115.216587, 36.155753999799998 ], [ -115.216587, 36.155756699800001 ], [ -115.2165897, 36.155756699800001 ], [ -115.2165897, 36.155759399799997 ], [ -115.216614, 36.155759399799997 ], [ -115.216614, 36.1557620998 ], [ -115.2166545, 36.1557620998 ], [ -115.2166545, 36.155759399799997 ], [ -115.2166572, 36.155759399799997 ], [ -115.2166572, 36.1557620998 ], [ -115.2166599, 36.1557620998 ], [ -115.2166599, 36.155764799799996 ], [ -115.2166653, 36.155764799799996 ], [ -115.2166653, 36.1557674998 ], [ -115.216668, 36.1557674998 ], [ -115.216668, 36.155791799799999 ], [ -115.2166707, 36.155791799799999 ], [ -115.2166707, 36.155829599800001 ], [ -115.2166734, 36.155829599800001 ], [ -115.2166734, 36.155840399799999 ], [ -115.2166707, 36.155840399799999 ], [ -115.2166707, 36.155864699799999 ], [ -115.216668, 36.155864699799999 ], [ -115.216668, 36.155867399799995 ], [ -115.2166653, 36.155867399799995 ], [ -115.2166653, 36.155870099799998 ] ] ] } },
{ "type": "Feature", "properties": { "value": 255.0 }, "geometry": { "type": "Polygon", "coordinates": [ [ [ -115.2162603, 36.1554002998 ], [ -115.2162576, 36.1554002998 ], [ -115.2162576, 36.155330099799997 ], [ -115.2162603, 36.155330099799997 ], [ -115.2162603, 36.155373299799997 ], [ -115.216263, 36.155373299799997 ], [ -115.216263, 36.155389499800002 ], [ -115.2162603, 36.155389499800002 ], [ -115.2162603, 36.1554002998 ] ] ] } },
{ "type": "Feature", "properties": { "value": 255.0 }, "geometry": { "type": "Polygon", "coordinates": [ [ [ -115.2165681, 36.1554488998 ], [ -115.216506, 36.1554488998 ], [ -115.216506, 36.155446199799997 ], [ -115.2165033, 36.155446199799997 ], [ -115.2165033, 36.155435399799998 ], [ -115.2165006, 36.155435399799998 ], [ -115.2165006, 36.1553813998 ], [ -115.2165033, 36.1553813998 ], [ -115.2165033, 36.1553759998 ], [ -115.216506, 36.1553759998 ], [ -115.216506, 36.155343599799998 ], [ -115.2165087, 36.155343599799998 ], [ -115.2165087, 36.155316599800003 ], [ -115.2165114, 36.155316599800003 ], [ -115.2165114, 36.155313899799999 ], [ -115.2165222, 36.155313899799999 ], [ -115.2165222, 36.155311199799996 ], [ -115.2165546, 36.155311199799996 ], [ -115.2165546, 36.1553084998 ], [ -115.2166005, 36.1553084998 ], [ -115.2166005, 36.155311199799996 ], [ -115.2166194, 36.155311199799996 ], [ -115.2166194, 36.1553084998 ], [ -115.2166221, 36.1553084998 ], [ -115.2166221, 36.155311199799996 ], [ -115.2166275, 36.155311199799996 ], [ -115.2166275, 36.1553084998 ], [ -115.2166302, 36.1553084998 ], [ -115.2166302, 36.155311199799996 ], [ -115.2166572, 36.155311199799996 ], [ -115.2166572, 36.155313899799999 ], [ -115.2166599, 36.155313899799999 ], [ -115.2166599, 36.155319299799999 ], [ -115.2166626, 36.155319299799999 ], [ -115.2166626, 36.155335499799996 ], [ -115.2166653, 36.155335499799996 ], [ -115.2166653, 36.155343599799998 ], [ -115.2166626, 36.155343599799998 ], [ -115.2166626, 36.155378699799996 ], [ -115.2166599, 36.155378699799996 ], [ -115.2166599, 36.155392199799998 ], [ -115.2166572, 36.155392199799998 ], [ -115.2166572, 36.155394899800001 ], [ -115.2166545, 36.155394899800001 ], [ -115.2166545, 36.155397599799997 ], [ -115.2166329, 36.155397599799997 ], [ -115.2166329, 36.1554002998 ], [ -115.2166275, 36.1554002998 ], [ -115.2166275, 36.155402999799996 ], [ -115.2166248, 36.155402999799996 ], [ -115.2166248, 36.155408399800002 ], [ -115.2166194, 36.155408399800002 ], [ -115.2166194, 36.155411099799998 ], [ -115.2166059, 36.155411099799998 ], [ -115.2166059, 36.155408399800002 ], [ -115.2166005, 36.155408399800002 ], [ -115.2166005, 36.155405699799999 ], [ -115.2165951, 36.155405699799999 ], [ -115.2165951, 36.155402999799996 ], [ -115.2165897, 36.155402999799996 ], [ -115.2165897, 36.1554002998 ], [ -115.21657350000001, 36.1554002998 ], [ -115.21657350000001, 36.155402999799996 ], [ -115.2165708, 36.155402999799996 ], [ -115.2165708, 36.1554245998 ], [ -115.21657350000001, 36.1554245998 ], [ -115.21657350000001, 36.155435399799998 ], [ -115.2165708, 36.155435399799998 ], [ -115.2165708, 36.155446199799997 ], [ -115.2165681, 36.155446199799997 ], [ -115.2165681, 36.1554488998 ] ] ] } },
{ "type": "Feature", "properties": { "value": 255.0 }, "geometry": { "type": "Polygon", "coordinates": [ [ [ -115.2164655, 36.1554488998 ], [ -115.216425, 36.1554488998 ], [ -115.216425, 36.155446199799997 ], [ -115.2164034, 36.155446199799997 ], [ -115.2164034, 36.1554488998 ], [ -115.21638990000001, 36.1554488998 ], [ -115.21638990000001, 36.155446199799997 ], [ -115.2163872, 36.155446199799997 ], [ -115.2163872, 36.1554434998 ], [ -115.2163845, 36.1554434998 ], [ -115.2163845, 36.155435399799998 ], [ -115.2163818, 36.155435399799998 ], [ -115.2163818, 36.155427299799996 ], [ -115.2163845, 36.155427299799996 ], [ -115.2163845, 36.155413799800002 ], [ -115.2163818, 36.155413799800002 ], [ -115.2163818, 36.155405699799999 ], [ -115.216379100000012, 36.155405699799999 ], [ -115.216379100000012, 36.155402999799996 ], [ -115.2163035, 36.155402999799996 ], [ -115.2163035, 36.1554002998 ], [ -115.2163008, 36.1554002998 ], [ -115.2163008, 36.155362499799999 ], [ -115.2162981, 36.155362499799999 ], [ -115.2162981, 36.155343599799998 ], [ -115.2163008, 36.155343599799998 ], [ -115.2163008, 36.1553327998 ], [ -115.2162981, 36.1553327998 ], [ -115.2162981, 36.155324699799998 ], [ -115.2163008, 36.155324699799998 ], [ -115.2163008, 36.1553084998 ], [ -115.2163035, 36.1553084998 ], [ -115.2163035, 36.155305799799997 ], [ -115.2163386, 36.155305799799997 ], [ -115.2163386, 36.1553084998 ], [ -115.216344, 36.1553084998 ], [ -115.216344, 36.155305799799997 ], [ -115.2163737, 36.155305799799997 ], [ -115.2163737, 36.155284199800001 ], [ -115.2163764, 36.155284199800001 ], [ -115.2163764, 36.155281499799997 ], [ -115.216379100000012, 36.155281499799997 ], [ -115.216379100000012, 36.155278799800001 ], [ -115.2164061, 36.155278799800001 ], [ -115.2164061, 36.155281499799997 ], [ -115.2164493, 36.155281499799997 ], [ -115.2164493, 36.155284199800001 ], [ -115.216452, 36.155284199800001 ], [ -115.216452, 36.155294999799999 ], [ -115.2164547, 36.155294999799999 ], [ -115.2164547, 36.155311199799996 ], [ -115.21645740000001, 36.155311199799996 ], [ -115.21645740000001, 36.155346299800001 ], [ -115.2164601, 36.155346299800001 ], [ -115.2164601, 36.155386799799999 ], [ -115.2164628, 36.155386799799999 ], [ -115.2164628, 36.155397599799997 ], [ -115.2164655, 36.155397599799997 ], [ -115.2164655, 36.155438099800001 ], [ -115.2164682, 36.155438099800001 ], [ -115.2164682, 36.155446199799997 ], [ -115.2164655, 36.155446199799997 ], [ -115.2164655, 36.1554488998 ] ] ] } },
{ "type": "Feature", "properties": { "value": 255.0 }, "geometry": { "type": "Polygon", "coordinates": [ [ [ -115.2176292, 36.1554488998 ], [ -115.217613, 36.1554488998 ], [ -115.217613, 36.155446199799997 ], [ -115.2176103, 36.155446199799997 ], [ -115.2176103, 36.1554434998 ], [ -115.2176049, 36.1554434998 ], [ -115.2176049, 36.155440799799997 ], [ -115.2176022, 36.155440799799997 ], [ -115.2176022, 36.155438099800001 ], [ -115.2175995, 36.155438099800001 ], [ -115.2175995, 36.155435399799998 ], [ -115.2175968, 36.155435399799998 ], [ -115.2175968, 36.155432699800002 ], [ -115.2175914, 36.155432699800002 ], [ -115.2175914, 36.155429999799999 ], [ -115.2175887, 36.155429999799999 ], [ -115.2175887, 36.155427299799996 ], [ -115.217586, 36.155427299799996 ], [ -115.217586, 36.1554245998 ], [ -115.2175833, 36.1554245998 ], [ -115.2175833, 36.155421899799997 ], [ -115.2175779, 36.155421899799997 ], [ -115.2175779, 36.155419199800001 ], [ -115.2175752, 36.155419199800001 ], [ -115.2175752, 36.155416499799998 ], [ -115.2175698, 36.155416499799998 ], [ -115.2175698, 36.155413799800002 ], [ -115.2175671, 36.155413799800002 ], [ -115.2175671, 36.155411099799998 ], [ -115.2175617, 36.155411099799998 ], [ -115.2175617, 36.155408399800002 ], [ -115.217559, 36.155408399800002 ], [ -115.217559, 36.155405699799999 ], [ -115.2175563, 36.155405699799999 ], [ -115.2175563, 36.155402999799996 ], [ -115.2175536, 36.155402999799996 ], [ -115.2175536, 36.1554002998 ], [ -115.2175482, 36.1554002998 ], [ -115.2175482, 36.155397599799997 ], [ -115.2175455, 36.155397599799997 ], [ -115.2175455, 36.155392199799998 ], [ -115.2175428, 36.155392199799998 ], [ -115.2175428, 36.155389499800002 ], [ -115.2175401, 36.155389499800002 ], [ -115.2175401, 36.155386799799999 ], [ -115.2175374, 36.155386799799999 ], [ -115.2175374, 36.155384099799996 ], [ -115.2175347, 36.155384099799996 ], [ -115.2175347, 36.1553813998 ], [ -115.217532, 36.1553813998 ], [ -115.217532, 36.155378699799996 ], [ -115.2175266, 36.155378699799996 ], [ -115.2175266, 36.1553759998 ], [ -115.2175239, 36.1553759998 ], [ -115.2175239, 36.155373299799997 ], [ -115.2175212, 36.155373299799997 ], [ -115.2175212, 36.155370599800001 ], [ -115.2175185, 36.155370599800001 ], [ -115.2175185, 36.155367899799998 ], [ -115.2175158, 36.155367899799998 ], [ -115.2175158, 36.155365199800002 ], [ -115.2175104, 36.155365199800002 ], [ -115.2175104, 36.155362499799999 ], [ -115.2175077, 36.155362499799999 ], [ -115.2175077, 36.155359799799996 ], [ -115.217505, 36.155359799799996 ], [ -115.217505, 36.1553570998 ], [ -115.2175023, 36.1553570998 ], [ -115.2175023, 36.155354399799997 ], [ -115.2174996, 36.155354399799997 ], [ -115.2174996, 36.155351699800001 ], [ -115.2174969, 36.155351699800001 ], [ -115.2174969, 36.155348999799998 ], [ -115.2174942, 36.155348999799998 ], [ -115.2174942, 36.155346299800001 ], [ -115.2174888, 36.155346299800001 ], [ -115.2174888, 36.155335499799996 ], [ -115.2174915, 36.155335499799996 ], [ -115.2174915, 36.1553327998 ], [ -115.2174942, 36.1553327998 ], [ -115.2174942, 36.155330099799997 ], [ -115.2174996, 36.155330099799997 ], [ -115.2174996, 36.155327399800001 ], [ -115.2175023, 36.155327399800001 ], [ -115.2175023, 36.155324699799998 ], [ -115.2175077, 36.155324699799998 ], [ -115.2175077, 36.155321999800002 ], [ -115.2175131, 36.155321999800002 ], [ -115.2175131, 36.155319299799999 ], [ -115.2175158, 36.155319299799999 ], [ -115.2175158, 36.155316599800003 ], [ -115.2175185, 36.155316599800003 ], [ -115.2175185, 36.155313899799999 ], [ -115.2175212, 36.155313899799999 ], [ -115.2175212, 36.155311199799996 ], [ -115.2175347, 36.155311199799996 ], [ -115.2175347, 36.1553084998 ], [ -115.2175401, 36.1553084998 ], [ -115.2175401, 36.155311199799996 ], [ -115.2175563, 36.155311199799996 ], [ -115.2175563, 36.1553084998 ], [ -115.2175617, 36.1553084998 ], [ -115.2175617, 36.155311199799996 ], [ -115.2175671, 36.155311199799996 ], [ -115.2175671, 36.155313899799999 ], [ -115.2175725, 36.155313899799999 ], [ -115.2175725, 36.155311199799996 ], [ -115.2175752, 36.155311199799996 ], [ -115.2175752, 36.155300399799998 ], [ -115.2175725, 36.155300399799998 ], [ -115.2175725, 36.155292299799996 ], [ -115.2175698, 36.155292299799996 ], [ -115.2175698, 36.155286899799997 ], [ -115.2175671, 36.155286899799997 ], [ -115.2175671, 36.155276099799998 ], [ -115.2175644, 36.155276099799998 ], [ -115.2175644, 36.155270699799999 ], [ -115.2175671, 36.155270699799999 ], [ -115.2175671, 36.1552652998 ], [ -115.2175698, 36.1552652998 ], [ -115.2175698, 36.155262599799997 ], [ -115.2175725, 36.155262599799997 ], [ -115.2175725, 36.155259899800001 ], [ -115.2175752, 36.155259899800001 ], [ -115.2175752, 36.155257199799998 ], [ -115.2175806, 36.155257199799998 ], [ -115.2175806, 36.155254499800002 ], [ -115.217586, 36.155254499800002 ], [ -115.217586, 36.155251799799998 ], [ -115.2175914, 36.155251799799998 ], [ -115.2175914, 36.155249099800002 ], [ -115.2175941, 36.155249099800002 ], [ -115.2175941, 36.155246399799999 ], [ -115.2175995, 36.155246399799999 ], [ -115.2175995, 36.155243699799996 ], [ -115.2176022, 36.155243699799996 ], [ -115.2176022, 36.1552409998 ], [ -115.2176049, 36.1552409998 ], [ -115.2176049, 36.155238299799997 ], [ -115.2176103, 36.155238299799997 ], [ -115.2176103, 36.155235599800001 ], [ -115.217613, 36.155235599800001 ], [ -115.217613, 36.155232899799998 ], [ -115.2176157, 36.155232899799998 ], [ -115.2176157, 36.155230199800002 ], [ -115.2176211, 36.155230199800002 ], [ -115.2176211, 36.155227499799999 ], [ -115.2176238, 36.155227499799999 ], [ -115.2176238, 36.155224799800003 ], [ -115.2176292, 36.155224799800003 ], [ -115.2176292, 36.1552220998 ], [ -115.2176319, 36.1552220998 ], [ -115.2176319, 36.155219399799996 ], [ -115.2176373, 36.155219399799996 ], [ -115.2176373, 36.1552166998 ], [ -115.21764, 36.1552166998 ], [ -115.21764, 36.155213999799997 ], [ -115.2176508, 36.155213999799997 ], [ -115.2176508, 36.1552166998 ], [ -115.2176535, 36.1552166998 ], [ -115.2176535, 36.155219399799996 ], [ -115.2176562, 36.155219399799996 ], [ -115.2176562, 36.1552220998 ], [ -115.2176589, 36.1552220998 ], [ -115.2176589, 36.155224799800003 ], [ -115.2176643, 36.155224799800003 ], [ -115.2176643, 36.155227499799999 ], [ -115.217667, 36.155227499799999 ], [ -115.217667, 36.155230199800002 ], [ -115.2176697, 36.155230199800002 ], [ -115.2176697, 36.155232899799998 ], [ -115.2176724, 36.155232899799998 ], [ -115.2176724, 36.155235599800001 ], [ -115.2176751, 36.155235599800001 ], [ -115.2176751, 36.155238299799997 ], [ -115.2176778, 36.155238299799997 ], [ -115.2176778, 36.1552409998 ], [ -115.2176805, 36.1552409998 ], [ -115.2176805, 36.155243699799996 ], [ -115.2176832, 36.155243699799996 ], [ -115.2176832, 36.155246399799999 ], [ -115.2176859, 36.155246399799999 ], [ -115.2176859, 36.155249099800002 ], [ -115.2176886, 36.155249099800002 ], [ -115.2176886, 36.155251799799998 ], [ -115.2176913, 36.155251799799998 ], [ -115.2176913, 36.155254499800002 ], [ -115.217694, 36.155254499800002 ], [ -115.217694, 36.155270699799999 ], [ -115.2176913, 36.155270699799999 ], [ -115.2176913, 36.155273399800002 ], [ -115.2176886, 36.155273399800002 ], [ -115.2176886, 36.155284199800001 ], [ -115.2176913, 36.155284199800001 ], [ -115.2176913, 36.1552895998 ], [ -115.2176967, 36.1552895998 ], [ -115.2176967, 36.155292299799996 ], [ -115.2176994, 36.155292299799996 ], [ -115.2176994, 36.155294999799999 ], [ -115.2177021, 36.155294999799999 ], [ -115.2177021, 36.155297699800002 ], [ -115.2177075, 36.155297699800002 ], [ -115.2177075, 36.155300399799998 ], [ -115.2177129, 36.155300399799998 ], [ -115.2177129, 36.155303099800001 ], [ -115.2177183, 36.155303099800001 ], [ -115.2177183, 36.155305799799997 ], [ -115.2177237, 36.155305799799997 ], [ -115.2177237, 36.1553084998 ], [ -115.217726399999989, 36.1553084998 ], [ -115.217726399999989, 36.155311199799996 ], [ -115.2177372, 36.155311199799996 ], [ -115.2177372, 36.155313899799999 ], [ -115.2177399, 36.155313899799999 ], [ -115.2177399, 36.155316599800003 ], [ -115.2177426, 36.155316599800003 ], [ -115.2177426, 36.155321999800002 ], [ -115.2177453, 36.155321999800002 ], [ -115.2177453, 36.155324699799998 ], [ -115.217748, 36.155324699799998 ], [ -115.217748, 36.155327399800001 ], [ -115.2177507, 36.155327399800001 ], [ -115.2177507, 36.155335499799996 ], [ -115.2177534, 36.155335499799996 ], [ -115.2177534, 36.155338199799999 ], [ -115.2177561, 36.155338199799999 ], [ -115.2177561, 36.155340899800002 ], [ -115.2177588, 36.155340899800002 ], [ -115.2177588, 36.155343599799998 ], [ -115.2177642, 36.155343599799998 ], [ -115.2177642, 36.155346299800001 ], [ -115.2177696, 36.155346299800001 ], [ -115.2177696, 36.155348999799998 ], [ -115.2177723, 36.155348999799998 ], [ -115.2177723, 36.155351699800001 ], [ -115.2177777, 36.155351699800001 ], [ -115.2177777, 36.155354399799997 ], [ -115.2177804, 36.155354399799997 ], [ -115.2177804, 36.1553570998 ], [ -115.2177831, 36.1553570998 ], [ -115.2177831, 36.155362499799999 ], [ -115.2177858, 36.155362499799999 ], [ -115.2177858, 36.155378699799996 ], [ -115.2177831, 36.155378699799996 ], [ -115.2177831, 36.155389499800002 ], [ -115.2177804, 36.155389499800002 ], [ -115.2177804, 36.155392199799998 ], [ -115.2177777, 36.155392199799998 ], [ -115.2177777, 36.155394899800001 ], [ -115.2177723, 36.155394899800001 ], [ -115.2177723, 36.155397599799997 ], [ -115.2177696, 36.155397599799997 ], [ -115.2177696, 36.1554002998 ], [ -115.2177642, 36.1554002998 ], [ -115.2177642, 36.155405699799999 ], [ -115.2177615, 36.155405699799999 ], [ -115.2177615, 36.155408399800002 ], [ -115.2177561, 36.155408399800002 ], [ -115.2177561, 36.155411099799998 ], [ -115.2177507, 36.155411099799998 ], [ -115.2177507, 36.155413799800002 ], [ -115.2177426, 36.155413799800002 ], [ -115.2177426, 36.155416499799998 ], [ -115.2177372, 36.155416499799998 ], [ -115.2177372, 36.155413799800002 ], [ -115.2177291, 36.155413799800002 ], [ -115.2177291, 36.155411099799998 ], [ -115.217721, 36.155411099799998 ], [ -115.217721, 36.155408399800002 ], [ -115.2176994, 36.155408399800002 ], [ -115.2176994, 36.155405699799999 ], [ -115.2176778, 36.155405699799999 ], [ -115.2176778, 36.155408399800002 ], [ -115.2176751, 36.155408399800002 ], [ -115.2176751, 36.155413799800002 ], [ -115.2176724, 36.155413799800002 ], [ -115.2176724, 36.155416499799998 ], [ -115.217667, 36.155416499799998 ], [ -115.217667, 36.155419199800001 ], [ -115.2176616, 36.155419199800001 ], [ -115.2176616, 36.155421899799997 ], [ -115.2176562, 36.155421899799997 ], [ -115.2176562, 36.1554245998 ], [ -115.2176535, 36.1554245998 ], [ -115.2176535, 36.155427299799996 ], [ -115.2176481, 36.155427299799996 ], [ -115.2176481, 36.155429999799999 ], [ -115.2176454, 36.155429999799999 ], [ -115.2176454, 36.155435399799998 ], [ -115.2176427, 36.155435399799998 ], [ -115.2176427, 36.155438099800001 ], [ -115.21764, 36.155438099800001 ], [ -115.21764, 36.155440799799997 ], [ -115.2176373, 36.155440799799997 ], [ -115.2176373, 36.1554434998 ], [ -115.2176346, 36.1554434998 ], [ -115.2176346, 36.155446199799997 ], [ -115.2176292, 36.155446199799997 ], [ -115.2176292, 36.1554488998 ] ] ] } },
{ "type": "Feature", "properties": { "value": 255.0 }, "geometry": { "type": "Polygon", "coordinates": [ [ [ -115.2172971, 36.155454299799999 ], [ -115.217289, 36.155454299799999 ], [ -115.217289, 36.155451599799996 ], [ -115.2172836, 36.155451599799996 ], [ -115.2172836, 36.1554488998 ], [ -115.2172809, 36.1554488998 ], [ -115.2172809, 36.155446199799997 ], [ -115.2172755, 36.155446199799997 ], [ -115.2172755, 36.1554434998 ], [ -115.2172701, 36.1554434998 ], [ -115.2172701, 36.155440799799997 ], [ -115.2172647, 36.155440799799997 ], [ -115.2172647, 36.155438099800001 ], [ -115.2172593, 36.155438099800001 ], [ -115.2172593, 36.155435399799998 ], [ -115.2172566, 36.155435399799998 ], [ -115.2172566, 36.155432699800002 ], [ -115.2172539, 36.155432699800002 ], [ -115.2172539, 36.155429999799999 ], [ -115.2172485, 36.155429999799999 ], [ -115.2172485, 36.155427299799996 ], [ -115.2172458, 36.155427299799996 ], [ -115.2172458, 36.1554245998 ], [ -115.2172377, 36.1554245998 ], [ -115.2172377, 36.155421899799997 ], [ -115.2172323, 36.155421899799997 ], [ -115.2172323, 36.155411099799998 ], [ -115.217235, 36.155411099799998 ], [ -115.217235, 36.155408399800002 ], [ -115.2172377, 36.155408399800002 ], [ -115.2172377, 36.155402999799996 ], [ -115.2172404, 36.155402999799996 ], [ -115.2172404, 36.155386799799999 ], [ -115.2172377, 36.155386799799999 ], [ -115.2172377, 36.155384099799996 ], [ -115.217235, 36.155384099799996 ], [ -115.217235, 36.1553813998 ], [ -115.2172296, 36.1553813998 ], [ -115.2172296, 36.155378699799996 ], [ -115.2172242, 36.155378699799996 ], [ -115.2172242, 36.1553759998 ], [ -115.2172188, 36.1553759998 ], [ -115.2172188, 36.155373299799997 ], [ -115.2172134, 36.155373299799997 ], [ -115.2172134, 36.155370599800001 ], [ -115.2172107, 36.155370599800001 ], [ -115.2172107, 36.155367899799998 ], [ -115.2172053, 36.155367899799998 ], [ -115.2172053, 36.155365199800002 ], [ -115.2172026, 36.155365199800002 ], [ -115.2172026, 36.155362499799999 ], [ -115.2171972, 36.155362499799999 ], [ -115.2171972, 36.155359799799996 ], [ -115.2171945, 36.155359799799996 ], [ -115.2171945, 36.1553570998 ], [ -115.2171891, 36.1553570998 ], [ -115.2171891, 36.155354399799997 ], [ -115.2171864, 36.155354399799997 ], [ -115.2171864, 36.155351699800001 ], [ -115.217181, 36.155351699800001 ], [ -115.217181, 36.155340899800002 ], [ -115.2171837, 36.155340899800002 ], [ -115.2171837, 36.155338199799999 ], [ -115.2171864, 36.155338199799999 ], [ -115.2171864, 36.155335499799996 ], [ -115.2171891, 36.155335499799996 ], [ -115.2171891, 36.1553327998 ], [ -115.2171918, 36.1553327998 ], [ -115.2171918, 36.155330099799997 ], [ -115.2171945, 36.155330099799997 ], [ -115.2171945, 36.155327399800001 ], [ -115.2171972, 36.155327399800001 ], [ -115.2171972, 36.155324699799998 ], [ -115.2171999, 36.155324699799998 ], [ -115.2171999, 36.155321999800002 ], [ -115.2172026, 36.155321999800002 ], [ -115.2172026, 36.155319299799999 ], [ -115.2172053, 36.155319299799999 ], [ -115.2172053, 36.155316599800003 ], [ -115.217208, 36.155316599800003 ], [ -115.217208, 36.155313899799999 ], [ -115.2172107, 36.155313899799999 ], [ -115.2172107, 36.155311199799996 ], [ -115.2172134, 36.155311199799996 ], [ -115.2172134, 36.1553084998 ], [ -115.2172161, 36.1553084998 ], [ -115.2172161, 36.155305799799997 ], [ -115.2172215, 36.155305799799997 ], [ -115.2172215, 36.155303099800001 ], [ -115.2172242, 36.155303099800001 ], [ -115.2172242, 36.155300399799998 ], [ -115.2172269, 36.155300399799998 ], [ -115.2172269, 36.155297699800002 ], [ -115.2172296, 36.155297699800002 ], [ -115.2172296, 36.155294999799999 ], [ -115.2172323, 36.155294999799999 ], [ -115.2172323, 36.155292299799996 ], [ -115.217235, 36.155292299799996 ], [ -115.217235, 36.1552895998 ], [ -115.2172377, 36.1552895998 ], [ -115.2172377, 36.155286899799997 ], [ -115.2172404, 36.155286899799997 ], [ -115.2172404, 36.155284199800001 ], [ -115.2172431, 36.155284199800001 ], [ -115.2172431, 36.155281499799997 ], [ -115.2172458, 36.155281499799997 ], [ -115.2172458, 36.155278799800001 ], [ -115.2172485, 36.155278799800001 ], [ -115.2172485, 36.155276099799998 ], [ -115.2172512, 36.155276099799998 ], [ -115.2172512, 36.155273399800002 ], [ -115.2172539, 36.155273399800002 ], [ -115.2172539, 36.155270699799999 ], [ -115.2172566, 36.155270699799999 ], [ -115.2172566, 36.155267999799996 ], [ -115.2172593, 36.155267999799996 ], [ -115.2172593, 36.155262599799997 ], [ -115.217262, 36.155262599799997 ], [ -115.217262, 36.155259899800001 ], [ -115.2172647, 36.155259899800001 ], [ -115.2172647, 36.155257199799998 ], [ -115.2172674, 36.155257199799998 ], [ -115.2172674, 36.155251799799998 ], [ -115.2172701, 36.155251799799998 ], [ -115.2172701, 36.155249099800002 ], [ -115.2172728, 36.155249099800002 ], [ -115.2172728, 36.155246399799999 ], [ -115.2172755, 36.155246399799999 ], [ -115.2172755, 36.155243699799996 ], [ -115.2172782, 36.155243699799996 ], [ -115.2172782, 36.155238299799997 ], [ -115.2172809, 36.155238299799997 ], [ -115.2172809, 36.155235599800001 ], [ -115.2172836, 36.155235599800001 ], [ -115.2172836, 36.155232899799998 ], [ -115.217289, 36.155232899799998 ], [ -115.217289, 36.155230199800002 ], [ -115.2172917, 36.155230199800002 ], [ -115.2172917, 36.155224799800003 ], [ -115.2172944, 36.155224799800003 ], [ -115.2172944, 36.1552220998 ], [ -115.2172971, 36.1552220998 ], [ -115.2172971, 36.155219399799996 ], [ -115.2172998, 36.155219399799996 ], [ -115.2172998, 36.1552166998 ], [ -115.2173052, 36.1552166998 ], [ -115.2173052, 36.155213999799997 ], [ -115.2173106, 36.155213999799997 ], [ -115.2173106, 36.155211299800001 ], [ -115.2173214, 36.155211299800001 ], [ -115.2173214, 36.155213999799997 ], [ -115.2173295, 36.155213999799997 ], [ -115.2173295, 36.1552166998 ], [ -115.2173322, 36.1552166998 ], [ -115.2173322, 36.155219399799996 ], [ -115.2173376, 36.155219399799996 ], [ -115.2173376, 36.1552220998 ], [ -115.217343, 36.1552220998 ], [ -115.217343, 36.155224799800003 ], [ -115.2173484, 36.155224799800003 ], [ -115.2173484, 36.155227499799999 ], [ -115.2173511, 36.155227499799999 ], [ -115.2173511, 36.155230199800002 ], [ -115.2173565, 36.155230199800002 ], [ -115.2173565, 36.155232899799998 ], [ -115.2173619, 36.155232899799998 ], [ -115.2173619, 36.155235599800001 ], [ -115.2173646, 36.155235599800001 ], [ -115.2173646, 36.155238299799997 ], [ -115.2173673, 36.155238299799997 ], [ -115.2173673, 36.1552409998 ], [ -115.2173727, 36.1552409998 ], [ -115.2173727, 36.155243699799996 ], [ -115.2173754, 36.155243699799996 ], [ -115.2173754, 36.155246399799999 ], [ -115.2173781, 36.155246399799999 ], [ -115.2173781, 36.155249099800002 ], [ -115.2173808, 36.155249099800002 ], [ -115.2173808, 36.155251799799998 ], [ -115.2173835, 36.155251799799998 ], [ -115.2173835, 36.155254499800002 ], [ -115.2173889, 36.155254499800002 ], [ -115.2173889, 36.155257199799998 ], [ -115.2173916, 36.155257199799998 ], [ -115.2173916, 36.1552652998 ], [ -115.2173889, 36.1552652998 ], [ -115.2173889, 36.155270699799999 ], [ -115.2173862, 36.155270699799999 ], [ -115.2173862, 36.155273399800002 ], [ -115.2173835, 36.155273399800002 ], [ -115.2173835, 36.155276099799998 ], [ -115.2173808, 36.155276099799998 ], [ -115.2173808, 36.155278799800001 ], [ -115.2173781, 36.155278799800001 ], [ -115.2173781, 36.155281499799997 ], [ -115.2173754, 36.155281499799997 ], [ -115.2173754, 36.155284199800001 ], [ -115.2173727, 36.155284199800001 ], [ -115.2173727, 36.1552895998 ], [ -115.21737, 36.1552895998 ], [ -115.21737, 36.155292299799996 ], [ -115.2173673, 36.155292299799996 ], [ -115.2173673, 36.155300399799998 ], [ -115.21737, 36.155300399799998 ], [ -115.21737, 36.155303099800001 ], [ -115.2173754, 36.155303099800001 ], [ -115.2173754, 36.1553084998 ], [ -115.2173808, 36.1553084998 ], [ -115.2173808, 36.155311199799996 ], [ -115.2173835, 36.155311199799996 ], [ -115.2173835, 36.155313899799999 ], [ -115.2173862, 36.155313899799999 ], [ -115.2173862, 36.155316599800003 ], [ -115.2173916, 36.155316599800003 ], [ -115.2173916, 36.155319299799999 ], [ -115.217397, 36.155319299799999 ], [ -115.217397, 36.155321999800002 ], [ -115.2173997, 36.155321999800002 ], [ -115.2173997, 36.155324699799998 ], [ -115.2174024, 36.155324699799998 ], [ -115.2174024, 36.155327399800001 ], [ -115.2174051, 36.155327399800001 ], [ -115.2174051, 36.155330099799997 ], [ -115.2174105, 36.155330099799997 ], [ -115.2174105, 36.1553327998 ], [ -115.2174159, 36.1553327998 ], [ -115.2174159, 36.155335499799996 ], [ -115.2174186, 36.155335499799996 ], [ -115.2174186, 36.155338199799999 ], [ -115.217424, 36.155338199799999 ], [ -115.217424, 36.155340899800002 ], [ -115.2174267, 36.155340899800002 ], [ -115.2174267, 36.155343599799998 ], [ -115.2174321, 36.155343599799998 ], [ -115.2174321, 36.155346299800001 ], [ -115.2174348, 36.155346299800001 ], [ -115.2174348, 36.155348999799998 ], [ -115.2174375, 36.155348999799998 ], [ -115.2174375, 36.155354399799997 ], [ -115.2174402, 36.155354399799997 ], [ -115.2174402, 36.155362499799999 ], [ -115.2174375, 36.155362499799999 ], [ -115.2174375, 36.155365199800002 ], [ -115.2174348, 36.155365199800002 ], [ -115.2174348, 36.155367899799998 ], [ -115.2174321, 36.155367899799998 ], [ -115.2174321, 36.155370599800001 ], [ -115.2174294, 36.155370599800001 ], [ -115.2174294, 36.155373299799997 ], [ -115.2174267, 36.155373299799997 ], [ -115.2174267, 36.1553759998 ], [ -115.217424, 36.1553759998 ], [ -115.217424, 36.155378699799996 ], [ -115.2174213, 36.155378699799996 ], [ -115.2174213, 36.1553813998 ], [ -115.2174186, 36.1553813998 ], [ -115.2174186, 36.155384099799996 ], [ -115.2174159, 36.155384099799996 ], [ -115.2174159, 36.155389499800002 ], [ -115.2174132, 36.155389499800002 ], [ -115.2174132, 36.155392199799998 ], [ -115.2174105, 36.155392199799998 ], [ -115.2174105, 36.155394899800001 ], [ -115.2174078, 36.155394899800001 ], [ -115.2174078, 36.155397599799997 ], [ -115.2174051, 36.155397599799997 ], [ -115.2174051, 36.1554002998 ], [ -115.2174024, 36.1554002998 ], [ -115.2174024, 36.155402999799996 ], [ -115.2173997, 36.155402999799996 ], [ -115.2173997, 36.155405699799999 ], [ -115.217397, 36.155405699799999 ], [ -115.217397, 36.155408399800002 ], [ -115.2173943, 36.155408399800002 ], [ -115.2173943, 36.155411099799998 ], [ -115.2173916, 36.155411099799998 ], [ -115.2173916, 36.155413799800002 ], [ -115.2173889, 36.155413799800002 ], [ -115.2173889, 36.155416499799998 ], [ -115.2173862, 36.155416499799998 ], [ -115.2173862, 36.155419199800001 ], [ -115.2173835, 36.155419199800001 ], [ -115.2173835, 36.155421899799997 ], [ -115.2173808, 36.155421899799997 ], [ -115.2173808, 36.1554245998 ], [ -115.2173781, 36.1554245998 ], [ -115.2173781, 36.155427299799996 ], [ -115.2173754, 36.155427299799996 ], [ -115.2173754, 36.155429999799999 ], [ -115.2173727, 36.155429999799999 ], [ -115.2173727, 36.155432699800002 ], [ -115.21737, 36.155432699800002 ], [ -115.21737, 36.155435399799998 ], [ -115.2173673, 36.155435399799998 ], [ -115.2173673, 36.155438099800001 ], [ -115.2173646, 36.155438099800001 ], [ -115.2173646, 36.155440799799997 ], [ -115.2173619, 36.155440799799997 ], [ -115.2173619, 36.1554434998 ], [ -115.2173592, 36.1554434998 ], [ -115.2173592, 36.155446199799997 ], [ -115.2173565, 36.155446199799997 ], [ -115.2173565, 36.1554488998 ], [ -115.2173538, 36.1554488998 ], [ -115.2173538, 36.155451599799996 ], [ -115.2173403, 36.155451599799996 ], [ -115.2173403, 36.1554488998 ], [ -115.2173376, 36.1554488998 ], [ -115.2173376, 36.155446199799997 ], [ -115.2173295, 36.155446199799997 ], [ -115.2173295, 36.1554434998 ], [ -115.2173241, 36.1554434998 ], [ -115.2173241, 36.155440799799997 ], [ -115.2173106, 36.155440799799997 ], [ -115.2173106, 36.1554434998 ], [ -115.2173079, 36.1554434998 ], [ -115.2173079, 36.155446199799997 ], [ -115.2173052, 36.155446199799997 ], [ -115.2173052, 36.1554488998 ], [ -115.2172998, 36.1554488998 ], [ -115.2172998, 36.155451599799996 ], [ -115.2172971, 36.155451599799996 ], [ -115.2172971, 36.155454299799999 ] ] ] } },
{ "type": "Feature", "properties": { "value": 255.0 }, "geometry": { "type": "Polygon", "coordinates": [ [ [ -115.2178047, 36.155262599799997 ], [ -115.2177885, 36.155262599799997 ], [ -115.2177885, 36.155259899800001 ], [ -115.2177831, 36.155259899800001 ], [ -115.2177831, 36.155257199799998 ], [ -115.217775, 36.155257199799998 ], [ -115.217775, 36.155254499800002 ], [ -115.2177669, 36.155254499800002 ], [ -115.2177669, 36.155251799799998 ], [ -115.2177642, 36.155251799799998 ], [ -115.2177642, 36.155249099800002 ], [ -115.2177615, 36.155249099800002 ], [ -115.2177615, 36.155246399799999 ], [ -115.2177561, 36.155246399799999 ], [ -115.2177561, 36.155243699799996 ], [ -115.2177507, 36.155243699799996 ], [ -115.2177507, 36.1552409998 ], [ -115.2177453, 36.1552409998 ], [ -115.2177453, 36.155238299799997 ], [ -115.2177399, 36.155238299799997 ], [ -115.2177399, 36.155235599800001 ], [ -115.2177318, 36.155235599800001 ], [ -115.2177318, 36.155232899799998 ], [ -115.217726399999989, 36.155232899799998 ], [ -115.217726399999989, 36.155230199800002 ], [ -115.2177183, 36.155230199800002 ], [ -115.2177183, 36.155227499799999 ], [ -115.2177156, 36.155227499799999 ], [ -115.2177156, 36.155224799800003 ], [ -115.2177102, 36.155224799800003 ], [ -115.2177102, 36.1552220998 ], [ -115.2177048, 36.1552220998 ], [ -115.2177048, 36.155219399799996 ], [ -115.2176967, 36.155219399799996 ], [ -115.2176967, 36.1552166998 ], [ -115.2176886, 36.1552166998 ], [ -115.2176886, 36.155213999799997 ], [ -115.2176805, 36.155213999799997 ], [ -115.2176805, 36.155211299800001 ], [ -115.2176697, 36.155211299800001 ], [ -115.2176697, 36.155208599799998 ], [ -115.217667, 36.155208599799998 ], [ -115.217667, 36.155205899800002 ], [ -115.2176643, 36.155205899800002 ], [ -115.2176643, 36.1551977998 ], [ -115.2176616, 36.1551977998 ], [ -115.2176616, 36.155189699799998 ], [ -115.2176643, 36.155189699799998 ], [ -115.2176643, 36.155184299799998 ], [ -115.217667, 36.155184299799998 ], [ -115.217667, 36.155181599800002 ], [ -115.2176697, 36.155181599800002 ], [ -115.2176697, 36.155178899799999 ], [ -115.2176724, 36.155178899799999 ], [ -115.2176724, 36.155176199799996 ], [ -115.2176751, 36.155176199799996 ], [ -115.2176751, 36.155170799799997 ], [ -115.2176778, 36.155170799799997 ], [ -115.2176778, 36.155165399799998 ], [ -115.2176805, 36.155165399799998 ], [ -115.2176805, 36.155159999799999 ], [ -115.2176832, 36.155159999799999 ], [ -115.2176832, 36.155154599799999 ], [ -115.2176859, 36.155154599799999 ], [ -115.2176859, 36.155151899799996 ], [ -115.2176886, 36.155151899799996 ], [ -115.2176886, 36.1551491998 ], [ -115.2176913, 36.1551491998 ], [ -115.2176913, 36.155146499799997 ], [ -115.217694, 36.155146499799997 ], [ -115.217694, 36.155141099799998 ], [ -115.2176967, 36.155141099799998 ], [ -115.2176967, 36.155135699799999 ], [ -115.2176994, 36.155135699799999 ], [ -115.2176994, 36.1551302998 ], [ -115.2177021, 36.1551302998 ], [ -115.2177021, 36.155124899800001 ], [ -115.2177048, 36.155124899800001 ], [ -115.2177048, 36.155122199799997 ], [ -115.2177021, 36.155122199799997 ], [ -115.2177021, 36.155119499800001 ], [ -115.2177048, 36.155119499800001 ], [ -115.2177048, 36.155116799799998 ], [ -115.2177075, 36.155116799799998 ], [ -115.2177075, 36.155114099800002 ], [ -115.2177102, 36.155114099800002 ], [ -115.2177102, 36.1551059998 ], [ -115.2177129, 36.1551059998 ], [ -115.2177129, 36.155097899799998 ], [ -115.217721, 36.155097899799998 ], [ -115.217721, 36.155092499799999 ], [ -115.2177237, 36.155092499799999 ], [ -115.2177237, 36.155089799800002 ], [ -115.2177318, 36.155089799800002 ], [ -115.2177318, 36.155087099799999 ], [ -115.2177345, 36.155087099799999 ], [ -115.2177345, 36.155084399799996 ], [ -115.2177372, 36.155084399799996 ], [ -115.2177372, 36.155078999799997 ], [ -115.2177399, 36.155078999799997 ], [ -115.2177399, 36.155076299800001 ], [ -115.2177426, 36.155076299800001 ], [ -115.2177426, 36.155073599799998 ], [ -115.2177453, 36.155073599799998 ], [ -115.2177453, 36.155070899800002 ], [ -115.217748, 36.155070899800002 ], [ -115.217748, 36.155068199799999 ], [ -115.2177642, 36.155068199799999 ], [ -115.2177642, 36.155065499800003 ], [ -115.2177723, 36.155065499800003 ], [ -115.2177723, 36.155068199799999 ], [ -115.2177804, 36.155068199799999 ], [ -115.2177804, 36.155070899800002 ], [ -115.2177939, 36.155070899800002 ], [ -115.2177939, 36.155073599799998 ], [ -115.2178047, 36.155073599799998 ], [ -115.2178047, 36.155076299800001 ], [ -115.2178182, 36.155076299800001 ], [ -115.2178182, 36.155078999799997 ], [ -115.2178236, 36.155078999799997 ], [ -115.2178236, 36.1550816998 ], [ -115.217829, 36.1550816998 ], [ -115.217829, 36.155084399799996 ], [ -115.2178317, 36.155084399799996 ], [ -115.2178317, 36.155087099799999 ], [ -115.2178344, 36.155087099799999 ], [ -115.2178344, 36.155089799800002 ], [ -115.2178398, 36.155089799800002 ], [ -115.2178398, 36.155092499799999 ], [ -115.217842499999989, 36.155092499799999 ], [ -115.217842499999989, 36.155095199800002 ], [ -115.2178479, 36.155095199800002 ], [ -115.2178479, 36.155097899799998 ], [ -115.2178506, 36.155097899799998 ], [ -115.2178506, 36.155100599800001 ], [ -115.2178587, 36.155100599800001 ], [ -115.2178587, 36.155103299799997 ], [ -115.2178614, 36.155103299799997 ], [ -115.2178614, 36.1551059998 ], [ -115.2178668, 36.1551059998 ], [ -115.2178668, 36.155108699800003 ], [ -115.2178695, 36.155108699800003 ], [ -115.2178695, 36.155111399799999 ], [ -115.2178722, 36.155111399799999 ], [ -115.2178722, 36.155114099800002 ], [ -115.2178776, 36.155114099800002 ], [ -115.2178776, 36.155116799799998 ], [ -115.217883, 36.155116799799998 ], [ -115.217883, 36.155119499800001 ], [ -115.2178884, 36.155119499800001 ], [ -115.2178884, 36.155122199799997 ], [ -115.217891099999989, 36.155122199799997 ], [ -115.217891099999989, 36.155124899800001 ], [ -115.2178938, 36.155124899800001 ], [ -115.2178938, 36.155135699799999 ], [ -115.217891099999989, 36.155135699799999 ], [ -115.217891099999989, 36.155141099799998 ], [ -115.2178884, 36.155141099799998 ], [ -115.2178884, 36.155143799800001 ], [ -115.2178857, 36.155143799800001 ], [ -115.2178857, 36.1551491998 ], [ -115.217883, 36.1551491998 ], [ -115.217883, 36.155154599799999 ], [ -115.2178803, 36.155154599799999 ], [ -115.2178803, 36.155159999799999 ], [ -115.2178776, 36.155159999799999 ], [ -115.2178776, 36.155165399799998 ], [ -115.2178749, 36.155165399799998 ], [ -115.2178749, 36.155170799799997 ], [ -115.2178722, 36.155170799799997 ], [ -115.2178722, 36.155176199799996 ], [ -115.2178695, 36.155176199799996 ], [ -115.2178695, 36.155178899799999 ], [ -115.2178668, 36.155178899799999 ], [ -115.2178668, 36.155184299799998 ], [ -115.2178641, 36.155184299799998 ], [ -115.2178641, 36.155189699799998 ], [ -115.2178614, 36.155189699799998 ], [ -115.2178614, 36.155192399800001 ], [ -115.2178587, 36.155192399800001 ], [ -115.2178587, 36.1551977998 ], [ -115.217856, 36.1551977998 ], [ -115.217856, 36.155203199799999 ], [ -115.2178533, 36.155203199799999 ], [ -115.2178533, 36.155205899800002 ], [ -115.2178506, 36.155205899800002 ], [ -115.2178506, 36.155208599799998 ], [ -115.2178479, 36.155208599799998 ], [ -115.2178479, 36.155213999799997 ], [ -115.2178452, 36.155213999799997 ], [ -115.2178452, 36.1552166998 ], [ -115.217842499999989, 36.1552166998 ], [ -115.217842499999989, 36.155219399799996 ], [ -115.2178398, 36.155219399799996 ], [ -115.2178398, 36.155224799800003 ], [ -115.2178344, 36.155224799800003 ], [ -115.2178344, 36.155227499799999 ], [ -115.2178317, 36.155227499799999 ], [ -115.2178317, 36.155230199800002 ], [ -115.217829, 36.155230199800002 ], [ -115.217829, 36.155232899799998 ], [ -115.2178263, 36.155232899799998 ], [ -115.2178263, 36.155238299799997 ], [ -115.2178236, 36.155238299799997 ], [ -115.2178236, 36.1552409998 ], [ -115.2178209, 36.1552409998 ], [ -115.2178209, 36.155246399799999 ], [ -115.2178182, 36.155246399799999 ], [ -115.2178182, 36.155249099800002 ], [ -115.2178155, 36.155249099800002 ], [ -115.2178155, 36.155251799799998 ], [ -115.2178128, 36.155251799799998 ], [ -115.2178128, 36.155254499800002 ], [ -115.2178101, 36.155254499800002 ], [ -115.2178101, 36.155257199799998 ], [ -115.2178074, 36.155257199799998 ], [ -115.2178074, 36.155259899800001 ], [ -115.2178047, 36.155259899800001 ], [ -115.2178047, 36.155262599799997 ] ] ] } },
{ "type": "Feature", "properties": { "value": 255.0 }, "geometry": { "type": "Polygon", "coordinates": [ [ [ -115.2164493, 36.155200499800003 ], [ -115.2163872, 36.155200499800003 ], [ -115.2163872, 36.155178899799999 ], [ -115.2163845, 36.155178899799999 ], [ -115.2163845, 36.155176199799996 ], [ -115.2163359, 36.155176199799996 ], [ -115.2163359, 36.1551734998 ], [ -115.2163035, 36.1551734998 ], [ -115.2163035, 36.155170799799997 ], [ -115.2163008, 36.155170799799997 ], [ -115.2163008, 36.155154599799999 ], [ -115.2162981, 36.155154599799999 ], [ -115.2162981, 36.1551491998 ], [ -115.2163008, 36.1551491998 ], [ -115.2163008, 36.155084399799996 ], [ -115.2163035, 36.155084399799996 ], [ -115.2163035, 36.1550816998 ], [ -115.2163143, 36.1550816998 ], [ -115.2163143, 36.155078999799997 ], [ -115.2163278, 36.155078999799997 ], [ -115.2163278, 36.1550816998 ], [ -115.216379100000012, 36.1550816998 ], [ -115.216379100000012, 36.155078999799997 ], [ -115.2163953, 36.155078999799997 ], [ -115.2163953, 36.155076299800001 ], [ -115.2164115, 36.155076299800001 ], [ -115.2164115, 36.155073599799998 ], [ -115.216425, 36.155073599799998 ], [ -115.216425, 36.155070899800002 ], [ -115.2164331, 36.155070899800002 ], [ -115.2164331, 36.155068199799999 ], [ -115.2164439, 36.155068199799999 ], [ -115.2164439, 36.155065499800003 ], [ -115.2164493, 36.155065499800003 ], [ -115.2164493, 36.1550627998 ], [ -115.2164601, 36.1550627998 ], [ -115.2164601, 36.155076299800001 ], [ -115.2164628, 36.155076299800001 ], [ -115.2164628, 36.155097899799998 ], [ -115.2164601, 36.155097899799998 ], [ -115.2164601, 36.155157299800003 ], [ -115.21645740000001, 36.155157299800003 ], [ -115.21645740000001, 36.155176199799996 ], [ -115.2164547, 36.155176199799996 ], [ -115.2164547, 36.155186999800002 ], [ -115.216452, 36.155186999800002 ], [ -115.216452, 36.1551977998 ], [ -115.2164493, 36.1551977998 ], [ -115.2164493, 36.155200499800003 ] ] ] } },
{ "type": "Feature", "properties": { "value": 255.0 }, "geometry": { "type": "Polygon", "coordinates": [ [ [ -115.2166599, 36.155181599800002 ], [ -115.216614, 36.155181599800002 ], [ -115.216614, 36.155178899799999 ], [ -115.2166113, 36.155178899799999 ], [ -115.2166113, 36.155181599800002 ], [ -115.2165519, 36.155181599800002 ], [ -115.2165519, 36.155178899799999 ], [ -115.2165492, 36.155178899799999 ], [ -115.2165492, 36.1551734998 ], [ -115.2165465, 36.1551734998 ], [ -115.2165465, 36.155157299800003 ], [ -115.2165411, 36.155157299800003 ], [ -115.2165411, 36.155154599799999 ], [ -115.2165141, 36.155154599799999 ], [ -115.2165141, 36.155151899799996 ], [ -115.2165114, 36.155151899799996 ], [ -115.2165114, 36.155138399800002 ], [ -115.2165087, 36.155138399800002 ], [ -115.2165087, 36.155111399799999 ], [ -115.216506, 36.155111399799999 ], [ -115.216506, 36.155100599800001 ], [ -115.2165033, 36.155100599800001 ], [ -115.2165033, 36.155095199800002 ], [ -115.216506, 36.155095199800002 ], [ -115.216506, 36.155068199799999 ], [ -115.2165033, 36.155068199799999 ], [ -115.2165033, 36.1550384998 ], [ -115.216506, 36.1550384998 ], [ -115.216506, 36.155035799799997 ], [ -115.21657350000001, 36.155035799799997 ], [ -115.21657350000001, 36.1550384998 ], [ -115.2165762, 36.1550384998 ], [ -115.2165762, 36.155041199800003 ], [ -115.2165789, 36.155041199800003 ], [ -115.2165789, 36.155051999800001 ], [ -115.2165762, 36.155051999800001 ], [ -115.2165762, 36.155054699799997 ], [ -115.2165789, 36.155054699799997 ], [ -115.2165789, 36.155065499800003 ], [ -115.2165816, 36.155065499800003 ], [ -115.2165816, 36.155068199799999 ], [ -115.2165843, 36.155068199799999 ], [ -115.2165843, 36.155070899800002 ], [ -115.2166275, 36.155070899800002 ], [ -115.2166275, 36.155073599799998 ], [ -115.2166302, 36.155073599799998 ], [ -115.2166302, 36.155076299800001 ], [ -115.2166356, 36.155076299800001 ], [ -115.2166356, 36.155078999799997 ], [ -115.2166329, 36.155078999799997 ], [ -115.2166329, 36.155092499799999 ], [ -115.2166437, 36.155092499799999 ], [ -115.2166437, 36.155095199800002 ], [ -115.2166626, 36.155095199800002 ], [ -115.2166626, 36.155097899799998 ], [ -115.2166653, 36.155097899799998 ], [ -115.2166653, 36.155100599800001 ], [ -115.216668, 36.155100599800001 ], [ -115.216668, 36.155111399799999 ], [ -115.2166653, 36.155111399799999 ], [ -115.2166653, 36.155176199799996 ], [ -115.2166626, 36.155176199799996 ], [ -115.2166626, 36.155178899799999 ], [ -115.2166599, 36.155178899799999 ], [ -115.2166599, 36.155181599800002 ] ] ] } },
{ "type": "Feature", "properties": { "value": 255.0 }, "geometry": { "type": "Polygon", "coordinates": [ [ [ -115.2171702, 36.155151899799996 ], [ -115.2171162, 36.155151899799996 ], [ -115.2171162, 36.1551491998 ], [ -115.2171135, 36.1551491998 ], [ -115.2171135, 36.155143799800001 ], [ -115.2171108, 36.155143799800001 ], [ -115.2171108, 36.155127599799997 ], [ -115.2171081, 36.155127599799997 ], [ -115.2171081, 36.155122199799997 ], [ -115.2171108, 36.155122199799997 ], [ -115.2171108, 36.155116799799998 ], [ -115.2171081, 36.155116799799998 ], [ -115.2171081, 36.155111399799999 ], [ -115.2171027, 36.155111399799999 ], [ -115.2171027, 36.155108699800003 ], [ -115.2170676, 36.155108699800003 ], [ -115.2170676, 36.1551059998 ], [ -115.2170649, 36.1551059998 ], [ -115.2170649, 36.155100599800001 ], [ -115.2170622, 36.155100599800001 ], [ -115.2170622, 36.1550816998 ], [ -115.2170595, 36.1550816998 ], [ -115.2170595, 36.1550627998 ], [ -115.2170622, 36.1550627998 ], [ -115.2170622, 36.1550573998 ], [ -115.2170649, 36.1550573998 ], [ -115.2170649, 36.155041199800003 ], [ -115.2170622, 36.155041199800003 ], [ -115.2170622, 36.155033099800001 ], [ -115.2170595, 36.155033099800001 ], [ -115.2170595, 36.155027699800002 ], [ -115.2170568, 36.155027699800002 ], [ -115.2170568, 36.155016899800003 ], [ -115.2170595, 36.155016899800003 ], [ -115.2170595, 36.155006099799998 ], [ -115.2170622, 36.155006099799998 ], [ -115.2170622, 36.155000699799999 ], [ -115.2170649, 36.155000699799999 ], [ -115.2170649, 36.154997999800003 ], [ -115.2170676, 36.154997999800003 ], [ -115.2170676, 36.154992599800003 ], [ -115.2170703, 36.154992599800003 ], [ -115.2170703, 36.1549898998 ], [ -115.217073, 36.1549898998 ], [ -115.217073, 36.154987199799997 ], [ -115.2170757, 36.154987199799997 ], [ -115.2170757, 36.154984499800001 ], [ -115.2170811, 36.154984499800001 ], [ -115.2170811, 36.154981799799998 ], [ -115.2170919, 36.154981799799998 ], [ -115.2170919, 36.154979099800002 ], [ -115.2171297, 36.154979099800002 ], [ -115.2171297, 36.154981799799998 ], [ -115.2171945, 36.154981799799998 ], [ -115.2171945, 36.154979099800002 ], [ -115.2172458, 36.154979099800002 ], [ -115.2172458, 36.154981799799998 ], [ -115.2172485, 36.154981799799998 ], [ -115.2172485, 36.154997999800003 ], [ -115.2172512, 36.154997999800003 ], [ -115.2172512, 36.155024999799998 ], [ -115.2172539, 36.155024999799998 ], [ -115.2172539, 36.155033099800001 ], [ -115.2172566, 36.155033099800001 ], [ -115.2172566, 36.155035799799997 ], [ -115.2172674, 36.155035799799997 ], [ -115.2172674, 36.1550384998 ], [ -115.2172728, 36.1550384998 ], [ -115.2172728, 36.155041199800003 ], [ -115.2172755, 36.155041199800003 ], [ -115.2172755, 36.155043899799999 ], [ -115.2172782, 36.155043899799999 ], [ -115.2172782, 36.1550573998 ], [ -115.2172809, 36.1550573998 ], [ -115.2172809, 36.155100599800001 ], [ -115.2172782, 36.155100599800001 ], [ -115.2172782, 36.155114099800002 ], [ -115.2172755, 36.155114099800002 ], [ -115.2172755, 36.155141099799998 ], [ -115.2172728, 36.155141099799998 ], [ -115.2172728, 36.155146499799997 ], [ -115.2172701, 36.155146499799997 ], [ -115.2172701, 36.1551491998 ], [ -115.2171702, 36.1551491998 ], [ -115.2171702, 36.155151899799996 ] ] ] } },
{ "type": "Feature", "properties": { "value": 255.0 }, "geometry": { "type": "Polygon", "coordinates": [ [ [ -115.2178236, 36.155022299800002 ], [ -115.2177561, 36.155022299800002 ], [ -115.2177561, 36.155019599799999 ], [ -115.217694, 36.155019599799999 ], [ -115.217694, 36.155016899800003 ], [ -115.2176913, 36.155016899800003 ], [ -115.2176913, 36.154992599800003 ], [ -115.217694, 36.154992599800003 ], [ -115.217694, 36.154968299799997 ], [ -115.2176967, 36.154968299799997 ], [ -115.2176967, 36.154943999799997 ], [ -115.217694, 36.154943999799997 ], [ -115.217694, 36.154941299800001 ], [ -115.2176967, 36.154941299800001 ], [ -115.2176967, 36.154935899800002 ], [ -115.217694, 36.154935899800002 ], [ -115.217694, 36.154933199799999 ], [ -115.2176481, 36.154933199799999 ], [ -115.2176481, 36.154927799799999 ], [ -115.2176454, 36.154927799799999 ], [ -115.2176454, 36.154892699800001 ], [ -115.2176427, 36.154892699800001 ], [ -115.2176427, 36.154860299799999 ], [ -115.21764, 36.154860299799999 ], [ -115.21764, 36.154849499800001 ], [ -115.2176427, 36.154849499800001 ], [ -115.2176427, 36.154844099800002 ], [ -115.2176454, 36.154844099800002 ], [ -115.2176454, 36.154841399799999 ], [ -115.2176562, 36.154841399799999 ], [ -115.2176562, 36.154838699800003 ], [ -115.2176697, 36.154838699800003 ], [ -115.2176697, 36.154841399799999 ], [ -115.2176886, 36.154841399799999 ], [ -115.2176886, 36.154844099800002 ], [ -115.217775, 36.154844099800002 ], [ -115.217775, 36.154846799799998 ], [ -115.217856, 36.154846799799998 ], [ -115.217856, 36.154852199799997 ], [ -115.2178587, 36.154852199799997 ], [ -115.2178587, 36.154895399799997 ], [ -115.2178614, 36.154895399799997 ], [ -115.2178614, 36.154900799800004 ], [ -115.2178587, 36.154900799800004 ], [ -115.2178587, 36.154941299800001 ], [ -115.2178614, 36.154941299800001 ], [ -115.2178614, 36.154943999799997 ], [ -115.2178641, 36.154943999799997 ], [ -115.2178641, 36.1549466998 ], [ -115.2178668, 36.1549466998 ], [ -115.2178668, 36.154949399800003 ], [ -115.2178938, 36.154949399800003 ], [ -115.2178938, 36.154954799800002 ], [ -115.2178965, 36.154954799800002 ], [ -115.2178965, 36.155016899800003 ], [ -115.2178938, 36.155016899800003 ], [ -115.2178938, 36.155019599799999 ], [ -115.2178236, 36.155019599799999 ], [ -115.2178236, 36.155022299800002 ] ] ] } },
{ "type": "Feature", "properties": { "value": 255.0 }, "geometry": { "type": "Polygon", "coordinates": [ [ [ -115.2167058, 36.154692899800004 ], [ -115.2167031, 36.154692899800004 ], [ -115.2167031, 36.154690199800001 ], [ -115.2167004, 36.154690199800001 ], [ -115.2167004, 36.154687499799998 ], [ -115.2167031, 36.154687499799998 ], [ -115.2167031, 36.154684799800002 ], [ -115.2167004, 36.154684799800002 ], [ -115.2167004, 36.154682099799999 ], [ -115.2166977, 36.154682099799999 ], [ -115.2166977, 36.154692899800004 ], [ -115.2166923, 36.154692899800004 ], [ -115.2166923, 36.154690199800001 ], [ -115.2166896, 36.154690199800001 ], [ -115.2166896, 36.154692899800004 ], [ -115.2166788, 36.154692899800004 ], [ -115.2166788, 36.154687499799998 ], [ -115.2166761, 36.154687499799998 ], [ -115.2166761, 36.154679399800003 ], [ -115.2166734, 36.154679399800003 ], [ -115.2166734, 36.154673999800004 ], [ -115.2166761, 36.154673999800004 ], [ -115.2166761, 36.154660499800002 ], [ -115.2166815, 36.154660499800002 ], [ -115.2166815, 36.154663199799998 ], [ -115.2166842, 36.154663199799998 ], [ -115.2166842, 36.154665899800001 ], [ -115.2166896, 36.154665899800001 ], [ -115.2166896, 36.154663199799998 ], [ -115.2166869, 36.154663199799998 ], [ -115.2166869, 36.154657799799999 ], [ -115.2167031, 36.154657799799999 ], [ -115.2167031, 36.154663199799998 ], [ -115.2167058, 36.154663199799998 ], [ -115.2167058, 36.1546766998 ], [ -115.21670850000001, 36.1546766998 ], [ -115.21670850000001, 36.154687499799998 ], [ -115.2167058, 36.154687499799998 ], [ -115.2167058, 36.154692899800004 ] ], [ [ -115.2166923, 36.154687499799998 ], [ -115.2166923, 36.154684799800002 ], [ -115.2166896, 36.154684799800002 ], [ -115.2166896, 36.154687499799998 ], [ -115.2166923, 36.154687499799998 ] ] ] } },
{ "type": "Feature", "properties": { "value": 255.0 }, "geometry": { "type": "Polygon", "coordinates": [ [ [ -115.217235, 36.154817099799999 ], [ -115.2170757, 36.154817099799999 ], [ -115.2170757, 36.154814399800003 ], [ -115.217073, 36.154814399800003 ], [ -115.217073, 36.1547441998 ], [ -115.2170703, 36.1547441998 ], [ -115.2170703, 36.154741499800004 ], [ -115.217073, 36.154741499800004 ], [ -115.217073, 36.154714499800001 ], [ -115.2170757, 36.154714499800001 ], [ -115.2170757, 36.154706399799998 ], [ -115.2170892, 36.154706399799998 ], [ -115.2170892, 36.154703699800002 ], [ -115.2171027, 36.154703699800002 ], [ -115.2171027, 36.154700999799999 ], [ -115.2171054, 36.154700999799999 ], [ -115.2171054, 36.154673999800004 ], [ -115.2171081, 36.154673999800004 ], [ -115.2171081, 36.154660499800002 ], [ -115.2171108, 36.154660499800002 ], [ -115.2171108, 36.154655099800003 ], [ -115.2171162, 36.154655099800003 ], [ -115.2171162, 36.1546523998 ], [ -115.2171297, 36.1546523998 ], [ -115.2171297, 36.154649699800004 ], [ -115.217154, 36.154649699800004 ], [ -115.217154, 36.154646999800001 ], [ -115.2172323, 36.154646999800001 ], [ -115.2172323, 36.154644299799997 ], [ -115.2172944, 36.154644299799997 ], [ -115.2172944, 36.154641599800001 ], [ -115.2173133, 36.154641599800001 ], [ -115.2173133, 36.154644299799997 ], [ -115.217316, 36.154644299799997 ], [ -115.217316, 36.154649699800004 ], [ -115.2173187, 36.154649699800004 ], [ -115.2173187, 36.154730699799998 ], [ -115.217316, 36.154730699799998 ], [ -115.217316, 36.154733399800001 ], [ -115.2173106, 36.154733399800001 ], [ -115.2173106, 36.154736099799997 ], [ -115.2172647, 36.154736099799997 ], [ -115.2172647, 36.1547387998 ], [ -115.217262, 36.1547387998 ], [ -115.217262, 36.154741499800004 ], [ -115.2172593, 36.154741499800004 ], [ -115.2172593, 36.154752299800002 ], [ -115.217262, 36.154752299800002 ], [ -115.217262, 36.154754999799998 ], [ -115.2172593, 36.154754999799998 ], [ -115.2172593, 36.154776599800002 ], [ -115.217262, 36.154776599800002 ], [ -115.217262, 36.154781999800001 ], [ -115.2172593, 36.154781999800001 ], [ -115.2172593, 36.154795499800002 ], [ -115.217262, 36.154795499800002 ], [ -115.217262, 36.154808999800004 ], [ -115.2172593, 36.154808999800004 ], [ -115.2172593, 36.154814399800003 ], [ -115.217235, 36.154814399800003 ], [ -115.217235, 36.154817099799999 ] ] ] } },
{ "type": "Feature", "properties": { "value": 255.0 }, "geometry": { "type": "Polygon", "coordinates": [ [ [ -115.2178128, 36.1548116998 ], [ -115.2177858, 36.1548116998 ], [ -115.2177858, 36.154808999800004 ], [ -115.2176994, 36.154808999800004 ], [ -115.2176994, 36.154806299800001 ], [ -115.2176886, 36.154806299800001 ], [ -115.2176886, 36.154803599799997 ], [ -115.2176859, 36.154803599799997 ], [ -115.2176859, 36.154733399800001 ], [ -115.2176832, 36.154733399800001 ], [ -115.2176832, 36.154730699799998 ], [ -115.21764, 36.154730699799998 ], [ -115.21764, 36.154727999800002 ], [ -115.2176238, 36.154727999800002 ], [ -115.2176238, 36.154725299799999 ], [ -115.2176211, 36.154725299799999 ], [ -115.2176211, 36.1547198998 ], [ -115.2176184, 36.1547198998 ], [ -115.2176184, 36.1546955998 ], [ -115.2176211, 36.1546955998 ], [ -115.2176211, 36.154679399800003 ], [ -115.2176238, 36.154679399800003 ], [ -115.2176238, 36.1546523998 ], [ -115.2176265, 36.1546523998 ], [ -115.2176265, 36.154646999800001 ], [ -115.2176292, 36.154646999800001 ], [ -115.2176292, 36.154644299799997 ], [ -115.2176373, 36.154644299799997 ], [ -115.2176373, 36.154641599800001 ], [ -115.21764, 36.154641599800001 ], [ -115.21764, 36.154638899799998 ], [ -115.2177237, 36.154638899799998 ], [ -115.2177237, 36.154641599800001 ], [ -115.2178155, 36.154641599800001 ], [ -115.2178155, 36.154638899799998 ], [ -115.2178317, 36.154638899799998 ], [ -115.2178317, 36.154641599800001 ], [ -115.2178371, 36.154641599800001 ], [ -115.2178371, 36.154644299799997 ], [ -115.2178398, 36.154644299799997 ], [ -115.2178398, 36.1546712998 ], [ -115.2178371, 36.1546712998 ], [ -115.2178371, 36.154698299800003 ], [ -115.2178398, 36.154698299800003 ], [ -115.2178398, 36.154703699800002 ], [ -115.2178506, 36.154703699800002 ], [ -115.2178506, 36.154706399799998 ], [ -115.2178722, 36.154706399799998 ], [ -115.2178722, 36.154709099800002 ], [ -115.2178749, 36.154709099800002 ], [ -115.2178749, 36.154711799799998 ], [ -115.2178695, 36.154711799799998 ], [ -115.2178695, 36.154714499800001 ], [ -115.2178722, 36.154714499800001 ], [ -115.2178722, 36.154717199800004 ], [ -115.2178749, 36.154717199800004 ], [ -115.2178749, 36.154722599800003 ], [ -115.2178776, 36.154722599800003 ], [ -115.2178776, 36.154754999799998 ], [ -115.2178749, 36.154754999799998 ], [ -115.2178749, 36.1547873998 ], [ -115.2178722, 36.1547873998 ], [ -115.2178722, 36.154808999800004 ], [ -115.2178128, 36.154808999800004 ], [ -115.2178128, 36.1548116998 ] ] ] } },
{ "type": "Feature", "properties": { "value": 255.0 }, "geometry": { "type": "Polygon", "coordinates": [ [ [ -115.2164547, 36.1547630998 ], [ -115.2164439, 36.1547630998 ], [ -115.2164439, 36.154760399799997 ], [ -115.216408800000011, 36.154760399799997 ], [ -115.216408800000011, 36.1547630998 ], [ -115.21638990000001, 36.1547630998 ], [ -115.21638990000001, 36.154760399799997 ], [ -115.2163845, 36.154760399799997 ], [ -115.2163845, 36.154717199800004 ], [ -115.2163818, 36.154717199800004 ], [ -115.2163818, 36.154714499800001 ], [ -115.216341300000011, 36.154714499800001 ], [ -115.216341300000011, 36.154711799799998 ], [ -115.2163089, 36.154711799799998 ], [ -115.2163089, 36.154714499800001 ], [ -115.2162981, 36.154714499800001 ], [ -115.2162981, 36.154711799799998 ], [ -115.2162954, 36.154711799799998 ], [ -115.2162954, 36.154682099799999 ], [ -115.2162981, 36.154682099799999 ], [ -115.2162981, 36.1546712998 ], [ -115.2162954, 36.1546712998 ], [ -115.2162954, 36.154649699800004 ], [ -115.2162981, 36.154649699800004 ], [ -115.2162981, 36.154630799800003 ], [ -115.2163008, 36.154630799800003 ], [ -115.2163008, 36.154625399800004 ], [ -115.2163035, 36.154625399800004 ], [ -115.2163035, 36.154622699800001 ], [ -115.2164439, 36.154622699800001 ], [ -115.2164439, 36.154625399800004 ], [ -115.2164466, 36.154625399800004 ], [ -115.2164466, 36.1546280998 ], [ -115.2164493, 36.1546280998 ], [ -115.2164493, 36.154660499800002 ], [ -115.216452, 36.154660499800002 ], [ -115.216452, 36.154682099799999 ], [ -115.2164547, 36.154682099799999 ], [ -115.2164547, 36.154700999799999 ], [ -115.21645740000001, 36.154700999799999 ], [ -115.21645740000001, 36.154711799799998 ], [ -115.2164601, 36.154711799799998 ], [ -115.2164601, 36.154757699800001 ], [ -115.21645740000001, 36.154757699800001 ], [ -115.21645740000001, 36.154760399799997 ], [ -115.2164547, 36.154760399799997 ], [ -115.2164547, 36.1547630998 ] ] ] } },
{ "type": "Feature", "properties": { "value": 255.0 }, "geometry": { "type": "Polygon", "coordinates": [ [ [ -115.21656, 36.154760399799997 ], [ -115.2164979, 36.154760399799997 ], [ -115.2164979, 36.154754999799998 ], [ -115.216495200000011, 36.154754999799998 ], [ -115.216495200000011, 36.154692899800004 ], [ -115.2164979, 36.154692899800004 ], [ -115.2164979, 36.154687499799998 ], [ -115.2165006, 36.154687499799998 ], [ -115.2165006, 36.154663199799998 ], [ -115.2164979, 36.154663199799998 ], [ -115.2164979, 36.1546523998 ], [ -115.216495200000011, 36.1546523998 ], [ -115.216495200000011, 36.154633499799999 ], [ -115.2164979, 36.154633499799999 ], [ -115.2164979, 36.1546280998 ], [ -115.2165006, 36.1546280998 ], [ -115.2165006, 36.154625399800004 ], [ -115.2165033, 36.154625399800004 ], [ -115.2165033, 36.154622699800001 ], [ -115.2166329, 36.154622699800001 ], [ -115.2166329, 36.154625399800004 ], [ -115.2166572, 36.154625399800004 ], [ -115.2166572, 36.1546280998 ], [ -115.2166599, 36.1546280998 ], [ -115.2166599, 36.154630799800003 ], [ -115.2166626, 36.154630799800003 ], [ -115.2166626, 36.154657799799999 ], [ -115.2166599, 36.154657799799999 ], [ -115.2166599, 36.154684799800002 ], [ -115.2166572, 36.154684799800002 ], [ -115.2166572, 36.154692899800004 ], [ -115.2166545, 36.154692899800004 ], [ -115.2166545, 36.154706399799998 ], [ -115.2166518, 36.154706399799998 ], [ -115.2166518, 36.154709099800002 ], [ -115.2166329, 36.154709099800002 ], [ -115.2166329, 36.154711799799998 ], [ -115.2166221, 36.154711799799998 ], [ -115.2166221, 36.154714499800001 ], [ -115.2166194, 36.154714499800001 ], [ -115.2166194, 36.1547198998 ], [ -115.2166167, 36.1547198998 ], [ -115.2166167, 36.154722599800003 ], [ -115.2166086, 36.154722599800003 ], [ -115.2166086, 36.154725299799999 ], [ -115.2166032, 36.154725299799999 ], [ -115.2166032, 36.154722599800003 ], [ -115.2165951, 36.154722599800003 ], [ -115.2165951, 36.1547198998 ], [ -115.21659240000001, 36.1547198998 ], [ -115.21659240000001, 36.154717199800004 ], [ -115.216587, 36.154717199800004 ], [ -115.216587, 36.154714499800001 ], [ -115.2165816, 36.154714499800001 ], [ -115.2165816, 36.154711799799998 ], [ -115.2165654, 36.154711799799998 ], [ -115.2165654, 36.154754999799998 ], [ -115.2165627, 36.154754999799998 ], [ -115.2165627, 36.154757699800001 ], [ -115.21656, 36.154757699800001 ], [ -115.21656, 36.154760399799997 ] ], [ [ -115.2165276, 36.154673999800004 ], [ -115.2165276, 36.154665899800001 ], [ -115.21652490000001, 36.154665899800001 ], [ -115.21652490000001, 36.154673999800004 ], [ -115.2165276, 36.154673999800004 ] ] ] } }
]
}
