{
"type": "FeatureCollection",
"crs": { "type": "name", "properties": { "name": "urn:ogc:def:crs:OGC:1.3:CRS84" } },
"features": [
{ "type": "Feature", "properties": { "value": 255.0 }, "geometry": { "type": "Polygon", "coordinates": [ [ [ -115.2831177, 36.140582699799999 ], [ -115.2829476, 36.140582699799999 ], [ -115.2829476, 36.140531399799997 ], [ -115.2829503, 36.140531399799997 ], [ -115.2829503, 36.140544899799998 ], [ -115.282953, 36.140544899799998 ], [ -115.282953, 36.140542199800002 ], [ -115.2829557, 36.140542199800002 ], [ -115.2829557, 36.1405340998 ], [ -115.2829584, 36.1405340998 ], [ -115.2829584, 36.140536799799996 ], [ -115.2829611, 36.140536799799996 ], [ -115.2829611, 36.140542199800002 ], [ -115.2829665, 36.140542199800002 ], [ -115.2829665, 36.140539499799999 ], [ -115.2829692, 36.140539499799999 ], [ -115.2829692, 36.140536799799996 ], [ -115.2829773, 36.140536799799996 ], [ -115.2829773, 36.1405340998 ], [ -115.28298, 36.1405340998 ], [ -115.28298, 36.140531399799997 ], [ -115.2829935, 36.140531399799997 ], [ -115.2829935, 36.1405340998 ], [ -115.2830205, 36.1405340998 ], [ -115.2830205, 36.140536799799996 ], [ -115.283034, 36.140536799799996 ], [ -115.283034, 36.1405340998 ], [ -115.2830421, 36.1405340998 ], [ -115.2830421, 36.140536799799996 ], [ -115.2830583, 36.140536799799996 ], [ -115.2830583, 36.140539499799999 ], [ -115.2830718, 36.140539499799999 ], [ -115.2830718, 36.140542199800002 ], [ -115.2830799, 36.140542199800002 ], [ -115.2830799, 36.140544899799998 ], [ -115.2830853, 36.140544899799998 ], [ -115.2830853, 36.140547599800001 ], [ -115.283088, 36.140547599800001 ], [ -115.283088, 36.140550299799997 ], [ -115.2830934, 36.140550299799997 ], [ -115.2830934, 36.140552999800001 ], [ -115.2830988, 36.140552999800001 ], [ -115.2830988, 36.140555699799997 ], [ -115.2831042, 36.140555699799997 ], [ -115.2831042, 36.140561099800003 ], [ -115.2831123, 36.140561099800003 ], [ -115.2831123, 36.140563799799999 ], [ -115.283115, 36.140563799799999 ], [ -115.283115, 36.140566499800002 ], [ -115.2831177, 36.140566499800002 ], [ -115.2831177, 36.140569199799998 ], [ -115.2831204, 36.140569199799998 ], [ -115.2831204, 36.140579999799996 ], [ -115.2831177, 36.140579999799996 ], [ -115.2831177, 36.140582699799999 ] ], [ [ -115.2831069, 36.140566499800002 ], [ -115.2831069, 36.140563799799999 ], [ -115.2831042, 36.140563799799999 ], [ -115.2831042, 36.140566499800002 ], [ -115.2831069, 36.140566499800002 ] ] ] } },
{ "type": "Feature", "properties": { "value": 255.0 }, "geometry": { "type": "Polygon", "coordinates": [ [ [ -115.2834228, 36.140431499800002 ], [ -115.283385, 36.140431499800002 ], [ -115.283385, 36.140428799799999 ], [ -115.2833823, 36.140428799799999 ], [ -115.2833823, 36.140426099800003 ], [ -115.2833796, 36.140426099800003 ], [ -115.2833796, 36.1404233998 ], [ -115.2833769, 36.1404233998 ], [ -115.2833769, 36.1404179998 ], [ -115.2833742, 36.1404179998 ], [ -115.2833742, 36.140415299799997 ], [ -115.2833715, 36.140415299799997 ], [ -115.2833715, 36.140412599800001 ], [ -115.2833661, 36.140412599800001 ], [ -115.2833661, 36.140409899799998 ], [ -115.2833607, 36.140409899799998 ], [ -115.2833607, 36.140407199800002 ], [ -115.2833553, 36.140407199800002 ], [ -115.2833553, 36.140404499799999 ], [ -115.2833472, 36.140404499799999 ], [ -115.2833472, 36.140401799799996 ], [ -115.2833418, 36.140401799799996 ], [ -115.2833418, 36.1403990998 ], [ -115.2833364, 36.1403990998 ], [ -115.2833364, 36.140396399799997 ], [ -115.2833283, 36.140396399799997 ], [ -115.2833283, 36.140393699800001 ], [ -115.2833256, 36.140393699800001 ], [ -115.2833256, 36.140390999799997 ], [ -115.2833229, 36.140390999799997 ], [ -115.2833229, 36.140388299800001 ], [ -115.2833202, 36.140388299800001 ], [ -115.2833202, 36.140355899799999 ], [ -115.2833175, 36.140355899799999 ], [ -115.2833175, 36.1403504998 ], [ -115.2833148, 36.1403504998 ], [ -115.2833148, 36.140345099800001 ], [ -115.2833094, 36.140345099800001 ], [ -115.2833094, 36.140342399799998 ], [ -115.2833067, 36.140342399799998 ], [ -115.2833067, 36.140339699800002 ], [ -115.2832851, 36.140339699800002 ], [ -115.2832851, 36.140336999799999 ], [ -115.283277, 36.140336999799999 ], [ -115.283277, 36.140334299799996 ], [ -115.2832743, 36.140334299799996 ], [ -115.2832743, 36.1403315998 ], [ -115.2832716, 36.1403315998 ], [ -115.2832716, 36.1403261998 ], [ -115.2832689, 36.1403261998 ], [ -115.2832689, 36.140315399800002 ], [ -115.2832662, 36.140315399800002 ], [ -115.2832662, 36.1403072998 ], [ -115.2832635, 36.1403072998 ], [ -115.2832635, 36.140299199799998 ], [ -115.2832608, 36.140299199799998 ], [ -115.2832608, 36.140291099800002 ], [ -115.2832581, 36.140291099800002 ], [ -115.2832581, 36.140274899799998 ], [ -115.2832554, 36.140274899799998 ], [ -115.2832554, 36.1402640998 ], [ -115.2832581, 36.1402640998 ], [ -115.2832581, 36.140218199799996 ], [ -115.2832608, 36.140218199799996 ], [ -115.2832608, 36.140212799799997 ], [ -115.2832635, 36.140212799799997 ], [ -115.2832635, 36.140210099800001 ], [ -115.2832689, 36.140210099800001 ], [ -115.2832689, 36.140204699800002 ], [ -115.2832716, 36.140204699800002 ], [ -115.2832716, 36.140201999799999 ], [ -115.2832743, 36.140201999799999 ], [ -115.2832743, 36.140199299799995 ], [ -115.283277, 36.140199299799995 ], [ -115.283277, 36.140193899799996 ], [ -115.2832743, 36.140193899799996 ], [ -115.2832743, 36.140185799800001 ], [ -115.283277, 36.140185799800001 ], [ -115.283277, 36.140183099799998 ], [ -115.2832797, 36.140183099799998 ], [ -115.2832797, 36.140174999799996 ], [ -115.283277, 36.140174999799996 ], [ -115.283277, 36.140166899800001 ], [ -115.2832797, 36.140166899800001 ], [ -115.2832797, 36.140156099800002 ], [ -115.2832824, 36.140156099800002 ], [ -115.2832824, 36.140150699799996 ], [ -115.2832851, 36.140150699799996 ], [ -115.2832851, 36.1401479998 ], [ -115.2832878, 36.1401479998 ], [ -115.2832878, 36.140145299799997 ], [ -115.2832905, 36.140145299799997 ], [ -115.2832905, 36.140139899799998 ], [ -115.2832932, 36.140139899799998 ], [ -115.2832932, 36.140137199800002 ], [ -115.2832959, 36.140137199800002 ], [ -115.2832959, 36.140134499799998 ], [ -115.2832986, 36.140134499799998 ], [ -115.2832986, 36.140131799799995 ], [ -115.2833013, 36.140131799799995 ], [ -115.2833013, 36.140129099799999 ], [ -115.283304, 36.140129099799999 ], [ -115.283304, 36.140126399799996 ], [ -115.2833067, 36.140126399799996 ], [ -115.2833067, 36.1401236998 ], [ -115.2833094, 36.1401236998 ], [ -115.2833094, 36.140120999799997 ], [ -115.2833121, 36.140120999799997 ], [ -115.2833121, 36.140110199799999 ], [ -115.2833148, 36.140110199799999 ], [ -115.2833148, 36.140107499799996 ], [ -115.2833175, 36.140107499799996 ], [ -115.2833175, 36.1401047998 ], [ -115.2833202, 36.1401047998 ], [ -115.2833202, 36.140088599800002 ], [ -115.2833229, 36.140088599800002 ], [ -115.2833229, 36.140091299799998 ], [ -115.2833256, 36.140091299799998 ], [ -115.2833256, 36.140085899799999 ], [ -115.2833283, 36.140085899799999 ], [ -115.2833283, 36.140083199799996 ], [ -115.2833337, 36.140083199799996 ], [ -115.2833337, 36.140085899799999 ], [ -115.2833391, 36.140085899799999 ], [ -115.2833391, 36.140077799799997 ], [ -115.2833418, 36.140077799799997 ], [ -115.2833418, 36.140072399799998 ], [ -115.2833445, 36.140072399799998 ], [ -115.2833445, 36.140069699800002 ], [ -115.2833472, 36.140069699800002 ], [ -115.2833472, 36.140061599799999 ], [ -115.2833445, 36.140061599799999 ], [ -115.2833445, 36.1400561998 ], [ -115.2833472, 36.1400561998 ], [ -115.2833472, 36.140050799800001 ], [ -115.2833499, 36.140050799800001 ], [ -115.2833499, 36.140042699799999 ], [ -115.2833472, 36.140042699799999 ], [ -115.2833472, 36.140034599799996 ], [ -115.2833526, 36.140034599799996 ], [ -115.2833526, 36.140029199799997 ], [ -115.2833553, 36.140029199799997 ], [ -115.2833553, 36.140021099800002 ], [ -115.283358, 36.140021099800002 ], [ -115.283358, 36.140018399799999 ], [ -115.2833607, 36.140018399799999 ], [ -115.2833607, 36.140015699799996 ], [ -115.2833634, 36.140015699799996 ], [ -115.2833634, 36.1400129998 ], [ -115.2833661, 36.1400129998 ], [ -115.2833661, 36.140010299799997 ], [ -115.2833715, 36.140010299799997 ], [ -115.2833715, 36.140007599800001 ], [ -115.2833769, 36.140007599800001 ], [ -115.2833769, 36.140004899799997 ], [ -115.2833823, 36.140004899799997 ], [ -115.2833823, 36.140002199800001 ], [ -115.2833985, 36.140002199800001 ], [ -115.2833985, 36.140004899799997 ], [ -115.2834309, 36.140004899799997 ], [ -115.2834309, 36.140007599800001 ], [ -115.2834606, 36.140007599800001 ], [ -115.2834606, 36.140010299799997 ], [ -115.2834795, 36.140010299799997 ], [ -115.2834795, 36.140007599800001 ], [ -115.2834876, 36.140007599800001 ], [ -115.2834876, 36.140010299799997 ], [ -115.2835875, 36.140010299799997 ], [ -115.2835875, 36.1400129998 ], [ -115.283628, 36.1400129998 ], [ -115.283628, 36.140015699799996 ], [ -115.2836334, 36.140015699799996 ], [ -115.2836334, 36.1400129998 ], [ -115.2836361, 36.1400129998 ], [ -115.2836361, 36.140015699799996 ], [ -115.2836415, 36.140015699799996 ], [ -115.2836415, 36.140018399799999 ], [ -115.2836442, 36.140018399799999 ], [ -115.2836442, 36.140021099800002 ], [ -115.2836496, 36.140021099800002 ], [ -115.2836496, 36.140023799799998 ], [ -115.283655, 36.140023799799998 ], [ -115.283655, 36.140026499800001 ], [ -115.2836604, 36.140026499800001 ], [ -115.2836604, 36.140029199799997 ], [ -115.2836658, 36.140029199799997 ], [ -115.2836658, 36.1400318998 ], [ -115.2836712, 36.1400318998 ], [ -115.2836712, 36.140034599799996 ], [ -115.2836739, 36.140034599799996 ], [ -115.2836739, 36.140037299799999 ], [ -115.2836766, 36.140037299799999 ], [ -115.2836766, 36.140039999799995 ], [ -115.283682, 36.140039999799995 ], [ -115.283682, 36.140042699799999 ], [ -115.2836874, 36.140042699799999 ], [ -115.2836874, 36.140045399800002 ], [ -115.2836901, 36.140045399800002 ], [ -115.2836901, 36.140048099799998 ], [ -115.2836928, 36.140048099799998 ], [ -115.2836928, 36.140050799800001 ], [ -115.2836955, 36.140050799800001 ], [ -115.2836955, 36.1400561998 ], [ -115.2836982, 36.1400561998 ], [ -115.2836982, 36.140061599799999 ], [ -115.2837009, 36.140061599799999 ], [ -115.2837009, 36.140075099800001 ], [ -115.2837036, 36.140075099800001 ], [ -115.2837036, 36.140077799799997 ], [ -115.2837063, 36.140077799799997 ], [ -115.2837063, 36.1400804998 ], [ -115.283709, 36.1400804998 ], [ -115.283709, 36.140083199799996 ], [ -115.2837117, 36.140083199799996 ], [ -115.2837117, 36.140110199799999 ], [ -115.2837144, 36.140110199799999 ], [ -115.2837144, 36.140120999799997 ], [ -115.2837171, 36.140120999799997 ], [ -115.2837171, 36.140134499799998 ], [ -115.2837144, 36.140134499799998 ], [ -115.2837144, 36.140139899799998 ], [ -115.2837117, 36.140139899799998 ], [ -115.2837117, 36.140142599800001 ], [ -115.283709, 36.140142599800001 ], [ -115.283709, 36.140145299799997 ], [ -115.2837063, 36.140145299799997 ], [ -115.2837063, 36.1401479998 ], [ -115.2837036, 36.1401479998 ], [ -115.2837036, 36.140153399799999 ], [ -115.2837009, 36.140153399799999 ], [ -115.2837009, 36.140156099800002 ], [ -115.2836982, 36.140156099800002 ], [ -115.2836982, 36.140161499800001 ], [ -115.2836955, 36.140161499800001 ], [ -115.2836955, 36.140166899800001 ], [ -115.2836928, 36.140166899800001 ], [ -115.2836928, 36.140169599799997 ], [ -115.2836901, 36.140169599799997 ], [ -115.2836901, 36.1401722998 ], [ -115.2836874, 36.1401722998 ], [ -115.2836874, 36.140177699799999 ], [ -115.2836847, 36.140177699799999 ], [ -115.2836847, 36.140180399800002 ], [ -115.283682, 36.140180399800002 ], [ -115.283682, 36.140183099799998 ], [ -115.2836793, 36.140183099799998 ], [ -115.2836793, 36.140185799800001 ], [ -115.2836766, 36.140185799800001 ], [ -115.2836766, 36.140188499799997 ], [ -115.2836739, 36.140188499799997 ], [ -115.2836739, 36.1401911998 ], [ -115.2836712, 36.1401911998 ], [ -115.2836712, 36.140196599799999 ], [ -115.2836685, 36.140196599799999 ], [ -115.2836685, 36.140199299799995 ], [ -115.2836658, 36.140199299799995 ], [ -115.2836658, 36.140201999799999 ], [ -115.2836631, 36.140201999799999 ], [ -115.2836631, 36.140207399799998 ], [ -115.2836604, 36.140207399799998 ], [ -115.2836604, 36.140212799799997 ], [ -115.2836577, 36.140212799799997 ], [ -115.2836577, 36.1402154998 ], [ -115.283655, 36.1402154998 ], [ -115.283655, 36.140220899799999 ], [ -115.2836523, 36.140220899799999 ], [ -115.2836523, 36.140223599800002 ], [ -115.2836496, 36.140223599800002 ], [ -115.2836496, 36.140226299799998 ], [ -115.2836469, 36.140226299799998 ], [ -115.2836469, 36.140228999800001 ], [ -115.2836442, 36.140228999800001 ], [ -115.2836442, 36.140231699799998 ], [ -115.2836388, 36.140231699799998 ], [ -115.2836388, 36.140234399800001 ], [ -115.2836334, 36.140234399800001 ], [ -115.2836334, 36.1402397998 ], [ -115.2836307, 36.1402397998 ], [ -115.2836307, 36.140245199799999 ], [ -115.283628, 36.140245199799999 ], [ -115.283628, 36.140250599799998 ], [ -115.2836253, 36.140250599799998 ], [ -115.2836253, 36.140253299800001 ], [ -115.2836226, 36.140253299800001 ], [ -115.2836226, 36.1402586998 ], [ -115.2836199, 36.1402586998 ], [ -115.2836199, 36.140261399799996 ], [ -115.2836172, 36.140261399799996 ], [ -115.2836172, 36.140266799799996 ], [ -115.2836145, 36.140266799799996 ], [ -115.2836145, 36.140269499799999 ], [ -115.2836118, 36.140269499799999 ], [ -115.2836118, 36.140274899799998 ], [ -115.2836091, 36.140274899799998 ], [ -115.2836091, 36.140277599800001 ], [ -115.2836064, 36.140277599800001 ], [ -115.2836064, 36.1402829998 ], [ -115.2836037, 36.1402829998 ], [ -115.2836037, 36.140285699799996 ], [ -115.283601, 36.140285699799996 ], [ -115.283601, 36.140288399799999 ], [ -115.2835956, 36.140288399799999 ], [ -115.2835956, 36.140291099800002 ], [ -115.2835929, 36.140291099800002 ], [ -115.2835929, 36.140296499800002 ], [ -115.2835902, 36.140296499800002 ], [ -115.2835902, 36.140299199799998 ], [ -115.2835875, 36.140299199799998 ], [ -115.2835875, 36.140301899800001 ], [ -115.2835848, 36.140301899800001 ], [ -115.2835848, 36.140304599799997 ], [ -115.2835821, 36.140304599799997 ], [ -115.2835821, 36.1403072998 ], [ -115.2835794, 36.1403072998 ], [ -115.2835794, 36.140309999799996 ], [ -115.2835767, 36.140309999799996 ], [ -115.2835767, 36.140312699799999 ], [ -115.283574, 36.140312699799999 ], [ -115.283574, 36.140318099799998 ], [ -115.2835713, 36.140318099799998 ], [ -115.2835713, 36.140320799800001 ], [ -115.2835686, 36.140320799800001 ], [ -115.2835686, 36.140323499799997 ], [ -115.2835659, 36.140323499799997 ], [ -115.2835659, 36.1403261998 ], [ -115.2835632, 36.1403261998 ], [ -115.2835632, 36.1403315998 ], [ -115.2835605, 36.1403315998 ], [ -115.2835605, 36.140334299799996 ], [ -115.2835578, 36.140334299799996 ], [ -115.2835578, 36.140339699800002 ], [ -115.2835551, 36.140339699800002 ], [ -115.2835551, 36.140342399799998 ], [ -115.2835524, 36.140342399799998 ], [ -115.2835524, 36.140347799799997 ], [ -115.2835497, 36.140347799799997 ], [ -115.2835497, 36.1403504998 ], [ -115.283547, 36.1403504998 ], [ -115.283547, 36.140353199799996 ], [ -115.2835443, 36.140353199799996 ], [ -115.2835443, 36.140355899799999 ], [ -115.2835416, 36.140355899799999 ], [ -115.2835416, 36.140358599800003 ], [ -115.2835389, 36.140358599800003 ], [ -115.2835389, 36.140363999800002 ], [ -115.2835362, 36.140363999800002 ], [ -115.2835362, 36.140366699799998 ], [ -115.2835335, 36.140366699799998 ], [ -115.2835335, 36.140369399800001 ], [ -115.2835308, 36.140369399800001 ], [ -115.2835308, 36.140372099799997 ], [ -115.2835281, 36.140372099799997 ], [ -115.2835281, 36.1403747998 ], [ -115.2835254, 36.1403747998 ], [ -115.2835254, 36.140380199799999 ], [ -115.2835227, 36.140380199799999 ], [ -115.2835227, 36.140385599799998 ], [ -115.28352, 36.140385599799998 ], [ -115.28352, 36.140388299800001 ], [ -115.2835173, 36.140388299800001 ], [ -115.2835173, 36.140390999799997 ], [ -115.2835146, 36.140390999799997 ], [ -115.2835146, 36.140393699800001 ], [ -115.2835119, 36.140393699800001 ], [ -115.2835119, 36.140396399799997 ], [ -115.2835092, 36.140396399799997 ], [ -115.2835092, 36.1403990998 ], [ -115.2835065, 36.1403990998 ], [ -115.2835065, 36.140401799799996 ], [ -115.2835038, 36.140401799799996 ], [ -115.2835038, 36.140407199800002 ], [ -115.2835011, 36.140407199800002 ], [ -115.2835011, 36.140409899799998 ], [ -115.2834984, 36.140409899799998 ], [ -115.2834984, 36.140412599800001 ], [ -115.2834957, 36.140412599800001 ], [ -115.2834957, 36.140415299799997 ], [ -115.283493, 36.140415299799997 ], [ -115.283493, 36.1404179998 ], [ -115.2834876, 36.1404179998 ], [ -115.2834876, 36.140420699799996 ], [ -115.2834741, 36.140420699799996 ], [ -115.2834741, 36.1404233998 ], [ -115.2834525, 36.1404233998 ], [ -115.2834525, 36.140426099800003 ], [ -115.2834417, 36.140426099800003 ], [ -115.2834417, 36.140428799799999 ], [ -115.2834228, 36.140428799799999 ], [ -115.2834228, 36.140431499800002 ] ] ] } },
{ "type": "Feature", "properties": { "value": 255.0 }, "geometry": { "type": "Polygon", "coordinates": [ [ [ -115.28298, 36.140115599799998 ], [ -115.2829638, 36.140115599799998 ], [ -115.2829638, 36.140112899800002 ], [ -115.2829584, 36.140112899800002 ], [ -115.2829584, 36.140110199799999 ], [ -115.2829557, 36.140110199799999 ], [ -115.2829557, 36.140107499799996 ], [ -115.2829503, 36.140107499799996 ], [ -115.2829503, 36.1401047998 ], [ -115.2829476, 36.1401047998 ], [ -115.2829476, 36.139734899799997 ], [ -115.2829503, 36.139734899799997 ], [ -115.2829503, 36.139732199800001 ], [ -115.282953, 36.139732199800001 ], [ -115.282953, 36.139729499799998 ], [ -115.2829557, 36.139729499799998 ], [ -115.2829557, 36.139726799799995 ], [ -115.2829584, 36.139726799799995 ], [ -115.2829584, 36.139724099799999 ], [ -115.2829665, 36.139724099799999 ], [ -115.2829665, 36.139721399799996 ], [ -115.2829746, 36.139721399799996 ], [ -115.2829746, 36.1397186998 ], [ -115.2829773, 36.1397186998 ], [ -115.2829773, 36.139715999799996 ], [ -115.2829935, 36.139715999799996 ], [ -115.2829935, 36.1397132998 ], [ -115.283007, 36.1397132998 ], [ -115.283007, 36.139710599799997 ], [ -115.2830367, 36.139710599799997 ], [ -115.2830367, 36.139707899800001 ], [ -115.2830556, 36.139707899800001 ], [ -115.2830556, 36.139710599799997 ], [ -115.2830583, 36.139710599799997 ], [ -115.2830583, 36.1397132998 ], [ -115.283061, 36.1397132998 ], [ -115.283061, 36.139715999799996 ], [ -115.2830637, 36.139715999799996 ], [ -115.2830637, 36.1397186998 ], [ -115.2830718, 36.1397186998 ], [ -115.2830718, 36.139721399799996 ], [ -115.2830772, 36.139721399799996 ], [ -115.2830772, 36.139724099799999 ], [ -115.2830799, 36.139724099799999 ], [ -115.2830799, 36.139726799799995 ], [ -115.2830826, 36.139726799799995 ], [ -115.2830826, 36.139732199800001 ], [ -115.2830799, 36.139732199800001 ], [ -115.2830799, 36.139734899799997 ], [ -115.2830826, 36.139734899799997 ], [ -115.2830826, 36.1397375998 ], [ -115.2830907, 36.1397375998 ], [ -115.2830907, 36.139734899799997 ], [ -115.2830934, 36.139734899799997 ], [ -115.2830934, 36.139732199800001 ], [ -115.2831015, 36.139732199800001 ], [ -115.2831015, 36.139734899799997 ], [ -115.2831123, 36.139734899799997 ], [ -115.2831123, 36.1397375998 ], [ -115.2831204, 36.1397375998 ], [ -115.2831204, 36.139734899799997 ], [ -115.2831258, 36.139734899799997 ], [ -115.2831258, 36.139732199800001 ], [ -115.2831339, 36.139732199800001 ], [ -115.2831339, 36.139734899799997 ], [ -115.2831447, 36.139734899799997 ], [ -115.2831447, 36.1397375998 ], [ -115.2831474, 36.1397375998 ], [ -115.2831474, 36.139740299799996 ], [ -115.2831528, 36.139740299799996 ], [ -115.2831528, 36.139742999799999 ], [ -115.2831555, 36.139742999799999 ], [ -115.2831555, 36.139756499800001 ], [ -115.2831582, 36.139756499800001 ], [ -115.2831582, 36.139759199799997 ], [ -115.2831555, 36.139759199799997 ], [ -115.2831555, 36.139778099799997 ], [ -115.2831582, 36.139778099799997 ], [ -115.2831582, 36.139783499799996 ], [ -115.2831609, 36.139783499799996 ], [ -115.2831609, 36.1397861998 ], [ -115.2831636, 36.1397861998 ], [ -115.2831636, 36.139794299799995 ], [ -115.2831663, 36.139794299799995 ], [ -115.2831663, 36.139796999799998 ], [ -115.283169, 36.139796999799998 ], [ -115.283169, 36.139799699800001 ], [ -115.2831717, 36.139799699800001 ], [ -115.2831717, 36.139802399799997 ], [ -115.2831744, 36.139802399799997 ], [ -115.2831744, 36.1398050998 ], [ -115.2831771, 36.1398050998 ], [ -115.2831771, 36.139810499799999 ], [ -115.2831798, 36.139810499799999 ], [ -115.2831798, 36.139815899799999 ], [ -115.2831825, 36.139815899799999 ], [ -115.2831825, 36.139823999800001 ], [ -115.2831852, 36.139823999800001 ], [ -115.2831852, 36.139837499799995 ], [ -115.2831879, 36.139837499799995 ], [ -115.2831879, 36.1398536998 ], [ -115.2831906, 36.1398536998 ], [ -115.2831906, 36.1398725998 ], [ -115.2831933, 36.1398725998 ], [ -115.2831933, 36.139910399800002 ], [ -115.283196, 36.139910399800002 ], [ -115.283196, 36.1399211998 ], [ -115.2831987, 36.1399211998 ], [ -115.2831987, 36.139934699800001 ], [ -115.2832014, 36.139934699800001 ], [ -115.2832014, 36.1399400998 ], [ -115.2831987, 36.1399400998 ], [ -115.2831987, 36.139942799799996 ], [ -115.283196, 36.139942799799996 ], [ -115.283196, 36.1399454998 ], [ -115.2831852, 36.1399454998 ], [ -115.2831852, 36.139948199799996 ], [ -115.2831663, 36.139948199799996 ], [ -115.2831663, 36.139950899799999 ], [ -115.2831474, 36.139950899799999 ], [ -115.2831474, 36.139953599800002 ], [ -115.2831366, 36.139953599800002 ], [ -115.2831366, 36.139956299799998 ], [ -115.2831339, 36.139956299799998 ], [ -115.2831339, 36.139958999800001 ], [ -115.2831312, 36.139958999800001 ], [ -115.2831312, 36.139961699799997 ], [ -115.2831285, 36.139961699799997 ], [ -115.2831285, 36.1399643998 ], [ -115.2831258, 36.1399643998 ], [ -115.2831258, 36.139967099799996 ], [ -115.2831231, 36.139967099799996 ], [ -115.2831231, 36.139972499799995 ], [ -115.2831177, 36.139972499799995 ], [ -115.2831177, 36.139977899800002 ], [ -115.283115, 36.139977899800002 ], [ -115.283115, 36.139980599799998 ], [ -115.2831123, 36.139980599799998 ], [ -115.2831123, 36.139983299800001 ], [ -115.2831096, 36.139983299800001 ], [ -115.2831096, 36.139985999799997 ], [ -115.2831069, 36.139985999799997 ], [ -115.2831069, 36.1399886998 ], [ -115.2831042, 36.1399886998 ], [ -115.2831042, 36.139991399799996 ], [ -115.2831015, 36.139991399799996 ], [ -115.2831015, 36.139996799799995 ], [ -115.2830988, 36.139996799799995 ], [ -115.2830988, 36.139999499799998 ], [ -115.2830961, 36.139999499799998 ], [ -115.2830961, 36.140002199800001 ], [ -115.2830934, 36.140002199800001 ], [ -115.2830934, 36.140004899799997 ], [ -115.2830907, 36.140004899799997 ], [ -115.2830907, 36.140010299799997 ], [ -115.283088, 36.140010299799997 ], [ -115.283088, 36.1400129998 ], [ -115.2830853, 36.1400129998 ], [ -115.2830853, 36.140015699799996 ], [ -115.2830826, 36.140015699799996 ], [ -115.2830826, 36.140018399799999 ], [ -115.2830799, 36.140018399799999 ], [ -115.2830799, 36.140021099800002 ], [ -115.2830772, 36.140021099800002 ], [ -115.2830772, 36.140026499800001 ], [ -115.2830745, 36.140026499800001 ], [ -115.2830745, 36.140029199799997 ], [ -115.2830718, 36.140029199799997 ], [ -115.2830718, 36.1400318998 ], [ -115.2830691, 36.1400318998 ], [ -115.2830691, 36.140037299799999 ], [ -115.2830664, 36.140037299799999 ], [ -115.2830664, 36.140039999799995 ], [ -115.2830637, 36.140039999799995 ], [ -115.2830637, 36.140045399800002 ], [ -115.283061, 36.140045399800002 ], [ -115.283061, 36.140050799800001 ], [ -115.2830583, 36.140050799800001 ], [ -115.2830583, 36.140066999799998 ], [ -115.283061, 36.140066999799998 ], [ -115.283061, 36.140077799799997 ], [ -115.2830637, 36.140077799799997 ], [ -115.2830637, 36.1400993998 ], [ -115.283061, 36.1400993998 ], [ -115.283061, 36.140102099799996 ], [ -115.2830529, 36.140102099799996 ], [ -115.2830529, 36.1401047998 ], [ -115.2830394, 36.1401047998 ], [ -115.2830394, 36.140107499799996 ], [ -115.2830178, 36.140107499799996 ], [ -115.2830178, 36.140110199799999 ], [ -115.2829962, 36.140110199799999 ], [ -115.2829962, 36.140112899800002 ], [ -115.28298, 36.140112899800002 ], [ -115.28298, 36.140115599799998 ] ] ] } },
{ "type": "Feature", "properties": { "value": 255.0 }, "geometry": { "type": "Polygon", "coordinates": [ [ [ -115.2831609, 36.139710599799997 ], [ -115.2831555, 36.139710599799997 ], [ -115.2831555, 36.139707899800001 ], [ -115.2831501, 36.139707899800001 ], [ -115.2831501, 36.139702499799995 ], [ -115.2831447, 36.139702499799995 ], [ -115.2831447, 36.139699799799999 ], [ -115.2831393, 36.139699799799999 ], [ -115.2831393, 36.139702499799995 ], [ -115.2831339, 36.139702499799995 ], [ -115.2831339, 36.139707899800001 ], [ -115.2831285, 36.139707899800001 ], [ -115.2831285, 36.139710599799997 ], [ -115.2831177, 36.139710599799997 ], [ -115.2831177, 36.139707899800001 ], [ -115.2831123, 36.139707899800001 ], [ -115.2831123, 36.139705199799998 ], [ -115.2831069, 36.139705199799998 ], [ -115.2831069, 36.139702499799995 ], [ -115.2831015, 36.139702499799995 ], [ -115.2831015, 36.139699799799999 ], [ -115.2830961, 36.139699799799999 ], [ -115.2830961, 36.139697099799996 ], [ -115.2830907, 36.139697099799996 ], [ -115.2830907, 36.1396943998 ], [ -115.283088, 36.1396943998 ], [ -115.283088, 36.139691699799997 ], [ -115.2830826, 36.139691699799997 ], [ -115.2830826, 36.139688999800001 ], [ -115.2830772, 36.139688999800001 ], [ -115.2830772, 36.139686299799997 ], [ -115.2830718, 36.139686299799997 ], [ -115.2830718, 36.139683599800001 ], [ -115.2830664, 36.139683599800001 ], [ -115.2830664, 36.139680899799998 ], [ -115.283061, 36.139680899799998 ], [ -115.283061, 36.139678199799995 ], [ -115.2830583, 36.139678199799995 ], [ -115.2830583, 36.139675499799999 ], [ -115.2830529, 36.139675499799999 ], [ -115.2830529, 36.139672799799996 ], [ -115.2830475, 36.139672799799996 ], [ -115.2830475, 36.1396700998 ], [ -115.2830421, 36.1396700998 ], [ -115.2830421, 36.139667399799997 ], [ -115.2830394, 36.139667399799997 ], [ -115.2830394, 36.139664699800001 ], [ -115.283034, 36.139664699800001 ], [ -115.283034, 36.139661999799998 ], [ -115.2830286, 36.139661999799998 ], [ -115.2830286, 36.139651199799999 ], [ -115.2830313, 36.139651199799999 ], [ -115.2830313, 36.139648499799996 ], [ -115.283034, 36.139648499799996 ], [ -115.283034, 36.1396457998 ], [ -115.2830367, 36.1396457998 ], [ -115.2830367, 36.139643099799997 ], [ -115.2830394, 36.139643099799997 ], [ -115.2830394, 36.139640399800001 ], [ -115.2830421, 36.139640399800001 ], [ -115.2830421, 36.139637699799998 ], [ -115.2830448, 36.139637699799998 ], [ -115.2830448, 36.139632299799999 ], [ -115.2830475, 36.139632299799999 ], [ -115.2830475, 36.139629599799996 ], [ -115.2830529, 36.139629599799996 ], [ -115.2830529, 36.1396268998 ], [ -115.2830556, 36.1396268998 ], [ -115.2830556, 36.139624199799997 ], [ -115.2830664, 36.139624199799997 ], [ -115.2830664, 36.1396268998 ], [ -115.2830745, 36.1396268998 ], [ -115.2830745, 36.139629599799996 ], [ -115.2830799, 36.139629599799996 ], [ -115.2830799, 36.139632299799999 ], [ -115.2830853, 36.139632299799999 ], [ -115.2830853, 36.139634999799995 ], [ -115.2830907, 36.139634999799995 ], [ -115.2830907, 36.139637699799998 ], [ -115.2830961, 36.139637699799998 ], [ -115.2830961, 36.139640399800001 ], [ -115.2830988, 36.139640399800001 ], [ -115.2830988, 36.139643099799997 ], [ -115.2831069, 36.139643099799997 ], [ -115.2831069, 36.1396457998 ], [ -115.2831123, 36.1396457998 ], [ -115.2831123, 36.139648499799996 ], [ -115.2831177, 36.139648499799996 ], [ -115.2831177, 36.139651199799999 ], [ -115.2831204, 36.139651199799999 ], [ -115.2831204, 36.139653899799995 ], [ -115.2831258, 36.139653899799995 ], [ -115.2831258, 36.139656599799999 ], [ -115.2831312, 36.139656599799999 ], [ -115.2831312, 36.139659299799995 ], [ -115.2831339, 36.139659299799995 ], [ -115.2831339, 36.139661999799998 ], [ -115.2831393, 36.139661999799998 ], [ -115.2831393, 36.139664699800001 ], [ -115.2831447, 36.139664699800001 ], [ -115.2831447, 36.139667399799997 ], [ -115.2831501, 36.139667399799997 ], [ -115.2831501, 36.1396700998 ], [ -115.2831528, 36.1396700998 ], [ -115.2831528, 36.139672799799996 ], [ -115.2831555, 36.139672799799996 ], [ -115.2831555, 36.139675499799999 ], [ -115.2831582, 36.139675499799999 ], [ -115.2831582, 36.139686299799997 ], [ -115.2831663, 36.139686299799997 ], [ -115.2831663, 36.1396943998 ], [ -115.2831636, 36.1396943998 ], [ -115.2831636, 36.139702499799995 ], [ -115.2831609, 36.139702499799995 ], [ -115.2831609, 36.139705199799998 ], [ -115.2831636, 36.139705199799998 ], [ -115.2831636, 36.139707899800001 ], [ -115.2831609, 36.139707899800001 ], [ -115.2831609, 36.139710599799997 ] ] ] } },
{ "type": "Feature", "properties": { "value": 255.0 }, "geometry": { "type": "Polygon", "coordinates": [ [ [ -115.2837333, 36.139823999800001 ], [ -115.283709, 36.139823999800001 ], [ -115.283709, 36.139821299799998 ], [ -115.2837063, 36.139821299799998 ], [ -115.2837063, 36.139818599800002 ], [ -115.2837009, 36.139818599800002 ], [ -115.2837009, 36.139815899799999 ], [ -115.2836955, 36.139815899799999 ], [ -115.2836955, 36.139813199799995 ], [ -115.2836874, 36.139813199799995 ], [ -115.2836874, 36.139810499799999 ], [ -115.2836847, 36.139810499799999 ], [ -115.2836847, 36.139807799799996 ], [ -115.2836793, 36.139807799799996 ], [ -115.2836793, 36.1398050998 ], [ -115.2836739, 36.1398050998 ], [ -115.2836739, 36.139802399799997 ], [ -115.2836685, 36.139802399799997 ], [ -115.2836685, 36.139799699800001 ], [ -115.2836658, 36.139799699800001 ], [ -115.2836658, 36.139796999799998 ], [ -115.2836604, 36.139796999799998 ], [ -115.2836604, 36.139794299799995 ], [ -115.2836496, 36.139794299799995 ], [ -115.2836496, 36.139791599799999 ], [ -115.2836415, 36.139791599799999 ], [ -115.2836415, 36.139788899799996 ], [ -115.2836172, 36.139788899799996 ], [ -115.2836172, 36.1397861998 ], [ -115.2836118, 36.1397861998 ], [ -115.2836118, 36.139783499799996 ], [ -115.2836037, 36.139783499799996 ], [ -115.2836037, 36.1397807998 ], [ -115.2835929, 36.1397807998 ], [ -115.2835929, 36.139778099799997 ], [ -115.2835578, 36.139778099799997 ], [ -115.2835578, 36.139775399800001 ], [ -115.2835497, 36.139775399800001 ], [ -115.2835497, 36.139772699799998 ], [ -115.2835389, 36.139772699799998 ], [ -115.2835389, 36.139769999799995 ], [ -115.2835335, 36.139769999799995 ], [ -115.2835335, 36.139767299799999 ], [ -115.2835281, 36.139767299799999 ], [ -115.2835281, 36.139764599799996 ], [ -115.2835254, 36.139764599799996 ], [ -115.2835254, 36.1397618998 ], [ -115.28352, 36.1397618998 ], [ -115.28352, 36.139759199799997 ], [ -115.2835146, 36.139759199799997 ], [ -115.2835146, 36.139756499800001 ], [ -115.2835119, 36.139756499800001 ], [ -115.2835119, 36.139753799799998 ], [ -115.2835065, 36.139753799799998 ], [ -115.2835065, 36.139751099800002 ], [ -115.2834984, 36.139751099800002 ], [ -115.2834984, 36.139748399799998 ], [ -115.2834957, 36.139748399799998 ], [ -115.2834957, 36.139745699799995 ], [ -115.2834849, 36.139745699799995 ], [ -115.2834849, 36.139742999799999 ], [ -115.2834822, 36.139742999799999 ], [ -115.2834822, 36.139740299799996 ], [ -115.2834741, 36.139740299799996 ], [ -115.2834741, 36.1397375998 ], [ -115.2834687, 36.1397375998 ], [ -115.2834687, 36.139734899799997 ], [ -115.2834633, 36.139734899799997 ], [ -115.2834633, 36.139732199800001 ], [ -115.2834579, 36.139732199800001 ], [ -115.2834579, 36.139729499799998 ], [ -115.2834525, 36.139729499799998 ], [ -115.2834525, 36.139726799799995 ], [ -115.2834498, 36.139726799799995 ], [ -115.2834498, 36.139724099799999 ], [ -115.2834471, 36.139724099799999 ], [ -115.2834471, 36.1397186998 ], [ -115.2834444, 36.1397186998 ], [ -115.2834444, 36.139715999799996 ], [ -115.2834471, 36.139715999799996 ], [ -115.2834471, 36.139710599799997 ], [ -115.2834498, 36.139710599799997 ], [ -115.2834498, 36.139707899800001 ], [ -115.2834525, 36.139707899800001 ], [ -115.2834525, 36.139705199799998 ], [ -115.2834552, 36.139705199799998 ], [ -115.2834552, 36.139702499799995 ], [ -115.2834579, 36.139702499799995 ], [ -115.2834579, 36.139697099799996 ], [ -115.2834606, 36.139697099799996 ], [ -115.2834606, 36.1396943998 ], [ -115.2834633, 36.1396943998 ], [ -115.2834633, 36.139691699799997 ], [ -115.283466, 36.139691699799997 ], [ -115.283466, 36.139688999800001 ], [ -115.2834687, 36.139688999800001 ], [ -115.2834687, 36.139683599800001 ], [ -115.2834714, 36.139683599800001 ], [ -115.2834714, 36.139680899799998 ], [ -115.2834741, 36.139680899799998 ], [ -115.2834741, 36.139678199799995 ], [ -115.2834768, 36.139678199799995 ], [ -115.2834768, 36.139675499799999 ], [ -115.2834795, 36.139675499799999 ], [ -115.2834795, 36.139672799799996 ], [ -115.2834822, 36.139672799799996 ], [ -115.2834822, 36.1396700998 ], [ -115.2834849, 36.1396700998 ], [ -115.2834849, 36.139667399799997 ], [ -115.2834876, 36.139667399799997 ], [ -115.2834876, 36.139664699800001 ], [ -115.2834903, 36.139664699800001 ], [ -115.2834903, 36.139661999799998 ], [ -115.283493, 36.139661999799998 ], [ -115.283493, 36.139659299799995 ], [ -115.2834957, 36.139659299799995 ], [ -115.2834957, 36.139656599799999 ], [ -115.2834984, 36.139656599799999 ], [ -115.2834984, 36.139653899799995 ], [ -115.2835011, 36.139653899799995 ], [ -115.2835011, 36.139651199799999 ], [ -115.2835038, 36.139651199799999 ], [ -115.2835038, 36.139648499799996 ], [ -115.2835065, 36.139648499799996 ], [ -115.2835065, 36.1396457998 ], [ -115.2835092, 36.1396457998 ], [ -115.2835092, 36.139643099799997 ], [ -115.2835146, 36.139643099799997 ], [ -115.2835146, 36.139640399800001 ], [ -115.2835173, 36.139640399800001 ], [ -115.2835173, 36.139637699799998 ], [ -115.28352, 36.139637699799998 ], [ -115.28352, 36.139634999799995 ], [ -115.2835254, 36.139634999799995 ], [ -115.2835254, 36.139632299799999 ], [ -115.2835281, 36.139632299799999 ], [ -115.2835281, 36.1396268998 ], [ -115.2835308, 36.1396268998 ], [ -115.2835308, 36.139624199799997 ], [ -115.2835335, 36.139624199799997 ], [ -115.2835335, 36.1396214998 ], [ -115.2835362, 36.1396214998 ], [ -115.2835362, 36.139618799799997 ], [ -115.2835389, 36.139618799799997 ], [ -115.2835389, 36.139616099800001 ], [ -115.2835416, 36.139616099800001 ], [ -115.2835416, 36.139613399799998 ], [ -115.2835443, 36.139613399799998 ], [ -115.2835443, 36.139607999799999 ], [ -115.283547, 36.139607999799999 ], [ -115.283547, 36.1396025998 ], [ -115.2835497, 36.1396025998 ], [ -115.2835497, 36.139594499799998 ], [ -115.2835524, 36.139594499799998 ], [ -115.2835524, 36.139589099799998 ], [ -115.2835551, 36.139589099799998 ], [ -115.2835551, 36.139586399799995 ], [ -115.2835578, 36.139586399799995 ], [ -115.2835578, 36.1395782998 ], [ -115.2835605, 36.1395782998 ], [ -115.2835605, 36.139572899800001 ], [ -115.2835632, 36.139572899800001 ], [ -115.2835632, 36.139570199799998 ], [ -115.2835659, 36.139570199799998 ], [ -115.2835659, 36.139567499799995 ], [ -115.283574, 36.139567499799995 ], [ -115.283574, 36.139564799799999 ], [ -115.2835902, 36.139564799799999 ], [ -115.2835902, 36.139562099799996 ], [ -115.2835929, 36.139562099799996 ], [ -115.2835929, 36.139564799799999 ], [ -115.283601, 36.139564799799999 ], [ -115.283601, 36.139567499799995 ], [ -115.2836064, 36.139567499799995 ], [ -115.2836064, 36.139570199799998 ], [ -115.2836118, 36.139570199799998 ], [ -115.2836118, 36.139572899800001 ], [ -115.2836145, 36.139572899800001 ], [ -115.2836145, 36.139575599799997 ], [ -115.2836172, 36.139575599799997 ], [ -115.2836172, 36.1395782998 ], [ -115.2836199, 36.1395782998 ], [ -115.2836199, 36.139580999799996 ], [ -115.2836226, 36.139580999799996 ], [ -115.2836226, 36.139583699799999 ], [ -115.2836253, 36.139583699799999 ], [ -115.2836253, 36.139586399799995 ], [ -115.283628, 36.139586399799995 ], [ -115.283628, 36.139589099799998 ], [ -115.2836307, 36.139589099799998 ], [ -115.2836307, 36.139591799799994 ], [ -115.2836334, 36.139591799799994 ], [ -115.2836334, 36.139597199800001 ], [ -115.2836361, 36.139597199800001 ], [ -115.2836361, 36.1396025998 ], [ -115.2836388, 36.1396025998 ], [ -115.2836388, 36.139605299799996 ], [ -115.2836415, 36.139605299799996 ], [ -115.2836415, 36.139607999799999 ], [ -115.2836469, 36.139607999799999 ], [ -115.2836469, 36.139610699799995 ], [ -115.2836658, 36.139610699799995 ], [ -115.2836658, 36.139613399799998 ], [ -115.2836793, 36.139613399799998 ], [ -115.2836793, 36.139616099800001 ], [ -115.2836901, 36.139616099800001 ], [ -115.2836901, 36.139618799799997 ], [ -115.2836955, 36.139618799799997 ], [ -115.2836955, 36.1396214998 ], [ -115.2837009, 36.1396214998 ], [ -115.2837009, 36.139624199799997 ], [ -115.2837063, 36.139624199799997 ], [ -115.2837063, 36.1396268998 ], [ -115.2837117, 36.1396268998 ], [ -115.2837117, 36.139629599799996 ], [ -115.2837144, 36.139629599799996 ], [ -115.2837144, 36.139632299799999 ], [ -115.2837198, 36.139632299799999 ], [ -115.2837198, 36.139634999799995 ], [ -115.2837252, 36.139634999799995 ], [ -115.2837252, 36.139637699799998 ], [ -115.2837306, 36.139637699799998 ], [ -115.2837306, 36.139640399800001 ], [ -115.2837333, 36.139640399800001 ], [ -115.2837333, 36.139648499799996 ], [ -115.283736, 36.139648499799996 ], [ -115.283736, 36.139656599799999 ], [ -115.2837333, 36.139656599799999 ], [ -115.2837333, 36.139672799799996 ], [ -115.283736, 36.139672799799996 ], [ -115.283736, 36.139675499799999 ], [ -115.2837414, 36.139675499799999 ], [ -115.2837414, 36.139678199799995 ], [ -115.2837441, 36.139678199799995 ], [ -115.2837441, 36.139680899799998 ], [ -115.2837549, 36.139680899799998 ], [ -115.2837549, 36.139683599800001 ], [ -115.2837603, 36.139683599800001 ], [ -115.2837603, 36.139686299799997 ], [ -115.2837657, 36.139686299799997 ], [ -115.2837657, 36.139688999800001 ], [ -115.2837711, 36.139688999800001 ], [ -115.2837711, 36.139691699799997 ], [ -115.2837765, 36.139691699799997 ], [ -115.2837765, 36.1396943998 ], [ -115.2837792, 36.1396943998 ], [ -115.2837792, 36.139697099799996 ], [ -115.2837846, 36.139697099799996 ], [ -115.2837846, 36.139699799799999 ], [ -115.28379, 36.139699799799999 ], [ -115.28379, 36.139702499799995 ], [ -115.2837954, 36.139702499799995 ], [ -115.2837954, 36.139705199799998 ], [ -115.2837981, 36.139705199799998 ], [ -115.2837981, 36.139707899800001 ], [ -115.2838035, 36.139707899800001 ], [ -115.2838035, 36.139710599799997 ], [ -115.2838062, 36.139710599799997 ], [ -115.2838062, 36.1397132998 ], [ -115.2838089, 36.1397132998 ], [ -115.2838089, 36.139715999799996 ], [ -115.2838116, 36.139715999799996 ], [ -115.2838116, 36.139721399799996 ], [ -115.2838143, 36.139721399799996 ], [ -115.2838143, 36.139732199800001 ], [ -115.2838116, 36.139732199800001 ], [ -115.2838116, 36.139734899799997 ], [ -115.2838089, 36.139734899799997 ], [ -115.2838089, 36.1397375998 ], [ -115.2838062, 36.1397375998 ], [ -115.2838062, 36.139742999799999 ], [ -115.2838035, 36.139742999799999 ], [ -115.2838035, 36.139745699799995 ], [ -115.2838008, 36.139745699799995 ], [ -115.2838008, 36.139748399799998 ], [ -115.2837981, 36.139748399799998 ], [ -115.2837981, 36.139751099800002 ], [ -115.2837954, 36.139751099800002 ], [ -115.2837954, 36.1397618998 ], [ -115.2837927, 36.1397618998 ], [ -115.2837927, 36.139769999799995 ], [ -115.28379, 36.139769999799995 ], [ -115.28379, 36.139775399800001 ], [ -115.2837873, 36.139775399800001 ], [ -115.2837873, 36.1397807998 ], [ -115.2837846, 36.1397807998 ], [ -115.2837846, 36.139783499799996 ], [ -115.2837819, 36.139783499799996 ], [ -115.2837819, 36.1397861998 ], [ -115.2837792, 36.1397861998 ], [ -115.2837792, 36.139788899799996 ], [ -115.2837765, 36.139788899799996 ], [ -115.2837765, 36.139791599799999 ], [ -115.2837738, 36.139791599799999 ], [ -115.2837738, 36.139794299799995 ], [ -115.2837711, 36.139794299799995 ], [ -115.2837711, 36.139796999799998 ], [ -115.2837684, 36.139796999799998 ], [ -115.2837684, 36.139799699800001 ], [ -115.283763, 36.139799699800001 ], [ -115.283763, 36.139802399799997 ], [ -115.2837603, 36.139802399799997 ], [ -115.2837603, 36.1398050998 ], [ -115.2837549, 36.1398050998 ], [ -115.2837549, 36.139807799799996 ], [ -115.2837522, 36.139807799799996 ], [ -115.2837522, 36.139810499799999 ], [ -115.2837495, 36.139810499799999 ], [ -115.2837495, 36.139813199799995 ], [ -115.2837441, 36.139813199799995 ], [ -115.2837441, 36.139815899799999 ], [ -115.2837414, 36.139815899799999 ], [ -115.2837414, 36.139818599800002 ], [ -115.2837387, 36.139818599800002 ], [ -115.2837387, 36.139821299799998 ], [ -115.2837333, 36.139821299799998 ], [ -115.2837333, 36.139823999800001 ] ] ] } },
{ "type": "Feature", "properties": { "value": 255.0 }, "geometry": { "type": "Polygon", "coordinates": [ [ [ -115.2831204, 36.1394864998 ], [ -115.2830934, 36.1394864998 ], [ -115.2830934, 36.139481099800001 ], [ -115.2830907, 36.139481099800001 ], [ -115.2830907, 36.139475699799995 ], [ -115.2830934, 36.139475699799995 ], [ -115.2830934, 36.139472999799999 ], [ -115.2831042, 36.139472999799999 ], [ -115.2831042, 36.139475699799995 ], [ -115.2831123, 36.139475699799995 ], [ -115.2831123, 36.139472999799999 ], [ -115.2831204, 36.139472999799999 ], [ -115.2831204, 36.1394864998 ] ] ] } },
{ "type": "Feature", "properties": { "value": 255.0 }, "geometry": { "type": "Polygon", "coordinates": [ [ [ -115.283412, 36.1396700998 ], [ -115.2834039, 36.1396700998 ], [ -115.2834039, 36.139667399799997 ], [ -115.2833931, 36.139667399799997 ], [ -115.2833931, 36.139664699800001 ], [ -115.2833769, 36.139664699800001 ], [ -115.2833769, 36.139661999799998 ], [ -115.2833688, 36.139661999799998 ], [ -115.2833688, 36.139659299799995 ], [ -115.2833634, 36.139659299799995 ], [ -115.2833634, 36.139656599799999 ], [ -115.283358, 36.139656599799999 ], [ -115.283358, 36.139653899799995 ], [ -115.2833526, 36.139653899799995 ], [ -115.2833526, 36.139651199799999 ], [ -115.2833472, 36.139651199799999 ], [ -115.2833472, 36.139648499799996 ], [ -115.2833418, 36.139648499799996 ], [ -115.2833418, 36.1396457998 ], [ -115.2833364, 36.1396457998 ], [ -115.2833364, 36.139643099799997 ], [ -115.2833337, 36.139643099799997 ], [ -115.2833337, 36.139640399800001 ], [ -115.2833256, 36.139640399800001 ], [ -115.2833256, 36.139637699799998 ], [ -115.2833202, 36.139637699799998 ], [ -115.2833202, 36.139632299799999 ], [ -115.2833148, 36.139632299799999 ], [ -115.2833148, 36.139629599799996 ], [ -115.2833121, 36.139629599799996 ], [ -115.2833121, 36.1396268998 ], [ -115.2833067, 36.1396268998 ], [ -115.2833067, 36.139624199799997 ], [ -115.2833013, 36.139624199799997 ], [ -115.2833013, 36.1396214998 ], [ -115.2832959, 36.1396214998 ], [ -115.2832959, 36.139618799799997 ], [ -115.2832851, 36.139618799799997 ], [ -115.2832851, 36.139616099800001 ], [ -115.28325, 36.139616099800001 ], [ -115.28325, 36.139613399799998 ], [ -115.2832419, 36.139613399799998 ], [ -115.2832419, 36.139610699799995 ], [ -115.2832365, 36.139610699799995 ], [ -115.2832365, 36.139607999799999 ], [ -115.2832311, 36.139607999799999 ], [ -115.2832311, 36.139605299799996 ], [ -115.2832257, 36.139605299799996 ], [ -115.2832257, 36.1396025998 ], [ -115.2832203, 36.1396025998 ], [ -115.2832203, 36.139599899799997 ], [ -115.2832149, 36.139599899799997 ], [ -115.2832149, 36.139597199800001 ], [ -115.2832095, 36.139597199800001 ], [ -115.2832095, 36.139594499799998 ], [ -115.2832041, 36.139594499799998 ], [ -115.2832041, 36.139591799799994 ], [ -115.2831987, 36.139591799799994 ], [ -115.2831987, 36.139589099799998 ], [ -115.2831933, 36.139589099799998 ], [ -115.2831933, 36.139586399799995 ], [ -115.2831879, 36.139586399799995 ], [ -115.2831879, 36.139583699799999 ], [ -115.2831825, 36.139583699799999 ], [ -115.2831825, 36.139580999799996 ], [ -115.2831771, 36.139580999799996 ], [ -115.2831771, 36.1395782998 ], [ -115.2831717, 36.1395782998 ], [ -115.2831717, 36.139575599799997 ], [ -115.2831663, 36.139575599799997 ], [ -115.2831663, 36.139572899800001 ], [ -115.2831609, 36.139572899800001 ], [ -115.2831609, 36.139570199799998 ], [ -115.2831555, 36.139570199799998 ], [ -115.2831555, 36.139567499799995 ], [ -115.2831501, 36.139567499799995 ], [ -115.2831501, 36.139564799799999 ], [ -115.2831447, 36.139564799799999 ], [ -115.2831447, 36.139562099799996 ], [ -115.2831339, 36.139562099799996 ], [ -115.2831339, 36.1395593998 ], [ -115.2831312, 36.1395593998 ], [ -115.2831312, 36.139556699799996 ], [ -115.2831258, 36.139556699799996 ], [ -115.2831258, 36.1395539998 ], [ -115.2831204, 36.1395539998 ], [ -115.2831204, 36.139545899799998 ], [ -115.2831231, 36.139545899799998 ], [ -115.2831231, 36.139540499799999 ], [ -115.2831258, 36.139540499799999 ], [ -115.2831258, 36.139537799799996 ], [ -115.2831285, 36.139537799799996 ], [ -115.2831285, 36.1395350998 ], [ -115.2831312, 36.1395350998 ], [ -115.2831312, 36.139532399799997 ], [ -115.2831366, 36.139532399799997 ], [ -115.2831366, 36.139529699800001 ], [ -115.2831393, 36.139529699800001 ], [ -115.2831393, 36.139526999799997 ], [ -115.283142, 36.139526999799997 ], [ -115.283142, 36.139524299799994 ], [ -115.2831447, 36.139524299799994 ], [ -115.2831447, 36.139521599799998 ], [ -115.2831474, 36.139521599799998 ], [ -115.2831474, 36.139518899799995 ], [ -115.2831501, 36.139518899799995 ], [ -115.2831501, 36.139516199799999 ], [ -115.2831528, 36.139516199799999 ], [ -115.2831528, 36.1395107998 ], [ -115.2831555, 36.1395107998 ], [ -115.2831555, 36.139508099799997 ], [ -115.2831609, 36.139508099799997 ], [ -115.2831609, 36.139505399800001 ], [ -115.2831636, 36.139505399800001 ], [ -115.2831636, 36.139502699799998 ], [ -115.283169, 36.139502699799998 ], [ -115.283169, 36.139499999799995 ], [ -115.2831717, 36.139499999799995 ], [ -115.2831717, 36.139497299799999 ], [ -115.283196, 36.139497299799999 ], [ -115.283196, 36.139499999799995 ], [ -115.2832014, 36.139499999799995 ], [ -115.2832014, 36.139502699799998 ], [ -115.2832068, 36.139502699799998 ], [ -115.2832068, 36.139505399800001 ], [ -115.2832122, 36.139505399800001 ], [ -115.2832122, 36.139508099799997 ], [ -115.2832176, 36.139508099799997 ], [ -115.2832176, 36.1395107998 ], [ -115.2832257, 36.1395107998 ], [ -115.2832257, 36.139513499799996 ], [ -115.2832311, 36.139513499799996 ], [ -115.2832311, 36.139516199799999 ], [ -115.2832419, 36.139516199799999 ], [ -115.2832419, 36.139518899799995 ], [ -115.2832689, 36.139518899799995 ], [ -115.2832689, 36.139521599799998 ], [ -115.2832743, 36.139521599799998 ], [ -115.2832743, 36.139524299799994 ], [ -115.2832878, 36.139524299799994 ], [ -115.2832878, 36.139521599799998 ], [ -115.2832959, 36.139521599799998 ], [ -115.2832959, 36.139518899799995 ], [ -115.2832986, 36.139518899799995 ], [ -115.2832986, 36.139516199799999 ], [ -115.2833013, 36.139516199799999 ], [ -115.2833013, 36.139513499799996 ], [ -115.2833094, 36.139513499799996 ], [ -115.2833094, 36.1395107998 ], [ -115.2833202, 36.1395107998 ], [ -115.2833202, 36.139521599799998 ], [ -115.2833256, 36.139521599799998 ], [ -115.2833256, 36.139518899799995 ], [ -115.2833283, 36.139518899799995 ], [ -115.2833283, 36.139516199799999 ], [ -115.2833364, 36.139516199799999 ], [ -115.2833364, 36.139513499799996 ], [ -115.2833445, 36.139513499799996 ], [ -115.2833445, 36.1395107998 ], [ -115.2833472, 36.1395107998 ], [ -115.2833472, 36.139508099799997 ], [ -115.2833499, 36.139508099799997 ], [ -115.2833499, 36.139502699799998 ], [ -115.2833526, 36.139502699799998 ], [ -115.2833526, 36.139497299799999 ], [ -115.2833553, 36.139497299799999 ], [ -115.2833553, 36.139491899799999 ], [ -115.283358, 36.139491899799999 ], [ -115.283358, 36.139489199799996 ], [ -115.2833607, 36.139489199799996 ], [ -115.2833607, 36.1394864998 ], [ -115.2833661, 36.1394864998 ], [ -115.2833661, 36.139483799799997 ], [ -115.2833688, 36.139483799799997 ], [ -115.2833688, 36.139481099800001 ], [ -115.2833715, 36.139481099800001 ], [ -115.2833715, 36.139475699799995 ], [ -115.2833742, 36.139475699799995 ], [ -115.2833742, 36.139472999799999 ], [ -115.2833769, 36.139472999799999 ], [ -115.2833769, 36.1394675998 ], [ -115.2833796, 36.1394675998 ], [ -115.2833796, 36.139464899799997 ], [ -115.2833823, 36.139464899799997 ], [ -115.2833823, 36.139462199800001 ], [ -115.283385, 36.139462199800001 ], [ -115.283385, 36.139459499799997 ], [ -115.2833904, 36.139459499799997 ], [ -115.2833904, 36.139456799799994 ], [ -115.283412, 36.139456799799994 ], [ -115.283412, 36.139454099799998 ], [ -115.2834255, 36.139454099799998 ], [ -115.2834255, 36.139456799799994 ], [ -115.2834282, 36.139456799799994 ], [ -115.2834282, 36.139459499799997 ], [ -115.2834309, 36.139459499799997 ], [ -115.2834309, 36.139462199800001 ], [ -115.2834363, 36.139462199800001 ], [ -115.2834363, 36.139464899799997 ], [ -115.2834498, 36.139464899799997 ], [ -115.2834498, 36.139462199800001 ], [ -115.2834579, 36.139462199800001 ], [ -115.2834579, 36.139459499799997 ], [ -115.2834714, 36.139459499799997 ], [ -115.2834714, 36.139462199800001 ], [ -115.2834741, 36.139462199800001 ], [ -115.2834741, 36.139464899799997 ], [ -115.2834768, 36.139464899799997 ], [ -115.2834768, 36.1394675998 ], [ -115.2834795, 36.1394675998 ], [ -115.2834795, 36.139472999799999 ], [ -115.2834822, 36.139472999799999 ], [ -115.2834822, 36.139475699799995 ], [ -115.2834849, 36.139475699799995 ], [ -115.2834849, 36.139481099800001 ], [ -115.2834876, 36.139481099800001 ], [ -115.2834876, 36.139483799799997 ], [ -115.2834903, 36.139483799799997 ], [ -115.2834903, 36.1394864998 ], [ -115.283493, 36.1394864998 ], [ -115.283493, 36.139489199799996 ], [ -115.2834957, 36.139489199799996 ], [ -115.2834957, 36.139491899799999 ], [ -115.2834984, 36.139491899799999 ], [ -115.2834984, 36.139494599799995 ], [ -115.2835038, 36.139494599799995 ], [ -115.2835038, 36.139497299799999 ], [ -115.2835065, 36.139497299799999 ], [ -115.2835065, 36.139499999799995 ], [ -115.2835092, 36.139499999799995 ], [ -115.2835092, 36.139508099799997 ], [ -115.2835119, 36.139508099799997 ], [ -115.2835119, 36.1395107998 ], [ -115.2835092, 36.1395107998 ], [ -115.2835092, 36.139516199799999 ], [ -115.2835065, 36.139516199799999 ], [ -115.2835065, 36.139521599799998 ], [ -115.2835146, 36.139521599799998 ], [ -115.2835146, 36.139524299799994 ], [ -115.2835227, 36.139524299799994 ], [ -115.2835227, 36.139526999799997 ], [ -115.2835254, 36.139526999799997 ], [ -115.2835254, 36.1395350998 ], [ -115.2835227, 36.1395350998 ], [ -115.2835227, 36.139540499799999 ], [ -115.28352, 36.139540499799999 ], [ -115.28352, 36.139551299799997 ], [ -115.2835173, 36.139551299799997 ], [ -115.2835173, 36.1395539998 ], [ -115.2835146, 36.1395539998 ], [ -115.2835146, 36.139556699799996 ], [ -115.2835119, 36.139556699799996 ], [ -115.2835119, 36.1395593998 ], [ -115.2835092, 36.1395593998 ], [ -115.2835092, 36.139564799799999 ], [ -115.2835065, 36.139564799799999 ], [ -115.2835065, 36.139567499799995 ], [ -115.2835038, 36.139567499799995 ], [ -115.2835038, 36.139570199799998 ], [ -115.2835011, 36.139570199799998 ], [ -115.2835011, 36.139572899800001 ], [ -115.2834984, 36.139572899800001 ], [ -115.2834984, 36.1395782998 ], [ -115.2834957, 36.1395782998 ], [ -115.2834957, 36.139580999799996 ], [ -115.2834903, 36.139580999799996 ], [ -115.2834903, 36.139583699799999 ], [ -115.2834876, 36.139583699799999 ], [ -115.2834876, 36.139589099799998 ], [ -115.2834849, 36.139589099799998 ], [ -115.2834849, 36.139594499799998 ], [ -115.2834822, 36.139594499799998 ], [ -115.2834822, 36.139597199800001 ], [ -115.2834795, 36.139597199800001 ], [ -115.2834795, 36.1396025998 ], [ -115.2834768, 36.1396025998 ], [ -115.2834768, 36.139605299799996 ], [ -115.2834741, 36.139605299799996 ], [ -115.2834741, 36.139607999799999 ], [ -115.2834714, 36.139607999799999 ], [ -115.2834714, 36.139610699799995 ], [ -115.2834687, 36.139610699799995 ], [ -115.2834687, 36.139613399799998 ], [ -115.283466, 36.139613399799998 ], [ -115.283466, 36.139618799799997 ], [ -115.2834633, 36.139618799799997 ], [ -115.2834633, 36.1396214998 ], [ -115.2834606, 36.1396214998 ], [ -115.2834606, 36.139624199799997 ], [ -115.2834579, 36.139624199799997 ], [ -115.2834579, 36.139629599799996 ], [ -115.2834552, 36.139629599799996 ], [ -115.2834552, 36.139632299799999 ], [ -115.2834525, 36.139632299799999 ], [ -115.2834525, 36.139634999799995 ], [ -115.2834498, 36.139634999799995 ], [ -115.2834498, 36.139637699799998 ], [ -115.2834471, 36.139637699799998 ], [ -115.2834471, 36.139643099799997 ], [ -115.2834444, 36.139643099799997 ], [ -115.2834444, 36.1396457998 ], [ -115.283439, 36.1396457998 ], [ -115.283439, 36.139648499799996 ], [ -115.2834363, 36.139648499799996 ], [ -115.2834363, 36.139651199799999 ], [ -115.2834336, 36.139651199799999 ], [ -115.2834336, 36.139653899799995 ], [ -115.2834309, 36.139653899799995 ], [ -115.2834309, 36.139656599799999 ], [ -115.2834282, 36.139656599799999 ], [ -115.2834282, 36.139659299799995 ], [ -115.2834255, 36.139659299799995 ], [ -115.2834255, 36.139661999799998 ], [ -115.2834228, 36.139661999799998 ], [ -115.2834228, 36.139664699800001 ], [ -115.2834174, 36.139664699800001 ], [ -115.2834174, 36.139667399799997 ], [ -115.283412, 36.139667399799997 ], [ -115.283412, 36.1396700998 ] ] ] } },
{ "type": "Feature", "properties": { "value": 255.0 }, "geometry": { "type": "Polygon", "coordinates": [ [ [ -115.2841815, 36.139275899799998 ], [ -115.2841437, 36.139275899799998 ], [ -115.2841437, 36.139273199799995 ], [ -115.2841302, 36.139273199799995 ], [ -115.2841302, 36.139270499799999 ], [ -115.2841194, 36.139270499799999 ], [ -115.2841194, 36.139267799799995 ], [ -115.2841113, 36.139267799799995 ], [ -115.2841113, 36.139265099799999 ], [ -115.2841032, 36.139265099799999 ], [ -115.2841032, 36.139262399799996 ], [ -115.2841005, 36.139262399799996 ], [ -115.2841005, 36.1392596998 ], [ -115.2840951, 36.1392596998 ], [ -115.2840951, 36.139256999799997 ], [ -115.2840924, 36.139256999799997 ], [ -115.2840924, 36.139254299799994 ], [ -115.2840897, 36.139254299799994 ], [ -115.2840897, 36.139251599799998 ], [ -115.284087, 36.139251599799998 ], [ -115.284087, 36.139248899799995 ], [ -115.2840816, 36.139248899799995 ], [ -115.2840816, 36.139246199799999 ], [ -115.2840789, 36.139246199799999 ], [ -115.2840789, 36.139243499799996 ], [ -115.2840762, 36.139243499799996 ], [ -115.2840762, 36.1392407998 ], [ -115.2840735, 36.1392407998 ], [ -115.2840735, 36.139238099799996 ], [ -115.2840708, 36.139238099799996 ], [ -115.2840708, 36.1392353998 ], [ -115.2840654, 36.1392353998 ], [ -115.2840654, 36.139232699799997 ], [ -115.2840627, 36.139232699799997 ], [ -115.2840627, 36.139229999799994 ], [ -115.2840573, 36.139229999799994 ], [ -115.2840573, 36.139227299799998 ], [ -115.2840546, 36.139227299799998 ], [ -115.2840546, 36.139224599799995 ], [ -115.2840492, 36.139224599799995 ], [ -115.2840492, 36.139219199799996 ], [ -115.2840465, 36.139219199799996 ], [ -115.2840465, 36.139202999799998 ], [ -115.2840492, 36.139202999799998 ], [ -115.2840492, 36.1391921998 ], [ -115.2840519, 36.1391921998 ], [ -115.2840519, 36.139181399799995 ], [ -115.2840546, 36.139181399799995 ], [ -115.2840546, 36.139170599799996 ], [ -115.2840573, 36.139170599799996 ], [ -115.2840573, 36.139140899799997 ], [ -115.28406, 36.139140899799997 ], [ -115.28406, 36.139135499799998 ], [ -115.2840654, 36.139135499799998 ], [ -115.2840654, 36.139132799799995 ], [ -115.2840681, 36.139132799799995 ], [ -115.2840681, 36.139130099799999 ], [ -115.2840735, 36.139130099799999 ], [ -115.2840735, 36.139127399799996 ], [ -115.2840762, 36.139127399799996 ], [ -115.2840762, 36.1391246998 ], [ -115.2840789, 36.1391246998 ], [ -115.2840789, 36.139119299799994 ], [ -115.2840816, 36.139119299799994 ], [ -115.2840816, 36.139116599799998 ], [ -115.2840843, 36.139116599799998 ], [ -115.2840843, 36.139111199799999 ], [ -115.284087, 36.139111199799999 ], [ -115.284087, 36.139108499799995 ], [ -115.2840897, 36.139108499799995 ], [ -115.2840897, 36.139105799799999 ], [ -115.2840924, 36.139105799799999 ], [ -115.2840924, 36.139103099799996 ], [ -115.2840951, 36.139103099799996 ], [ -115.2840951, 36.1391003998 ], [ -115.2840978, 36.1391003998 ], [ -115.2840978, 36.139089599799995 ], [ -115.2841005, 36.139089599799995 ], [ -115.2841005, 36.139084199799996 ], [ -115.2841032, 36.139084199799996 ], [ -115.2841032, 36.1390814998 ], [ -115.2841059, 36.1390814998 ], [ -115.2841059, 36.139078799799996 ], [ -115.2841113, 36.139078799799996 ], [ -115.2841113, 36.1390760998 ], [ -115.2841167, 36.1390760998 ], [ -115.2841167, 36.139073399799997 ], [ -115.2841221, 36.139073399799997 ], [ -115.2841221, 36.139067999799998 ], [ -115.2841248, 36.139067999799998 ], [ -115.2841248, 36.139065299799995 ], [ -115.2841275, 36.139065299799995 ], [ -115.2841275, 36.1390571998 ], [ -115.2841302, 36.1390571998 ], [ -115.2841302, 36.139054499799997 ], [ -115.2841356, 36.139054499799997 ], [ -115.2841356, 36.139051799799994 ], [ -115.2841545, 36.139051799799994 ], [ -115.2841545, 36.139054499799997 ], [ -115.2841815, 36.139054499799997 ], [ -115.2841815, 36.1390571998 ], [ -115.2841896, 36.1390571998 ], [ -115.2841896, 36.139059899799996 ], [ -115.284195, 36.139059899799996 ], [ -115.284195, 36.139062599799999 ], [ -115.2842004, 36.139062599799999 ], [ -115.2842004, 36.139065299799995 ], [ -115.2842031, 36.139065299799995 ], [ -115.2842031, 36.139067999799998 ], [ -115.2842058, 36.139067999799998 ], [ -115.2842058, 36.139070699799994 ], [ -115.284222, 36.139070699799994 ], [ -115.284222, 36.139073399799997 ], [ -115.2842328, 36.139073399799997 ], [ -115.2842328, 36.139070699799994 ], [ -115.2842544, 36.139070699799994 ], [ -115.2842544, 36.139067999799998 ], [ -115.2842571, 36.139067999799998 ], [ -115.2842571, 36.139070699799994 ], [ -115.2842625, 36.139070699799994 ], [ -115.2842625, 36.139073399799997 ], [ -115.2842652, 36.139073399799997 ], [ -115.2842652, 36.139078799799996 ], [ -115.2842679, 36.139078799799996 ], [ -115.2842679, 36.1390814998 ], [ -115.2842706, 36.1390814998 ], [ -115.2842706, 36.139086899799999 ], [ -115.2842733, 36.139086899799999 ], [ -115.2842733, 36.139092299799998 ], [ -115.284276, 36.139092299799998 ], [ -115.284276, 36.139097699799997 ], [ -115.2842787, 36.139097699799997 ], [ -115.2842787, 36.139103099799996 ], [ -115.2842814, 36.139103099799996 ], [ -115.2842814, 36.139108499799995 ], [ -115.2842841, 36.139108499799995 ], [ -115.2842841, 36.139111199799999 ], [ -115.2842868, 36.139111199799999 ], [ -115.2842868, 36.139116599799998 ], [ -115.2842895, 36.139116599799998 ], [ -115.2842895, 36.1391246998 ], [ -115.2842922, 36.1391246998 ], [ -115.2842922, 36.139130099799999 ], [ -115.2842949, 36.139130099799999 ], [ -115.2842949, 36.139135499799998 ], [ -115.2842976, 36.139135499799998 ], [ -115.2842976, 36.139138199799994 ], [ -115.2843003, 36.139138199799994 ], [ -115.2843003, 36.139146299799997 ], [ -115.284303, 36.139146299799997 ], [ -115.284303, 36.139151699799996 ], [ -115.2843057, 36.139151699799996 ], [ -115.2843057, 36.139157099799995 ], [ -115.284303, 36.139157099799995 ], [ -115.284303, 36.139159799799998 ], [ -115.2842922, 36.139159799799998 ], [ -115.2842922, 36.139162499799994 ], [ -115.2842841, 36.139162499799994 ], [ -115.2842841, 36.139165199799997 ], [ -115.284276, 36.139165199799997 ], [ -115.284276, 36.139170599799996 ], [ -115.2842733, 36.139170599799996 ], [ -115.2842733, 36.1391921998 ], [ -115.2842706, 36.1391921998 ], [ -115.2842706, 36.139202999799998 ], [ -115.2842679, 36.139202999799998 ], [ -115.2842679, 36.1392164998 ], [ -115.2842652, 36.1392164998 ], [ -115.2842652, 36.139227299799998 ], [ -115.2842625, 36.139227299799998 ], [ -115.2842625, 36.139232699799997 ], [ -115.2842571, 36.139232699799997 ], [ -115.2842571, 36.1392353998 ], [ -115.2842517, 36.1392353998 ], [ -115.2842517, 36.1392407998 ], [ -115.284249, 36.1392407998 ], [ -115.284249, 36.139243499799996 ], [ -115.2842436, 36.139243499799996 ], [ -115.2842436, 36.139248899799995 ], [ -115.2842409, 36.139248899799995 ], [ -115.2842409, 36.139251599799998 ], [ -115.2842382, 36.139251599799998 ], [ -115.2842382, 36.139254299799994 ], [ -115.2842355, 36.139254299799994 ], [ -115.2842355, 36.139256999799997 ], [ -115.2842328, 36.139256999799997 ], [ -115.2842328, 36.1392596998 ], [ -115.2842274, 36.1392596998 ], [ -115.2842274, 36.139262399799996 ], [ -115.2842247, 36.139262399799996 ], [ -115.2842247, 36.139265099799999 ], [ -115.2842193, 36.139265099799999 ], [ -115.2842193, 36.139267799799995 ], [ -115.2842139, 36.139267799799995 ], [ -115.2842139, 36.139270499799999 ], [ -115.2841923, 36.139270499799999 ], [ -115.2841923, 36.139273199799995 ], [ -115.2841815, 36.139273199799995 ], [ -115.2841815, 36.139275899799998 ] ] ] } },
{ "type": "Feature", "properties": { "value": 255.0 }, "geometry": { "type": "Polygon", "coordinates": [ [ [ -115.2829503, 36.1393946998 ], [ -115.2829476, 36.1393946998 ], [ -115.2829476, 36.139340699799995 ], [ -115.2829503, 36.139340699799995 ], [ -115.2829503, 36.139337999799999 ], [ -115.282953, 36.139337999799999 ], [ -115.282953, 36.139335299799995 ], [ -115.2829584, 36.139335299799995 ], [ -115.2829584, 36.139332599799999 ], [ -115.2829611, 36.139332599799999 ], [ -115.2829611, 36.139329899799996 ], [ -115.2829638, 36.139329899799996 ], [ -115.2829638, 36.1393271998 ], [ -115.2829665, 36.1393271998 ], [ -115.2829665, 36.139324499799997 ], [ -115.2829692, 36.139324499799997 ], [ -115.2829692, 36.139321799799994 ], [ -115.2829719, 36.139321799799994 ], [ -115.2829719, 36.139319099799998 ], [ -115.2829746, 36.139319099799998 ], [ -115.2829746, 36.139316399799995 ], [ -115.2829773, 36.139316399799995 ], [ -115.2829773, 36.1393082998 ], [ -115.2829746, 36.1393082998 ], [ -115.2829746, 36.139297499799994 ], [ -115.2829773, 36.139297499799994 ], [ -115.2829773, 36.139294799799998 ], [ -115.2829746, 36.139294799799998 ], [ -115.2829746, 36.139289399799999 ], [ -115.2829773, 36.139289399799999 ], [ -115.2829773, 36.1392839998 ], [ -115.28298, 36.1392839998 ], [ -115.28298, 36.139281299799997 ], [ -115.2829827, 36.139281299799997 ], [ -115.2829827, 36.139278599800001 ], [ -115.2829854, 36.139278599800001 ], [ -115.2829854, 36.139275899799998 ], [ -115.2829881, 36.139275899799998 ], [ -115.2829881, 36.139270499799999 ], [ -115.2829908, 36.139270499799999 ], [ -115.2829908, 36.139265099799999 ], [ -115.2829935, 36.139265099799999 ], [ -115.2829935, 36.139262399799996 ], [ -115.2829962, 36.139262399799996 ], [ -115.2829962, 36.1392596998 ], [ -115.2829989, 36.1392596998 ], [ -115.2829989, 36.139256999799997 ], [ -115.2830016, 36.139256999799997 ], [ -115.2830016, 36.139254299799994 ], [ -115.2830043, 36.139254299799994 ], [ -115.2830043, 36.139248899799995 ], [ -115.283007, 36.139248899799995 ], [ -115.283007, 36.139246199799999 ], [ -115.2830097, 36.139246199799999 ], [ -115.2830097, 36.139243499799996 ], [ -115.2830124, 36.139243499799996 ], [ -115.2830124, 36.1392407998 ], [ -115.2830151, 36.1392407998 ], [ -115.2830151, 36.139238099799996 ], [ -115.2830178, 36.139238099799996 ], [ -115.2830178, 36.1392353998 ], [ -115.2830205, 36.1392353998 ], [ -115.2830205, 36.139232699799997 ], [ -115.2830232, 36.139232699799997 ], [ -115.2830232, 36.139229999799994 ], [ -115.2830259, 36.139229999799994 ], [ -115.2830259, 36.139227299799998 ], [ -115.2830286, 36.139227299799998 ], [ -115.2830286, 36.139224599799995 ], [ -115.283034, 36.139224599799995 ], [ -115.283034, 36.139221899799999 ], [ -115.2830367, 36.139221899799999 ], [ -115.2830367, 36.139219199799996 ], [ -115.2830421, 36.139219199799996 ], [ -115.2830421, 36.1392164998 ], [ -115.2830448, 36.1392164998 ], [ -115.2830448, 36.139213799799997 ], [ -115.2830475, 36.139213799799997 ], [ -115.2830475, 36.139211099800001 ], [ -115.2830502, 36.139211099800001 ], [ -115.2830502, 36.139202999799998 ], [ -115.2830529, 36.139202999799998 ], [ -115.2830529, 36.139197599799999 ], [ -115.2830556, 36.139197599799999 ], [ -115.2830556, 36.139194899799996 ], [ -115.2830583, 36.139194899799996 ], [ -115.2830583, 36.1391921998 ], [ -115.283061, 36.1391921998 ], [ -115.283061, 36.139189499799997 ], [ -115.2830637, 36.139189499799997 ], [ -115.2830637, 36.139184099799998 ], [ -115.2830664, 36.139184099799998 ], [ -115.2830664, 36.139181399799995 ], [ -115.2830691, 36.139181399799995 ], [ -115.2830691, 36.139178699799999 ], [ -115.2830718, 36.139178699799999 ], [ -115.2830718, 36.139175999799996 ], [ -115.2830745, 36.139175999799996 ], [ -115.2830745, 36.139173299799999 ], [ -115.2830772, 36.139173299799999 ], [ -115.2830772, 36.139170599799996 ], [ -115.2830826, 36.139170599799996 ], [ -115.2830826, 36.1391678998 ], [ -115.2830853, 36.1391678998 ], [ -115.2830853, 36.139165199799997 ], [ -115.283088, 36.139165199799997 ], [ -115.283088, 36.139162499799994 ], [ -115.2830907, 36.139162499799994 ], [ -115.2830907, 36.139159799799998 ], [ -115.2830934, 36.139159799799998 ], [ -115.2830934, 36.139154399799999 ], [ -115.2830961, 36.139154399799999 ], [ -115.2830961, 36.139151699799996 ], [ -115.2830988, 36.139151699799996 ], [ -115.2830988, 36.1391489998 ], [ -115.2831015, 36.1391489998 ], [ -115.2831015, 36.139146299799997 ], [ -115.2831042, 36.139146299799997 ], [ -115.2831042, 36.139140899799997 ], [ -115.2831069, 36.139140899799997 ], [ -115.2831069, 36.139135499799998 ], [ -115.2831096, 36.139135499799998 ], [ -115.2831096, 36.139132799799995 ], [ -115.2831123, 36.139132799799995 ], [ -115.2831123, 36.139130099799999 ], [ -115.283115, 36.139130099799999 ], [ -115.283115, 36.139127399799996 ], [ -115.2831177, 36.139127399799996 ], [ -115.2831177, 36.1391246998 ], [ -115.2831204, 36.1391246998 ], [ -115.2831204, 36.139121999799997 ], [ -115.2831231, 36.139121999799997 ], [ -115.2831231, 36.139119299799994 ], [ -115.2831258, 36.139119299799994 ], [ -115.2831258, 36.139116599799998 ], [ -115.2831285, 36.139116599799998 ], [ -115.2831285, 36.139113899799995 ], [ -115.2831312, 36.139113899799995 ], [ -115.2831312, 36.139111199799999 ], [ -115.2831339, 36.139111199799999 ], [ -115.2831339, 36.139105799799999 ], [ -115.2831366, 36.139105799799999 ], [ -115.2831366, 36.139103099799996 ], [ -115.2831393, 36.139103099799996 ], [ -115.2831393, 36.1391003998 ], [ -115.283142, 36.1391003998 ], [ -115.283142, 36.139097699799997 ], [ -115.2831447, 36.139097699799997 ], [ -115.2831447, 36.139094999799994 ], [ -115.2831474, 36.139094999799994 ], [ -115.2831474, 36.139092299799998 ], [ -115.2831501, 36.139092299799998 ], [ -115.2831501, 36.139089599799995 ], [ -115.2831528, 36.139089599799995 ], [ -115.2831528, 36.139086899799999 ], [ -115.2831555, 36.139086899799999 ], [ -115.2831555, 36.139084199799996 ], [ -115.2831582, 36.139084199799996 ], [ -115.2831582, 36.1390814998 ], [ -115.2831609, 36.1390814998 ], [ -115.2831609, 36.139078799799996 ], [ -115.2831663, 36.139078799799996 ], [ -115.2831663, 36.139073399799997 ], [ -115.283169, 36.139073399799997 ], [ -115.283169, 36.139070699799994 ], [ -115.2831717, 36.139070699799994 ], [ -115.2831717, 36.139067999799998 ], [ -115.2831771, 36.139067999799998 ], [ -115.2831771, 36.139065299799995 ], [ -115.2831798, 36.139065299799995 ], [ -115.2831798, 36.139062599799999 ], [ -115.2831825, 36.139062599799999 ], [ -115.2831825, 36.139059899799996 ], [ -115.2831852, 36.139059899799996 ], [ -115.2831852, 36.1390571998 ], [ -115.2831879, 36.1390571998 ], [ -115.2831879, 36.139054499799997 ], [ -115.2831906, 36.139054499799997 ], [ -115.2831906, 36.139051799799994 ], [ -115.283196, 36.139051799799994 ], [ -115.283196, 36.139049099799998 ], [ -115.2831987, 36.139049099799998 ], [ -115.2831987, 36.139046399799994 ], [ -115.2832014, 36.139046399799994 ], [ -115.2832014, 36.139043699799998 ], [ -115.2832041, 36.139043699799998 ], [ -115.2832041, 36.139040999799995 ], [ -115.2832122, 36.139040999799995 ], [ -115.2832122, 36.139038299799999 ], [ -115.2832149, 36.139038299799999 ], [ -115.2832149, 36.1390328998 ], [ -115.2832176, 36.1390328998 ], [ -115.2832176, 36.139027499799994 ], [ -115.2832203, 36.139027499799994 ], [ -115.2832203, 36.139024799799998 ], [ -115.283223, 36.139024799799998 ], [ -115.283223, 36.139022099799995 ], [ -115.2832257, 36.139022099799995 ], [ -115.2832257, 36.139019399799999 ], [ -115.2832311, 36.139019399799999 ], [ -115.2832311, 36.139016699799996 ], [ -115.2832338, 36.139016699799996 ], [ -115.2832338, 36.1390139998 ], [ -115.2832419, 36.1390139998 ], [ -115.2832419, 36.139011299799996 ], [ -115.2832554, 36.139011299799996 ], [ -115.2832554, 36.1390085998 ], [ -115.2832608, 36.1390085998 ], [ -115.2832608, 36.139011299799996 ], [ -115.2832635, 36.139011299799996 ], [ -115.2832635, 36.139016699799996 ], [ -115.2832662, 36.139016699799996 ], [ -115.2832662, 36.139022099799995 ], [ -115.2832689, 36.139022099799995 ], [ -115.2832689, 36.139024799799998 ], [ -115.2832716, 36.139024799799998 ], [ -115.2832716, 36.139027499799994 ], [ -115.2832743, 36.139027499799994 ], [ -115.2832743, 36.139040999799995 ], [ -115.2832716, 36.139040999799995 ], [ -115.2832716, 36.139043699799998 ], [ -115.2832689, 36.139043699799998 ], [ -115.2832689, 36.139046399799994 ], [ -115.2832662, 36.139046399799994 ], [ -115.2832662, 36.139059899799996 ], [ -115.2832635, 36.139059899799996 ], [ -115.2832635, 36.139065299799995 ], [ -115.2832608, 36.139065299799995 ], [ -115.2832608, 36.139067999799998 ], [ -115.2832581, 36.139067999799998 ], [ -115.2832581, 36.139073399799997 ], [ -115.2832554, 36.139073399799997 ], [ -115.2832554, 36.1390760998 ], [ -115.2832527, 36.1390760998 ], [ -115.2832527, 36.1390814998 ], [ -115.2832608, 36.1390814998 ], [ -115.2832608, 36.139084199799996 ], [ -115.2832689, 36.139084199799996 ], [ -115.2832689, 36.1390814998 ], [ -115.2832743, 36.1390814998 ], [ -115.2832743, 36.139078799799996 ], [ -115.283277, 36.139078799799996 ], [ -115.283277, 36.1390760998 ], [ -115.2832824, 36.1390760998 ], [ -115.2832824, 36.139070699799994 ], [ -115.2832851, 36.139070699799994 ], [ -115.2832851, 36.139067999799998 ], [ -115.2832878, 36.139067999799998 ], [ -115.2832878, 36.139070699799994 ], [ -115.2832959, 36.139070699799994 ], [ -115.2832959, 36.139067999799998 ], [ -115.2833121, 36.139067999799998 ], [ -115.2833121, 36.139070699799994 ], [ -115.2833202, 36.139070699799994 ], [ -115.2833202, 36.1390760998 ], [ -115.2833229, 36.1390760998 ], [ -115.2833229, 36.139078799799996 ], [ -115.2833256, 36.139078799799996 ], [ -115.2833256, 36.1390814998 ], [ -115.283331, 36.1390814998 ], [ -115.283331, 36.139084199799996 ], [ -115.2833337, 36.139084199799996 ], [ -115.2833337, 36.139086899799999 ], [ -115.2833391, 36.139086899799999 ], [ -115.2833391, 36.139089599799995 ], [ -115.2833418, 36.139089599799995 ], [ -115.2833418, 36.139092299799998 ], [ -115.2833445, 36.139092299799998 ], [ -115.2833445, 36.139097699799997 ], [ -115.2833472, 36.139097699799997 ], [ -115.2833472, 36.139105799799999 ], [ -115.2833499, 36.139105799799999 ], [ -115.2833499, 36.139111199799999 ], [ -115.2833526, 36.139111199799999 ], [ -115.2833526, 36.139113899799995 ], [ -115.283358, 36.139113899799995 ], [ -115.283358, 36.139116599799998 ], [ -115.2833607, 36.139116599799998 ], [ -115.2833607, 36.139119299799994 ], [ -115.2833715, 36.139119299799994 ], [ -115.2833715, 36.139121999799997 ], [ -115.2833769, 36.139121999799997 ], [ -115.2833769, 36.1391246998 ], [ -115.283385, 36.1391246998 ], [ -115.283385, 36.139127399799996 ], [ -115.2833877, 36.139127399799996 ], [ -115.2833877, 36.139130099799999 ], [ -115.2833958, 36.139130099799999 ], [ -115.2833958, 36.139132799799995 ], [ -115.2834066, 36.139132799799995 ], [ -115.2834066, 36.139135499799998 ], [ -115.2834228, 36.139135499799998 ], [ -115.2834228, 36.139138199799994 ], [ -115.2834282, 36.139138199799994 ], [ -115.2834282, 36.139143599800001 ], [ -115.2834309, 36.139143599800001 ], [ -115.2834309, 36.139159799799998 ], [ -115.2834336, 36.139159799799998 ], [ -115.2834336, 36.139162499799994 ], [ -115.2834363, 36.139162499799994 ], [ -115.2834363, 36.139173299799999 ], [ -115.283439, 36.139173299799999 ], [ -115.283439, 36.139175999799996 ], [ -115.2834417, 36.139175999799996 ], [ -115.2834417, 36.139181399799995 ], [ -115.2834444, 36.139181399799995 ], [ -115.2834444, 36.139184099799998 ], [ -115.2834471, 36.139184099799998 ], [ -115.2834471, 36.139186799799994 ], [ -115.2834525, 36.139186799799994 ], [ -115.2834525, 36.139189499799997 ], [ -115.2834552, 36.139189499799997 ], [ -115.2834552, 36.1391921998 ], [ -115.2834687, 36.1391921998 ], [ -115.2834687, 36.139197599799999 ], [ -115.2834714, 36.139197599799999 ], [ -115.2834714, 36.139200299799995 ], [ -115.2834876, 36.139200299799995 ], [ -115.2834876, 36.139202999799998 ], [ -115.2834687, 36.139202999799998 ], [ -115.2834687, 36.139205699799994 ], [ -115.283466, 36.139205699799994 ], [ -115.283466, 36.139208399799998 ], [ -115.2834633, 36.139208399799998 ], [ -115.2834633, 36.139211099800001 ], [ -115.2834579, 36.139211099800001 ], [ -115.2834579, 36.139213799799997 ], [ -115.2834498, 36.139213799799997 ], [ -115.2834498, 36.1392164998 ], [ -115.2834417, 36.1392164998 ], [ -115.2834417, 36.139219199799996 ], [ -115.283439, 36.139219199799996 ], [ -115.283439, 36.139221899799999 ], [ -115.2834309, 36.139221899799999 ], [ -115.2834309, 36.139219199799996 ], [ -115.2834147, 36.139219199799996 ], [ -115.2834147, 36.139221899799999 ], [ -115.2834066, 36.139221899799999 ], [ -115.2834066, 36.139224599799995 ], [ -115.2833985, 36.139224599799995 ], [ -115.2833985, 36.139229999799994 ], [ -115.2833958, 36.139229999799994 ], [ -115.2833958, 36.139232699799997 ], [ -115.2833904, 36.139232699799997 ], [ -115.2833904, 36.1392353998 ], [ -115.2833877, 36.1392353998 ], [ -115.2833877, 36.1392407998 ], [ -115.283385, 36.1392407998 ], [ -115.283385, 36.139243499799996 ], [ -115.2833796, 36.139243499799996 ], [ -115.2833796, 36.139246199799999 ], [ -115.2833769, 36.139246199799999 ], [ -115.2833769, 36.139248899799995 ], [ -115.2833688, 36.139248899799995 ], [ -115.2833688, 36.139251599799998 ], [ -115.2833634, 36.139251599799998 ], [ -115.2833634, 36.139254299799994 ], [ -115.2833553, 36.139254299799994 ], [ -115.2833553, 36.139256999799997 ], [ -115.2833526, 36.139256999799997 ], [ -115.2833526, 36.1392596998 ], [ -115.2833472, 36.1392596998 ], [ -115.2833472, 36.139262399799996 ], [ -115.2833445, 36.139262399799996 ], [ -115.2833445, 36.139265099799999 ], [ -115.2833391, 36.139265099799999 ], [ -115.2833391, 36.139267799799995 ], [ -115.2833337, 36.139267799799995 ], [ -115.2833337, 36.139270499799999 ], [ -115.2833283, 36.139270499799999 ], [ -115.2833283, 36.139273199799995 ], [ -115.2833229, 36.139273199799995 ], [ -115.2833229, 36.139275899799998 ], [ -115.2833202, 36.139275899799998 ], [ -115.2833202, 36.139281299799997 ], [ -115.2833175, 36.139281299799997 ], [ -115.2833175, 36.1392839998 ], [ -115.2833121, 36.1392839998 ], [ -115.2833121, 36.139286699799996 ], [ -115.2833094, 36.139286699799996 ], [ -115.2833094, 36.139289399799999 ], [ -115.283304, 36.139289399799999 ], [ -115.283304, 36.139292099799995 ], [ -115.2832986, 36.139292099799995 ], [ -115.2832986, 36.139294799799998 ], [ -115.2832959, 36.139294799799998 ], [ -115.2832959, 36.139297499799994 ], [ -115.2832905, 36.139297499799994 ], [ -115.2832905, 36.139300199799997 ], [ -115.2832851, 36.139300199799997 ], [ -115.2832851, 36.139302899800001 ], [ -115.2832824, 36.139302899800001 ], [ -115.2832824, 36.139305599799997 ], [ -115.283277, 36.139305599799997 ], [ -115.283277, 36.1393082998 ], [ -115.2832716, 36.1393082998 ], [ -115.2832716, 36.139310999799996 ], [ -115.2832662, 36.139310999799996 ], [ -115.2832662, 36.139313699799999 ], [ -115.2832635, 36.139313699799999 ], [ -115.2832635, 36.139316399799995 ], [ -115.2832608, 36.139316399799995 ], [ -115.2832608, 36.139319099799998 ], [ -115.2832554, 36.139319099799998 ], [ -115.2832554, 36.139321799799994 ], [ -115.28325, 36.139321799799994 ], [ -115.28325, 36.139324499799997 ], [ -115.2832392, 36.139324499799997 ], [ -115.2832392, 36.1393271998 ], [ -115.2832149, 36.1393271998 ], [ -115.2832149, 36.139324499799997 ], [ -115.2831852, 36.139324499799997 ], [ -115.2831852, 36.139321799799994 ], [ -115.2831582, 36.139321799799994 ], [ -115.2831582, 36.139319099799998 ], [ -115.2831393, 36.139319099799998 ], [ -115.2831393, 36.139316399799995 ], [ -115.2831204, 36.139316399799995 ], [ -115.2831204, 36.139313699799999 ], [ -115.283115, 36.139313699799999 ], [ -115.283115, 36.139310999799996 ], [ -115.2831096, 36.139310999799996 ], [ -115.2831096, 36.1393082998 ], [ -115.2831069, 36.1393082998 ], [ -115.2831069, 36.139305599799997 ], [ -115.2831042, 36.139305599799997 ], [ -115.2831042, 36.139302899800001 ], [ -115.2831015, 36.139302899800001 ], [ -115.2831015, 36.139300199799997 ], [ -115.2830988, 36.139300199799997 ], [ -115.2830988, 36.139297499799994 ], [ -115.2830961, 36.139297499799994 ], [ -115.2830961, 36.139292099799995 ], [ -115.2830934, 36.139292099799995 ], [ -115.2830934, 36.139289399799999 ], [ -115.2830907, 36.139289399799999 ], [ -115.2830907, 36.1392839998 ], [ -115.283088, 36.1392839998 ], [ -115.283088, 36.139278599800001 ], [ -115.2830853, 36.139278599800001 ], [ -115.2830853, 36.139273199799995 ], [ -115.2830826, 36.139273199799995 ], [ -115.2830826, 36.139265099799999 ], [ -115.2830853, 36.139265099799999 ], [ -115.2830853, 36.1392596998 ], [ -115.283088, 36.1392596998 ], [ -115.283088, 36.139254299799994 ], [ -115.2830907, 36.139254299799994 ], [ -115.2830907, 36.139248899799995 ], [ -115.2830853, 36.139248899799995 ], [ -115.2830853, 36.139251599799998 ], [ -115.2830826, 36.139251599799998 ], [ -115.2830826, 36.139254299799994 ], [ -115.2830799, 36.139254299799994 ], [ -115.2830799, 36.139256999799997 ], [ -115.2830772, 36.139256999799997 ], [ -115.2830772, 36.1392596998 ], [ -115.2830718, 36.1392596998 ], [ -115.2830718, 36.139262399799996 ], [ -115.2830691, 36.139262399799996 ], [ -115.2830691, 36.139265099799999 ], [ -115.2830637, 36.139265099799999 ], [ -115.2830637, 36.139267799799995 ], [ -115.283061, 36.139267799799995 ], [ -115.283061, 36.139270499799999 ], [ -115.2830583, 36.139270499799999 ], [ -115.2830583, 36.139273199799995 ], [ -115.2830556, 36.139273199799995 ], [ -115.2830556, 36.139275899799998 ], [ -115.2830529, 36.139275899799998 ], [ -115.2830529, 36.139278599800001 ], [ -115.2830502, 36.139278599800001 ], [ -115.2830502, 36.139281299799997 ], [ -115.2830475, 36.139281299799997 ], [ -115.2830475, 36.139286699799996 ], [ -115.2830448, 36.139286699799996 ], [ -115.2830448, 36.139289399799999 ], [ -115.2830421, 36.139289399799999 ], [ -115.2830421, 36.139292099799995 ], [ -115.2830394, 36.139292099799995 ], [ -115.2830394, 36.139294799799998 ], [ -115.2830367, 36.139294799799998 ], [ -115.2830367, 36.139297499799994 ], [ -115.283034, 36.139297499799994 ], [ -115.283034, 36.139302899800001 ], [ -115.2830313, 36.139302899800001 ], [ -115.2830313, 36.139305599799997 ], [ -115.2830259, 36.139305599799997 ], [ -115.2830259, 36.1393082998 ], [ -115.2830232, 36.1393082998 ], [ -115.2830232, 36.139310999799996 ], [ -115.2830205, 36.139310999799996 ], [ -115.2830205, 36.139313699799999 ], [ -115.2830178, 36.139313699799999 ], [ -115.2830178, 36.139319099799998 ], [ -115.2830151, 36.139319099799998 ], [ -115.2830151, 36.139321799799994 ], [ -115.2830124, 36.139321799799994 ], [ -115.2830124, 36.139324499799997 ], [ -115.2830097, 36.139324499799997 ], [ -115.2830097, 36.1393271998 ], [ -115.283007, 36.1393271998 ], [ -115.283007, 36.139329899799996 ], [ -115.2830043, 36.139329899799996 ], [ -115.2830043, 36.139335299799995 ], [ -115.2830016, 36.139335299799995 ], [ -115.2830016, 36.139337999799999 ], [ -115.2829989, 36.139337999799999 ], [ -115.2829989, 36.139340699799995 ], [ -115.2829935, 36.139340699799995 ], [ -115.2829935, 36.139343399799998 ], [ -115.2829908, 36.139343399799998 ], [ -115.2829908, 36.139346099800001 ], [ -115.2829881, 36.139346099800001 ], [ -115.2829881, 36.139348799799997 ], [ -115.2829854, 36.139348799799997 ], [ -115.2829854, 36.139354199799996 ], [ -115.2829827, 36.139354199799996 ], [ -115.2829827, 36.139359599799995 ], [ -115.2829773, 36.139359599799995 ], [ -115.2829773, 36.139354199799996 ], [ -115.28298, 36.139354199799996 ], [ -115.28298, 36.1393514998 ], [ -115.2829827, 36.1393514998 ], [ -115.2829827, 36.139348799799997 ], [ -115.2829773, 36.139348799799997 ], [ -115.2829773, 36.139346099800001 ], [ -115.2829746, 36.139346099800001 ], [ -115.2829746, 36.139354199799996 ], [ -115.2829719, 36.139354199799996 ], [ -115.2829719, 36.139370399800001 ], [ -115.2829692, 36.139370399800001 ], [ -115.2829692, 36.1393757998 ], [ -115.2829665, 36.1393757998 ], [ -115.2829665, 36.139378499799996 ], [ -115.2829638, 36.139378499799996 ], [ -115.2829638, 36.139381199799999 ], [ -115.2829611, 36.139381199799999 ], [ -115.2829611, 36.139386599799998 ], [ -115.2829584, 36.139386599799998 ], [ -115.2829584, 36.139389299799994 ], [ -115.2829557, 36.139389299799994 ], [ -115.2829557, 36.139391999799997 ], [ -115.2829503, 36.139391999799997 ], [ -115.2829503, 36.1393946998 ] ], [ [ -115.2829881, 36.139340699799995 ], [ -115.2829881, 36.139337999799999 ], [ -115.2829908, 36.139337999799999 ], [ -115.2829908, 36.139335299799995 ], [ -115.2829962, 36.139335299799995 ], [ -115.2829962, 36.139329899799996 ], [ -115.2829989, 36.139329899799996 ], [ -115.2829989, 36.1393271998 ], [ -115.2830016, 36.1393271998 ], [ -115.2830016, 36.139324499799997 ], [ -115.2830043, 36.139324499799997 ], [ -115.2830043, 36.139321799799994 ], [ -115.283007, 36.139321799799994 ], [ -115.283007, 36.139316399799995 ], [ -115.2830097, 36.139316399799995 ], [ -115.2830097, 36.139313699799999 ], [ -115.2830124, 36.139313699799999 ], [ -115.2830124, 36.1393082998 ], [ -115.2830151, 36.1393082998 ], [ -115.2830151, 36.139302899800001 ], [ -115.2830178, 36.139302899800001 ], [ -115.2830178, 36.139297499799994 ], [ -115.2830151, 36.139297499799994 ], [ -115.2830151, 36.139300199799997 ], [ -115.2830097, 36.139300199799997 ], [ -115.2830097, 36.139302899800001 ], [ -115.283007, 36.139302899800001 ], [ -115.283007, 36.139305599799997 ], [ -115.2830043, 36.139305599799997 ], [ -115.2830043, 36.1393082998 ], [ -115.2830016, 36.1393082998 ], [ -115.2830016, 36.139310999799996 ], [ -115.2829989, 36.139310999799996 ], [ -115.2829989, 36.139313699799999 ], [ -115.2829962, 36.139313699799999 ], [ -115.2829962, 36.139316399799995 ], [ -115.2829935, 36.139316399799995 ], [ -115.2829935, 36.139319099799998 ], [ -115.2829908, 36.139319099799998 ], [ -115.2829908, 36.139321799799994 ], [ -115.2829881, 36.139321799799994 ], [ -115.2829881, 36.1393271998 ], [ -115.2829854, 36.1393271998 ], [ -115.2829854, 36.139329899799996 ], [ -115.2829827, 36.139329899799996 ], [ -115.2829827, 36.139335299799995 ], [ -115.28298, 36.139335299799995 ], [ -115.28298, 36.139340699799995 ], [ -115.2829881, 36.139340699799995 ] ], [ [ -115.28298, 36.139340699799995 ], [ -115.2829773, 36.139340699799995 ], [ -115.2829773, 36.139343399799998 ], [ -115.28298, 36.139343399799998 ], [ -115.28298, 36.139340699799995 ] ] ] } },
{ "type": "Feature", "properties": { "value": 255.0 }, "geometry": { "type": "Polygon", "coordinates": [ [ [ -115.2829557, 36.139173299799999 ], [ -115.2829476, 36.139173299799999 ], [ -115.2829476, 36.138981599799997 ], [ -115.2829503, 36.138981599799997 ], [ -115.2829503, 36.138984299799993 ], [ -115.282953, 36.138984299799993 ], [ -115.282953, 36.138986999799997 ], [ -115.2829557, 36.138986999799997 ], [ -115.2829557, 36.1389896998 ], [ -115.2829584, 36.1389896998 ], [ -115.2829584, 36.138992399799996 ], [ -115.2829611, 36.138992399799996 ], [ -115.2829611, 36.138997799799995 ], [ -115.2829638, 36.138997799799995 ], [ -115.2829638, 36.1390139998 ], [ -115.2829611, 36.1390139998 ], [ -115.2829611, 36.139019399799999 ], [ -115.2829584, 36.139019399799999 ], [ -115.2829584, 36.1390328998 ], [ -115.2829611, 36.1390328998 ], [ -115.2829611, 36.139035599799996 ], [ -115.2829584, 36.139035599799996 ], [ -115.2829584, 36.139046399799994 ], [ -115.2829611, 36.139046399799994 ], [ -115.2829611, 36.139040999799995 ], [ -115.2829665, 36.139040999799995 ], [ -115.2829665, 36.139051799799994 ], [ -115.2829638, 36.139051799799994 ], [ -115.2829638, 36.139065299799995 ], [ -115.2829665, 36.139065299799995 ], [ -115.2829665, 36.139067999799998 ], [ -115.2829773, 36.139067999799998 ], [ -115.2829773, 36.1390760998 ], [ -115.28298, 36.1390760998 ], [ -115.28298, 36.139078799799996 ], [ -115.2829827, 36.139078799799996 ], [ -115.2829827, 36.1390760998 ], [ -115.2829854, 36.1390760998 ], [ -115.2829854, 36.139078799799996 ], [ -115.2829908, 36.139078799799996 ], [ -115.2829908, 36.1390814998 ], [ -115.2829962, 36.1390814998 ], [ -115.2829962, 36.139084199799996 ], [ -115.2830016, 36.139084199799996 ], [ -115.2830016, 36.139089599799995 ], [ -115.2830043, 36.139089599799995 ], [ -115.2830043, 36.139094999799994 ], [ -115.2830097, 36.139094999799994 ], [ -115.2830097, 36.139097699799997 ], [ -115.2830151, 36.139097699799997 ], [ -115.2830151, 36.139103099799996 ], [ -115.2830124, 36.139103099799996 ], [ -115.2830124, 36.139105799799999 ], [ -115.2830043, 36.139105799799999 ], [ -115.2830043, 36.139113899799995 ], [ -115.2830016, 36.139113899799995 ], [ -115.2830016, 36.139116599799998 ], [ -115.2829989, 36.139116599799998 ], [ -115.2829989, 36.139119299799994 ], [ -115.2829962, 36.139119299799994 ], [ -115.2829962, 36.139121999799997 ], [ -115.2829935, 36.139121999799997 ], [ -115.2829935, 36.1391246998 ], [ -115.2829908, 36.1391246998 ], [ -115.2829908, 36.139130099799999 ], [ -115.2829881, 36.139130099799999 ], [ -115.2829881, 36.139132799799995 ], [ -115.2829827, 36.139132799799995 ], [ -115.2829827, 36.139135499799998 ], [ -115.28298, 36.139135499799998 ], [ -115.28298, 36.139140899799997 ], [ -115.2829773, 36.139140899799997 ], [ -115.2829773, 36.139143599800001 ], [ -115.2829746, 36.139143599800001 ], [ -115.2829746, 36.1391489998 ], [ -115.2829719, 36.1391489998 ], [ -115.2829719, 36.139151699799996 ], [ -115.2829692, 36.139151699799996 ], [ -115.2829692, 36.139157099799995 ], [ -115.2829638, 36.139157099799995 ], [ -115.2829638, 36.139159799799998 ], [ -115.2829611, 36.139159799799998 ], [ -115.2829611, 36.139165199799997 ], [ -115.2829584, 36.139165199799997 ], [ -115.2829584, 36.139170599799996 ], [ -115.2829557, 36.139170599799996 ], [ -115.2829557, 36.139173299799999 ] ], [ [ -115.2829584, 36.139086899799999 ], [ -115.2829584, 36.1390814998 ], [ -115.2829557, 36.1390814998 ], [ -115.2829557, 36.139086899799999 ], [ -115.2829584, 36.139086899799999 ] ] ] } },
{ "type": "Feature", "properties": { "value": 255.0 }, "geometry": { "type": "Polygon", "coordinates": [ [ [ -115.2831069, 36.138995099799999 ], [ -115.2830988, 36.138995099799999 ], [ -115.2830988, 36.1389896998 ], [ -115.2830961, 36.1389896998 ], [ -115.2830961, 36.138986999799997 ], [ -115.2830988, 36.138986999799997 ], [ -115.2830988, 36.138981599799997 ], [ -115.2831015, 36.138981599799997 ], [ -115.2831015, 36.138984299799993 ], [ -115.2831042, 36.138984299799993 ], [ -115.2831042, 36.138986999799997 ], [ -115.2831096, 36.138986999799997 ], [ -115.2831096, 36.138984299799993 ], [ -115.2831123, 36.138984299799993 ], [ -115.2831123, 36.138978899799994 ], [ -115.2831177, 36.138978899799994 ], [ -115.2831177, 36.138986999799997 ], [ -115.283115, 36.138986999799997 ], [ -115.283115, 36.1389896998 ], [ -115.2831123, 36.1389896998 ], [ -115.2831123, 36.138992399799996 ], [ -115.2831069, 36.138992399799996 ], [ -115.2831069, 36.138995099799999 ] ] ] } },
{ "type": "Feature", "properties": { "value": 255.0 }, "geometry": { "type": "Polygon", "coordinates": [ [ [ -115.2843597, 36.138935699799994 ], [ -115.2843435, 36.138935699799994 ], [ -115.2843435, 36.138932999799998 ], [ -115.2843354, 36.138932999799998 ], [ -115.2843354, 36.138930299799995 ], [ -115.28433, 36.138930299799995 ], [ -115.28433, 36.138903299799999 ], [ -115.2843327, 36.138903299799999 ], [ -115.2843327, 36.138900599799996 ], [ -115.2843354, 36.138900599799996 ], [ -115.2843354, 36.1388978998 ], [ -115.2843408, 36.1388978998 ], [ -115.2843408, 36.138895199799997 ], [ -115.2843624, 36.138895199799997 ], [ -115.2843624, 36.1388978998 ], [ -115.2843651, 36.1388978998 ], [ -115.2843651, 36.138900599799996 ], [ -115.2843678, 36.138900599799996 ], [ -115.2843678, 36.138903299799999 ], [ -115.2843705, 36.138903299799999 ], [ -115.2843705, 36.138905999799995 ], [ -115.2843732, 36.138905999799995 ], [ -115.2843732, 36.138908699799998 ], [ -115.2843759, 36.138908699799998 ], [ -115.2843759, 36.1389221998 ], [ -115.2843732, 36.1389221998 ], [ -115.2843732, 36.138930299799995 ], [ -115.2843678, 36.138930299799995 ], [ -115.2843678, 36.138932999799998 ], [ -115.2843597, 36.138932999799998 ], [ -115.2843597, 36.138935699799994 ] ] ] } },
{ "type": "Feature", "properties": { "value": 255.0 }, "geometry": { "type": "Polygon", "coordinates": [ [ [ -115.283142, 36.138938399799997 ], [ -115.2831366, 36.138938399799997 ], [ -115.2831366, 36.138935699799994 ], [ -115.2831339, 36.138935699799994 ], [ -115.2831339, 36.138932999799998 ], [ -115.2831312, 36.138932999799998 ], [ -115.2831312, 36.138927599799999 ], [ -115.2831285, 36.138927599799999 ], [ -115.2831285, 36.138924899799996 ], [ -115.2831258, 36.138924899799996 ], [ -115.2831258, 36.1389221998 ], [ -115.2831204, 36.1389221998 ], [ -115.2831204, 36.138919499799997 ], [ -115.283115, 36.138919499799997 ], [ -115.283115, 36.138916799799993 ], [ -115.2831123, 36.138916799799993 ], [ -115.2831123, 36.138914099799997 ], [ -115.2831096, 36.138914099799997 ], [ -115.2831096, 36.138911399799994 ], [ -115.2831042, 36.138911399799994 ], [ -115.2831042, 36.138908699799998 ], [ -115.2831015, 36.138908699799998 ], [ -115.2831015, 36.138905999799995 ], [ -115.2830934, 36.138905999799995 ], [ -115.2830934, 36.138903299799999 ], [ -115.283088, 36.138903299799999 ], [ -115.283088, 36.138900599799996 ], [ -115.2830826, 36.138900599799996 ], [ -115.2830826, 36.1388978998 ], [ -115.2830772, 36.1388978998 ], [ -115.2830772, 36.138895199799997 ], [ -115.2830745, 36.138895199799997 ], [ -115.2830745, 36.138892499799994 ], [ -115.2830718, 36.138892499799994 ], [ -115.2830718, 36.138889799799998 ], [ -115.2830664, 36.138889799799998 ], [ -115.2830664, 36.138887099799994 ], [ -115.283061, 36.138887099799994 ], [ -115.283061, 36.138884399799998 ], [ -115.2830502, 36.138884399799998 ], [ -115.2830502, 36.138881699799995 ], [ -115.2830448, 36.138881699799995 ], [ -115.2830448, 36.138878999799999 ], [ -115.2830367, 36.138878999799999 ], [ -115.2830367, 36.138876299799996 ], [ -115.2830313, 36.138876299799996 ], [ -115.2830313, 36.1388735998 ], [ -115.2830259, 36.1388735998 ], [ -115.2830259, 36.138870899799997 ], [ -115.2830205, 36.138870899799997 ], [ -115.2830205, 36.138868199799994 ], [ -115.2830178, 36.138868199799994 ], [ -115.2830178, 36.138865499799998 ], [ -115.2830205, 36.138865499799998 ], [ -115.2830205, 36.138862799799995 ], [ -115.2830178, 36.138862799799995 ], [ -115.2830178, 36.138860099799999 ], [ -115.2830151, 36.138860099799999 ], [ -115.2830151, 36.138857399799996 ], [ -115.2830124, 36.138857399799996 ], [ -115.2830124, 36.138849299799993 ], [ -115.2830097, 36.138849299799993 ], [ -115.2830097, 36.138843899799994 ], [ -115.2830016, 36.138843899799994 ], [ -115.2830016, 36.138841199799998 ], [ -115.2829935, 36.138841199799998 ], [ -115.2829935, 36.138838499799995 ], [ -115.2829908, 36.138838499799995 ], [ -115.2829908, 36.138833099799996 ], [ -115.2829962, 36.138833099799996 ], [ -115.2829962, 36.1388303998 ], [ -115.2829935, 36.1388303998 ], [ -115.2829935, 36.138827699799997 ], [ -115.2831582, 36.138827699799997 ], [ -115.2831582, 36.1388303998 ], [ -115.2831609, 36.1388303998 ], [ -115.2831609, 36.138833099799996 ], [ -115.2831636, 36.138833099799996 ], [ -115.2831636, 36.138835799799999 ], [ -115.2831663, 36.138835799799999 ], [ -115.2831663, 36.138838499799995 ], [ -115.283169, 36.138838499799995 ], [ -115.283169, 36.138841199799998 ], [ -115.2831717, 36.138841199799998 ], [ -115.2831717, 36.138843899799994 ], [ -115.2831771, 36.138843899799994 ], [ -115.2831771, 36.138846599799997 ], [ -115.2831798, 36.138846599799997 ], [ -115.2831798, 36.138849299799993 ], [ -115.2831825, 36.138849299799993 ], [ -115.2831825, 36.138851999799996 ], [ -115.2831852, 36.138851999799996 ], [ -115.2831852, 36.1388546998 ], [ -115.2831906, 36.1388546998 ], [ -115.2831906, 36.138857399799996 ], [ -115.2831933, 36.138857399799996 ], [ -115.2831933, 36.138860099799999 ], [ -115.283196, 36.138860099799999 ], [ -115.283196, 36.138862799799995 ], [ -115.2832014, 36.138862799799995 ], [ -115.2832014, 36.138865499799998 ], [ -115.2832041, 36.138865499799998 ], [ -115.2832041, 36.1388735998 ], [ -115.2832014, 36.1388735998 ], [ -115.2832014, 36.138876299799996 ], [ -115.2831987, 36.138876299799996 ], [ -115.2831987, 36.138878999799999 ], [ -115.283196, 36.138878999799999 ], [ -115.283196, 36.138881699799995 ], [ -115.2831933, 36.138881699799995 ], [ -115.2831933, 36.138884399799998 ], [ -115.2831906, 36.138884399799998 ], [ -115.2831906, 36.138887099799994 ], [ -115.2831879, 36.138887099799994 ], [ -115.2831879, 36.138889799799998 ], [ -115.2831852, 36.138889799799998 ], [ -115.2831852, 36.138892499799994 ], [ -115.2831825, 36.138892499799994 ], [ -115.2831825, 36.138895199799997 ], [ -115.2831798, 36.138895199799997 ], [ -115.2831798, 36.1388978998 ], [ -115.2831771, 36.1388978998 ], [ -115.2831771, 36.138900599799996 ], [ -115.2831744, 36.138900599799996 ], [ -115.2831744, 36.138905999799995 ], [ -115.2831717, 36.138905999799995 ], [ -115.2831717, 36.138908699799998 ], [ -115.2831663, 36.138908699799998 ], [ -115.2831663, 36.138911399799994 ], [ -115.2831636, 36.138911399799994 ], [ -115.2831636, 36.138914099799997 ], [ -115.2831609, 36.138914099799997 ], [ -115.2831609, 36.138919499799997 ], [ -115.2831582, 36.138919499799997 ], [ -115.2831582, 36.1389221998 ], [ -115.2831555, 36.1389221998 ], [ -115.2831555, 36.138924899799996 ], [ -115.2831528, 36.138924899799996 ], [ -115.2831528, 36.138927599799999 ], [ -115.2831501, 36.138927599799999 ], [ -115.2831501, 36.138930299799995 ], [ -115.2831474, 36.138930299799995 ], [ -115.2831474, 36.138935699799994 ], [ -115.283142, 36.138935699799994 ], [ -115.283142, 36.138938399799997 ] ], [ [ -115.2830178, 36.138841199799998 ], [ -115.2830178, 36.138838499799995 ], [ -115.2830151, 36.138838499799995 ], [ -115.2830151, 36.138841199799998 ], [ -115.2830178, 36.138841199799998 ] ] ] } },
{ "type": "Feature", "properties": { "value": 255.0 }, "geometry": { "type": "Polygon", "coordinates": [ [ [ -115.2842382, 36.138932999799998 ], [ -115.2841977, 36.138932999799998 ], [ -115.2841977, 36.138930299799995 ], [ -115.2841896, 36.138930299799995 ], [ -115.2841896, 36.138927599799999 ], [ -115.2841842, 36.138927599799999 ], [ -115.2841842, 36.138924899799996 ], [ -115.2841815, 36.138924899799996 ], [ -115.2841815, 36.1389221998 ], [ -115.2841788, 36.1389221998 ], [ -115.2841788, 36.138919499799997 ], [ -115.2841761, 36.138919499799997 ], [ -115.2841761, 36.138916799799993 ], [ -115.2841734, 36.138916799799993 ], [ -115.2841734, 36.138914099799997 ], [ -115.2841707, 36.138914099799997 ], [ -115.2841707, 36.138911399799994 ], [ -115.2841653, 36.138911399799994 ], [ -115.2841653, 36.138908699799998 ], [ -115.2841572, 36.138908699799998 ], [ -115.2841572, 36.138905999799995 ], [ -115.2841545, 36.138905999799995 ], [ -115.2841545, 36.138903299799999 ], [ -115.2841518, 36.138903299799999 ], [ -115.2841518, 36.138900599799996 ], [ -115.2841464, 36.138900599799996 ], [ -115.2841464, 36.1388978998 ], [ -115.284141, 36.1388978998 ], [ -115.284141, 36.138895199799997 ], [ -115.2841383, 36.138895199799997 ], [ -115.2841383, 36.138892499799994 ], [ -115.2841329, 36.138892499799994 ], [ -115.2841329, 36.138889799799998 ], [ -115.2841275, 36.138889799799998 ], [ -115.2841275, 36.138887099799994 ], [ -115.2841248, 36.138887099799994 ], [ -115.2841248, 36.138884399799998 ], [ -115.2841221, 36.138884399799998 ], [ -115.2841221, 36.138881699799995 ], [ -115.2841167, 36.138881699799995 ], [ -115.2841167, 36.138878999799999 ], [ -115.284114, 36.138878999799999 ], [ -115.284114, 36.138876299799996 ], [ -115.2841113, 36.138876299799996 ], [ -115.2841113, 36.1388735998 ], [ -115.2841059, 36.1388735998 ], [ -115.2841059, 36.138870899799997 ], [ -115.2841005, 36.138870899799997 ], [ -115.2841005, 36.138868199799994 ], [ -115.2840951, 36.138868199799994 ], [ -115.2840951, 36.138865499799998 ], [ -115.2840897, 36.138865499799998 ], [ -115.2840897, 36.138862799799995 ], [ -115.2840816, 36.138862799799995 ], [ -115.2840816, 36.138860099799999 ], [ -115.2840546, 36.138860099799999 ], [ -115.2840546, 36.138851999799996 ], [ -115.2840573, 36.138851999799996 ], [ -115.2840573, 36.138849299799993 ], [ -115.28406, 36.138849299799993 ], [ -115.28406, 36.138846599799997 ], [ -115.2840627, 36.138846599799997 ], [ -115.2840627, 36.138843899799994 ], [ -115.2840654, 36.138843899799994 ], [ -115.2840654, 36.138841199799998 ], [ -115.2840681, 36.138841199799998 ], [ -115.2840681, 36.138838499799995 ], [ -115.2840708, 36.138838499799995 ], [ -115.2840708, 36.138835799799999 ], [ -115.2840789, 36.138835799799999 ], [ -115.2840789, 36.138833099799996 ], [ -115.2840816, 36.138833099799996 ], [ -115.2840816, 36.1388303998 ], [ -115.2840843, 36.1388303998 ], [ -115.2840843, 36.138827699799997 ], [ -115.2843381, 36.138827699799997 ], [ -115.2843381, 36.138835799799999 ], [ -115.2843408, 36.138835799799999 ], [ -115.2843408, 36.138838499799995 ], [ -115.2843381, 36.138838499799995 ], [ -115.2843381, 36.138843899799994 ], [ -115.2843354, 36.138843899799994 ], [ -115.2843354, 36.138849299799993 ], [ -115.28433, 36.138849299799993 ], [ -115.28433, 36.1388546998 ], [ -115.2843273, 36.1388546998 ], [ -115.2843273, 36.138857399799996 ], [ -115.2843246, 36.138857399799996 ], [ -115.2843246, 36.138860099799999 ], [ -115.2843219, 36.138860099799999 ], [ -115.2843219, 36.138862799799995 ], [ -115.2843192, 36.138862799799995 ], [ -115.2843192, 36.138865499799998 ], [ -115.2843165, 36.138865499799998 ], [ -115.2843165, 36.138868199799994 ], [ -115.2843138, 36.138868199799994 ], [ -115.2843138, 36.138870899799997 ], [ -115.2843084, 36.138870899799997 ], [ -115.2843084, 36.1388735998 ], [ -115.2843057, 36.1388735998 ], [ -115.2843057, 36.138876299799996 ], [ -115.284303, 36.138876299799996 ], [ -115.284303, 36.138878999799999 ], [ -115.2843003, 36.138878999799999 ], [ -115.2843003, 36.138881699799995 ], [ -115.2842976, 36.138881699799995 ], [ -115.2842976, 36.138887099799994 ], [ -115.2842949, 36.138887099799994 ], [ -115.2842949, 36.138889799799998 ], [ -115.2842922, 36.138889799799998 ], [ -115.2842922, 36.138892499799994 ], [ -115.2842895, 36.138892499799994 ], [ -115.2842895, 36.138895199799997 ], [ -115.2842868, 36.138895199799997 ], [ -115.2842868, 36.1388978998 ], [ -115.2842814, 36.1388978998 ], [ -115.2842814, 36.138900599799996 ], [ -115.2842787, 36.138900599799996 ], [ -115.2842787, 36.138903299799999 ], [ -115.284276, 36.138903299799999 ], [ -115.284276, 36.138905999799995 ], [ -115.2842706, 36.138905999799995 ], [ -115.2842706, 36.138908699799998 ], [ -115.2842679, 36.138908699799998 ], [ -115.2842679, 36.138911399799994 ], [ -115.2842652, 36.138911399799994 ], [ -115.2842652, 36.138916799799993 ], [ -115.2842625, 36.138916799799993 ], [ -115.2842625, 36.138919499799997 ], [ -115.2842598, 36.138919499799997 ], [ -115.2842598, 36.138924899799996 ], [ -115.2842571, 36.138924899799996 ], [ -115.2842571, 36.138927599799999 ], [ -115.2842544, 36.138927599799999 ], [ -115.2842544, 36.138930299799995 ], [ -115.2842382, 36.138930299799995 ], [ -115.2842382, 36.138932999799998 ] ] ] } }
]
}
