{
"type": "FeatureCollection",
"crs": { "type": "name", "properties": { "name": "urn:ogc:def:crs:OGC:1.3:CRS84" } },
"features": [
{ "type": "Feature", "properties": { "value": 255.0 }, "geometry": { "type": "Polygon", "coordinates": [ [ [ -115.2206775, 36.228332699900001 ], [ -115.2204507, 36.228332699900001 ], [ -115.2204507, 36.228316499900004 ], [ -115.2204534, 36.228316499900004 ], [ -115.2204534, 36.2283137999 ], [ -115.2204507, 36.2283137999 ], [ -115.2204507, 36.228305699899998 ], [ -115.2204534, 36.228305699899998 ], [ -115.2204534, 36.228302999900002 ], [ -115.2204561, 36.228302999900002 ], [ -115.2204561, 36.228300299899999 ], [ -115.2204588, 36.228300299899999 ], [ -115.2204588, 36.228297599900003 ], [ -115.2204615, 36.228297599900003 ], [ -115.2204615, 36.2282948999 ], [ -115.2204642, 36.2282948999 ], [ -115.2204642, 36.228292199900004 ], [ -115.2204669, 36.228292199900004 ], [ -115.2204669, 36.228289499900001 ], [ -115.2204723, 36.228289499900001 ], [ -115.2204723, 36.228286799899998 ], [ -115.220475, 36.228286799899998 ], [ -115.220475, 36.228284099900002 ], [ -115.2204831, 36.228284099900002 ], [ -115.2204831, 36.228281399899998 ], [ -115.2204885, 36.228281399899998 ], [ -115.2204885, 36.228278699900002 ], [ -115.2204966, 36.228278699900002 ], [ -115.2204966, 36.228275999899999 ], [ -115.2204993, 36.228275999899999 ], [ -115.2204993, 36.228273299900003 ], [ -115.2205074, 36.228273299900003 ], [ -115.2205074, 36.2282705999 ], [ -115.2205101, 36.2282705999 ], [ -115.2205101, 36.228267899900004 ], [ -115.2205155, 36.228267899900004 ], [ -115.2205155, 36.228265199900001 ], [ -115.2205209, 36.228265199900001 ], [ -115.2205209, 36.228262499899998 ], [ -115.2205236, 36.228262499899998 ], [ -115.2205236, 36.228259799900002 ], [ -115.220529, 36.228259799900002 ], [ -115.220529, 36.228257099899999 ], [ -115.2205344, 36.228257099899999 ], [ -115.2205344, 36.228254399900003 ], [ -115.2205398, 36.228254399900003 ], [ -115.2205398, 36.228251699899999 ], [ -115.2205425, 36.228251699899999 ], [ -115.2205425, 36.228248999900003 ], [ -115.2205452, 36.228248999900003 ], [ -115.2205452, 36.2282462999 ], [ -115.2205506, 36.2282462999 ], [ -115.2205506, 36.228243599900004 ], [ -115.220556, 36.228243599900004 ], [ -115.220556, 36.228240899900001 ], [ -115.2205614, 36.228240899900001 ], [ -115.2205614, 36.228238199899998 ], [ -115.2205668, 36.228238199899998 ], [ -115.2205668, 36.228235499900002 ], [ -115.2205722, 36.228235499900002 ], [ -115.2205722, 36.228232799899999 ], [ -115.2205749, 36.228232799899999 ], [ -115.2205749, 36.228230099900003 ], [ -115.220583, 36.228230099900003 ], [ -115.220583, 36.2282273999 ], [ -115.2205911, 36.2282273999 ], [ -115.2205911, 36.228224699900004 ], [ -115.2205992, 36.228224699900004 ], [ -115.2205992, 36.2282273999 ], [ -115.2206046, 36.2282273999 ], [ -115.2206046, 36.228230099900003 ], [ -115.2206073, 36.228230099900003 ], [ -115.2206073, 36.228232799899999 ], [ -115.22061, 36.228232799899999 ], [ -115.22061, 36.228238199899998 ], [ -115.2206127, 36.228238199899998 ], [ -115.2206127, 36.228240899900001 ], [ -115.2206154, 36.228240899900001 ], [ -115.2206154, 36.2282462999 ], [ -115.2206181, 36.2282462999 ], [ -115.2206181, 36.228248999900003 ], [ -115.2206208, 36.228248999900003 ], [ -115.2206208, 36.228251699899999 ], [ -115.2206235, 36.228251699899999 ], [ -115.2206235, 36.228254399900003 ], [ -115.2206262, 36.228254399900003 ], [ -115.2206262, 36.228257099899999 ], [ -115.2206289, 36.228257099899999 ], [ -115.2206289, 36.228259799900002 ], [ -115.2206316, 36.228259799900002 ], [ -115.2206316, 36.228262499899998 ], [ -115.2206343, 36.228262499899998 ], [ -115.2206343, 36.228265199900001 ], [ -115.220637, 36.228265199900001 ], [ -115.220637, 36.2282705999 ], [ -115.2206397, 36.2282705999 ], [ -115.2206397, 36.228273299900003 ], [ -115.2206424, 36.228273299900003 ], [ -115.2206424, 36.228275999899999 ], [ -115.2206451, 36.228275999899999 ], [ -115.2206451, 36.228281399899998 ], [ -115.2206478, 36.228281399899998 ], [ -115.2206478, 36.228284099900002 ], [ -115.2206505, 36.228284099900002 ], [ -115.2206505, 36.228289499900001 ], [ -115.2206532, 36.228289499900001 ], [ -115.2206532, 36.228292199900004 ], [ -115.2206559, 36.228292199900004 ], [ -115.2206559, 36.2282948999 ], [ -115.2206586, 36.2282948999 ], [ -115.2206586, 36.228297599900003 ], [ -115.2206613, 36.228297599900003 ], [ -115.2206613, 36.228302999900002 ], [ -115.2206667, 36.228302999900002 ], [ -115.2206667, 36.228305699899998 ], [ -115.2206694, 36.228305699899998 ], [ -115.2206694, 36.228308399900001 ], [ -115.2206721, 36.228308399900001 ], [ -115.2206721, 36.2283137999 ], [ -115.2206748, 36.2283137999 ], [ -115.2206748, 36.228316499900004 ], [ -115.2206775, 36.228316499900004 ], [ -115.2206775, 36.228332699900001 ] ] ] } },
{ "type": "Feature", "properties": { "value": 255.0 }, "geometry": { "type": "Polygon", "coordinates": [ [ [ -115.2212742, 36.228157199900004 ], [ -115.2212634, 36.228157199900004 ], [ -115.2212634, 36.2281544999 ], [ -115.2212607, 36.2281544999 ], [ -115.2212607, 36.228149099900001 ], [ -115.221258, 36.228149099900001 ], [ -115.221258, 36.228143699900002 ], [ -115.2212607, 36.228143699900002 ], [ -115.2212607, 36.228140999899999 ], [ -115.2212634, 36.228140999899999 ], [ -115.2212634, 36.228138299900003 ], [ -115.2212715, 36.228138299900003 ], [ -115.2212715, 36.228143699900002 ], [ -115.2212742, 36.228143699900002 ], [ -115.2212742, 36.228151799899997 ], [ -115.2212769, 36.228151799899997 ], [ -115.2212769, 36.2281544999 ], [ -115.2212742, 36.2281544999 ], [ -115.2212742, 36.228157199900004 ] ] ] } },
{ "type": "Feature", "properties": { "value": 255.0 }, "geometry": { "type": "Polygon", "coordinates": [ [ [ -115.2198783, 36.228097799899999 ], [ -115.2198756, 36.228097799899999 ], [ -115.2198756, 36.228095099900003 ], [ -115.2198729, 36.228095099900003 ], [ -115.2198729, 36.228097799899999 ], [ -115.2198324, 36.228097799899999 ], [ -115.2198324, 36.228095099900003 ], [ -115.2198297, 36.228095099900003 ], [ -115.2198297, 36.2280923999 ], [ -115.219827, 36.2280923999 ], [ -115.219827, 36.2280869999 ], [ -115.2198243, 36.2280869999 ], [ -115.2198243, 36.228076199900002 ], [ -115.2198216, 36.228076199900002 ], [ -115.2198216, 36.228057299900001 ], [ -115.2198243, 36.228057299900001 ], [ -115.2198243, 36.228049199899999 ], [ -115.219827, 36.228049199899999 ], [ -115.219827, 36.228046499900003 ], [ -115.2198567, 36.228046499900003 ], [ -115.2198567, 36.2280437999 ], [ -115.2198648, 36.2280437999 ], [ -115.2198648, 36.228046499900003 ], [ -115.2198675, 36.228046499900003 ], [ -115.2198675, 36.2280437999 ], [ -115.2198702, 36.2280437999 ], [ -115.2198702, 36.228046499900003 ], [ -115.2198756, 36.228046499900003 ], [ -115.2198756, 36.228049199899999 ], [ -115.219881, 36.228049199899999 ], [ -115.219881, 36.228057299900001 ], [ -115.2198837, 36.228057299900001 ], [ -115.2198837, 36.228095099900003 ], [ -115.2198783, 36.228095099900003 ], [ -115.2198783, 36.228097799899999 ] ] ] } },
{ "type": "Feature", "properties": { "value": 255.0 }, "geometry": { "type": "Polygon", "coordinates": [ [ [ -115.2213417, 36.2280869999 ], [ -115.2213309, 36.2280869999 ], [ -115.2213309, 36.228084299899997 ], [ -115.2213282, 36.228084299899997 ], [ -115.2213282, 36.228081599900001 ], [ -115.2213255, 36.228081599900001 ], [ -115.2213255, 36.228078899899998 ], [ -115.2213201, 36.228078899899998 ], [ -115.2213201, 36.228076199900002 ], [ -115.2213174, 36.228076199900002 ], [ -115.2213174, 36.228073499899999 ], [ -115.2213147, 36.228073499899999 ], [ -115.2213147, 36.2280680999 ], [ -115.221312, 36.2280680999 ], [ -115.221312, 36.228065399900004 ], [ -115.2213093, 36.228065399900004 ], [ -115.2213093, 36.228062699900001 ], [ -115.2213066, 36.228062699900001 ], [ -115.2213066, 36.228059999899997 ], [ -115.2213039, 36.228059999899997 ], [ -115.2213039, 36.228057299900001 ], [ -115.2213012, 36.228057299900001 ], [ -115.2213012, 36.228051899900002 ], [ -115.2212985, 36.228051899900002 ], [ -115.2212985, 36.228049199899999 ], [ -115.2212958, 36.228049199899999 ], [ -115.2212958, 36.228046499900003 ], [ -115.2212931, 36.228046499900003 ], [ -115.2212931, 36.2280437999 ], [ -115.2212904, 36.2280437999 ], [ -115.2212904, 36.228041099900004 ], [ -115.2212877, 36.228041099900004 ], [ -115.2212877, 36.228038399900001 ], [ -115.221285, 36.228038399900001 ], [ -115.221285, 36.228035699899998 ], [ -115.2212823, 36.228035699899998 ], [ -115.2212823, 36.228032999900002 ], [ -115.2212796, 36.228032999900002 ], [ -115.2212796, 36.228030299899999 ], [ -115.2212769, 36.228030299899999 ], [ -115.2212769, 36.228027599900003 ], [ -115.2212742, 36.228027599900003 ], [ -115.2212742, 36.228024899899999 ], [ -115.2212715, 36.228024899899999 ], [ -115.2212715, 36.228022199900003 ], [ -115.2212688, 36.228022199900003 ], [ -115.2212688, 36.2280194999 ], [ -115.2212661, 36.2280194999 ], [ -115.2212661, 36.228016799899997 ], [ -115.2212634, 36.228016799899997 ], [ -115.2212634, 36.228014099900001 ], [ -115.2212607, 36.228014099900001 ], [ -115.2212607, 36.228011399899998 ], [ -115.221258, 36.228011399899998 ], [ -115.221258, 36.228008699900002 ], [ -115.2212553, 36.228008699900002 ], [ -115.2212553, 36.228005999899999 ], [ -115.2212526, 36.228005999899999 ], [ -115.2212526, 36.228003299900003 ], [ -115.2212499, 36.228003299900003 ], [ -115.2212499, 36.2280005999 ], [ -115.2212472, 36.2280005999 ], [ -115.2212472, 36.227997899900004 ], [ -115.2212445, 36.227997899900004 ], [ -115.2212445, 36.227995199900001 ], [ -115.2212418, 36.227995199900001 ], [ -115.2212418, 36.227989799900001 ], [ -115.2212391, 36.227989799900001 ], [ -115.2212391, 36.227987099899998 ], [ -115.2212364, 36.227987099899998 ], [ -115.2212364, 36.227984399900002 ], [ -115.2212337, 36.227984399900002 ], [ -115.2212337, 36.227978999900003 ], [ -115.221231, 36.227978999900003 ], [ -115.221231, 36.2279762999 ], [ -115.2212256, 36.2279762999 ], [ -115.2212256, 36.227973599900004 ], [ -115.2212229, 36.227973599900004 ], [ -115.2212229, 36.227970899900001 ], [ -115.2212202, 36.227970899900001 ], [ -115.2212202, 36.227968199899998 ], [ -115.2212175, 36.227968199899998 ], [ -115.2212175, 36.227962799899998 ], [ -115.2212148, 36.227962799899998 ], [ -115.2212148, 36.227957399899999 ], [ -115.2212121, 36.227957399899999 ], [ -115.2212121, 36.227954699900003 ], [ -115.2212094, 36.227954699900003 ], [ -115.2212094, 36.2279519999 ], [ -115.2212067, 36.2279519999 ], [ -115.2212067, 36.227949299899997 ], [ -115.221204, 36.227949299899997 ], [ -115.221204, 36.227946599900001 ], [ -115.2212013, 36.227946599900001 ], [ -115.2212013, 36.227943899899998 ], [ -115.2211986, 36.227943899899998 ], [ -115.2211986, 36.227941199900002 ], [ -115.2211959, 36.227941199900002 ], [ -115.2211959, 36.227938499899999 ], [ -115.2211932, 36.227938499899999 ], [ -115.2211932, 36.2279330999 ], [ -115.2211905, 36.2279330999 ], [ -115.2211905, 36.227930399900004 ], [ -115.2211878, 36.227930399900004 ], [ -115.2211878, 36.2279276999 ], [ -115.2211824, 36.2279276999 ], [ -115.2211824, 36.227924999899997 ], [ -115.2211797, 36.227924999899997 ], [ -115.2211797, 36.227919599899998 ], [ -115.221177, 36.227919599899998 ], [ -115.221177, 36.227916899900002 ], [ -115.2211743, 36.227916899900002 ], [ -115.2211743, 36.227914199899999 ], [ -115.2211716, 36.227914199899999 ], [ -115.2211716, 36.227911499900003 ], [ -115.2211689, 36.227911499900003 ], [ -115.2211689, 36.2279087999 ], [ -115.2211662, 36.2279087999 ], [ -115.2211662, 36.227906099900004 ], [ -115.2211635, 36.227906099900004 ], [ -115.2211635, 36.227903399900001 ], [ -115.2211608, 36.227903399900001 ], [ -115.2211608, 36.227900699899998 ], [ -115.2211581, 36.227900699899998 ], [ -115.2211581, 36.227897999900001 ], [ -115.2211554, 36.227897999900001 ], [ -115.2211554, 36.227895299899998 ], [ -115.2211527, 36.227895299899998 ], [ -115.2211527, 36.227892599900002 ], [ -115.22115, 36.227892599900002 ], [ -115.22115, 36.227881799899997 ], [ -115.2211608, 36.227881799899997 ], [ -115.2211608, 36.227879099900001 ], [ -115.2211662, 36.227879099900001 ], [ -115.2211662, 36.227876399899998 ], [ -115.2211689, 36.227876399899998 ], [ -115.2211689, 36.227873699900002 ], [ -115.2211743, 36.227873699900002 ], [ -115.2211743, 36.227870999899999 ], [ -115.2211797, 36.227870999899999 ], [ -115.2211797, 36.227868299900003 ], [ -115.2211851, 36.227868299900003 ], [ -115.2211851, 36.227865599899999 ], [ -115.2211905, 36.227865599899999 ], [ -115.2211905, 36.227862899900003 ], [ -115.2211932, 36.227862899900003 ], [ -115.2211932, 36.2278601999 ], [ -115.2211959, 36.2278601999 ], [ -115.2211959, 36.227857499899997 ], [ -115.2212013, 36.227857499899997 ], [ -115.2212013, 36.227854799900001 ], [ -115.2212067, 36.227854799900001 ], [ -115.2212067, 36.227852099899998 ], [ -115.2212094, 36.227852099899998 ], [ -115.2212094, 36.227849399900002 ], [ -115.2212148, 36.227849399900002 ], [ -115.2212148, 36.227846699899999 ], [ -115.2212202, 36.227846699899999 ], [ -115.2212202, 36.227843999900003 ], [ -115.2212229, 36.227843999900003 ], [ -115.2212229, 36.2278412999 ], [ -115.2212283, 36.2278412999 ], [ -115.2212283, 36.227838599900004 ], [ -115.2212337, 36.227838599900004 ], [ -115.2212337, 36.227835899900001 ], [ -115.2212418, 36.227835899900001 ], [ -115.2212418, 36.227833199899997 ], [ -115.2212472, 36.227833199899997 ], [ -115.2212472, 36.227830499900001 ], [ -115.2212499, 36.227830499900001 ], [ -115.2212499, 36.227827799899998 ], [ -115.2212553, 36.227827799899998 ], [ -115.2212553, 36.227825099900002 ], [ -115.2212634, 36.227825099900002 ], [ -115.2212634, 36.227822399899999 ], [ -115.2212715, 36.227822399899999 ], [ -115.2212715, 36.227819699900003 ], [ -115.2212769, 36.227819699900003 ], [ -115.2212769, 36.2278169999 ], [ -115.221285, 36.2278169999 ], [ -115.221285, 36.227819699900003 ], [ -115.2212931, 36.227819699900003 ], [ -115.2212931, 36.227822399899999 ], [ -115.2212958, 36.227822399899999 ], [ -115.2212958, 36.227825099900002 ], [ -115.2212985, 36.227825099900002 ], [ -115.2212985, 36.227827799899998 ], [ -115.2213039, 36.227827799899998 ], [ -115.2213039, 36.227830499900001 ], [ -115.2213066, 36.227830499900001 ], [ -115.2213066, 36.227833199899997 ], [ -115.2213093, 36.227833199899997 ], [ -115.2213093, 36.227835899900001 ], [ -115.221312, 36.227835899900001 ], [ -115.221312, 36.227838599900004 ], [ -115.2213147, 36.227838599900004 ], [ -115.2213147, 36.2278412999 ], [ -115.2213174, 36.2278412999 ], [ -115.2213174, 36.227843999900003 ], [ -115.2213201, 36.227843999900003 ], [ -115.2213201, 36.227846699899999 ], [ -115.2213228, 36.227846699899999 ], [ -115.2213228, 36.227849399900002 ], [ -115.2213255, 36.227849399900002 ], [ -115.2213255, 36.227852099899998 ], [ -115.2213282, 36.227852099899998 ], [ -115.2213282, 36.227854799900001 ], [ -115.2213309, 36.227854799900001 ], [ -115.2213309, 36.227857499899997 ], [ -115.2213336, 36.227857499899997 ], [ -115.2213336, 36.2278601999 ], [ -115.2213363, 36.2278601999 ], [ -115.2213363, 36.227865599899999 ], [ -115.221339, 36.227865599899999 ], [ -115.221339, 36.227868299900003 ], [ -115.2213417, 36.227868299900003 ], [ -115.2213417, 36.227870999899999 ], [ -115.2213444, 36.227870999899999 ], [ -115.2213444, 36.227873699900002 ], [ -115.2213471, 36.227873699900002 ], [ -115.2213471, 36.227876399899998 ], [ -115.2213498, 36.227876399899998 ], [ -115.2213498, 36.227879099900001 ], [ -115.2213525, 36.227879099900001 ], [ -115.2213525, 36.227881799899997 ], [ -115.2213552, 36.227881799899997 ], [ -115.2213552, 36.2278844999 ], [ -115.2213579, 36.2278844999 ], [ -115.2213579, 36.227887199900003 ], [ -115.2213606, 36.227887199900003 ], [ -115.2213606, 36.227892599900002 ], [ -115.2213633, 36.227892599900002 ], [ -115.2213633, 36.227895299899998 ], [ -115.221366, 36.227895299899998 ], [ -115.221366, 36.227897999900001 ], [ -115.2213687, 36.227897999900001 ], [ -115.2213687, 36.227900699899998 ], [ -115.2213714, 36.227900699899998 ], [ -115.2213714, 36.227903399900001 ], [ -115.2213741, 36.227903399900001 ], [ -115.2213741, 36.227906099900004 ], [ -115.2213768, 36.227906099900004 ], [ -115.2213768, 36.2279087999 ], [ -115.2213795, 36.2279087999 ], [ -115.2213795, 36.227911499900003 ], [ -115.2213822, 36.227911499900003 ], [ -115.2213822, 36.227914199899999 ], [ -115.2213849, 36.227914199899999 ], [ -115.2213849, 36.227916899900002 ], [ -115.2213876, 36.227916899900002 ], [ -115.2213876, 36.227919599899998 ], [ -115.2213903, 36.227919599899998 ], [ -115.2213903, 36.227922299900001 ], [ -115.221393, 36.227922299900001 ], [ -115.221393, 36.2279276999 ], [ -115.2213957, 36.2279276999 ], [ -115.2213957, 36.227930399900004 ], [ -115.2213984, 36.227930399900004 ], [ -115.2213984, 36.2279330999 ], [ -115.2214011, 36.2279330999 ], [ -115.2214011, 36.227935799900003 ], [ -115.2214038, 36.227935799900003 ], [ -115.2214038, 36.227938499899999 ], [ -115.2214065, 36.227938499899999 ], [ -115.2214065, 36.227943899899998 ], [ -115.2214092, 36.227943899899998 ], [ -115.2214092, 36.227946599900001 ], [ -115.2214119, 36.227946599900001 ], [ -115.2214119, 36.227949299899997 ], [ -115.2214146, 36.227949299899997 ], [ -115.2214146, 36.2279519999 ], [ -115.2214173, 36.2279519999 ], [ -115.2214173, 36.227957399899999 ], [ -115.22142, 36.227957399899999 ], [ -115.22142, 36.227960099900002 ], [ -115.2214227, 36.227960099900002 ], [ -115.2214227, 36.227962799899998 ], [ -115.2214254, 36.227962799899998 ], [ -115.2214254, 36.227965499900002 ], [ -115.2214281, 36.227965499900002 ], [ -115.2214281, 36.227968199899998 ], [ -115.2214308, 36.227968199899998 ], [ -115.2214308, 36.227970899900001 ], [ -115.2214335, 36.227970899900001 ], [ -115.2214335, 36.227973599900004 ], [ -115.2214362, 36.227973599900004 ], [ -115.2214362, 36.2279762999 ], [ -115.2214389, 36.2279762999 ], [ -115.2214389, 36.227978999900003 ], [ -115.2214416, 36.227978999900003 ], [ -115.2214416, 36.227984399900002 ], [ -115.2214443, 36.227984399900002 ], [ -115.2214443, 36.227987099899998 ], [ -115.221447, 36.227987099899998 ], [ -115.221447, 36.227989799900001 ], [ -115.2214497, 36.227989799900001 ], [ -115.2214497, 36.227992499899997 ], [ -115.2214524, 36.227992499899997 ], [ -115.2214524, 36.227995199900001 ], [ -115.2214551, 36.227995199900001 ], [ -115.2214551, 36.227997899900004 ], [ -115.2214578, 36.227997899900004 ], [ -115.2214578, 36.2280005999 ], [ -115.2214605, 36.2280005999 ], [ -115.2214605, 36.228011399899998 ], [ -115.2214578, 36.228011399899998 ], [ -115.2214578, 36.228014099900001 ], [ -115.2214497, 36.228014099900001 ], [ -115.2214497, 36.228016799899997 ], [ -115.2214443, 36.228016799899997 ], [ -115.2214443, 36.2280194999 ], [ -115.2214389, 36.2280194999 ], [ -115.2214389, 36.228022199900003 ], [ -115.2214362, 36.228022199900003 ], [ -115.2214362, 36.228024899899999 ], [ -115.2214308, 36.228024899899999 ], [ -115.2214308, 36.228027599900003 ], [ -115.2214281, 36.228027599900003 ], [ -115.2214281, 36.228030299899999 ], [ -115.2214227, 36.228030299899999 ], [ -115.2214227, 36.228032999900002 ], [ -115.22142, 36.228032999900002 ], [ -115.22142, 36.228035699899998 ], [ -115.2214119, 36.228035699899998 ], [ -115.2214119, 36.228038399900001 ], [ -115.2214065, 36.228038399900001 ], [ -115.2214065, 36.228041099900004 ], [ -115.2214011, 36.228041099900004 ], [ -115.2214011, 36.2280437999 ], [ -115.2213957, 36.2280437999 ], [ -115.2213957, 36.228046499900003 ], [ -115.2213903, 36.228046499900003 ], [ -115.2213903, 36.228049199899999 ], [ -115.2213849, 36.228049199899999 ], [ -115.2213849, 36.228051899900002 ], [ -115.2213822, 36.228051899900002 ], [ -115.2213822, 36.228054599899998 ], [ -115.2213768, 36.228054599899998 ], [ -115.2213768, 36.228057299900001 ], [ -115.2213741, 36.228057299900001 ], [ -115.2213741, 36.228059999899997 ], [ -115.2213714, 36.228059999899997 ], [ -115.2213714, 36.228062699900001 ], [ -115.221366, 36.228062699900001 ], [ -115.221366, 36.228065399900004 ], [ -115.2213633, 36.228065399900004 ], [ -115.2213633, 36.2280680999 ], [ -115.2213606, 36.2280680999 ], [ -115.2213606, 36.228070799900003 ], [ -115.2213579, 36.228070799900003 ], [ -115.2213579, 36.228073499899999 ], [ -115.2213552, 36.228073499899999 ], [ -115.2213552, 36.228076199900002 ], [ -115.2213498, 36.228076199900002 ], [ -115.2213498, 36.228078899899998 ], [ -115.2213471, 36.228078899899998 ], [ -115.2213471, 36.228081599900001 ], [ -115.2213444, 36.228081599900001 ], [ -115.2213444, 36.228084299899997 ], [ -115.2213417, 36.228084299899997 ], [ -115.2213417, 36.2280869999 ] ] ] } },
{ "type": "Feature", "properties": { "value": 255.0 }, "geometry": { "type": "Polygon", "coordinates": [ [ [ -115.2200565, 36.227128499899997 ], [ -115.2200484, 36.227128499899997 ], [ -115.2200484, 36.227125799900001 ], [ -115.2200457, 36.227125799900001 ], [ -115.2200457, 36.227123099899998 ], [ -115.220043, 36.227123099899998 ], [ -115.220043, 36.227120399900002 ], [ -115.2200403, 36.227120399900002 ], [ -115.2200403, 36.227117699899999 ], [ -115.2200376, 36.227117699899999 ], [ -115.2200376, 36.2271122999 ], [ -115.2200349, 36.2271122999 ], [ -115.2200349, 36.227104199899998 ], [ -115.2200376, 36.227104199899998 ], [ -115.2200376, 36.227098799899998 ], [ -115.2200619, 36.227098799899998 ], [ -115.2200619, 36.227101499900002 ], [ -115.2200673, 36.227101499900002 ], [ -115.2200673, 36.227109599899997 ], [ -115.22007, 36.227109599899997 ], [ -115.22007, 36.227117699899999 ], [ -115.2200673, 36.227117699899999 ], [ -115.2200673, 36.227123099899998 ], [ -115.2200646, 36.227123099899998 ], [ -115.2200646, 36.227125799900001 ], [ -115.2200565, 36.227125799900001 ], [ -115.2200565, 36.227128499899997 ] ] ] } },
{ "type": "Feature", "properties": { "value": 255.0 }, "geometry": { "type": "Polygon", "coordinates": [ [ [ -115.2200322, 36.227997899900004 ], [ -115.2200187, 36.227997899900004 ], [ -115.2200187, 36.227995199900001 ], [ -115.2200133, 36.227995199900001 ], [ -115.2200133, 36.227989799900001 ], [ -115.2200106, 36.227989799900001 ], [ -115.2200106, 36.227984399900002 ], [ -115.2200052, 36.227984399900002 ], [ -115.2200052, 36.227981699899999 ], [ -115.2200025, 36.227981699899999 ], [ -115.2200025, 36.227978999900003 ], [ -115.2199998, 36.227978999900003 ], [ -115.2199998, 36.2279762999 ], [ -115.2199971, 36.2279762999 ], [ -115.2199971, 36.227973599900004 ], [ -115.2199944, 36.227973599900004 ], [ -115.2199944, 36.227968199899998 ], [ -115.2199917, 36.227968199899998 ], [ -115.2199917, 36.227962799899998 ], [ -115.219989, 36.227962799899998 ], [ -115.219989, 36.227960099900002 ], [ -115.2199971, 36.227960099900002 ], [ -115.2199971, 36.2279519999 ], [ -115.2199944, 36.2279519999 ], [ -115.2199944, 36.227949299899997 ], [ -115.2199863, 36.227949299899997 ], [ -115.2199863, 36.227946599900001 ], [ -115.2199836, 36.227946599900001 ], [ -115.2199836, 36.227943899899998 ], [ -115.2199809, 36.227943899899998 ], [ -115.2199809, 36.227938499899999 ], [ -115.2199755, 36.227938499899999 ], [ -115.2199755, 36.227935799900003 ], [ -115.2199701, 36.227935799900003 ], [ -115.2199701, 36.2279330999 ], [ -115.2199647, 36.2279330999 ], [ -115.2199647, 36.227930399900004 ], [ -115.2199566, 36.227930399900004 ], [ -115.2199566, 36.2279276999 ], [ -115.2199485, 36.2279276999 ], [ -115.2199485, 36.227924999899997 ], [ -115.2199458, 36.227924999899997 ], [ -115.2199458, 36.227922299900001 ], [ -115.2199404, 36.227922299900001 ], [ -115.2199404, 36.227924999899997 ], [ -115.219935, 36.227924999899997 ], [ -115.219935, 36.227922299900001 ], [ -115.2199269, 36.227922299900001 ], [ -115.2199269, 36.227919599899998 ], [ -115.2199242, 36.227919599899998 ], [ -115.2199242, 36.227916899900002 ], [ -115.2199215, 36.227916899900002 ], [ -115.2199215, 36.227911499900003 ], [ -115.2199188, 36.227911499900003 ], [ -115.2199188, 36.2279087999 ], [ -115.2199161, 36.2279087999 ], [ -115.2199161, 36.227906099900004 ], [ -115.2199134, 36.227906099900004 ], [ -115.2199134, 36.227903399900001 ], [ -115.219908, 36.227903399900001 ], [ -115.219908, 36.227900699899998 ], [ -115.2199053, 36.227900699899998 ], [ -115.2199053, 36.227897999900001 ], [ -115.2199026, 36.227897999900001 ], [ -115.2199026, 36.227895299899998 ], [ -115.2198945, 36.227895299899998 ], [ -115.2198945, 36.227897999900001 ], [ -115.2198891, 36.227897999900001 ], [ -115.2198891, 36.227900699899998 ], [ -115.2198783, 36.227900699899998 ], [ -115.2198783, 36.227897999900001 ], [ -115.2198729, 36.227897999900001 ], [ -115.2198729, 36.227895299899998 ], [ -115.2198702, 36.227895299899998 ], [ -115.2198702, 36.227892599900002 ], [ -115.2198648, 36.227892599900002 ], [ -115.2198648, 36.227889899899999 ], [ -115.2198621, 36.227889899899999 ], [ -115.2198621, 36.227887199900003 ], [ -115.2198594, 36.227887199900003 ], [ -115.2198594, 36.2278844999 ], [ -115.2198567, 36.2278844999 ], [ -115.2198567, 36.227881799899997 ], [ -115.219854, 36.227881799899997 ], [ -115.219854, 36.227879099900001 ], [ -115.2198513, 36.227879099900001 ], [ -115.2198513, 36.227876399899998 ], [ -115.2198486, 36.227876399899998 ], [ -115.2198486, 36.227873699900002 ], [ -115.2198459, 36.227873699900002 ], [ -115.2198459, 36.227870999899999 ], [ -115.2198432, 36.227870999899999 ], [ -115.2198432, 36.227865599899999 ], [ -115.2198405, 36.227865599899999 ], [ -115.2198405, 36.227862899900003 ], [ -115.2198432, 36.227862899900003 ], [ -115.2198432, 36.227849399900002 ], [ -115.2198459, 36.227849399900002 ], [ -115.2198459, 36.227827799899998 ], [ -115.2198432, 36.227827799899998 ], [ -115.2198432, 36.227825099900002 ], [ -115.2198405, 36.227825099900002 ], [ -115.2198405, 36.227819699900003 ], [ -115.2198378, 36.227819699900003 ], [ -115.2198378, 36.2278169999 ], [ -115.2198216, 36.2278169999 ], [ -115.2198216, 36.227819699900003 ], [ -115.2198162, 36.227819699900003 ], [ -115.2198162, 36.227822399899999 ], [ -115.2198027, 36.227822399899999 ], [ -115.2198027, 36.227819699900003 ], [ -115.2198, 36.227819699900003 ], [ -115.2198, 36.2278169999 ], [ -115.2197973, 36.2278169999 ], [ -115.2197973, 36.227814299899997 ], [ -115.2197946, 36.227814299899997 ], [ -115.2197946, 36.227811599900001 ], [ -115.2197919, 36.227811599900001 ], [ -115.2197919, 36.227808899899998 ], [ -115.2197892, 36.227808899899998 ], [ -115.2197892, 36.227806199900002 ], [ -115.2197865, 36.227806199900002 ], [ -115.2197865, 36.227803499899998 ], [ -115.2197838, 36.227803499899998 ], [ -115.2197838, 36.227800799900002 ], [ -115.2197811, 36.227800799900002 ], [ -115.2197811, 36.227798099899999 ], [ -115.2197784, 36.227798099899999 ], [ -115.2197784, 36.227795399900003 ], [ -115.2197757, 36.227795399900003 ], [ -115.2197757, 36.2277926999 ], [ -115.219773, 36.2277926999 ], [ -115.219773, 36.227789999899997 ], [ -115.2197703, 36.227789999899997 ], [ -115.2197703, 36.227784599899998 ], [ -115.2197676, 36.227784599899998 ], [ -115.2197676, 36.2275226999 ], [ -115.2197757, 36.2275226999 ], [ -115.2197757, 36.227519999899997 ], [ -115.2197811, 36.227519999899997 ], [ -115.2197811, 36.227517299900001 ], [ -115.2197838, 36.227517299900001 ], [ -115.2197838, 36.227511899900001 ], [ -115.2197865, 36.227511899900001 ], [ -115.2197865, 36.227509199899998 ], [ -115.2197919, 36.227509199899998 ], [ -115.2197919, 36.227506499900002 ], [ -115.2197946, 36.227506499900002 ], [ -115.2197946, 36.227495699899997 ], [ -115.2197973, 36.227495699899997 ], [ -115.2197973, 36.227492999900001 ], [ -115.2198027, 36.227492999900001 ], [ -115.2198027, 36.227490299899998 ], [ -115.2198378, 36.227490299899998 ], [ -115.2198378, 36.227487599900002 ], [ -115.2198432, 36.227487599900002 ], [ -115.2198432, 36.227484899899999 ], [ -115.2198486, 36.227484899899999 ], [ -115.2198486, 36.227482199900003 ], [ -115.2198513, 36.227482199900003 ], [ -115.2198513, 36.227479499899999 ], [ -115.2198567, 36.227479499899999 ], [ -115.2198567, 36.227482199900003 ], [ -115.2198621, 36.227482199900003 ], [ -115.2198621, 36.227479499899999 ], [ -115.2198783, 36.227479499899999 ], [ -115.2198783, 36.227476799899996 ], [ -115.2198891, 36.227476799899996 ], [ -115.2198891, 36.2274740999 ], [ -115.2198945, 36.2274740999 ], [ -115.2198945, 36.227471399899997 ], [ -115.2198999, 36.227471399899997 ], [ -115.2198999, 36.227468699900001 ], [ -115.2199053, 36.227468699900001 ], [ -115.2199053, 36.227465999899998 ], [ -115.219908, 36.227465999899998 ], [ -115.219908, 36.227463299900002 ], [ -115.2199053, 36.227463299900002 ], [ -115.2199053, 36.227457899900003 ], [ -115.219908, 36.227457899900003 ], [ -115.219908, 36.2274551999 ], [ -115.2199107, 36.2274551999 ], [ -115.2199107, 36.227452499899996 ], [ -115.2199134, 36.227452499899996 ], [ -115.2199134, 36.227444399900001 ], [ -115.2199107, 36.227444399900001 ], [ -115.2199107, 36.227438999900002 ], [ -115.2199134, 36.227438999900002 ], [ -115.2199134, 36.227436299899999 ], [ -115.2199107, 36.227436299899999 ], [ -115.2199107, 36.227428199899997 ], [ -115.2199053, 36.227428199899997 ], [ -115.2199053, 36.227422799899998 ], [ -115.2199026, 36.227422799899998 ], [ -115.2199026, 36.227420099900002 ], [ -115.2198999, 36.227420099900002 ], [ -115.2198999, 36.227417399899998 ], [ -115.2198972, 36.227417399899998 ], [ -115.2198972, 36.227411999899999 ], [ -115.2198945, 36.227411999899999 ], [ -115.2198945, 36.227409299899996 ], [ -115.2198918, 36.227409299899996 ], [ -115.2198918, 36.2274065999 ], [ -115.2198891, 36.2274065999 ], [ -115.2198891, 36.227403899899997 ], [ -115.2198864, 36.227403899899997 ], [ -115.2198864, 36.227401199900001 ], [ -115.2198837, 36.227401199900001 ], [ -115.2198837, 36.227395799900002 ], [ -115.219881, 36.227395799900002 ], [ -115.219881, 36.227393099899999 ], [ -115.2198783, 36.227393099899999 ], [ -115.2198783, 36.227390399900003 ], [ -115.2198756, 36.227390399900003 ], [ -115.2198756, 36.2273876999 ], [ -115.2198729, 36.2273876999 ], [ -115.2198729, 36.227384999899996 ], [ -115.2198702, 36.227384999899996 ], [ -115.2198702, 36.2273822999 ], [ -115.2198675, 36.2273822999 ], [ -115.2198675, 36.227379599899997 ], [ -115.2198648, 36.227379599899997 ], [ -115.2198648, 36.227376899900001 ], [ -115.2198621, 36.227376899900001 ], [ -115.2198621, 36.227371499900002 ], [ -115.2198594, 36.227371499900002 ], [ -115.2198594, 36.227368799899999 ], [ -115.2198567, 36.227368799899999 ], [ -115.2198567, 36.227366099900003 ], [ -115.219854, 36.227366099900003 ], [ -115.219854, 36.227360699899997 ], [ -115.2198513, 36.227360699899997 ], [ -115.2198513, 36.227357999900001 ], [ -115.2198486, 36.227357999900001 ], [ -115.2198486, 36.227355299899997 ], [ -115.2198459, 36.227355299899997 ], [ -115.2198459, 36.227347199900002 ], [ -115.2198432, 36.227347199900002 ], [ -115.2198432, 36.227341799899996 ], [ -115.2198405, 36.227341799899996 ], [ -115.2198405, 36.2273390999 ], [ -115.2198378, 36.2273390999 ], [ -115.2198378, 36.227336399899997 ], [ -115.2198324, 36.227336399899997 ], [ -115.2198324, 36.227333699900001 ], [ -115.219827, 36.227333699900001 ], [ -115.219827, 36.227330999899998 ], [ -115.2198216, 36.227330999899998 ], [ -115.2198216, 36.227328299900002 ], [ -115.2198189, 36.227328299900002 ], [ -115.2198189, 36.227325599899999 ], [ -115.2198162, 36.227325599899999 ], [ -115.2198162, 36.227322899900003 ], [ -115.2198135, 36.227322899900003 ], [ -115.2198135, 36.227320199899999 ], [ -115.2198081, 36.227320199899999 ], [ -115.2198081, 36.227317499899996 ], [ -115.2198054, 36.227317499899996 ], [ -115.2198054, 36.227312099899997 ], [ -115.2198027, 36.227312099899997 ], [ -115.2198027, 36.227306699899998 ], [ -115.2198054, 36.227306699899998 ], [ -115.2198054, 36.227303999900002 ], [ -115.2198081, 36.227303999900002 ], [ -115.2198081, 36.227301299899999 ], [ -115.2198135, 36.227301299899999 ], [ -115.2198135, 36.227298599900003 ], [ -115.2198162, 36.227298599900003 ], [ -115.2198162, 36.2272958999 ], [ -115.2198216, 36.2272958999 ], [ -115.2198216, 36.227293199899997 ], [ -115.219827, 36.227293199899997 ], [ -115.219827, 36.2272904999 ], [ -115.2198324, 36.2272904999 ], [ -115.2198324, 36.227287799899997 ], [ -115.2198378, 36.227287799899997 ], [ -115.2198378, 36.227285099900001 ], [ -115.2198432, 36.227285099900001 ], [ -115.2198432, 36.227282399899998 ], [ -115.2198459, 36.227282399899998 ], [ -115.2198459, 36.227279699900002 ], [ -115.2198513, 36.227279699900002 ], [ -115.2198513, 36.227276999899999 ], [ -115.2198567, 36.227276999899999 ], [ -115.2198567, 36.227274299899996 ], [ -115.2198621, 36.227274299899996 ], [ -115.2198621, 36.2272715999 ], [ -115.2198648, 36.2272715999 ], [ -115.2198648, 36.227268899899997 ], [ -115.2198702, 36.227268899899997 ], [ -115.2198702, 36.227266199900001 ], [ -115.2198729, 36.227266199900001 ], [ -115.2198729, 36.227263499899998 ], [ -115.2198783, 36.227263499899998 ], [ -115.2198783, 36.227260799900002 ], [ -115.2198837, 36.227260799900002 ], [ -115.2198837, 36.227258099899998 ], [ -115.2198864, 36.227258099899998 ], [ -115.2198864, 36.227255399900002 ], [ -115.2198918, 36.227255399900002 ], [ -115.2198918, 36.227252699899999 ], [ -115.2198972, 36.227252699899999 ], [ -115.2198972, 36.227249999899996 ], [ -115.2198999, 36.227249999899996 ], [ -115.2198999, 36.2272472999 ], [ -115.2199053, 36.2272472999 ], [ -115.2199053, 36.227244599899997 ], [ -115.2199107, 36.227244599899997 ], [ -115.2199107, 36.227241899900001 ], [ -115.2199134, 36.227241899900001 ], [ -115.2199134, 36.227239199899998 ], [ -115.2199161, 36.227239199899998 ], [ -115.2199161, 36.227236499900002 ], [ -115.2199215, 36.227236499900002 ], [ -115.2199215, 36.227233799899999 ], [ -115.2199269, 36.227233799899999 ], [ -115.2199269, 36.227231099900003 ], [ -115.219935, 36.227231099900003 ], [ -115.219935, 36.2272283999 ], [ -115.2199458, 36.2272283999 ], [ -115.2199458, 36.227231099900003 ], [ -115.2199485, 36.227231099900003 ], [ -115.2199485, 36.227233799899999 ], [ -115.2199512, 36.227233799899999 ], [ -115.2199512, 36.227236499900002 ], [ -115.2199539, 36.227236499900002 ], [ -115.2199539, 36.227239199899998 ], [ -115.2199593, 36.227239199899998 ], [ -115.2199593, 36.227241899900001 ], [ -115.2199647, 36.227241899900001 ], [ -115.2199647, 36.227244599899997 ], [ -115.2199674, 36.227244599899997 ], [ -115.2199674, 36.227249999899996 ], [ -115.2199701, 36.227249999899996 ], [ -115.2199701, 36.227255399900002 ], [ -115.2199728, 36.227255399900002 ], [ -115.2199728, 36.227258099899998 ], [ -115.2199782, 36.227258099899998 ], [ -115.2199782, 36.227260799900002 ], [ -115.2199809, 36.227260799900002 ], [ -115.2199809, 36.227263499899998 ], [ -115.2199836, 36.227263499899998 ], [ -115.2199836, 36.2272715999 ], [ -115.2199863, 36.2272715999 ], [ -115.2199863, 36.227274299899996 ], [ -115.219989, 36.227274299899996 ], [ -115.219989, 36.227279699900002 ], [ -115.2199917, 36.227279699900002 ], [ -115.2199917, 36.227282399899998 ], [ -115.2199944, 36.227282399899998 ], [ -115.2199944, 36.2272904999 ], [ -115.2199971, 36.2272904999 ], [ -115.2199971, 36.2272958999 ], [ -115.2200079, 36.2272958999 ], [ -115.2200079, 36.227298599900003 ], [ -115.2200106, 36.227298599900003 ], [ -115.2200106, 36.227303999900002 ], [ -115.2200133, 36.227303999900002 ], [ -115.2200133, 36.227306699899998 ], [ -115.2200187, 36.227306699899998 ], [ -115.2200187, 36.227309399900001 ], [ -115.2200214, 36.227309399900001 ], [ -115.2200214, 36.227312099899997 ], [ -115.2200268, 36.227312099899997 ], [ -115.2200268, 36.2273147999 ], [ -115.2200241, 36.2273147999 ], [ -115.2200241, 36.227320199899999 ], [ -115.2200268, 36.227320199899999 ], [ -115.2200268, 36.227322899900003 ], [ -115.2200295, 36.227322899900003 ], [ -115.2200295, 36.227325599899999 ], [ -115.2200322, 36.227325599899999 ], [ -115.2200322, 36.227328299900002 ], [ -115.220043, 36.227328299900002 ], [ -115.220043, 36.227325599899999 ], [ -115.2200484, 36.227325599899999 ], [ -115.2200484, 36.227328299900002 ], [ -115.2200538, 36.227328299900002 ], [ -115.2200538, 36.227330999899998 ], [ -115.2200619, 36.227330999899998 ], [ -115.2200619, 36.227333699900001 ], [ -115.2200808, 36.227333699900001 ], [ -115.2200808, 36.227330999899998 ], [ -115.2200997, 36.227330999899998 ], [ -115.2200997, 36.227328299900002 ], [ -115.2201051, 36.227328299900002 ], [ -115.2201051, 36.227325599899999 ], [ -115.2201024, 36.227325599899999 ], [ -115.2201024, 36.227322899900003 ], [ -115.2201051, 36.227322899900003 ], [ -115.2201051, 36.227317499899996 ], [ -115.2201078, 36.227317499899996 ], [ -115.2201078, 36.227320199899999 ], [ -115.2201132, 36.227320199899999 ], [ -115.2201132, 36.227322899900003 ], [ -115.2201159, 36.227322899900003 ], [ -115.2201159, 36.227320199899999 ], [ -115.2201213, 36.227320199899999 ], [ -115.2201213, 36.227322899900003 ], [ -115.2201267, 36.227322899900003 ], [ -115.2201267, 36.227320199899999 ], [ -115.2201321, 36.227320199899999 ], [ -115.2201321, 36.227322899900003 ], [ -115.2201402, 36.227322899900003 ], [ -115.2201402, 36.2273147999 ], [ -115.2201483, 36.2273147999 ], [ -115.2201483, 36.227312099899997 ], [ -115.220151, 36.227312099899997 ], [ -115.220151, 36.2273147999 ], [ -115.2201537, 36.2273147999 ], [ -115.2201537, 36.227312099899997 ], [ -115.2201591, 36.227312099899997 ], [ -115.2201591, 36.227309399900001 ], [ -115.2201645, 36.227309399900001 ], [ -115.2201645, 36.227306699899998 ], [ -115.2201699, 36.227306699899998 ], [ -115.2201699, 36.227301299899999 ], [ -115.2201726, 36.227301299899999 ], [ -115.2201726, 36.227293199899997 ], [ -115.2201699, 36.227293199899997 ], [ -115.2201699, 36.227287799899997 ], [ -115.2201672, 36.227287799899997 ], [ -115.2201672, 36.227282399899998 ], [ -115.2201645, 36.227282399899998 ], [ -115.2201645, 36.227279699900002 ], [ -115.2201618, 36.227279699900002 ], [ -115.2201618, 36.227274299899996 ], [ -115.2201591, 36.227274299899996 ], [ -115.2201591, 36.2272715999 ], [ -115.2201564, 36.2272715999 ], [ -115.2201564, 36.227268899899997 ], [ -115.2201537, 36.227268899899997 ], [ -115.2201537, 36.227266199900001 ], [ -115.220151, 36.227266199900001 ], [ -115.220151, 36.227263499899998 ], [ -115.2201483, 36.227263499899998 ], [ -115.2201483, 36.227260799900002 ], [ -115.2201456, 36.227260799900002 ], [ -115.2201456, 36.227258099899998 ], [ -115.2201429, 36.227258099899998 ], [ -115.2201429, 36.227252699899999 ], [ -115.2201402, 36.227252699899999 ], [ -115.2201402, 36.227249999899996 ], [ -115.2201375, 36.227249999899996 ], [ -115.2201375, 36.2272472999 ], [ -115.2201348, 36.2272472999 ], [ -115.2201348, 36.227244599899997 ], [ -115.2201321, 36.227244599899997 ], [ -115.2201321, 36.227241899900001 ], [ -115.2201294, 36.227241899900001 ], [ -115.2201294, 36.227239199899998 ], [ -115.2201267, 36.227239199899998 ], [ -115.2201267, 36.227236499900002 ], [ -115.220124, 36.227236499900002 ], [ -115.220124, 36.227233799899999 ], [ -115.2201213, 36.227233799899999 ], [ -115.2201213, 36.2272283999 ], [ -115.2201186, 36.2272283999 ], [ -115.2201186, 36.227225699899996 ], [ -115.2201159, 36.227225699899996 ], [ -115.2201159, 36.2272229999 ], [ -115.2201132, 36.2272229999 ], [ -115.2201132, 36.227220299899997 ], [ -115.2201105, 36.227220299899997 ], [ -115.2201105, 36.227217599900001 ], [ -115.2201078, 36.227217599900001 ], [ -115.2201078, 36.227214899899998 ], [ -115.2201051, 36.227214899899998 ], [ -115.2201051, 36.227212199900002 ], [ -115.2201024, 36.227212199900002 ], [ -115.2201024, 36.227209499899999 ], [ -115.2200997, 36.227209499899999 ], [ -115.2200997, 36.227206799899996 ], [ -115.220097, 36.227206799899996 ], [ -115.220097, 36.2272040999 ], [ -115.2200943, 36.2272040999 ], [ -115.2200943, 36.227198699900001 ], [ -115.2200916, 36.227198699900001 ], [ -115.2200916, 36.227195999899998 ], [ -115.2200889, 36.227195999899998 ], [ -115.2200889, 36.227193299900001 ], [ -115.2200862, 36.227193299900001 ], [ -115.2200862, 36.227190599899998 ], [ -115.2200835, 36.227190599899998 ], [ -115.2200835, 36.227187899900002 ], [ -115.2200808, 36.227187899900002 ], [ -115.2200808, 36.227185199899999 ], [ -115.2200781, 36.227185199899999 ], [ -115.2200781, 36.227182499899996 ], [ -115.2200754, 36.227182499899996 ], [ -115.2200754, 36.2271797999 ], [ -115.2200727, 36.2271797999 ], [ -115.2200727, 36.227177099899997 ], [ -115.22007, 36.227177099899997 ], [ -115.22007, 36.227171699899998 ], [ -115.2200673, 36.227171699899998 ], [ -115.2200673, 36.227168999900002 ], [ -115.2200646, 36.227168999900002 ], [ -115.2200646, 36.227166299899999 ], [ -115.2200592, 36.227166299899999 ], [ -115.2200592, 36.227163599900003 ], [ -115.2200565, 36.227163599900003 ], [ -115.2200565, 36.227160899899999 ], [ -115.2200538, 36.227160899899999 ], [ -115.2200538, 36.227152799899997 ], [ -115.2200565, 36.227152799899997 ], [ -115.2200565, 36.227150099900001 ], [ -115.2200592, 36.227150099900001 ], [ -115.2200592, 36.227147399899998 ], [ -115.2200619, 36.227147399899998 ], [ -115.2200619, 36.227144699900002 ], [ -115.2200673, 36.227144699900002 ], [ -115.2200673, 36.227141999899999 ], [ -115.2200727, 36.227141999899999 ], [ -115.2200727, 36.227139299899996 ], [ -115.2200754, 36.227139299899996 ], [ -115.2200754, 36.2271365999 ], [ -115.2200808, 36.2271365999 ], [ -115.2200808, 36.227133899899997 ], [ -115.2200889, 36.227133899899997 ], [ -115.2200889, 36.227131199900001 ], [ -115.2200943, 36.227131199900001 ], [ -115.2200943, 36.227128499899997 ], [ -115.2200997, 36.227128499899997 ], [ -115.2200997, 36.227125799900001 ], [ -115.2201024, 36.227125799900001 ], [ -115.2201024, 36.227123099899998 ], [ -115.2201078, 36.227123099899998 ], [ -115.2201078, 36.227120399900002 ], [ -115.2201105, 36.227120399900002 ], [ -115.2201105, 36.227117699899999 ], [ -115.2201159, 36.227117699899999 ], [ -115.2201159, 36.227114999899996 ], [ -115.2201213, 36.227114999899996 ], [ -115.2201213, 36.2271122999 ], [ -115.220124, 36.2271122999 ], [ -115.220124, 36.227109599899997 ], [ -115.2201294, 36.227109599899997 ], [ -115.2201294, 36.227106899900001 ], [ -115.2201348, 36.227106899900001 ], [ -115.2201348, 36.227104199899998 ], [ -115.2201375, 36.227104199899998 ], [ -115.2201375, 36.227101499900002 ], [ -115.2201429, 36.227101499900002 ], [ -115.2201429, 36.227098799899998 ], [ -115.2201483, 36.227098799899998 ], [ -115.2201483, 36.227096099900002 ], [ -115.2201537, 36.227096099900002 ], [ -115.2201537, 36.227093399899999 ], [ -115.2201564, 36.227093399899999 ], [ -115.2201564, 36.227090699899996 ], [ -115.2201618, 36.227090699899996 ], [ -115.2201618, 36.2270879999 ], [ -115.2201672, 36.2270879999 ], [ -115.2201672, 36.227085299899997 ], [ -115.2201726, 36.227085299899997 ], [ -115.2201726, 36.227082599900001 ], [ -115.220178, 36.227082599900001 ], [ -115.220178, 36.227079899899998 ], [ -115.2201807, 36.227079899899998 ], [ -115.2201807, 36.227077199900002 ], [ -115.2201861, 36.227077199900002 ], [ -115.2201861, 36.227074499899999 ], [ -115.2201942, 36.227074499899999 ], [ -115.2201942, 36.227077199900002 ], [ -115.2201969, 36.227077199900002 ], [ -115.2201969, 36.227079899899998 ], [ -115.2201996, 36.227079899899998 ], [ -115.2201996, 36.227082599900001 ], [ -115.220205, 36.227082599900001 ], [ -115.220205, 36.227085299899997 ], [ -115.2202077, 36.227085299899997 ], [ -115.2202077, 36.2270879999 ], [ -115.2202104, 36.2270879999 ], [ -115.2202104, 36.227090699899996 ], [ -115.2202131, 36.227090699899996 ], [ -115.2202131, 36.227093399899999 ], [ -115.2202158, 36.227093399899999 ], [ -115.2202158, 36.227096099900002 ], [ -115.2202185, 36.227096099900002 ], [ -115.2202185, 36.227101499900002 ], [ -115.2202212, 36.227101499900002 ], [ -115.2202212, 36.227104199899998 ], [ -115.2202239, 36.227104199899998 ], [ -115.2202239, 36.227106899900001 ], [ -115.2202266, 36.227106899900001 ], [ -115.2202266, 36.2271122999 ], [ -115.2202293, 36.2271122999 ], [ -115.2202293, 36.227114999899996 ], [ -115.220232, 36.227114999899996 ], [ -115.220232, 36.227117699899999 ], [ -115.2202347, 36.227117699899999 ], [ -115.2202347, 36.227120399900002 ], [ -115.2202374, 36.227120399900002 ], [ -115.2202374, 36.227123099899998 ], [ -115.2202401, 36.227123099899998 ], [ -115.2202401, 36.227125799900001 ], [ -115.2202428, 36.227125799900001 ], [ -115.2202428, 36.227128499899997 ], [ -115.2202455, 36.227128499899997 ], [ -115.2202455, 36.227131199900001 ], [ -115.2202509, 36.227131199900001 ], [ -115.2202509, 36.227133899899997 ], [ -115.2202536, 36.227133899899997 ], [ -115.2202536, 36.2271365999 ], [ -115.2202563, 36.2271365999 ], [ -115.2202563, 36.227139299899996 ], [ -115.220259, 36.227139299899996 ], [ -115.220259, 36.227141999899999 ], [ -115.2202617, 36.227141999899999 ], [ -115.2202617, 36.227144699900002 ], [ -115.2202644, 36.227144699900002 ], [ -115.2202644, 36.227150099900001 ], [ -115.2202671, 36.227150099900001 ], [ -115.2202671, 36.227152799899997 ], [ -115.2202698, 36.227152799899997 ], [ -115.2202698, 36.2271554999 ], [ -115.2202725, 36.2271554999 ], [ -115.2202725, 36.227158199899996 ], [ -115.2202752, 36.227158199899996 ], [ -115.2202752, 36.227160899899999 ], [ -115.2202779, 36.227160899899999 ], [ -115.2202779, 36.227163599900003 ], [ -115.2202806, 36.227163599900003 ], [ -115.2202806, 36.227166299899999 ], [ -115.2202833, 36.227166299899999 ], [ -115.2202833, 36.227168999900002 ], [ -115.220286, 36.227168999900002 ], [ -115.220286, 36.227171699899998 ], [ -115.2202887, 36.227171699899998 ], [ -115.2202887, 36.227174399900001 ], [ -115.2202914, 36.227174399900001 ], [ -115.2202914, 36.227177099899997 ], [ -115.2202941, 36.227177099899997 ], [ -115.2202941, 36.227182499899996 ], [ -115.2202968, 36.227182499899996 ], [ -115.2202968, 36.227185199899999 ], [ -115.2202995, 36.227185199899999 ], [ -115.2202995, 36.227187899900002 ], [ -115.2203022, 36.227187899900002 ], [ -115.2203022, 36.227190599899998 ], [ -115.2203049, 36.227190599899998 ], [ -115.2203049, 36.227193299900001 ], [ -115.2203076, 36.227193299900001 ], [ -115.2203076, 36.227195999899998 ], [ -115.2203103, 36.227195999899998 ], [ -115.2203103, 36.227201399899997 ], [ -115.220313, 36.227201399899997 ], [ -115.220313, 36.2272040999 ], [ -115.2203157, 36.2272040999 ], [ -115.2203157, 36.227206799899996 ], [ -115.2203184, 36.227206799899996 ], [ -115.2203184, 36.227209499899999 ], [ -115.2203211, 36.227209499899999 ], [ -115.2203211, 36.227212199900002 ], [ -115.2203238, 36.227212199900002 ], [ -115.2203238, 36.227214899899998 ], [ -115.2203265, 36.227214899899998 ], [ -115.2203265, 36.227217599900001 ], [ -115.2203292, 36.227217599900001 ], [ -115.2203292, 36.227220299899997 ], [ -115.2203319, 36.227220299899997 ], [ -115.2203319, 36.2272229999 ], [ -115.2203346, 36.2272229999 ], [ -115.2203346, 36.227225699899996 ], [ -115.2203373, 36.227225699899996 ], [ -115.2203373, 36.2272283999 ], [ -115.22034, 36.2272283999 ], [ -115.22034, 36.227231099900003 ], [ -115.2203454, 36.227231099900003 ], [ -115.2203454, 36.227233799899999 ], [ -115.2203535, 36.227233799899999 ], [ -115.2203535, 36.227236499900002 ], [ -115.2203805, 36.227236499900002 ], [ -115.2203805, 36.227239199899998 ], [ -115.2203832, 36.227239199899998 ], [ -115.2203832, 36.227241899900001 ], [ -115.2203859, 36.227241899900001 ], [ -115.2203859, 36.227244599899997 ], [ -115.2203886, 36.227244599899997 ], [ -115.2203886, 36.2272472999 ], [ -115.2203913, 36.2272472999 ], [ -115.2203913, 36.227249999899996 ], [ -115.220394, 36.227249999899996 ], [ -115.220394, 36.227252699899999 ], [ -115.2203967, 36.227252699899999 ], [ -115.2203967, 36.227255399900002 ], [ -115.2204021, 36.227255399900002 ], [ -115.2204021, 36.227258099899998 ], [ -115.2204102, 36.227258099899998 ], [ -115.2204102, 36.227260799900002 ], [ -115.220421, 36.227260799900002 ], [ -115.220421, 36.227258099899998 ], [ -115.2204318, 36.227258099899998 ], [ -115.2204318, 36.227260799900002 ], [ -115.2204345, 36.227260799900002 ], [ -115.2204345, 36.227263499899998 ], [ -115.2204399, 36.227263499899998 ], [ -115.2204399, 36.227266199900001 ], [ -115.2204453, 36.227266199900001 ], [ -115.2204453, 36.227268899899997 ], [ -115.220448, 36.227268899899997 ], [ -115.220448, 36.2272715999 ], [ -115.2204507, 36.2272715999 ], [ -115.2204507, 36.227274299899996 ], [ -115.2204534, 36.227274299899996 ], [ -115.2204534, 36.227279699900002 ], [ -115.2204561, 36.227279699900002 ], [ -115.2204561, 36.227282399899998 ], [ -115.2204588, 36.227282399899998 ], [ -115.2204588, 36.227285099900001 ], [ -115.2204615, 36.227285099900001 ], [ -115.2204615, 36.227287799899997 ], [ -115.2204642, 36.227287799899997 ], [ -115.2204642, 36.2272904999 ], [ -115.2204669, 36.2272904999 ], [ -115.2204669, 36.227298599900003 ], [ -115.2204723, 36.227298599900003 ], [ -115.2204723, 36.227301299899999 ], [ -115.220475, 36.227301299899999 ], [ -115.220475, 36.227303999900002 ], [ -115.2204777, 36.227303999900002 ], [ -115.2204777, 36.227306699899998 ], [ -115.2204804, 36.227306699899998 ], [ -115.2204804, 36.227312099899997 ], [ -115.2204831, 36.227312099899997 ], [ -115.2204831, 36.227325599899999 ], [ -115.2204804, 36.227325599899999 ], [ -115.2204804, 36.227328299900002 ], [ -115.2204831, 36.227328299900002 ], [ -115.2204831, 36.227330999899998 ], [ -115.2204885, 36.227330999899998 ], [ -115.2204885, 36.227322899900003 ], [ -115.2204912, 36.227322899900003 ], [ -115.2204912, 36.227325599899999 ], [ -115.2204939, 36.227325599899999 ], [ -115.2204939, 36.227330999899998 ], [ -115.2204966, 36.227330999899998 ], [ -115.2204966, 36.2273390999 ], [ -115.2204939, 36.2273390999 ], [ -115.2204939, 36.227347199900002 ], [ -115.2204966, 36.227347199900002 ], [ -115.2204966, 36.227349899899998 ], [ -115.2204939, 36.227349899899998 ], [ -115.2204939, 36.227360699899997 ], [ -115.2204966, 36.227360699899997 ], [ -115.2204966, 36.227366099900003 ], [ -115.2204993, 36.227366099900003 ], [ -115.2204993, 36.227374199899998 ], [ -115.2204966, 36.227374199899998 ], [ -115.2204966, 36.227376899900001 ], [ -115.2204939, 36.227376899900001 ], [ -115.2204939, 36.227379599899997 ], [ -115.2204912, 36.227379599899997 ], [ -115.2204912, 36.2273822999 ], [ -115.2204885, 36.2273822999 ], [ -115.2204885, 36.227384999899996 ], [ -115.2204858, 36.227384999899996 ], [ -115.2204858, 36.227395799900002 ], [ -115.2204885, 36.227395799900002 ], [ -115.2204885, 36.227401199900001 ], [ -115.2204912, 36.227401199900001 ], [ -115.2204912, 36.227403899899997 ], [ -115.2204939, 36.227403899899997 ], [ -115.2204939, 36.2274065999 ], [ -115.2204966, 36.2274065999 ], [ -115.2204966, 36.227409299899996 ], [ -115.220502, 36.227409299899996 ], [ -115.220502, 36.227411999899999 ], [ -115.2205047, 36.227411999899999 ], [ -115.2205047, 36.227414699900002 ], [ -115.2205074, 36.227414699900002 ], [ -115.2205074, 36.227417399899998 ], [ -115.2205101, 36.227417399899998 ], [ -115.2205101, 36.227420099900002 ], [ -115.2205128, 36.227420099900002 ], [ -115.2205128, 36.227422799899998 ], [ -115.2205155, 36.227422799899998 ], [ -115.2205155, 36.227425499900001 ], [ -115.2205182, 36.227425499900001 ], [ -115.2205182, 36.227428199899997 ], [ -115.2205209, 36.227428199899997 ], [ -115.2205209, 36.2274308999 ], [ -115.2205236, 36.2274308999 ], [ -115.2205236, 36.227433599900003 ], [ -115.2205263, 36.227433599900003 ], [ -115.2205263, 36.227436299899999 ], [ -115.220529, 36.227436299899999 ], [ -115.220529, 36.227438999900002 ], [ -115.2205317, 36.227438999900002 ], [ -115.2205317, 36.227441699899998 ], [ -115.2205344, 36.227441699899998 ], [ -115.2205344, 36.227444399900001 ], [ -115.2205371, 36.227444399900001 ], [ -115.2205371, 36.227447099899997 ], [ -115.2205398, 36.227447099899997 ], [ -115.2205398, 36.2274497999 ], [ -115.2205425, 36.2274497999 ], [ -115.2205425, 36.227452499899996 ], [ -115.2205452, 36.227452499899996 ], [ -115.2205452, 36.2274551999 ], [ -115.2205479, 36.2274551999 ], [ -115.2205479, 36.227460599899999 ], [ -115.2205506, 36.227460599899999 ], [ -115.2205506, 36.227463299900002 ], [ -115.2205533, 36.227463299900002 ], [ -115.2205533, 36.227465999899998 ], [ -115.220556, 36.227465999899998 ], [ -115.220556, 36.227468699900001 ], [ -115.2205587, 36.227468699900001 ], [ -115.2205587, 36.227471399899997 ], [ -115.2205614, 36.227471399899997 ], [ -115.2205614, 36.227476799899996 ], [ -115.2205641, 36.227476799899996 ], [ -115.2205641, 36.227479499899999 ], [ -115.2205668, 36.227479499899999 ], [ -115.2205668, 36.227482199900003 ], [ -115.2205695, 36.227482199900003 ], [ -115.2205695, 36.227484899899999 ], [ -115.2205722, 36.227484899899999 ], [ -115.2205722, 36.227487599900002 ], [ -115.2205749, 36.227487599900002 ], [ -115.2205749, 36.227492999900001 ], [ -115.2205776, 36.227492999900001 ], [ -115.2205776, 36.227495699899997 ], [ -115.2205803, 36.227495699899997 ], [ -115.2205803, 36.2274983999 ], [ -115.220583, 36.2274983999 ], [ -115.220583, 36.227501099900003 ], [ -115.2205857, 36.227501099900003 ], [ -115.2205857, 36.227503799899999 ], [ -115.2205884, 36.227503799899999 ], [ -115.2205884, 36.227506499900002 ], [ -115.2205911, 36.227506499900002 ], [ -115.2205911, 36.227509199899998 ], [ -115.2205938, 36.227509199899998 ], [ -115.2205938, 36.227514599899997 ], [ -115.2205965, 36.227514599899997 ], [ -115.2205965, 36.227517299900001 ], [ -115.2205992, 36.227517299900001 ], [ -115.2205992, 36.227519999899997 ], [ -115.2206019, 36.227519999899997 ], [ -115.2206019, 36.227525399900003 ], [ -115.2206046, 36.227525399900003 ], [ -115.2206046, 36.227530799900002 ], [ -115.2206073, 36.227530799900002 ], [ -115.2206073, 36.227536199900001 ], [ -115.22061, 36.227536199900001 ], [ -115.22061, 36.227544299899996 ], [ -115.2206073, 36.227544299899996 ], [ -115.2206073, 36.227546999899999 ], [ -115.2206019, 36.227546999899999 ], [ -115.2206019, 36.227549699900003 ], [ -115.2205992, 36.227549699900003 ], [ -115.2205992, 36.227552399899999 ], [ -115.2205938, 36.227552399899999 ], [ -115.2205938, 36.227555099900002 ], [ -115.2205911, 36.227555099900002 ], [ -115.2205911, 36.227557799899998 ], [ -115.2205884, 36.227557799899998 ], [ -115.2205884, 36.227560499900001 ], [ -115.2205857, 36.227560499900001 ], [ -115.2205857, 36.227563199899997 ], [ -115.220583, 36.227563199899997 ], [ -115.220583, 36.2275658999 ], [ -115.2205803, 36.2275658999 ], [ -115.2205803, 36.227568599900003 ], [ -115.2205776, 36.227568599900003 ], [ -115.2205776, 36.227582099899998 ], [ -115.2205803, 36.227582099899998 ], [ -115.2205803, 36.227584799900001 ], [ -115.220583, 36.227584799900001 ], [ -115.220583, 36.2275901999 ], [ -115.2205857, 36.2275901999 ], [ -115.2205857, 36.227592899900003 ], [ -115.2205884, 36.227592899900003 ], [ -115.2205884, 36.227595599899999 ], [ -115.2205911, 36.227595599899999 ], [ -115.2205911, 36.227603699900001 ], [ -115.220583, 36.227603699900001 ], [ -115.220583, 36.227606399899997 ], [ -115.2205749, 36.227606399899997 ], [ -115.2205749, 36.2276090999 ], [ -115.2205668, 36.2276090999 ], [ -115.2205668, 36.227611799899996 ], [ -115.2205641, 36.227611799899996 ], [ -115.2205641, 36.2276144999 ], [ -115.2205587, 36.2276144999 ], [ -115.2205587, 36.227617199900003 ], [ -115.220556, 36.227617199900003 ], [ -115.220556, 36.227619899899999 ], [ -115.2205533, 36.227619899899999 ], [ -115.2205533, 36.227622599900002 ], [ -115.2205479, 36.227622599900002 ], [ -115.2205479, 36.227625299899998 ], [ -115.2205425, 36.227625299899998 ], [ -115.2205425, 36.227627999900001 ], [ -115.2205398, 36.227627999900001 ], [ -115.2205398, 36.227630699899997 ], [ -115.2205344, 36.227630699899997 ], [ -115.2205344, 36.2276333999 ], [ -115.220529, 36.2276333999 ], [ -115.220529, 36.227636099900003 ], [ -115.2205236, 36.227636099900003 ], [ -115.2205236, 36.227638799899999 ], [ -115.2205209, 36.227638799899999 ], [ -115.2205209, 36.227641499900002 ], [ -115.2205155, 36.227641499900002 ], [ -115.2205155, 36.227644199899999 ], [ -115.2205128, 36.227644199899999 ], [ -115.2205128, 36.227646899900002 ], [ -115.2205074, 36.227646899900002 ], [ -115.2205074, 36.227649599899998 ], [ -115.2205047, 36.227649599899998 ], [ -115.2205047, 36.227652299900001 ], [ -115.2204993, 36.227652299900001 ], [ -115.2204993, 36.227654999899997 ], [ -115.2204966, 36.227654999899997 ], [ -115.2204966, 36.2276576999 ], [ -115.2204912, 36.2276576999 ], [ -115.2204912, 36.227660399900003 ], [ -115.2204858, 36.227660399900003 ], [ -115.2204858, 36.227663099899999 ], [ -115.2204831, 36.227663099899999 ], [ -115.2204831, 36.227665799900002 ], [ -115.2204804, 36.227665799900002 ], [ -115.2204804, 36.227668499899998 ], [ -115.2204723, 36.227668499899998 ], [ -115.2204723, 36.227671199900001 ], [ -115.2204669, 36.227671199900001 ], [ -115.2204669, 36.227668499899998 ], [ -115.2204561, 36.227668499899998 ], [ -115.2204561, 36.227665799900002 ], [ -115.2204453, 36.227665799900002 ], [ -115.2204453, 36.227668499899998 ], [ -115.2204426, 36.227668499899998 ], [ -115.2204426, 36.227671199900001 ], [ -115.2204399, 36.227671199900001 ], [ -115.2204399, 36.227673899899997 ], [ -115.2204291, 36.227673899899997 ], [ -115.2204291, 36.227676599900001 ], [ -115.2204237, 36.227676599900001 ], [ -115.2204237, 36.227690099900002 ], [ -115.2204264, 36.227690099900002 ], [ -115.2204264, 36.227692799899998 ], [ -115.2204291, 36.227692799899998 ], [ -115.2204291, 36.2277008999 ], [ -115.2204237, 36.2277008999 ], [ -115.2204237, 36.227703599900003 ], [ -115.2204156, 36.227703599900003 ], [ -115.2204156, 36.227706299899999 ], [ -115.2204102, 36.227706299899999 ], [ -115.2204102, 36.227708999900003 ], [ -115.2204048, 36.227708999900003 ], [ -115.2204048, 36.227711699899999 ], [ -115.2203994, 36.227711699899999 ], [ -115.2203994, 36.227714399900002 ], [ -115.2203967, 36.227714399900002 ], [ -115.2203967, 36.227717099899998 ], [ -115.2203913, 36.227717099899998 ], [ -115.2203913, 36.227719799900001 ], [ -115.2203886, 36.227719799900001 ], [ -115.2203886, 36.227722499899997 ], [ -115.2203859, 36.227722499899997 ], [ -115.2203859, 36.2277251999 ], [ -115.2203805, 36.2277251999 ], [ -115.2203805, 36.227727899900003 ], [ -115.2203751, 36.227727899900003 ], [ -115.2203751, 36.227730599899999 ], [ -115.2203724, 36.227730599899999 ], [ -115.2203724, 36.227733299900002 ], [ -115.220367, 36.227733299900002 ], [ -115.220367, 36.227735999899998 ], [ -115.2203616, 36.227735999899998 ], [ -115.2203616, 36.227738699900002 ], [ -115.2203589, 36.227738699900002 ], [ -115.2203589, 36.227741399899998 ], [ -115.2203535, 36.227741399899998 ], [ -115.2203535, 36.227744099900001 ], [ -115.2203508, 36.227744099900001 ], [ -115.2203508, 36.227746799899997 ], [ -115.2203481, 36.227746799899997 ], [ -115.2203481, 36.2277494999 ], [ -115.2203427, 36.2277494999 ], [ -115.2203427, 36.227752199900003 ], [ -115.22034, 36.227752199900003 ], [ -115.22034, 36.227754899899999 ], [ -115.2203346, 36.227754899899999 ], [ -115.2203346, 36.227757599900002 ], [ -115.2203319, 36.227757599900002 ], [ -115.2203319, 36.227760299899998 ], [ -115.2203265, 36.227760299899998 ], [ -115.2203265, 36.227762999900001 ], [ -115.2203211, 36.227762999900001 ], [ -115.2203211, 36.227765699899997 ], [ -115.2203184, 36.227765699899997 ], [ -115.2203184, 36.2277683999 ], [ -115.2203157, 36.2277683999 ], [ -115.2203157, 36.227771099900004 ], [ -115.220313, 36.227771099900004 ], [ -115.220313, 36.2277737999 ], [ -115.2203076, 36.2277737999 ], [ -115.2203076, 36.227776499900003 ], [ -115.2203049, 36.227776499900003 ], [ -115.2203049, 36.227779199899999 ], [ -115.2202995, 36.227779199899999 ], [ -115.2202995, 36.227781899900002 ], [ -115.2202941, 36.227781899900002 ], [ -115.2202941, 36.227784599899998 ], [ -115.2202887, 36.227784599899998 ], [ -115.2202887, 36.227787299900001 ], [ -115.2202833, 36.227787299900001 ], [ -115.2202833, 36.227789999899997 ], [ -115.2202779, 36.227789999899997 ], [ -115.2202779, 36.2277926999 ], [ -115.2202725, 36.2277926999 ], [ -115.2202725, 36.227795399900003 ], [ -115.2202698, 36.227795399900003 ], [ -115.2202698, 36.227798099899999 ], [ -115.2202671, 36.227798099899999 ], [ -115.2202671, 36.227800799900002 ], [ -115.2202644, 36.227800799900002 ], [ -115.2202644, 36.227803499899998 ], [ -115.220259, 36.227803499899998 ], [ -115.220259, 36.227806199900002 ], [ -115.2202482, 36.227806199900002 ], [ -115.2202482, 36.227803499899998 ], [ -115.2202455, 36.227803499899998 ], [ -115.2202455, 36.227800799900002 ], [ -115.2202401, 36.227800799900002 ], [ -115.2202401, 36.227798099899999 ], [ -115.2202347, 36.227798099899999 ], [ -115.2202347, 36.227795399900003 ], [ -115.220232, 36.227795399900003 ], [ -115.220232, 36.227789999899997 ], [ -115.2202293, 36.227789999899997 ], [ -115.2202293, 36.227787299900001 ], [ -115.2202266, 36.227787299900001 ], [ -115.2202266, 36.227781899900002 ], [ -115.2202239, 36.227781899900002 ], [ -115.2202239, 36.227771099900004 ], [ -115.2202212, 36.227771099900004 ], [ -115.2202212, 36.2277683999 ], [ -115.2202185, 36.2277683999 ], [ -115.2202185, 36.227765699899997 ], [ -115.2202158, 36.227765699899997 ], [ -115.2202158, 36.227762999900001 ], [ -115.2202131, 36.227762999900001 ], [ -115.2202131, 36.227760299899998 ], [ -115.2202104, 36.227760299899998 ], [ -115.2202104, 36.227757599900002 ], [ -115.2202077, 36.227757599900002 ], [ -115.2202077, 36.227754899899999 ], [ -115.220205, 36.227754899899999 ], [ -115.220205, 36.227752199900003 ], [ -115.2202023, 36.227752199900003 ], [ -115.2202023, 36.2277494999 ], [ -115.2201996, 36.2277494999 ], [ -115.2201996, 36.227746799899997 ], [ -115.2201969, 36.227746799899997 ], [ -115.2201969, 36.227744099900001 ], [ -115.2201942, 36.227744099900001 ], [ -115.2201942, 36.227738699900002 ], [ -115.2201915, 36.227738699900002 ], [ -115.2201915, 36.227735999899998 ], [ -115.2201888, 36.227735999899998 ], [ -115.2201888, 36.227733299900002 ], [ -115.2201861, 36.227733299900002 ], [ -115.2201861, 36.227730599899999 ], [ -115.2201834, 36.227730599899999 ], [ -115.2201834, 36.2277251999 ], [ -115.2201807, 36.2277251999 ], [ -115.2201807, 36.227722499899997 ], [ -115.220178, 36.227722499899997 ], [ -115.220178, 36.227719799900001 ], [ -115.2201753, 36.227719799900001 ], [ -115.2201753, 36.227717099899998 ], [ -115.2201726, 36.227717099899998 ], [ -115.2201726, 36.227714399900002 ], [ -115.2201699, 36.227714399900002 ], [ -115.2201699, 36.227711699899999 ], [ -115.2201672, 36.227711699899999 ], [ -115.2201672, 36.227708999900003 ], [ -115.2201618, 36.227708999900003 ], [ -115.2201618, 36.227706299899999 ], [ -115.2201591, 36.227706299899999 ], [ -115.2201591, 36.227703599900003 ], [ -115.2201564, 36.227703599900003 ], [ -115.2201564, 36.2277008999 ], [ -115.2201537, 36.2277008999 ], [ -115.2201537, 36.227695499900001 ], [ -115.220151, 36.227695499900001 ], [ -115.220151, 36.227692799899998 ], [ -115.2201483, 36.227692799899998 ], [ -115.2201483, 36.227690099900002 ], [ -115.2201429, 36.227690099900002 ], [ -115.2201429, 36.227687399899999 ], [ -115.2201402, 36.227687399899999 ], [ -115.2201402, 36.227679299899997 ], [ -115.2201375, 36.227679299899997 ], [ -115.2201375, 36.227676599900001 ], [ -115.2201348, 36.227676599900001 ], [ -115.2201348, 36.227673899899997 ], [ -115.2201321, 36.227673899899997 ], [ -115.2201321, 36.227671199900001 ], [ -115.2201267, 36.227671199900001 ], [ -115.2201267, 36.227668499899998 ], [ -115.2201186, 36.227668499899998 ], [ -115.2201186, 36.227671199900001 ], [ -115.2201132, 36.227671199900001 ], [ -115.2201132, 36.227676599900001 ], [ -115.2201051, 36.227676599900001 ], [ -115.2201051, 36.227684699900003 ], [ -115.2201078, 36.227684699900003 ], [ -115.2201078, 36.227687399899999 ], [ -115.2201105, 36.227687399899999 ], [ -115.2201105, 36.227692799899998 ], [ -115.2201132, 36.227692799899998 ], [ -115.2201132, 36.227695499900001 ], [ -115.2201159, 36.227695499900001 ], [ -115.2201159, 36.227698199899997 ], [ -115.2201186, 36.227698199899997 ], [ -115.2201186, 36.2277008999 ], [ -115.2201213, 36.2277008999 ], [ -115.2201213, 36.227706299899999 ], [ -115.220124, 36.227706299899999 ], [ -115.220124, 36.227708999900003 ], [ -115.2201267, 36.227708999900003 ], [ -115.2201267, 36.227711699899999 ], [ -115.2201294, 36.227711699899999 ], [ -115.2201294, 36.227714399900002 ], [ -115.2201321, 36.227714399900002 ], [ -115.2201321, 36.227717099899998 ], [ -115.2201348, 36.227717099899998 ], [ -115.2201348, 36.227719799900001 ], [ -115.2201375, 36.227719799900001 ], [ -115.2201375, 36.2277251999 ], [ -115.2201402, 36.2277251999 ], [ -115.2201402, 36.2277494999 ], [ -115.2201429, 36.2277494999 ], [ -115.2201429, 36.227754899899999 ], [ -115.2201456, 36.227754899899999 ], [ -115.2201456, 36.227762999900001 ], [ -115.2201483, 36.227762999900001 ], [ -115.2201483, 36.227771099900004 ], [ -115.220151, 36.227771099900004 ], [ -115.220151, 36.227781899900002 ], [ -115.2201537, 36.227781899900002 ], [ -115.2201537, 36.227787299900001 ], [ -115.2201564, 36.227787299900001 ], [ -115.2201564, 36.2277926999 ], [ -115.2201591, 36.2277926999 ], [ -115.2201591, 36.227795399900003 ], [ -115.2201618, 36.227795399900003 ], [ -115.2201618, 36.227800799900002 ], [ -115.2201645, 36.227800799900002 ], [ -115.2201645, 36.227803499899998 ], [ -115.2201672, 36.227803499899998 ], [ -115.2201672, 36.227808899899998 ], [ -115.2201699, 36.227808899899998 ], [ -115.2201699, 36.227811599900001 ], [ -115.2201726, 36.227811599900001 ], [ -115.2201726, 36.2278169999 ], [ -115.2201753, 36.2278169999 ], [ -115.2201753, 36.227819699900003 ], [ -115.220178, 36.227819699900003 ], [ -115.220178, 36.227822399899999 ], [ -115.2201807, 36.227822399899999 ], [ -115.2201807, 36.227825099900002 ], [ -115.2201834, 36.227825099900002 ], [ -115.2201834, 36.227827799899998 ], [ -115.2201861, 36.227827799899998 ], [ -115.2201861, 36.227830499900001 ], [ -115.2201888, 36.227830499900001 ], [ -115.2201888, 36.227833199899997 ], [ -115.2201915, 36.227833199899997 ], [ -115.2201915, 36.227835899900001 ], [ -115.2201942, 36.227835899900001 ], [ -115.2201942, 36.227838599900004 ], [ -115.2201969, 36.227838599900004 ], [ -115.2201969, 36.2278412999 ], [ -115.2201996, 36.2278412999 ], [ -115.2201996, 36.227843999900003 ], [ -115.2202023, 36.227843999900003 ], [ -115.2202023, 36.227846699899999 ], [ -115.220205, 36.227846699899999 ], [ -115.220205, 36.227849399900002 ], [ -115.2202077, 36.227849399900002 ], [ -115.2202077, 36.227852099899998 ], [ -115.2202104, 36.227852099899998 ], [ -115.2202104, 36.227854799900001 ], [ -115.2202131, 36.227854799900001 ], [ -115.2202131, 36.227857499899997 ], [ -115.2202158, 36.227857499899997 ], [ -115.2202158, 36.2278601999 ], [ -115.2202185, 36.2278601999 ], [ -115.2202185, 36.227862899900003 ], [ -115.2202212, 36.227862899900003 ], [ -115.2202212, 36.227865599899999 ], [ -115.2202239, 36.227865599899999 ], [ -115.2202239, 36.227868299900003 ], [ -115.2202266, 36.227868299900003 ], [ -115.2202266, 36.227870999899999 ], [ -115.2202293, 36.227870999899999 ], [ -115.2202293, 36.227873699900002 ], [ -115.220232, 36.227873699900002 ], [ -115.220232, 36.227876399899998 ], [ -115.2202347, 36.227876399899998 ], [ -115.2202347, 36.227879099900001 ], [ -115.2202374, 36.227879099900001 ], [ -115.2202374, 36.227881799899997 ], [ -115.2202401, 36.227881799899997 ], [ -115.2202401, 36.2278844999 ], [ -115.2202428, 36.2278844999 ], [ -115.2202428, 36.227887199900003 ], [ -115.2202455, 36.227887199900003 ], [ -115.2202455, 36.227897999900001 ], [ -115.2202428, 36.227897999900001 ], [ -115.2202428, 36.227900699899998 ], [ -115.2202374, 36.227900699899998 ], [ -115.2202374, 36.227903399900001 ], [ -115.2202293, 36.227903399900001 ], [ -115.2202293, 36.227906099900004 ], [ -115.2202104, 36.227906099900004 ], [ -115.2202104, 36.2279087999 ], [ -115.220205, 36.2279087999 ], [ -115.220205, 36.227911499900003 ], [ -115.2201996, 36.227911499900003 ], [ -115.2201996, 36.227914199899999 ], [ -115.2201861, 36.227914199899999 ], [ -115.2201861, 36.227911499900003 ], [ -115.2201753, 36.227911499900003 ], [ -115.2201753, 36.2279087999 ], [ -115.2201726, 36.2279087999 ], [ -115.2201726, 36.227911499900003 ], [ -115.2201645, 36.227911499900003 ], [ -115.2201645, 36.2279087999 ], [ -115.220151, 36.2279087999 ], [ -115.220151, 36.227906099900004 ], [ -115.2201402, 36.227906099900004 ], [ -115.2201402, 36.2279087999 ], [ -115.2201348, 36.2279087999 ], [ -115.2201348, 36.227906099900004 ], [ -115.2201321, 36.227906099900004 ], [ -115.2201321, 36.227903399900001 ], [ -115.2201348, 36.227903399900001 ], [ -115.2201348, 36.227897999900001 ], [ -115.2201321, 36.227897999900001 ], [ -115.2201321, 36.227895299899998 ], [ -115.2201294, 36.227895299899998 ], [ -115.2201294, 36.227892599900002 ], [ -115.2201267, 36.227892599900002 ], [ -115.2201267, 36.227889899899999 ], [ -115.220124, 36.227889899899999 ], [ -115.220124, 36.227887199900003 ], [ -115.2201186, 36.227887199900003 ], [ -115.2201186, 36.227889899899999 ], [ -115.2201159, 36.227889899899999 ], [ -115.2201159, 36.227892599900002 ], [ -115.2201186, 36.227892599900002 ], [ -115.2201186, 36.227897999900001 ], [ -115.2201213, 36.227897999900001 ], [ -115.2201213, 36.227906099900004 ], [ -115.220124, 36.227906099900004 ], [ -115.220124, 36.2279087999 ], [ -115.2201267, 36.2279087999 ], [ -115.2201267, 36.227914199899999 ], [ -115.2201321, 36.227914199899999 ], [ -115.2201321, 36.227922299900001 ], [ -115.2201294, 36.227922299900001 ], [ -115.2201294, 36.227930399900004 ], [ -115.2201267, 36.227930399900004 ], [ -115.2201267, 36.227938499899999 ], [ -115.220124, 36.227938499899999 ], [ -115.220124, 36.227941199900002 ], [ -115.2201186, 36.227941199900002 ], [ -115.2201186, 36.227943899899998 ], [ -115.2201159, 36.227943899899998 ], [ -115.2201159, 36.227946599900001 ], [ -115.2201105, 36.227946599900001 ], [ -115.2201105, 36.227949299899997 ], [ -115.2201078, 36.227949299899997 ], [ -115.2201078, 36.2279519999 ], [ -115.2201051, 36.2279519999 ], [ -115.2201051, 36.227954699900003 ], [ -115.2201024, 36.227954699900003 ], [ -115.2201024, 36.227957399899999 ], [ -115.220097, 36.227957399899999 ], [ -115.220097, 36.227960099900002 ], [ -115.2200916, 36.227960099900002 ], [ -115.2200916, 36.227962799899998 ], [ -115.2200862, 36.227962799899998 ], [ -115.2200862, 36.227965499900002 ], [ -115.2200808, 36.227965499900002 ], [ -115.2200808, 36.227968199899998 ], [ -115.2200754, 36.227968199899998 ], [ -115.2200754, 36.227970899900001 ], [ -115.22007, 36.227970899900001 ], [ -115.22007, 36.227973599900004 ], [ -115.2200646, 36.227973599900004 ], [ -115.2200646, 36.2279762999 ], [ -115.2200592, 36.2279762999 ], [ -115.2200592, 36.227978999900003 ], [ -115.2200565, 36.227978999900003 ], [ -115.2200565, 36.227981699899999 ], [ -115.2200511, 36.227981699899999 ], [ -115.2200511, 36.227984399900002 ], [ -115.2200484, 36.227984399900002 ], [ -115.2200484, 36.227987099899998 ], [ -115.220043, 36.227987099899998 ], [ -115.220043, 36.227989799900001 ], [ -115.2200403, 36.227989799900001 ], [ -115.2200403, 36.227992499899997 ], [ -115.2200349, 36.227992499899997 ], [ -115.2200349, 36.227995199900001 ], [ -115.2200322, 36.227995199900001 ], [ -115.2200322, 36.227997899900004 ] ], [ [ -115.2198729, 36.227573999900002 ], [ -115.2198729, 36.227571299899999 ], [ -115.2198702, 36.227571299899999 ], [ -115.2198702, 36.227573999900002 ], [ -115.2198729, 36.227573999900002 ] ], [ [ -115.2200106, 36.227568599900003 ], [ -115.2200106, 36.2275658999 ], [ -115.2200214, 36.2275658999 ], [ -115.2200214, 36.227563199899997 ], [ -115.2200268, 36.227563199899997 ], [ -115.2200268, 36.227560499900001 ], [ -115.2200295, 36.227560499900001 ], [ -115.2200295, 36.227557799899998 ], [ -115.2200322, 36.227557799899998 ], [ -115.2200322, 36.227555099900002 ], [ -115.2200349, 36.227555099900002 ], [ -115.2200349, 36.227552399899999 ], [ -115.2200403, 36.227552399899999 ], [ -115.2200403, 36.227549699900003 ], [ -115.2200457, 36.227549699900003 ], [ -115.2200457, 36.227546999899999 ], [ -115.2200484, 36.227546999899999 ], [ -115.2200484, 36.2275415999 ], [ -115.2200457, 36.2275415999 ], [ -115.2200457, 36.227530799900002 ], [ -115.2200484, 36.227530799900002 ], [ -115.2200484, 36.227525399900003 ], [ -115.2200511, 36.227525399900003 ], [ -115.2200511, 36.2275226999 ], [ -115.2200538, 36.2275226999 ], [ -115.2200538, 36.227519999899997 ], [ -115.2200565, 36.227519999899997 ], [ -115.2200565, 36.227511899900001 ], [ -115.2200592, 36.227511899900001 ], [ -115.2200592, 36.227509199899998 ], [ -115.2200619, 36.227509199899998 ], [ -115.2200619, 36.227506499900002 ], [ -115.2200646, 36.227506499900002 ], [ -115.2200646, 36.2274983999 ], [ -115.2200673, 36.2274983999 ], [ -115.2200673, 36.227484899899999 ], [ -115.2200646, 36.227484899899999 ], [ -115.2200646, 36.227482199900003 ], [ -115.2200592, 36.227482199900003 ], [ -115.2200592, 36.227468699900001 ], [ -115.2200538, 36.227468699900001 ], [ -115.2200538, 36.227471399899997 ], [ -115.2200457, 36.227471399899997 ], [ -115.2200457, 36.227468699900001 ], [ -115.2200268, 36.227468699900001 ], [ -115.2200268, 36.227465999899998 ], [ -115.2200214, 36.227465999899998 ], [ -115.2200214, 36.227468699900001 ], [ -115.220016, 36.227468699900001 ], [ -115.220016, 36.227471399899997 ], [ -115.2200106, 36.227471399899997 ], [ -115.2200106, 36.2274740999 ], [ -115.2200052, 36.2274740999 ], [ -115.2200052, 36.227476799899996 ], [ -115.2199701, 36.227476799899996 ], [ -115.2199701, 36.227479499899999 ], [ -115.2199674, 36.227479499899999 ], [ -115.2199674, 36.227482199900003 ], [ -115.2199647, 36.227482199900003 ], [ -115.2199647, 36.227484899899999 ], [ -115.2199593, 36.227484899899999 ], [ -115.2199593, 36.227487599900002 ], [ -115.2199566, 36.227487599900002 ], [ -115.2199566, 36.227490299899998 ], [ -115.2199539, 36.227490299899998 ], [ -115.2199539, 36.227514599899997 ], [ -115.2199566, 36.227514599899997 ], [ -115.2199566, 36.227528099899999 ], [ -115.2199593, 36.227528099899999 ], [ -115.2199593, 36.227530799900002 ], [ -115.2199647, 36.227530799900002 ], [ -115.2199647, 36.227533499899998 ], [ -115.2199674, 36.227533499899998 ], [ -115.2199674, 36.227538899899997 ], [ -115.2199701, 36.227538899899997 ], [ -115.2199701, 36.227546999899999 ], [ -115.2199728, 36.227546999899999 ], [ -115.2199728, 36.227549699900003 ], [ -115.2199755, 36.227549699900003 ], [ -115.2199755, 36.227555099900002 ], [ -115.2199782, 36.227555099900002 ], [ -115.2199782, 36.227557799899998 ], [ -115.2199809, 36.227557799899998 ], [ -115.2199809, 36.227560499900001 ], [ -115.2199836, 36.227560499900001 ], [ -115.2199836, 36.227563199899997 ], [ -115.219989, 36.227563199899997 ], [ -115.219989, 36.2275658999 ], [ -115.2199917, 36.2275658999 ], [ -115.2199917, 36.227568599900003 ], [ -115.2200106, 36.227568599900003 ] ] ] } },
{ "type": "Feature", "properties": { "value": 255.0 }, "geometry": { "type": "Polygon", "coordinates": [ [ [ -115.2197703, 36.226855799900001 ], [ -115.2197676, 36.226855799900001 ], [ -115.2197676, 36.226628999900001 ], [ -115.2197703, 36.226628999900001 ], [ -115.2197703, 36.226631699899997 ], [ -115.219773, 36.226631699899997 ], [ -115.219773, 36.226628999900001 ], [ -115.2197757, 36.226628999900001 ], [ -115.2197757, 36.226631699899997 ], [ -115.2197784, 36.226631699899997 ], [ -115.2197784, 36.226637099899996 ], [ -115.2197811, 36.226637099899996 ], [ -115.2197811, 36.226642499899995 ], [ -115.2197838, 36.226642499899995 ], [ -115.2197838, 36.226645199899998 ], [ -115.2197919, 36.226645199899998 ], [ -115.2197919, 36.226647899900001 ], [ -115.2198, 36.226647899900001 ], [ -115.2198, 36.226650599899997 ], [ -115.2198054, 36.226650599899997 ], [ -115.2198054, 36.226653299900001 ], [ -115.2198081, 36.226653299900001 ], [ -115.2198081, 36.226655999899997 ], [ -115.2198162, 36.226655999899997 ], [ -115.2198162, 36.2266586999 ], [ -115.2198216, 36.2266586999 ], [ -115.2198216, 36.226664099899999 ], [ -115.2198243, 36.226664099899999 ], [ -115.2198243, 36.226666799899995 ], [ -115.219827, 36.226666799899995 ], [ -115.219827, 36.226669499899998 ], [ -115.2198297, 36.226669499899998 ], [ -115.2198297, 36.226674899899997 ], [ -115.2198324, 36.226674899899997 ], [ -115.2198324, 36.226680299899996 ], [ -115.2198351, 36.226680299899996 ], [ -115.2198351, 36.2266829999 ], [ -115.2198378, 36.2266829999 ], [ -115.2198378, 36.226685699899996 ], [ -115.2198405, 36.226685699899996 ], [ -115.2198405, 36.226688399899999 ], [ -115.2198459, 36.226688399899999 ], [ -115.2198459, 36.226691099900002 ], [ -115.2198486, 36.226691099900002 ], [ -115.2198486, 36.226693799899998 ], [ -115.2198513, 36.226693799899998 ], [ -115.2198513, 36.226696499900001 ], [ -115.219854, 36.226696499900001 ], [ -115.219854, 36.226699199899997 ], [ -115.2198567, 36.226699199899997 ], [ -115.2198567, 36.2267018999 ], [ -115.2198594, 36.2267018999 ], [ -115.2198594, 36.226704599899996 ], [ -115.2198621, 36.226704599899996 ], [ -115.2198621, 36.226707299899999 ], [ -115.2198648, 36.226707299899999 ], [ -115.2198648, 36.226709999899995 ], [ -115.2198675, 36.226709999899995 ], [ -115.2198675, 36.226712699899998 ], [ -115.2198702, 36.226712699899998 ], [ -115.2198702, 36.226715399900002 ], [ -115.2198729, 36.226715399900002 ], [ -115.2198729, 36.226720799900001 ], [ -115.2198756, 36.226720799900001 ], [ -115.2198756, 36.226723499899997 ], [ -115.2198783, 36.226723499899997 ], [ -115.2198783, 36.2267261999 ], [ -115.219881, 36.2267261999 ], [ -115.219881, 36.226731599899999 ], [ -115.2198837, 36.226731599899999 ], [ -115.2198837, 36.226734299899995 ], [ -115.2198864, 36.226734299899995 ], [ -115.2198864, 36.226736999899998 ], [ -115.2198891, 36.226736999899998 ], [ -115.2198891, 36.226742399899997 ], [ -115.2198918, 36.226742399899997 ], [ -115.2198918, 36.2267450999 ], [ -115.2198945, 36.2267450999 ], [ -115.2198945, 36.226747799899996 ], [ -115.2198972, 36.226747799899996 ], [ -115.2198972, 36.2267504999 ], [ -115.2198999, 36.2267504999 ], [ -115.2198999, 36.226753199899996 ], [ -115.2199026, 36.226753199899996 ], [ -115.2199026, 36.226755899899999 ], [ -115.2199053, 36.226755899899999 ], [ -115.2199053, 36.226761299899998 ], [ -115.219908, 36.226761299899998 ], [ -115.219908, 36.2267693999 ], [ -115.2199053, 36.2267693999 ], [ -115.2199053, 36.226772099899996 ], [ -115.2198999, 36.226772099899996 ], [ -115.2198999, 36.226774799899999 ], [ -115.2198972, 36.226774799899999 ], [ -115.2198972, 36.226777499899995 ], [ -115.2198945, 36.226777499899995 ], [ -115.2198945, 36.226780199899999 ], [ -115.2198918, 36.226780199899999 ], [ -115.2198918, 36.226782899900002 ], [ -115.2198864, 36.226782899900002 ], [ -115.2198864, 36.226785599899998 ], [ -115.2198837, 36.226785599899998 ], [ -115.2198837, 36.226788299900001 ], [ -115.219881, 36.226788299900001 ], [ -115.219881, 36.226790999899997 ], [ -115.2198756, 36.226790999899997 ], [ -115.2198756, 36.2267936999 ], [ -115.2198729, 36.2267936999 ], [ -115.2198729, 36.226796399899996 ], [ -115.2198675, 36.226796399899996 ], [ -115.2198675, 36.226799099899999 ], [ -115.2198648, 36.226799099899999 ], [ -115.2198648, 36.226801799899995 ], [ -115.2198594, 36.226801799899995 ], [ -115.2198594, 36.226804499899998 ], [ -115.219854, 36.226804499899998 ], [ -115.219854, 36.226807199900001 ], [ -115.2198513, 36.226807199900001 ], [ -115.2198513, 36.226809899899997 ], [ -115.2198459, 36.226809899899997 ], [ -115.2198459, 36.226812599900001 ], [ -115.2198432, 36.226812599900001 ], [ -115.2198432, 36.226815299899997 ], [ -115.2198378, 36.226815299899997 ], [ -115.2198378, 36.2268179999 ], [ -115.2198324, 36.2268179999 ], [ -115.2198324, 36.226820699899996 ], [ -115.2198297, 36.226820699899996 ], [ -115.2198297, 36.226823399899999 ], [ -115.2198243, 36.226823399899999 ], [ -115.2198243, 36.226826099900002 ], [ -115.2198216, 36.226826099900002 ], [ -115.2198216, 36.226828799899998 ], [ -115.2198162, 36.226828799899998 ], [ -115.2198162, 36.226831499900001 ], [ -115.2198108, 36.226831499900001 ], [ -115.2198108, 36.226834199899997 ], [ -115.2198054, 36.226834199899997 ], [ -115.2198054, 36.2268368999 ], [ -115.2198, 36.2268368999 ], [ -115.2198, 36.226839599899996 ], [ -115.2197973, 36.226839599899996 ], [ -115.2197973, 36.226842299899999 ], [ -115.2197919, 36.226842299899999 ], [ -115.2197919, 36.226844999899996 ], [ -115.2197865, 36.226844999899996 ], [ -115.2197865, 36.226847699899999 ], [ -115.2197811, 36.226847699899999 ], [ -115.2197811, 36.226850399900002 ], [ -115.2197784, 36.226850399900002 ], [ -115.2197784, 36.226853099899998 ], [ -115.2197703, 36.226853099899998 ], [ -115.2197703, 36.226855799900001 ] ] ] } },
{ "type": "Feature", "properties": { "value": 255.0 }, "geometry": { "type": "Polygon", "coordinates": [ [ [ -115.2215226, 36.2268368999 ], [ -115.2215172, 36.2268368999 ], [ -115.2215172, 36.226834199899997 ], [ -115.2215145, 36.226834199899997 ], [ -115.2215145, 36.226831499900001 ], [ -115.2215118, 36.226831499900001 ], [ -115.2215118, 36.226828799899998 ], [ -115.2215091, 36.226828799899998 ], [ -115.2215091, 36.226826099900002 ], [ -115.2215064, 36.226826099900002 ], [ -115.2215064, 36.226823399899999 ], [ -115.2215037, 36.226823399899999 ], [ -115.2215037, 36.226820699899996 ], [ -115.221501, 36.226820699899996 ], [ -115.221501, 36.2268179999 ], [ -115.2214983, 36.2268179999 ], [ -115.2214983, 36.226815299899997 ], [ -115.2214956, 36.226815299899997 ], [ -115.2214956, 36.226812599900001 ], [ -115.2214929, 36.226812599900001 ], [ -115.2214929, 36.226809899899997 ], [ -115.2214902, 36.226809899899997 ], [ -115.2214902, 36.226807199900001 ], [ -115.2214875, 36.226807199900001 ], [ -115.2214875, 36.226804499899998 ], [ -115.2214848, 36.226804499899998 ], [ -115.2214848, 36.226801799899995 ], [ -115.2214821, 36.226801799899995 ], [ -115.2214821, 36.226799099899999 ], [ -115.2214794, 36.226799099899999 ], [ -115.2214794, 36.226796399899996 ], [ -115.2214767, 36.226796399899996 ], [ -115.2214767, 36.2267936999 ], [ -115.221474, 36.2267936999 ], [ -115.221474, 36.226790999899997 ], [ -115.2214713, 36.226790999899997 ], [ -115.2214713, 36.226788299900001 ], [ -115.2214686, 36.226788299900001 ], [ -115.2214686, 36.226785599899998 ], [ -115.2214659, 36.226785599899998 ], [ -115.2214659, 36.226782899900002 ], [ -115.2214632, 36.226782899900002 ], [ -115.2214632, 36.226780199899999 ], [ -115.2214605, 36.226780199899999 ], [ -115.2214605, 36.226777499899995 ], [ -115.2214578, 36.226777499899995 ], [ -115.2214578, 36.226772099899996 ], [ -115.2214551, 36.226772099899996 ], [ -115.2214551, 36.2267693999 ], [ -115.2214524, 36.2267693999 ], [ -115.2214524, 36.226766699899997 ], [ -115.2214497, 36.226766699899997 ], [ -115.2214497, 36.226763999900001 ], [ -115.221447, 36.226763999900001 ], [ -115.221447, 36.226761299899998 ], [ -115.2214443, 36.226761299899998 ], [ -115.2214443, 36.226758599900002 ], [ -115.2214416, 36.226758599900002 ], [ -115.2214416, 36.226755899899999 ], [ -115.2214389, 36.226755899899999 ], [ -115.2214389, 36.226753199899996 ], [ -115.2214362, 36.226753199899996 ], [ -115.2214362, 36.2267504999 ], [ -115.2214335, 36.2267504999 ], [ -115.2214335, 36.226747799899996 ], [ -115.2214308, 36.226747799899996 ], [ -115.2214308, 36.226742399899997 ], [ -115.2214281, 36.226742399899997 ], [ -115.2214281, 36.226739699900001 ], [ -115.2214254, 36.226739699900001 ], [ -115.2214254, 36.226736999899998 ], [ -115.2214227, 36.226736999899998 ], [ -115.2214227, 36.226734299899995 ], [ -115.22142, 36.226734299899995 ], [ -115.22142, 36.226731599899999 ], [ -115.2214173, 36.226731599899999 ], [ -115.2214173, 36.226728899899996 ], [ -115.2214146, 36.226728899899996 ], [ -115.2214146, 36.2267261999 ], [ -115.2214119, 36.2267261999 ], [ -115.2214119, 36.226723499899997 ], [ -115.2214092, 36.226723499899997 ], [ -115.2214092, 36.226718099899998 ], [ -115.2214065, 36.226718099899998 ], [ -115.2214065, 36.226715399900002 ], [ -115.2214038, 36.226715399900002 ], [ -115.2214038, 36.226712699899998 ], [ -115.2214011, 36.226712699899998 ], [ -115.2214011, 36.226709999899995 ], [ -115.2213984, 36.226709999899995 ], [ -115.2213984, 36.226707299899999 ], [ -115.2213957, 36.226707299899999 ], [ -115.2213957, 36.226704599899996 ], [ -115.221393, 36.226704599899996 ], [ -115.221393, 36.2267018999 ], [ -115.2213903, 36.2267018999 ], [ -115.2213903, 36.226699199899997 ], [ -115.2213876, 36.226699199899997 ], [ -115.2213876, 36.226696499900001 ], [ -115.2213849, 36.226696499900001 ], [ -115.2213849, 36.226693799899998 ], [ -115.2213822, 36.226693799899998 ], [ -115.2213822, 36.226691099900002 ], [ -115.2213795, 36.226691099900002 ], [ -115.2213795, 36.226685699899996 ], [ -115.2213768, 36.226685699899996 ], [ -115.2213768, 36.2266829999 ], [ -115.2213741, 36.2266829999 ], [ -115.2213741, 36.226680299899996 ], [ -115.2213714, 36.226680299899996 ], [ -115.2213714, 36.2266775999 ], [ -115.2213687, 36.2266775999 ], [ -115.2213687, 36.226674899899997 ], [ -115.221366, 36.226674899899997 ], [ -115.221366, 36.226672199900001 ], [ -115.2213633, 36.226672199900001 ], [ -115.2213633, 36.226669499899998 ], [ -115.2213606, 36.226669499899998 ], [ -115.2213606, 36.226666799899995 ], [ -115.2213579, 36.226666799899995 ], [ -115.2213579, 36.226661399899996 ], [ -115.2213552, 36.226661399899996 ], [ -115.2213552, 36.2266586999 ], [ -115.2213525, 36.2266586999 ], [ -115.2213525, 36.226655999899997 ], [ -115.2213498, 36.226655999899997 ], [ -115.2213498, 36.226653299900001 ], [ -115.2213471, 36.226653299900001 ], [ -115.2213471, 36.226650599899997 ], [ -115.2213444, 36.226650599899997 ], [ -115.2213444, 36.226647899900001 ], [ -115.2213417, 36.226647899900001 ], [ -115.2213417, 36.226645199899998 ], [ -115.2213363, 36.226645199899998 ], [ -115.2213363, 36.226637099899996 ], [ -115.221339, 36.226637099899996 ], [ -115.221339, 36.2266343999 ], [ -115.2213444, 36.2266343999 ], [ -115.2213444, 36.226631699899997 ], [ -115.2213471, 36.226631699899997 ], [ -115.2213471, 36.226628999900001 ], [ -115.2213525, 36.226628999900001 ], [ -115.2213525, 36.226626299899998 ], [ -115.2213552, 36.226626299899998 ], [ -115.2213552, 36.226623599900002 ], [ -115.2213579, 36.226623599900002 ], [ -115.2213579, 36.226620899899999 ], [ -115.2213633, 36.226620899899999 ], [ -115.2213633, 36.226618199899995 ], [ -115.221366, 36.226618199899995 ], [ -115.221366, 36.226615499899999 ], [ -115.2213687, 36.226615499899999 ], [ -115.2213687, 36.226612799899996 ], [ -115.2213741, 36.226612799899996 ], [ -115.2213741, 36.2266100999 ], [ -115.2213795, 36.2266100999 ], [ -115.2213795, 36.226607399899997 ], [ -115.2213876, 36.226607399899997 ], [ -115.2213876, 36.226604699900001 ], [ -115.2214011, 36.226604699900001 ], [ -115.2214011, 36.226607399899997 ], [ -115.2214038, 36.226607399899997 ], [ -115.2214038, 36.2266100999 ], [ -115.2214065, 36.2266100999 ], [ -115.2214065, 36.226615499899999 ], [ -115.2214092, 36.226615499899999 ], [ -115.2214092, 36.226620899899999 ], [ -115.2214119, 36.226620899899999 ], [ -115.2214119, 36.226623599900002 ], [ -115.2214146, 36.226623599900002 ], [ -115.2214146, 36.226628999900001 ], [ -115.2214173, 36.226628999900001 ], [ -115.2214173, 36.226639799899999 ], [ -115.22142, 36.226639799899999 ], [ -115.22142, 36.226645199899998 ], [ -115.2214227, 36.226645199899998 ], [ -115.2214227, 36.226647899900001 ], [ -115.2214281, 36.226647899900001 ], [ -115.2214281, 36.226653299900001 ], [ -115.2214308, 36.226653299900001 ], [ -115.2214308, 36.226655999899997 ], [ -115.2214335, 36.226655999899997 ], [ -115.2214335, 36.226661399899996 ], [ -115.2214362, 36.226661399899996 ], [ -115.2214362, 36.226664099899999 ], [ -115.2214389, 36.226664099899999 ], [ -115.2214389, 36.226666799899995 ], [ -115.2214416, 36.226666799899995 ], [ -115.2214416, 36.226669499899998 ], [ -115.2214443, 36.226669499899998 ], [ -115.2214443, 36.226674899899997 ], [ -115.221447, 36.226674899899997 ], [ -115.221447, 36.2266775999 ], [ -115.2214497, 36.2266775999 ], [ -115.2214497, 36.226680299899996 ], [ -115.2214524, 36.226680299899996 ], [ -115.2214524, 36.226685699899996 ], [ -115.2214551, 36.226685699899996 ], [ -115.2214551, 36.226688399899999 ], [ -115.2214578, 36.226688399899999 ], [ -115.2214578, 36.226691099900002 ], [ -115.2214632, 36.226691099900002 ], [ -115.2214632, 36.226693799899998 ], [ -115.2214659, 36.226693799899998 ], [ -115.2214659, 36.226696499900001 ], [ -115.2214686, 36.226696499900001 ], [ -115.2214686, 36.226699199899997 ], [ -115.2214713, 36.226699199899997 ], [ -115.2214713, 36.2267018999 ], [ -115.221474, 36.2267018999 ], [ -115.221474, 36.226704599899996 ], [ -115.2214767, 36.226704599899996 ], [ -115.2214767, 36.226707299899999 ], [ -115.2214821, 36.226707299899999 ], [ -115.2214821, 36.226709999899995 ], [ -115.2214848, 36.226709999899995 ], [ -115.2214848, 36.226712699899998 ], [ -115.2214875, 36.226712699899998 ], [ -115.2214875, 36.226715399900002 ], [ -115.2214902, 36.226715399900002 ], [ -115.2214902, 36.226720799900001 ], [ -115.2214929, 36.226720799900001 ], [ -115.2214929, 36.226723499899997 ], [ -115.2214956, 36.226723499899997 ], [ -115.2214956, 36.2267261999 ], [ -115.2214983, 36.2267261999 ], [ -115.2214983, 36.226731599899999 ], [ -115.221501, 36.226731599899999 ], [ -115.221501, 36.226734299899995 ], [ -115.2215037, 36.226734299899995 ], [ -115.2215037, 36.226736999899998 ], [ -115.2215064, 36.226736999899998 ], [ -115.2215064, 36.226742399899997 ], [ -115.2215091, 36.226742399899997 ], [ -115.2215091, 36.226747799899996 ], [ -115.2215118, 36.226747799899996 ], [ -115.2215118, 36.2267504999 ], [ -115.2215145, 36.2267504999 ], [ -115.2215145, 36.226753199899996 ], [ -115.2215172, 36.226753199899996 ], [ -115.2215172, 36.226758599900002 ], [ -115.2215199, 36.226758599900002 ], [ -115.2215199, 36.226761299899998 ], [ -115.2215226, 36.226761299899998 ], [ -115.2215226, 36.2268368999 ] ] ] } },
{ "type": "Feature", "properties": { "value": 255.0 }, "geometry": { "type": "Polygon", "coordinates": [ [ [ -115.2215226, 36.226680299899996 ], [ -115.2215199, 36.226680299899996 ], [ -115.2215199, 36.2266775999 ], [ -115.2215118, 36.2266775999 ], [ -115.2215118, 36.226674899899997 ], [ -115.2215037, 36.226674899899997 ], [ -115.2215037, 36.226672199900001 ], [ -115.221501, 36.226672199900001 ], [ -115.221501, 36.226669499899998 ], [ -115.2214983, 36.226669499899998 ], [ -115.2214983, 36.226666799899995 ], [ -115.2214956, 36.226666799899995 ], [ -115.2214956, 36.226664099899999 ], [ -115.2214902, 36.226664099899999 ], [ -115.2214902, 36.226661399899996 ], [ -115.2214875, 36.226661399899996 ], [ -115.2214875, 36.2266586999 ], [ -115.2214848, 36.2266586999 ], [ -115.2214848, 36.226653299900001 ], [ -115.2214821, 36.226653299900001 ], [ -115.2214821, 36.226647899900001 ], [ -115.2214794, 36.226647899900001 ], [ -115.2214794, 36.226645199899998 ], [ -115.2214767, 36.226645199899998 ], [ -115.2214767, 36.226639799899999 ], [ -115.221474, 36.226639799899999 ], [ -115.221474, 36.226628999900001 ], [ -115.2214767, 36.226628999900001 ], [ -115.2214767, 36.2266100999 ], [ -115.2214794, 36.2266100999 ], [ -115.2214794, 36.226599299899995 ], [ -115.2214821, 36.226599299899995 ], [ -115.2214821, 36.226596599899999 ], [ -115.2214794, 36.226596599899999 ], [ -115.2214794, 36.2265911999 ], [ -115.2214767, 36.2265911999 ], [ -115.2214767, 36.226588499899997 ], [ -115.221474, 36.226588499899997 ], [ -115.221474, 36.2265857999 ], [ -115.2214794, 36.2265857999 ], [ -115.2214794, 36.226583099899997 ], [ -115.2214848, 36.226583099899997 ], [ -115.2214848, 36.226580399900001 ], [ -115.2214956, 36.226580399900001 ], [ -115.2214956, 36.226577699899998 ], [ -115.2215226, 36.226577699899998 ], [ -115.2215226, 36.226680299899996 ] ] ] } },
{ "type": "Feature", "properties": { "value": 255.0 }, "geometry": { "type": "Polygon", "coordinates": [ [ [ -115.2201105, 36.2266829999 ], [ -115.2200889, 36.2266829999 ], [ -115.2200889, 36.226680299899996 ], [ -115.2200862, 36.226680299899996 ], [ -115.2200862, 36.2266775999 ], [ -115.2200835, 36.2266775999 ], [ -115.2200835, 36.226674899899997 ], [ -115.2200808, 36.226674899899997 ], [ -115.2200808, 36.226672199900001 ], [ -115.2200781, 36.226672199900001 ], [ -115.2200781, 36.226669499899998 ], [ -115.2200754, 36.226669499899998 ], [ -115.2200754, 36.226664099899999 ], [ -115.2200673, 36.226664099899999 ], [ -115.2200673, 36.2266586999 ], [ -115.2200646, 36.2266586999 ], [ -115.2200646, 36.226653299900001 ], [ -115.2200619, 36.226653299900001 ], [ -115.2200619, 36.226650599899997 ], [ -115.2200592, 36.226650599899997 ], [ -115.2200592, 36.226647899900001 ], [ -115.2200565, 36.226647899900001 ], [ -115.2200565, 36.226645199899998 ], [ -115.2200511, 36.226645199899998 ], [ -115.2200511, 36.226642499899995 ], [ -115.2200484, 36.226642499899995 ], [ -115.2200484, 36.226637099899996 ], [ -115.2200457, 36.226637099899996 ], [ -115.2200457, 36.2266343999 ], [ -115.220043, 36.2266343999 ], [ -115.220043, 36.226631699899997 ], [ -115.2200403, 36.226631699899997 ], [ -115.2200403, 36.226628999900001 ], [ -115.2200376, 36.226628999900001 ], [ -115.2200376, 36.226626299899998 ], [ -115.2200349, 36.226626299899998 ], [ -115.2200349, 36.226620899899999 ], [ -115.2200322, 36.226620899899999 ], [ -115.2200322, 36.226618199899995 ], [ -115.2200295, 36.226618199899995 ], [ -115.2200295, 36.226612799899996 ], [ -115.2200268, 36.226612799899996 ], [ -115.2200268, 36.2266100999 ], [ -115.2200241, 36.2266100999 ], [ -115.2200241, 36.226604699900001 ], [ -115.2200214, 36.226604699900001 ], [ -115.2200214, 36.226601999899998 ], [ -115.2200187, 36.226601999899998 ], [ -115.2200187, 36.226599299899995 ], [ -115.220016, 36.226599299899995 ], [ -115.220016, 36.226596599899999 ], [ -115.2200133, 36.226596599899999 ], [ -115.2200133, 36.226593899899996 ], [ -115.2200106, 36.226593899899996 ], [ -115.2200106, 36.2265911999 ], [ -115.2200079, 36.2265911999 ], [ -115.2200079, 36.226588499899997 ], [ -115.2200052, 36.226588499899997 ], [ -115.2200052, 36.2265857999 ], [ -115.2200025, 36.2265857999 ], [ -115.2200025, 36.226583099899997 ], [ -115.2199998, 36.226583099899997 ], [ -115.2199998, 36.226577699899998 ], [ -115.2201753, 36.226577699899998 ], [ -115.2201753, 36.226580399900001 ], [ -115.220178, 36.226580399900001 ], [ -115.220178, 36.226588499899997 ], [ -115.2201753, 36.226588499899997 ], [ -115.2201753, 36.226593899899996 ], [ -115.220178, 36.226593899899996 ], [ -115.220178, 36.226601999899998 ], [ -115.2201807, 36.226601999899998 ], [ -115.2201807, 36.226604699900001 ], [ -115.2201834, 36.226604699900001 ], [ -115.2201834, 36.2266100999 ], [ -115.2201861, 36.2266100999 ], [ -115.2201861, 36.226612799899996 ], [ -115.2201888, 36.226612799899996 ], [ -115.2201888, 36.226618199899995 ], [ -115.2201915, 36.226618199899995 ], [ -115.2201915, 36.2266343999 ], [ -115.2201888, 36.2266343999 ], [ -115.2201888, 36.226637099899996 ], [ -115.2201861, 36.226637099899996 ], [ -115.2201861, 36.226639799899999 ], [ -115.2201834, 36.226639799899999 ], [ -115.2201834, 36.226642499899995 ], [ -115.2201807, 36.226642499899995 ], [ -115.2201807, 36.226645199899998 ], [ -115.2201753, 36.226645199899998 ], [ -115.2201753, 36.226647899900001 ], [ -115.2201699, 36.226647899900001 ], [ -115.2201699, 36.226650599899997 ], [ -115.2201645, 36.226650599899997 ], [ -115.2201645, 36.226653299900001 ], [ -115.2201591, 36.226653299900001 ], [ -115.2201591, 36.226655999899997 ], [ -115.2201537, 36.226655999899997 ], [ -115.2201537, 36.2266586999 ], [ -115.2201483, 36.2266586999 ], [ -115.2201483, 36.226661399899996 ], [ -115.2201429, 36.226661399899996 ], [ -115.2201429, 36.226664099899999 ], [ -115.2201402, 36.226664099899999 ], [ -115.2201402, 36.226666799899995 ], [ -115.2201348, 36.226666799899995 ], [ -115.2201348, 36.226669499899998 ], [ -115.2201321, 36.226669499899998 ], [ -115.2201321, 36.226672199900001 ], [ -115.2201267, 36.226672199900001 ], [ -115.2201267, 36.226674899899997 ], [ -115.2201213, 36.226674899899997 ], [ -115.2201213, 36.2266775999 ], [ -115.2201186, 36.2266775999 ], [ -115.2201186, 36.226680299899996 ], [ -115.2201105, 36.226680299899996 ], [ -115.2201105, 36.2266829999 ] ] ] } }
]
}
