{
"type": "FeatureCollection",
"crs": { "type": "name", "properties": { "name": "urn:ogc:def:crs:OGC:1.3:CRS84" } },
"features": [
{ "type": "Feature", "properties": { "value": 255.0 }, "geometry": { "type": "Polygon", "coordinates": [ [ [ -115.2794565, 36.220734899899995 ], [ -115.2794484, 36.220734899899995 ], [ -115.2794484, 36.220732199899999 ], [ -115.2794457, 36.220732199899999 ], [ -115.2794457, 36.220729499899996 ], [ -115.279443, 36.220729499899996 ], [ -115.279443, 36.220732199899999 ], [ -115.2794376, 36.220732199899999 ], [ -115.2794376, 36.220656599899996 ], [ -115.279451099999989, 36.220656599899996 ], [ -115.279451099999989, 36.220659299899999 ], [ -115.2794538, 36.220659299899999 ], [ -115.2794538, 36.220661999899995 ], [ -115.2794592, 36.220661999899995 ], [ -115.2794592, 36.220675499899997 ], [ -115.2794619, 36.220675499899997 ], [ -115.2794619, 36.220683599899999 ], [ -115.2794646, 36.220683599899999 ], [ -115.2794646, 36.2207267999 ], [ -115.2794619, 36.2207267999 ], [ -115.2794619, 36.220729499899996 ], [ -115.2794592, 36.220729499899996 ], [ -115.2794592, 36.220732199899999 ], [ -115.2794565, 36.220732199899999 ], [ -115.2794565, 36.220734899899995 ] ] ] } },
{ "type": "Feature", "properties": { "value": 255.0 }, "geometry": { "type": "Polygon", "coordinates": [ [ [ -115.2809118, 36.220459499900002 ], [ -115.2809064, 36.220459499900002 ], [ -115.2809064, 36.220456799899999 ], [ -115.2809037, 36.220456799899999 ], [ -115.2809037, 36.220454099899996 ], [ -115.280901, 36.220454099899996 ], [ -115.280901, 36.220445999900001 ], [ -115.2809091, 36.220445999900001 ], [ -115.2809091, 36.220443299899998 ], [ -115.2809172, 36.220443299899998 ], [ -115.2809172, 36.220440599900002 ], [ -115.2809199, 36.220440599900002 ], [ -115.2809199, 36.220443299899998 ], [ -115.2809226, 36.220443299899998 ], [ -115.2809226, 36.220440599900002 ], [ -115.2809307, 36.220440599900002 ], [ -115.2809307, 36.220443299899998 ], [ -115.2809361, 36.220443299899998 ], [ -115.2809361, 36.2204513999 ], [ -115.280928, 36.2204513999 ], [ -115.280928, 36.220454099899996 ], [ -115.2809253, 36.220454099899996 ], [ -115.2809253, 36.220456799899999 ], [ -115.2809118, 36.220456799899999 ], [ -115.2809118, 36.220459499900002 ] ] ] } },
{ "type": "Feature", "properties": { "value": 255.0 }, "geometry": { "type": "Polygon", "coordinates": [ [ [ -115.2795591, 36.220643099900002 ], [ -115.2795402, 36.220643099900002 ], [ -115.2795402, 36.220640399899999 ], [ -115.279518599999989, 36.220640399899999 ], [ -115.279518599999989, 36.220643099900002 ], [ -115.2795159, 36.220643099900002 ], [ -115.2795159, 36.220640399899999 ], [ -115.2795078, 36.220640399899999 ], [ -115.2795078, 36.220637699899996 ], [ -115.2795051, 36.220637699899996 ], [ -115.2795051, 36.220632299899997 ], [ -115.2795024, 36.220632299899997 ], [ -115.2795024, 36.220624199900001 ], [ -115.2795051, 36.220624199900001 ], [ -115.2795051, 36.220621499899998 ], [ -115.2795024, 36.220621499899998 ], [ -115.2795024, 36.220618799899995 ], [ -115.279499699999988, 36.220618799899995 ], [ -115.279499699999988, 36.220616099899999 ], [ -115.2794403, 36.220616099899999 ], [ -115.2794403, 36.220618799899995 ], [ -115.2794376, 36.220618799899995 ], [ -115.2794376, 36.220432499899999 ], [ -115.2794403, 36.220432499899999 ], [ -115.2794403, 36.220435199899995 ], [ -115.279443, 36.220435199899995 ], [ -115.279443, 36.220432499899999 ], [ -115.279451099999989, 36.220432499899999 ], [ -115.279451099999989, 36.220429799899996 ], [ -115.2794673, 36.220429799899996 ], [ -115.2794673, 36.2204270999 ], [ -115.279480799999988, 36.2204270999 ], [ -115.279480799999988, 36.220429799899996 ], [ -115.2795051, 36.220429799899996 ], [ -115.2795051, 36.2204270999 ], [ -115.2795105, 36.2204270999 ], [ -115.2795105, 36.220429799899996 ], [ -115.2795456, 36.220429799899996 ], [ -115.2795456, 36.220432499899999 ], [ -115.2796428, 36.220432499899999 ], [ -115.2796428, 36.220429799899996 ], [ -115.2796698, 36.220429799899996 ], [ -115.2796698, 36.2204270999 ], [ -115.2796968, 36.2204270999 ], [ -115.2796968, 36.220429799899996 ], [ -115.2797049, 36.220429799899996 ], [ -115.2797049, 36.220432499899999 ], [ -115.2797076, 36.220432499899999 ], [ -115.2797076, 36.220435199899995 ], [ -115.2797103, 36.220435199899995 ], [ -115.2797103, 36.220437899899999 ], [ -115.279713, 36.220437899899999 ], [ -115.279713, 36.220440599900002 ], [ -115.2797157, 36.220440599900002 ], [ -115.2797157, 36.220445999900001 ], [ -115.279721099999989, 36.220445999900001 ], [ -115.279721099999989, 36.220448699899997 ], [ -115.2797373, 36.220448699899997 ], [ -115.2797373, 36.2204513999 ], [ -115.2797454, 36.2204513999 ], [ -115.2797454, 36.220454099899996 ], [ -115.2797481, 36.220454099899996 ], [ -115.2797481, 36.220456799899999 ], [ -115.279750799999988, 36.220456799899999 ], [ -115.279750799999988, 36.220470299900001 ], [ -115.2797535, 36.220470299900001 ], [ -115.2797535, 36.220489199900001 ], [ -115.279750799999988, 36.220489199900001 ], [ -115.279750799999988, 36.220491899899997 ], [ -115.2797535, 36.220491899899997 ], [ -115.2797535, 36.220564799899996 ], [ -115.2797562, 36.220564799899996 ], [ -115.2797562, 36.220607999899997 ], [ -115.2797535, 36.220607999899997 ], [ -115.2797535, 36.220613399899996 ], [ -115.279750799999988, 36.220613399899996 ], [ -115.279750799999988, 36.220616099899999 ], [ -115.2797481, 36.220616099899999 ], [ -115.2797481, 36.220613399899996 ], [ -115.2797373, 36.220613399899996 ], [ -115.2797373, 36.220616099899999 ], [ -115.279634699999988, 36.220616099899999 ], [ -115.279634699999988, 36.220618799899995 ], [ -115.2796239, 36.220618799899995 ], [ -115.2796239, 36.220629599900001 ], [ -115.2796212, 36.220629599900001 ], [ -115.2796212, 36.220640399899999 ], [ -115.2795591, 36.220640399899999 ], [ -115.2795591, 36.220643099900002 ] ] ] } },
{ "type": "Feature", "properties": { "value": 255.0 }, "geometry": { "type": "Polygon", "coordinates": [ [ [ -115.2811926, 36.220513499900001 ], [ -115.2811764, 36.220513499900001 ], [ -115.2811764, 36.220510799899998 ], [ -115.2811386, 36.220510799899998 ], [ -115.2811386, 36.220502699899995 ], [ -115.2811359, 36.220502699899995 ], [ -115.2811359, 36.220478399899996 ], [ -115.2811305, 36.220478399899996 ], [ -115.2811305, 36.2204756999 ], [ -115.2811251, 36.2204756999 ], [ -115.2811251, 36.220472999899997 ], [ -115.2811224, 36.220472999899997 ], [ -115.2811224, 36.220470299900001 ], [ -115.2811143, 36.220470299900001 ], [ -115.2811143, 36.220472999899997 ], [ -115.2811116, 36.220472999899997 ], [ -115.2811116, 36.220470299900001 ], [ -115.2811089, 36.220470299900001 ], [ -115.2811089, 36.220462199899998 ], [ -115.2811062, 36.220462199899998 ], [ -115.2811062, 36.220454099899996 ], [ -115.2811035, 36.220454099899996 ], [ -115.2811035, 36.220459499900002 ], [ -115.2811008, 36.220459499900002 ], [ -115.2811008, 36.220454099899996 ], [ -115.2810981, 36.220454099899996 ], [ -115.2810981, 36.220445999900001 ], [ -115.2810954, 36.220445999900001 ], [ -115.2810954, 36.220443299899998 ], [ -115.2810927, 36.220443299899998 ], [ -115.2810927, 36.220437899899999 ], [ -115.28109, 36.220437899899999 ], [ -115.28109, 36.220429799899996 ], [ -115.2810873, 36.220429799899996 ], [ -115.2810873, 36.2204270999 ], [ -115.2810846, 36.2204270999 ], [ -115.2810846, 36.220424399899997 ], [ -115.2810819, 36.220424399899997 ], [ -115.2810819, 36.220421699900001 ], [ -115.2810846, 36.220421699900001 ], [ -115.2810846, 36.220418999899998 ], [ -115.2810873, 36.220418999899998 ], [ -115.2810873, 36.220421699900001 ], [ -115.28109, 36.220421699900001 ], [ -115.28109, 36.2204081999 ], [ -115.2810765, 36.2204081999 ], [ -115.2810765, 36.2204027999 ], [ -115.2810738, 36.2204027999 ], [ -115.2810738, 36.220397399900001 ], [ -115.2810792, 36.220397399900001 ], [ -115.2810792, 36.220394699899998 ], [ -115.2810819, 36.220394699899998 ], [ -115.2810819, 36.220381199899997 ], [ -115.2810846, 36.220381199899997 ], [ -115.2810846, 36.220378499900001 ], [ -115.2810873, 36.220378499900001 ], [ -115.2810873, 36.220375799899998 ], [ -115.2810981, 36.220375799899998 ], [ -115.2810981, 36.220378499900001 ], [ -115.2811008, 36.220378499900001 ], [ -115.2811008, 36.220381199899997 ], [ -115.2811116, 36.220381199899997 ], [ -115.2811116, 36.220378499900001 ], [ -115.2811143, 36.220378499900001 ], [ -115.2811143, 36.220381199899997 ], [ -115.281117, 36.220381199899997 ], [ -115.281117, 36.220386599899996 ], [ -115.2811143, 36.220386599899996 ], [ -115.2811143, 36.220394699899998 ], [ -115.2811197, 36.220394699899998 ], [ -115.2811197, 36.220391999900002 ], [ -115.2811251, 36.220391999900002 ], [ -115.2811251, 36.220400099899997 ], [ -115.2811143, 36.220400099899997 ], [ -115.2811143, 36.220397399900001 ], [ -115.2811089, 36.220397399900001 ], [ -115.2811089, 36.220400099899997 ], [ -115.2811062, 36.220400099899997 ], [ -115.2811062, 36.220413599899999 ], [ -115.2811035, 36.220413599899999 ], [ -115.2811035, 36.2204270999 ], [ -115.2811062, 36.2204270999 ], [ -115.2811062, 36.220429799899996 ], [ -115.2811089, 36.220429799899996 ], [ -115.2811089, 36.220432499899999 ], [ -115.2811143, 36.220432499899999 ], [ -115.2811143, 36.2204270999 ], [ -115.281117, 36.2204270999 ], [ -115.281117, 36.220418999899998 ], [ -115.2811197, 36.220418999899998 ], [ -115.2811197, 36.220416299900002 ], [ -115.2811224, 36.220416299900002 ], [ -115.2811224, 36.220413599899999 ], [ -115.2811305, 36.220413599899999 ], [ -115.2811305, 36.2204027999 ], [ -115.2811359, 36.2204027999 ], [ -115.2811359, 36.220391999900002 ], [ -115.2811494, 36.220391999900002 ], [ -115.2811494, 36.220389299899999 ], [ -115.2811521, 36.220389299899999 ], [ -115.2811521, 36.2203838999 ], [ -115.2811602, 36.2203838999 ], [ -115.2811602, 36.220386599899996 ], [ -115.2811629, 36.220386599899996 ], [ -115.2811629, 36.220389299899999 ], [ -115.2811683, 36.220389299899999 ], [ -115.2811683, 36.2203838999 ], [ -115.2811764, 36.2203838999 ], [ -115.2811764, 36.220386599899996 ], [ -115.2811791, 36.220386599899996 ], [ -115.2811791, 36.220389299899999 ], [ -115.2811818, 36.220389299899999 ], [ -115.2811818, 36.220391999900002 ], [ -115.2811845, 36.220391999900002 ], [ -115.2811845, 36.220394699899998 ], [ -115.2811872, 36.220394699899998 ], [ -115.2811872, 36.220397399900001 ], [ -115.2811926, 36.220397399900001 ], [ -115.2811926, 36.220513499900001 ] ] ] } },
{ "type": "Feature", "properties": { "value": 255.0 }, "geometry": { "type": "Polygon", "coordinates": [ [ [ -115.281171, 36.220381199899997 ], [ -115.2811656, 36.220381199899997 ], [ -115.2811656, 36.220378499900001 ], [ -115.2811602, 36.220378499900001 ], [ -115.2811602, 36.220381199899997 ], [ -115.2811548, 36.220381199899997 ], [ -115.2811548, 36.220375799899998 ], [ -115.2811602, 36.220375799899998 ], [ -115.2811602, 36.220373099900002 ], [ -115.2811737, 36.220373099900002 ], [ -115.2811737, 36.220378499900001 ], [ -115.281171, 36.220378499900001 ], [ -115.281171, 36.220381199899997 ] ] ] } },
{ "type": "Feature", "properties": { "value": 255.0 }, "geometry": { "type": "Polygon", "coordinates": [ [ [ -115.2802989, 36.220424399899997 ], [ -115.2802368, 36.220424399899997 ], [ -115.2802368, 36.220421699900001 ], [ -115.2802341, 36.220421699900001 ], [ -115.2802341, 36.220416299900002 ], [ -115.2802314, 36.220416299900002 ], [ -115.2802314, 36.220397399900001 ], [ -115.2802287, 36.220397399900001 ], [ -115.2802287, 36.2203163999 ], [ -115.2802368, 36.2203163999 ], [ -115.2802368, 36.220313699899997 ], [ -115.280290799999989, 36.220313699899997 ], [ -115.280290799999989, 36.2203163999 ], [ -115.2802962, 36.2203163999 ], [ -115.2802962, 36.220319099899996 ], [ -115.2802989, 36.220319099899996 ], [ -115.2802989, 36.2203595999 ], [ -115.2803016, 36.2203595999 ], [ -115.2803016, 36.220421699900001 ], [ -115.2802989, 36.220421699900001 ], [ -115.2802989, 36.220424399899997 ] ] ] } },
{ "type": "Feature", "properties": { "value": 255.0 }, "geometry": { "type": "Polygon", "coordinates": [ [ [ -115.2810522, 36.220513499900001 ], [ -115.2810306, 36.220513499900001 ], [ -115.2810306, 36.220510799899998 ], [ -115.2810117, 36.220510799899998 ], [ -115.2810117, 36.220508099900002 ], [ -115.2810036, 36.220508099900002 ], [ -115.2810036, 36.220505399899999 ], [ -115.2809928, 36.220505399899999 ], [ -115.2809928, 36.220502699899995 ], [ -115.2809766, 36.220502699899995 ], [ -115.2809766, 36.220505399899999 ], [ -115.2809685, 36.220505399899999 ], [ -115.2809685, 36.220502699899995 ], [ -115.2809631, 36.220502699899995 ], [ -115.2809631, 36.220499999899999 ], [ -115.2809469, 36.220499999899999 ], [ -115.2809469, 36.220497299899996 ], [ -115.2809496, 36.220497299899996 ], [ -115.2809496, 36.2204945999 ], [ -115.2809523, 36.2204945999 ], [ -115.2809523, 36.220497299899996 ], [ -115.2809577, 36.220497299899996 ], [ -115.2809577, 36.2204945999 ], [ -115.2809658, 36.2204945999 ], [ -115.2809658, 36.220489199900001 ], [ -115.2809631, 36.220489199900001 ], [ -115.2809631, 36.220486499899998 ], [ -115.2809604, 36.220486499899998 ], [ -115.2809604, 36.220489199900001 ], [ -115.280955, 36.220489199900001 ], [ -115.280955, 36.220481099899999 ], [ -115.2809577, 36.220481099899999 ], [ -115.2809577, 36.2204756999 ], [ -115.280955, 36.2204756999 ], [ -115.280955, 36.220464899900001 ], [ -115.2809577, 36.220464899900001 ], [ -115.2809577, 36.220462199899998 ], [ -115.280955, 36.220462199899998 ], [ -115.280955, 36.220459499900002 ], [ -115.2809523, 36.220459499900002 ], [ -115.2809523, 36.220456799899999 ], [ -115.2809496, 36.220456799899999 ], [ -115.2809496, 36.220454099899996 ], [ -115.2809469, 36.220454099899996 ], [ -115.2809469, 36.2204513999 ], [ -115.2809442, 36.2204513999 ], [ -115.2809442, 36.220440599900002 ], [ -115.2809469, 36.220440599900002 ], [ -115.2809469, 36.2204270999 ], [ -115.2809496, 36.2204270999 ], [ -115.2809496, 36.220418999899998 ], [ -115.2809469, 36.220418999899998 ], [ -115.2809469, 36.220413599899999 ], [ -115.2809496, 36.220413599899999 ], [ -115.2809496, 36.220410899899996 ], [ -115.2809523, 36.220410899899996 ], [ -115.2809523, 36.2204027999 ], [ -115.2809631, 36.2204027999 ], [ -115.2809631, 36.220400099899997 ], [ -115.2809658, 36.220400099899997 ], [ -115.2809658, 36.220397399900001 ], [ -115.2809631, 36.220397399900001 ], [ -115.2809631, 36.220394699899998 ], [ -115.2809604, 36.220394699899998 ], [ -115.2809604, 36.220397399900001 ], [ -115.2809577, 36.220397399900001 ], [ -115.2809577, 36.220400099899997 ], [ -115.280955, 36.220400099899997 ], [ -115.280955, 36.220397399900001 ], [ -115.2809496, 36.220397399900001 ], [ -115.2809496, 36.220394699899998 ], [ -115.2809388, 36.220394699899998 ], [ -115.2809388, 36.220397399900001 ], [ -115.2809334, 36.220397399900001 ], [ -115.2809334, 36.220400099899997 ], [ -115.280928, 36.220400099899997 ], [ -115.280928, 36.2204027999 ], [ -115.2809199, 36.2204027999 ], [ -115.2809199, 36.220400099899997 ], [ -115.2809172, 36.220400099899997 ], [ -115.2809172, 36.220397399900001 ], [ -115.2809145, 36.220397399900001 ], [ -115.2809145, 36.2204027999 ], [ -115.2809172, 36.2204027999 ], [ -115.2809172, 36.220413599899999 ], [ -115.2809145, 36.220413599899999 ], [ -115.2809145, 36.220416299900002 ], [ -115.2809091, 36.220416299900002 ], [ -115.2809091, 36.220418999899998 ], [ -115.2809118, 36.220418999899998 ], [ -115.2809118, 36.220421699900001 ], [ -115.2809172, 36.220421699900001 ], [ -115.2809172, 36.220418999899998 ], [ -115.2809199, 36.220418999899998 ], [ -115.2809199, 36.220424399899997 ], [ -115.2809118, 36.220424399899997 ], [ -115.2809118, 36.2204270999 ], [ -115.2809064, 36.2204270999 ], [ -115.2809064, 36.220424399899997 ], [ -115.2809037, 36.220424399899997 ], [ -115.2809037, 36.220416299900002 ], [ -115.280901, 36.220416299900002 ], [ -115.280901, 36.220413599899999 ], [ -115.2808983, 36.220413599899999 ], [ -115.2808983, 36.2204081999 ], [ -115.280901, 36.2204081999 ], [ -115.280901, 36.220400099899997 ], [ -115.2808983, 36.220400099899997 ], [ -115.2808983, 36.220397399900001 ], [ -115.2808929, 36.220397399900001 ], [ -115.2808929, 36.220400099899997 ], [ -115.2808902, 36.220400099899997 ], [ -115.2808902, 36.220397399900001 ], [ -115.2808875, 36.220397399900001 ], [ -115.2808875, 36.220391999900002 ], [ -115.2808929, 36.220391999900002 ], [ -115.2808929, 36.220386599899996 ], [ -115.2808686, 36.220386599899996 ], [ -115.2808686, 36.220389299899999 ], [ -115.2808659, 36.220389299899999 ], [ -115.2808659, 36.220391999900002 ], [ -115.2808767, 36.220391999900002 ], [ -115.2808767, 36.220397399900001 ], [ -115.2808794, 36.220397399900001 ], [ -115.2808794, 36.2204027999 ], [ -115.2808713, 36.2204027999 ], [ -115.2808713, 36.220397399900001 ], [ -115.2808632, 36.220397399900001 ], [ -115.2808632, 36.220400099899997 ], [ -115.2808578, 36.220400099899997 ], [ -115.2808578, 36.220397399900001 ], [ -115.2808551, 36.220397399900001 ], [ -115.2808551, 36.220394699899998 ], [ -115.2808524, 36.220394699899998 ], [ -115.2808524, 36.220391999900002 ], [ -115.2808578, 36.220391999900002 ], [ -115.2808578, 36.2203838999 ], [ -115.2808551, 36.2203838999 ], [ -115.2808551, 36.220381199899997 ], [ -115.2808524, 36.220381199899997 ], [ -115.2808524, 36.220378499900001 ], [ -115.2808497, 36.220378499900001 ], [ -115.2808497, 36.220370399899998 ], [ -115.280847, 36.220370399899998 ], [ -115.280847, 36.220364999899999 ], [ -115.2808443, 36.220364999899999 ], [ -115.2808443, 36.220362299899996 ], [ -115.2808416, 36.220362299899996 ], [ -115.2808416, 36.220354199900001 ], [ -115.2808362, 36.220354199900001 ], [ -115.2808362, 36.220351499899998 ], [ -115.2808308, 36.220351499899998 ], [ -115.2808308, 36.220348799900002 ], [ -115.2808254, 36.220348799900002 ], [ -115.2808254, 36.220343399900003 ], [ -115.2808281, 36.220343399900003 ], [ -115.2808281, 36.220340699899999 ], [ -115.2808254, 36.220340699899999 ], [ -115.2808254, 36.2203352999 ], [ -115.2808308, 36.2203352999 ], [ -115.2808308, 36.220332599899997 ], [ -115.2808227, 36.220332599899997 ], [ -115.2808227, 36.220329899900001 ], [ -115.28082, 36.220329899900001 ], [ -115.28082, 36.220313699899997 ], [ -115.2808281, 36.220313699899997 ], [ -115.2808281, 36.220308299899997 ], [ -115.2808308, 36.220308299899997 ], [ -115.2808308, 36.220305599900001 ], [ -115.2808335, 36.220305599900001 ], [ -115.2808335, 36.220302899899998 ], [ -115.2808389, 36.220302899899998 ], [ -115.2808389, 36.220300199900002 ], [ -115.280847, 36.220300199900002 ], [ -115.280847, 36.220297499899999 ], [ -115.2808524, 36.220297499899999 ], [ -115.2808524, 36.220294799899996 ], [ -115.2808578, 36.220294799899996 ], [ -115.2808578, 36.2202920999 ], [ -115.2808632, 36.2202920999 ], [ -115.2808632, 36.220294799899996 ], [ -115.2808713, 36.220294799899996 ], [ -115.2808713, 36.220297499899999 ], [ -115.2809118, 36.220297499899999 ], [ -115.2809118, 36.220300199900002 ], [ -115.2809226, 36.220300199900002 ], [ -115.2809226, 36.220302899899998 ], [ -115.2809496, 36.220302899899998 ], [ -115.2809496, 36.220300199900002 ], [ -115.2809523, 36.220300199900002 ], [ -115.2809523, 36.220297499899999 ], [ -115.2809577, 36.220297499899999 ], [ -115.2809577, 36.220294799899996 ], [ -115.2809631, 36.220294799899996 ], [ -115.2809631, 36.2202920999 ], [ -115.2809685, 36.2202920999 ], [ -115.2809685, 36.220289399899997 ], [ -115.280982, 36.220289399899997 ], [ -115.280982, 36.220286699900001 ], [ -115.2809901, 36.220286699900001 ], [ -115.2809901, 36.220289399899997 ], [ -115.2809928, 36.220289399899997 ], [ -115.2809928, 36.220294799899996 ], [ -115.2810063, 36.220294799899996 ], [ -115.2810063, 36.220300199900002 ], [ -115.281009, 36.220300199900002 ], [ -115.281009, 36.220302899899998 ], [ -115.2810144, 36.220302899899998 ], [ -115.2810144, 36.220305599900001 ], [ -115.2810333, 36.220305599900001 ], [ -115.2810333, 36.220302899899998 ], [ -115.281036, 36.220302899899998 ], [ -115.281036, 36.220305599900001 ], [ -115.2810441, 36.220305599900001 ], [ -115.2810441, 36.220310999900001 ], [ -115.2810495, 36.220310999900001 ], [ -115.2810495, 36.220313699899997 ], [ -115.2810549, 36.220313699899997 ], [ -115.2810549, 36.2203163999 ], [ -115.2810576, 36.2203163999 ], [ -115.2810576, 36.220313699899997 ], [ -115.2810603, 36.220313699899997 ], [ -115.2810603, 36.220310999900001 ], [ -115.281063, 36.220310999900001 ], [ -115.281063, 36.220308299899997 ], [ -115.2810603, 36.220308299899997 ], [ -115.2810603, 36.220300199900002 ], [ -115.281063, 36.220300199900002 ], [ -115.281063, 36.220289399899997 ], [ -115.2810657, 36.220289399899997 ], [ -115.2810657, 36.220286699900001 ], [ -115.2810792, 36.220286699900001 ], [ -115.2810792, 36.220289399899997 ], [ -115.2810765, 36.220289399899997 ], [ -115.2810765, 36.2202920999 ], [ -115.2810819, 36.2202920999 ], [ -115.2810819, 36.220294799899996 ], [ -115.28109, 36.220294799899996 ], [ -115.28109, 36.220300199900002 ], [ -115.2810927, 36.220300199900002 ], [ -115.2810927, 36.220302899899998 ], [ -115.2811035, 36.220302899899998 ], [ -115.2811035, 36.220294799899996 ], [ -115.281117, 36.220294799899996 ], [ -115.281117, 36.2202920999 ], [ -115.2811224, 36.2202920999 ], [ -115.2811224, 36.220294799899996 ], [ -115.2811305, 36.220294799899996 ], [ -115.2811305, 36.220297499899999 ], [ -115.2811332, 36.220297499899999 ], [ -115.2811332, 36.220300199900002 ], [ -115.2811386, 36.220300199900002 ], [ -115.2811386, 36.220297499899999 ], [ -115.2811413, 36.220297499899999 ], [ -115.2811413, 36.220294799899996 ], [ -115.281144, 36.220294799899996 ], [ -115.281144, 36.220300199900002 ], [ -115.2811467, 36.220300199900002 ], [ -115.2811467, 36.220305599900001 ], [ -115.281144, 36.220305599900001 ], [ -115.281144, 36.220308299899997 ], [ -115.2811413, 36.220308299899997 ], [ -115.2811413, 36.220310999900001 ], [ -115.281144, 36.220310999900001 ], [ -115.281144, 36.220313699899997 ], [ -115.2811467, 36.220313699899997 ], [ -115.2811467, 36.2203163999 ], [ -115.2811791, 36.2203163999 ], [ -115.2811791, 36.220313699899997 ], [ -115.2811818, 36.220313699899997 ], [ -115.2811818, 36.220310999900001 ], [ -115.2811899, 36.220310999900001 ], [ -115.2811899, 36.220302899899998 ], [ -115.2811926, 36.220302899899998 ], [ -115.2811926, 36.220329899900001 ], [ -115.2811899, 36.220329899900001 ], [ -115.2811899, 36.220332599899997 ], [ -115.2811926, 36.220332599899997 ], [ -115.2811926, 36.220337999899996 ], [ -115.2811899, 36.220337999899996 ], [ -115.2811899, 36.220343399900003 ], [ -115.2811872, 36.220343399900003 ], [ -115.2811872, 36.220346099899999 ], [ -115.2811899, 36.220346099899999 ], [ -115.2811899, 36.220354199900001 ], [ -115.2811872, 36.220354199900001 ], [ -115.2811872, 36.220356899899997 ], [ -115.2811845, 36.220356899899997 ], [ -115.2811845, 36.220354199900001 ], [ -115.2811764, 36.220354199900001 ], [ -115.2811764, 36.220356899899997 ], [ -115.2811737, 36.220356899899997 ], [ -115.2811737, 36.220354199900001 ], [ -115.281171, 36.220354199900001 ], [ -115.281171, 36.220351499899998 ], [ -115.2811683, 36.220351499899998 ], [ -115.2811683, 36.220348799900002 ], [ -115.2811656, 36.220348799900002 ], [ -115.2811656, 36.220346099899999 ], [ -115.2811602, 36.220346099899999 ], [ -115.2811602, 36.220343399900003 ], [ -115.2811575, 36.220343399900003 ], [ -115.2811575, 36.220340699899999 ], [ -115.2811548, 36.220340699899999 ], [ -115.2811548, 36.2203352999 ], [ -115.2811521, 36.2203352999 ], [ -115.2811521, 36.220327199899998 ], [ -115.2811413, 36.220327199899998 ], [ -115.2811413, 36.220329899900001 ], [ -115.2811386, 36.220329899900001 ], [ -115.2811386, 36.220332599899997 ], [ -115.2811413, 36.220332599899997 ], [ -115.2811413, 36.2203352999 ], [ -115.2811386, 36.2203352999 ], [ -115.2811386, 36.220340699899999 ], [ -115.2811332, 36.220340699899999 ], [ -115.2811332, 36.220343399900003 ], [ -115.2811278, 36.220343399900003 ], [ -115.2811278, 36.220346099899999 ], [ -115.2811224, 36.220346099899999 ], [ -115.2811224, 36.220348799900002 ], [ -115.2810765, 36.220348799900002 ], [ -115.2810765, 36.220346099899999 ], [ -115.2810738, 36.220346099899999 ], [ -115.2810738, 36.220340699899999 ], [ -115.2810711, 36.220340699899999 ], [ -115.2810711, 36.220337999899996 ], [ -115.2810684, 36.220337999899996 ], [ -115.2810684, 36.2203352999 ], [ -115.2810657, 36.2203352999 ], [ -115.2810657, 36.220332599899997 ], [ -115.281063, 36.220332599899997 ], [ -115.281063, 36.220327199899998 ], [ -115.2810603, 36.220327199899998 ], [ -115.2810603, 36.220324499900002 ], [ -115.2810576, 36.220324499900002 ], [ -115.2810576, 36.220321799899999 ], [ -115.2810441, 36.220321799899999 ], [ -115.2810441, 36.220324499900002 ], [ -115.2810333, 36.220324499900002 ], [ -115.2810333, 36.220327199899998 ], [ -115.2810279, 36.220327199899998 ], [ -115.2810279, 36.220329899900001 ], [ -115.2810252, 36.220329899900001 ], [ -115.2810252, 36.220332599899997 ], [ -115.2810063, 36.220332599899997 ], [ -115.2810063, 36.220343399900003 ], [ -115.281009, 36.220343399900003 ], [ -115.281009, 36.220348799900002 ], [ -115.2810036, 36.220348799900002 ], [ -115.2810036, 36.220354199900001 ], [ -115.2809982, 36.220354199900001 ], [ -115.2809982, 36.2203595999 ], [ -115.2810009, 36.2203595999 ], [ -115.2810009, 36.220362299899996 ], [ -115.2810036, 36.220362299899996 ], [ -115.2810036, 36.220364999899999 ], [ -115.2810009, 36.220364999899999 ], [ -115.2810009, 36.220367699900002 ], [ -115.2809982, 36.220367699900002 ], [ -115.2809982, 36.220373099900002 ], [ -115.2810009, 36.220373099900002 ], [ -115.2810009, 36.2203838999 ], [ -115.2809982, 36.2203838999 ], [ -115.2809982, 36.220394699899998 ], [ -115.2809901, 36.220394699899998 ], [ -115.2809901, 36.220397399900001 ], [ -115.2809874, 36.220397399900001 ], [ -115.2809874, 36.2204027999 ], [ -115.2809901, 36.2204027999 ], [ -115.2809901, 36.220405499899996 ], [ -115.2809928, 36.220405499899996 ], [ -115.2809928, 36.2204027999 ], [ -115.2809955, 36.2204027999 ], [ -115.2809955, 36.220405499899996 ], [ -115.2810036, 36.220405499899996 ], [ -115.2810036, 36.2204027999 ], [ -115.281009, 36.2204027999 ], [ -115.281009, 36.220405499899996 ], [ -115.2810333, 36.220405499899996 ], [ -115.2810333, 36.2204027999 ], [ -115.281036, 36.2204027999 ], [ -115.281036, 36.220405499899996 ], [ -115.2810387, 36.220405499899996 ], [ -115.2810387, 36.2204081999 ], [ -115.2810549, 36.2204081999 ], [ -115.2810549, 36.220410899899996 ], [ -115.2810576, 36.220410899899996 ], [ -115.2810576, 36.220421699900001 ], [ -115.2810603, 36.220421699900001 ], [ -115.2810603, 36.2204270999 ], [ -115.281063, 36.2204270999 ], [ -115.281063, 36.220429799899996 ], [ -115.2810657, 36.220429799899996 ], [ -115.2810657, 36.220432499899999 ], [ -115.281063, 36.220432499899999 ], [ -115.281063, 36.220443299899998 ], [ -115.2810603, 36.220443299899998 ], [ -115.2810603, 36.2204513999 ], [ -115.2810576, 36.2204513999 ], [ -115.2810576, 36.220459499900002 ], [ -115.2810549, 36.220459499900002 ], [ -115.2810549, 36.220467599899997 ], [ -115.2810522, 36.220467599899997 ], [ -115.2810522, 36.2204945999 ], [ -115.2810549, 36.2204945999 ], [ -115.2810549, 36.220508099900002 ], [ -115.2810522, 36.220508099900002 ], [ -115.2810522, 36.220513499900001 ] ], [ [ -115.2809685, 36.220502699899995 ], [ -115.2809712, 36.220502699899995 ], [ -115.2809712, 36.220499999899999 ], [ -115.2809739, 36.220499999899999 ], [ -115.2809739, 36.220497299899996 ], [ -115.2809712, 36.220497299899996 ], [ -115.2809712, 36.2204945999 ], [ -115.2809685, 36.2204945999 ], [ -115.2809685, 36.220502699899995 ] ], [ [ -115.2811845, 36.220343399900003 ], [ -115.2811845, 36.220340699899999 ], [ -115.2811818, 36.220340699899999 ], [ -115.2811818, 36.220343399900003 ], [ -115.2811845, 36.220343399900003 ] ], [ [ -115.2811872, 36.220332599899997 ], [ -115.2811872, 36.220329899900001 ], [ -115.2811845, 36.220329899900001 ], [ -115.2811845, 36.220332599899997 ], [ -115.2811872, 36.220332599899997 ] ] ] } },
{ "type": "Feature", "properties": { "value": 255.0 }, "geometry": { "type": "Polygon", "coordinates": [ [ [ -115.2808767, 36.220270499899996 ], [ -115.2808713, 36.220270499899996 ], [ -115.2808713, 36.2202677999 ], [ -115.2808659, 36.2202677999 ], [ -115.2808659, 36.220265099899997 ], [ -115.2808605, 36.220265099899997 ], [ -115.2808605, 36.220262399900001 ], [ -115.2808578, 36.220262399900001 ], [ -115.2808578, 36.2202488999 ], [ -115.2808686, 36.2202488999 ], [ -115.2808686, 36.220251599900003 ], [ -115.280874, 36.220251599900003 ], [ -115.280874, 36.220254299899999 ], [ -115.2808794, 36.220254299899999 ], [ -115.2808794, 36.220256999900002 ], [ -115.2808848, 36.220256999900002 ], [ -115.2808848, 36.220262399900001 ], [ -115.2808794, 36.220262399900001 ], [ -115.2808794, 36.2202677999 ], [ -115.2808767, 36.2202677999 ], [ -115.2808767, 36.220270499899996 ] ] ] } },
{ "type": "Feature", "properties": { "value": 255.0 }, "geometry": { "type": "Polygon", "coordinates": [ [ [ -115.2806175, 36.220208399900002 ], [ -115.2805986, 36.220208399900002 ], [ -115.2805986, 36.220205699899999 ], [ -115.2805149, 36.220205699899999 ], [ -115.2805149, 36.220202999899996 ], [ -115.2805122, 36.220202999899996 ], [ -115.2805122, 36.2202002999 ], [ -115.2805068, 36.2202002999 ], [ -115.2805068, 36.220197599899997 ], [ -115.2805041, 36.220197599899997 ], [ -115.2805041, 36.220194899900001 ], [ -115.2805014, 36.220194899900001 ], [ -115.2805014, 36.220192199899998 ], [ -115.2805041, 36.220192199899998 ], [ -115.2805041, 36.220189499900002 ], [ -115.2805068, 36.220189499900002 ], [ -115.2805068, 36.220186799899999 ], [ -115.2805095, 36.220186799899999 ], [ -115.2805095, 36.220184099900003 ], [ -115.2805122, 36.220184099900003 ], [ -115.2805122, 36.2201813999 ], [ -115.2805149, 36.2201813999 ], [ -115.2805149, 36.220178699899996 ], [ -115.2805176, 36.220178699899996 ], [ -115.2805176, 36.2201759999 ], [ -115.2805149, 36.2201759999 ], [ -115.2805149, 36.220173299899997 ], [ -115.2805122, 36.220173299899997 ], [ -115.2805122, 36.220167899899998 ], [ -115.2805149, 36.220167899899998 ], [ -115.2805149, 36.220165199900002 ], [ -115.2805176, 36.220165199900002 ], [ -115.2805176, 36.220162499899999 ], [ -115.2805203, 36.220162499899999 ], [ -115.2805203, 36.220159799900003 ], [ -115.2805257, 36.220159799900003 ], [ -115.2805257, 36.2201570999 ], [ -115.2805284, 36.2201570999 ], [ -115.2805284, 36.220154399899997 ], [ -115.2805365, 36.220154399899997 ], [ -115.2805365, 36.220151699900001 ], [ -115.2805689, 36.220151699900001 ], [ -115.2805689, 36.220148999899997 ], [ -115.2806256, 36.220148999899997 ], [ -115.2806256, 36.220151699900001 ], [ -115.2806904, 36.220151699900001 ], [ -115.2806904, 36.220154399899997 ], [ -115.2807039, 36.220154399899997 ], [ -115.2807039, 36.2201570999 ], [ -115.2807066, 36.2201570999 ], [ -115.2807066, 36.220167899899998 ], [ -115.2807039, 36.220167899899998 ], [ -115.2807039, 36.220178699899996 ], [ -115.2807012, 36.220178699899996 ], [ -115.2807012, 36.220186799899999 ], [ -115.2806985, 36.220186799899999 ], [ -115.2806985, 36.220194899900001 ], [ -115.2806958, 36.220194899900001 ], [ -115.2806958, 36.220197599899997 ], [ -115.2806931, 36.220197599899997 ], [ -115.2806931, 36.2202002999 ], [ -115.2806877, 36.2202002999 ], [ -115.2806877, 36.220202999899996 ], [ -115.280685, 36.220202999899996 ], [ -115.280685, 36.220205699899999 ], [ -115.2806175, 36.220205699899999 ], [ -115.2806175, 36.220208399900002 ] ] ] } },
{ "type": "Feature", "properties": { "value": 255.0 }, "geometry": { "type": "Polygon", "coordinates": [ [ [ -115.280425799999989, 36.220076099899998 ], [ -115.2804015, 36.220076099899998 ], [ -115.2804015, 36.220073399900002 ], [ -115.2803988, 36.220073399900002 ], [ -115.2803988, 36.220070699899999 ], [ -115.2803961, 36.220070699899999 ], [ -115.2803961, 36.220043699900003 ], [ -115.2803988, 36.220043699900003 ], [ -115.2803988, 36.220038299899997 ], [ -115.2804177, 36.220038299899997 ], [ -115.2804177, 36.220035599900001 ], [ -115.2804231, 36.220035599900001 ], [ -115.2804231, 36.220038299899997 ], [ -115.2804285, 36.220038299899997 ], [ -115.2804285, 36.220046399899999 ], [ -115.2804312, 36.220046399899999 ], [ -115.2804312, 36.220051799899998 ], [ -115.2804285, 36.220051799899998 ], [ -115.2804285, 36.220073399900002 ], [ -115.280425799999989, 36.220073399900002 ], [ -115.280425799999989, 36.220076099899998 ] ] ] } },
{ "type": "Feature", "properties": { "value": 255.0 }, "geometry": { "type": "Polygon", "coordinates": [ [ [ -115.2798102, 36.220138199899999 ], [ -115.2797778, 36.220138199899999 ], [ -115.2797778, 36.220135499900003 ], [ -115.2797751, 36.220135499900003 ], [ -115.2797751, 36.220127399900001 ], [ -115.2797724, 36.220127399900001 ], [ -115.2797724, 36.220111199899996 ], [ -115.2797751, 36.220111199899996 ], [ -115.2797751, 36.2200895999 ], [ -115.2797778, 36.2200895999 ], [ -115.2797778, 36.220081499899997 ], [ -115.2797805, 36.220081499899997 ], [ -115.2797805, 36.220076099899998 ], [ -115.2797832, 36.220076099899998 ], [ -115.2797832, 36.220067999900003 ], [ -115.2797859, 36.220067999900003 ], [ -115.2797859, 36.220051799899998 ], [ -115.279788599999989, 36.220051799899998 ], [ -115.279788599999989, 36.220049099900002 ], [ -115.2797913, 36.220049099900002 ], [ -115.2797913, 36.220038299899997 ], [ -115.279794, 36.220038299899997 ], [ -115.279794, 36.220035599900001 ], [ -115.2797994, 36.220035599900001 ], [ -115.2797994, 36.220032899899998 ], [ -115.2798021, 36.220032899899998 ], [ -115.2798021, 36.220030199900002 ], [ -115.2798048, 36.220030199900002 ], [ -115.2798048, 36.220027499899999 ], [ -115.2798075, 36.220027499899999 ], [ -115.2798075, 36.220024799900003 ], [ -115.2798102, 36.220024799900003 ], [ -115.2798102, 36.220027499899999 ], [ -115.2798129, 36.220027499899999 ], [ -115.2798129, 36.220035599900001 ], [ -115.279818299999988, 36.220035599900001 ], [ -115.279818299999988, 36.220032899899998 ], [ -115.2798237, 36.220032899899998 ], [ -115.2798237, 36.220035599900001 ], [ -115.2798345, 36.220035599900001 ], [ -115.2798345, 36.220043699900003 ], [ -115.279821, 36.220043699900003 ], [ -115.279821, 36.220049099900002 ], [ -115.2798102, 36.220049099900002 ], [ -115.2798102, 36.220057199899998 ], [ -115.2798156, 36.220057199899998 ], [ -115.2798156, 36.220059899900001 ], [ -115.279821, 36.220059899900001 ], [ -115.279821, 36.220062599899997 ], [ -115.2798237, 36.220062599899997 ], [ -115.2798237, 36.220059899900001 ], [ -115.2798264, 36.220059899900001 ], [ -115.2798264, 36.220051799899998 ], [ -115.2798291, 36.220051799899998 ], [ -115.2798291, 36.220049099900002 ], [ -115.2798426, 36.220049099900002 ], [ -115.2798426, 36.220054499900002 ], [ -115.2798453, 36.220054499900002 ], [ -115.2798453, 36.2200652999 ], [ -115.2798426, 36.2200652999 ], [ -115.2798426, 36.220078799900001 ], [ -115.2798453, 36.220078799900001 ], [ -115.2798453, 36.220103099900001 ], [ -115.2798426, 36.220103099900001 ], [ -115.2798426, 36.220121999900002 ], [ -115.2798399, 36.220121999900002 ], [ -115.2798399, 36.220127399900001 ], [ -115.279837199999989, 36.220127399900001 ], [ -115.279837199999989, 36.220130099899997 ], [ -115.2798291, 36.220130099899997 ], [ -115.2798291, 36.2201327999 ], [ -115.2798264, 36.2201327999 ], [ -115.2798264, 36.220130099899997 ], [ -115.2798237, 36.220130099899997 ], [ -115.2798237, 36.2201327999 ], [ -115.2798102, 36.2201327999 ], [ -115.2798102, 36.220138199899999 ] ], [ [ -115.2798021, 36.220049099900002 ], [ -115.2798021, 36.220046399899999 ], [ -115.2797994, 36.220046399899999 ], [ -115.2797994, 36.220049099900002 ], [ -115.2798021, 36.220049099900002 ] ] ] } },
{ "type": "Feature", "properties": { "value": 255.0 }, "geometry": { "type": "Polygon", "coordinates": [ [ [ -115.2798588, 36.220005899900002 ], [ -115.2798237, 36.220005899900002 ], [ -115.2798237, 36.220003199899999 ], [ -115.2798102, 36.220003199899999 ], [ -115.2798102, 36.220005899900002 ], [ -115.2798048, 36.220005899900002 ], [ -115.2798048, 36.220003199899999 ], [ -115.2797913, 36.220003199899999 ], [ -115.2797913, 36.220000499900003 ], [ -115.2797778, 36.220000499900003 ], [ -115.2797778, 36.2199977999 ], [ -115.279769699999989, 36.2199977999 ], [ -115.279769699999989, 36.219995099899997 ], [ -115.2797454, 36.219995099899997 ], [ -115.2797454, 36.219992399900001 ], [ -115.27974, 36.219992399900001 ], [ -115.27974, 36.219989699899998 ], [ -115.2797346, 36.219989699899998 ], [ -115.2797346, 36.219986999900001 ], [ -115.2797319, 36.219986999900001 ], [ -115.2797319, 36.219984299899998 ], [ -115.2797265, 36.219984299899998 ], [ -115.2797265, 36.219981599900002 ], [ -115.2797238, 36.219981599900002 ], [ -115.2797238, 36.219978899899999 ], [ -115.2797184, 36.219978899899999 ], [ -115.2797184, 36.219976199900003 ], [ -115.2797157, 36.219976199900003 ], [ -115.2797157, 36.2199734999 ], [ -115.279713, 36.2199734999 ], [ -115.279713, 36.219970799899997 ], [ -115.2797103, 36.219970799899997 ], [ -115.2797103, 36.219957299900003 ], [ -115.279713, 36.219957299900003 ], [ -115.279713, 36.219954599899999 ], [ -115.2797265, 36.219954599899999 ], [ -115.2797265, 36.219951899900003 ], [ -115.2797319, 36.219951899900003 ], [ -115.2797319, 36.2199491999 ], [ -115.2797184, 36.2199491999 ], [ -115.2797184, 36.219946499899997 ], [ -115.279721099999989, 36.219946499899997 ], [ -115.279721099999989, 36.219943799900001 ], [ -115.2797238, 36.219943799900001 ], [ -115.2797238, 36.219941099899998 ], [ -115.279750799999988, 36.219941099899998 ], [ -115.279750799999988, 36.219943799900001 ], [ -115.2797751, 36.219943799900001 ], [ -115.2797751, 36.219941099899998 ], [ -115.2797913, 36.219941099899998 ], [ -115.2797913, 36.219943799900001 ], [ -115.279794, 36.219943799900001 ], [ -115.279794, 36.219946499899997 ], [ -115.2797967, 36.219946499899997 ], [ -115.2797967, 36.2199491999 ], [ -115.2798021, 36.2199491999 ], [ -115.2798021, 36.219951899900003 ], [ -115.2798102, 36.219951899900003 ], [ -115.2798102, 36.219954599899999 ], [ -115.2798156, 36.219954599899999 ], [ -115.2798156, 36.219951899900003 ], [ -115.279818299999988, 36.219951899900003 ], [ -115.279818299999988, 36.2199491999 ], [ -115.2798237, 36.2199491999 ], [ -115.2798237, 36.219946499899997 ], [ -115.2798264, 36.219946499899997 ], [ -115.2798264, 36.219943799900001 ], [ -115.2798291, 36.219943799900001 ], [ -115.2798291, 36.219946499899997 ], [ -115.279837199999989, 36.219946499899997 ], [ -115.279837199999989, 36.2199491999 ], [ -115.2798426, 36.2199491999 ], [ -115.2798426, 36.219946499899997 ], [ -115.2798453, 36.219946499899997 ], [ -115.2798453, 36.2199491999 ], [ -115.279848, 36.2199491999 ], [ -115.279848, 36.219951899900003 ], [ -115.2798534, 36.219951899900003 ], [ -115.2798534, 36.219954599899999 ], [ -115.279856099999989, 36.219954599899999 ], [ -115.279856099999989, 36.219957299900003 ], [ -115.2798588, 36.219957299900003 ], [ -115.2798588, 36.219959999899999 ], [ -115.2798642, 36.219959999899999 ], [ -115.2798642, 36.219962699900002 ], [ -115.2798669, 36.219962699900002 ], [ -115.2798669, 36.219965399899998 ], [ -115.2798696, 36.219965399899998 ], [ -115.2798696, 36.219968099900001 ], [ -115.279875, 36.219968099900001 ], [ -115.279875, 36.219978899899999 ], [ -115.2798777, 36.219978899899999 ], [ -115.2798777, 36.219981599900002 ], [ -115.2798804, 36.219981599900002 ], [ -115.2798804, 36.219986999900001 ], [ -115.2798831, 36.219986999900001 ], [ -115.2798831, 36.219989699899998 ], [ -115.2798804, 36.219989699899998 ], [ -115.2798804, 36.220000499900003 ], [ -115.2798723, 36.220000499900003 ], [ -115.2798723, 36.220003199899999 ], [ -115.2798588, 36.220003199899999 ], [ -115.2798588, 36.220005899900002 ] ] ] } },
{ "type": "Feature", "properties": { "value": 255.0 }, "geometry": { "type": "Polygon", "coordinates": [ [ [ -115.2810387, 36.219919499900001 ], [ -115.2810333, 36.219919499900001 ], [ -115.2810333, 36.219916799899998 ], [ -115.2810117, 36.219916799899998 ], [ -115.2810117, 36.219903299899997 ], [ -115.2810144, 36.219903299899997 ], [ -115.2810144, 36.219900599900001 ], [ -115.2810387, 36.219900599900001 ], [ -115.2810387, 36.219903299899997 ], [ -115.2810414, 36.219903299899997 ], [ -115.2810414, 36.2199059999 ], [ -115.2810468, 36.2199059999 ], [ -115.2810468, 36.219908699900003 ], [ -115.2810441, 36.219908699900003 ], [ -115.2810441, 36.219911399899999 ], [ -115.2810468, 36.219911399899999 ], [ -115.2810468, 36.219914099900002 ], [ -115.2810441, 36.219914099900002 ], [ -115.2810441, 36.219916799899998 ], [ -115.2810387, 36.219916799899998 ], [ -115.2810387, 36.219919499900001 ] ] ] } },
{ "type": "Feature", "properties": { "value": 255.0 }, "geometry": { "type": "Polygon", "coordinates": [ [ [ -115.2811926, 36.220221899899997 ], [ -115.2811899, 36.220221899899997 ], [ -115.2811899, 36.220219199900001 ], [ -115.2811872, 36.220219199900001 ], [ -115.2811872, 36.220213799900002 ], [ -115.2811818, 36.220213799900002 ], [ -115.2811818, 36.220216499899998 ], [ -115.2811764, 36.220216499899998 ], [ -115.2811764, 36.220219199900001 ], [ -115.2811737, 36.220219199900001 ], [ -115.2811737, 36.220221899899997 ], [ -115.2811683, 36.220221899899997 ], [ -115.2811683, 36.220216499899998 ], [ -115.2811548, 36.220216499899998 ], [ -115.2811548, 36.220213799900002 ], [ -115.2811521, 36.220213799900002 ], [ -115.2811521, 36.220216499899998 ], [ -115.2811494, 36.220216499899998 ], [ -115.2811494, 36.220213799900002 ], [ -115.2811413, 36.220213799900002 ], [ -115.2811413, 36.220216499899998 ], [ -115.2810684, 36.220216499899998 ], [ -115.2810684, 36.220213799900002 ], [ -115.2810549, 36.220213799900002 ], [ -115.2810549, 36.220211099899998 ], [ -115.2810252, 36.220211099899998 ], [ -115.2810252, 36.220213799900002 ], [ -115.2810225, 36.220213799900002 ], [ -115.2810225, 36.220211099899998 ], [ -115.2809523, 36.220211099899998 ], [ -115.2809523, 36.220208399900002 ], [ -115.2809064, 36.220208399900002 ], [ -115.2809064, 36.220205699899999 ], [ -115.280901, 36.220205699899999 ], [ -115.280901, 36.220202999899996 ], [ -115.2808902, 36.220202999899996 ], [ -115.2808902, 36.2202002999 ], [ -115.2808956, 36.2202002999 ], [ -115.2808956, 36.220194899900001 ], [ -115.2808659, 36.220194899900001 ], [ -115.2808659, 36.220197599899997 ], [ -115.2808686, 36.220197599899997 ], [ -115.2808686, 36.220202999899996 ], [ -115.2808551, 36.220202999899996 ], [ -115.2808551, 36.220205699899999 ], [ -115.2808416, 36.220205699899999 ], [ -115.2808416, 36.220202999899996 ], [ -115.2808389, 36.220202999899996 ], [ -115.2808389, 36.2202002999 ], [ -115.2808362, 36.2202002999 ], [ -115.2808362, 36.220197599899997 ], [ -115.2808335, 36.220197599899997 ], [ -115.2808335, 36.220194899900001 ], [ -115.2808308, 36.220194899900001 ], [ -115.2808308, 36.220189499900002 ], [ -115.2808335, 36.220189499900002 ], [ -115.2808335, 36.220186799899999 ], [ -115.2808389, 36.220186799899999 ], [ -115.2808389, 36.2201759999 ], [ -115.2808416, 36.2201759999 ], [ -115.2808416, 36.220173299899997 ], [ -115.280847, 36.220173299899997 ], [ -115.280847, 36.220170599900001 ], [ -115.2808497, 36.220170599900001 ], [ -115.2808497, 36.220165199900002 ], [ -115.2808605, 36.220165199900002 ], [ -115.2808605, 36.220167899899998 ], [ -115.2808632, 36.220167899899998 ], [ -115.2808632, 36.220170599900001 ], [ -115.2808659, 36.220170599900001 ], [ -115.2808659, 36.220167899899998 ], [ -115.2808848, 36.220167899899998 ], [ -115.2808848, 36.220165199900002 ], [ -115.2808902, 36.220165199900002 ], [ -115.2808902, 36.220162499899999 ], [ -115.2808929, 36.220162499899999 ], [ -115.2808929, 36.220159799900003 ], [ -115.2808956, 36.220159799900003 ], [ -115.2808956, 36.2201570999 ], [ -115.2808902, 36.2201570999 ], [ -115.2808902, 36.220154399899997 ], [ -115.2808848, 36.220154399899997 ], [ -115.2808848, 36.220151699900001 ], [ -115.2808767, 36.220151699900001 ], [ -115.2808767, 36.220148999899997 ], [ -115.2808794, 36.220148999899997 ], [ -115.2808794, 36.220146299900001 ], [ -115.2808632, 36.220146299900001 ], [ -115.2808632, 36.220148999899997 ], [ -115.2808605, 36.220148999899997 ], [ -115.2808605, 36.220151699900001 ], [ -115.2808551, 36.220151699900001 ], [ -115.2808551, 36.220154399899997 ], [ -115.2808497, 36.220154399899997 ], [ -115.2808497, 36.220151699900001 ], [ -115.280847, 36.220151699900001 ], [ -115.280847, 36.220148999899997 ], [ -115.2808443, 36.220148999899997 ], [ -115.2808443, 36.220143599899998 ], [ -115.280847, 36.220143599899998 ], [ -115.280847, 36.220140899900002 ], [ -115.2808497, 36.220140899900002 ], [ -115.2808497, 36.220138199899999 ], [ -115.2808578, 36.220138199899999 ], [ -115.2808578, 36.220140899900002 ], [ -115.2808632, 36.220140899900002 ], [ -115.2808632, 36.220138199899999 ], [ -115.2808659, 36.220138199899999 ], [ -115.2808659, 36.220135499900003 ], [ -115.2808686, 36.220135499900003 ], [ -115.2808686, 36.2201327999 ], [ -115.2808794, 36.2201327999 ], [ -115.2808794, 36.220130099899997 ], [ -115.2808821, 36.220130099899997 ], [ -115.2808821, 36.220124699899998 ], [ -115.2808848, 36.220124699899998 ], [ -115.2808848, 36.220121999900002 ], [ -115.2808821, 36.220121999900002 ], [ -115.2808821, 36.220119299899999 ], [ -115.2808794, 36.220119299899999 ], [ -115.2808794, 36.220116599900003 ], [ -115.2808767, 36.220116599900003 ], [ -115.2808767, 36.220113899899999 ], [ -115.2808551, 36.220113899899999 ], [ -115.2808551, 36.220116599900003 ], [ -115.2808578, 36.220116599900003 ], [ -115.2808578, 36.220121999900002 ], [ -115.280847, 36.220121999900002 ], [ -115.280847, 36.220116599900003 ], [ -115.2808497, 36.220116599900003 ], [ -115.2808497, 36.220113899899999 ], [ -115.2808416, 36.220113899899999 ], [ -115.2808416, 36.220111199899996 ], [ -115.2808389, 36.220111199899996 ], [ -115.2808389, 36.2201084999 ], [ -115.2808362, 36.2201084999 ], [ -115.2808362, 36.220103099900001 ], [ -115.2808335, 36.220103099900001 ], [ -115.2808335, 36.220097699900002 ], [ -115.2808362, 36.220097699900002 ], [ -115.2808362, 36.220094999899999 ], [ -115.2808767, 36.220094999899999 ], [ -115.2808767, 36.220097699900002 ], [ -115.2808983, 36.220097699900002 ], [ -115.2808983, 36.220094999899999 ], [ -115.2809145, 36.220094999899999 ], [ -115.2809145, 36.220092299900003 ], [ -115.2809361, 36.220092299900003 ], [ -115.2809361, 36.220094999899999 ], [ -115.2809415, 36.220094999899999 ], [ -115.2809415, 36.220092299900003 ], [ -115.2809469, 36.220092299900003 ], [ -115.2809469, 36.2200895999 ], [ -115.2809496, 36.2200895999 ], [ -115.2809496, 36.220086899899997 ], [ -115.280955, 36.220086899899997 ], [ -115.280955, 36.220081499899997 ], [ -115.2809577, 36.220081499899997 ], [ -115.2809577, 36.220078799900001 ], [ -115.2809631, 36.220078799900001 ], [ -115.2809631, 36.220073399900002 ], [ -115.2809658, 36.220073399900002 ], [ -115.2809658, 36.220067999900003 ], [ -115.2809712, 36.220067999900003 ], [ -115.2809712, 36.220062599899997 ], [ -115.2809739, 36.220062599899997 ], [ -115.2809739, 36.220059899900001 ], [ -115.2809766, 36.220059899900001 ], [ -115.2809766, 36.220051799899998 ], [ -115.2809739, 36.220051799899998 ], [ -115.2809739, 36.2200409999 ], [ -115.2809712, 36.2200409999 ], [ -115.2809712, 36.220035599900001 ], [ -115.2809685, 36.220035599900001 ], [ -115.2809685, 36.220027499899999 ], [ -115.2809658, 36.220027499899999 ], [ -115.2809658, 36.2200166999 ], [ -115.2809685, 36.2200166999 ], [ -115.2809685, 36.220013999899997 ], [ -115.2809712, 36.220013999899997 ], [ -115.2809712, 36.220008599899998 ], [ -115.2809685, 36.220008599899998 ], [ -115.2809685, 36.220005899900002 ], [ -115.2809658, 36.220005899900002 ], [ -115.2809658, 36.220003199899999 ], [ -115.2809631, 36.220003199899999 ], [ -115.2809631, 36.220000499900003 ], [ -115.2809658, 36.220000499900003 ], [ -115.2809658, 36.2199977999 ], [ -115.2809685, 36.2199977999 ], [ -115.2809685, 36.219995099899997 ], [ -115.2809631, 36.219995099899997 ], [ -115.2809631, 36.219992399900001 ], [ -115.2809604, 36.219992399900001 ], [ -115.2809604, 36.219989699899998 ], [ -115.280955, 36.219989699899998 ], [ -115.280955, 36.219986999900001 ], [ -115.2809577, 36.219986999900001 ], [ -115.2809577, 36.219984299899998 ], [ -115.280955, 36.219984299899998 ], [ -115.280955, 36.219981599900002 ], [ -115.2809442, 36.219981599900002 ], [ -115.2809442, 36.219978899899999 ], [ -115.2809415, 36.219978899899999 ], [ -115.2809415, 36.219970799899997 ], [ -115.2809442, 36.219970799899997 ], [ -115.2809442, 36.219965399899998 ], [ -115.2809388, 36.219965399899998 ], [ -115.2809388, 36.219959999899999 ], [ -115.2809307, 36.219959999899999 ], [ -115.2809307, 36.219957299900003 ], [ -115.280928, 36.219957299900003 ], [ -115.280928, 36.219954599899999 ], [ -115.2809361, 36.219954599899999 ], [ -115.2809361, 36.219951899900003 ], [ -115.2809388, 36.219951899900003 ], [ -115.2809388, 36.2199491999 ], [ -115.2809361, 36.2199491999 ], [ -115.2809361, 36.219946499899997 ], [ -115.2809172, 36.219946499899997 ], [ -115.2809172, 36.2199491999 ], [ -115.2808902, 36.2199491999 ], [ -115.2808902, 36.219946499899997 ], [ -115.2808821, 36.219946499899997 ], [ -115.2808821, 36.219943799900001 ], [ -115.2808767, 36.219943799900001 ], [ -115.2808767, 36.219938399900002 ], [ -115.280901, 36.219938399900002 ], [ -115.280901, 36.219941099899998 ], [ -115.2809145, 36.219941099899998 ], [ -115.2809145, 36.219943799900001 ], [ -115.2809199, 36.219943799900001 ], [ -115.2809199, 36.219941099899998 ], [ -115.2809253, 36.219941099899998 ], [ -115.2809253, 36.219943799900001 ], [ -115.2809334, 36.219943799900001 ], [ -115.2809334, 36.219941099899998 ], [ -115.2809388, 36.219941099899998 ], [ -115.2809388, 36.219938399900002 ], [ -115.2809415, 36.219938399900002 ], [ -115.2809415, 36.2199302999 ], [ -115.2809523, 36.2199302999 ], [ -115.2809523, 36.219932999900003 ], [ -115.2809469, 36.219932999900003 ], [ -115.2809469, 36.219935699899999 ], [ -115.2809496, 36.219935699899999 ], [ -115.2809496, 36.219943799900001 ], [ -115.2809469, 36.219943799900001 ], [ -115.2809469, 36.219946499899997 ], [ -115.2809442, 36.219946499899997 ], [ -115.2809442, 36.2199491999 ], [ -115.2809469, 36.2199491999 ], [ -115.2809469, 36.219951899900003 ], [ -115.2809523, 36.219951899900003 ], [ -115.2809523, 36.219954599899999 ], [ -115.280955, 36.219954599899999 ], [ -115.280955, 36.219951899900003 ], [ -115.2809685, 36.219951899900003 ], [ -115.2809685, 36.219954599899999 ], [ -115.2809739, 36.219954599899999 ], [ -115.2809739, 36.219951899900003 ], [ -115.2809766, 36.219951899900003 ], [ -115.2809766, 36.219946499899997 ], [ -115.2809739, 36.219946499899997 ], [ -115.2809739, 36.219943799900001 ], [ -115.2809685, 36.219943799900001 ], [ -115.2809685, 36.219946499899997 ], [ -115.2809658, 36.219946499899997 ], [ -115.2809658, 36.219943799900001 ], [ -115.2809604, 36.219943799900001 ], [ -115.2809604, 36.219941099899998 ], [ -115.2809577, 36.219941099899998 ], [ -115.2809577, 36.219938399900002 ], [ -115.2809631, 36.219938399900002 ], [ -115.2809631, 36.219935699899999 ], [ -115.2809658, 36.219935699899999 ], [ -115.2809658, 36.219932999900003 ], [ -115.2809577, 36.219932999900003 ], [ -115.2809577, 36.2199302999 ], [ -115.2809766, 36.2199302999 ], [ -115.2809766, 36.219932999900003 ], [ -115.2809847, 36.219932999900003 ], [ -115.2809847, 36.219935699899999 ], [ -115.2809982, 36.219935699899999 ], [ -115.2809982, 36.219932999900003 ], [ -115.2810009, 36.219932999900003 ], [ -115.2810009, 36.2199302999 ], [ -115.281009, 36.2199302999 ], [ -115.281009, 36.219932999900003 ], [ -115.2810117, 36.219932999900003 ], [ -115.2810117, 36.2199302999 ], [ -115.2810198, 36.2199302999 ], [ -115.2810198, 36.219938399900002 ], [ -115.2810225, 36.219938399900002 ], [ -115.2810225, 36.219941099899998 ], [ -115.2810414, 36.219941099899998 ], [ -115.2810414, 36.219943799900001 ], [ -115.2810441, 36.219943799900001 ], [ -115.2810441, 36.219941099899998 ], [ -115.2810684, 36.219941099899998 ], [ -115.2810684, 36.219938399900002 ], [ -115.2810765, 36.219938399900002 ], [ -115.2810765, 36.219941099899998 ], [ -115.2810792, 36.219941099899998 ], [ -115.2810792, 36.219938399900002 ], [ -115.2810846, 36.219938399900002 ], [ -115.2810846, 36.219935699899999 ], [ -115.2810873, 36.219935699899999 ], [ -115.2810873, 36.219932999900003 ], [ -115.2810954, 36.219932999900003 ], [ -115.2810954, 36.2199302999 ], [ -115.2811089, 36.2199302999 ], [ -115.2811089, 36.219932999900003 ], [ -115.2811116, 36.219932999900003 ], [ -115.2811116, 36.219935699899999 ], [ -115.2811143, 36.219935699899999 ], [ -115.2811143, 36.219932999900003 ], [ -115.281117, 36.219932999900003 ], [ -115.281117, 36.2199302999 ], [ -115.2811251, 36.2199302999 ], [ -115.2811251, 36.219932999900003 ], [ -115.2811359, 36.219932999900003 ], [ -115.2811359, 36.219935699899999 ], [ -115.2811494, 36.219935699899999 ], [ -115.2811494, 36.219932999900003 ], [ -115.2811521, 36.219932999900003 ], [ -115.2811521, 36.2199302999 ], [ -115.2811683, 36.2199302999 ], [ -115.2811683, 36.219911399899999 ], [ -115.2811629, 36.219911399899999 ], [ -115.2811629, 36.219908699900003 ], [ -115.2811494, 36.219908699900003 ], [ -115.2811494, 36.2199059999 ], [ -115.2811467, 36.2199059999 ], [ -115.2811467, 36.219900599900001 ], [ -115.2811413, 36.219900599900001 ], [ -115.2811413, 36.219897899899998 ], [ -115.2811386, 36.219897899899998 ], [ -115.2811386, 36.219887099899999 ], [ -115.2811413, 36.219887099899999 ], [ -115.2811413, 36.219884399900003 ], [ -115.2811467, 36.219884399900003 ], [ -115.2811467, 36.219878999899997 ], [ -115.281144, 36.219878999899997 ], [ -115.281144, 36.219876299900001 ], [ -115.2811494, 36.219876299900001 ], [ -115.2811494, 36.219873599899998 ], [ -115.2811602, 36.219873599899998 ], [ -115.2811602, 36.219876299900001 ], [ -115.2811737, 36.219876299900001 ], [ -115.2811737, 36.219873599899998 ], [ -115.2811764, 36.219873599899998 ], [ -115.2811764, 36.219876299900001 ], [ -115.2811791, 36.219876299900001 ], [ -115.2811791, 36.2198816999 ], [ -115.2811818, 36.2198816999 ], [ -115.2811818, 36.219887099899999 ], [ -115.2811845, 36.219887099899999 ], [ -115.2811845, 36.219889799900002 ], [ -115.2811899, 36.219889799900002 ], [ -115.2811899, 36.219887099899999 ], [ -115.2811926, 36.219887099899999 ], [ -115.2811926, 36.220221899899997 ] ], [ [ -115.2808767, 36.2201813999 ], [ -115.2808767, 36.220178699899996 ], [ -115.2808713, 36.220178699899996 ], [ -115.2808713, 36.2201813999 ], [ -115.2808767, 36.2201813999 ] ], [ [ -115.2808848, 36.220113899899999 ], [ -115.2808848, 36.220111199899996 ], [ -115.2808794, 36.220111199899996 ], [ -115.2808794, 36.220113899899999 ], [ -115.2808848, 36.220113899899999 ] ], [ [ -115.2809415, 36.220103099900001 ], [ -115.2809415, 36.220100399899998 ], [ -115.2809388, 36.220100399899998 ], [ -115.2809388, 36.220103099900001 ], [ -115.2809415, 36.220103099900001 ] ] ] } },
{ "type": "Feature", "properties": { "value": 255.0 }, "geometry": { "type": "Polygon", "coordinates": [ [ [ -115.2811062, 36.219908699900003 ], [ -115.2810954, 36.219908699900003 ], [ -115.2810954, 36.219900599900001 ], [ -115.2810981, 36.219900599900001 ], [ -115.2810981, 36.219897899899998 ], [ -115.2811008, 36.219897899899998 ], [ -115.2811008, 36.219895199900002 ], [ -115.2811062, 36.219895199900002 ], [ -115.2811062, 36.219889799900002 ], [ -115.2811089, 36.219889799900002 ], [ -115.2811089, 36.219887099899999 ], [ -115.2811116, 36.219887099899999 ], [ -115.2811116, 36.219884399900003 ], [ -115.2811197, 36.219884399900003 ], [ -115.2811197, 36.219887099899999 ], [ -115.2811278, 36.219887099899999 ], [ -115.2811278, 36.219892499899998 ], [ -115.2811305, 36.219892499899998 ], [ -115.2811305, 36.219897899899998 ], [ -115.2811197, 36.219897899899998 ], [ -115.2811197, 36.219900599900001 ], [ -115.281117, 36.219900599900001 ], [ -115.281117, 36.219903299899997 ], [ -115.2811089, 36.219903299899997 ], [ -115.2811089, 36.2199059999 ], [ -115.2811062, 36.2199059999 ], [ -115.2811062, 36.219908699900003 ] ], [ [ -115.2811251, 36.219892499899998 ], [ -115.2811251, 36.219889799900002 ], [ -115.2811197, 36.219889799900002 ], [ -115.2811197, 36.219892499899998 ], [ -115.2811251, 36.219892499899998 ] ] ] } },
{ "type": "Feature", "properties": { "value": 255.0 }, "geometry": { "type": "Polygon", "coordinates": [ [ [ -115.2798399, 36.219903299899997 ], [ -115.2798345, 36.219903299899997 ], [ -115.2798345, 36.219900599900001 ], [ -115.279818299999988, 36.219900599900001 ], [ -115.279818299999988, 36.219903299899997 ], [ -115.2798102, 36.219903299899997 ], [ -115.2798102, 36.219900599900001 ], [ -115.279794, 36.219900599900001 ], [ -115.279794, 36.219903299899997 ], [ -115.2797076, 36.219903299899997 ], [ -115.2797076, 36.219900599900001 ], [ -115.2797049, 36.219900599900001 ], [ -115.2797049, 36.219895199900002 ], [ -115.279702199999988, 36.219895199900002 ], [ -115.279702199999988, 36.219892499899998 ], [ -115.2797049, 36.219892499899998 ], [ -115.2797049, 36.219878999899997 ], [ -115.279702199999988, 36.219878999899997 ], [ -115.279702199999988, 36.219876299900001 ], [ -115.2797049, 36.219876299900001 ], [ -115.2797049, 36.2198573999 ], [ -115.279702199999988, 36.2198573999 ], [ -115.279702199999988, 36.219851999900001 ], [ -115.2796995, 36.219851999900001 ], [ -115.2796995, 36.219846599900002 ], [ -115.2796968, 36.219846599900002 ], [ -115.2796968, 36.219808799900001 ], [ -115.2796995, 36.219808799900001 ], [ -115.2796995, 36.219776399899999 ], [ -115.2796968, 36.219776399899999 ], [ -115.2796968, 36.219735899900002 ], [ -115.2796995, 36.219735899900002 ], [ -115.2796995, 36.219733199899999 ], [ -115.279702199999988, 36.219733199899999 ], [ -115.279702199999988, 36.219730499900002 ], [ -115.2797535, 36.219730499900002 ], [ -115.2797535, 36.219733199899999 ], [ -115.2798075, 36.219733199899999 ], [ -115.2798075, 36.219730499900002 ], [ -115.2798345, 36.219730499900002 ], [ -115.2798345, 36.219733199899999 ], [ -115.2798399, 36.219733199899999 ], [ -115.2798399, 36.219735899900002 ], [ -115.2798426, 36.219735899900002 ], [ -115.2798426, 36.219760199900001 ], [ -115.2798453, 36.219760199900001 ], [ -115.2798453, 36.219784499900001 ], [ -115.279848, 36.219784499900001 ], [ -115.279848, 36.219787199899997 ], [ -115.2798453, 36.219787199899997 ], [ -115.2798453, 36.219795299899999 ], [ -115.279848, 36.219795299899999 ], [ -115.279848, 36.219870899900002 ], [ -115.2798453, 36.219870899900002 ], [ -115.2798453, 36.219876299900001 ], [ -115.279848, 36.219876299900001 ], [ -115.279848, 36.219892499899998 ], [ -115.2798453, 36.219892499899998 ], [ -115.2798453, 36.219900599900001 ], [ -115.2798399, 36.219900599900001 ], [ -115.2798399, 36.219903299899997 ] ] ] } }
]
}
