{
"type": "FeatureCollection",
"crs": { "type": "name", "properties": { "name": "urn:ogc:def:crs:OGC:1.3:CRS84" } },
"features": [
{ "type": "Feature", "properties": { "value": 255.0 }, "geometry": { "type": "Polygon", "coordinates": [ [ [ -115.1534475, 36.127792799700003 ], [ -115.1534421, 36.127792799700003 ], [ -115.1534421, 36.127787399699997 ], [ -115.1534448, 36.127787399699997 ], [ -115.1534448, 36.127784699700001 ], [ -115.1534475, 36.127784699700001 ], [ -115.1534475, 36.127779299700002 ], [ -115.1534448, 36.127779299700002 ], [ -115.1534448, 36.127776599699999 ], [ -115.1534367, 36.127776599699999 ], [ -115.1534367, 36.127779299700002 ], [ -115.1534313, 36.127779299700002 ], [ -115.1534313, 36.127773899700003 ], [ -115.153434, 36.127773899700003 ], [ -115.153434, 36.1277711997 ], [ -115.1534367, 36.1277711997 ], [ -115.1534367, 36.127768499700004 ], [ -115.153439400000011, 36.127768499700004 ], [ -115.153439400000011, 36.127765799700001 ], [ -115.1534502, 36.127765799700001 ], [ -115.1534502, 36.1277900997 ], [ -115.1534475, 36.1277900997 ], [ -115.1534475, 36.127792799700003 ] ] ] } },
{ "type": "Feature", "properties": { "value": 255.0 }, "geometry": { "type": "Polygon", "coordinates": [ [ [ -115.1538957, 36.127687499700002 ], [ -115.1538822, 36.127687499700002 ], [ -115.1538822, 36.127684799699999 ], [ -115.1538795, 36.127684799699999 ], [ -115.1538795, 36.127682099700003 ], [ -115.15387410000001, 36.127682099700003 ], [ -115.15387410000001, 36.1276793997 ], [ -115.1538714, 36.1276793997 ], [ -115.1538714, 36.127676699700004 ], [ -115.153866, 36.127676699700004 ], [ -115.153866, 36.127673999700001 ], [ -115.1538633, 36.127673999700001 ], [ -115.1538633, 36.127671299699998 ], [ -115.1538606, 36.127671299699998 ], [ -115.1538606, 36.127665899699998 ], [ -115.1538579, 36.127665899699998 ], [ -115.1538579, 36.127657799700003 ], [ -115.15385520000001, 36.127657799700003 ], [ -115.15385520000001, 36.127652399700004 ], [ -115.1538525, 36.127652399700004 ], [ -115.1538525, 36.127644299700002 ], [ -115.1538498, 36.127644299700002 ], [ -115.1538498, 36.127638899700003 ], [ -115.1538471, 36.127638899700003 ], [ -115.1538471, 36.127622699699998 ], [ -115.153844400000011, 36.127622699699998 ], [ -115.153844400000011, 36.127619999700002 ], [ -115.1538417, 36.127619999700002 ], [ -115.1538417, 36.127614599700003 ], [ -115.153839, 36.127614599700003 ], [ -115.153839, 36.127609199700004 ], [ -115.1538336, 36.127609199700004 ], [ -115.1538336, 36.127606499700001 ], [ -115.1538309, 36.127606499700001 ], [ -115.1538309, 36.127603799699997 ], [ -115.1538282, 36.127603799699997 ], [ -115.1538282, 36.127601099700001 ], [ -115.153825500000011, 36.127601099700001 ], [ -115.153825500000011, 36.127595699700002 ], [ -115.1538228, 36.127595699700002 ], [ -115.1538228, 36.127601099700001 ], [ -115.1538201, 36.127601099700001 ], [ -115.1538201, 36.127603799699997 ], [ -115.1538147, 36.127603799699997 ], [ -115.1538147, 36.127598399699998 ], [ -115.153812, 36.127598399699998 ], [ -115.153812, 36.127592999699999 ], [ -115.15380660000001, 36.127592999699999 ], [ -115.15380660000001, 36.127595699700002 ], [ -115.1538039, 36.127595699700002 ], [ -115.1538039, 36.127598399699998 ], [ -115.1538012, 36.127598399699998 ], [ -115.1538012, 36.127601099700001 ], [ -115.1537985, 36.127601099700001 ], [ -115.1537985, 36.127614599700003 ], [ -115.1537904, 36.127614599700003 ], [ -115.1537904, 36.127622699699998 ], [ -115.1537877, 36.127622699699998 ], [ -115.1537877, 36.127628099700004 ], [ -115.153785, 36.127628099700004 ], [ -115.153785, 36.1276307997 ], [ -115.1537823, 36.1276307997 ], [ -115.1537823, 36.127633499700003 ], [ -115.153776900000011, 36.127633499700003 ], [ -115.153776900000011, 36.1276307997 ], [ -115.1537715, 36.1276307997 ], [ -115.1537715, 36.127628099700004 ], [ -115.1537607, 36.127628099700004 ], [ -115.1537607, 36.1276307997 ], [ -115.1537553, 36.1276307997 ], [ -115.1537553, 36.127633499700003 ], [ -115.1537499, 36.127633499700003 ], [ -115.1537499, 36.1276361997 ], [ -115.1537445, 36.1276361997 ], [ -115.1537445, 36.127638899700003 ], [ -115.153731, 36.127638899700003 ], [ -115.153731, 36.127641599699999 ], [ -115.1537013, 36.127641599699999 ], [ -115.1537013, 36.127644299700002 ], [ -115.1536797, 36.127644299700002 ], [ -115.1536797, 36.127646999699998 ], [ -115.1536554, 36.127646999699998 ], [ -115.1536554, 36.127649699700001 ], [ -115.1536392, 36.127649699700001 ], [ -115.1536392, 36.127652399700004 ], [ -115.153623, 36.127652399700004 ], [ -115.153623, 36.1276550997 ], [ -115.1536176, 36.1276550997 ], [ -115.1536176, 36.127657799700003 ], [ -115.1536122, 36.127657799700003 ], [ -115.1536122, 36.127660499699999 ], [ -115.1535528, 36.127660499699999 ], [ -115.1535528, 36.127663199700002 ], [ -115.1535258, 36.127663199700002 ], [ -115.1535258, 36.127665899699998 ], [ -115.1535177, 36.127665899699998 ], [ -115.1535177, 36.127668599700002 ], [ -115.153488, 36.127668599700002 ], [ -115.153488, 36.127671299699998 ], [ -115.1534826, 36.127671299699998 ], [ -115.1534826, 36.127673999700001 ], [ -115.1534745, 36.127673999700001 ], [ -115.1534745, 36.127676699700004 ], [ -115.1534691, 36.127676699700004 ], [ -115.1534691, 36.127673999700001 ], [ -115.1534637, 36.127673999700001 ], [ -115.1534637, 36.127671299699998 ], [ -115.1534556, 36.127671299699998 ], [ -115.1534556, 36.127668599700002 ], [ -115.1534502, 36.127668599700002 ], [ -115.1534502, 36.127671299699998 ], [ -115.1534448, 36.127671299699998 ], [ -115.1534448, 36.127665899699998 ], [ -115.1534421, 36.127665899699998 ], [ -115.1534421, 36.127660499699999 ], [ -115.153439400000011, 36.127660499699999 ], [ -115.153439400000011, 36.127644299700002 ], [ -115.1534367, 36.127644299700002 ], [ -115.1534367, 36.127625399700001 ], [ -115.153439400000011, 36.127625399700001 ], [ -115.153439400000011, 36.127622699699998 ], [ -115.1534367, 36.127622699699998 ], [ -115.1534367, 36.127598399699998 ], [ -115.153439400000011, 36.127598399699998 ], [ -115.153439400000011, 36.127592999699999 ], [ -115.1534367, 36.127592999699999 ], [ -115.1534367, 36.127584899700004 ], [ -115.153439400000011, 36.127584899700004 ], [ -115.153439400000011, 36.127501199699999 ], [ -115.1534367, 36.127501199699999 ], [ -115.1534367, 36.127479599700003 ], [ -115.153439400000011, 36.127479599700003 ], [ -115.153439400000011, 36.127468799700004 ], [ -115.1534367, 36.127468799700004 ], [ -115.1534367, 36.127463399699998 ], [ -115.153439400000011, 36.127463399699998 ], [ -115.153439400000011, 36.1274525997 ], [ -115.1534367, 36.1274525997 ], [ -115.1534367, 36.127447199700001 ], [ -115.153439400000011, 36.127447199700001 ], [ -115.153439400000011, 36.1273175997 ], [ -115.1534421, 36.1273175997 ], [ -115.1534421, 36.127306799700001 ], [ -115.153439400000011, 36.127306799700001 ], [ -115.153439400000011, 36.127304099699998 ], [ -115.1534421, 36.127304099699998 ], [ -115.1534421, 36.127266299700004 ], [ -115.1534448, 36.127266299700004 ], [ -115.1534448, 36.127241999700004 ], [ -115.1534475, 36.127241999700004 ], [ -115.1534475, 36.127220399700001 ], [ -115.1534502, 36.127220399700001 ], [ -115.1534502, 36.127212299699998 ], [ -115.1534475, 36.127212299699998 ], [ -115.1534475, 36.127206899699999 ], [ -115.1534448, 36.127206899699999 ], [ -115.1534448, 36.127196099700001 ], [ -115.1534475, 36.127196099700001 ], [ -115.1534475, 36.127193399700005 ], [ -115.1534502, 36.127193399700005 ], [ -115.1534502, 36.127190699700002 ], [ -115.1534556, 36.127190699700002 ], [ -115.1534556, 36.127182599699999 ], [ -115.1534583, 36.127182599699999 ], [ -115.1534583, 36.127179899700003 ], [ -115.1534556, 36.127179899700003 ], [ -115.1534556, 36.127166399700002 ], [ -115.1534529, 36.127166399700002 ], [ -115.1534529, 36.127163699699999 ], [ -115.1534502, 36.127163699699999 ], [ -115.1534502, 36.127155599700004 ], [ -115.1534475, 36.127155599700004 ], [ -115.1534475, 36.127128599700001 ], [ -115.1534502, 36.127128599700001 ], [ -115.1534502, 36.127144799700005 ], [ -115.1534529, 36.127144799700005 ], [ -115.1534529, 36.127139399699999 ], [ -115.1534556, 36.127139399699999 ], [ -115.1534556, 36.127128599700001 ], [ -115.1534529, 36.127128599700001 ], [ -115.1534529, 36.127125899700005 ], [ -115.1534475, 36.127125899700005 ], [ -115.1534475, 36.127123199700002 ], [ -115.1534448, 36.127123199700002 ], [ -115.1534448, 36.127117799700002 ], [ -115.1534421, 36.127117799700002 ], [ -115.1534421, 36.127115099699999 ], [ -115.153439400000011, 36.127115099699999 ], [ -115.153439400000011, 36.127104299700001 ], [ -115.1534367, 36.127104299700001 ], [ -115.1534367, 36.1270421997 ], [ -115.153434, 36.1270421997 ], [ -115.153434, 36.127036799700001 ], [ -115.1534367, 36.127036799700001 ], [ -115.1534367, 36.127004399699999 ], [ -115.153439400000011, 36.127004399699999 ], [ -115.153439400000011, 36.126988199700001 ], [ -115.1534421, 36.126988199700001 ], [ -115.1534421, 36.126971999700004 ], [ -115.1534448, 36.126971999700004 ], [ -115.1534448, 36.126969299700001 ], [ -115.1534529, 36.126969299700001 ], [ -115.1534529, 36.126971999700004 ], [ -115.1534637, 36.126971999700004 ], [ -115.1534637, 36.1269746997 ], [ -115.1534799, 36.1269746997 ], [ -115.1534799, 36.126977399700003 ], [ -115.1534934, 36.126977399700003 ], [ -115.1534934, 36.126980099699999 ], [ -115.1535798, 36.126980099699999 ], [ -115.1535798, 36.126977399700003 ], [ -115.1535906, 36.126977399700003 ], [ -115.1535906, 36.1269746997 ], [ -115.15360410000001, 36.1269746997 ], [ -115.15360410000001, 36.126971999700004 ], [ -115.1536257, 36.126971999700004 ], [ -115.1536257, 36.126969299700001 ], [ -115.1536311, 36.126969299700001 ], [ -115.1536311, 36.126966599700005 ], [ -115.1536365, 36.126966599700005 ], [ -115.1536365, 36.126963899700002 ], [ -115.1536392, 36.126963899700002 ], [ -115.1536392, 36.126955799699999 ], [ -115.1536473, 36.126955799699999 ], [ -115.1536473, 36.126953099700003 ], [ -115.1537121, 36.126953099700003 ], [ -115.1537121, 36.1269503997 ], [ -115.1537364, 36.1269503997 ], [ -115.1537364, 36.126947699700004 ], [ -115.1537742, 36.126947699700004 ], [ -115.1537742, 36.126944999700001 ], [ -115.153785, 36.126944999700001 ], [ -115.153785, 36.126942299700005 ], [ -115.1537958, 36.126942299700005 ], [ -115.1537958, 36.126939599700002 ], [ -115.1538012, 36.126939599700002 ], [ -115.1538012, 36.126936899700006 ], [ -115.1538093, 36.126936899700006 ], [ -115.1538093, 36.126934199700003 ], [ -115.153839, 36.126934199700003 ], [ -115.153839, 36.126936899700006 ], [ -115.1538471, 36.126936899700006 ], [ -115.1538471, 36.126942299700005 ], [ -115.15385520000001, 36.126942299700005 ], [ -115.15385520000001, 36.126939599700002 ], [ -115.1538768, 36.126939599700002 ], [ -115.1538768, 36.126942299700005 ], [ -115.1538903, 36.126942299700005 ], [ -115.1538903, 36.126939599700002 ], [ -115.1539146, 36.126939599700002 ], [ -115.1539146, 36.126936899700006 ], [ -115.1539659, 36.126936899700006 ], [ -115.1539659, 36.126934199700003 ], [ -115.153974, 36.126934199700003 ], [ -115.153974, 36.1269314997 ], [ -115.154046900000012, 36.1269314997 ], [ -115.154046900000012, 36.126934199700003 ], [ -115.1540739, 36.126934199700003 ], [ -115.1540739, 36.126936899700006 ], [ -115.1542035, 36.126936899700006 ], [ -115.1542035, 36.126939599700002 ], [ -115.1542332, 36.126939599700002 ], [ -115.1542332, 36.126936899700006 ], [ -115.1542575, 36.126936899700006 ], [ -115.1542575, 36.126939599700002 ], [ -115.1542899, 36.126939599700002 ], [ -115.1542899, 36.126942299700005 ], [ -115.154298, 36.126942299700005 ], [ -115.154298, 36.126944999700001 ], [ -115.1543007, 36.126944999700001 ], [ -115.1543007, 36.126947699700004 ], [ -115.15430880000001, 36.126947699700004 ], [ -115.15430880000001, 36.126944999700001 ], [ -115.1543385, 36.126944999700001 ], [ -115.1543385, 36.126947699700004 ], [ -115.154352, 36.126947699700004 ], [ -115.154352, 36.1269503997 ], [ -115.1543574, 36.1269503997 ], [ -115.1543574, 36.126953099700003 ], [ -115.154365500000011, 36.126953099700003 ], [ -115.154365500000011, 36.1269503997 ], [ -115.1543682, 36.1269503997 ], [ -115.1543682, 36.126953099700003 ], [ -115.1543898, 36.126953099700003 ], [ -115.1543898, 36.126955799699999 ], [ -115.1543979, 36.126955799699999 ], [ -115.1543979, 36.126958499700002 ], [ -115.1544114, 36.126958499700002 ], [ -115.1544114, 36.126955799699999 ], [ -115.1544384, 36.126955799699999 ], [ -115.1544384, 36.126953099700003 ], [ -115.15444380000001, 36.126953099700003 ], [ -115.15444380000001, 36.126955799699999 ], [ -115.1544573, 36.126955799699999 ], [ -115.1544573, 36.126953099700003 ], [ -115.1544735, 36.126953099700003 ], [ -115.1544735, 36.126955799699999 ], [ -115.1545275, 36.126955799699999 ], [ -115.1545275, 36.126958499700002 ], [ -115.1545437, 36.126958499700002 ], [ -115.1545437, 36.126961199700006 ], [ -115.1545464, 36.126961199700006 ], [ -115.1545464, 36.126963899700002 ], [ -115.154549100000011, 36.126963899700002 ], [ -115.154549100000011, 36.126969299700001 ], [ -115.1545518, 36.126969299700001 ], [ -115.1545518, 36.1269746997 ], [ -115.1545572, 36.1269746997 ], [ -115.1545572, 36.126977399700003 ], [ -115.15455990000001, 36.126977399700003 ], [ -115.15455990000001, 36.126980099699999 ], [ -115.1545653, 36.126980099699999 ], [ -115.1545653, 36.126982799700002 ], [ -115.154586900000012, 36.126982799700002 ], [ -115.154586900000012, 36.126980099699999 ], [ -115.1546031, 36.126980099699999 ], [ -115.1546031, 36.126985499700005 ], [ -115.1546085, 36.126985499700005 ], [ -115.1546085, 36.126988199700001 ], [ -115.1546328, 36.126988199700001 ], [ -115.1546328, 36.126985499700005 ], [ -115.15464630000001, 36.126985499700005 ], [ -115.15464630000001, 36.126982799700002 ], [ -115.154654400000013, 36.126982799700002 ], [ -115.154654400000013, 36.126980099699999 ], [ -115.1546706, 36.126980099699999 ], [ -115.1546706, 36.126982799700002 ], [ -115.1546733, 36.126982799700002 ], [ -115.1546733, 36.126985499700005 ], [ -115.1546922, 36.126985499700005 ], [ -115.1546922, 36.126988199700001 ], [ -115.1546976, 36.126988199700001 ], [ -115.1546976, 36.1269935997 ], [ -115.1547003, 36.1269935997 ], [ -115.1547003, 36.127001699700003 ], [ -115.1546976, 36.127001699700003 ], [ -115.1546976, 36.127009799700005 ], [ -115.15469490000001, 36.127009799700005 ], [ -115.15469490000001, 36.1270178997 ], [ -115.1546922, 36.1270178997 ], [ -115.1546922, 36.127052999700005 ], [ -115.15469490000001, 36.127052999700005 ], [ -115.15469490000001, 36.1270664997 ], [ -115.1546922, 36.1270664997 ], [ -115.1546922, 36.127106999700004 ], [ -115.15469490000001, 36.127106999700004 ], [ -115.15469490000001, 36.127112399700003 ], [ -115.1546976, 36.127112399700003 ], [ -115.1546976, 36.127117799700002 ], [ -115.1547003, 36.127117799700002 ], [ -115.1547003, 36.127139399699999 ], [ -115.1546976, 36.127139399699999 ], [ -115.1546976, 36.1271528997 ], [ -115.15469490000001, 36.1271528997 ], [ -115.15469490000001, 36.1271582997 ], [ -115.1546922, 36.1271582997 ], [ -115.1546922, 36.127166399700002 ], [ -115.1546895, 36.127166399700002 ], [ -115.1546895, 36.1271771997 ], [ -115.1546868, 36.1271771997 ], [ -115.1546868, 36.127179899700003 ], [ -115.154684100000011, 36.127179899700003 ], [ -115.154684100000011, 36.1271771997 ], [ -115.1546814, 36.1271771997 ], [ -115.1546814, 36.127179899700003 ], [ -115.1546787, 36.127179899700003 ], [ -115.1546787, 36.127185299700002 ], [ -115.154676, 36.127185299700002 ], [ -115.154676, 36.127190699700002 ], [ -115.1546733, 36.127190699700002 ], [ -115.1546733, 36.127193399700005 ], [ -115.1546706, 36.127193399700005 ], [ -115.1546706, 36.1272014997 ], [ -115.1546733, 36.1272014997 ], [ -115.1546733, 36.127204199700003 ], [ -115.154676, 36.127204199700003 ], [ -115.154676, 36.127209599700002 ], [ -115.1546733, 36.127209599700002 ], [ -115.1546733, 36.127236599700005 ], [ -115.1546706, 36.127236599700005 ], [ -115.1546706, 36.127241999700004 ], [ -115.1546679, 36.127241999700004 ], [ -115.1546679, 36.127247399700003 ], [ -115.154665200000011, 36.127247399700003 ], [ -115.154665200000011, 36.127252799700003 ], [ -115.1546625, 36.127252799700003 ], [ -115.1546625, 36.127263599700001 ], [ -115.1546679, 36.127263599700001 ], [ -115.1546679, 36.127347299699998 ], [ -115.154665200000011, 36.127347299699998 ], [ -115.154665200000011, 36.127382399700004 ], [ -115.1546625, 36.127382399700004 ], [ -115.1546625, 36.127417499700002 ], [ -115.1546598, 36.127417499700002 ], [ -115.1546598, 36.1274714997 ], [ -115.1546571, 36.1274714997 ], [ -115.1546571, 36.127549799699999 ], [ -115.154654400000013, 36.127549799699999 ], [ -115.154654400000013, 36.127565999700003 ], [ -115.1546517, 36.127565999700003 ], [ -115.1546517, 36.127590299700003 ], [ -115.15464630000001, 36.127590299700003 ], [ -115.15464630000001, 36.1275875997 ], [ -115.1546382, 36.1275875997 ], [ -115.1546382, 36.127590299700003 ], [ -115.154635500000012, 36.127590299700003 ], [ -115.154635500000012, 36.127598399699998 ], [ -115.1546328, 36.127598399699998 ], [ -115.1546328, 36.127606499700001 ], [ -115.1546301, 36.127606499700001 ], [ -115.1546301, 36.1276118997 ], [ -115.15462740000001, 36.1276118997 ], [ -115.15462740000001, 36.127609199700004 ], [ -115.154622, 36.127609199700004 ], [ -115.154622, 36.1276118997 ], [ -115.154616600000011, 36.1276118997 ], [ -115.154616600000011, 36.127609199700004 ], [ -115.1546139, 36.127609199700004 ], [ -115.1546139, 36.127601099700001 ], [ -115.1546058, 36.127601099700001 ], [ -115.1546058, 36.127603799699997 ], [ -115.1546031, 36.127603799699997 ], [ -115.1546031, 36.1276118997 ], [ -115.1546058, 36.1276118997 ], [ -115.1546058, 36.127614599700003 ], [ -115.1546085, 36.127614599700003 ], [ -115.1546085, 36.127619999700002 ], [ -115.1546058, 36.127619999700002 ], [ -115.1546058, 36.127625399700001 ], [ -115.1546031, 36.127625399700001 ], [ -115.1546031, 36.127628099700004 ], [ -115.1546004, 36.127628099700004 ], [ -115.1546004, 36.1276307997 ], [ -115.154597700000011, 36.1276307997 ], [ -115.154597700000011, 36.127633499700003 ], [ -115.154595, 36.127633499700003 ], [ -115.154595, 36.127638899700003 ], [ -115.1545923, 36.127638899700003 ], [ -115.1545923, 36.127644299700002 ], [ -115.1545761, 36.127644299700002 ], [ -115.1545761, 36.127646999699998 ], [ -115.154568, 36.127646999699998 ], [ -115.154568, 36.127649699700001 ], [ -115.1545653, 36.127649699700001 ], [ -115.1545653, 36.127652399700004 ], [ -115.15455990000001, 36.127652399700004 ], [ -115.15455990000001, 36.1276550997 ], [ -115.1545518, 36.1276550997 ], [ -115.1545518, 36.127652399700004 ], [ -115.154549100000011, 36.127652399700004 ], [ -115.154549100000011, 36.127644299700002 ], [ -115.1545464, 36.127644299700002 ], [ -115.1545464, 36.1276307997 ], [ -115.1545437, 36.1276307997 ], [ -115.1545437, 36.127622699699998 ], [ -115.1545464, 36.127622699699998 ], [ -115.1545464, 36.127619999700002 ], [ -115.154549100000011, 36.127619999700002 ], [ -115.154549100000011, 36.127622699699998 ], [ -115.1545545, 36.127622699699998 ], [ -115.1545545, 36.127625399700001 ], [ -115.1545572, 36.127625399700001 ], [ -115.1545572, 36.127622699699998 ], [ -115.15455990000001, 36.127622699699998 ], [ -115.15455990000001, 36.127614599700003 ], [ -115.1545572, 36.127614599700003 ], [ -115.1545572, 36.1276118997 ], [ -115.1545545, 36.1276118997 ], [ -115.1545545, 36.127609199700004 ], [ -115.154549100000011, 36.127609199700004 ], [ -115.154549100000011, 36.127606499700001 ], [ -115.1545437, 36.127606499700001 ], [ -115.1545437, 36.127609199700004 ], [ -115.1545356, 36.127609199700004 ], [ -115.1545356, 36.1276118997 ], [ -115.154530200000011, 36.1276118997 ], [ -115.154530200000011, 36.127614599700003 ], [ -115.1545275, 36.127614599700003 ], [ -115.1545275, 36.127619999700002 ], [ -115.1545221, 36.127619999700002 ], [ -115.1545221, 36.127622699699998 ], [ -115.154519400000012, 36.127622699699998 ], [ -115.154519400000012, 36.127625399700001 ], [ -115.154514, 36.127625399700001 ], [ -115.154514, 36.127628099700004 ], [ -115.1545059, 36.127628099700004 ], [ -115.1545059, 36.1276307997 ], [ -115.1545032, 36.1276307997 ], [ -115.1545032, 36.127633499700003 ], [ -115.154500500000012, 36.127633499700003 ], [ -115.154500500000012, 36.1276361997 ], [ -115.1544978, 36.1276361997 ], [ -115.1544978, 36.127638899700003 ], [ -115.1544951, 36.127638899700003 ], [ -115.1544951, 36.127641599699999 ], [ -115.1544924, 36.127641599699999 ], [ -115.1544924, 36.127644299700002 ], [ -115.154487, 36.127644299700002 ], [ -115.154487, 36.127646999699998 ], [ -115.1544789, 36.127646999699998 ], [ -115.1544789, 36.127644299700002 ], [ -115.1544735, 36.127644299700002 ], [ -115.1544735, 36.127641599699999 ], [ -115.1544708, 36.127641599699999 ], [ -115.1544708, 36.127638899700003 ], [ -115.1544681, 36.127638899700003 ], [ -115.1544681, 36.1276361997 ], [ -115.1544654, 36.1276361997 ], [ -115.1544654, 36.127633499700003 ], [ -115.15446, 36.127633499700003 ], [ -115.15446, 36.1276307997 ], [ -115.154451900000012, 36.1276307997 ], [ -115.154451900000012, 36.127628099700004 ], [ -115.1544465, 36.127628099700004 ], [ -115.1544465, 36.127625399700001 ], [ -115.15444380000001, 36.127625399700001 ], [ -115.15444380000001, 36.127622699699998 ], [ -115.1544384, 36.127622699699998 ], [ -115.1544384, 36.127625399700001 ], [ -115.154433, 36.127625399700001 ], [ -115.154433, 36.1276307997 ], [ -115.1544303, 36.1276307997 ], [ -115.1544303, 36.1276361997 ], [ -115.1544276, 36.1276361997 ], [ -115.1544276, 36.127641599699999 ], [ -115.1544249, 36.127641599699999 ], [ -115.1544249, 36.127644299700002 ], [ -115.1544222, 36.127644299700002 ], [ -115.1544222, 36.127641599699999 ], [ -115.154414100000011, 36.127641599699999 ], [ -115.154414100000011, 36.127644299700002 ], [ -115.1544114, 36.127644299700002 ], [ -115.1544114, 36.127646999699998 ], [ -115.1544087, 36.127646999699998 ], [ -115.1544087, 36.127649699700001 ], [ -115.154406, 36.127649699700001 ], [ -115.154406, 36.127652399700004 ], [ -115.1544033, 36.127652399700004 ], [ -115.1544033, 36.1276550997 ], [ -115.154379, 36.1276550997 ], [ -115.154379, 36.127652399700004 ], [ -115.154365500000011, 36.127652399700004 ], [ -115.154365500000011, 36.1276550997 ], [ -115.154346600000011, 36.1276550997 ], [ -115.154346600000011, 36.127657799700003 ], [ -115.1543439, 36.127657799700003 ], [ -115.1543439, 36.127660499699999 ], [ -115.1543412, 36.127660499699999 ], [ -115.1543412, 36.127663199700002 ], [ -115.1543358, 36.127663199700002 ], [ -115.1543358, 36.127668599700002 ], [ -115.1543331, 36.127668599700002 ], [ -115.1543331, 36.127671299699998 ], [ -115.1543304, 36.127671299699998 ], [ -115.1543304, 36.127668599700002 ], [ -115.1543223, 36.127668599700002 ], [ -115.1543223, 36.127671299699998 ], [ -115.154316900000012, 36.127671299699998 ], [ -115.154316900000012, 36.127668599700002 ], [ -115.1543142, 36.127668599700002 ], [ -115.1543142, 36.127671299699998 ], [ -115.1542521, 36.127671299699998 ], [ -115.1542521, 36.127673999700001 ], [ -115.15424130000001, 36.127673999700001 ], [ -115.15424130000001, 36.127676699700004 ], [ -115.1542359, 36.127676699700004 ], [ -115.1542359, 36.127673999700001 ], [ -115.1542008, 36.127673999700001 ], [ -115.1542008, 36.127671299699998 ], [ -115.1541873, 36.127671299699998 ], [ -115.1541873, 36.127673999700001 ], [ -115.1541792, 36.127673999700001 ], [ -115.1541792, 36.127676699700004 ], [ -115.1541549, 36.127676699700004 ], [ -115.1541549, 36.1276793997 ], [ -115.1541387, 36.1276793997 ], [ -115.1541387, 36.127682099700003 ], [ -115.1541279, 36.127682099700003 ], [ -115.1541279, 36.1276793997 ], [ -115.1541225, 36.1276793997 ], [ -115.1541225, 36.127676699700004 ], [ -115.1541117, 36.127676699700004 ], [ -115.1541117, 36.127673999700001 ], [ -115.1541063, 36.127673999700001 ], [ -115.1541063, 36.127671299699998 ], [ -115.1540901, 36.127671299699998 ], [ -115.1540901, 36.127673999700001 ], [ -115.1540631, 36.127673999700001 ], [ -115.1540631, 36.127676699700004 ], [ -115.154046900000012, 36.127676699700004 ], [ -115.154046900000012, 36.1276793997 ], [ -115.154028, 36.1276793997 ], [ -115.154028, 36.127682099700003 ], [ -115.154001, 36.127682099700003 ], [ -115.154001, 36.1276793997 ], [ -115.1539929, 36.1276793997 ], [ -115.1539929, 36.127676699700004 ], [ -115.1539848, 36.127676699700004 ], [ -115.1539848, 36.1276793997 ], [ -115.153979400000011, 36.1276793997 ], [ -115.153979400000011, 36.127676699700004 ], [ -115.153974, 36.127676699700004 ], [ -115.153974, 36.127673999700001 ], [ -115.1539632, 36.127673999700001 ], [ -115.1539632, 36.1276793997 ], [ -115.153960500000011, 36.1276793997 ], [ -115.153960500000011, 36.127682099700003 ], [ -115.1539551, 36.127682099700003 ], [ -115.1539551, 36.127684799699999 ], [ -115.1539524, 36.127684799699999 ], [ -115.1539524, 36.127682099700003 ], [ -115.1539092, 36.127682099700003 ], [ -115.1539092, 36.1276793997 ], [ -115.1539065, 36.1276793997 ], [ -115.1539065, 36.127676699700004 ], [ -115.1538984, 36.127676699700004 ], [ -115.1538984, 36.1276793997 ], [ -115.1538957, 36.1276793997 ], [ -115.1538957, 36.127687499700002 ] ], [ [ -115.1534556, 36.127233899700002 ], [ -115.1534556, 36.127228499700003 ], [ -115.1534529, 36.127228499700003 ], [ -115.1534529, 36.127233899700002 ], [ -115.1534556, 36.127233899700002 ] ], [ [ -115.1536824, 36.126966599700005 ], [ -115.1536824, 36.126963899700002 ], [ -115.153677, 36.126963899700002 ], [ -115.153677, 36.126966599700005 ], [ -115.1536824, 36.126966599700005 ] ], [ [ -115.1538606, 36.127555199699998 ], [ -115.1538606, 36.127549799699999 ], [ -115.1538579, 36.127549799699999 ], [ -115.1538579, 36.127547099700003 ], [ -115.15385520000001, 36.127547099700003 ], [ -115.15385520000001, 36.127549799699999 ], [ -115.1538525, 36.127549799699999 ], [ -115.1538525, 36.127552499700002 ], [ -115.15385520000001, 36.127552499700002 ], [ -115.15385520000001, 36.127555199699998 ], [ -115.1538606, 36.127555199699998 ] ], [ [ -115.1543574, 36.127279799699998 ], [ -115.1543574, 36.127277099700002 ], [ -115.1543628, 36.127277099700002 ], [ -115.1543628, 36.127274399699999 ], [ -115.1543682, 36.127274399699999 ], [ -115.1543682, 36.127271699700003 ], [ -115.1543709, 36.127271699700003 ], [ -115.1543709, 36.127266299700004 ], [ -115.1543736, 36.127266299700004 ], [ -115.1543736, 36.127263599700001 ], [ -115.15437630000001, 36.127263599700001 ], [ -115.15437630000001, 36.127260899700005 ], [ -115.154379, 36.127260899700005 ], [ -115.154379, 36.127241999700004 ], [ -115.1543817, 36.127241999700004 ], [ -115.1543817, 36.127239299700001 ], [ -115.154384400000012, 36.127239299700001 ], [ -115.154384400000012, 36.127223099700004 ], [ -115.1543871, 36.127223099700004 ], [ -115.1543871, 36.127217699700005 ], [ -115.1543898, 36.127217699700005 ], [ -115.1543898, 36.1272014997 ], [ -115.1543925, 36.1272014997 ], [ -115.1543925, 36.127198799700004 ], [ -115.1543898, 36.127198799700004 ], [ -115.1543898, 36.127190699700002 ], [ -115.1543925, 36.127190699700002 ], [ -115.1543925, 36.127171799700001 ], [ -115.15439520000001, 36.127171799700001 ], [ -115.15439520000001, 36.127166399700002 ], [ -115.1543979, 36.127166399700002 ], [ -115.1543979, 36.127160999700003 ], [ -115.15439520000001, 36.127160999700003 ], [ -115.15439520000001, 36.127150199700004 ], [ -115.1543979, 36.127150199700004 ], [ -115.1543979, 36.127123199700002 ], [ -115.1544006, 36.127123199700002 ], [ -115.1544006, 36.127120499700005 ], [ -115.1544033, 36.127120499700005 ], [ -115.1544033, 36.127112399700003 ], [ -115.1544006, 36.127112399700003 ], [ -115.1544006, 36.127104299700001 ], [ -115.1543979, 36.127104299700001 ], [ -115.1543979, 36.127101599700005 ], [ -115.1543898, 36.127101599700005 ], [ -115.1543898, 36.127098899700002 ], [ -115.154384400000012, 36.127098899700002 ], [ -115.154384400000012, 36.127096199699999 ], [ -115.1543547, 36.127096199699999 ], [ -115.1543547, 36.127098899700002 ], [ -115.154352, 36.127098899700002 ], [ -115.154352, 36.127101599700005 ], [ -115.154346600000011, 36.127101599700005 ], [ -115.154346600000011, 36.127104299700001 ], [ -115.15432770000001, 36.127104299700001 ], [ -115.15432770000001, 36.127101599700005 ], [ -115.1543196, 36.127101599700005 ], [ -115.1543196, 36.127098899700002 ], [ -115.1543007, 36.127098899700002 ], [ -115.1543007, 36.127101599700005 ], [ -115.1542845, 36.127101599700005 ], [ -115.1542845, 36.127104299700001 ], [ -115.1542764, 36.127104299700001 ], [ -115.1542764, 36.127101599700005 ], [ -115.154271, 36.127101599700005 ], [ -115.154271, 36.127098899700002 ], [ -115.1542683, 36.127098899700002 ], [ -115.1542683, 36.127090799699999 ], [ -115.1542656, 36.127090799699999 ], [ -115.1542656, 36.127088099700003 ], [ -115.15424130000001, 36.127088099700003 ], [ -115.15424130000001, 36.127090799699999 ], [ -115.1542386, 36.127090799699999 ], [ -115.1542386, 36.127093499700003 ], [ -115.1542359, 36.127093499700003 ], [ -115.1542359, 36.127096199699999 ], [ -115.1542332, 36.127096199699999 ], [ -115.1542332, 36.127093499700003 ], [ -115.154230500000011, 36.127093499700003 ], [ -115.154230500000011, 36.1270853997 ], [ -115.1542224, 36.1270853997 ], [ -115.1542224, 36.127090799699999 ], [ -115.1542197, 36.127090799699999 ], [ -115.1542197, 36.127096199699999 ], [ -115.1542224, 36.127096199699999 ], [ -115.1542224, 36.127106999700004 ], [ -115.1542197, 36.127106999700004 ], [ -115.1542197, 36.1271096997 ], [ -115.1542224, 36.1271096997 ], [ -115.1542224, 36.127120499700005 ], [ -115.1542197, 36.127120499700005 ], [ -115.1542197, 36.127123199700002 ], [ -115.1542143, 36.127123199700002 ], [ -115.1542143, 36.127120499700005 ], [ -115.1542089, 36.127120499700005 ], [ -115.1542089, 36.127125899700005 ], [ -115.1542062, 36.127125899700005 ], [ -115.1542062, 36.127128599700001 ], [ -115.1542008, 36.127128599700001 ], [ -115.1542008, 36.127123199700002 ], [ -115.1541981, 36.127123199700002 ], [ -115.1541981, 36.1271096997 ], [ -115.1541954, 36.1271096997 ], [ -115.1541954, 36.127104299700001 ], [ -115.15419270000001, 36.127104299700001 ], [ -115.15419270000001, 36.127101599700005 ], [ -115.15419, 36.127101599700005 ], [ -115.15419, 36.127098899700002 ], [ -115.1541873, 36.127098899700002 ], [ -115.1541873, 36.127093499700003 ], [ -115.1541846, 36.127093499700003 ], [ -115.1541846, 36.1271096997 ], [ -115.154181900000012, 36.1271096997 ], [ -115.154181900000012, 36.127115099699999 ], [ -115.1541792, 36.127115099699999 ], [ -115.1541792, 36.1271339997 ], [ -115.1541765, 36.1271339997 ], [ -115.1541765, 36.127169099700005 ], [ -115.1541792, 36.127169099700005 ], [ -115.1541792, 36.127204199700003 ], [ -115.154181900000012, 36.127204199700003 ], [ -115.154181900000012, 36.127209599700002 ], [ -115.1541846, 36.127209599700002 ], [ -115.1541846, 36.127212299699998 ], [ -115.1541873, 36.127212299699998 ], [ -115.1541873, 36.127214999700001 ], [ -115.15419, 36.127214999700001 ], [ -115.15419, 36.127212299699998 ], [ -115.15419270000001, 36.127212299699998 ], [ -115.15419270000001, 36.127209599700002 ], [ -115.1541954, 36.127209599700002 ], [ -115.1541954, 36.127206899699999 ], [ -115.1541981, 36.127206899699999 ], [ -115.1541981, 36.127204199700003 ], [ -115.1542008, 36.127204199700003 ], [ -115.1542008, 36.127206899699999 ], [ -115.1542035, 36.127206899699999 ], [ -115.1542035, 36.127209599700002 ], [ -115.1542062, 36.127209599700002 ], [ -115.1542062, 36.127212299699998 ], [ -115.1542089, 36.127212299699998 ], [ -115.1542089, 36.127209599700002 ], [ -115.1542143, 36.127209599700002 ], [ -115.1542143, 36.127212299699998 ], [ -115.154217, 36.127212299699998 ], [ -115.154217, 36.127214999700001 ], [ -115.1542197, 36.127214999700001 ], [ -115.1542197, 36.127220399700001 ], [ -115.1542224, 36.127220399700001 ], [ -115.1542224, 36.1272257997 ], [ -115.1542251, 36.1272257997 ], [ -115.1542251, 36.127236599700005 ], [ -115.1542278, 36.127236599700005 ], [ -115.1542278, 36.127239299700001 ], [ -115.154230500000011, 36.127239299700001 ], [ -115.154230500000011, 36.127241999700004 ], [ -115.1542332, 36.127241999700004 ], [ -115.1542332, 36.1272446997 ], [ -115.1542359, 36.1272446997 ], [ -115.1542359, 36.127250099699999 ], [ -115.1542386, 36.127250099699999 ], [ -115.1542386, 36.127255499699999 ], [ -115.154249400000012, 36.127255499699999 ], [ -115.154249400000012, 36.127258199700002 ], [ -115.15426020000001, 36.127258199700002 ], [ -115.15426020000001, 36.127255499699999 ], [ -115.1542656, 36.127255499699999 ], [ -115.1542656, 36.127258199700002 ], [ -115.1542683, 36.127258199700002 ], [ -115.1542683, 36.127266299700004 ], [ -115.154271, 36.127266299700004 ], [ -115.154271, 36.1272689997 ], [ -115.1542737, 36.1272689997 ], [ -115.1542737, 36.127274399699999 ], [ -115.1542764, 36.127274399699999 ], [ -115.1542764, 36.127271699700003 ], [ -115.154279100000011, 36.127271699700003 ], [ -115.154279100000011, 36.127258199700002 ], [ -115.1542818, 36.127258199700002 ], [ -115.1542818, 36.127260899700005 ], [ -115.1542845, 36.127260899700005 ], [ -115.1542845, 36.127263599700001 ], [ -115.1542872, 36.127263599700001 ], [ -115.1542872, 36.127266299700004 ], [ -115.1542899, 36.127266299700004 ], [ -115.1542899, 36.1272689997 ], [ -115.1542926, 36.1272689997 ], [ -115.1542926, 36.127271699700003 ], [ -115.1542953, 36.127271699700003 ], [ -115.1542953, 36.127277099700002 ], [ -115.1543007, 36.127277099700002 ], [ -115.1543007, 36.127274399699999 ], [ -115.1543061, 36.127274399699999 ], [ -115.1543061, 36.1272689997 ], [ -115.15430880000001, 36.1272689997 ], [ -115.15430880000001, 36.127266299700004 ], [ -115.154316900000012, 36.127266299700004 ], [ -115.154316900000012, 36.1272689997 ], [ -115.15432770000001, 36.1272689997 ], [ -115.15432770000001, 36.127266299700004 ], [ -115.1543304, 36.127266299700004 ], [ -115.1543304, 36.127274399699999 ], [ -115.1543331, 36.127274399699999 ], [ -115.1543331, 36.127277099700002 ], [ -115.1543358, 36.127277099700002 ], [ -115.1543358, 36.127279799699998 ], [ -115.1543574, 36.127279799699998 ] ], [ [ -115.1541954, 36.127096199699999 ], [ -115.1541954, 36.127093499700003 ], [ -115.15419270000001, 36.127093499700003 ], [ -115.15419270000001, 36.127096199699999 ], [ -115.1541954, 36.127096199699999 ] ], [ [ -115.154406, 36.127144799700005 ], [ -115.154406, 36.127142099700002 ], [ -115.1544033, 36.127142099700002 ], [ -115.1544033, 36.127144799700005 ], [ -115.154406, 36.127144799700005 ] ], [ [ -115.1544033, 36.127144799700005 ], [ -115.1544006, 36.127144799700005 ], [ -115.1544006, 36.127147499700001 ], [ -115.1544033, 36.127147499700001 ], [ -115.1544033, 36.127144799700005 ] ], [ [ -115.1545842, 36.127633499700003 ], [ -115.1545842, 36.1276307997 ], [ -115.1545815, 36.1276307997 ], [ -115.1545815, 36.127633499700003 ], [ -115.1545842, 36.127633499700003 ] ] ] } },
{ "type": "Feature", "properties": { "value": 255.0 }, "geometry": { "type": "Polygon", "coordinates": [ [ [ -115.1546895, 36.1266803997 ], [ -115.154654400000013, 36.1266803997 ], [ -115.154654400000013, 36.126677699700004 ], [ -115.154635500000012, 36.126677699700004 ], [ -115.154635500000012, 36.126674999700001 ], [ -115.154616600000011, 36.126674999700001 ], [ -115.154616600000011, 36.126672299700004 ], [ -115.1546085, 36.126672299700004 ], [ -115.1546085, 36.126669599700001 ], [ -115.1545707, 36.126669599700001 ], [ -115.1545707, 36.126666899700005 ], [ -115.1545518, 36.126666899700005 ], [ -115.1545518, 36.126664199700002 ], [ -115.1545437, 36.126664199700002 ], [ -115.1545437, 36.126661499700006 ], [ -115.154500500000012, 36.126661499700006 ], [ -115.154500500000012, 36.126658799700003 ], [ -115.1544843, 36.126658799700003 ], [ -115.1544843, 36.1266560997 ], [ -115.15446, 36.1266560997 ], [ -115.15446, 36.126653399700004 ], [ -115.1544411, 36.126653399700004 ], [ -115.1544411, 36.126650699700001 ], [ -115.1544006, 36.126650699700001 ], [ -115.1544006, 36.126647999700005 ], [ -115.15437630000001, 36.126647999700005 ], [ -115.15437630000001, 36.126645299700002 ], [ -115.154352, 36.126645299700002 ], [ -115.154352, 36.126642599700006 ], [ -115.1543358, 36.126642599700006 ], [ -115.1543358, 36.126639899700002 ], [ -115.1543196, 36.126639899700002 ], [ -115.1543196, 36.126637199700006 ], [ -115.1542926, 36.126637199700006 ], [ -115.1542926, 36.126634499700003 ], [ -115.1542764, 36.126634499700003 ], [ -115.1542764, 36.1266317997 ], [ -115.1542548, 36.1266317997 ], [ -115.1542548, 36.126629099700004 ], [ -115.1542332, 36.126629099700004 ], [ -115.1542332, 36.126626399700001 ], [ -115.1542197, 36.126626399700001 ], [ -115.1542197, 36.126623699700005 ], [ -115.1542035, 36.126623699700005 ], [ -115.1542035, 36.126620999700002 ], [ -115.15419, 36.126620999700002 ], [ -115.15419, 36.126618299700006 ], [ -115.1541738, 36.126618299700006 ], [ -115.1541738, 36.126615599700003 ], [ -115.1541495, 36.126615599700003 ], [ -115.1541495, 36.126612899700007 ], [ -115.15412520000001, 36.126612899700007 ], [ -115.15412520000001, 36.126610199700004 ], [ -115.1540982, 36.126610199700004 ], [ -115.1540982, 36.1266074997 ], [ -115.154082, 36.1266074997 ], [ -115.154082, 36.126604799700004 ], [ -115.1540712, 36.126604799700004 ], [ -115.1540712, 36.126602099700001 ], [ -115.1540523, 36.126602099700001 ], [ -115.1540523, 36.126599399700005 ], [ -115.1540253, 36.126599399700005 ], [ -115.1540253, 36.126596699700002 ], [ -115.1540037, 36.126596699700002 ], [ -115.1540037, 36.126593999700006 ], [ -115.1539848, 36.126593999700006 ], [ -115.1539848, 36.126591299700003 ], [ -115.1539497, 36.126591299700003 ], [ -115.1539497, 36.1265885997 ], [ -115.1539443, 36.1265885997 ], [ -115.1539443, 36.126591299700003 ], [ -115.1539146, 36.126591299700003 ], [ -115.1539146, 36.126593999700006 ], [ -115.153893, 36.126593999700006 ], [ -115.153893, 36.126596699700002 ], [ -115.1538714, 36.126596699700002 ], [ -115.1538714, 36.126599399700005 ], [ -115.1538525, 36.126599399700005 ], [ -115.1538525, 36.126602099700001 ], [ -115.1538363, 36.126602099700001 ], [ -115.1538363, 36.126604799700004 ], [ -115.1538201, 36.126604799700004 ], [ -115.1538201, 36.1266074997 ], [ -115.1538039, 36.1266074997 ], [ -115.1538039, 36.126610199700004 ], [ -115.1537904, 36.126610199700004 ], [ -115.1537904, 36.126612899700007 ], [ -115.153776900000011, 36.126612899700007 ], [ -115.153776900000011, 36.126615599700003 ], [ -115.1537634, 36.126615599700003 ], [ -115.1537634, 36.126618299700006 ], [ -115.1537499, 36.126618299700006 ], [ -115.1537499, 36.126620999700002 ], [ -115.1537364, 36.126620999700002 ], [ -115.1537364, 36.126623699700005 ], [ -115.1537202, 36.126623699700005 ], [ -115.1537202, 36.126626399700001 ], [ -115.1536986, 36.126626399700001 ], [ -115.1536986, 36.126629099700004 ], [ -115.1536851, 36.126629099700004 ], [ -115.1536851, 36.1266317997 ], [ -115.1536581, 36.1266317997 ], [ -115.1536581, 36.126634499700003 ], [ -115.153641900000011, 36.126634499700003 ], [ -115.153641900000011, 36.126637199700006 ], [ -115.1536257, 36.126637199700006 ], [ -115.1536257, 36.126639899700002 ], [ -115.1536122, 36.126639899700002 ], [ -115.1536122, 36.126642599700006 ], [ -115.1535987, 36.126642599700006 ], [ -115.1535987, 36.126645299700002 ], [ -115.1535852, 36.126645299700002 ], [ -115.1535852, 36.126647999700005 ], [ -115.1535663, 36.126647999700005 ], [ -115.1535663, 36.126650699700001 ], [ -115.1535501, 36.126650699700001 ], [ -115.1535501, 36.126653399700004 ], [ -115.1535312, 36.126653399700004 ], [ -115.1535312, 36.1266560997 ], [ -115.1535123, 36.1266560997 ], [ -115.1535123, 36.126658799700003 ], [ -115.1534961, 36.126658799700003 ], [ -115.1534961, 36.126661499700006 ], [ -115.1534826, 36.126661499700006 ], [ -115.1534826, 36.126664199700002 ], [ -115.1534691, 36.126664199700002 ], [ -115.1534691, 36.126666899700005 ], [ -115.1534529, 36.126666899700005 ], [ -115.1534529, 36.126669599700001 ], [ -115.1534313, 36.126669599700001 ], [ -115.1534313, 36.126666899700005 ], [ -115.1534151, 36.126666899700005 ], [ -115.1534151, 36.126664199700002 ], [ -115.1534097, 36.126664199700002 ], [ -115.1534097, 36.1266560997 ], [ -115.153407, 36.1266560997 ], [ -115.153407, 36.126653399700004 ], [ -115.1534016, 36.126653399700004 ], [ -115.1534016, 36.126650699700001 ], [ -115.1534043, 36.126650699700001 ], [ -115.1534043, 36.126642599700006 ], [ -115.153407, 36.126642599700006 ], [ -115.153407, 36.126637199700006 ], [ -115.1534097, 36.126637199700006 ], [ -115.1534097, 36.126615599700003 ], [ -115.153407, 36.126615599700003 ], [ -115.153407, 36.126604799700004 ], [ -115.1534043, 36.126604799700004 ], [ -115.1534043, 36.126599399700005 ], [ -115.1534016, 36.126599399700005 ], [ -115.1534016, 36.1265885997 ], [ -115.1533989, 36.1265885997 ], [ -115.1533989, 36.126577799700001 ], [ -115.1533962, 36.126577799700001 ], [ -115.1533962, 36.126566999700003 ], [ -115.1533989, 36.126566999700003 ], [ -115.1533989, 36.1265642997 ], [ -115.1534016, 36.1265642997 ], [ -115.1534016, 36.126556199700005 ], [ -115.1533962, 36.126556199700005 ], [ -115.1533962, 36.126550799700006 ], [ -115.1533989, 36.126550799700006 ], [ -115.1533989, 36.126548099700003 ], [ -115.1534016, 36.126548099700003 ], [ -115.1534016, 36.126545399700007 ], [ -115.1534286, 36.126545399700007 ], [ -115.1534286, 36.126542699700003 ], [ -115.1534502, 36.126542699700003 ], [ -115.1534502, 36.126548099700003 ], [ -115.1534556, 36.126548099700003 ], [ -115.1534556, 36.126545399700007 ], [ -115.1534853, 36.126545399700007 ], [ -115.1534853, 36.126542699700003 ], [ -115.154676, 36.126542699700003 ], [ -115.154676, 36.126548099700003 ], [ -115.1546787, 36.126548099700003 ], [ -115.1546787, 36.126561599700004 ], [ -115.1546814, 36.126561599700004 ], [ -115.1546814, 36.126569699700006 ], [ -115.1546787, 36.126569699700006 ], [ -115.1546787, 36.126572399700002 ], [ -115.1546814, 36.126572399700002 ], [ -115.1546814, 36.126577799700001 ], [ -115.154676, 36.126577799700001 ], [ -115.154676, 36.126580499700005 ], [ -115.1546787, 36.126580499700005 ], [ -115.1546787, 36.126610199700004 ], [ -115.1546814, 36.126610199700004 ], [ -115.1546814, 36.126618299700006 ], [ -115.154684100000011, 36.126618299700006 ], [ -115.154684100000011, 36.126620999700002 ], [ -115.1546895, 36.126620999700002 ], [ -115.1546895, 36.126626399700001 ], [ -115.1546922, 36.126626399700001 ], [ -115.1546922, 36.1266317997 ], [ -115.15469490000001, 36.1266317997 ], [ -115.15469490000001, 36.126637199700006 ], [ -115.1546976, 36.126637199700006 ], [ -115.1546976, 36.126653399700004 ], [ -115.1547003, 36.126653399700004 ], [ -115.1547003, 36.126658799700003 ], [ -115.1546976, 36.126658799700003 ], [ -115.1546976, 36.126672299700004 ], [ -115.15469490000001, 36.126672299700004 ], [ -115.15469490000001, 36.126674999700001 ], [ -115.1546922, 36.126674999700001 ], [ -115.1546922, 36.126677699700004 ], [ -115.1546895, 36.126677699700004 ], [ -115.1546895, 36.1266803997 ] ] ] } },
{ "type": "Feature", "properties": { "value": 255.0 }, "geometry": { "type": "Polygon", "coordinates": [ [ [ -115.1532477, 36.126701999700003 ], [ -115.1532261, 36.126701999700003 ], [ -115.1532261, 36.1266992997 ], [ -115.1532234, 36.1266992997 ], [ -115.1532234, 36.126693899700001 ], [ -115.1532207, 36.126693899700001 ], [ -115.1532207, 36.126688499700002 ], [ -115.153218, 36.126688499700002 ], [ -115.153218, 36.126674999700001 ], [ -115.1532153, 36.126674999700001 ], [ -115.1532153, 36.126669599700001 ], [ -115.1532126, 36.126669599700001 ], [ -115.1532126, 36.1266560997 ], [ -115.1532099, 36.1266560997 ], [ -115.1532099, 36.1266317997 ], [ -115.1532072, 36.1266317997 ], [ -115.1532072, 36.126583199700001 ], [ -115.1532099, 36.126583199700001 ], [ -115.1532099, 36.126566999700003 ], [ -115.1532126, 36.126566999700003 ], [ -115.1532126, 36.126542699700003 ], [ -115.1533314, 36.126542699700003 ], [ -115.1533314, 36.126545399700007 ], [ -115.1533341, 36.126545399700007 ], [ -115.1533341, 36.126556199700005 ], [ -115.1533314, 36.126556199700005 ], [ -115.1533314, 36.126558899700001 ], [ -115.1533341, 36.126558899700001 ], [ -115.1533341, 36.126561599700004 ], [ -115.1533368, 36.126561599700004 ], [ -115.1533368, 36.126569699700006 ], [ -115.1533341, 36.126569699700006 ], [ -115.1533341, 36.126577799700001 ], [ -115.1533368, 36.126577799700001 ], [ -115.1533368, 36.126599399700005 ], [ -115.1533395, 36.126599399700005 ], [ -115.1533395, 36.126618299700006 ], [ -115.1533368, 36.126618299700006 ], [ -115.1533368, 36.126626399700001 ], [ -115.1533395, 36.126626399700001 ], [ -115.1533395, 36.1266317997 ], [ -115.1533368, 36.1266317997 ], [ -115.1533368, 36.126639899700002 ], [ -115.1533341, 36.126639899700002 ], [ -115.1533341, 36.126650699700001 ], [ -115.1533368, 36.126650699700001 ], [ -115.1533368, 36.126677699700004 ], [ -115.1533341, 36.126677699700004 ], [ -115.1533341, 36.1266803997 ], [ -115.1533314, 36.1266803997 ], [ -115.1533314, 36.126683099700003 ], [ -115.153326, 36.126683099700003 ], [ -115.153326, 36.126685799700006 ], [ -115.1533152, 36.126685799700006 ], [ -115.1533152, 36.126688499700002 ], [ -115.1533017, 36.126688499700002 ], [ -115.1533017, 36.126691199700005 ], [ -115.15328550000001, 36.126691199700005 ], [ -115.15328550000001, 36.126693899700001 ], [ -115.1532747, 36.126693899700001 ], [ -115.1532747, 36.126696599700004 ], [ -115.1532612, 36.126696599700004 ], [ -115.1532612, 36.1266992997 ], [ -115.1532477, 36.1266992997 ], [ -115.1532477, 36.126701999700003 ] ] ] } }
]
}
