{
"type": "FeatureCollection",
"crs": { "type": "name", "properties": { "name": "urn:ogc:def:crs:OGC:1.3:CRS84" } },
"features": [
{ "type": "Feature", "properties": { "value": 255.0 }, "geometry": { "type": "Polygon", "coordinates": [ [ [ -115.1640126, 36.166907699799999 ], [ -115.1637723, 36.166907699799999 ], [ -115.1637723, 36.1669022998 ], [ -115.163775, 36.1669022998 ], [ -115.163775, 36.166899599799997 ], [ -115.1637723, 36.166899599799997 ], [ -115.1637723, 36.166896899800001 ], [ -115.163777700000011, 36.166896899800001 ], [ -115.163777700000011, 36.166894199799998 ], [ -115.1638101, 36.166894199799998 ], [ -115.1638101, 36.166896899800001 ], [ -115.1638776, 36.166896899800001 ], [ -115.1638776, 36.166894199799998 ], [ -115.1639127, 36.166894199799998 ], [ -115.1639127, 36.166896899800001 ], [ -115.1639802, 36.166896899800001 ], [ -115.1639802, 36.166904999799996 ], [ -115.1639856, 36.166904999799996 ], [ -115.1639856, 36.1669022998 ], [ -115.1639883, 36.1669022998 ], [ -115.1639883, 36.166899599799997 ], [ -115.163991, 36.166899599799997 ], [ -115.163991, 36.166896899800001 ], [ -115.1640072, 36.166896899800001 ], [ -115.1640072, 36.166899599799997 ], [ -115.1640099, 36.166899599799997 ], [ -115.1640099, 36.166904999799996 ], [ -115.1640126, 36.166904999799996 ], [ -115.1640126, 36.166907699799999 ] ], [ [ -115.1640018, 36.1669022998 ], [ -115.1640018, 36.166899599799997 ], [ -115.1639964, 36.166899599799997 ], [ -115.1639964, 36.1669022998 ], [ -115.1640018, 36.1669022998 ] ] ] } },
{ "type": "Feature", "properties": { "value": 255.0 }, "geometry": { "type": "Polygon", "coordinates": [ [ [ -115.1653032, 36.166907699799999 ], [ -115.1652492, 36.166907699799999 ], [ -115.1652492, 36.166904999799996 ], [ -115.1652465, 36.166904999799996 ], [ -115.1652465, 36.166864499799999 ], [ -115.1652492, 36.166864499799999 ], [ -115.1652492, 36.166861799799996 ], [ -115.1652519, 36.166861799799996 ], [ -115.1652519, 36.1668590998 ], [ -115.1652573, 36.1668590998 ], [ -115.1652573, 36.166856399799997 ], [ -115.1652843, 36.166856399799997 ], [ -115.1652843, 36.1668590998 ], [ -115.1653032, 36.1668590998 ], [ -115.1653032, 36.166861799799996 ], [ -115.1653059, 36.166861799799996 ], [ -115.1653059, 36.166872599800001 ], [ -115.1653032, 36.166872599800001 ], [ -115.1653032, 36.166907699799999 ] ] ] } },
{ "type": "Feature", "properties": { "value": 255.0 }, "geometry": { "type": "Polygon", "coordinates": [ [ [ -115.1644392, 36.166826699799998 ], [ -115.1644176, 36.166826699799998 ], [ -115.1644176, 36.166823999800002 ], [ -115.1643852, 36.166823999800002 ], [ -115.1643852, 36.166826699799998 ], [ -115.1643366, 36.166826699799998 ], [ -115.1643366, 36.166823999800002 ], [ -115.1643285, 36.166823999800002 ], [ -115.1643285, 36.166826699799998 ], [ -115.1643231, 36.166826699799998 ], [ -115.1643231, 36.166823999800002 ], [ -115.1643177, 36.166823999800002 ], [ -115.1643177, 36.166826699799998 ], [ -115.16403960000001, 36.166826699799998 ], [ -115.16403960000001, 36.166823999800002 ], [ -115.1640369, 36.166823999800002 ], [ -115.1640369, 36.166780799800001 ], [ -115.16403960000001, 36.166780799800001 ], [ -115.16403960000001, 36.166778099799998 ], [ -115.1641962, 36.166778099799998 ], [ -115.1641962, 36.166775399800002 ], [ -115.1642124, 36.166775399800002 ], [ -115.1642124, 36.166778099799998 ], [ -115.1642556, 36.166778099799998 ], [ -115.1642556, 36.166775399800002 ], [ -115.164261, 36.166775399800002 ], [ -115.164261, 36.166778099799998 ], [ -115.1642961, 36.166778099799998 ], [ -115.1642961, 36.166780799800001 ], [ -115.1642988, 36.166780799800001 ], [ -115.1642988, 36.166778099799998 ], [ -115.1643366, 36.166778099799998 ], [ -115.1643366, 36.166775399800002 ], [ -115.1643825, 36.166775399800002 ], [ -115.1643825, 36.166772699799999 ], [ -115.1644041, 36.166772699799999 ], [ -115.1644041, 36.166775399800002 ], [ -115.1645148, 36.166775399800002 ], [ -115.1645148, 36.166772699799999 ], [ -115.1645175, 36.166772699799999 ], [ -115.1645175, 36.166775399800002 ], [ -115.1645202, 36.166775399800002 ], [ -115.1645202, 36.166780799800001 ], [ -115.1645229, 36.166780799800001 ], [ -115.1645229, 36.166802399799998 ], [ -115.1645202, 36.166802399799998 ], [ -115.1645202, 36.1668104998 ], [ -115.1645175, 36.1668104998 ], [ -115.1645175, 36.166813199799996 ], [ -115.1645121, 36.166813199799996 ], [ -115.1645121, 36.1668158998 ], [ -115.1645067, 36.1668158998 ], [ -115.1645067, 36.166818599800003 ], [ -115.1645013, 36.166818599800003 ], [ -115.1645013, 36.166821299799999 ], [ -115.1644959, 36.166821299799999 ], [ -115.1644959, 36.166823999800002 ], [ -115.1644392, 36.166823999800002 ], [ -115.1644392, 36.166826699799998 ] ] ] } },
{ "type": "Feature", "properties": { "value": 255.0 }, "geometry": { "type": "Polygon", "coordinates": [ [ [ -115.1639721, 36.166823999800002 ], [ -115.1637939, 36.166823999800002 ], [ -115.1637939, 36.166821299799999 ], [ -115.1637912, 36.166821299799999 ], [ -115.1637912, 36.166780799800001 ], [ -115.1637993, 36.166780799800001 ], [ -115.1637993, 36.166778099799998 ], [ -115.1638128, 36.166778099799998 ], [ -115.1638128, 36.166775399800002 ], [ -115.1638641, 36.166775399800002 ], [ -115.1638641, 36.166772699799999 ], [ -115.1638722, 36.166772699799999 ], [ -115.1638722, 36.166775399800002 ], [ -115.1639262, 36.166775399800002 ], [ -115.1639262, 36.166772699799999 ], [ -115.1639316, 36.166772699799999 ], [ -115.1639316, 36.166775399800002 ], [ -115.1639505, 36.166775399800002 ], [ -115.1639505, 36.166778099799998 ], [ -115.1639721, 36.166778099799998 ], [ -115.1639721, 36.166783499799998 ], [ -115.1639748, 36.166783499799998 ], [ -115.1639748, 36.1667915998 ], [ -115.1639721, 36.1667915998 ], [ -115.1639721, 36.166823999800002 ] ] ] } },
{ "type": "Feature", "properties": { "value": 255.0 }, "geometry": { "type": "Polygon", "coordinates": [ [ [ -115.165152, 36.166823999800002 ], [ -115.1650467, 36.166823999800002 ], [ -115.1650467, 36.166821299799999 ], [ -115.1650413, 36.166821299799999 ], [ -115.1650413, 36.166775399800002 ], [ -115.165044, 36.166775399800002 ], [ -115.165044, 36.166772699799999 ], [ -115.1650737, 36.166772699799999 ], [ -115.1650737, 36.166775399800002 ], [ -115.1651115, 36.166775399800002 ], [ -115.1651115, 36.166778099799998 ], [ -115.1651196, 36.166778099799998 ], [ -115.1651196, 36.166775399800002 ], [ -115.1651547, 36.166775399800002 ], [ -115.1651547, 36.166772699799999 ], [ -115.1651817, 36.166772699799999 ], [ -115.1651817, 36.166775399800002 ], [ -115.165206, 36.166775399800002 ], [ -115.165206, 36.166778099799998 ], [ -115.1652195, 36.166778099799998 ], [ -115.1652195, 36.166780799800001 ], [ -115.1652249, 36.166780799800001 ], [ -115.1652249, 36.166788899799997 ], [ -115.1652195, 36.166788899799997 ], [ -115.1652195, 36.1667915998 ], [ -115.1652141, 36.1667915998 ], [ -115.1652141, 36.166796999799999 ], [ -115.1652195, 36.166796999799999 ], [ -115.1652195, 36.166807799799997 ], [ -115.1652168, 36.166807799799997 ], [ -115.1652168, 36.1668104998 ], [ -115.1652141, 36.1668104998 ], [ -115.1652141, 36.1668158998 ], [ -115.1652168, 36.1668158998 ], [ -115.1652168, 36.166818599800003 ], [ -115.1652141, 36.166818599800003 ], [ -115.1652141, 36.166821299799999 ], [ -115.165152, 36.166821299799999 ], [ -115.165152, 36.166823999800002 ] ] ] } },
{ "type": "Feature", "properties": { "value": 255.0 }, "geometry": { "type": "Polygon", "coordinates": [ [ [ -115.1649468, 36.166821299799999 ], [ -115.1649387, 36.166821299799999 ], [ -115.1649387, 36.166818599800003 ], [ -115.164909, 36.166818599800003 ], [ -115.164909, 36.166821299799999 ], [ -115.1647983, 36.166821299799999 ], [ -115.1647983, 36.166818599800003 ], [ -115.1647767, 36.166818599800003 ], [ -115.1647767, 36.1668158998 ], [ -115.164774, 36.1668158998 ], [ -115.164774, 36.166807799799997 ], [ -115.1647713, 36.166807799799997 ], [ -115.1647713, 36.166775399800002 ], [ -115.1647767, 36.166775399800002 ], [ -115.1647767, 36.166772699799999 ], [ -115.1649009, 36.166772699799999 ], [ -115.1649009, 36.166775399800002 ], [ -115.1649036, 36.166775399800002 ], [ -115.1649036, 36.166772699799999 ], [ -115.1649387, 36.166772699799999 ], [ -115.1649387, 36.166775399800002 ], [ -115.1649765, 36.166775399800002 ], [ -115.1649765, 36.166778099799998 ], [ -115.1649819, 36.166778099799998 ], [ -115.1649819, 36.166780799800001 ], [ -115.1649873, 36.166780799800001 ], [ -115.1649873, 36.166783499799998 ], [ -115.16499, 36.166783499799998 ], [ -115.16499, 36.166778099799998 ], [ -115.1649954, 36.166778099799998 ], [ -115.1649954, 36.166775399800002 ], [ -115.1650035, 36.166775399800002 ], [ -115.1650035, 36.166780799800001 ], [ -115.1649981, 36.166780799800001 ], [ -115.1649981, 36.166802399799998 ], [ -115.1650008, 36.166802399799998 ], [ -115.1650008, 36.166807799799997 ], [ -115.1649981, 36.166807799799997 ], [ -115.1649981, 36.1668104998 ], [ -115.1649954, 36.1668104998 ], [ -115.1649954, 36.166813199799996 ], [ -115.16499, 36.166813199799996 ], [ -115.16499, 36.166807799799997 ], [ -115.1649873, 36.166807799799997 ], [ -115.1649873, 36.1668104998 ], [ -115.1649819, 36.1668104998 ], [ -115.1649819, 36.166813199799996 ], [ -115.1649765, 36.166813199799996 ], [ -115.1649765, 36.1668158998 ], [ -115.1649711, 36.1668158998 ], [ -115.1649711, 36.166818599800003 ], [ -115.1649468, 36.166818599800003 ], [ -115.1649468, 36.166821299799999 ] ] ] } },
{ "type": "Feature", "properties": { "value": 255.0 }, "geometry": { "type": "Polygon", "coordinates": [ [ [ -115.1652276, 36.166729499799999 ], [ -115.165206, 36.166729499799999 ], [ -115.165206, 36.166726799799996 ], [ -115.1651871, 36.166726799799996 ], [ -115.1651871, 36.1667240998 ], [ -115.1651763, 36.1667240998 ], [ -115.1651763, 36.166721399799997 ], [ -115.1651682, 36.166721399799997 ], [ -115.1651682, 36.166718699800001 ], [ -115.1651628, 36.166718699800001 ], [ -115.1651628, 36.166715999799997 ], [ -115.1651601, 36.166715999799997 ], [ -115.1651601, 36.166707899800002 ], [ -115.1651574, 36.166707899800002 ], [ -115.1651574, 36.166702499799996 ], [ -115.1651547, 36.166702499799996 ], [ -115.1651547, 36.166694399800001 ], [ -115.1651493, 36.166694399800001 ], [ -115.1651493, 36.166691699799998 ], [ -115.1651223, 36.166691699799998 ], [ -115.1651223, 36.166694399800001 ], [ -115.165098, 36.166694399800001 ], [ -115.165098, 36.166697099799997 ], [ -115.1650953, 36.166697099799997 ], [ -115.1650953, 36.166705199799999 ], [ -115.1650926, 36.166705199799999 ], [ -115.1650926, 36.166707899800002 ], [ -115.1650872, 36.166707899800002 ], [ -115.1650872, 36.166710599799998 ], [ -115.1650845, 36.166710599799998 ], [ -115.1650845, 36.166707899800002 ], [ -115.1650602, 36.166707899800002 ], [ -115.1650602, 36.166710599799998 ], [ -115.1650494, 36.166710599799998 ], [ -115.1650494, 36.166707899800002 ], [ -115.16499, 36.166707899800002 ], [ -115.16499, 36.166705199799999 ], [ -115.1649873, 36.166705199799999 ], [ -115.1649873, 36.166702499799996 ], [ -115.1649846, 36.166702499799996 ], [ -115.1649846, 36.166697099799997 ], [ -115.1649819, 36.166697099799997 ], [ -115.1649819, 36.166694399800001 ], [ -115.1649657, 36.166694399800001 ], [ -115.1649657, 36.166691699799998 ], [ -115.1649603, 36.166691699799998 ], [ -115.1649603, 36.166694399800001 ], [ -115.1649441, 36.166694399800001 ], [ -115.1649441, 36.166697099799997 ], [ -115.1649387, 36.166697099799997 ], [ -115.1649387, 36.166694399800001 ], [ -115.1649252, 36.166694399800001 ], [ -115.1649252, 36.166697099799997 ], [ -115.1649225, 36.166697099799997 ], [ -115.1649225, 36.166705199799999 ], [ -115.1649198, 36.166705199799999 ], [ -115.1649198, 36.166710599799998 ], [ -115.1649225, 36.166710599799998 ], [ -115.1649225, 36.166718699800001 ], [ -115.1649198, 36.166718699800001 ], [ -115.1649198, 36.1667240998 ], [ -115.164909, 36.1667240998 ], [ -115.164909, 36.166726799799996 ], [ -115.1648793, 36.166726799799996 ], [ -115.1648793, 36.166729499799999 ], [ -115.1648496, 36.166729499799999 ], [ -115.1648496, 36.166726799799996 ], [ -115.1648442, 36.166726799799996 ], [ -115.1648442, 36.1667240998 ], [ -115.1648388, 36.1667240998 ], [ -115.1648388, 36.166721399799997 ], [ -115.164828, 36.166721399799997 ], [ -115.164828, 36.166718699800001 ], [ -115.1648172, 36.166718699800001 ], [ -115.1648172, 36.166721399799997 ], [ -115.1648118, 36.166721399799997 ], [ -115.1648118, 36.166718699800001 ], [ -115.1648037, 36.166718699800001 ], [ -115.1648037, 36.166715999799997 ], [ -115.1647983, 36.166715999799997 ], [ -115.1647983, 36.166713299800001 ], [ -115.1647956, 36.166713299800001 ], [ -115.1647956, 36.1666754998 ], [ -115.1647983, 36.1666754998 ], [ -115.1647983, 36.166664699800002 ], [ -115.164801, 36.166664699800002 ], [ -115.164801, 36.166659299799996 ], [ -115.1648037, 36.166659299799996 ], [ -115.1648037, 36.1666565998 ], [ -115.1648064, 36.1666565998 ], [ -115.1648064, 36.1666511998 ], [ -115.1648037, 36.1666511998 ], [ -115.1648037, 36.166648499799997 ], [ -115.164801, 36.166648499799997 ], [ -115.164801, 36.166643099799998 ], [ -115.1648037, 36.166643099799998 ], [ -115.1648037, 36.166640399800002 ], [ -115.164801, 36.166640399800002 ], [ -115.164801, 36.166637699799999 ], [ -115.1648037, 36.166637699799999 ], [ -115.1648037, 36.1666322998 ], [ -115.1648064, 36.1666322998 ], [ -115.1648064, 36.166629599799997 ], [ -115.1648091, 36.166629599799997 ], [ -115.1648091, 36.166626899800001 ], [ -115.1648064, 36.166626899800001 ], [ -115.1648064, 36.166621499800002 ], [ -115.1648091, 36.166621499800002 ], [ -115.1648091, 36.166618799799998 ], [ -115.1648118, 36.166618799799998 ], [ -115.1648118, 36.166597199800002 ], [ -115.1648091, 36.166597199800002 ], [ -115.1648091, 36.166591799799995 ], [ -115.1648064, 36.166591799799995 ], [ -115.1648064, 36.1665836998 ], [ -115.1648037, 36.1665836998 ], [ -115.1648037, 36.166580999799997 ], [ -115.164801, 36.166580999799997 ], [ -115.164801, 36.166578299800001 ], [ -115.1647983, 36.166578299800001 ], [ -115.1647983, 36.1665647998 ], [ -115.1647956, 36.1665647998 ], [ -115.1647956, 36.166551299799998 ], [ -115.1647983, 36.166551299799998 ], [ -115.1647983, 36.166526999799999 ], [ -115.1648037, 36.166526999799999 ], [ -115.1648037, 36.166524299799995 ], [ -115.1648226, 36.166524299799995 ], [ -115.1648226, 36.166521599799999 ], [ -115.1648334, 36.166521599799999 ], [ -115.1648334, 36.166518899799996 ], [ -115.1648442, 36.166518899799996 ], [ -115.1648442, 36.166521599799999 ], [ -115.1648577, 36.166521599799999 ], [ -115.1648577, 36.166518899799996 ], [ -115.1648712, 36.166518899799996 ], [ -115.1648712, 36.166521599799999 ], [ -115.1648766, 36.166521599799999 ], [ -115.1648766, 36.166524299799995 ], [ -115.1648928, 36.166524299799995 ], [ -115.1648928, 36.166526999799999 ], [ -115.1648955, 36.166526999799999 ], [ -115.1648955, 36.166524299799995 ], [ -115.164909, 36.166524299799995 ], [ -115.164909, 36.166526999799999 ], [ -115.1649171, 36.166526999799999 ], [ -115.1649171, 36.166529699800002 ], [ -115.1649198, 36.166529699800002 ], [ -115.1649198, 36.166532399799998 ], [ -115.1649252, 36.166532399799998 ], [ -115.1649252, 36.166535099800001 ], [ -115.1649279, 36.166535099800001 ], [ -115.1649279, 36.166532399799998 ], [ -115.1649306, 36.166532399799998 ], [ -115.1649306, 36.166526999799999 ], [ -115.1649333, 36.166526999799999 ], [ -115.1649333, 36.166524299799995 ], [ -115.164936, 36.166524299799995 ], [ -115.164936, 36.166521599799999 ], [ -115.1649414, 36.166521599799999 ], [ -115.1649414, 36.166518899799996 ], [ -115.16499, 36.166518899799996 ], [ -115.16499, 36.166526999799999 ], [ -115.1649927, 36.166526999799999 ], [ -115.1649927, 36.166537799799997 ], [ -115.1649954, 36.166537799799997 ], [ -115.1649954, 36.1665404998 ], [ -115.1650062, 36.1665404998 ], [ -115.1650062, 36.166543199799996 ], [ -115.1650089, 36.166543199799996 ], [ -115.1650089, 36.1665404998 ], [ -115.165017, 36.1665404998 ], [ -115.165017, 36.166543199799996 ], [ -115.1650278, 36.166543199799996 ], [ -115.1650278, 36.166545899799999 ], [ -115.165044, 36.166545899799999 ], [ -115.165044, 36.166543199799996 ], [ -115.1650467, 36.166543199799996 ], [ -115.1650467, 36.1665404998 ], [ -115.1650602, 36.1665404998 ], [ -115.1650602, 36.166537799799997 ], [ -115.1650683, 36.166537799799997 ], [ -115.1650683, 36.166535099800001 ], [ -115.1650737, 36.166535099800001 ], [ -115.1650737, 36.166529699800002 ], [ -115.1650764, 36.166529699800002 ], [ -115.1650764, 36.166524299799995 ], [ -115.1650791, 36.166524299799995 ], [ -115.1650791, 36.166521599799999 ], [ -115.1650872, 36.166521599799999 ], [ -115.1650872, 36.166518899799996 ], [ -115.1651088, 36.166518899799996 ], [ -115.1651088, 36.166521599799999 ], [ -115.1651358, 36.166521599799999 ], [ -115.1651358, 36.166524299799995 ], [ -115.165152, 36.166524299799995 ], [ -115.165152, 36.166526999799999 ], [ -115.1651682, 36.166526999799999 ], [ -115.1651682, 36.166529699800002 ], [ -115.1651979, 36.166529699800002 ], [ -115.1651979, 36.166532399799998 ], [ -115.1652006, 36.166532399799998 ], [ -115.1652006, 36.166535099800001 ], [ -115.1652438, 36.166535099800001 ], [ -115.1652438, 36.166537799799997 ], [ -115.1652519, 36.166537799799997 ], [ -115.1652519, 36.166543199799996 ], [ -115.1652546, 36.166543199799996 ], [ -115.1652546, 36.166553999800001 ], [ -115.1652465, 36.166553999800001 ], [ -115.1652465, 36.166556699799997 ], [ -115.1652438, 36.166556699799997 ], [ -115.1652438, 36.166562099799997 ], [ -115.165241099999989, 36.166562099799997 ], [ -115.165241099999989, 36.1665647998 ], [ -115.1652384, 36.1665647998 ], [ -115.1652384, 36.166575599799998 ], [ -115.1652438, 36.166575599799998 ], [ -115.1652438, 36.166578299800001 ], [ -115.1652465, 36.166578299800001 ], [ -115.1652465, 36.166580999799997 ], [ -115.1652546, 36.166580999799997 ], [ -115.1652546, 36.1665836998 ], [ -115.1652573, 36.1665836998 ], [ -115.1652573, 36.166613399799999 ], [ -115.1652546, 36.166613399799999 ], [ -115.1652546, 36.1666754998 ], [ -115.1652492, 36.1666754998 ], [ -115.1652492, 36.166678199799996 ], [ -115.1652465, 36.166678199799996 ], [ -115.1652465, 36.166680899799999 ], [ -115.1652357, 36.166680899799999 ], [ -115.1652357, 36.166683599800002 ], [ -115.165233, 36.166683599800002 ], [ -115.165233, 36.166686299799998 ], [ -115.1652303, 36.166686299799998 ], [ -115.1652303, 36.166691699799998 ], [ -115.165241099999989, 36.166691699799998 ], [ -115.165241099999989, 36.166697099799997 ], [ -115.1652384, 36.166697099799997 ], [ -115.1652384, 36.1666997998 ], [ -115.1652357, 36.1666997998 ], [ -115.1652357, 36.166715999799997 ], [ -115.165233, 36.166715999799997 ], [ -115.165233, 36.1667240998 ], [ -115.1652303, 36.1667240998 ], [ -115.1652303, 36.166726799799996 ], [ -115.1652276, 36.166726799799996 ], [ -115.1652276, 36.166729499799999 ] ] ] } },
{ "type": "Feature", "properties": { "value": 255.0 }, "geometry": { "type": "Polygon", "coordinates": [ [ [ -115.1644662, 36.166732199800002 ], [ -115.16445, 36.166732199800002 ], [ -115.16445, 36.166729499799999 ], [ -115.1644284, 36.166729499799999 ], [ -115.1644284, 36.166726799799996 ], [ -115.1644203, 36.166726799799996 ], [ -115.1644203, 36.1667240998 ], [ -115.1644122, 36.1667240998 ], [ -115.1644122, 36.166721399799997 ], [ -115.1644068, 36.166721399799997 ], [ -115.1644068, 36.166718699800001 ], [ -115.1643987, 36.166718699800001 ], [ -115.1643987, 36.166715999799997 ], [ -115.164396, 36.166715999799997 ], [ -115.164396, 36.166710599799998 ], [ -115.1643933, 36.166710599799998 ], [ -115.1643933, 36.166705199799999 ], [ -115.1643906, 36.166705199799999 ], [ -115.1643906, 36.1666997998 ], [ -115.1643879, 36.1666997998 ], [ -115.1643879, 36.166697099799997 ], [ -115.1643852, 36.166697099799997 ], [ -115.1643852, 36.166694399800001 ], [ -115.1643717, 36.166694399800001 ], [ -115.1643717, 36.166697099799997 ], [ -115.1643636, 36.166697099799997 ], [ -115.1643636, 36.1666997998 ], [ -115.1643474, 36.1666997998 ], [ -115.1643474, 36.166702499799996 ], [ -115.1643447, 36.166702499799996 ], [ -115.1643447, 36.166705199799999 ], [ -115.164342, 36.166705199799999 ], [ -115.164342, 36.166713299800001 ], [ -115.1643447, 36.166713299800001 ], [ -115.1643447, 36.166718699800001 ], [ -115.1643393, 36.166718699800001 ], [ -115.1643393, 36.166715999799997 ], [ -115.1643366, 36.166715999799997 ], [ -115.1643366, 36.166713299800001 ], [ -115.1643339, 36.166713299800001 ], [ -115.1643339, 36.166705199799999 ], [ -115.1643312, 36.166705199799999 ], [ -115.1643312, 36.166707899800002 ], [ -115.1643258, 36.166707899800002 ], [ -115.1643258, 36.166710599799998 ], [ -115.1643015, 36.166710599799998 ], [ -115.1643015, 36.166713299800001 ], [ -115.1642853, 36.166713299800001 ], [ -115.1642853, 36.166710599799998 ], [ -115.1642286, 36.166710599799998 ], [ -115.1642286, 36.166713299800001 ], [ -115.1642205, 36.166713299800001 ], [ -115.1642205, 36.166715999799997 ], [ -115.1642151, 36.166715999799997 ], [ -115.1642151, 36.166718699800001 ], [ -115.164207, 36.166718699800001 ], [ -115.164207, 36.166715999799997 ], [ -115.1641962, 36.166715999799997 ], [ -115.1641962, 36.166718699800001 ], [ -115.1641908, 36.166718699800001 ], [ -115.1641908, 36.166713299800001 ], [ -115.1641881, 36.166713299800001 ], [ -115.1641881, 36.166707899800002 ], [ -115.16418, 36.166707899800002 ], [ -115.16418, 36.166705199799999 ], [ -115.1641719, 36.166705199799999 ], [ -115.1641719, 36.166702499799996 ], [ -115.1641638, 36.166702499799996 ], [ -115.1641638, 36.166705199799999 ], [ -115.1641584, 36.166705199799999 ], [ -115.1641584, 36.166707899800002 ], [ -115.1641557, 36.166707899800002 ], [ -115.1641557, 36.166718699800001 ], [ -115.164153, 36.166718699800001 ], [ -115.164153, 36.166721399799997 ], [ -115.1641476, 36.166721399799997 ], [ -115.1641476, 36.1667240998 ], [ -115.1641422, 36.1667240998 ], [ -115.1641422, 36.166726799799996 ], [ -115.1641206, 36.166726799799996 ], [ -115.1641206, 36.166729499799999 ], [ -115.1640828, 36.166729499799999 ], [ -115.1640828, 36.166726799799996 ], [ -115.1640774, 36.166726799799996 ], [ -115.1640774, 36.1667240998 ], [ -115.164072, 36.1667240998 ], [ -115.164072, 36.166721399799997 ], [ -115.1640423, 36.166721399799997 ], [ -115.1640423, 36.166718699800001 ], [ -115.16403960000001, 36.166718699800001 ], [ -115.16403960000001, 36.166715999799997 ], [ -115.1640369, 36.166715999799997 ], [ -115.1640369, 36.166710599799998 ], [ -115.1640342, 36.166710599799998 ], [ -115.1640342, 36.166705199799999 ], [ -115.1640315, 36.166705199799999 ], [ -115.1640315, 36.166694399800001 ], [ -115.1640288, 36.166694399800001 ], [ -115.1640288, 36.166683599800002 ], [ -115.1640315, 36.166683599800002 ], [ -115.1640315, 36.166667399799998 ], [ -115.1640342, 36.166667399799998 ], [ -115.1640342, 36.166664699800002 ], [ -115.16403960000001, 36.166664699800002 ], [ -115.16403960000001, 36.166661999799999 ], [ -115.1640423, 36.166661999799999 ], [ -115.1640423, 36.166659299799996 ], [ -115.1640477, 36.166659299799996 ], [ -115.1640477, 36.1666565998 ], [ -115.1640504, 36.1666565998 ], [ -115.1640504, 36.166643099799998 ], [ -115.1640531, 36.166643099799998 ], [ -115.1640531, 36.166605299799997 ], [ -115.1640504, 36.166605299799997 ], [ -115.1640504, 36.166586399799996 ], [ -115.1640477, 36.166586399799996 ], [ -115.1640477, 36.1665647998 ], [ -115.1640504, 36.1665647998 ], [ -115.1640504, 36.166537799799997 ], [ -115.1640531, 36.166537799799997 ], [ -115.1640531, 36.166535099800001 ], [ -115.1641098, 36.166535099800001 ], [ -115.1641098, 36.166532399799998 ], [ -115.1641287, 36.166532399799998 ], [ -115.1641287, 36.166529699800002 ], [ -115.1641368, 36.166529699800002 ], [ -115.1641368, 36.166532399799998 ], [ -115.1641449, 36.166532399799998 ], [ -115.1641449, 36.166535099800001 ], [ -115.1641638, 36.166535099800001 ], [ -115.1641638, 36.166529699800002 ], [ -115.1641665, 36.166529699800002 ], [ -115.1641665, 36.166524299799995 ], [ -115.1641692, 36.166524299799995 ], [ -115.1641692, 36.166521599799999 ], [ -115.1641719, 36.166521599799999 ], [ -115.1641719, 36.166518899799996 ], [ -115.1641854, 36.166518899799996 ], [ -115.1641854, 36.1665161998 ], [ -115.1642124, 36.1665161998 ], [ -115.1642124, 36.166518899799996 ], [ -115.1642313, 36.166518899799996 ], [ -115.1642313, 36.166521599799999 ], [ -115.1642367, 36.166521599799999 ], [ -115.1642367, 36.166526999799999 ], [ -115.1642394, 36.166526999799999 ], [ -115.1642394, 36.166529699800002 ], [ -115.1642421, 36.166529699800002 ], [ -115.1642421, 36.166532399799998 ], [ -115.1642448, 36.166532399799998 ], [ -115.1642448, 36.166535099800001 ], [ -115.1642826, 36.166535099800001 ], [ -115.1642826, 36.166537799799997 ], [ -115.1643069, 36.166537799799997 ], [ -115.1643069, 36.166535099800001 ], [ -115.1643096, 36.166535099800001 ], [ -115.1643096, 36.166529699800002 ], [ -115.1643123, 36.166529699800002 ], [ -115.1643123, 36.166524299799995 ], [ -115.164315, 36.166524299799995 ], [ -115.164315, 36.166521599799999 ], [ -115.1643258, 36.166521599799999 ], [ -115.1643258, 36.166518899799996 ], [ -115.1643447, 36.166518899799996 ], [ -115.1643447, 36.166521599799999 ], [ -115.1643555, 36.166521599799999 ], [ -115.1643555, 36.166524299799995 ], [ -115.1643609, 36.166524299799995 ], [ -115.1643609, 36.166526999799999 ], [ -115.1643636, 36.166526999799999 ], [ -115.1643636, 36.1665404998 ], [ -115.1643663, 36.1665404998 ], [ -115.1643663, 36.166548599800002 ], [ -115.164369, 36.166548599800002 ], [ -115.164369, 36.166553999800001 ], [ -115.1643717, 36.166553999800001 ], [ -115.1643717, 36.166556699799997 ], [ -115.1643744, 36.166556699799997 ], [ -115.1643744, 36.166559399800001 ], [ -115.1643852, 36.166559399800001 ], [ -115.1643852, 36.166556699799997 ], [ -115.1643906, 36.166556699799997 ], [ -115.1643906, 36.166553999800001 ], [ -115.1643933, 36.166553999800001 ], [ -115.1643933, 36.166548599800002 ], [ -115.164396, 36.166548599800002 ], [ -115.164396, 36.166545899799999 ], [ -115.1643987, 36.166545899799999 ], [ -115.1643987, 36.166543199799996 ], [ -115.1644014, 36.166543199799996 ], [ -115.1644014, 36.1665404998 ], [ -115.1644041, 36.1665404998 ], [ -115.1644041, 36.166537799799997 ], [ -115.164423, 36.166537799799997 ], [ -115.164423, 36.166535099800001 ], [ -115.16445, 36.166535099800001 ], [ -115.16445, 36.166537799799997 ], [ -115.1644581, 36.166537799799997 ], [ -115.1644581, 36.1665404998 ], [ -115.1644635, 36.1665404998 ], [ -115.1644635, 36.166543199799996 ], [ -115.1644716, 36.166543199799996 ], [ -115.1644716, 36.1665404998 ], [ -115.1644743, 36.1665404998 ], [ -115.1644743, 36.166543199799996 ], [ -115.1644824, 36.166543199799996 ], [ -115.1644824, 36.166545899799999 ], [ -115.1644851, 36.166545899799999 ], [ -115.1644851, 36.166551299799998 ], [ -115.1644824, 36.166551299799998 ], [ -115.1644824, 36.166553999800001 ], [ -115.1644851, 36.166553999800001 ], [ -115.1644851, 36.166559399800001 ], [ -115.1644824, 36.166559399800001 ], [ -115.1644824, 36.166562099799997 ], [ -115.1644797, 36.166562099799997 ], [ -115.1644797, 36.1665647998 ], [ -115.164477, 36.1665647998 ], [ -115.164477, 36.166570199799999 ], [ -115.1644824, 36.166570199799999 ], [ -115.1644824, 36.166572899800002 ], [ -115.1644851, 36.166572899800002 ], [ -115.1644851, 36.166586399799996 ], [ -115.1644878, 36.166586399799996 ], [ -115.1644878, 36.166589099799999 ], [ -115.1644905, 36.166589099799999 ], [ -115.1644905, 36.166599899799998 ], [ -115.1644878, 36.166599899799998 ], [ -115.1644878, 36.1666322998 ], [ -115.1644905, 36.1666322998 ], [ -115.1644905, 36.1666565998 ], [ -115.1644932, 36.1666565998 ], [ -115.1644932, 36.166661999799999 ], [ -115.1644959, 36.166661999799999 ], [ -115.1644959, 36.166664699800002 ], [ -115.1644986, 36.166664699800002 ], [ -115.1644986, 36.166670099800001 ], [ -115.1645013, 36.166670099800001 ], [ -115.1645013, 36.1666754998 ], [ -115.164504, 36.1666754998 ], [ -115.164504, 36.166688999800002 ], [ -115.1645013, 36.166688999800002 ], [ -115.1645013, 36.166710599799998 ], [ -115.1644851, 36.166710599799998 ], [ -115.1644851, 36.1666997998 ], [ -115.1644878, 36.1666997998 ], [ -115.1644878, 36.166697099799997 ], [ -115.1644905, 36.166697099799997 ], [ -115.1644905, 36.166694399800001 ], [ -115.1644959, 36.166694399800001 ], [ -115.1644959, 36.166688999800002 ], [ -115.1644878, 36.166688999800002 ], [ -115.1644878, 36.166691699799998 ], [ -115.1644824, 36.166691699799998 ], [ -115.1644824, 36.166697099799997 ], [ -115.1644743, 36.166697099799997 ], [ -115.1644743, 36.166705199799999 ], [ -115.1644716, 36.166705199799999 ], [ -115.1644716, 36.1667240998 ], [ -115.1644689, 36.1667240998 ], [ -115.1644689, 36.166729499799999 ], [ -115.1644662, 36.166729499799999 ], [ -115.1644662, 36.166732199800002 ] ], [ [ -115.1643339, 36.166705199799999 ], [ -115.1643366, 36.166705199799999 ], [ -115.1643366, 36.1666997998 ], [ -115.1643339, 36.1666997998 ], [ -115.1643339, 36.166705199799999 ] ] ] } },
{ "type": "Feature", "properties": { "value": 255.0 }, "geometry": { "type": "Polygon", "coordinates": [ [ [ -115.1638101, 36.166737599800001 ], [ -115.1638047, 36.166737599800001 ], [ -115.1638047, 36.166734899799998 ], [ -115.16378850000001, 36.166734899799998 ], [ -115.16378850000001, 36.166732199800002 ], [ -115.1637615, 36.166732199800002 ], [ -115.1637615, 36.166729499799999 ], [ -115.1637534, 36.166729499799999 ], [ -115.1637534, 36.166726799799996 ], [ -115.1637507, 36.166726799799996 ], [ -115.1637507, 36.166721399799997 ], [ -115.163748, 36.166721399799997 ], [ -115.163748, 36.166678199799996 ], [ -115.1637507, 36.166678199799996 ], [ -115.1637507, 36.166672799799997 ], [ -115.163748, 36.166672799799997 ], [ -115.163748, 36.166664699800002 ], [ -115.1637507, 36.166664699800002 ], [ -115.1637507, 36.166653899799996 ], [ -115.163748, 36.166653899799996 ], [ -115.163748, 36.166640399800002 ], [ -115.1637507, 36.166640399800002 ], [ -115.1637507, 36.166637699799999 ], [ -115.163748, 36.166637699799999 ], [ -115.163748, 36.166610699799996 ], [ -115.1637507, 36.166610699799996 ], [ -115.1637507, 36.166605299799997 ], [ -115.1637534, 36.166605299799997 ], [ -115.1637534, 36.166602599800001 ], [ -115.1637507, 36.166602599800001 ], [ -115.1637507, 36.166580999799997 ], [ -115.163748, 36.166580999799997 ], [ -115.163748, 36.166532399799998 ], [ -115.1637507, 36.166532399799998 ], [ -115.1637507, 36.166524299799995 ], [ -115.1637534, 36.166524299799995 ], [ -115.1637534, 36.166521599799999 ], [ -115.1637561, 36.166521599799999 ], [ -115.1637561, 36.166518899799996 ], [ -115.1637831, 36.166518899799996 ], [ -115.1637831, 36.1665161998 ], [ -115.1638128, 36.1665161998 ], [ -115.1638128, 36.166513499799997 ], [ -115.1638182, 36.166513499799997 ], [ -115.1638182, 36.1665161998 ], [ -115.163856, 36.1665161998 ], [ -115.163856, 36.166518899799996 ], [ -115.1638587, 36.166518899799996 ], [ -115.1638587, 36.166521599799999 ], [ -115.1638614, 36.166521599799999 ], [ -115.1638614, 36.166524299799995 ], [ -115.1638641, 36.166524299799995 ], [ -115.1638641, 36.166529699800002 ], [ -115.1638722, 36.166529699800002 ], [ -115.1638722, 36.166532399799998 ], [ -115.16387490000001, 36.166532399799998 ], [ -115.16387490000001, 36.166529699800002 ], [ -115.163883, 36.166529699800002 ], [ -115.163883, 36.166532399799998 ], [ -115.163893800000011, 36.166532399799998 ], [ -115.163893800000011, 36.166535099800001 ], [ -115.1639019, 36.166535099800001 ], [ -115.1639019, 36.166532399799998 ], [ -115.1639154, 36.166532399799998 ], [ -115.1639154, 36.166535099800001 ], [ -115.1639343, 36.166535099800001 ], [ -115.1639343, 36.166532399799998 ], [ -115.1639478, 36.166532399799998 ], [ -115.1639478, 36.166535099800001 ], [ -115.1639802, 36.166535099800001 ], [ -115.1639802, 36.166537799799997 ], [ -115.1639775, 36.166537799799997 ], [ -115.1639775, 36.166543199799996 ], [ -115.1639802, 36.166543199799996 ], [ -115.1639802, 36.166553999800001 ], [ -115.1639775, 36.166553999800001 ], [ -115.1639775, 36.166562099799997 ], [ -115.1639748, 36.166562099799997 ], [ -115.1639748, 36.166570199799999 ], [ -115.1639721, 36.166570199799999 ], [ -115.1639721, 36.166591799799995 ], [ -115.1639694, 36.166591799799995 ], [ -115.1639694, 36.166616099800002 ], [ -115.1639667, 36.166616099800002 ], [ -115.1639667, 36.166618799799998 ], [ -115.163964, 36.166618799799998 ], [ -115.163964, 36.166626899800001 ], [ -115.1639586, 36.166626899800001 ], [ -115.1639586, 36.166645799800001 ], [ -115.1639613, 36.166645799800001 ], [ -115.1639613, 36.166648499799997 ], [ -115.163964, 36.166648499799997 ], [ -115.163964, 36.1666511998 ], [ -115.1639694, 36.1666511998 ], [ -115.1639694, 36.166653899799996 ], [ -115.1639721, 36.166653899799996 ], [ -115.1639721, 36.166661999799999 ], [ -115.1639748, 36.166661999799999 ], [ -115.1639748, 36.166667399799998 ], [ -115.1639721, 36.166667399799998 ], [ -115.1639721, 36.1667240998 ], [ -115.1639694, 36.1667240998 ], [ -115.1639694, 36.166729499799999 ], [ -115.1639613, 36.166729499799999 ], [ -115.1639613, 36.166732199800002 ], [ -115.1639478, 36.166732199800002 ], [ -115.1639478, 36.166734899799998 ], [ -115.1639451, 36.166734899799998 ], [ -115.1639451, 36.166732199800002 ], [ -115.1639397, 36.166732199800002 ], [ -115.1639397, 36.166734899799998 ], [ -115.1639127, 36.166734899799998 ], [ -115.1639127, 36.166732199800002 ], [ -115.1639046, 36.166732199800002 ], [ -115.1639046, 36.166729499799999 ], [ -115.1638965, 36.166729499799999 ], [ -115.1638965, 36.1667240998 ], [ -115.163893800000011, 36.1667240998 ], [ -115.163893800000011, 36.166721399799997 ], [ -115.1638911, 36.166721399799997 ], [ -115.1638911, 36.166718699800001 ], [ -115.1638857, 36.166718699800001 ], [ -115.1638857, 36.166715999799997 ], [ -115.1638533, 36.166715999799997 ], [ -115.1638533, 36.166718699800001 ], [ -115.163845200000011, 36.166718699800001 ], [ -115.163845200000011, 36.166721399799997 ], [ -115.1638425, 36.166721399799997 ], [ -115.1638425, 36.166726799799996 ], [ -115.1638398, 36.166726799799996 ], [ -115.1638398, 36.166732199800002 ], [ -115.1638344, 36.166732199800002 ], [ -115.1638344, 36.166734899799998 ], [ -115.1638101, 36.166734899799998 ], [ -115.1638101, 36.166737599800001 ] ] ] } },
{ "type": "Feature", "properties": { "value": 255.0 }, "geometry": { "type": "Polygon", "coordinates": [ [ [ -115.165179, 36.166119299799995 ], [ -115.1651601, 36.166119299799995 ], [ -115.1651601, 36.166116599799999 ], [ -115.1651574, 36.166116599799999 ], [ -115.1651574, 36.166108499799996 ], [ -115.1651547, 36.166108499799996 ], [ -115.1651547, 36.166035599799997 ], [ -115.165152, 36.166035599799997 ], [ -115.165152, 36.166030199799998 ], [ -115.1651547, 36.166030199799998 ], [ -115.1651547, 36.165959999799995 ], [ -115.1651574, 36.165959999799995 ], [ -115.1651574, 36.165957299799999 ], [ -115.1651601, 36.165957299799999 ], [ -115.1651601, 36.165954599799996 ], [ -115.1652546, 36.165954599799996 ], [ -115.1652546, 36.165957299799999 ], [ -115.1652654, 36.165957299799999 ], [ -115.1652654, 36.165959999799995 ], [ -115.1652708, 36.165959999799995 ], [ -115.1652708, 36.165962699799998 ], [ -115.1652762, 36.165962699799998 ], [ -115.1652762, 36.165968099799997 ], [ -115.165289699999988, 36.165968099799997 ], [ -115.165289699999988, 36.1659707998 ], [ -115.1653005, 36.1659707998 ], [ -115.1653005, 36.165976199799999 ], [ -115.1653059, 36.165976199799999 ], [ -115.1653059, 36.165981599799998 ], [ -115.1653032, 36.165981599799998 ], [ -115.1653032, 36.165978899799995 ], [ -115.1653005, 36.165978899799995 ], [ -115.1653005, 36.165984299799995 ], [ -115.1652978, 36.165984299799995 ], [ -115.1652978, 36.1659950998 ], [ -115.1653005, 36.1659950998 ], [ -115.1653005, 36.166000499799999 ], [ -115.1652978, 36.166000499799999 ], [ -115.1652978, 36.166008599800001 ], [ -115.1653005, 36.166008599800001 ], [ -115.1653005, 36.166043699799999 ], [ -115.1653032, 36.166043699799999 ], [ -115.1653032, 36.166076099800001 ], [ -115.1653059, 36.166076099800001 ], [ -115.1653059, 36.166100399800001 ], [ -115.1653032, 36.166100399800001 ], [ -115.1653032, 36.166103099799997 ], [ -115.1653005, 36.166103099799997 ], [ -115.1653005, 36.1661057998 ], [ -115.1652789, 36.1661057998 ], [ -115.1652789, 36.166108499799996 ], [ -115.1652573, 36.166108499799996 ], [ -115.1652573, 36.1661057998 ], [ -115.1652384, 36.1661057998 ], [ -115.1652384, 36.166108499799996 ], [ -115.1652141, 36.166108499799996 ], [ -115.1652141, 36.1661111998 ], [ -115.165206, 36.1661111998 ], [ -115.165206, 36.166113899799996 ], [ -115.1652006, 36.166113899799996 ], [ -115.1652006, 36.166116599799999 ], [ -115.165179, 36.166116599799999 ], [ -115.165179, 36.166119299799995 ] ] ] } },
{ "type": "Feature", "properties": { "value": 255.0 }, "geometry": { "type": "Polygon", "coordinates": [ [ [ -115.1645688, 36.166097699799998 ], [ -115.1645661, 36.166097699799998 ], [ -115.1645661, 36.166094999799995 ], [ -115.1645445, 36.166094999799995 ], [ -115.1645445, 36.166092299799999 ], [ -115.1645391, 36.166092299799999 ], [ -115.1645391, 36.1660868998 ], [ -115.1645364, 36.1660868998 ], [ -115.1645364, 36.166073399799998 ], [ -115.1645337, 36.166073399799998 ], [ -115.1645337, 36.165978899799995 ], [ -115.164531, 36.165978899799995 ], [ -115.164531, 36.165943799799997 ], [ -115.1645283, 36.165943799799997 ], [ -115.1645283, 36.165911399799995 ], [ -115.164531, 36.165911399799995 ], [ -115.164531, 36.165895199799998 ], [ -115.1645283, 36.165895199799998 ], [ -115.1645283, 36.165887099799995 ], [ -115.1645229, 36.165887099799995 ], [ -115.1645229, 36.165884399799999 ], [ -115.1645175, 36.165884399799999 ], [ -115.1645175, 36.165881699799996 ], [ -115.1645148, 36.165881699799996 ], [ -115.1645148, 36.165876299799997 ], [ -115.1645121, 36.165876299799997 ], [ -115.1645121, 36.165862799799996 ], [ -115.1645148, 36.165862799799996 ], [ -115.1645148, 36.165849299799994 ], [ -115.1645121, 36.165849299799994 ], [ -115.1645121, 36.165838499799996 ], [ -115.1645094, 36.165838499799996 ], [ -115.1645094, 36.1658357998 ], [ -115.1645067, 36.1658357998 ], [ -115.1645067, 36.165819599799995 ], [ -115.1645094, 36.165819599799995 ], [ -115.1645094, 36.165816899799999 ], [ -115.1645121, 36.165816899799999 ], [ -115.1645121, 36.1658114998 ], [ -115.1645148, 36.1658114998 ], [ -115.1645148, 36.165806099800001 ], [ -115.1645175, 36.165806099800001 ], [ -115.1645175, 36.165800699799995 ], [ -115.1645202, 36.165800699799995 ], [ -115.1645202, 36.165795299799996 ], [ -115.1645229, 36.165795299799996 ], [ -115.1645229, 36.165789899799996 ], [ -115.1645256, 36.165789899799996 ], [ -115.1645256, 36.1657871998 ], [ -115.1645283, 36.1657871998 ], [ -115.1645283, 36.165784499799997 ], [ -115.164531, 36.165784499799997 ], [ -115.164531, 36.165781799799994 ], [ -115.1645337, 36.165781799799994 ], [ -115.1645337, 36.165779099799998 ], [ -115.1645391, 36.165779099799998 ], [ -115.1645391, 36.165776399799995 ], [ -115.1645472, 36.165776399799995 ], [ -115.1645472, 36.165773699799999 ], [ -115.1645526, 36.165773699799999 ], [ -115.1645526, 36.165770999799996 ], [ -115.1645607, 36.165770999799996 ], [ -115.1645607, 36.1657682998 ], [ -115.1645688, 36.1657682998 ], [ -115.1645688, 36.165765599799997 ], [ -115.1646093, 36.165765599799997 ], [ -115.1646093, 36.1657682998 ], [ -115.1646174, 36.1657682998 ], [ -115.1646174, 36.165770999799996 ], [ -115.1646201, 36.165770999799996 ], [ -115.1646201, 36.165773699799999 ], [ -115.1646255, 36.165773699799999 ], [ -115.1646255, 36.165776399799995 ], [ -115.1646363, 36.165776399799995 ], [ -115.1646363, 36.165779099799998 ], [ -115.1646471, 36.165779099799998 ], [ -115.1646471, 36.165781799799994 ], [ -115.1646606, 36.165781799799994 ], [ -115.1646606, 36.165784499799997 ], [ -115.1646849, 36.165784499799997 ], [ -115.1646849, 36.1657871998 ], [ -115.1647038, 36.1657871998 ], [ -115.1647038, 36.165789899799996 ], [ -115.16472, 36.165789899799996 ], [ -115.16472, 36.1657871998 ], [ -115.1647686, 36.1657871998 ], [ -115.1647686, 36.165784499799997 ], [ -115.164774, 36.165784499799997 ], [ -115.164774, 36.165781799799994 ], [ -115.1647794, 36.165781799799994 ], [ -115.1647794, 36.165779099799998 ], [ -115.1647848, 36.165779099799998 ], [ -115.1647848, 36.165776399799995 ], [ -115.1649711, 36.165776399799995 ], [ -115.1649711, 36.165779099799998 ], [ -115.1649738, 36.165779099799998 ], [ -115.1649738, 36.165781799799994 ], [ -115.1649765, 36.165781799799994 ], [ -115.1649765, 36.165784499799997 ], [ -115.1649792, 36.165784499799997 ], [ -115.1649792, 36.165830399800001 ], [ -115.1649819, 36.165830399800001 ], [ -115.1649819, 36.165900599799997 ], [ -115.1649792, 36.165900599799997 ], [ -115.1649792, 36.1659032998 ], [ -115.1649819, 36.1659032998 ], [ -115.1649819, 36.165914099799998 ], [ -115.1649792, 36.165914099799998 ], [ -115.1649792, 36.165919499799998 ], [ -115.1649765, 36.165919499799998 ], [ -115.1649765, 36.165922199800001 ], [ -115.1649792, 36.165922199800001 ], [ -115.1649792, 36.165949199799996 ], [ -115.1649819, 36.165949199799996 ], [ -115.1649819, 36.1659950998 ], [ -115.1649792, 36.1659950998 ], [ -115.1649792, 36.166003199799995 ], [ -115.1649765, 36.166003199799995 ], [ -115.1649765, 36.166011299799997 ], [ -115.1649792, 36.166011299799997 ], [ -115.1649792, 36.1660193998 ], [ -115.1649765, 36.1660193998 ], [ -115.1649765, 36.166027499799995 ], [ -115.1649792, 36.166027499799995 ], [ -115.1649792, 36.166051799799995 ], [ -115.1649765, 36.166051799799995 ], [ -115.1649765, 36.166054499799998 ], [ -115.1649738, 36.166054499799998 ], [ -115.1649738, 36.1660625998 ], [ -115.1649765, 36.1660625998 ], [ -115.1649765, 36.166084199799997 ], [ -115.1649738, 36.166084199799997 ], [ -115.1649738, 36.1660868998 ], [ -115.1649711, 36.1660868998 ], [ -115.1649711, 36.166089599799996 ], [ -115.1649657, 36.166089599799996 ], [ -115.1649657, 36.166092299799999 ], [ -115.1649576, 36.166092299799999 ], [ -115.1649576, 36.166094999799995 ], [ -115.1649333, 36.166094999799995 ], [ -115.1649333, 36.166092299799999 ], [ -115.1648847, 36.166092299799999 ], [ -115.1648847, 36.166094999799995 ], [ -115.1648685, 36.166094999799995 ], [ -115.1648685, 36.166092299799999 ], [ -115.1648442, 36.166092299799999 ], [ -115.1648442, 36.166094999799995 ], [ -115.1648307, 36.166094999799995 ], [ -115.1648307, 36.166092299799999 ], [ -115.164747, 36.166092299799999 ], [ -115.164747, 36.166094999799995 ], [ -115.1647092, 36.166094999799995 ], [ -115.1647092, 36.166092299799999 ], [ -115.164693, 36.166092299799999 ], [ -115.164693, 36.166089599799996 ], [ -115.1646417, 36.166089599799996 ], [ -115.1646417, 36.166092299799999 ], [ -115.1646012, 36.166092299799999 ], [ -115.1646012, 36.166094999799995 ], [ -115.1645688, 36.166094999799995 ], [ -115.1645688, 36.166097699799998 ] ] ] } },
{ "type": "Feature", "properties": { "value": 255.0 }, "geometry": { "type": "Polygon", "coordinates": [ [ [ -115.1638533, 36.165557699799997 ], [ -115.1638425, 36.165557699799997 ], [ -115.1638425, 36.165554999799994 ], [ -115.1638317, 36.165554999799994 ], [ -115.1638317, 36.165557699799997 ], [ -115.1636994, 36.165557699799997 ], [ -115.1636994, 36.165554999799994 ], [ -115.1636886, 36.165554999799994 ], [ -115.1636886, 36.165549599799995 ], [ -115.1636859, 36.165549599799995 ], [ -115.1636859, 36.165544199799996 ], [ -115.1636832, 36.165544199799996 ], [ -115.1636832, 36.165533399799997 ], [ -115.163680500000012, 36.165533399799997 ], [ -115.163680500000012, 36.1654010998 ], [ -115.1636778, 36.1654010998 ], [ -115.1636778, 36.165328199799994 ], [ -115.163680500000012, 36.165328199799994 ], [ -115.163680500000012, 36.165306599799997 ], [ -115.1636832, 36.165306599799997 ], [ -115.1636832, 36.165298499799995 ], [ -115.1636859, 36.165298499799995 ], [ -115.1636859, 36.165295799799999 ], [ -115.1636886, 36.165295799799999 ], [ -115.1636886, 36.165293099799996 ], [ -115.163694, 36.165293099799996 ], [ -115.163694, 36.1652903998 ], [ -115.1636967, 36.1652903998 ], [ -115.1636967, 36.165287699799997 ], [ -115.1636994, 36.165287699799997 ], [ -115.1636994, 36.165284999799994 ], [ -115.1637075, 36.165284999799994 ], [ -115.1637075, 36.165282299799998 ], [ -115.16373990000001, 36.165282299799998 ], [ -115.16373990000001, 36.165279599799995 ], [ -115.1637561, 36.165279599799995 ], [ -115.1637561, 36.165276899799998 ], [ -115.1637615, 36.165276899799998 ], [ -115.1637615, 36.165279599799995 ], [ -115.1637696, 36.165279599799995 ], [ -115.1637696, 36.165274199799995 ], [ -115.1637723, 36.165274199799995 ], [ -115.1637723, 36.1652660998 ], [ -115.163775, 36.1652660998 ], [ -115.163775, 36.165257999799998 ], [ -115.163777700000011, 36.165257999799998 ], [ -115.163777700000011, 36.165252599799999 ], [ -115.1637804, 36.165252599799999 ], [ -115.1637804, 36.165249899799996 ], [ -115.1637831, 36.165249899799996 ], [ -115.1637831, 36.1652471998 ], [ -115.1637858, 36.1652471998 ], [ -115.1637858, 36.165244499799996 ], [ -115.1637939, 36.165244499799996 ], [ -115.1637939, 36.165241799799993 ], [ -115.16380740000001, 36.165241799799993 ], [ -115.16380740000001, 36.165239099799997 ], [ -115.1638155, 36.165239099799997 ], [ -115.1638155, 36.165236399799994 ], [ -115.1638506, 36.165236399799994 ], [ -115.1638506, 36.165233699799998 ], [ -115.1638803, 36.165233699799998 ], [ -115.1638803, 36.165236399799994 ], [ -115.1638911, 36.165236399799994 ], [ -115.1638911, 36.165239099799997 ], [ -115.16391, 36.165239099799997 ], [ -115.16391, 36.165241799799993 ], [ -115.1639802, 36.165241799799993 ], [ -115.1639802, 36.165239099799997 ], [ -115.1639829, 36.165239099799997 ], [ -115.1639829, 36.165241799799993 ], [ -115.1639856, 36.165241799799993 ], [ -115.1639856, 36.165239099799997 ], [ -115.1639937, 36.165239099799997 ], [ -115.1639937, 36.165241799799993 ], [ -115.1640072, 36.165241799799993 ], [ -115.1640072, 36.165252599799999 ], [ -115.1640099, 36.165252599799999 ], [ -115.1640099, 36.165274199799995 ], [ -115.1640126, 36.165274199799995 ], [ -115.1640126, 36.165282299799998 ], [ -115.1640153, 36.165282299799998 ], [ -115.1640153, 36.165284999799994 ], [ -115.164018, 36.165284999799994 ], [ -115.164018, 36.165287699799997 ], [ -115.1640234, 36.165287699799997 ], [ -115.1640234, 36.1652903998 ], [ -115.1640423, 36.1652903998 ], [ -115.1640423, 36.165293099799996 ], [ -115.164072, 36.165293099799996 ], [ -115.164072, 36.1652903998 ], [ -115.1641233, 36.1652903998 ], [ -115.1641233, 36.165287699799997 ], [ -115.1641314, 36.165287699799997 ], [ -115.1641314, 36.1652903998 ], [ -115.1641746, 36.1652903998 ], [ -115.1641746, 36.165287699799997 ], [ -115.1641827, 36.165287699799997 ], [ -115.1641827, 36.165284999799994 ], [ -115.1641962, 36.165284999799994 ], [ -115.1641962, 36.165282299799998 ], [ -115.1642124, 36.165282299799998 ], [ -115.1642124, 36.165279599799995 ], [ -115.1642232, 36.165279599799995 ], [ -115.1642232, 36.165282299799998 ], [ -115.164234, 36.165282299799998 ], [ -115.164234, 36.165284999799994 ], [ -115.1642394, 36.165284999799994 ], [ -115.1642394, 36.1652903998 ], [ -115.1642421, 36.1652903998 ], [ -115.1642421, 36.165328199799994 ], [ -115.1642448, 36.165328199799994 ], [ -115.1642448, 36.165330899799997 ], [ -115.1642556, 36.165330899799997 ], [ -115.1642556, 36.165328199799994 ], [ -115.1642772, 36.165328199799994 ], [ -115.1642772, 36.165330899799997 ], [ -115.1642826, 36.165330899799997 ], [ -115.1642826, 36.165328199799994 ], [ -115.1642907, 36.165328199799994 ], [ -115.1642907, 36.165330899799997 ], [ -115.1642934, 36.165330899799997 ], [ -115.1642934, 36.165336299799996 ], [ -115.1642961, 36.165336299799996 ], [ -115.1642961, 36.165338999799999 ], [ -115.1642934, 36.165338999799999 ], [ -115.1642934, 36.165365999799995 ], [ -115.1642907, 36.165365999799995 ], [ -115.1642907, 36.165374099799998 ], [ -115.1642934, 36.165374099799998 ], [ -115.1642934, 36.165376799799994 ], [ -115.1642907, 36.165376799799994 ], [ -115.1642907, 36.165390299799995 ], [ -115.1642934, 36.165390299799995 ], [ -115.1642934, 36.165395699799994 ], [ -115.1642961, 36.165395699799994 ], [ -115.1642961, 36.165398399799997 ], [ -115.1642988, 36.165398399799997 ], [ -115.1642988, 36.165411899799999 ], [ -115.1643015, 36.165411899799999 ], [ -115.1643015, 36.165457799799995 ], [ -115.1642988, 36.165457799799995 ], [ -115.1642988, 36.165500999799995 ], [ -115.1642961, 36.165500999799995 ], [ -115.1642961, 36.1655171998 ], [ -115.1642934, 36.1655171998 ], [ -115.1642934, 36.165525299799995 ], [ -115.1642961, 36.165525299799995 ], [ -115.1642961, 36.165527999799998 ], [ -115.1642934, 36.165527999799998 ], [ -115.1642934, 36.1655414998 ], [ -115.1642907, 36.1655414998 ], [ -115.1642907, 36.165544199799996 ], [ -115.164288, 36.165544199799996 ], [ -115.164288, 36.165546899799999 ], [ -115.164261, 36.165546899799999 ], [ -115.164261, 36.165544199799996 ], [ -115.1642529, 36.165544199799996 ], [ -115.1642529, 36.1655414998 ], [ -115.1642475, 36.1655414998 ], [ -115.1642475, 36.165544199799996 ], [ -115.1642421, 36.165544199799996 ], [ -115.1642421, 36.1655414998 ], [ -115.1642367, 36.1655414998 ], [ -115.1642367, 36.165544199799996 ], [ -115.1642313, 36.165544199799996 ], [ -115.1642313, 36.165546899799999 ], [ -115.1642259, 36.165546899799999 ], [ -115.1642259, 36.165549599799995 ], [ -115.1642232, 36.165549599799995 ], [ -115.1642232, 36.165552299799998 ], [ -115.1641962, 36.165552299799998 ], [ -115.1641962, 36.165554999799994 ], [ -115.1640504, 36.165554999799994 ], [ -115.1640504, 36.165552299799998 ], [ -115.1639964, 36.165552299799998 ], [ -115.1639964, 36.165549599799995 ], [ -115.1639397, 36.165549599799995 ], [ -115.1639397, 36.165552299799998 ], [ -115.16392350000001, 36.165552299799998 ], [ -115.16392350000001, 36.165549599799995 ], [ -115.1638965, 36.165549599799995 ], [ -115.1638965, 36.165552299799998 ], [ -115.16387490000001, 36.165552299799998 ], [ -115.16387490000001, 36.165554999799994 ], [ -115.1638533, 36.165554999799994 ], [ -115.1638533, 36.165557699799997 ] ] ] } },
{ "type": "Feature", "properties": { "value": 255.0 }, "geometry": { "type": "Polygon", "coordinates": [ [ [ -115.1653302, 36.165530699799994 ], [ -115.1653167, 36.165530699799994 ], [ -115.1653167, 36.165527999799998 ], [ -115.165308599999989, 36.165527999799998 ], [ -115.165308599999989, 36.165530699799994 ], [ -115.1652951, 36.165530699799994 ], [ -115.1652951, 36.165527999799998 ], [ -115.1652924, 36.165527999799998 ], [ -115.1652924, 36.165525299799995 ], [ -115.1652357, 36.165525299799995 ], [ -115.1652357, 36.165522599799999 ], [ -115.165206, 36.165522599799999 ], [ -115.165206, 36.165519899799996 ], [ -115.1652033, 36.165519899799996 ], [ -115.1652033, 36.1655171998 ], [ -115.1652006, 36.1655171998 ], [ -115.1652006, 36.165514499799997 ], [ -115.1651979, 36.165514499799997 ], [ -115.1651979, 36.165509099799998 ], [ -115.165192499999989, 36.165509099799998 ], [ -115.165192499999989, 36.165511799799994 ], [ -115.165179, 36.165511799799994 ], [ -115.165179, 36.165514499799997 ], [ -115.1651736, 36.165514499799997 ], [ -115.1651736, 36.165511799799994 ], [ -115.1651655, 36.165511799799994 ], [ -115.1651655, 36.165509099799998 ], [ -115.1651601, 36.165509099799998 ], [ -115.1651601, 36.165506399799995 ], [ -115.1651682, 36.165506399799995 ], [ -115.1651682, 36.165500999799995 ], [ -115.1651007, 36.165500999799995 ], [ -115.1651007, 36.165509099799998 ], [ -115.1651034, 36.165509099799998 ], [ -115.1651034, 36.165511799799994 ], [ -115.1651088, 36.165511799799994 ], [ -115.1651088, 36.165514499799997 ], [ -115.1651007, 36.165514499799997 ], [ -115.1651007, 36.1655171998 ], [ -115.1650899, 36.1655171998 ], [ -115.1650899, 36.165519899799996 ], [ -115.1650845, 36.165519899799996 ], [ -115.1650845, 36.165522599799999 ], [ -115.1650791, 36.165522599799999 ], [ -115.1650791, 36.165519899799996 ], [ -115.1650764, 36.165519899799996 ], [ -115.1650764, 36.1655171998 ], [ -115.1650683, 36.1655171998 ], [ -115.1650683, 36.165519899799996 ], [ -115.1650656, 36.165519899799996 ], [ -115.1650656, 36.1655171998 ], [ -115.1650278, 36.1655171998 ], [ -115.1650278, 36.165519899799996 ], [ -115.1650224, 36.165519899799996 ], [ -115.1650224, 36.165522599799999 ], [ -115.1650197, 36.165522599799999 ], [ -115.1650197, 36.165525299799995 ], [ -115.1650035, 36.165525299799995 ], [ -115.1650035, 36.165522599799999 ], [ -115.1649954, 36.165522599799999 ], [ -115.1649954, 36.165519899799996 ], [ -115.16499, 36.165519899799996 ], [ -115.16499, 36.165455099799999 ], [ -115.1649927, 36.165455099799999 ], [ -115.1649927, 36.165444299799994 ], [ -115.1649954, 36.165444299799994 ], [ -115.1649954, 36.165433499799995 ], [ -115.1649927, 36.165433499799995 ], [ -115.1649927, 36.165419999799994 ], [ -115.16499, 36.165419999799994 ], [ -115.16499, 36.165301199799998 ], [ -115.1649873, 36.165301199799998 ], [ -115.1649873, 36.1652903998 ], [ -115.1649846, 36.1652903998 ], [ -115.1649846, 36.165268799799996 ], [ -115.1649873, 36.165268799799996 ], [ -115.1649873, 36.165255299799995 ], [ -115.16499, 36.165255299799995 ], [ -115.16499, 36.165193199799994 ], [ -115.1649846, 36.165193199799994 ], [ -115.1649846, 36.165190499799998 ], [ -115.1649792, 36.165190499799998 ], [ -115.1649792, 36.165187799799995 ], [ -115.1649738, 36.165187799799995 ], [ -115.1649738, 36.165179699799999 ], [ -115.1649711, 36.165179699799999 ], [ -115.1649711, 36.165163499799995 ], [ -115.1649684, 36.165163499799995 ], [ -115.1649684, 36.165152699799997 ], [ -115.1653329, 36.165152699799997 ], [ -115.1653329, 36.1651553998 ], [ -115.1653356, 36.1651553998 ], [ -115.1653356, 36.165160799799999 ], [ -115.1653329, 36.165160799799999 ], [ -115.1653329, 36.165168899799994 ], [ -115.1653302, 36.165168899799994 ], [ -115.1653302, 36.165174299799993 ], [ -115.1653329, 36.165174299799993 ], [ -115.1653329, 36.165206699799995 ], [ -115.1653302, 36.165206699799995 ], [ -115.1653302, 36.165233699799998 ], [ -115.1653329, 36.165233699799998 ], [ -115.1653329, 36.165244499799996 ], [ -115.1653302, 36.165244499799996 ], [ -115.1653302, 36.165249899799996 ], [ -115.165314, 36.165249899799996 ], [ -115.165314, 36.165252599799999 ], [ -115.165308599999989, 36.165252599799999 ], [ -115.165308599999989, 36.165255299799995 ], [ -115.1653059, 36.165255299799995 ], [ -115.1653059, 36.165257999799998 ], [ -115.1652978, 36.165257999799998 ], [ -115.1652978, 36.165260699799994 ], [ -115.1652951, 36.165260699799994 ], [ -115.1652951, 36.165257999799998 ], [ -115.1652924, 36.165257999799998 ], [ -115.1652924, 36.165260699799994 ], [ -115.165289699999988, 36.165260699799994 ], [ -115.165289699999988, 36.165271499799999 ], [ -115.1652951, 36.165271499799999 ], [ -115.1652951, 36.165274199799995 ], [ -115.1652978, 36.165274199799995 ], [ -115.1652978, 36.165271499799999 ], [ -115.1653032, 36.165271499799999 ], [ -115.1653032, 36.165274199799995 ], [ -115.1653059, 36.165274199799995 ], [ -115.1653059, 36.165282299799998 ], [ -115.165308599999989, 36.165282299799998 ], [ -115.165308599999989, 36.165284999799994 ], [ -115.1653059, 36.165284999799994 ], [ -115.1653059, 36.165303899799994 ], [ -115.1653032, 36.165303899799994 ], [ -115.1653032, 36.165309299799993 ], [ -115.1653005, 36.165309299799993 ], [ -115.1653005, 36.165330899799997 ], [ -115.1652978, 36.165330899799997 ], [ -115.1652978, 36.165347099799995 ], [ -115.1653005, 36.165347099799995 ], [ -115.1653005, 36.165433499799995 ], [ -115.1653032, 36.165433499799995 ], [ -115.1653032, 36.165446999799997 ], [ -115.1653059, 36.165446999799997 ], [ -115.1653059, 36.165452399799996 ], [ -115.165308599999989, 36.165452399799996 ], [ -115.165308599999989, 36.165455099799999 ], [ -115.1653113, 36.165455099799999 ], [ -115.1653113, 36.165452399799996 ], [ -115.165314, 36.165452399799996 ], [ -115.165314, 36.1654496998 ], [ -115.1653167, 36.1654496998 ], [ -115.1653167, 36.165452399799996 ], [ -115.1653194, 36.165452399799996 ], [ -115.1653194, 36.165455099799999 ], [ -115.1653221, 36.165455099799999 ], [ -115.1653221, 36.165457799799995 ], [ -115.165327499999989, 36.165457799799995 ], [ -115.165327499999989, 36.165455099799999 ], [ -115.1653302, 36.165455099799999 ], [ -115.1653302, 36.165457799799995 ], [ -115.1653329, 36.165457799799995 ], [ -115.1653329, 36.165476699799996 ], [ -115.1653302, 36.165476699799996 ], [ -115.1653302, 36.165484799799998 ], [ -115.1653329, 36.165484799799998 ], [ -115.1653329, 36.165500999799995 ], [ -115.1653356, 36.165500999799995 ], [ -115.1653356, 36.165527999799998 ], [ -115.1653302, 36.165527999799998 ], [ -115.1653302, 36.165530699799994 ] ] ] } }
]
}
