{
"type": "FeatureCollection",
"crs": { "type": "name", "properties": { "name": "urn:ogc:def:crs:OGC:1.3:CRS84" } },
"features": [
{ "type": "Feature", "properties": { "value": 255.0 }, "geometry": { "type": "Polygon", "coordinates": [ [ [ -115.2265689, 36.203668199899994 ], [ -115.2265554, 36.203668199899994 ], [ -115.2265554, 36.203665499899998 ], [ -115.2265527, 36.203665499899998 ], [ -115.2265527, 36.203662799899995 ], [ -115.22655, 36.203662799899995 ], [ -115.22655, 36.203660099899999 ], [ -115.2265473, 36.203660099899999 ], [ -115.2265473, 36.203646599899997 ], [ -115.2265446, 36.203646599899997 ], [ -115.2265446, 36.203660099899999 ], [ -115.2265419, 36.203660099899999 ], [ -115.2265419, 36.203657399899996 ], [ -115.2265392, 36.203657399899996 ], [ -115.2265392, 36.203660099899999 ], [ -115.2265365, 36.203660099899999 ], [ -115.2265365, 36.2036546999 ], [ -115.2265338, 36.2036546999 ], [ -115.2265338, 36.203638499899995 ], [ -115.2265311, 36.203638499899995 ], [ -115.2265311, 36.203619599899994 ], [ -115.2265284, 36.203619599899994 ], [ -115.2265284, 36.203595299899995 ], [ -115.2265365, 36.203595299899995 ], [ -115.2265365, 36.203592599899999 ], [ -115.2265311, 36.203592599899999 ], [ -115.2265311, 36.203589899899995 ], [ -115.2265473, 36.203589899899995 ], [ -115.2265473, 36.203592599899999 ], [ -115.2265527, 36.203592599899999 ], [ -115.2265527, 36.203589899899995 ], [ -115.2265608, 36.203589899899995 ], [ -115.2265608, 36.203587199899999 ], [ -115.2265527, 36.203587199899999 ], [ -115.2265527, 36.203584499899996 ], [ -115.2265743, 36.203584499899996 ], [ -115.2265743, 36.2035817999 ], [ -115.2265797, 36.2035817999 ], [ -115.2265797, 36.203584499899996 ], [ -115.2265824, 36.203584499899996 ], [ -115.2265824, 36.2035817999 ], [ -115.2265878, 36.2035817999 ], [ -115.2265878, 36.203584499899996 ], [ -115.2265905, 36.203584499899996 ], [ -115.2265905, 36.2036492999 ], [ -115.2265878, 36.2036492999 ], [ -115.2265878, 36.203660099899999 ], [ -115.2265851, 36.203660099899999 ], [ -115.2265851, 36.203665499899998 ], [ -115.2265824, 36.203665499899998 ], [ -115.2265824, 36.203662799899995 ], [ -115.226577, 36.203662799899995 ], [ -115.226577, 36.203665499899998 ], [ -115.2265743, 36.203665499899998 ], [ -115.2265743, 36.203662799899995 ], [ -115.2265716, 36.203662799899995 ], [ -115.2265716, 36.203665499899998 ], [ -115.2265689, 36.203665499899998 ], [ -115.2265689, 36.203668199899994 ] ], [ [ -115.2265689, 36.203589899899995 ], [ -115.2265689, 36.203587199899999 ], [ -115.2265635, 36.203587199899999 ], [ -115.2265635, 36.203589899899995 ], [ -115.2265689, 36.203589899899995 ] ] ] } },
{ "type": "Feature", "properties": { "value": 255.0 }, "geometry": { "type": "Polygon", "coordinates": [ [ [ -115.2267687, 36.203327999899997 ], [ -115.2267039, 36.203327999899997 ], [ -115.2267039, 36.203325299900001 ], [ -115.2267012, 36.203325299900001 ], [ -115.2267012, 36.203273999899999 ], [ -115.2266985, 36.203273999899999 ], [ -115.2266985, 36.2032631999 ], [ -115.2267012, 36.2032631999 ], [ -115.2267012, 36.203260499899997 ], [ -115.2267039, 36.203260499899997 ], [ -115.2267039, 36.203257799900001 ], [ -115.2267687, 36.203257799900001 ], [ -115.2267687, 36.2032631999 ], [ -115.2267714, 36.2032631999 ], [ -115.2267714, 36.203314499899996 ], [ -115.2267741, 36.203314499899996 ], [ -115.2267741, 36.203319899899995 ], [ -115.2267714, 36.203319899899995 ], [ -115.2267714, 36.203325299900001 ], [ -115.2267687, 36.203325299900001 ], [ -115.2267687, 36.203327999899997 ] ] ] } },
{ "type": "Feature", "properties": { "value": 255.0 }, "geometry": { "type": "Polygon", "coordinates": [ [ [ -115.22511630000001, 36.202904099899996 ], [ -115.2251109, 36.202904099899996 ], [ -115.2251109, 36.2029013999 ], [ -115.225105500000012, 36.2029013999 ], [ -115.225105500000012, 36.202904099899996 ], [ -115.2250947, 36.202904099899996 ], [ -115.2250947, 36.2029013999 ], [ -115.2250893, 36.2029013999 ], [ -115.2250893, 36.202898699899997 ], [ -115.225086600000012, 36.202898699899997 ], [ -115.225086600000012, 36.202895999900001 ], [ -115.2250812, 36.202895999900001 ], [ -115.2250812, 36.202893299899998 ], [ -115.2250704, 36.202893299899998 ], [ -115.2250704, 36.202890599900002 ], [ -115.2250596, 36.202890599900002 ], [ -115.2250596, 36.202893299899998 ], [ -115.2250326, 36.202893299899998 ], [ -115.2250326, 36.202736699900001 ], [ -115.2250434, 36.202736699900001 ], [ -115.2250434, 36.202739399899997 ], [ -115.2250461, 36.202739399899997 ], [ -115.2250461, 36.2027420999 ], [ -115.2250542, 36.2027420999 ], [ -115.2250542, 36.202739399899997 ], [ -115.225056900000013, 36.202739399899997 ], [ -115.225056900000013, 36.202736699900001 ], [ -115.2250758, 36.202736699900001 ], [ -115.2250758, 36.202733999899998 ], [ -115.2250812, 36.202733999899998 ], [ -115.2250812, 36.202731299900002 ], [ -115.225086600000012, 36.202731299900002 ], [ -115.225086600000012, 36.202728599899999 ], [ -115.2251244, 36.202728599899999 ], [ -115.2251244, 36.202731299900002 ], [ -115.2251271, 36.202731299900002 ], [ -115.2251271, 36.202736699900001 ], [ -115.2251298, 36.202736699900001 ], [ -115.2251298, 36.202744799899996 ], [ -115.225135200000011, 36.202744799899996 ], [ -115.225135200000011, 36.202747499899999 ], [ -115.225146, 36.202747499899999 ], [ -115.225146, 36.202750199900002 ], [ -115.22516490000001, 36.202750199900002 ], [ -115.22516490000001, 36.202752899899998 ], [ -115.2251919, 36.202752899899998 ], [ -115.2251919, 36.202760999900001 ], [ -115.2251946, 36.202760999900001 ], [ -115.2251946, 36.2027663999 ], [ -115.2251919, 36.2027663999 ], [ -115.2251919, 36.202855499899997 ], [ -115.2251892, 36.202855499899997 ], [ -115.2251892, 36.202890599900002 ], [ -115.2251865, 36.202890599900002 ], [ -115.2251865, 36.202895999900001 ], [ -115.2251811, 36.202895999900001 ], [ -115.2251811, 36.202898699899997 ], [ -115.2251271, 36.202898699899997 ], [ -115.2251271, 36.2029013999 ], [ -115.22511630000001, 36.2029013999 ], [ -115.22511630000001, 36.202904099899996 ] ] ] } },
{ "type": "Feature", "properties": { "value": 255.0 }, "geometry": { "type": "Polygon", "coordinates": [ [ [ -115.2256509, 36.2029013999 ], [ -115.225632, 36.2029013999 ], [ -115.225632, 36.202898699899997 ], [ -115.2256293, 36.202898699899997 ], [ -115.2256293, 36.2029013999 ], [ -115.2256185, 36.2029013999 ], [ -115.2256185, 36.202898699899997 ], [ -115.22547, 36.202898699899997 ], [ -115.22547, 36.202895999900001 ], [ -115.2254673, 36.202895999900001 ], [ -115.2254673, 36.202893299899998 ], [ -115.2254646, 36.202893299899998 ], [ -115.2254646, 36.202879799899996 ], [ -115.2254619, 36.202879799899996 ], [ -115.2254619, 36.202828499900001 ], [ -115.2254646, 36.202828499900001 ], [ -115.2254646, 36.2028095999 ], [ -115.2254673, 36.2028095999 ], [ -115.2254673, 36.202796099899999 ], [ -115.2254646, 36.202796099899999 ], [ -115.2254646, 36.2027852999 ], [ -115.2254619, 36.2027852999 ], [ -115.2254619, 36.202771799899999 ], [ -115.2254646, 36.202771799899999 ], [ -115.2254646, 36.202750199900002 ], [ -115.2254673, 36.202750199900002 ], [ -115.2254673, 36.202723199899999 ], [ -115.22547, 36.202723199899999 ], [ -115.22547, 36.202709699899998 ], [ -115.2254754, 36.202709699899998 ], [ -115.2254754, 36.202706999900002 ], [ -115.2255915, 36.202706999900002 ], [ -115.2255915, 36.202709699899998 ], [ -115.2256482, 36.202709699899998 ], [ -115.2256482, 36.202712399900001 ], [ -115.2256509, 36.202712399900001 ], [ -115.2256509, 36.202715099899997 ], [ -115.2256536, 36.202715099899997 ], [ -115.2256536, 36.202747499899999 ], [ -115.2256563, 36.202747499899999 ], [ -115.2256563, 36.2028095999 ], [ -115.225659, 36.2028095999 ], [ -115.225659, 36.202817699900002 ], [ -115.2256617, 36.202817699900002 ], [ -115.2256617, 36.202860899899996 ], [ -115.2256644, 36.202860899899996 ], [ -115.2256644, 36.202879799899996 ], [ -115.2256617, 36.202879799899996 ], [ -115.2256617, 36.202893299899998 ], [ -115.225659, 36.202893299899998 ], [ -115.225659, 36.202895999900001 ], [ -115.2256563, 36.202895999900001 ], [ -115.2256563, 36.202898699899997 ], [ -115.2256509, 36.202898699899997 ], [ -115.2256509, 36.2029013999 ] ] ] } },
{ "type": "Feature", "properties": { "value": 255.0 }, "geometry": { "type": "Polygon", "coordinates": [ [ [ -115.2258345, 36.202928399899996 ], [ -115.2258264, 36.202928399899996 ], [ -115.2258264, 36.2029256999 ], [ -115.225821, 36.2029256999 ], [ -115.225821, 36.202920299900001 ], [ -115.2258129, 36.202920299900001 ], [ -115.2258129, 36.202917599899997 ], [ -115.2258075, 36.202917599899997 ], [ -115.2258075, 36.202914899900001 ], [ -115.2258048, 36.202914899900001 ], [ -115.2258048, 36.202912199899998 ], [ -115.225794, 36.202912199899998 ], [ -115.225794, 36.202914899900001 ], [ -115.2257913, 36.202914899900001 ], [ -115.2257913, 36.202920299900001 ], [ -115.2257832, 36.202920299900001 ], [ -115.2257832, 36.202922999899997 ], [ -115.2257778, 36.202922999899997 ], [ -115.2257778, 36.2029256999 ], [ -115.2257751, 36.2029256999 ], [ -115.2257751, 36.202922999899997 ], [ -115.2257643, 36.202922999899997 ], [ -115.2257643, 36.2029256999 ], [ -115.2257562, 36.2029256999 ], [ -115.2257562, 36.202922999899997 ], [ -115.2257508, 36.202922999899997 ], [ -115.2257508, 36.202917599899997 ], [ -115.2257481, 36.202917599899997 ], [ -115.2257481, 36.202914899900001 ], [ -115.2257454, 36.202914899900001 ], [ -115.2257454, 36.202912199899998 ], [ -115.2257373, 36.202912199899998 ], [ -115.2257373, 36.202909499900002 ], [ -115.2257346, 36.202909499900002 ], [ -115.2257346, 36.202906799899999 ], [ -115.2257319, 36.202906799899999 ], [ -115.2257319, 36.202904099899996 ], [ -115.2257292, 36.202904099899996 ], [ -115.2257292, 36.2029013999 ], [ -115.2257265, 36.2029013999 ], [ -115.2257265, 36.202898699899997 ], [ -115.2257238, 36.202898699899997 ], [ -115.2257238, 36.202895999900001 ], [ -115.2257184, 36.202895999900001 ], [ -115.2257184, 36.202893299899998 ], [ -115.2257103, 36.202893299899998 ], [ -115.2257103, 36.202890599900002 ], [ -115.2257076, 36.202890599900002 ], [ -115.2257076, 36.202887899899999 ], [ -115.2257049, 36.202887899899999 ], [ -115.2257049, 36.202885199899995 ], [ -115.2257022, 36.202885199899995 ], [ -115.2257022, 36.202879799899996 ], [ -115.2256995, 36.202879799899996 ], [ -115.2256995, 36.202874399899997 ], [ -115.2256968, 36.202874399899997 ], [ -115.2256968, 36.202863599899999 ], [ -115.2256941, 36.202863599899999 ], [ -115.2256941, 36.202796099899999 ], [ -115.2256968, 36.202796099899999 ], [ -115.2256968, 36.202739399899997 ], [ -115.2256995, 36.202739399899997 ], [ -115.2256995, 36.202728599899999 ], [ -115.2257049, 36.202728599899999 ], [ -115.2257049, 36.202725899900003 ], [ -115.2257076, 36.202725899900003 ], [ -115.2257076, 36.202723199899999 ], [ -115.2257103, 36.202723199899999 ], [ -115.2257103, 36.202720499899996 ], [ -115.2257157, 36.202720499899996 ], [ -115.2257157, 36.2027177999 ], [ -115.2257562, 36.2027177999 ], [ -115.2257562, 36.202720499899996 ], [ -115.2257589, 36.202720499899996 ], [ -115.2257589, 36.202723199899999 ], [ -115.2257751, 36.202723199899999 ], [ -115.2257751, 36.202725899900003 ], [ -115.2257805, 36.202725899900003 ], [ -115.2257805, 36.202723199899999 ], [ -115.2257913, 36.202723199899999 ], [ -115.2257913, 36.2027177999 ], [ -115.2257886, 36.2027177999 ], [ -115.2257886, 36.202712399900001 ], [ -115.2257751, 36.202712399900001 ], [ -115.2257751, 36.202706999900002 ], [ -115.2257832, 36.202706999900002 ], [ -115.2257832, 36.202709699899998 ], [ -115.2257886, 36.202709699899998 ], [ -115.2257886, 36.202706999900002 ], [ -115.2258102, 36.202706999900002 ], [ -115.2258102, 36.202709699899998 ], [ -115.2258129, 36.202709699899998 ], [ -115.2258129, 36.202712399900001 ], [ -115.2258156, 36.202712399900001 ], [ -115.2258156, 36.2027177999 ], [ -115.2258183, 36.2027177999 ], [ -115.2258183, 36.202720499899996 ], [ -115.225821, 36.202720499899996 ], [ -115.225821, 36.202723199899999 ], [ -115.2258237, 36.202723199899999 ], [ -115.2258237, 36.202725899900003 ], [ -115.2258264, 36.202725899900003 ], [ -115.2258264, 36.202728599899999 ], [ -115.2258372, 36.202728599899999 ], [ -115.2258372, 36.202731299900002 ], [ -115.2258399, 36.202731299900002 ], [ -115.2258399, 36.202733999899998 ], [ -115.2258426, 36.202733999899998 ], [ -115.2258426, 36.202747499899999 ], [ -115.2258453, 36.202747499899999 ], [ -115.2258453, 36.202755599900001 ], [ -115.2258426, 36.202755599900001 ], [ -115.2258426, 36.202806899899997 ], [ -115.2258453, 36.202806899899997 ], [ -115.2258453, 36.202817699900002 ], [ -115.2258426, 36.202817699900002 ], [ -115.2258426, 36.202823099900002 ], [ -115.2258453, 36.202823099900002 ], [ -115.2258453, 36.202860899899996 ], [ -115.2258426, 36.202860899899996 ], [ -115.2258426, 36.2028770999 ], [ -115.2258372, 36.2028770999 ], [ -115.2258372, 36.202879799899996 ], [ -115.2258345, 36.202879799899996 ], [ -115.2258345, 36.202882499899999 ], [ -115.2258318, 36.202882499899999 ], [ -115.2258318, 36.202895999900001 ], [ -115.2258345, 36.202895999900001 ], [ -115.2258345, 36.202909499900002 ], [ -115.2258372, 36.202909499900002 ], [ -115.2258372, 36.202917599899997 ], [ -115.2258345, 36.202917599899997 ], [ -115.2258345, 36.202928399899996 ] ], [ [ -115.2258183, 36.202904099899996 ], [ -115.2258183, 36.2029013999 ], [ -115.2258156, 36.2029013999 ], [ -115.2258156, 36.202904099899996 ], [ -115.2258183, 36.202904099899996 ] ], [ [ -115.2258291, 36.202904099899996 ], [ -115.2258291, 36.2029013999 ], [ -115.2258264, 36.2029013999 ], [ -115.2258264, 36.202898699899997 ], [ -115.2258237, 36.202898699899997 ], [ -115.2258237, 36.202904099899996 ], [ -115.2258291, 36.202904099899996 ] ], [ [ -115.2258264, 36.202895999900001 ], [ -115.2258264, 36.202893299899998 ], [ -115.2258291, 36.202893299899998 ], [ -115.2258291, 36.202890599900002 ], [ -115.2258264, 36.202890599900002 ], [ -115.2258264, 36.202887899899999 ], [ -115.2258237, 36.202887899899999 ], [ -115.2258237, 36.202895999900001 ], [ -115.2258264, 36.202895999900001 ] ], [ [ -115.2258291, 36.202920299900001 ], [ -115.2258291, 36.202917599899997 ], [ -115.2258264, 36.202917599899997 ], [ -115.2258264, 36.202920299900001 ], [ -115.2258291, 36.202920299900001 ] ] ] } },
{ "type": "Feature", "properties": { "value": 255.0 }, "geometry": { "type": "Polygon", "coordinates": [ [ [ -115.2266715, 36.202922999899997 ], [ -115.226666099999989, 36.202922999899997 ], [ -115.226666099999989, 36.202920299900001 ], [ -115.2266607, 36.202920299900001 ], [ -115.2266607, 36.202922999899997 ], [ -115.2266472, 36.202922999899997 ], [ -115.2266472, 36.202920299900001 ], [ -115.226631, 36.202920299900001 ], [ -115.226631, 36.202917599899997 ], [ -115.2266229, 36.202917599899997 ], [ -115.2266229, 36.202914899900001 ], [ -115.2265797, 36.202914899900001 ], [ -115.2265797, 36.202917599899997 ], [ -115.2265743, 36.202917599899997 ], [ -115.2265743, 36.202920299900001 ], [ -115.2265635, 36.202920299900001 ], [ -115.2265635, 36.202922999899997 ], [ -115.2265608, 36.202922999899997 ], [ -115.2265608, 36.202920299900001 ], [ -115.2265473, 36.202920299900001 ], [ -115.2265473, 36.202922999899997 ], [ -115.2265203, 36.202922999899997 ], [ -115.2265203, 36.202920299900001 ], [ -115.2264798, 36.202920299900001 ], [ -115.2264798, 36.202917599899997 ], [ -115.2264744, 36.202917599899997 ], [ -115.2264744, 36.202914899900001 ], [ -115.226469, 36.202914899900001 ], [ -115.226469, 36.202912199899998 ], [ -115.2264312, 36.202912199899998 ], [ -115.2264312, 36.202914899900001 ], [ -115.2264204, 36.202914899900001 ], [ -115.2264204, 36.202917599899997 ], [ -115.2263718, 36.202917599899997 ], [ -115.2263718, 36.202914899900001 ], [ -115.2263664, 36.202914899900001 ], [ -115.2263664, 36.202912199899998 ], [ -115.2263556, 36.202912199899998 ], [ -115.2263556, 36.202909499900002 ], [ -115.2263529, 36.202909499900002 ], [ -115.2263529, 36.202912199899998 ], [ -115.226334, 36.202912199899998 ], [ -115.226334, 36.202909499900002 ], [ -115.2262395, 36.202909499900002 ], [ -115.2262395, 36.202906799899999 ], [ -115.2261828, 36.202906799899999 ], [ -115.2261828, 36.202909499900002 ], [ -115.2261369, 36.202909499900002 ], [ -115.2261369, 36.202906799899999 ], [ -115.2260316, 36.202906799899999 ], [ -115.2260316, 36.202909499900002 ], [ -115.2259722, 36.202909499900002 ], [ -115.2259722, 36.202912199899998 ], [ -115.225956, 36.202912199899998 ], [ -115.225956, 36.202909499900002 ], [ -115.2259398, 36.202909499900002 ], [ -115.2259398, 36.202906799899999 ], [ -115.2259074, 36.202906799899999 ], [ -115.2259074, 36.202904099899996 ], [ -115.2259047, 36.202904099899996 ], [ -115.2259047, 36.202868999899998 ], [ -115.225902, 36.202868999899998 ], [ -115.225902, 36.202855499899997 ], [ -115.2259047, 36.202855499899997 ], [ -115.2259047, 36.202817699900002 ], [ -115.2259074, 36.202817699900002 ], [ -115.2259074, 36.2028095999 ], [ -115.2259101, 36.2028095999 ], [ -115.2259101, 36.202806899899997 ], [ -115.2259128, 36.202806899899997 ], [ -115.2259128, 36.202798799900002 ], [ -115.2259155, 36.202798799900002 ], [ -115.2259155, 36.202787999899996 ], [ -115.2259182, 36.202787999899996 ], [ -115.2259182, 36.202777199899998 ], [ -115.2259209, 36.202777199899998 ], [ -115.2259209, 36.2027420999 ], [ -115.2259263, 36.2027420999 ], [ -115.2259263, 36.202739399899997 ], [ -115.2260154, 36.202739399899997 ], [ -115.2260154, 36.2027420999 ], [ -115.2260586, 36.2027420999 ], [ -115.2260586, 36.202744799899996 ], [ -115.2260613, 36.202744799899996 ], [ -115.2260613, 36.202747499899999 ], [ -115.226064, 36.202747499899999 ], [ -115.226064, 36.202744799899996 ], [ -115.2260667, 36.202744799899996 ], [ -115.2260667, 36.202739399899997 ], [ -115.2260748, 36.202739399899997 ], [ -115.2260748, 36.2027420999 ], [ -115.2260937, 36.2027420999 ], [ -115.2260937, 36.202736699900001 ], [ -115.226091, 36.202736699900001 ], [ -115.226091, 36.202733999899998 ], [ -115.2260883, 36.202733999899998 ], [ -115.2260883, 36.202731299900002 ], [ -115.2260748, 36.202731299900002 ], [ -115.2260748, 36.202733999899998 ], [ -115.2260505, 36.202733999899998 ], [ -115.2260505, 36.202731299900002 ], [ -115.2260478, 36.202731299900002 ], [ -115.2260478, 36.202728599899999 ], [ -115.2259749, 36.202728599899999 ], [ -115.2259749, 36.202725899900003 ], [ -115.225929, 36.202725899900003 ], [ -115.225929, 36.202723199899999 ], [ -115.2259209, 36.202723199899999 ], [ -115.2259209, 36.2027177999 ], [ -115.2259182, 36.2027177999 ], [ -115.2259182, 36.202712399900001 ], [ -115.2259155, 36.202712399900001 ], [ -115.2259155, 36.202688099900001 ], [ -115.2259128, 36.202688099900001 ], [ -115.2259128, 36.202671899899997 ], [ -115.2259155, 36.202671899899997 ], [ -115.2259155, 36.202669199900001 ], [ -115.2259722, 36.202669199900001 ], [ -115.2259722, 36.202666499899998 ], [ -115.2260046, 36.202666499899998 ], [ -115.2260046, 36.202669199900001 ], [ -115.226118, 36.202669199900001 ], [ -115.226118, 36.202671899899997 ], [ -115.2262179, 36.202671899899997 ], [ -115.2262179, 36.202669199900001 ], [ -115.2262233, 36.202669199900001 ], [ -115.2262233, 36.202671899899997 ], [ -115.2263151, 36.202671899899997 ], [ -115.2263151, 36.2026745999 ], [ -115.2263934, 36.2026745999 ], [ -115.2263934, 36.202677299899996 ], [ -115.2265257, 36.202677299899996 ], [ -115.2265257, 36.202679999899999 ], [ -115.2266634, 36.202679999899999 ], [ -115.2266634, 36.202682699900002 ], [ -115.2266985, 36.202682699900002 ], [ -115.2266985, 36.202679999899999 ], [ -115.2267876, 36.202679999899999 ], [ -115.2267876, 36.202912199899998 ], [ -115.226782199999988, 36.202912199899998 ], [ -115.226782199999988, 36.202914899900001 ], [ -115.2267309, 36.202914899900001 ], [ -115.2267309, 36.202912199899998 ], [ -115.2267255, 36.202912199899998 ], [ -115.2267255, 36.202914899900001 ], [ -115.2266931, 36.202914899900001 ], [ -115.2266931, 36.202917599899997 ], [ -115.2266796, 36.202917599899997 ], [ -115.2266796, 36.202920299900001 ], [ -115.2266715, 36.202920299900001 ], [ -115.2266715, 36.202922999899997 ] ], [ [ -115.2260667, 36.202801499899998 ], [ -115.2260667, 36.202798799900002 ], [ -115.2260694, 36.202798799900002 ], [ -115.2260694, 36.202793399900003 ], [ -115.2260667, 36.202793399900003 ], [ -115.2260667, 36.2027906999 ], [ -115.226064, 36.2027906999 ], [ -115.226064, 36.202774499900002 ], [ -115.2260586, 36.202774499900002 ], [ -115.2260586, 36.202777199899998 ], [ -115.2260559, 36.202777199899998 ], [ -115.2260559, 36.202787999899996 ], [ -115.2260586, 36.202787999899996 ], [ -115.2260586, 36.2027906999 ], [ -115.2260559, 36.2027906999 ], [ -115.2260559, 36.202793399900003 ], [ -115.2260532, 36.202793399900003 ], [ -115.2260532, 36.202796099899999 ], [ -115.2260505, 36.202796099899999 ], [ -115.2260505, 36.202798799900002 ], [ -115.2260532, 36.202798799900002 ], [ -115.2260532, 36.202801499899998 ], [ -115.2260667, 36.202801499899998 ] ], [ [ -115.2266472, 36.202828499900001 ], [ -115.2266472, 36.202825799899998 ], [ -115.2266499, 36.202825799899998 ], [ -115.2266499, 36.202823099900002 ], [ -115.2266526, 36.202823099900002 ], [ -115.2266526, 36.202814999899999 ], [ -115.2266553, 36.202814999899999 ], [ -115.2266553, 36.2028095999 ], [ -115.226658, 36.2028095999 ], [ -115.226658, 36.202806899899997 ], [ -115.2266607, 36.202806899899997 ], [ -115.2266607, 36.202804199900001 ], [ -115.2266634, 36.202804199900001 ], [ -115.2266634, 36.202801499899998 ], [ -115.2266688, 36.202801499899998 ], [ -115.2266688, 36.202798799900002 ], [ -115.2266742, 36.202798799900002 ], [ -115.2266742, 36.202796099899999 ], [ -115.2266796, 36.202796099899999 ], [ -115.2266796, 36.202793399900003 ], [ -115.2266823, 36.202793399900003 ], [ -115.2266823, 36.2027906999 ], [ -115.2266877, 36.2027906999 ], [ -115.2266877, 36.202787999899996 ], [ -115.2266931, 36.202787999899996 ], [ -115.2266931, 36.2027852999 ], [ -115.2267012, 36.2027852999 ], [ -115.2267012, 36.202782599899997 ], [ -115.2267201, 36.202782599899997 ], [ -115.2267201, 36.2027852999 ], [ -115.2267228, 36.2027852999 ], [ -115.2267228, 36.202787999899996 ], [ -115.2267255, 36.202787999899996 ], [ -115.2267255, 36.202769099899996 ], [ -115.2267282, 36.202769099899996 ], [ -115.2267282, 36.2027663999 ], [ -115.226739, 36.2027663999 ], [ -115.226739, 36.202763699899997 ], [ -115.2267417, 36.202763699899997 ], [ -115.2267417, 36.202760999900001 ], [ -115.226739, 36.202760999900001 ], [ -115.226739, 36.202758299899997 ], [ -115.2267363, 36.202758299899997 ], [ -115.2267363, 36.202755599900001 ], [ -115.226733599999989, 36.202755599900001 ], [ -115.226733599999989, 36.202750199900002 ], [ -115.2267309, 36.202750199900002 ], [ -115.2267309, 36.202747499899999 ], [ -115.2267282, 36.202747499899999 ], [ -115.2267282, 36.202744799899996 ], [ -115.226733599999989, 36.202744799899996 ], [ -115.226733599999989, 36.2027420999 ], [ -115.2267066, 36.2027420999 ], [ -115.2267066, 36.202744799899996 ], [ -115.2266688, 36.202744799899996 ], [ -115.2266688, 36.2027420999 ], [ -115.2265959, 36.2027420999 ], [ -115.2265959, 36.202739399899997 ], [ -115.2264339, 36.202739399899997 ], [ -115.2264339, 36.202736699900001 ], [ -115.2262962, 36.202736699900001 ], [ -115.2262962, 36.202733999899998 ], [ -115.2262827, 36.202733999899998 ], [ -115.2262827, 36.202731299900002 ], [ -115.2262746, 36.202731299900002 ], [ -115.2262746, 36.202733999899998 ], [ -115.2262719, 36.202733999899998 ], [ -115.2262719, 36.202731299900002 ], [ -115.2261666, 36.202731299900002 ], [ -115.2261666, 36.202733999899998 ], [ -115.2261531, 36.202733999899998 ], [ -115.2261531, 36.202736699900001 ], [ -115.2261504, 36.202736699900001 ], [ -115.2261504, 36.202739399899997 ], [ -115.2261585, 36.202739399899997 ], [ -115.2261585, 36.2027420999 ], [ -115.2261774, 36.2027420999 ], [ -115.2261774, 36.202744799899996 ], [ -115.2262071, 36.202744799899996 ], [ -115.2262071, 36.202747499899999 ], [ -115.2262098, 36.202747499899999 ], [ -115.2262098, 36.202750199900002 ], [ -115.2262125, 36.202750199900002 ], [ -115.2262125, 36.202752899899998 ], [ -115.2262152, 36.202752899899998 ], [ -115.2262152, 36.202755599900001 ], [ -115.2262179, 36.202755599900001 ], [ -115.2262179, 36.202752899899998 ], [ -115.2262206, 36.202752899899998 ], [ -115.2262206, 36.202750199900002 ], [ -115.2262233, 36.202750199900002 ], [ -115.2262233, 36.202747499899999 ], [ -115.226226, 36.202747499899999 ], [ -115.226226, 36.202744799899996 ], [ -115.2262746, 36.202744799899996 ], [ -115.2262746, 36.202747499899999 ], [ -115.2262908, 36.202747499899999 ], [ -115.2262908, 36.202752899899998 ], [ -115.2262935, 36.202752899899998 ], [ -115.2262935, 36.2027852999 ], [ -115.2262962, 36.2027852999 ], [ -115.2262962, 36.202787999899996 ], [ -115.2262989, 36.202787999899996 ], [ -115.2262989, 36.2027852999 ], [ -115.2263016, 36.2027852999 ], [ -115.2263016, 36.202782599899997 ], [ -115.2263043, 36.202782599899997 ], [ -115.2263043, 36.202779899900001 ], [ -115.2263124, 36.202779899900001 ], [ -115.2263124, 36.202782599899997 ], [ -115.2263151, 36.202782599899997 ], [ -115.2263151, 36.2027852999 ], [ -115.2263286, 36.2027852999 ], [ -115.2263286, 36.202787999899996 ], [ -115.226334, 36.202787999899996 ], [ -115.226334, 36.2027852999 ], [ -115.2263502, 36.2027852999 ], [ -115.2263502, 36.202787999899996 ], [ -115.2263583, 36.202787999899996 ], [ -115.2263583, 36.2027852999 ], [ -115.2263637, 36.2027852999 ], [ -115.2263637, 36.202787999899996 ], [ -115.2263664, 36.202787999899996 ], [ -115.2263664, 36.2027906999 ], [ -115.2263691, 36.2027906999 ], [ -115.2263691, 36.202793399900003 ], [ -115.2263718, 36.202793399900003 ], [ -115.2263718, 36.202796099899999 ], [ -115.2263745, 36.202796099899999 ], [ -115.2263745, 36.202820399899998 ], [ -115.2263772, 36.202820399899998 ], [ -115.2263772, 36.202823099900002 ], [ -115.2263988, 36.202823099900002 ], [ -115.2263988, 36.202825799899998 ], [ -115.2264312, 36.202825799899998 ], [ -115.2264312, 36.202828499900001 ], [ -115.2266472, 36.202828499900001 ] ], [ [ -115.2262179, 36.2028095999 ], [ -115.2262179, 36.202806899899997 ], [ -115.2262206, 36.202806899899997 ], [ -115.2262206, 36.2027906999 ], [ -115.2262179, 36.2027906999 ], [ -115.2262179, 36.202787999899996 ], [ -115.2262152, 36.202787999899996 ], [ -115.2262152, 36.2027852999 ], [ -115.2262125, 36.2027852999 ], [ -115.2262125, 36.202787999899996 ], [ -115.2262098, 36.202787999899996 ], [ -115.2262098, 36.2027906999 ], [ -115.2262071, 36.2027906999 ], [ -115.2262071, 36.202796099899999 ], [ -115.2262044, 36.202796099899999 ], [ -115.2262044, 36.202798799900002 ], [ -115.226199, 36.202798799900002 ], [ -115.226199, 36.202806899899997 ], [ -115.2262017, 36.202806899899997 ], [ -115.2262017, 36.2028095999 ], [ -115.2262179, 36.2028095999 ] ], [ [ -115.2262179, 36.202782599899997 ], [ -115.2262179, 36.202777199899998 ], [ -115.2262125, 36.202777199899998 ], [ -115.2262125, 36.202782599899997 ], [ -115.2262179, 36.202782599899997 ] ], [ [ -115.2262179, 36.202774499900002 ], [ -115.2262179, 36.202760999900001 ], [ -115.2262152, 36.202760999900001 ], [ -115.2262152, 36.202774499900002 ], [ -115.2262179, 36.202774499900002 ] ], [ [ -115.2267417, 36.202750199900002 ], [ -115.2267417, 36.202747499899999 ], [ -115.226739, 36.202747499899999 ], [ -115.226739, 36.202750199900002 ], [ -115.2267417, 36.202750199900002 ] ] ] } },
{ "type": "Feature", "properties": { "value": 255.0 }, "geometry": { "type": "Polygon", "coordinates": [ [ [ -115.225183800000011, 36.202685399899998 ], [ -115.2251406, 36.202685399899998 ], [ -115.2251406, 36.202682699900002 ], [ -115.2251271, 36.202682699900002 ], [ -115.2251271, 36.202685399899998 ], [ -115.2251082, 36.202685399899998 ], [ -115.2251082, 36.202682699900002 ], [ -115.2250326, 36.202682699900002 ], [ -115.2250326, 36.202639499900002 ], [ -115.2250947, 36.202639499900002 ], [ -115.2250947, 36.202642199899998 ], [ -115.2251001, 36.202642199899998 ], [ -115.2251001, 36.202639499900002 ], [ -115.225135200000011, 36.202639499900002 ], [ -115.225135200000011, 36.202642199899998 ], [ -115.2251784, 36.202642199899998 ], [ -115.2251784, 36.202644899900001 ], [ -115.225183800000011, 36.202644899900001 ], [ -115.225183800000011, 36.2026502999 ], [ -115.2251865, 36.2026502999 ], [ -115.2251865, 36.202661099899998 ], [ -115.2251892, 36.202661099899998 ], [ -115.2251892, 36.202663799900002 ], [ -115.2251865, 36.202663799900002 ], [ -115.2251865, 36.202666499899998 ], [ -115.2251892, 36.202666499899998 ], [ -115.2251892, 36.202682699900002 ], [ -115.225183800000011, 36.202682699900002 ], [ -115.225183800000011, 36.202685399899998 ] ] ] } },
{ "type": "Feature", "properties": { "value": 255.0 }, "geometry": { "type": "Polygon", "coordinates": [ [ [ -115.2264825, 36.202512599899997 ], [ -115.2264582, 36.202512599899997 ], [ -115.2264582, 36.202509899900001 ], [ -115.2264501, 36.202509899900001 ], [ -115.2264501, 36.202512599899997 ], [ -115.2264177, 36.202512599899997 ], [ -115.2264177, 36.202509899900001 ], [ -115.226415, 36.202509899900001 ], [ -115.226415, 36.202501799899999 ], [ -115.2264096, 36.202501799899999 ], [ -115.2264096, 36.202499099900002 ], [ -115.2264069, 36.202499099900002 ], [ -115.2264069, 36.202496399899999 ], [ -115.2263772, 36.202496399899999 ], [ -115.2263772, 36.202493699900003 ], [ -115.2263745, 36.202493699900003 ], [ -115.2263745, 36.2024909999 ], [ -115.2263718, 36.2024909999 ], [ -115.2263718, 36.202442399900001 ], [ -115.2263745, 36.202442399900001 ], [ -115.2263745, 36.202426199900003 ], [ -115.2263772, 36.202426199900003 ], [ -115.2263772, 36.202409999899999 ], [ -115.2263745, 36.202409999899999 ], [ -115.2263745, 36.2023802999 ], [ -115.2263772, 36.2023802999 ], [ -115.2263772, 36.202374899900001 ], [ -115.2263745, 36.202374899900001 ], [ -115.2263745, 36.202350599900001 ], [ -115.2263772, 36.202350599900001 ], [ -115.2263772, 36.202345199900002 ], [ -115.2263826, 36.202345199900002 ], [ -115.2263826, 36.202342499899999 ], [ -115.2264096, 36.202342499899999 ], [ -115.2264096, 36.202339799900003 ], [ -115.226415, 36.202339799900003 ], [ -115.226415, 36.2023316999 ], [ -115.2264177, 36.2023316999 ], [ -115.2264177, 36.202328999899997 ], [ -115.2264339, 36.202328999899997 ], [ -115.2264339, 36.2023316999 ], [ -115.2264366, 36.2023316999 ], [ -115.2264366, 36.202334399900003 ], [ -115.2264528, 36.202334399900003 ], [ -115.2264528, 36.202337099899999 ], [ -115.2264717, 36.202337099899999 ], [ -115.2264717, 36.202339799900003 ], [ -115.2264798, 36.202339799900003 ], [ -115.2264798, 36.202337099899999 ], [ -115.2264933, 36.202337099899999 ], [ -115.2264933, 36.202334399900003 ], [ -115.2265068, 36.202334399900003 ], [ -115.2265068, 36.202339799900003 ], [ -115.2265095, 36.202339799900003 ], [ -115.2265095, 36.202342499899999 ], [ -115.2265122, 36.202342499899999 ], [ -115.2265122, 36.202345199900002 ], [ -115.2265176, 36.202345199900002 ], [ -115.2265176, 36.202347899899998 ], [ -115.2265203, 36.202347899899998 ], [ -115.2265203, 36.202350599900001 ], [ -115.226523, 36.202350599900001 ], [ -115.226523, 36.2023559999 ], [ -115.2265257, 36.2023559999 ], [ -115.2265257, 36.202358699900003 ], [ -115.2265284, 36.202358699900003 ], [ -115.2265284, 36.202364099900002 ], [ -115.2265311, 36.202364099900002 ], [ -115.2265311, 36.202391099899998 ], [ -115.2265338, 36.202391099899998 ], [ -115.2265338, 36.202396499899997 ], [ -115.2265311, 36.202396499899997 ], [ -115.2265311, 36.2023991999 ], [ -115.2265338, 36.2023991999 ], [ -115.2265338, 36.202404599899999 ], [ -115.2265365, 36.202404599899999 ], [ -115.2265365, 36.202409999899999 ], [ -115.2265392, 36.202409999899999 ], [ -115.2265392, 36.202412699900002 ], [ -115.2265419, 36.202412699900002 ], [ -115.2265419, 36.202415399899998 ], [ -115.2265446, 36.202415399899998 ], [ -115.2265446, 36.202420799899997 ], [ -115.2265473, 36.202420799899997 ], [ -115.2265473, 36.202431599900002 ], [ -115.2265446, 36.202431599900002 ], [ -115.2265446, 36.202436999900002 ], [ -115.2265473, 36.202436999900002 ], [ -115.2265473, 36.2024666999 ], [ -115.2265446, 36.2024666999 ], [ -115.2265446, 36.2024909999 ], [ -115.2265419, 36.2024909999 ], [ -115.2265419, 36.202496399899999 ], [ -115.2265311, 36.202496399899999 ], [ -115.2265311, 36.202499099900002 ], [ -115.2265176, 36.202499099900002 ], [ -115.2265176, 36.202501799899999 ], [ -115.2265122, 36.202501799899999 ], [ -115.2265122, 36.202504499900002 ], [ -115.2265095, 36.202504499900002 ], [ -115.2265095, 36.202509899900001 ], [ -115.2264825, 36.202509899900001 ], [ -115.2264825, 36.202512599899997 ] ] ] } },
{ "type": "Feature", "properties": { "value": 255.0 }, "geometry": { "type": "Polygon", "coordinates": [ [ [ -115.2267255, 36.202512599899997 ], [ -115.226631, 36.202512599899997 ], [ -115.226631, 36.202509899900001 ], [ -115.2266283, 36.202509899900001 ], [ -115.2266283, 36.202507199899998 ], [ -115.2266256, 36.202507199899998 ], [ -115.2266256, 36.202501799899999 ], [ -115.2266202, 36.202501799899999 ], [ -115.2266202, 36.202499099900002 ], [ -115.2266148, 36.202499099900002 ], [ -115.2266148, 36.202496399899999 ], [ -115.2265959, 36.202496399899999 ], [ -115.2265959, 36.202493699900003 ], [ -115.2265932, 36.202493699900003 ], [ -115.2265932, 36.202488299899997 ], [ -115.2265959, 36.202488299899997 ], [ -115.2265959, 36.202455899900002 ], [ -115.2265986, 36.202455899900002 ], [ -115.2265986, 36.202453199899999 ], [ -115.2265959, 36.202453199899999 ], [ -115.2265959, 36.202450499900003 ], [ -115.2266094, 36.202450499900003 ], [ -115.2266094, 36.202445099899997 ], [ -115.2266121, 36.202445099899997 ], [ -115.2266121, 36.202442399900001 ], [ -115.2265986, 36.202442399900001 ], [ -115.2265986, 36.202439699899998 ], [ -115.2265959, 36.202439699899998 ], [ -115.2265959, 36.202436999900002 ], [ -115.2265932, 36.202436999900002 ], [ -115.2265932, 36.202434299899998 ], [ -115.2265905, 36.202434299899998 ], [ -115.2265905, 36.2024234999 ], [ -115.2265932, 36.2024234999 ], [ -115.2265932, 36.2023802999 ], [ -115.2265959, 36.2023802999 ], [ -115.2265959, 36.202347899899998 ], [ -115.2265986, 36.202347899899998 ], [ -115.2265986, 36.202345199900002 ], [ -115.2266121, 36.202345199900002 ], [ -115.2266121, 36.202342499899999 ], [ -115.2266229, 36.202342499899999 ], [ -115.2266229, 36.202339799900003 ], [ -115.2266283, 36.202339799900003 ], [ -115.2266283, 36.2023316999 ], [ -115.226631, 36.2023316999 ], [ -115.226631, 36.202328999899997 ], [ -115.2267255, 36.202328999899997 ], [ -115.2267255, 36.2023316999 ], [ -115.2267309, 36.2023316999 ], [ -115.2267309, 36.202334399900003 ], [ -115.226733599999989, 36.202334399900003 ], [ -115.226733599999989, 36.202339799900003 ], [ -115.2267363, 36.202339799900003 ], [ -115.2267363, 36.202342499899999 ], [ -115.226739, 36.202342499899999 ], [ -115.226739, 36.202345199900002 ], [ -115.2267579, 36.202345199900002 ], [ -115.2267579, 36.202347899899998 ], [ -115.226766, 36.202347899899998 ], [ -115.226766, 36.202350599900001 ], [ -115.2267687, 36.202350599900001 ], [ -115.2267687, 36.2023802999 ], [ -115.226766, 36.2023802999 ], [ -115.226766, 36.202385699899999 ], [ -115.2267687, 36.202385699899999 ], [ -115.2267687, 36.202404599899999 ], [ -115.226766, 36.202404599899999 ], [ -115.226766, 36.202420799899997 ], [ -115.2267687, 36.202420799899997 ], [ -115.2267687, 36.202450499900003 ], [ -115.226766, 36.202450499900003 ], [ -115.226766, 36.202488299899997 ], [ -115.226763299999988, 36.202488299899997 ], [ -115.226763299999988, 36.202499099900002 ], [ -115.226739, 36.202499099900002 ], [ -115.226739, 36.202501799899999 ], [ -115.226733599999989, 36.202501799899999 ], [ -115.226733599999989, 36.202504499900002 ], [ -115.2267309, 36.202504499900002 ], [ -115.2267309, 36.202507199899998 ], [ -115.2267282, 36.202507199899998 ], [ -115.2267282, 36.202509899900001 ], [ -115.2267255, 36.202509899900001 ], [ -115.2267255, 36.202512599899997 ] ] ] } },
{ "type": "Feature", "properties": { "value": 255.0 }, "geometry": { "type": "Polygon", "coordinates": [ [ [ -115.2262881, 36.202507199899998 ], [ -115.2261882, 36.202507199899998 ], [ -115.2261882, 36.202504499900002 ], [ -115.2261855, 36.202504499900002 ], [ -115.2261855, 36.202501799899999 ], [ -115.2261828, 36.202501799899999 ], [ -115.2261828, 36.202499099900002 ], [ -115.2261747, 36.202499099900002 ], [ -115.2261747, 36.202496399899999 ], [ -115.2261612, 36.202496399899999 ], [ -115.2261612, 36.202493699900003 ], [ -115.2261558, 36.202493699900003 ], [ -115.2261558, 36.2024909999 ], [ -115.2261531, 36.2024909999 ], [ -115.2261531, 36.202488299899997 ], [ -115.2261504, 36.202488299899997 ], [ -115.2261504, 36.202407299900003 ], [ -115.2261531, 36.202407299900003 ], [ -115.2261531, 36.202401899900003 ], [ -115.2261558, 36.202401899900003 ], [ -115.2261558, 36.2023802999 ], [ -115.2261585, 36.2023802999 ], [ -115.2261585, 36.202377599900004 ], [ -115.2261558, 36.202377599900004 ], [ -115.2261558, 36.202358699900003 ], [ -115.2261531, 36.202358699900003 ], [ -115.2261531, 36.202350599900001 ], [ -115.2261558, 36.202350599900001 ], [ -115.2261558, 36.202339799900003 ], [ -115.2261612, 36.202339799900003 ], [ -115.2261612, 36.202337099899999 ], [ -115.2262125, 36.202337099899999 ], [ -115.2262125, 36.202334399900003 ], [ -115.2262449, 36.202334399900003 ], [ -115.2262449, 36.202337099899999 ], [ -115.2262476, 36.202337099899999 ], [ -115.2262476, 36.202334399900003 ], [ -115.2262854, 36.202334399900003 ], [ -115.2262854, 36.202337099899999 ], [ -115.2262908, 36.202337099899999 ], [ -115.2262908, 36.202339799900003 ], [ -115.2263232, 36.202339799900003 ], [ -115.2263232, 36.202342499899999 ], [ -115.2263286, 36.202342499899999 ], [ -115.2263286, 36.2023802999 ], [ -115.2263259, 36.2023802999 ], [ -115.2263259, 36.202409999899999 ], [ -115.2263286, 36.202409999899999 ], [ -115.2263286, 36.202431599900002 ], [ -115.2263259, 36.202431599900002 ], [ -115.2263259, 36.202485599900001 ], [ -115.2263232, 36.202485599900001 ], [ -115.2263232, 36.2024909999 ], [ -115.2263178, 36.2024909999 ], [ -115.2263178, 36.202493699900003 ], [ -115.2262989, 36.202493699900003 ], [ -115.2262989, 36.202496399899999 ], [ -115.2262935, 36.202496399899999 ], [ -115.2262935, 36.202501799899999 ], [ -115.2262908, 36.202501799899999 ], [ -115.2262908, 36.202504499900002 ], [ -115.2262881, 36.202504499900002 ], [ -115.2262881, 36.202507199899998 ] ] ] } },
{ "type": "Feature", "properties": { "value": 255.0 }, "geometry": { "type": "Polygon", "coordinates": [ [ [ -115.2256536, 36.202499099900002 ], [ -115.2255348, 36.202499099900002 ], [ -115.2255348, 36.202496399899999 ], [ -115.2254781, 36.202496399899999 ], [ -115.2254781, 36.2024909999 ], [ -115.2254754, 36.2024909999 ], [ -115.2254754, 36.202458599899998 ], [ -115.2254781, 36.202458599899998 ], [ -115.2254781, 36.2023802999 ], [ -115.2254808, 36.2023802999 ], [ -115.2254808, 36.202364099900002 ], [ -115.2254781, 36.202364099900002 ], [ -115.2254781, 36.2023559999 ], [ -115.2254808, 36.2023559999 ], [ -115.2254808, 36.202339799900003 ], [ -115.22548350000001, 36.202339799900003 ], [ -115.22548350000001, 36.202337099899999 ], [ -115.2254808, 36.202337099899999 ], [ -115.2254808, 36.202326299900001 ], [ -115.2254781, 36.202326299900001 ], [ -115.2254781, 36.202323599899998 ], [ -115.2254808, 36.202323599899998 ], [ -115.2254808, 36.2023073999 ], [ -115.2254889, 36.2023073999 ], [ -115.2254889, 36.202304699899997 ], [ -115.2255564, 36.202304699899997 ], [ -115.2255564, 36.2023073999 ], [ -115.2256077, 36.2023073999 ], [ -115.2256077, 36.202310099900004 ], [ -115.2256563, 36.202310099900004 ], [ -115.2256563, 36.202315499900003 ], [ -115.225659, 36.202315499900003 ], [ -115.225659, 36.2024909999 ], [ -115.2256563, 36.2024909999 ], [ -115.2256563, 36.202496399899999 ], [ -115.2256536, 36.202496399899999 ], [ -115.2256536, 36.202499099900002 ] ] ] } },
{ "type": "Feature", "properties": { "value": 255.0 }, "geometry": { "type": "Polygon", "coordinates": [ [ [ -115.2260613, 36.202504499900002 ], [ -115.2260532, 36.202504499900002 ], [ -115.2260532, 36.202501799899999 ], [ -115.2260478, 36.202501799899999 ], [ -115.2260478, 36.202504499900002 ], [ -115.2259749, 36.202504499900002 ], [ -115.2259749, 36.202501799899999 ], [ -115.2259695, 36.202501799899999 ], [ -115.2259695, 36.202499099900002 ], [ -115.2259668, 36.202499099900002 ], [ -115.2259668, 36.202493699900003 ], [ -115.2259614, 36.202493699900003 ], [ -115.2259614, 36.2024909999 ], [ -115.2259452, 36.2024909999 ], [ -115.2259452, 36.202488299899997 ], [ -115.2259344, 36.202488299899997 ], [ -115.2259344, 36.202485599900001 ], [ -115.2259317, 36.202485599900001 ], [ -115.2259317, 36.202480199900002 ], [ -115.225929, 36.202480199900002 ], [ -115.225929, 36.202450499900003 ], [ -115.2259317, 36.202450499900003 ], [ -115.2259317, 36.2024234999 ], [ -115.2259344, 36.2024234999 ], [ -115.2259344, 36.202418099900001 ], [ -115.2259371, 36.202418099900001 ], [ -115.2259371, 36.202404599899999 ], [ -115.2259344, 36.202404599899999 ], [ -115.2259344, 36.202385699899999 ], [ -115.2259317, 36.202385699899999 ], [ -115.2259317, 36.2023802999 ], [ -115.2259344, 36.2023802999 ], [ -115.2259344, 36.202345199900002 ], [ -115.2259371, 36.202345199900002 ], [ -115.2259371, 36.202339799900003 ], [ -115.2259398, 36.202339799900003 ], [ -115.2259398, 36.202337099899999 ], [ -115.2259425, 36.202337099899999 ], [ -115.2259425, 36.202334399900003 ], [ -115.2259533, 36.202334399900003 ], [ -115.2259533, 36.2023316999 ], [ -115.2259668, 36.2023316999 ], [ -115.2259668, 36.202328999899997 ], [ -115.2259695, 36.202328999899997 ], [ -115.2259695, 36.202320899900002 ], [ -115.2259776, 36.202320899900002 ], [ -115.2259776, 36.202318199899999 ], [ -115.2259911, 36.202318199899999 ], [ -115.2259911, 36.202320899900002 ], [ -115.2260289, 36.202320899900002 ], [ -115.2260289, 36.202318199899999 ], [ -115.2260694, 36.202318199899999 ], [ -115.2260694, 36.202320899900002 ], [ -115.2260748, 36.202320899900002 ], [ -115.2260748, 36.202326299900001 ], [ -115.2260775, 36.202326299900001 ], [ -115.2260775, 36.202328999899997 ], [ -115.2260802, 36.202328999899997 ], [ -115.2260802, 36.2023316999 ], [ -115.2260829, 36.2023316999 ], [ -115.2260829, 36.202334399900003 ], [ -115.226091, 36.202334399900003 ], [ -115.226091, 36.202337099899999 ], [ -115.2260937, 36.202337099899999 ], [ -115.2260937, 36.202334399900003 ], [ -115.2260991, 36.202334399900003 ], [ -115.2260991, 36.202337099899999 ], [ -115.2261018, 36.202337099899999 ], [ -115.2261018, 36.202339799900003 ], [ -115.2261045, 36.202339799900003 ], [ -115.2261045, 36.202350599900001 ], [ -115.2261072, 36.202350599900001 ], [ -115.2261072, 36.2023802999 ], [ -115.2261045, 36.2023802999 ], [ -115.2261045, 36.202385699899999 ], [ -115.2261072, 36.202385699899999 ], [ -115.2261072, 36.202391099899998 ], [ -115.2261045, 36.202391099899998 ], [ -115.2261045, 36.202393799900001 ], [ -115.2261072, 36.202393799900001 ], [ -115.2261072, 36.202396499899997 ], [ -115.2261045, 36.202396499899997 ], [ -115.2261045, 36.202482899899998 ], [ -115.2261018, 36.202482899899998 ], [ -115.2261018, 36.202488299899997 ], [ -115.2260856, 36.202488299899997 ], [ -115.2260856, 36.2024909999 ], [ -115.2260748, 36.2024909999 ], [ -115.2260748, 36.202493699900003 ], [ -115.2260721, 36.202493699900003 ], [ -115.2260721, 36.202496399899999 ], [ -115.2260694, 36.202496399899999 ], [ -115.2260694, 36.202499099900002 ], [ -115.2260667, 36.202499099900002 ], [ -115.2260667, 36.202501799899999 ], [ -115.2260613, 36.202501799899999 ], [ -115.2260613, 36.202504499900002 ] ] ] } },
{ "type": "Feature", "properties": { "value": 255.0 }, "geometry": { "type": "Polygon", "coordinates": [ [ [ -115.2257562, 36.202501799899999 ], [ -115.2257508, 36.202501799899999 ], [ -115.2257508, 36.202499099900002 ], [ -115.2257481, 36.202499099900002 ], [ -115.2257481, 36.202496399899999 ], [ -115.2257454, 36.202496399899999 ], [ -115.2257454, 36.202488299899997 ], [ -115.2257427, 36.202488299899997 ], [ -115.2257427, 36.202485599900001 ], [ -115.22574, 36.202485599900001 ], [ -115.22574, 36.202482899899998 ], [ -115.225713, 36.202482899899998 ], [ -115.225713, 36.202480199900002 ], [ -115.2257103, 36.202480199900002 ], [ -115.2257103, 36.2024666999 ], [ -115.2257076, 36.2024666999 ], [ -115.2257076, 36.202463999899997 ], [ -115.2257103, 36.202463999899997 ], [ -115.2257103, 36.202453199899999 ], [ -115.2257076, 36.202453199899999 ], [ -115.2257076, 36.202407299900003 ], [ -115.2257103, 36.202407299900003 ], [ -115.2257103, 36.202388399900002 ], [ -115.225713, 36.202388399900002 ], [ -115.225713, 36.2023802999 ], [ -115.2257103, 36.2023802999 ], [ -115.2257103, 36.202337099899999 ], [ -115.225713, 36.202337099899999 ], [ -115.225713, 36.2023316999 ], [ -115.2257157, 36.2023316999 ], [ -115.2257157, 36.202328999899997 ], [ -115.2257427, 36.202328999899997 ], [ -115.2257427, 36.202326299900001 ], [ -115.2257481, 36.202326299900001 ], [ -115.2257481, 36.202320899900002 ], [ -115.2257508, 36.202320899900002 ], [ -115.2257508, 36.202318199899999 ], [ -115.2257535, 36.202318199899999 ], [ -115.2257535, 36.202315499900003 ], [ -115.2258534, 36.202315499900003 ], [ -115.2258534, 36.202318199899999 ], [ -115.2258642, 36.202318199899999 ], [ -115.2258642, 36.202320899900002 ], [ -115.2258669, 36.202320899900002 ], [ -115.2258669, 36.202323599899998 ], [ -115.2258696, 36.202323599899998 ], [ -115.2258696, 36.202326299900001 ], [ -115.225875, 36.202326299900001 ], [ -115.225875, 36.202328999899997 ], [ -115.2258831, 36.202328999899997 ], [ -115.2258831, 36.2023316999 ], [ -115.2258858, 36.2023316999 ], [ -115.2258858, 36.202345199900002 ], [ -115.2258885, 36.202345199900002 ], [ -115.2258885, 36.202350599900001 ], [ -115.2258858, 36.202350599900001 ], [ -115.2258858, 36.202374899900001 ], [ -115.2258831, 36.202374899900001 ], [ -115.2258831, 36.2023802999 ], [ -115.2258777, 36.2023802999 ], [ -115.2258777, 36.202382999900003 ], [ -115.225875, 36.202382999900003 ], [ -115.225875, 36.202401899900003 ], [ -115.2258858, 36.202401899900003 ], [ -115.2258858, 36.202450499900003 ], [ -115.2258831, 36.202450499900003 ], [ -115.2258831, 36.202482899899998 ], [ -115.2258804, 36.202482899899998 ], [ -115.2258804, 36.202485599900001 ], [ -115.2258642, 36.202485599900001 ], [ -115.2258642, 36.202488299899997 ], [ -115.2258561, 36.202488299899997 ], [ -115.2258561, 36.2024909999 ], [ -115.2258534, 36.2024909999 ], [ -115.2258534, 36.202493699900003 ], [ -115.2258507, 36.202493699900003 ], [ -115.2258507, 36.202496399899999 ], [ -115.225848, 36.202496399899999 ], [ -115.225848, 36.202499099900002 ], [ -115.2257562, 36.202499099900002 ], [ -115.2257562, 36.202501799899999 ] ] ] } },
{ "type": "Feature", "properties": { "value": 255.0 }, "geometry": { "type": "Polygon", "coordinates": [ [ [ -115.2251379, 36.2024909999 ], [ -115.2250326, 36.2024909999 ], [ -115.2250326, 36.202139999899998 ], [ -115.2250407, 36.202139999899998 ], [ -115.2250407, 36.202142699900001 ], [ -115.225092, 36.202142699900001 ], [ -115.225092, 36.202145399899997 ], [ -115.225146, 36.202145399899997 ], [ -115.225146, 36.2021480999 ], [ -115.2251487, 36.2021480999 ], [ -115.2251487, 36.202161599900002 ], [ -115.2251514, 36.202161599900002 ], [ -115.2251514, 36.2021723999 ], [ -115.2251487, 36.2021723999 ], [ -115.2251487, 36.202199399900003 ], [ -115.2251514, 36.202199399900003 ], [ -115.2251514, 36.202242599900003 ], [ -115.225154100000012, 36.202242599900003 ], [ -115.225154100000012, 36.202250699899999 ], [ -115.2251568, 36.202250699899999 ], [ -115.2251568, 36.202253399900002 ], [ -115.2251595, 36.202253399900002 ], [ -115.2251595, 36.202261499899997 ], [ -115.2251622, 36.202261499899997 ], [ -115.2251622, 36.202301999900001 ], [ -115.2251595, 36.202301999900001 ], [ -115.2251595, 36.202304699899997 ], [ -115.225154100000012, 36.202304699899997 ], [ -115.225154100000012, 36.2023073999 ], [ -115.2251514, 36.2023073999 ], [ -115.2251514, 36.202310099900004 ], [ -115.2251487, 36.202310099900004 ], [ -115.2251487, 36.202328999899997 ], [ -115.2251514, 36.202328999899997 ], [ -115.2251514, 36.202334399900003 ], [ -115.225154100000012, 36.202334399900003 ], [ -115.225154100000012, 36.202339799900003 ], [ -115.2251595, 36.202339799900003 ], [ -115.2251595, 36.202345199900002 ], [ -115.2251622, 36.202345199900002 ], [ -115.2251622, 36.202372199899997 ], [ -115.2251595, 36.202372199899997 ], [ -115.2251595, 36.2023802999 ], [ -115.2251568, 36.2023802999 ], [ -115.2251568, 36.202388399900002 ], [ -115.225154100000012, 36.202388399900002 ], [ -115.225154100000012, 36.202391099899998 ], [ -115.2251514, 36.202391099899998 ], [ -115.2251514, 36.202396499899997 ], [ -115.2251487, 36.202396499899997 ], [ -115.2251487, 36.2023991999 ], [ -115.225146, 36.2023991999 ], [ -115.225146, 36.202404599899999 ], [ -115.2251433, 36.202404599899999 ], [ -115.2251433, 36.202409999899999 ], [ -115.2251406, 36.202409999899999 ], [ -115.2251406, 36.202431599900002 ], [ -115.2251433, 36.202431599900002 ], [ -115.2251433, 36.202445099899997 ], [ -115.2251406, 36.202445099899997 ], [ -115.2251406, 36.202453199899999 ], [ -115.2251433, 36.202453199899999 ], [ -115.2251433, 36.202474799900003 ], [ -115.2251406, 36.202474799900003 ], [ -115.2251406, 36.202485599900001 ], [ -115.2251379, 36.202485599900001 ], [ -115.2251379, 36.2024909999 ] ] ] } },
{ "type": "Feature", "properties": { "value": 255.0 }, "geometry": { "type": "Polygon", "coordinates": [ [ [ -115.2251298, 36.202107599900003 ], [ -115.2250434, 36.202107599900003 ], [ -115.2250434, 36.2021048999 ], [ -115.2250326, 36.2021048999 ], [ -115.2250326, 36.202021199900003 ], [ -115.2250353, 36.202021199900003 ], [ -115.2250353, 36.202010399900004 ], [ -115.225038, 36.202010399900004 ], [ -115.225038, 36.202007699900001 ], [ -115.2252, 36.202007699900001 ], [ -115.2252, 36.202048199899998 ], [ -115.225202700000011, 36.202048199899998 ], [ -115.225202700000011, 36.202058999900004 ], [ -115.2252, 36.202058999900004 ], [ -115.2252, 36.202102199900004 ], [ -115.2251973, 36.202102199900004 ], [ -115.2251973, 36.2021048999 ], [ -115.2251298, 36.2021048999 ], [ -115.2251298, 36.202107599900003 ] ] ] } },
{ "type": "Feature", "properties": { "value": 255.0 }, "geometry": { "type": "Polygon", "coordinates": [ [ [ -115.2259209, 36.202050899900001 ], [ -115.2258912, 36.202050899900001 ], [ -115.2258912, 36.202048199899998 ], [ -115.2257535, 36.202048199899998 ], [ -115.2257535, 36.202045499900002 ], [ -115.2257481, 36.202045499900002 ], [ -115.2257481, 36.202040099900003 ], [ -115.2257454, 36.202040099900003 ], [ -115.2257454, 36.202007699900001 ], [ -115.2259506, 36.202007699900001 ], [ -115.2259506, 36.2020373999 ], [ -115.2259479, 36.2020373999 ], [ -115.2259479, 36.202045499900002 ], [ -115.2259452, 36.202045499900002 ], [ -115.2259452, 36.202048199899998 ], [ -115.2259209, 36.202048199899998 ], [ -115.2259209, 36.202050899900001 ] ] ] } },
{ "type": "Feature", "properties": { "value": 255.0 }, "geometry": { "type": "Polygon", "coordinates": [ [ [ -115.2264663, 36.202029299899998 ], [ -115.2263826, 36.202029299899998 ], [ -115.2263826, 36.202015799900003 ], [ -115.2263799, 36.202015799900003 ], [ -115.2263799, 36.2020130999 ], [ -115.2263826, 36.2020130999 ], [ -115.2263826, 36.202007699900001 ], [ -115.226469, 36.202007699900001 ], [ -115.226469, 36.202026599900002 ], [ -115.2264663, 36.202026599900002 ], [ -115.2264663, 36.202029299899998 ] ] ] } },
{ "type": "Feature", "properties": { "value": 255.0 }, "geometry": { "type": "Polygon", "coordinates": [ [ [ -115.2263259, 36.202031999900001 ], [ -115.2262908, 36.202031999900001 ], [ -115.2262908, 36.202029299899998 ], [ -115.2262827, 36.202029299899998 ], [ -115.2262827, 36.202026599900002 ], [ -115.22628, 36.202026599900002 ], [ -115.22628, 36.202023899899999 ], [ -115.2262719, 36.202023899899999 ], [ -115.2262719, 36.202026599900002 ], [ -115.2262665, 36.202026599900002 ], [ -115.2262665, 36.202029299899998 ], [ -115.2262611, 36.202029299899998 ], [ -115.2262611, 36.202026599900002 ], [ -115.2261855, 36.202026599900002 ], [ -115.2261855, 36.202023899899999 ], [ -115.2261828, 36.202023899899999 ], [ -115.2261828, 36.202007699900001 ], [ -115.2263394, 36.202007699900001 ], [ -115.2263394, 36.202026599900002 ], [ -115.2263367, 36.202026599900002 ], [ -115.2263367, 36.202029299899998 ], [ -115.2263259, 36.202029299899998 ], [ -115.2263259, 36.202031999900001 ] ] ] } },
{ "type": "Feature", "properties": { "value": 255.0 }, "geometry": { "type": "Polygon", "coordinates": [ [ [ -115.2266985, 36.202050899900001 ], [ -115.2266931, 36.202050899900001 ], [ -115.2266931, 36.202048199899998 ], [ -115.2266364, 36.202048199899998 ], [ -115.2266364, 36.202045499900002 ], [ -115.2266256, 36.202045499900002 ], [ -115.2266256, 36.202048199899998 ], [ -115.2266202, 36.202048199899998 ], [ -115.2266202, 36.202045499900002 ], [ -115.2266148, 36.202045499900002 ], [ -115.2266148, 36.202042799899999 ], [ -115.2266121, 36.202042799899999 ], [ -115.2266121, 36.202023899899999 ], [ -115.2266094, 36.202023899899999 ], [ -115.2266094, 36.202007699900001 ], [ -115.2267687, 36.202007699900001 ], [ -115.2267687, 36.202015799900003 ], [ -115.2267714, 36.202015799900003 ], [ -115.2267714, 36.202023899899999 ], [ -115.2267687, 36.202023899899999 ], [ -115.2267687, 36.202045499900002 ], [ -115.226766, 36.202045499900002 ], [ -115.226766, 36.202048199899998 ], [ -115.2266985, 36.202048199899998 ], [ -115.2266985, 36.202050899900001 ] ] ] } },
{ "type": "Feature", "properties": { "value": 255.0 }, "geometry": { "type": "Polygon", "coordinates": [ [ [ -115.2254376, 36.202021199900003 ], [ -115.2254079, 36.202021199900003 ], [ -115.2254079, 36.202018499899999 ], [ -115.2253998, 36.202018499899999 ], [ -115.2253998, 36.202015799900003 ], [ -115.2253971, 36.202015799900003 ], [ -115.2253971, 36.2020130999 ], [ -115.225389, 36.2020130999 ], [ -115.225389, 36.202010399900004 ], [ -115.2253863, 36.202010399900004 ], [ -115.2253863, 36.202007699900001 ], [ -115.2254511, 36.202007699900001 ], [ -115.2254511, 36.202015799900003 ], [ -115.2254457, 36.202015799900003 ], [ -115.2254457, 36.202018499899999 ], [ -115.2254376, 36.202018499899999 ], [ -115.2254376, 36.202021199900003 ] ] ] } },
{ "type": "Feature", "properties": { "value": 255.0 }, "geometry": { "type": "Polygon", "coordinates": [ [ [ -115.2255429, 36.202021199900003 ], [ -115.2255051, 36.202021199900003 ], [ -115.2255051, 36.202018499899999 ], [ -115.2255024, 36.202018499899999 ], [ -115.2255024, 36.202015799900003 ], [ -115.2254997, 36.202015799900003 ], [ -115.2254997, 36.202007699900001 ], [ -115.2255591, 36.202007699900001 ], [ -115.2255591, 36.202010399900004 ], [ -115.2255564, 36.202010399900004 ], [ -115.2255564, 36.2020130999 ], [ -115.2255537, 36.2020130999 ], [ -115.2255537, 36.202015799900003 ], [ -115.225551, 36.202015799900003 ], [ -115.225551, 36.202018499899999 ], [ -115.2255429, 36.202018499899999 ], [ -115.2255429, 36.202021199900003 ] ] ] } }
]
}
