{
"type": "FeatureCollection",
"crs": { "type": "name", "properties": { "name": "urn:ogc:def:crs:OGC:1.3:CRS84" } },
"features": [
{ "type": "Feature", "properties": { "value": 255.0 }, "geometry": { "type": "Polygon", "coordinates": [ [ [ -115.2351441, 36.147602699799997 ], [ -115.2350469, 36.147602699799997 ], [ -115.2350469, 36.147578399799997 ], [ -115.2350496, 36.147578399799997 ], [ -115.2350496, 36.147575699799994 ], [ -115.2350523, 36.147575699799994 ], [ -115.2350523, 36.147572999799998 ], [ -115.2350577, 36.147572999799998 ], [ -115.2350577, 36.147575699799994 ], [ -115.2350604, 36.147575699799994 ], [ -115.2350604, 36.147572999799998 ], [ -115.2350631, 36.147572999799998 ], [ -115.2350631, 36.147570299799995 ], [ -115.235082, 36.147570299799995 ], [ -115.235082, 36.147572999799998 ], [ -115.2350928, 36.147572999799998 ], [ -115.2350928, 36.147575699799994 ], [ -115.2350955, 36.147575699799994 ], [ -115.2350955, 36.147578399799997 ], [ -115.2351009, 36.147578399799997 ], [ -115.2351009, 36.1475810998 ], [ -115.2351063, 36.1475810998 ], [ -115.2351063, 36.147583799799996 ], [ -115.2351117, 36.147583799799996 ], [ -115.2351117, 36.1475810998 ], [ -115.2351198, 36.1475810998 ], [ -115.2351198, 36.147583799799996 ], [ -115.2351225, 36.147583799799996 ], [ -115.2351225, 36.147589199799995 ], [ -115.2351252, 36.147589199799995 ], [ -115.2351252, 36.147591899799998 ], [ -115.2351279, 36.147591899799998 ], [ -115.2351279, 36.147594599799994 ], [ -115.235136, 36.147594599799994 ], [ -115.235136, 36.147597299799997 ], [ -115.2351468, 36.147597299799997 ], [ -115.2351468, 36.147599999799993 ], [ -115.2351441, 36.147599999799993 ], [ -115.2351441, 36.147602699799997 ] ] ] } },
{ "type": "Feature", "properties": { "value": 255.0 }, "geometry": { "type": "Polygon", "coordinates": [ [ [ -115.2354303, 36.147602699799997 ], [ -115.2352224, 36.147602699799997 ], [ -115.2352224, 36.147586499799999 ], [ -115.2352197, 36.147586499799999 ], [ -115.2352197, 36.147570299799995 ], [ -115.2352224, 36.147570299799995 ], [ -115.2352224, 36.147562199799999 ], [ -115.2352332, 36.147562199799999 ], [ -115.2352332, 36.147559499799996 ], [ -115.2353547, 36.147559499799996 ], [ -115.2353547, 36.147562199799999 ], [ -115.2353682, 36.147562199799999 ], [ -115.2353682, 36.147564899799995 ], [ -115.2353817, 36.147564899799995 ], [ -115.2353817, 36.147562199799999 ], [ -115.2354168, 36.147562199799999 ], [ -115.2354168, 36.147564899799995 ], [ -115.2354222, 36.147564899799995 ], [ -115.2354222, 36.147567599799999 ], [ -115.2354249, 36.147567599799999 ], [ -115.2354249, 36.147570299799995 ], [ -115.2354276, 36.147570299799995 ], [ -115.2354276, 36.1475810998 ], [ -115.2354303, 36.1475810998 ], [ -115.2354303, 36.147602699799997 ] ] ] } },
{ "type": "Feature", "properties": { "value": 255.0 }, "geometry": { "type": "Polygon", "coordinates": [ [ [ -115.2338751, 36.147602699799997 ], [ -115.2338076, 36.147602699799997 ], [ -115.2338076, 36.147562199799999 ], [ -115.2338535, 36.147562199799999 ], [ -115.2338535, 36.147564899799995 ], [ -115.2338562, 36.147564899799995 ], [ -115.2338562, 36.147594599799994 ], [ -115.2338589, 36.147594599799994 ], [ -115.2338589, 36.147597299799997 ], [ -115.23387240000001, 36.147597299799997 ], [ -115.23387240000001, 36.147599999799993 ], [ -115.2338751, 36.147599999799993 ], [ -115.2338751, 36.147602699799997 ] ] ] } },
{ "type": "Feature", "properties": { "value": 255.0 }, "geometry": { "type": "Polygon", "coordinates": [ [ [ -115.2347256, 36.147602699799997 ], [ -115.234299, 36.147602699799997 ], [ -115.234299, 36.147597299799997 ], [ -115.2342963, 36.147597299799997 ], [ -115.2342963, 36.147594599799994 ], [ -115.234299, 36.147594599799994 ], [ -115.234299, 36.147572999799998 ], [ -115.2343017, 36.147572999799998 ], [ -115.2343017, 36.147559499799996 ], [ -115.2343044, 36.147559499799996 ], [ -115.2343044, 36.147554099799997 ], [ -115.2343071, 36.147554099799997 ], [ -115.2343071, 36.147548699799998 ], [ -115.2343665, 36.147548699799998 ], [ -115.2343665, 36.147551399799994 ], [ -115.2343692, 36.147551399799994 ], [ -115.2343692, 36.147554099799997 ], [ -115.2343719, 36.147554099799997 ], [ -115.2343719, 36.1475567998 ], [ -115.2343746, 36.1475567998 ], [ -115.2343746, 36.147559499799996 ], [ -115.23438, 36.147559499799996 ], [ -115.23438, 36.147562199799999 ], [ -115.2343827, 36.147562199799999 ], [ -115.2343827, 36.147564899799995 ], [ -115.2343935, 36.147564899799995 ], [ -115.2343935, 36.147562199799999 ], [ -115.234407, 36.147562199799999 ], [ -115.234407, 36.147559499799996 ], [ -115.2344124, 36.147559499799996 ], [ -115.2344124, 36.1475567998 ], [ -115.234434, 36.1475567998 ], [ -115.234434, 36.147559499799996 ], [ -115.2344475, 36.147559499799996 ], [ -115.2344475, 36.147562199799999 ], [ -115.2344529, 36.147562199799999 ], [ -115.2344529, 36.147559499799996 ], [ -115.2344799, 36.147559499799996 ], [ -115.2344799, 36.147562199799999 ], [ -115.234488, 36.147562199799999 ], [ -115.234488, 36.147559499799996 ], [ -115.2344988, 36.147559499799996 ], [ -115.2344988, 36.1475567998 ], [ -115.2345069, 36.1475567998 ], [ -115.2345069, 36.147554099799997 ], [ -115.2345123, 36.147554099799997 ], [ -115.2345123, 36.1475567998 ], [ -115.2345231, 36.1475567998 ], [ -115.2345231, 36.147562199799999 ], [ -115.2345177, 36.147562199799999 ], [ -115.2345177, 36.147564899799995 ], [ -115.234515, 36.147564899799995 ], [ -115.234515, 36.147567599799999 ], [ -115.2345258, 36.147567599799999 ], [ -115.2345258, 36.147570299799995 ], [ -115.2345285, 36.147570299799995 ], [ -115.2345285, 36.147572999799998 ], [ -115.2345312, 36.147572999799998 ], [ -115.2345312, 36.147575699799994 ], [ -115.2345285, 36.147575699799994 ], [ -115.2345285, 36.1475810998 ], [ -115.2345312, 36.1475810998 ], [ -115.2345312, 36.147583799799996 ], [ -115.2345366, 36.147583799799996 ], [ -115.2345366, 36.147586499799999 ], [ -115.2345393, 36.147586499799999 ], [ -115.2345393, 36.147583799799996 ], [ -115.2345447, 36.147583799799996 ], [ -115.2345447, 36.1475810998 ], [ -115.2345474, 36.1475810998 ], [ -115.2345474, 36.147578399799997 ], [ -115.2345663, 36.147578399799997 ], [ -115.2345663, 36.147575699799994 ], [ -115.2345771, 36.147575699799994 ], [ -115.2345771, 36.147572999799998 ], [ -115.2346365, 36.147572999799998 ], [ -115.2346365, 36.147570299799995 ], [ -115.2346419, 36.147570299799995 ], [ -115.2346419, 36.147572999799998 ], [ -115.2346446, 36.147572999799998 ], [ -115.2346446, 36.147570299799995 ], [ -115.2346878, 36.147570299799995 ], [ -115.2346878, 36.147567599799999 ], [ -115.2347148, 36.147567599799999 ], [ -115.2347148, 36.147570299799995 ], [ -115.2347229, 36.147570299799995 ], [ -115.2347229, 36.147578399799997 ], [ -115.2347256, 36.147578399799997 ], [ -115.2347256, 36.147602699799997 ] ], [ [ -115.2344988, 36.147564899799995 ], [ -115.2344988, 36.147562199799999 ], [ -115.2344907, 36.147562199799999 ], [ -115.2344907, 36.147564899799995 ], [ -115.2344988, 36.147564899799995 ] ], [ [ -115.2344988, 36.147591899799998 ], [ -115.2344988, 36.147589199799995 ], [ -115.2344961, 36.147589199799995 ], [ -115.2344961, 36.147591899799998 ], [ -115.2344988, 36.147591899799998 ] ] ] } },
{ "type": "Feature", "properties": { "value": 255.0 }, "geometry": { "type": "Polygon", "coordinates": [ [ [ -115.2339453, 36.147562199799999 ], [ -115.2338994, 36.147562199799999 ], [ -115.2338994, 36.147559499799996 ], [ -115.233894, 36.147559499799996 ], [ -115.233894, 36.1475567998 ], [ -115.23389130000001, 36.1475567998 ], [ -115.23389130000001, 36.147529799799997 ], [ -115.233894, 36.147529799799997 ], [ -115.233894, 36.147527099799994 ], [ -115.2339318, 36.147527099799994 ], [ -115.2339318, 36.147524399799998 ], [ -115.2339426, 36.147524399799998 ], [ -115.2339426, 36.147527099799994 ], [ -115.2339453, 36.147527099799994 ], [ -115.2339453, 36.147529799799997 ], [ -115.233948, 36.147529799799997 ], [ -115.233948, 36.147559499799996 ], [ -115.2339453, 36.147559499799996 ], [ -115.2339453, 36.147562199799999 ] ] ] } },
{ "type": "Feature", "properties": { "value": 255.0 }, "geometry": { "type": "Polygon", "coordinates": [ [ [ -115.2339075, 36.147510899799997 ], [ -115.23389130000001, 36.147510899799997 ], [ -115.23389130000001, 36.147508199799994 ], [ -115.2338886, 36.147508199799994 ], [ -115.2338886, 36.147505499799998 ], [ -115.2338859, 36.147505499799998 ], [ -115.2338859, 36.147500099799998 ], [ -115.2338886, 36.147500099799998 ], [ -115.2338886, 36.147494699799999 ], [ -115.2338859, 36.147494699799999 ], [ -115.2338859, 36.147483899799994 ], [ -115.2338886, 36.147483899799994 ], [ -115.2338886, 36.147481199799998 ], [ -115.2339129, 36.147481199799998 ], [ -115.2339129, 36.147483899799994 ], [ -115.2339183, 36.147483899799994 ], [ -115.2339183, 36.147486599799997 ], [ -115.233921, 36.147486599799997 ], [ -115.233921, 36.147500099799998 ], [ -115.2339237, 36.147500099799998 ], [ -115.2339237, 36.147508199799994 ], [ -115.2339075, 36.147508199799994 ], [ -115.2339075, 36.147510899799997 ] ] ] } },
{ "type": "Feature", "properties": { "value": 255.0 }, "geometry": { "type": "Polygon", "coordinates": [ [ [ -115.233910200000011, 36.147456899799998 ], [ -115.23387240000001, 36.147456899799998 ], [ -115.23387240000001, 36.147454199799995 ], [ -115.2338103, 36.147454199799995 ], [ -115.2338103, 36.147456899799998 ], [ -115.2338076, 36.147456899799998 ], [ -115.2338076, 36.147284099799997 ], [ -115.2338103, 36.147284099799997 ], [ -115.2338103, 36.1473056998 ], [ -115.233813, 36.1473056998 ], [ -115.233813, 36.147297599799998 ], [ -115.2338157, 36.147297599799998 ], [ -115.2338157, 36.1473056998 ], [ -115.2338184, 36.1473056998 ], [ -115.2338184, 36.147308399799996 ], [ -115.2338211, 36.147308399799996 ], [ -115.2338211, 36.1473110998 ], [ -115.233867, 36.1473110998 ], [ -115.233867, 36.147313799799996 ], [ -115.2338832, 36.147313799799996 ], [ -115.2338832, 36.1473110998 ], [ -115.2339021, 36.1473110998 ], [ -115.2339021, 36.147313799799996 ], [ -115.2339075, 36.147313799799996 ], [ -115.2339075, 36.147316499799999 ], [ -115.233910200000011, 36.147316499799999 ], [ -115.233910200000011, 36.147338099799995 ], [ -115.2339129, 36.147338099799995 ], [ -115.2339129, 36.147367799799994 ], [ -115.2339156, 36.147367799799994 ], [ -115.2339156, 36.147410999799995 ], [ -115.2339183, 36.147410999799995 ], [ -115.2339183, 36.147416399799994 ], [ -115.2339156, 36.147416399799994 ], [ -115.2339156, 36.147451499799999 ], [ -115.2339129, 36.147451499799999 ], [ -115.2339129, 36.147454199799995 ], [ -115.233910200000011, 36.147454199799995 ], [ -115.233910200000011, 36.147456899799998 ] ] ] } },
{ "type": "Feature", "properties": { "value": 255.0 }, "geometry": { "type": "Polygon", "coordinates": [ [ [ -115.2346986, 36.1473974998 ], [ -115.2346959, 36.1473974998 ], [ -115.2346959, 36.147394799799997 ], [ -115.234677, 36.147394799799997 ], [ -115.234677, 36.147392099799994 ], [ -115.2346338, 36.147392099799994 ], [ -115.2346338, 36.147394799799997 ], [ -115.234623, 36.147394799799997 ], [ -115.234623, 36.147392099799994 ], [ -115.2346095, 36.147392099799994 ], [ -115.2346095, 36.147394799799997 ], [ -115.2345609, 36.147394799799997 ], [ -115.2345609, 36.147392099799994 ], [ -115.2345582, 36.147392099799994 ], [ -115.2345582, 36.147389399799998 ], [ -115.2345555, 36.147389399799998 ], [ -115.2345555, 36.147373199800001 ], [ -115.2345528, 36.147373199800001 ], [ -115.2345528, 36.147356999799996 ], [ -115.2345555, 36.147356999799996 ], [ -115.2345555, 36.147340799799998 ], [ -115.2345528, 36.147340799799998 ], [ -115.2345528, 36.147332699799996 ], [ -115.2345258, 36.147332699799996 ], [ -115.2345258, 36.1473299998 ], [ -115.2345204, 36.1473299998 ], [ -115.2345204, 36.147324599799994 ], [ -115.2345177, 36.147324599799994 ], [ -115.2345177, 36.147319199799995 ], [ -115.2345204, 36.147319199799995 ], [ -115.2345204, 36.147275999799994 ], [ -115.2345231, 36.147275999799994 ], [ -115.2345231, 36.147273299799998 ], [ -115.2345312, 36.147273299799998 ], [ -115.2345312, 36.147270599799995 ], [ -115.2346311, 36.147270599799995 ], [ -115.2346311, 36.147273299799998 ], [ -115.2346392, 36.147273299799998 ], [ -115.2346392, 36.147275999799994 ], [ -115.2346473, 36.147275999799994 ], [ -115.2346473, 36.147278699799998 ], [ -115.2346554, 36.147278699799998 ], [ -115.2346554, 36.147281399800001 ], [ -115.2346689, 36.147281399800001 ], [ -115.2346689, 36.147284099799997 ], [ -115.2346743, 36.147284099799997 ], [ -115.2346743, 36.147281399800001 ], [ -115.2347013, 36.147281399800001 ], [ -115.2347013, 36.147284099799997 ], [ -115.234704, 36.147284099799997 ], [ -115.234704, 36.147362399799995 ], [ -115.2347067, 36.147362399799995 ], [ -115.2347067, 36.147367799799994 ], [ -115.234704, 36.147367799799994 ], [ -115.234704, 36.147394799799997 ], [ -115.2346986, 36.147394799799997 ], [ -115.2346986, 36.1473974998 ] ] ] } },
{ "type": "Feature", "properties": { "value": 255.0 }, "geometry": { "type": "Polygon", "coordinates": [ [ [ -115.2344286, 36.147429899799995 ], [ -115.2343017, 36.147429899799995 ], [ -115.2343017, 36.147427199799999 ], [ -115.234299, 36.147427199799999 ], [ -115.234299, 36.147400199799996 ], [ -115.2342963, 36.147400199799996 ], [ -115.2342963, 36.147389399799998 ], [ -115.2342936, 36.147389399799998 ], [ -115.2342936, 36.147386699799995 ], [ -115.2342909, 36.147386699799995 ], [ -115.2342909, 36.147375899799997 ], [ -115.2342882, 36.147375899799997 ], [ -115.2342882, 36.147300299799994 ], [ -115.2342909, 36.147300299799994 ], [ -115.2342909, 36.147297599799998 ], [ -115.2343503, 36.147297599799998 ], [ -115.2343503, 36.147294899799995 ], [ -115.234353, 36.147294899799995 ], [ -115.234353, 36.147273299799998 ], [ -115.2343557, 36.147273299799998 ], [ -115.2343557, 36.147270599799995 ], [ -115.2343638, 36.147270599799995 ], [ -115.2343638, 36.147273299799998 ], [ -115.2343665, 36.147273299799998 ], [ -115.2343665, 36.147270599799995 ], [ -115.2344259, 36.147270599799995 ], [ -115.2344259, 36.147273299799998 ], [ -115.2344367, 36.147273299799998 ], [ -115.2344367, 36.147278699799998 ], [ -115.2344394, 36.147278699799998 ], [ -115.2344394, 36.147281399800001 ], [ -115.2344421, 36.147281399800001 ], [ -115.2344421, 36.147284099799997 ], [ -115.2344475, 36.147284099799997 ], [ -115.2344475, 36.1472867998 ], [ -115.2344502, 36.1472867998 ], [ -115.2344502, 36.147289499799996 ], [ -115.2344529, 36.147289499799996 ], [ -115.2344529, 36.147292199799999 ], [ -115.2344556, 36.147292199799999 ], [ -115.2344556, 36.147294899799995 ], [ -115.2344583, 36.147294899799995 ], [ -115.2344583, 36.1473056998 ], [ -115.2344556, 36.1473056998 ], [ -115.2344556, 36.147308399799996 ], [ -115.2344394, 36.147308399799996 ], [ -115.2344394, 36.147313799799996 ], [ -115.234434, 36.147313799799996 ], [ -115.234434, 36.147319199799995 ], [ -115.2344313, 36.147319199799995 ], [ -115.2344313, 36.147327299799997 ], [ -115.2344286, 36.147327299799997 ], [ -115.2344286, 36.147359699799999 ], [ -115.2344259, 36.147359699799999 ], [ -115.2344259, 36.147370499799997 ], [ -115.2344286, 36.147370499799997 ], [ -115.2344286, 36.1473785998 ], [ -115.2344313, 36.1473785998 ], [ -115.2344313, 36.147386699799995 ], [ -115.234434, 36.147386699799995 ], [ -115.234434, 36.147394799799997 ], [ -115.2344367, 36.147394799799997 ], [ -115.2344367, 36.147416399799994 ], [ -115.234434, 36.147416399799994 ], [ -115.234434, 36.147424499799996 ], [ -115.2344313, 36.147424499799996 ], [ -115.2344313, 36.147427199799999 ], [ -115.2344286, 36.147427199799999 ], [ -115.2344286, 36.147429899799995 ] ] ] } },
{ "type": "Feature", "properties": { "value": 255.0 }, "geometry": { "type": "Polygon", "coordinates": [ [ [ -115.2348309, 36.147400199799996 ], [ -115.2347796, 36.147400199799996 ], [ -115.2347796, 36.1473974998 ], [ -115.2347553, 36.1473974998 ], [ -115.2347553, 36.147400199799996 ], [ -115.2347445, 36.147400199799996 ], [ -115.2347445, 36.1473974998 ], [ -115.2347391, 36.1473974998 ], [ -115.2347391, 36.147394799799997 ], [ -115.2347364, 36.147394799799997 ], [ -115.2347364, 36.147386699799995 ], [ -115.2347337, 36.147386699799995 ], [ -115.2347337, 36.1473785998 ], [ -115.2347364, 36.1473785998 ], [ -115.2347364, 36.147370499799997 ], [ -115.2347337, 36.147370499799997 ], [ -115.2347337, 36.147294899799995 ], [ -115.2347364, 36.147294899799995 ], [ -115.2347364, 36.147292199799999 ], [ -115.2347445, 36.147292199799999 ], [ -115.2347445, 36.147289499799996 ], [ -115.2347553, 36.147289499799996 ], [ -115.2347553, 36.147292199799999 ], [ -115.2347715, 36.147292199799999 ], [ -115.2347715, 36.147294899799995 ], [ -115.2347877, 36.147294899799995 ], [ -115.2347877, 36.147297599799998 ], [ -115.2347958, 36.147297599799998 ], [ -115.2347958, 36.147294899799995 ], [ -115.2348201, 36.147294899799995 ], [ -115.2348201, 36.147289499799996 ], [ -115.2348228, 36.147289499799996 ], [ -115.2348228, 36.147251699799995 ], [ -115.2348255, 36.147251699799995 ], [ -115.2348255, 36.147248999799999 ], [ -115.2349227, 36.147248999799999 ], [ -115.2349227, 36.147251699799995 ], [ -115.2349254, 36.147251699799995 ], [ -115.2349254, 36.147257099800001 ], [ -115.2349281, 36.147257099800001 ], [ -115.2349281, 36.1472867998 ], [ -115.2349308, 36.1472867998 ], [ -115.2349308, 36.147302999799997 ], [ -115.2349281, 36.147302999799997 ], [ -115.2349281, 36.147308399799996 ], [ -115.2349227, 36.147308399799996 ], [ -115.2349227, 36.1473110998 ], [ -115.2349146, 36.1473110998 ], [ -115.2349146, 36.147313799799996 ], [ -115.2349092, 36.147313799799996 ], [ -115.2349092, 36.147316499799999 ], [ -115.2349119, 36.147316499799999 ], [ -115.2349119, 36.147321899799998 ], [ -115.2349092, 36.147321899799998 ], [ -115.2349092, 36.1473299998 ], [ -115.2349119, 36.1473299998 ], [ -115.2349119, 36.147332699799996 ], [ -115.2349092, 36.147332699799996 ], [ -115.2349092, 36.147338099799995 ], [ -115.2349119, 36.147338099799995 ], [ -115.2349119, 36.147365099799998 ], [ -115.2349146, 36.147365099799998 ], [ -115.2349146, 36.147386699799995 ], [ -115.2349119, 36.147386699799995 ], [ -115.2349119, 36.147394799799997 ], [ -115.2348903, 36.147394799799997 ], [ -115.2348903, 36.1473974998 ], [ -115.234866, 36.1473974998 ], [ -115.234866, 36.147394799799997 ], [ -115.2348606, 36.147394799799997 ], [ -115.2348606, 36.147392099799994 ], [ -115.2348444, 36.147392099799994 ], [ -115.2348444, 36.147394799799997 ], [ -115.2348336, 36.147394799799997 ], [ -115.2348336, 36.1473974998 ], [ -115.2348309, 36.1473974998 ], [ -115.2348309, 36.147400199799996 ] ] ] } },
{ "type": "Feature", "properties": { "value": 255.0 }, "geometry": { "type": "Polygon", "coordinates": [ [ [ -115.2355626, 36.147400199799996 ], [ -115.2355329, 36.147400199799996 ], [ -115.2355329, 36.1473974998 ], [ -115.2355221, 36.1473974998 ], [ -115.2355221, 36.147394799799997 ], [ -115.2355194, 36.147394799799997 ], [ -115.2355194, 36.147392099799994 ], [ -115.235514, 36.147392099799994 ], [ -115.235514, 36.147386699799995 ], [ -115.2355113, 36.147386699799995 ], [ -115.2355113, 36.147370499799997 ], [ -115.235508599999989, 36.147370499799997 ], [ -115.235508599999989, 36.1473056998 ], [ -115.2355059, 36.1473056998 ], [ -115.2355059, 36.147302999799997 ], [ -115.2354789, 36.147302999799997 ], [ -115.2354789, 36.147300299799994 ], [ -115.2354762, 36.147300299799994 ], [ -115.2354762, 36.147265199799996 ], [ -115.2354735, 36.147265199799996 ], [ -115.2354735, 36.147246299799995 ], [ -115.2354762, 36.147246299799995 ], [ -115.2354762, 36.147243599799999 ], [ -115.2355032, 36.147243599799999 ], [ -115.2355032, 36.147240899799996 ], [ -115.2355437, 36.147240899799996 ], [ -115.2355437, 36.1472381998 ], [ -115.2355626, 36.1472381998 ], [ -115.2355626, 36.147400199799996 ] ] ] } },
{ "type": "Feature", "properties": { "value": 255.0 }, "geometry": { "type": "Polygon", "coordinates": [ [ [ -115.2351522, 36.147419099799997 ], [ -115.235136, 36.147419099799997 ], [ -115.235136, 36.147416399799994 ], [ -115.2350847, 36.147416399799994 ], [ -115.2350847, 36.147419099799997 ], [ -115.235082, 36.147419099799997 ], [ -115.235082, 36.147416399799994 ], [ -115.2350658, 36.147416399799994 ], [ -115.2350658, 36.147413699799998 ], [ -115.2350334, 36.147413699799998 ], [ -115.2350334, 36.147416399799994 ], [ -115.2350199, 36.147416399799994 ], [ -115.2350199, 36.147419099799997 ], [ -115.2349875, 36.147419099799997 ], [ -115.2349875, 36.147416399799994 ], [ -115.2349848, 36.147416399799994 ], [ -115.2349848, 36.147410999799995 ], [ -115.2349821, 36.147410999799995 ], [ -115.2349821, 36.147370499799997 ], [ -115.2349794, 36.147370499799997 ], [ -115.2349794, 36.147367799799994 ], [ -115.2349821, 36.147367799799994 ], [ -115.2349821, 36.147343499799995 ], [ -115.2349794, 36.147343499799995 ], [ -115.2349794, 36.147297599799998 ], [ -115.2349767, 36.147297599799998 ], [ -115.2349767, 36.147267899799999 ], [ -115.234974, 36.147267899799999 ], [ -115.234974, 36.147246299799995 ], [ -115.2349767, 36.147246299799995 ], [ -115.2349767, 36.147243599799999 ], [ -115.2349902, 36.147243599799999 ], [ -115.2349902, 36.147240899799996 ], [ -115.235082, 36.147240899799996 ], [ -115.235082, 36.147243599799999 ], [ -115.2350847, 36.147243599799999 ], [ -115.2350847, 36.147248999799999 ], [ -115.2350874, 36.147248999799999 ], [ -115.2350874, 36.147267899799999 ], [ -115.2350901, 36.147267899799999 ], [ -115.2350901, 36.147270599799995 ], [ -115.2350928, 36.147270599799995 ], [ -115.2350928, 36.147273299799998 ], [ -115.2351819, 36.147273299799998 ], [ -115.2351819, 36.147275999799994 ], [ -115.2351846, 36.147275999799994 ], [ -115.2351846, 36.147278699799998 ], [ -115.2351873, 36.147278699799998 ], [ -115.2351873, 36.147321899799998 ], [ -115.23519, 36.147321899799998 ], [ -115.23519, 36.147389399799998 ], [ -115.2351873, 36.147389399799998 ], [ -115.2351873, 36.147400199799996 ], [ -115.2351846, 36.147400199799996 ], [ -115.2351846, 36.147408299799999 ], [ -115.2351819, 36.147408299799999 ], [ -115.2351819, 36.147413699799998 ], [ -115.2351765, 36.147413699799998 ], [ -115.2351765, 36.147416399799994 ], [ -115.2351522, 36.147416399799994 ], [ -115.2351522, 36.147419099799997 ] ] ] } },
{ "type": "Feature", "properties": { "value": 255.0 }, "geometry": { "type": "Polygon", "coordinates": [ [ [ -115.2352926, 36.147437999799997 ], [ -115.2352359, 36.147437999799997 ], [ -115.2352359, 36.147435299799994 ], [ -115.2352332, 36.147435299799994 ], [ -115.2352332, 36.147432599799998 ], [ -115.2352305, 36.147432599799998 ], [ -115.2352305, 36.147405599799995 ], [ -115.2352278, 36.147405599799995 ], [ -115.2352278, 36.1473974998 ], [ -115.2352305, 36.1473974998 ], [ -115.2352305, 36.147394799799997 ], [ -115.2352278, 36.147394799799997 ], [ -115.2352278, 36.147373199800001 ], [ -115.2352251, 36.147373199800001 ], [ -115.2352251, 36.147370499799997 ], [ -115.2352278, 36.147370499799997 ], [ -115.2352278, 36.147319199799995 ], [ -115.2352305, 36.147319199799995 ], [ -115.2352305, 36.147300299799994 ], [ -115.2352332, 36.147300299799994 ], [ -115.2352332, 36.147297599799998 ], [ -115.2352359, 36.147297599799998 ], [ -115.2352359, 36.147294899799995 ], [ -115.2352413, 36.147294899799995 ], [ -115.2352413, 36.147292199799999 ], [ -115.235244, 36.147292199799999 ], [ -115.235244, 36.147289499799996 ], [ -115.235271, 36.147289499799996 ], [ -115.235271, 36.1472867998 ], [ -115.2352791, 36.1472867998 ], [ -115.2352791, 36.147284099799997 ], [ -115.2352899, 36.147284099799997 ], [ -115.2352899, 36.147281399800001 ], [ -115.2352953, 36.147281399800001 ], [ -115.2352953, 36.147275999799994 ], [ -115.235298, 36.147275999799994 ], [ -115.235298, 36.147273299799998 ], [ -115.2353007, 36.147273299799998 ], [ -115.2353007, 36.147270599799995 ], [ -115.2353034, 36.147270599799995 ], [ -115.2353034, 36.1472624998 ], [ -115.2353007, 36.1472624998 ], [ -115.2353007, 36.147257099800001 ], [ -115.235298, 36.147257099800001 ], [ -115.235298, 36.147254399799998 ], [ -115.2352953, 36.147254399799998 ], [ -115.2352953, 36.147251699799995 ], [ -115.2352926, 36.147251699799995 ], [ -115.2352926, 36.147243599799999 ], [ -115.2352953, 36.147243599799999 ], [ -115.2352953, 36.147240899799996 ], [ -115.235298, 36.147240899799996 ], [ -115.235298, 36.1472381998 ], [ -115.2353034, 36.1472381998 ], [ -115.2353034, 36.147235499799997 ], [ -115.2353763, 36.147235499799997 ], [ -115.2353763, 36.1472381998 ], [ -115.2354141, 36.1472381998 ], [ -115.2354141, 36.147240899799996 ], [ -115.2354168, 36.147240899799996 ], [ -115.2354168, 36.147300299799994 ], [ -115.2354141, 36.147300299799994 ], [ -115.2354141, 36.147302999799997 ], [ -115.2354087, 36.147302999799997 ], [ -115.2354087, 36.1473056998 ], [ -115.2354033, 36.1473056998 ], [ -115.2354033, 36.147389399799998 ], [ -115.2354006, 36.147389399799998 ], [ -115.2354006, 36.147416399799994 ], [ -115.2353979, 36.147416399799994 ], [ -115.2353979, 36.147419099799997 ], [ -115.2353439, 36.147419099799997 ], [ -115.2353439, 36.147416399799994 ], [ -115.2353385, 36.147416399799994 ], [ -115.2353385, 36.147413699799998 ], [ -115.2353331, 36.147413699799998 ], [ -115.2353331, 36.147410999799995 ], [ -115.2352953, 36.147410999799995 ], [ -115.2352953, 36.147413699799998 ], [ -115.2352926, 36.147413699799998 ], [ -115.2352926, 36.147419099799997 ], [ -115.2352953, 36.147419099799997 ], [ -115.2352953, 36.147435299799994 ], [ -115.2352926, 36.147435299799994 ], [ -115.2352926, 36.147437999799997 ] ] ] } },
{ "type": "Feature", "properties": { "value": 255.0 }, "geometry": { "type": "Polygon", "coordinates": [ [ [ -115.2338103, 36.147003299799998 ], [ -115.2338076, 36.147003299799998 ], [ -115.2338076, 36.146881799799999 ], [ -115.2338211, 36.146881799799999 ], [ -115.2338211, 36.146879099799996 ], [ -115.233831900000013, 36.146879099799996 ], [ -115.233831900000013, 36.146881799799999 ], [ -115.2338535, 36.146881799799999 ], [ -115.2338535, 36.146884499799995 ], [ -115.2338751, 36.146884499799995 ], [ -115.2338751, 36.146887199799998 ], [ -115.2338778, 36.146887199799998 ], [ -115.2338778, 36.146889899800001 ], [ -115.233880500000012, 36.146889899800001 ], [ -115.233880500000012, 36.1469249998 ], [ -115.2338832, 36.1469249998 ], [ -115.2338832, 36.1469438998 ], [ -115.233880500000012, 36.1469438998 ], [ -115.233880500000012, 36.146949299799999 ], [ -115.2338832, 36.146949299799999 ], [ -115.2338832, 36.146957399800002 ], [ -115.233880500000012, 36.146957399800002 ], [ -115.233880500000012, 36.146981699800001 ], [ -115.2338778, 36.146981699800001 ], [ -115.2338778, 36.146984399799997 ], [ -115.2338265, 36.146984399799997 ], [ -115.2338265, 36.1469870998 ], [ -115.2338211, 36.1469870998 ], [ -115.2338211, 36.146995199799996 ], [ -115.2338184, 36.146995199799996 ], [ -115.2338184, 36.147000599799995 ], [ -115.2338103, 36.147000599799995 ], [ -115.2338103, 36.147003299799998 ] ] ] } },
{ "type": "Feature", "properties": { "value": 255.0 }, "geometry": { "type": "Polygon", "coordinates": [ [ [ -115.2347877, 36.147003299799998 ], [ -115.2347796, 36.147003299799998 ], [ -115.2347796, 36.147000599799995 ], [ -115.2347715, 36.147000599799995 ], [ -115.2347715, 36.146997899799999 ], [ -115.2347661, 36.146997899799999 ], [ -115.2347661, 36.146995199799996 ], [ -115.2347553, 36.146995199799996 ], [ -115.2347553, 36.1469924998 ], [ -115.2347526, 36.1469924998 ], [ -115.2347526, 36.146984399799997 ], [ -115.2347499, 36.146984399799997 ], [ -115.2347499, 36.146938499800001 ], [ -115.2347526, 36.146938499800001 ], [ -115.2347526, 36.146933099800002 ], [ -115.2347553, 36.146933099800002 ], [ -115.2347553, 36.1469249998 ], [ -115.234758, 36.1469249998 ], [ -115.234758, 36.146906099799999 ], [ -115.2347607, 36.146906099799999 ], [ -115.2347607, 36.146884499799995 ], [ -115.2347688, 36.146884499799995 ], [ -115.2347688, 36.146881799799999 ], [ -115.2347985, 36.146881799799999 ], [ -115.2347985, 36.146884499799995 ], [ -115.2348714, 36.146884499799995 ], [ -115.2348714, 36.146881799799999 ], [ -115.234893, 36.146881799799999 ], [ -115.234893, 36.146884499799995 ], [ -115.2349011, 36.146884499799995 ], [ -115.2349011, 36.146887199799998 ], [ -115.2349308, 36.146887199799998 ], [ -115.2349308, 36.146889899800001 ], [ -115.2349362, 36.146889899800001 ], [ -115.2349362, 36.146895299800001 ], [ -115.2349389, 36.146895299800001 ], [ -115.2349389, 36.146911499799998 ], [ -115.2349362, 36.146911499799998 ], [ -115.2349362, 36.1469195998 ], [ -115.2349389, 36.1469195998 ], [ -115.2349389, 36.146960099799998 ], [ -115.2349362, 36.146960099799998 ], [ -115.2349362, 36.1469681998 ], [ -115.2349335, 36.1469681998 ], [ -115.2349335, 36.146970899799996 ], [ -115.2349308, 36.146970899799996 ], [ -115.2349308, 36.146973599799999 ], [ -115.2349281, 36.146973599799999 ], [ -115.2349281, 36.146976299799995 ], [ -115.2349227, 36.146976299799995 ], [ -115.2349227, 36.146978999799998 ], [ -115.2348984, 36.146978999799998 ], [ -115.2348984, 36.146981699800001 ], [ -115.2348876, 36.146981699800001 ], [ -115.2348876, 36.146984399799997 ], [ -115.2348768, 36.146984399799997 ], [ -115.2348768, 36.1469870998 ], [ -115.2348714, 36.1469870998 ], [ -115.2348714, 36.146989799799996 ], [ -115.2348687, 36.146989799799996 ], [ -115.2348687, 36.1469924998 ], [ -115.234866, 36.1469924998 ], [ -115.234866, 36.146995199799996 ], [ -115.2348606, 36.146995199799996 ], [ -115.2348606, 36.146997899799999 ], [ -115.2348525, 36.146997899799999 ], [ -115.2348525, 36.147000599799995 ], [ -115.2347877, 36.147000599799995 ], [ -115.2347877, 36.147003299799998 ] ] ] } },
{ "type": "Feature", "properties": { "value": 255.0 }, "geometry": { "type": "Polygon", "coordinates": [ [ [ -115.2355626, 36.1469870998 ], [ -115.2355248, 36.1469870998 ], [ -115.2355248, 36.146984399799997 ], [ -115.2355113, 36.146984399799997 ], [ -115.2355113, 36.146981699800001 ], [ -115.2355032, 36.146981699800001 ], [ -115.2355032, 36.146978999799998 ], [ -115.2354627, 36.146978999799998 ], [ -115.2354627, 36.146981699800001 ], [ -115.2354465, 36.146981699800001 ], [ -115.2354465, 36.146978999799998 ], [ -115.235441099999989, 36.146978999799998 ], [ -115.235441099999989, 36.146976299799995 ], [ -115.2354384, 36.146976299799995 ], [ -115.2354384, 36.146973599799999 ], [ -115.2354357, 36.146973599799999 ], [ -115.2354357, 36.146941199799997 ], [ -115.235433, 36.146941199799997 ], [ -115.235433, 36.1469006998 ], [ -115.2354303, 36.1469006998 ], [ -115.2354303, 36.146895299800001 ], [ -115.235433, 36.146895299800001 ], [ -115.235433, 36.146889899800001 ], [ -115.2354357, 36.146889899800001 ], [ -115.2354357, 36.146887199799998 ], [ -115.2354465, 36.146887199799998 ], [ -115.2354465, 36.146884499799995 ], [ -115.2354519, 36.146884499799995 ], [ -115.2354519, 36.146857499799999 ], [ -115.2354546, 36.146857499799999 ], [ -115.2354546, 36.146854799799996 ], [ -115.2354681, 36.146854799799996 ], [ -115.2354681, 36.1468520998 ], [ -115.2355302, 36.1468520998 ], [ -115.2355302, 36.146854799799996 ], [ -115.2355626, 36.146854799799996 ], [ -115.2355626, 36.1469870998 ] ] ] } },
{ "type": "Feature", "properties": { "value": 255.0 }, "geometry": { "type": "Polygon", "coordinates": [ [ [ -115.2351414, 36.146997899799999 ], [ -115.2351225, 36.146997899799999 ], [ -115.2351225, 36.1469924998 ], [ -115.2351198, 36.1469924998 ], [ -115.2351198, 36.146989799799996 ], [ -115.2351117, 36.146989799799996 ], [ -115.2351117, 36.1469870998 ], [ -115.2351063, 36.1469870998 ], [ -115.2351063, 36.146989799799996 ], [ -115.2351036, 36.146989799799996 ], [ -115.2351036, 36.1469870998 ], [ -115.2350901, 36.1469870998 ], [ -115.2350901, 36.146984399799997 ], [ -115.2350442, 36.146984399799997 ], [ -115.2350442, 36.146981699800001 ], [ -115.2350388, 36.146981699800001 ], [ -115.2350388, 36.146978999799998 ], [ -115.234974, 36.146978999799998 ], [ -115.234974, 36.146976299799995 ], [ -115.2349686, 36.146976299799995 ], [ -115.2349686, 36.146970899799996 ], [ -115.2349659, 36.146970899799996 ], [ -115.2349659, 36.146965499799997 ], [ -115.2349686, 36.146965499799997 ], [ -115.2349686, 36.146892599799997 ], [ -115.2349713, 36.146892599799997 ], [ -115.2349713, 36.146889899800001 ], [ -115.2349767, 36.146889899800001 ], [ -115.2349767, 36.146887199799998 ], [ -115.2349848, 36.146887199799998 ], [ -115.2349848, 36.146879099799996 ], [ -115.2349875, 36.146879099799996 ], [ -115.2349875, 36.146865599800002 ], [ -115.2349902, 36.146865599800002 ], [ -115.2349902, 36.146860199799995 ], [ -115.2349875, 36.146860199799995 ], [ -115.2349875, 36.146857499799999 ], [ -115.2349902, 36.146857499799999 ], [ -115.2349902, 36.1468520998 ], [ -115.2349929, 36.1468520998 ], [ -115.2349929, 36.146849399799997 ], [ -115.2350253, 36.146849399799997 ], [ -115.2350253, 36.146846699800001 ], [ -115.2350442, 36.146846699800001 ], [ -115.2350442, 36.146849399799997 ], [ -115.2350739, 36.146849399799997 ], [ -115.2350739, 36.1468520998 ], [ -115.2350928, 36.1468520998 ], [ -115.2350928, 36.146849399799997 ], [ -115.2350955, 36.146849399799997 ], [ -115.2350955, 36.1468520998 ], [ -115.2351036, 36.1468520998 ], [ -115.2351036, 36.146849399799997 ], [ -115.235109, 36.146849399799997 ], [ -115.235109, 36.1468520998 ], [ -115.2351117, 36.1468520998 ], [ -115.2351117, 36.146854799799996 ], [ -115.2351144, 36.146854799799996 ], [ -115.2351144, 36.146860199799995 ], [ -115.2351171, 36.146860199799995 ], [ -115.2351171, 36.146862899799999 ], [ -115.2351198, 36.146862899799999 ], [ -115.2351198, 36.146865599800002 ], [ -115.2351171, 36.146865599800002 ], [ -115.2351171, 36.146895299800001 ], [ -115.2351144, 36.146895299800001 ], [ -115.2351144, 36.1469249998 ], [ -115.2351171, 36.1469249998 ], [ -115.2351171, 36.146930399799999 ], [ -115.2351198, 36.146930399799999 ], [ -115.2351198, 36.146933099800002 ], [ -115.2351252, 36.146933099800002 ], [ -115.2351252, 36.146935799799998 ], [ -115.2351387, 36.146935799799998 ], [ -115.2351387, 36.146938499800001 ], [ -115.2351414, 36.146938499800001 ], [ -115.2351414, 36.146941199799997 ], [ -115.2351441, 36.146941199799997 ], [ -115.2351441, 36.146960099799998 ], [ -115.2351468, 36.146960099799998 ], [ -115.2351468, 36.146970899799996 ], [ -115.2351441, 36.146970899799996 ], [ -115.2351441, 36.146995199799996 ], [ -115.2351414, 36.146995199799996 ], [ -115.2351414, 36.146997899799999 ] ] ] } },
{ "type": "Feature", "properties": { "value": 255.0 }, "geometry": { "type": "Polygon", "coordinates": [ [ [ -115.2351657, 36.146854799799996 ], [ -115.2351576, 36.146854799799996 ], [ -115.2351576, 36.1468520998 ], [ -115.2351522, 36.1468520998 ], [ -115.2351522, 36.146846699800001 ], [ -115.2351495, 36.146846699800001 ], [ -115.2351495, 36.146841299800002 ], [ -115.2351549, 36.146841299800002 ], [ -115.2351549, 36.146849399799997 ], [ -115.2351576, 36.146849399799997 ], [ -115.2351576, 36.146846699800001 ], [ -115.2351603, 36.146846699800001 ], [ -115.2351603, 36.146841299800002 ], [ -115.2351684, 36.146841299800002 ], [ -115.2351684, 36.1468520998 ], [ -115.2351657, 36.1468520998 ], [ -115.2351657, 36.146854799799996 ] ] ] } },
{ "type": "Feature", "properties": { "value": 255.0 }, "geometry": { "type": "Polygon", "coordinates": [ [ [ -115.2351414, 36.146846699800001 ], [ -115.2351306, 36.146846699800001 ], [ -115.2351306, 36.146843999799998 ], [ -115.2351252, 36.146843999799998 ], [ -115.2351252, 36.146841299800002 ], [ -115.2351225, 36.146841299800002 ], [ -115.2351225, 36.1468331998 ], [ -115.2351279, 36.1468331998 ], [ -115.2351279, 36.146838599799999 ], [ -115.2351387, 36.146838599799999 ], [ -115.2351387, 36.146841299800002 ], [ -115.2351414, 36.146841299800002 ], [ -115.2351414, 36.146846699800001 ] ] ] } },
{ "type": "Feature", "properties": { "value": 255.0 }, "geometry": { "type": "Polygon", "coordinates": [ [ [ -115.2344475, 36.147030299800001 ], [ -115.2343854, 36.147030299800001 ], [ -115.2343854, 36.147027599799998 ], [ -115.23438, 36.147027599799998 ], [ -115.23438, 36.147030299800001 ], [ -115.2343476, 36.147030299800001 ], [ -115.2343476, 36.147027599799998 ], [ -115.2343422, 36.147027599799998 ], [ -115.2343422, 36.146995199799996 ], [ -115.2343395, 36.146995199799996 ], [ -115.2343395, 36.1469924998 ], [ -115.2343071, 36.1469924998 ], [ -115.2343071, 36.146995199799996 ], [ -115.2342801, 36.146995199799996 ], [ -115.2342801, 36.146997899799999 ], [ -115.234272, 36.146997899799999 ], [ -115.234272, 36.146995199799996 ], [ -115.2342666, 36.146995199799996 ], [ -115.2342666, 36.1469924998 ], [ -115.2342639, 36.1469924998 ], [ -115.2342639, 36.146989799799996 ], [ -115.2342612, 36.146989799799996 ], [ -115.2342612, 36.1469870998 ], [ -115.23425850000001, 36.1469870998 ], [ -115.23425850000001, 36.146946599799996 ], [ -115.2342612, 36.146946599799996 ], [ -115.2342612, 36.146903399799996 ], [ -115.23425850000001, 36.146903399799996 ], [ -115.23425850000001, 36.1468331998 ], [ -115.2342612, 36.1468331998 ], [ -115.2342612, 36.146830499799997 ], [ -115.23425850000001, 36.146830499799997 ], [ -115.23425850000001, 36.146822399800001 ], [ -115.2342612, 36.146822399800001 ], [ -115.2342612, 36.146819699799998 ], [ -115.2342882, 36.146819699799998 ], [ -115.2342882, 36.146816999799995 ], [ -115.2343125, 36.146816999799995 ], [ -115.2343125, 36.146819699799998 ], [ -115.2343287, 36.146819699799998 ], [ -115.2343287, 36.146822399800001 ], [ -115.2343368, 36.146822399800001 ], [ -115.2343368, 36.146819699799998 ], [ -115.2343422, 36.146819699799998 ], [ -115.2343422, 36.146822399800001 ], [ -115.2343503, 36.146822399800001 ], [ -115.2343503, 36.146825099799997 ], [ -115.2343557, 36.146825099799997 ], [ -115.2343557, 36.1468277998 ], [ -115.2343584, 36.1468277998 ], [ -115.2343584, 36.146830499799997 ], [ -115.2343611, 36.146830499799997 ], [ -115.2343611, 36.1468331998 ], [ -115.2343638, 36.1468331998 ], [ -115.2343638, 36.146835899799996 ], [ -115.2343665, 36.146835899799996 ], [ -115.2343665, 36.146838599799999 ], [ -115.2343719, 36.146838599799999 ], [ -115.2343719, 36.146841299800002 ], [ -115.2343881, 36.146841299800002 ], [ -115.2343881, 36.146843999799998 ], [ -115.2344232, 36.146843999799998 ], [ -115.2344232, 36.146846699800001 ], [ -115.2344259, 36.146846699800001 ], [ -115.2344259, 36.1468520998 ], [ -115.2344286, 36.1468520998 ], [ -115.2344286, 36.146854799799996 ], [ -115.2344313, 36.146854799799996 ], [ -115.2344313, 36.146870999800001 ], [ -115.234434, 36.146870999800001 ], [ -115.234434, 36.1469249998 ], [ -115.2344367, 36.1469249998 ], [ -115.2344367, 36.146962799800001 ], [ -115.2344394, 36.146962799800001 ], [ -115.2344394, 36.146965499799997 ], [ -115.2344421, 36.146965499799997 ], [ -115.2344421, 36.1469681998 ], [ -115.2344475, 36.1469681998 ], [ -115.2344475, 36.146976299799995 ], [ -115.2344502, 36.146976299799995 ], [ -115.2344502, 36.147027599799998 ], [ -115.2344475, 36.147027599799998 ], [ -115.2344475, 36.147030299800001 ] ] ] } },
{ "type": "Feature", "properties": { "value": 255.0 }, "geometry": { "type": "Polygon", "coordinates": [ [ [ -115.2346797, 36.147016799799999 ], [ -115.2345906, 36.147016799799999 ], [ -115.2345906, 36.147014099799996 ], [ -115.2345879, 36.147014099799996 ], [ -115.2345879, 36.147008699799997 ], [ -115.2345852, 36.147008699799997 ], [ -115.2345852, 36.147003299799998 ], [ -115.2345879, 36.147003299799998 ], [ -115.2345879, 36.146989799799996 ], [ -115.2345906, 36.146989799799996 ], [ -115.2345906, 36.1469870998 ], [ -115.2345879, 36.1469870998 ], [ -115.2345879, 36.146984399799997 ], [ -115.2345852, 36.146984399799997 ], [ -115.2345852, 36.146978999799998 ], [ -115.2345825, 36.146978999799998 ], [ -115.2345825, 36.146973599799999 ], [ -115.2345771, 36.146973599799999 ], [ -115.2345771, 36.146970899799996 ], [ -115.2345744, 36.146970899799996 ], [ -115.2345744, 36.1469681998 ], [ -115.2345771, 36.1469681998 ], [ -115.2345771, 36.146965499799997 ], [ -115.2345636, 36.146965499799997 ], [ -115.2345636, 36.146962799800001 ], [ -115.2345555, 36.146962799800001 ], [ -115.2345555, 36.146960099799998 ], [ -115.2345528, 36.146960099799998 ], [ -115.2345528, 36.146962799800001 ], [ -115.2345474, 36.146962799800001 ], [ -115.2345474, 36.146965499799997 ], [ -115.2345447, 36.146965499799997 ], [ -115.2345447, 36.146970899799996 ], [ -115.2345285, 36.146970899799996 ], [ -115.2345285, 36.1469681998 ], [ -115.2344961, 36.1469681998 ], [ -115.2344961, 36.146895299800001 ], [ -115.2344934, 36.146895299800001 ], [ -115.2344934, 36.146892599799997 ], [ -115.2344961, 36.146892599799997 ], [ -115.2344961, 36.146889899800001 ], [ -115.2344934, 36.146889899800001 ], [ -115.2344934, 36.1468763998 ], [ -115.2344988, 36.1468763998 ], [ -115.2344988, 36.146873699799997 ], [ -115.2345177, 36.146873699799997 ], [ -115.2345177, 36.1468763998 ], [ -115.2345447, 36.1468763998 ], [ -115.2345447, 36.146873699799997 ], [ -115.2345501, 36.146873699799997 ], [ -115.2345501, 36.146854799799996 ], [ -115.2345474, 36.146854799799996 ], [ -115.2345474, 36.146841299800002 ], [ -115.2345447, 36.146841299800002 ], [ -115.2345447, 36.146838599799999 ], [ -115.2345474, 36.146838599799999 ], [ -115.2345474, 36.146830499799997 ], [ -115.2345717, 36.146830499799997 ], [ -115.2345717, 36.1468277998 ], [ -115.2345987, 36.1468277998 ], [ -115.2345987, 36.146830499799997 ], [ -115.2346122, 36.146830499799997 ], [ -115.2346122, 36.1468331998 ], [ -115.2346149, 36.1468331998 ], [ -115.2346149, 36.146841299800002 ], [ -115.2346176, 36.146841299800002 ], [ -115.2346176, 36.146843999799998 ], [ -115.2346203, 36.146843999799998 ], [ -115.2346203, 36.146846699800001 ], [ -115.234623, 36.146846699800001 ], [ -115.234623, 36.146849399799997 ], [ -115.2346311, 36.146849399799997 ], [ -115.2346311, 36.146846699800001 ], [ -115.2346365, 36.146846699800001 ], [ -115.2346365, 36.146849399799997 ], [ -115.2346419, 36.146849399799997 ], [ -115.2346419, 36.146868299799998 ], [ -115.2346446, 36.146868299799998 ], [ -115.2346446, 36.146870999800001 ], [ -115.2346473, 36.146870999800001 ], [ -115.2346473, 36.146873699799997 ], [ -115.2346635, 36.146873699799997 ], [ -115.2346635, 36.1468763998 ], [ -115.2346689, 36.1468763998 ], [ -115.2346689, 36.146889899800001 ], [ -115.2346716, 36.146889899800001 ], [ -115.2346716, 36.1469006998 ], [ -115.2346743, 36.1469006998 ], [ -115.2346743, 36.146930399799999 ], [ -115.2346716, 36.146930399799999 ], [ -115.2346716, 36.146949299799999 ], [ -115.2346743, 36.146949299799999 ], [ -115.2346743, 36.146951999799995 ], [ -115.2346824, 36.146951999799995 ], [ -115.2346824, 36.146954699799998 ], [ -115.2346932, 36.146954699799998 ], [ -115.2346932, 36.146981699800001 ], [ -115.2346905, 36.146981699800001 ], [ -115.2346905, 36.1469870998 ], [ -115.2346932, 36.1469870998 ], [ -115.2346932, 36.1470113998 ], [ -115.2346905, 36.1470113998 ], [ -115.2346905, 36.147014099799996 ], [ -115.2346797, 36.147014099799996 ], [ -115.2346797, 36.147016799799999 ] ] ] } },
{ "type": "Feature", "properties": { "value": 255.0 }, "geometry": { "type": "Polygon", "coordinates": [ [ [ -115.2353007, 36.147003299799998 ], [ -115.2351981, 36.147003299799998 ], [ -115.2351981, 36.147000599799995 ], [ -115.2351954, 36.147000599799995 ], [ -115.2351954, 36.146995199799996 ], [ -115.2351927, 36.146995199799996 ], [ -115.2351927, 36.146984399799997 ], [ -115.2351954, 36.146984399799997 ], [ -115.2351954, 36.146970899799996 ], [ -115.2351927, 36.146970899799996 ], [ -115.2351927, 36.146946599799996 ], [ -115.2351954, 36.146946599799996 ], [ -115.2351954, 36.146922299799996 ], [ -115.2351981, 36.146922299799996 ], [ -115.2351981, 36.146857499799999 ], [ -115.2352008, 36.146857499799999 ], [ -115.2352008, 36.146830499799997 ], [ -115.2352035, 36.146830499799997 ], [ -115.2352035, 36.146825099799997 ], [ -115.2352062, 36.146825099799997 ], [ -115.2352062, 36.146822399800001 ], [ -115.2352305, 36.146822399800001 ], [ -115.2352305, 36.146825099799997 ], [ -115.2352494, 36.146825099799997 ], [ -115.2352494, 36.1468277998 ], [ -115.235276399999989, 36.1468277998 ], [ -115.235276399999989, 36.146825099799997 ], [ -115.2352818, 36.146825099799997 ], [ -115.2352818, 36.146822399800001 ], [ -115.2352845, 36.146822399800001 ], [ -115.2352845, 36.146819699799998 ], [ -115.2352899, 36.146819699799998 ], [ -115.2352899, 36.146816999799995 ], [ -115.235352, 36.146816999799995 ], [ -115.235352, 36.146819699799998 ], [ -115.2353709, 36.146819699799998 ], [ -115.2353709, 36.146822399800001 ], [ -115.235379, 36.146822399800001 ], [ -115.235379, 36.146825099799997 ], [ -115.2353817, 36.146825099799997 ], [ -115.2353817, 36.1468277998 ], [ -115.2353844, 36.1468277998 ], [ -115.2353844, 36.146830499799997 ], [ -115.2353871, 36.146830499799997 ], [ -115.2353871, 36.1468331998 ], [ -115.2353898, 36.1468331998 ], [ -115.2353898, 36.146838599799999 ], [ -115.235392499999989, 36.146838599799999 ], [ -115.235392499999989, 36.146841299800002 ], [ -115.2353952, 36.146841299800002 ], [ -115.2353952, 36.146846699800001 ], [ -115.2353979, 36.146846699800001 ], [ -115.2353979, 36.1468520998 ], [ -115.2354006, 36.1468520998 ], [ -115.2354006, 36.146860199799995 ], [ -115.2354033, 36.146860199799995 ], [ -115.2354033, 36.146862899799999 ], [ -115.235406, 36.146862899799999 ], [ -115.235406, 36.146870999800001 ], [ -115.2354033, 36.146870999800001 ], [ -115.2354033, 36.146879099799996 ], [ -115.235406, 36.146879099799996 ], [ -115.235406, 36.1469006998 ], [ -115.2354033, 36.1469006998 ], [ -115.2354033, 36.146914199800001 ], [ -115.235406, 36.146914199800001 ], [ -115.235406, 36.1469195998 ], [ -115.2354033, 36.1469195998 ], [ -115.2354033, 36.146960099799998 ], [ -115.2354006, 36.146960099799998 ], [ -115.2354006, 36.146962799800001 ], [ -115.2353142, 36.146962799800001 ], [ -115.2353142, 36.146965499799997 ], [ -115.2353088, 36.146965499799997 ], [ -115.2353088, 36.146984399799997 ], [ -115.2353061, 36.146984399799997 ], [ -115.2353061, 36.147000599799995 ], [ -115.2353007, 36.147000599799995 ], [ -115.2353007, 36.147003299799998 ] ] ] } },
{ "type": "Feature", "properties": { "value": 255.0 }, "geometry": { "type": "Polygon", "coordinates": [ [ [ -115.2342504, 36.146771099799999 ], [ -115.2342477, 36.146771099799999 ], [ -115.2342477, 36.146768399799996 ], [ -115.2342234, 36.146768399799996 ], [ -115.2342234, 36.1467656998 ], [ -115.2342207, 36.1467656998 ], [ -115.2342207, 36.146752199799998 ], [ -115.2342234, 36.146752199799998 ], [ -115.2342234, 36.146749499800002 ], [ -115.2342261, 36.146749499800002 ], [ -115.2342261, 36.146746799799999 ], [ -115.2342396, 36.146746799799999 ], [ -115.2342396, 36.146744099799996 ], [ -115.2342504, 36.146744099799996 ], [ -115.2342504, 36.146746799799999 ], [ -115.2342531, 36.146746799799999 ], [ -115.2342531, 36.146757599799997 ], [ -115.2342558, 36.146757599799997 ], [ -115.2342558, 36.1467602998 ], [ -115.2342531, 36.1467602998 ], [ -115.2342531, 36.146768399799996 ], [ -115.2342504, 36.146768399799996 ], [ -115.2342504, 36.146771099799999 ] ] ] } },
{ "type": "Feature", "properties": { "value": 255.0 }, "geometry": { "type": "Polygon", "coordinates": [ [ [ -115.2338589, 36.146708999799998 ], [ -115.2338346, 36.146708999799998 ], [ -115.2338346, 36.146706299800002 ], [ -115.2338265, 36.146706299800002 ], [ -115.2338265, 36.146703599799999 ], [ -115.2338076, 36.146703599799999 ], [ -115.2338076, 36.146565899800002 ], [ -115.2338211, 36.146565899800002 ], [ -115.2338211, 36.146563199799999 ], [ -115.2338292, 36.146563199799999 ], [ -115.2338292, 36.146565899800002 ], [ -115.2338346, 36.146565899800002 ], [ -115.2338346, 36.146563199799999 ], [ -115.2338589, 36.146563199799999 ], [ -115.2338589, 36.146565899800002 ], [ -115.233861600000012, 36.146565899800002 ], [ -115.233861600000012, 36.146568599799998 ], [ -115.2338643, 36.146568599799998 ], [ -115.2338643, 36.146579399799997 ], [ -115.233867, 36.146579399799997 ], [ -115.233867, 36.146611799799999 ], [ -115.2338697, 36.146611799799999 ], [ -115.2338697, 36.1466495998 ], [ -115.23387240000001, 36.1466495998 ], [ -115.23387240000001, 36.146676599799996 ], [ -115.2338751, 36.146676599799996 ], [ -115.2338751, 36.146695499799996 ], [ -115.23387240000001, 36.146695499799996 ], [ -115.23387240000001, 36.146700899799995 ], [ -115.2338697, 36.146700899799995 ], [ -115.2338697, 36.146703599799999 ], [ -115.233867, 36.146703599799999 ], [ -115.233867, 36.146706299800002 ], [ -115.2338589, 36.146706299800002 ], [ -115.2338589, 36.146708999799998 ] ] ] } },
{ "type": "Feature", "properties": { "value": 255.0 }, "geometry": { "type": "Polygon", "coordinates": [ [ [ -115.234623, 36.146708999799998 ], [ -115.2345852, 36.146708999799998 ], [ -115.2345852, 36.146706299800002 ], [ -115.2345798, 36.146706299800002 ], [ -115.2345798, 36.146708999799998 ], [ -115.234569, 36.146708999799998 ], [ -115.234569, 36.146706299800002 ], [ -115.2345663, 36.146706299800002 ], [ -115.2345663, 36.146703599799999 ], [ -115.2345717, 36.146703599799999 ], [ -115.2345717, 36.146700899799995 ], [ -115.2345636, 36.146700899799995 ], [ -115.2345636, 36.146698199799999 ], [ -115.2345555, 36.146698199799999 ], [ -115.2345555, 36.146700899799995 ], [ -115.2345528, 36.146700899799995 ], [ -115.2345528, 36.146703599799999 ], [ -115.2345609, 36.146703599799999 ], [ -115.2345609, 36.146708999799998 ], [ -115.2345474, 36.146708999799998 ], [ -115.2345474, 36.146706299800002 ], [ -115.234542, 36.146706299800002 ], [ -115.234542, 36.146703599799999 ], [ -115.2345447, 36.146703599799999 ], [ -115.2345447, 36.146700899799995 ], [ -115.234542, 36.146700899799995 ], [ -115.234542, 36.146695499799996 ], [ -115.2345609, 36.146695499799996 ], [ -115.2345609, 36.1466927998 ], [ -115.2345717, 36.1466927998 ], [ -115.2345717, 36.146684699799998 ], [ -115.2345771, 36.146684699799998 ], [ -115.2345771, 36.146681999800002 ], [ -115.2345744, 36.146681999800002 ], [ -115.2345744, 36.146679299799999 ], [ -115.234515, 36.146679299799999 ], [ -115.234515, 36.146676599799996 ], [ -115.2345123, 36.146676599799996 ], [ -115.2345123, 36.1466738998 ], [ -115.2345096, 36.1466738998 ], [ -115.2345096, 36.1466252998 ], [ -115.2345069, 36.1466252998 ], [ -115.2345069, 36.146622599799997 ], [ -115.2345015, 36.146622599799997 ], [ -115.2345015, 36.146619899800001 ], [ -115.2344907, 36.146619899800001 ], [ -115.2344907, 36.146617199799998 ], [ -115.2344745, 36.146617199799998 ], [ -115.2344745, 36.146614499800002 ], [ -115.2344718, 36.146614499800002 ], [ -115.2344718, 36.146579399799997 ], [ -115.2344745, 36.146579399799997 ], [ -115.2344745, 36.146568599799998 ], [ -115.2344718, 36.146568599799998 ], [ -115.2344718, 36.146565899800002 ], [ -115.2344745, 36.146565899800002 ], [ -115.2344745, 36.1465577998 ], [ -115.2344826, 36.1465577998 ], [ -115.2344826, 36.146555099799997 ], [ -115.2345204, 36.146555099799997 ], [ -115.2345204, 36.1465577998 ], [ -115.234542, 36.1465577998 ], [ -115.234542, 36.146555099799997 ], [ -115.2345744, 36.146555099799997 ], [ -115.2345744, 36.1465577998 ], [ -115.2345771, 36.1465577998 ], [ -115.2345771, 36.146560499799996 ], [ -115.2345798, 36.146560499799996 ], [ -115.2345798, 36.146563199799999 ], [ -115.2345852, 36.146563199799999 ], [ -115.2345852, 36.146565899800002 ], [ -115.2345906, 36.146565899800002 ], [ -115.2345906, 36.146568599799998 ], [ -115.2345987, 36.146568599799998 ], [ -115.2345987, 36.146571299800001 ], [ -115.2346041, 36.146571299800001 ], [ -115.2346041, 36.146573999799998 ], [ -115.2346419, 36.146573999799998 ], [ -115.2346419, 36.146576699800001 ], [ -115.2346554, 36.146576699800001 ], [ -115.2346554, 36.146579399799997 ], [ -115.2346581, 36.146579399799997 ], [ -115.2346581, 36.146584799799996 ], [ -115.2346608, 36.146584799799996 ], [ -115.2346608, 36.146663099800001 ], [ -115.2346581, 36.146663099800001 ], [ -115.2346581, 36.146676599799996 ], [ -115.2346527, 36.146676599799996 ], [ -115.2346527, 36.146679299799999 ], [ -115.2346419, 36.146679299799999 ], [ -115.2346419, 36.146690099799997 ], [ -115.2346392, 36.146690099799997 ], [ -115.2346392, 36.146695499799996 ], [ -115.2346365, 36.146695499799996 ], [ -115.2346365, 36.146698199799999 ], [ -115.2346338, 36.146698199799999 ], [ -115.2346338, 36.146700899799995 ], [ -115.2346311, 36.146700899799995 ], [ -115.2346311, 36.146706299800002 ], [ -115.234623, 36.146706299800002 ], [ -115.234623, 36.146708999799998 ] ] ] } },
{ "type": "Feature", "properties": { "value": 255.0 }, "geometry": { "type": "Polygon", "coordinates": [ [ [ -115.2343503, 36.146714399799997 ], [ -115.2343368, 36.146714399799997 ], [ -115.2343368, 36.146711699800001 ], [ -115.2342963, 36.146711699800001 ], [ -115.2342963, 36.146714399799997 ], [ -115.2342747, 36.146714399799997 ], [ -115.2342747, 36.146711699800001 ], [ -115.23425850000001, 36.146711699800001 ], [ -115.23425850000001, 36.146708999799998 ], [ -115.2342558, 36.146708999799998 ], [ -115.2342558, 36.146687399800001 ], [ -115.2342531, 36.146687399800001 ], [ -115.2342531, 36.146671199799997 ], [ -115.2342477, 36.146671199799997 ], [ -115.2342477, 36.146668499800001 ], [ -115.2342396, 36.146668499800001 ], [ -115.2342396, 36.146665799799997 ], [ -115.2342369, 36.146665799799997 ], [ -115.2342369, 36.146663099800001 ], [ -115.2342342, 36.146663099800001 ], [ -115.2342342, 36.146646899799997 ], [ -115.2342369, 36.146646899799997 ], [ -115.2342369, 36.146609099799996 ], [ -115.2342396, 36.146609099799996 ], [ -115.2342396, 36.1466063998 ], [ -115.2342369, 36.1466063998 ], [ -115.2342369, 36.146595599800001 ], [ -115.2342396, 36.146595599800001 ], [ -115.2342396, 36.146576699800001 ], [ -115.2342423, 36.146576699800001 ], [ -115.2342423, 36.146573999799998 ], [ -115.2342558, 36.146573999799998 ], [ -115.2342558, 36.146571299800001 ], [ -115.2342639, 36.146571299800001 ], [ -115.2342639, 36.146573999799998 ], [ -115.2342936, 36.146573999799998 ], [ -115.2342936, 36.146571299800001 ], [ -115.234299, 36.146571299800001 ], [ -115.234299, 36.146568599799998 ], [ -115.2343017, 36.146568599799998 ], [ -115.2343017, 36.146563199799999 ], [ -115.2343044, 36.146563199799999 ], [ -115.2343044, 36.146560499799996 ], [ -115.2343071, 36.146560499799996 ], [ -115.2343071, 36.1465577998 ], [ -115.2343206, 36.1465577998 ], [ -115.2343206, 36.146555099799997 ], [ -115.2344097, 36.146555099799997 ], [ -115.2344097, 36.1465577998 ], [ -115.2344124, 36.1465577998 ], [ -115.2344124, 36.146590199800002 ], [ -115.2344151, 36.146590199800002 ], [ -115.2344151, 36.146609099799996 ], [ -115.2344124, 36.146609099799996 ], [ -115.2344124, 36.146617199799998 ], [ -115.2343854, 36.146617199799998 ], [ -115.2343854, 36.146622599799997 ], [ -115.2343827, 36.146622599799997 ], [ -115.2343827, 36.146652299799996 ], [ -115.2343854, 36.146652299799996 ], [ -115.2343854, 36.146676599799996 ], [ -115.2343881, 36.146676599799996 ], [ -115.2343881, 36.146698199799999 ], [ -115.2343854, 36.146698199799999 ], [ -115.2343854, 36.146708999799998 ], [ -115.2343827, 36.146708999799998 ], [ -115.2343827, 36.146711699800001 ], [ -115.2343503, 36.146711699800001 ], [ -115.2343503, 36.146714399799997 ] ] ] } },
{ "type": "Feature", "properties": { "value": 255.0 }, "geometry": { "type": "Polygon", "coordinates": [ [ [ -115.2348498, 36.146684699799998 ], [ -115.2347337, 36.146684699799998 ], [ -115.2347337, 36.146681999800002 ], [ -115.234731, 36.146681999800002 ], [ -115.234731, 36.146671199799997 ], [ -115.2347283, 36.146671199799997 ], [ -115.2347283, 36.146644199800001 ], [ -115.2347256, 36.146644199800001 ], [ -115.2347256, 36.146641499799998 ], [ -115.2347148, 36.146641499799998 ], [ -115.2347148, 36.146638799800002 ], [ -115.2347121, 36.146638799800002 ], [ -115.2347121, 36.146636099799998 ], [ -115.2347094, 36.146636099799998 ], [ -115.2347094, 36.146611799799999 ], [ -115.2347121, 36.146611799799999 ], [ -115.2347121, 36.146603699799996 ], [ -115.2347094, 36.146603699799996 ], [ -115.2347094, 36.146587499799999 ], [ -115.2347121, 36.146587499799999 ], [ -115.2347121, 36.146568599799998 ], [ -115.2347148, 36.146568599799998 ], [ -115.2347148, 36.146549699799998 ], [ -115.2347175, 36.146549699799998 ], [ -115.2347175, 36.146546999800002 ], [ -115.2347229, 36.146546999800002 ], [ -115.2347229, 36.146544299799999 ], [ -115.2347418, 36.146544299799999 ], [ -115.2347418, 36.146546999800002 ], [ -115.2347553, 36.146546999800002 ], [ -115.2347553, 36.146549699799998 ], [ -115.234758, 36.146549699799998 ], [ -115.234758, 36.146552399800001 ], [ -115.2347796, 36.146552399800001 ], [ -115.2347796, 36.146528099800001 ], [ -115.2347823, 36.146528099800001 ], [ -115.2347823, 36.146525399799998 ], [ -115.2348201, 36.146525399799998 ], [ -115.2348201, 36.146528099800001 ], [ -115.2348417, 36.146528099800001 ], [ -115.2348417, 36.146525399799998 ], [ -115.2348795, 36.146525399799998 ], [ -115.2348795, 36.146528099800001 ], [ -115.2348849, 36.146528099800001 ], [ -115.2348849, 36.1465334998 ], [ -115.2348876, 36.1465334998 ], [ -115.2348876, 36.146587499799999 ], [ -115.2348606, 36.146587499799999 ], [ -115.2348606, 36.146590199800002 ], [ -115.2348579, 36.146590199800002 ], [ -115.2348579, 36.146598299799997 ], [ -115.2348552, 36.146598299799997 ], [ -115.2348552, 36.146622599799997 ], [ -115.2348579, 36.146622599799997 ], [ -115.2348579, 36.1466495998 ], [ -115.2348606, 36.1466495998 ], [ -115.2348606, 36.146654999799999 ], [ -115.2348579, 36.146654999799999 ], [ -115.2348579, 36.146671199799997 ], [ -115.2348552, 36.146671199799997 ], [ -115.2348552, 36.146679299799999 ], [ -115.2348525, 36.146679299799999 ], [ -115.2348525, 36.146681999800002 ], [ -115.2348498, 36.146681999800002 ], [ -115.2348498, 36.146684699799998 ] ] ] } },
{ "type": "Feature", "properties": { "value": 255.0 }, "geometry": { "type": "Polygon", "coordinates": [ [ [ -115.2351468, 36.146684699799998 ], [ -115.2350847, 36.146684699799998 ], [ -115.2350847, 36.146681999800002 ], [ -115.2350631, 36.146681999800002 ], [ -115.2350631, 36.146684699799998 ], [ -115.2350388, 36.146684699799998 ], [ -115.2350388, 36.146681999800002 ], [ -115.2350307, 36.146681999800002 ], [ -115.2350307, 36.146679299799999 ], [ -115.2350091, 36.146679299799999 ], [ -115.2350091, 36.146681999800002 ], [ -115.235001, 36.146681999800002 ], [ -115.235001, 36.146679299799999 ], [ -115.2349956, 36.146679299799999 ], [ -115.2349956, 36.146681999800002 ], [ -115.2349794, 36.146681999800002 ], [ -115.2349794, 36.146684699799998 ], [ -115.2349497, 36.146684699799998 ], [ -115.2349497, 36.146681999800002 ], [ -115.234947, 36.146681999800002 ], [ -115.234947, 36.146679299799999 ], [ -115.2349443, 36.146679299799999 ], [ -115.2349443, 36.146641499799998 ], [ -115.2349416, 36.146641499799998 ], [ -115.2349416, 36.146555099799997 ], [ -115.2349389, 36.146555099799997 ], [ -115.2349389, 36.146509199800001 ], [ -115.2349416, 36.146509199800001 ], [ -115.2349416, 36.146506499799997 ], [ -115.2349443, 36.146506499799997 ], [ -115.2349443, 36.146503799800001 ], [ -115.2349497, 36.146503799800001 ], [ -115.2349497, 36.146501099799998 ], [ -115.2349956, 36.146501099799998 ], [ -115.2349956, 36.146503799800001 ], [ -115.2350199, 36.146503799800001 ], [ -115.2350199, 36.146506499799997 ], [ -115.2350361, 36.146506499799997 ], [ -115.2350361, 36.146509199800001 ], [ -115.2350523, 36.146509199800001 ], [ -115.2350523, 36.146511899799997 ], [ -115.235055, 36.146511899799997 ], [ -115.235055, 36.146536199799996 ], [ -115.2350577, 36.146536199799996 ], [ -115.2350577, 36.146538899799999 ], [ -115.2350604, 36.146538899799999 ], [ -115.2350604, 36.146541599800003 ], [ -115.2350658, 36.146541599800003 ], [ -115.2350658, 36.146544299799999 ], [ -115.2350685, 36.146544299799999 ], [ -115.2350685, 36.146546999800002 ], [ -115.2350712, 36.146546999800002 ], [ -115.2350712, 36.146552399800001 ], [ -115.2350739, 36.146552399800001 ], [ -115.2350739, 36.146555099799997 ], [ -115.2350766, 36.146555099799997 ], [ -115.2350766, 36.1465577998 ], [ -115.2350847, 36.1465577998 ], [ -115.2350847, 36.146560499799996 ], [ -115.2350901, 36.146560499799996 ], [ -115.2350901, 36.146563199799999 ], [ -115.2350955, 36.146563199799999 ], [ -115.2350955, 36.146565899800002 ], [ -115.2350982, 36.146565899800002 ], [ -115.2350982, 36.146568599799998 ], [ -115.235109, 36.146568599799998 ], [ -115.235109, 36.146571299800001 ], [ -115.2351144, 36.146571299800001 ], [ -115.2351144, 36.146573999799998 ], [ -115.2351225, 36.146573999799998 ], [ -115.2351225, 36.146571299800001 ], [ -115.2351279, 36.146571299800001 ], [ -115.2351279, 36.146568599799998 ], [ -115.2351306, 36.146568599799998 ], [ -115.2351306, 36.146565899800002 ], [ -115.2351333, 36.146565899800002 ], [ -115.2351333, 36.146563199799999 ], [ -115.2351414, 36.146563199799999 ], [ -115.2351414, 36.146568599799998 ], [ -115.2351441, 36.146568599799998 ], [ -115.2351441, 36.146571299800001 ], [ -115.2351468, 36.146571299800001 ], [ -115.2351468, 36.146576699800001 ], [ -115.2351495, 36.146576699800001 ], [ -115.2351495, 36.146595599800001 ], [ -115.2351522, 36.146595599800001 ], [ -115.2351522, 36.146617199799998 ], [ -115.2351495, 36.146617199799998 ], [ -115.2351495, 36.146638799800002 ], [ -115.2351522, 36.146638799800002 ], [ -115.2351522, 36.146641499799998 ], [ -115.2351495, 36.146641499799998 ], [ -115.2351495, 36.146679299799999 ], [ -115.2351468, 36.146679299799999 ], [ -115.2351468, 36.146684699799998 ] ] ] } },
{ "type": "Feature", "properties": { "value": 255.0 }, "geometry": { "type": "Polygon", "coordinates": [ [ [ -115.2355437, 36.1466252998 ], [ -115.2355356, 36.1466252998 ], [ -115.2355356, 36.146622599799997 ], [ -115.2354681, 36.146622599799997 ], [ -115.2354681, 36.146617199799998 ], [ -115.2354654, 36.146617199799998 ], [ -115.2354654, 36.146598299799997 ], [ -115.2354627, 36.146598299799997 ], [ -115.2354627, 36.1465820998 ], [ -115.2354654, 36.1465820998 ], [ -115.2354654, 36.146565899800002 ], [ -115.2354627, 36.146565899800002 ], [ -115.2354627, 36.146563199799999 ], [ -115.2354357, 36.146563199799999 ], [ -115.2354357, 36.146560499799996 ], [ -115.235433, 36.146560499799996 ], [ -115.235433, 36.1465577998 ], [ -115.2354303, 36.1465577998 ], [ -115.2354303, 36.146506499799997 ], [ -115.235433, 36.146506499799997 ], [ -115.235433, 36.146503799800001 ], [ -115.2354438, 36.146503799800001 ], [ -115.2354438, 36.146501099799998 ], [ -115.2354627, 36.146501099799998 ], [ -115.2354627, 36.146503799800001 ], [ -115.2354951, 36.146503799800001 ], [ -115.2354951, 36.146501099799998 ], [ -115.2355221, 36.146501099799998 ], [ -115.2355221, 36.146503799800001 ], [ -115.2355302, 36.146503799800001 ], [ -115.2355302, 36.146506499799997 ], [ -115.2355518, 36.146506499799997 ], [ -115.2355518, 36.146509199800001 ], [ -115.2355599, 36.146509199800001 ], [ -115.2355599, 36.146506499799997 ], [ -115.2355626, 36.146506499799997 ], [ -115.2355626, 36.146614499800002 ], [ -115.2355599, 36.146614499800002 ], [ -115.2355599, 36.146617199799998 ], [ -115.2355545, 36.146617199799998 ], [ -115.2355545, 36.146619899800001 ], [ -115.2355491, 36.146619899800001 ], [ -115.2355491, 36.146622599799997 ], [ -115.2355437, 36.146622599799997 ], [ -115.2355437, 36.1466252998 ] ] ] } },
{ "type": "Feature", "properties": { "value": 255.0 }, "geometry": { "type": "Polygon", "coordinates": [ [ [ -115.2352953, 36.146695499799996 ], [ -115.23519, 36.146695499799996 ], [ -115.23519, 36.1466927998 ], [ -115.2351846, 36.1466927998 ], [ -115.2351846, 36.146679299799999 ], [ -115.2351819, 36.146679299799999 ], [ -115.2351819, 36.146660399799998 ], [ -115.2351846, 36.146660399799998 ], [ -115.2351846, 36.146609099799996 ], [ -115.2351873, 36.146609099799996 ], [ -115.2351873, 36.146598299799997 ], [ -115.23519, 36.146598299799997 ], [ -115.23519, 36.146568599799998 ], [ -115.2351927, 36.146568599799998 ], [ -115.2351927, 36.146563199799999 ], [ -115.2351954, 36.146563199799999 ], [ -115.2351954, 36.146549699799998 ], [ -115.2351981, 36.146549699799998 ], [ -115.2351981, 36.146546999800002 ], [ -115.2352008, 36.146546999800002 ], [ -115.2352008, 36.146538899799999 ], [ -115.2352062, 36.146538899799999 ], [ -115.2352062, 36.146536199799996 ], [ -115.2352251, 36.146536199799996 ], [ -115.2352251, 36.1465334998 ], [ -115.2352548, 36.1465334998 ], [ -115.2352548, 36.146530799799997 ], [ -115.2352575, 36.146530799799997 ], [ -115.2352575, 36.146528099800001 ], [ -115.2352602, 36.146528099800001 ], [ -115.2352602, 36.146506499799997 ], [ -115.2352629, 36.146506499799997 ], [ -115.2352629, 36.146501099799998 ], [ -115.235276399999989, 36.146501099799998 ], [ -115.235276399999989, 36.146498399800002 ], [ -115.2353547, 36.146498399800002 ], [ -115.2353547, 36.146501099799998 ], [ -115.2353601, 36.146501099799998 ], [ -115.2353601, 36.146498399800002 ], [ -115.2353628, 36.146498399800002 ], [ -115.2353628, 36.146501099799998 ], [ -115.2353655, 36.146501099799998 ], [ -115.2353655, 36.146503799800001 ], [ -115.2353682, 36.146503799800001 ], [ -115.2353682, 36.146549699799998 ], [ -115.2353709, 36.146549699799998 ], [ -115.2353709, 36.146552399800001 ], [ -115.2353682, 36.146552399800001 ], [ -115.2353682, 36.1465577998 ], [ -115.2353601, 36.1465577998 ], [ -115.2353601, 36.146560499799996 ], [ -115.2353574, 36.146560499799996 ], [ -115.2353574, 36.146565899800002 ], [ -115.2353547, 36.146565899800002 ], [ -115.2353547, 36.1466063998 ], [ -115.2353574, 36.1466063998 ], [ -115.2353574, 36.146617199799998 ], [ -115.2353547, 36.146617199799998 ], [ -115.2353547, 36.146630699799999 ], [ -115.2353574, 36.146630699799999 ], [ -115.2353574, 36.146646899799997 ], [ -115.2353547, 36.146646899799997 ], [ -115.2353547, 36.146657699800002 ], [ -115.2353574, 36.146657699800002 ], [ -115.2353574, 36.146663099800001 ], [ -115.2353547, 36.146663099800001 ], [ -115.2353547, 36.146676599799996 ], [ -115.235352, 36.146676599799996 ], [ -115.235352, 36.146684699799998 ], [ -115.2353493, 36.146684699799998 ], [ -115.2353493, 36.146687399800001 ], [ -115.2353142, 36.146687399800001 ], [ -115.2353142, 36.146690099799997 ], [ -115.2353061, 36.146690099799997 ], [ -115.2353061, 36.1466927998 ], [ -115.2352953, 36.1466927998 ], [ -115.2352953, 36.146695499799996 ] ] ] } },
{ "type": "Feature", "properties": { "value": 255.0 }, "geometry": { "type": "Polygon", "coordinates": [ [ [ -115.233831900000013, 36.146279699799997 ], [ -115.2338076, 36.146279699799997 ], [ -115.2338076, 36.146133899799999 ], [ -115.2338157, 36.146133899799999 ], [ -115.2338157, 36.146131199800003 ], [ -115.2338184, 36.146131199800003 ], [ -115.2338184, 36.146133899799999 ], [ -115.233831900000013, 36.146133899799999 ], [ -115.233831900000013, 36.146136599800002 ], [ -115.2338346, 36.146136599800002 ], [ -115.2338346, 36.146152799799999 ], [ -115.2338373, 36.146152799799999 ], [ -115.2338373, 36.146182499799998 ], [ -115.23384, 36.146182499799998 ], [ -115.23384, 36.146187899799997 ], [ -115.233842700000011, 36.146187899799997 ], [ -115.233842700000011, 36.1462202998 ], [ -115.23384, 36.1462202998 ], [ -115.23384, 36.146225699799999 ], [ -115.233842700000011, 36.146225699799999 ], [ -115.233842700000011, 36.146247299800002 ], [ -115.2338454, 36.146247299800002 ], [ -115.2338454, 36.146258099800001 ], [ -115.233842700000011, 36.146258099800001 ], [ -115.233842700000011, 36.146268899799999 ], [ -115.23384, 36.146268899799999 ], [ -115.23384, 36.146274299799998 ], [ -115.2338373, 36.146274299799998 ], [ -115.2338373, 36.146276999800001 ], [ -115.233831900000013, 36.146276999800001 ], [ -115.233831900000013, 36.146279699799997 ] ] ] } },
{ "type": "Feature", "properties": { "value": 255.0 }, "geometry": { "type": "Polygon", "coordinates": [ [ [ -115.2347364, 36.146279699799997 ], [ -115.2347121, 36.146279699799997 ], [ -115.2347121, 36.146276999800001 ], [ -115.2347094, 36.146276999800001 ], [ -115.2347094, 36.146274299799998 ], [ -115.2347067, 36.146274299799998 ], [ -115.2347067, 36.1462202998 ], [ -115.234704, 36.1462202998 ], [ -115.234704, 36.146141999800001 ], [ -115.2347013, 36.146141999800001 ], [ -115.2347013, 36.146136599800002 ], [ -115.234704, 36.146136599800002 ], [ -115.234704, 36.146133899799999 ], [ -115.2347067, 36.146133899799999 ], [ -115.2347067, 36.146131199800003 ], [ -115.2347445, 36.146131199800003 ], [ -115.2347445, 36.146133899799999 ], [ -115.2347472, 36.146133899799999 ], [ -115.2347472, 36.146158199799999 ], [ -115.2347445, 36.146158199799999 ], [ -115.2347445, 36.146160899800002 ], [ -115.2347472, 36.146160899800002 ], [ -115.2347472, 36.146163599799998 ], [ -115.2347553, 36.146163599799998 ], [ -115.2347553, 36.146166299800001 ], [ -115.2347607, 36.146166299800001 ], [ -115.2347607, 36.146163599799998 ], [ -115.2348201, 36.146163599799998 ], [ -115.2348201, 36.146160899800002 ], [ -115.2348336, 36.146160899800002 ], [ -115.2348336, 36.146158199799999 ], [ -115.2348417, 36.146158199799999 ], [ -115.2348417, 36.146155499800003 ], [ -115.2348552, 36.146155499800003 ], [ -115.2348552, 36.146158199799999 ], [ -115.2348741, 36.146158199799999 ], [ -115.2348741, 36.146160899800002 ], [ -115.2348822, 36.146160899800002 ], [ -115.2348822, 36.146163599799998 ], [ -115.2348876, 36.146163599799998 ], [ -115.2348876, 36.146166299800001 ], [ -115.2348903, 36.146166299800001 ], [ -115.2348903, 36.146174399800003 ], [ -115.234893, 36.146174399800003 ], [ -115.234893, 36.146179799800002 ], [ -115.2348903, 36.146179799800002 ], [ -115.2348903, 36.146185199800001 ], [ -115.234893, 36.146185199800001 ], [ -115.234893, 36.146190599800001 ], [ -115.2348903, 36.146190599800001 ], [ -115.2348903, 36.146193299799997 ], [ -115.234893, 36.146193299799997 ], [ -115.234893, 36.146198699800003 ], [ -115.2348903, 36.146198699800003 ], [ -115.2348903, 36.146244599799999 ], [ -115.2348876, 36.146244599799999 ], [ -115.2348876, 36.146255399799998 ], [ -115.2348849, 36.146255399799998 ], [ -115.2348849, 36.146258099800001 ], [ -115.2348687, 36.146258099800001 ], [ -115.2348687, 36.146260799799997 ], [ -115.234839, 36.146260799799997 ], [ -115.234839, 36.1462634998 ], [ -115.2348363, 36.1462634998 ], [ -115.2348363, 36.146266199800003 ], [ -115.2348336, 36.146266199800003 ], [ -115.2348336, 36.146268899799999 ], [ -115.2348282, 36.146268899799999 ], [ -115.2348282, 36.146271599800002 ], [ -115.2348147, 36.146271599800002 ], [ -115.2348147, 36.146274299799998 ], [ -115.2348093, 36.146274299799998 ], [ -115.2348093, 36.146276999800001 ], [ -115.2347364, 36.146276999800001 ], [ -115.2347364, 36.146279699799997 ] ] ] } },
{ "type": "Feature", "properties": { "value": 255.0 }, "geometry": { "type": "Polygon", "coordinates": [ [ [ -115.2355464, 36.146260799799997 ], [ -115.2355302, 36.146260799799997 ], [ -115.2355302, 36.146258099800001 ], [ -115.2354843, 36.146258099800001 ], [ -115.2354843, 36.146252699800002 ], [ -115.2354816, 36.146252699800002 ], [ -115.2354816, 36.146233799800001 ], [ -115.2354843, 36.146233799800001 ], [ -115.2354843, 36.1462202998 ], [ -115.235487, 36.1462202998 ], [ -115.235487, 36.146209499800001 ], [ -115.2354843, 36.146209499800001 ], [ -115.2354843, 36.146206799799998 ], [ -115.2354816, 36.146206799799998 ], [ -115.2354816, 36.146204099800002 ], [ -115.2354735, 36.146204099800002 ], [ -115.2354735, 36.146201399799999 ], [ -115.235441099999989, 36.146201399799999 ], [ -115.235441099999989, 36.146198699800003 ], [ -115.2354384, 36.146198699800003 ], [ -115.2354384, 36.1461959998 ], [ -115.2354303, 36.1461959998 ], [ -115.2354303, 36.146193299799997 ], [ -115.2354141, 36.146193299799997 ], [ -115.2354141, 36.1461959998 ], [ -115.2354033, 36.1461959998 ], [ -115.2354033, 36.146193299799997 ], [ -115.2353979, 36.146193299799997 ], [ -115.2353979, 36.146190599800001 ], [ -115.2353952, 36.146190599800001 ], [ -115.2353952, 36.146182499799998 ], [ -115.235392499999989, 36.146182499799998 ], [ -115.235392499999989, 36.146152799799999 ], [ -115.2353898, 36.146152799799999 ], [ -115.2353898, 36.146125799800004 ], [ -115.235392499999989, 36.146125799800004 ], [ -115.235392499999989, 36.146117699800001 ], [ -115.235406, 36.146117699800001 ], [ -115.235406, 36.146114999799998 ], [ -115.2354303, 36.146114999799998 ], [ -115.2354303, 36.146117699800001 ], [ -115.2354789, 36.146117699800001 ], [ -115.2354789, 36.146114999799998 ], [ -115.2354978, 36.146114999799998 ], [ -115.2354978, 36.146112299800002 ], [ -115.2355464, 36.146112299800002 ], [ -115.2355464, 36.146114999799998 ], [ -115.2355626, 36.146114999799998 ], [ -115.2355626, 36.146258099800001 ], [ -115.2355464, 36.146258099800001 ], [ -115.2355464, 36.146260799799997 ] ] ] } },
{ "type": "Feature", "properties": { "value": 255.0 }, "geometry": { "type": "Polygon", "coordinates": [ [ [ -115.2343125, 36.146312099799999 ], [ -115.2343098, 36.146312099799999 ], [ -115.2343098, 36.146309399799996 ], [ -115.2343071, 36.146309399799996 ], [ -115.2343071, 36.1463066998 ], [ -115.2343044, 36.1463066998 ], [ -115.2343044, 36.1462823998 ], [ -115.2343017, 36.1462823998 ], [ -115.2343017, 36.146276999800001 ], [ -115.2342801, 36.146276999800001 ], [ -115.2342801, 36.146274299799998 ], [ -115.2342774, 36.146274299799998 ], [ -115.2342774, 36.1462634998 ], [ -115.2342747, 36.1462634998 ], [ -115.2342747, 36.146260799799997 ], [ -115.2342693, 36.146260799799997 ], [ -115.2342693, 36.146258099800001 ], [ -115.2342477, 36.146258099800001 ], [ -115.2342477, 36.146260799799997 ], [ -115.2342288, 36.146260799799997 ], [ -115.2342288, 36.146258099800001 ], [ -115.2342234, 36.146258099800001 ], [ -115.2342234, 36.146252699800002 ], [ -115.2342207, 36.146252699800002 ], [ -115.2342207, 36.146247299800002 ], [ -115.234218, 36.146247299800002 ], [ -115.234218, 36.146241899800003 ], [ -115.2342153, 36.146241899800003 ], [ -115.2342153, 36.146233799800001 ], [ -115.2342126, 36.146233799800001 ], [ -115.2342126, 36.1462202998 ], [ -115.2342099, 36.1462202998 ], [ -115.2342099, 36.146212199799997 ], [ -115.2342072, 36.146212199799997 ], [ -115.2342072, 36.146204099800002 ], [ -115.2342099, 36.146204099800002 ], [ -115.2342099, 36.146133899799999 ], [ -115.2342126, 36.146133899799999 ], [ -115.2342126, 36.146131199800003 ], [ -115.2342747, 36.146131199800003 ], [ -115.2342747, 36.146133899799999 ], [ -115.2342882, 36.146133899799999 ], [ -115.2342882, 36.146131199800003 ], [ -115.2343287, 36.146131199800003 ], [ -115.2343287, 36.1461230998 ], [ -115.2343314, 36.1461230998 ], [ -115.2343314, 36.146106899800003 ], [ -115.2343341, 36.146106899800003 ], [ -115.2343341, 36.1461041998 ], [ -115.2343395, 36.1461041998 ], [ -115.2343395, 36.146106899800003 ], [ -115.2343476, 36.146106899800003 ], [ -115.2343476, 36.1461041998 ], [ -115.2343611, 36.1461041998 ], [ -115.2343611, 36.146106899800003 ], [ -115.2343638, 36.146106899800003 ], [ -115.2343638, 36.1461041998 ], [ -115.2343719, 36.1461041998 ], [ -115.2343719, 36.146109599799999 ], [ -115.2343746, 36.146109599799999 ], [ -115.2343746, 36.146114999799998 ], [ -115.2343773, 36.146114999799998 ], [ -115.2343773, 36.146120399799997 ], [ -115.23438, 36.146120399799997 ], [ -115.23438, 36.146131199800003 ], [ -115.234407, 36.146131199800003 ], [ -115.234407, 36.146133899799999 ], [ -115.2344151, 36.146133899799999 ], [ -115.2344151, 36.146136599800002 ], [ -115.2344178, 36.146136599800002 ], [ -115.2344178, 36.146141999800001 ], [ -115.2344205, 36.146141999800001 ], [ -115.2344205, 36.1462202998 ], [ -115.2344178, 36.1462202998 ], [ -115.2344178, 36.146233799800001 ], [ -115.2344205, 36.146233799800001 ], [ -115.2344205, 36.146247299800002 ], [ -115.2344178, 36.146247299800002 ], [ -115.2344178, 36.146290499800003 ], [ -115.2344205, 36.146290499800003 ], [ -115.2344205, 36.146303999799997 ], [ -115.2344178, 36.146303999799997 ], [ -115.2344178, 36.146309399799996 ], [ -115.2343125, 36.146309399799996 ], [ -115.2343125, 36.146312099799999 ] ] ] } },
{ "type": "Feature", "properties": { "value": 255.0 }, "geometry": { "type": "Polygon", "coordinates": [ [ [ -115.2352224, 36.146255399799998 ], [ -115.23519, 36.146255399799998 ], [ -115.23519, 36.146244599799999 ], [ -115.2351873, 36.146244599799999 ], [ -115.2351873, 36.146233799800001 ], [ -115.2351846, 36.146233799800001 ], [ -115.2351846, 36.146201399799999 ], [ -115.2351819, 36.146201399799999 ], [ -115.2351819, 36.146198699800003 ], [ -115.2351846, 36.146198699800003 ], [ -115.2351846, 36.1461959998 ], [ -115.2351873, 36.1461959998 ], [ -115.2351873, 36.146193299799997 ], [ -115.2352143, 36.146193299799997 ], [ -115.2352143, 36.146190599800001 ], [ -115.2352197, 36.146190599800001 ], [ -115.2352197, 36.146187899799997 ], [ -115.2352224, 36.146187899799997 ], [ -115.2352224, 36.146150099800003 ], [ -115.2352197, 36.146150099800003 ], [ -115.2352197, 36.146144699799997 ], [ -115.235217, 36.146144699799997 ], [ -115.235217, 36.146117699800001 ], [ -115.2352197, 36.146117699800001 ], [ -115.2352197, 36.146114999799998 ], [ -115.2352224, 36.146114999799998 ], [ -115.2352224, 36.146112299800002 ], [ -115.2352251, 36.146112299800002 ], [ -115.2352251, 36.146109599799999 ], [ -115.235244, 36.146109599799999 ], [ -115.235244, 36.146106899800003 ], [ -115.2352926, 36.146106899800003 ], [ -115.2352926, 36.146109599799999 ], [ -115.2353439, 36.146109599799999 ], [ -115.2353439, 36.146112299800002 ], [ -115.2353466, 36.146112299800002 ], [ -115.2353466, 36.146114999799998 ], [ -115.2353493, 36.146114999799998 ], [ -115.2353493, 36.146136599800002 ], [ -115.235352, 36.146136599800002 ], [ -115.235352, 36.146155499800003 ], [ -115.2353547, 36.146155499800003 ], [ -115.2353547, 36.146160899800002 ], [ -115.2353574, 36.146160899800002 ], [ -115.2353574, 36.146212199799997 ], [ -115.2353547, 36.146212199799997 ], [ -115.2353547, 36.1462202998 ], [ -115.235352, 36.1462202998 ], [ -115.235352, 36.146228399800002 ], [ -115.2353493, 36.146228399800002 ], [ -115.2353493, 36.146233799800001 ], [ -115.2353439, 36.146233799800001 ], [ -115.2353439, 36.146236499799997 ], [ -115.2353385, 36.146236499799997 ], [ -115.2353385, 36.146233799800001 ], [ -115.2353061, 36.146233799800001 ], [ -115.2353061, 36.146236499799997 ], [ -115.2352926, 36.146236499799997 ], [ -115.2352926, 36.1462391998 ], [ -115.2352845, 36.1462391998 ], [ -115.2352845, 36.146241899800003 ], [ -115.2352656, 36.146241899800003 ], [ -115.2352656, 36.146244599799999 ], [ -115.2352332, 36.146244599799999 ], [ -115.2352332, 36.146247299800002 ], [ -115.2352278, 36.146247299800002 ], [ -115.2352278, 36.146249999799998 ], [ -115.2352251, 36.146249999799998 ], [ -115.2352251, 36.146252699800002 ], [ -115.2352224, 36.146252699800002 ], [ -115.2352224, 36.146255399799998 ] ] ] } },
{ "type": "Feature", "properties": { "value": 255.0 }, "geometry": { "type": "Polygon", "coordinates": [ [ [ -115.2346473, 36.146301299800001 ], [ -115.234542, 36.146301299800001 ], [ -115.234542, 36.146298599799998 ], [ -115.2345393, 36.146298599799998 ], [ -115.2345393, 36.146295899800002 ], [ -115.2345366, 36.146295899800002 ], [ -115.2345366, 36.146276999800001 ], [ -115.2345393, 36.146276999800001 ], [ -115.2345393, 36.146260799799997 ], [ -115.2345366, 36.146260799799997 ], [ -115.2345366, 36.146247299800002 ], [ -115.2345177, 36.146247299800002 ], [ -115.2345177, 36.146244599799999 ], [ -115.2345069, 36.146244599799999 ], [ -115.2345069, 36.146247299800002 ], [ -115.2344988, 36.146247299800002 ], [ -115.2344988, 36.146249999799998 ], [ -115.2344934, 36.146249999799998 ], [ -115.2344934, 36.146252699800002 ], [ -115.2344556, 36.146252699800002 ], [ -115.2344556, 36.146249999799998 ], [ -115.2344529, 36.146249999799998 ], [ -115.2344529, 36.146247299800002 ], [ -115.2344502, 36.146247299800002 ], [ -115.2344502, 36.146163599799998 ], [ -115.2344529, 36.146163599799998 ], [ -115.2344529, 36.146158199799999 ], [ -115.2344988, 36.146158199799999 ], [ -115.2344988, 36.146155499800003 ], [ -115.2345204, 36.146155499800003 ], [ -115.2345204, 36.146152799799999 ], [ -115.2345231, 36.146152799799999 ], [ -115.2345231, 36.146150099800003 ], [ -115.2345285, 36.146150099800003 ], [ -115.2345285, 36.146141999800001 ], [ -115.2345258, 36.146141999800001 ], [ -115.2345258, 36.146136599800002 ], [ -115.2345231, 36.146136599800002 ], [ -115.2345231, 36.146131199800003 ], [ -115.2345204, 36.146131199800003 ], [ -115.2345204, 36.146125799800004 ], [ -115.2345231, 36.146125799800004 ], [ -115.2345231, 36.1461230998 ], [ -115.2345447, 36.1461230998 ], [ -115.2345447, 36.146120399799997 ], [ -115.2345501, 36.146120399799997 ], [ -115.2345501, 36.146117699800001 ], [ -115.2345663, 36.146117699800001 ], [ -115.2345663, 36.146114999799998 ], [ -115.2345987, 36.146114999799998 ], [ -115.2345987, 36.146117699800001 ], [ -115.2346014, 36.146117699800001 ], [ -115.2346014, 36.146133899799999 ], [ -115.2346041, 36.146133899799999 ], [ -115.2346041, 36.146136599800002 ], [ -115.2346014, 36.146136599800002 ], [ -115.2346014, 36.1461473998 ], [ -115.2346041, 36.1461473998 ], [ -115.2346041, 36.146152799799999 ], [ -115.2346068, 36.146152799799999 ], [ -115.2346068, 36.146155499800003 ], [ -115.2346122, 36.146155499800003 ], [ -115.2346122, 36.146158199799999 ], [ -115.2346311, 36.146158199799999 ], [ -115.2346311, 36.146193299799997 ], [ -115.2346284, 36.146193299799997 ], [ -115.2346284, 36.146209499800001 ], [ -115.2346257, 36.146209499800001 ], [ -115.2346257, 36.146228399800002 ], [ -115.234623, 36.146228399800002 ], [ -115.234623, 36.146233799800001 ], [ -115.2346257, 36.146233799800001 ], [ -115.2346257, 36.146236499799997 ], [ -115.2346338, 36.146236499799997 ], [ -115.2346338, 36.1462391998 ], [ -115.2346527, 36.1462391998 ], [ -115.2346527, 36.146241899800003 ], [ -115.2346554, 36.146241899800003 ], [ -115.2346554, 36.146247299800002 ], [ -115.2346527, 36.146247299800002 ], [ -115.2346527, 36.146295899800002 ], [ -115.23465, 36.146295899800002 ], [ -115.23465, 36.146298599799998 ], [ -115.2346473, 36.146298599799998 ], [ -115.2346473, 36.146301299800001 ] ] ] } },
{ "type": "Feature", "properties": { "value": 255.0 }, "geometry": { "type": "Polygon", "coordinates": [ [ [ -115.235109, 36.146260799799997 ], [ -115.2350226, 36.146260799799997 ], [ -115.2350226, 36.146258099800001 ], [ -115.2350199, 36.146258099800001 ], [ -115.2350199, 36.146255399799998 ], [ -115.2350172, 36.146255399799998 ], [ -115.2350172, 36.146222999800003 ], [ -115.2350145, 36.146222999800003 ], [ -115.2350145, 36.1462202998 ], [ -115.2349416, 36.1462202998 ], [ -115.2349416, 36.1462148998 ], [ -115.2349389, 36.1462148998 ], [ -115.2349389, 36.146204099800002 ], [ -115.2349362, 36.146204099800002 ], [ -115.2349362, 36.146190599800001 ], [ -115.2349335, 36.146190599800001 ], [ -115.2349335, 36.146182499799998 ], [ -115.2349308, 36.146182499799998 ], [ -115.2349308, 36.146177099799999 ], [ -115.2349335, 36.146177099799999 ], [ -115.2349335, 36.146168999799997 ], [ -115.2349308, 36.146168999799997 ], [ -115.2349308, 36.146163599799998 ], [ -115.2349335, 36.146163599799998 ], [ -115.2349335, 36.146152799799999 ], [ -115.2349362, 36.146152799799999 ], [ -115.2349362, 36.146112299800002 ], [ -115.2349335, 36.146112299800002 ], [ -115.2349335, 36.1461041998 ], [ -115.2349362, 36.1461041998 ], [ -115.2349362, 36.146098799800001 ], [ -115.2349335, 36.146098799800001 ], [ -115.2349335, 36.146087999800002 ], [ -115.234947, 36.146087999800002 ], [ -115.234947, 36.146085299799999 ], [ -115.2349524, 36.146085299799999 ], [ -115.2349524, 36.146082599800003 ], [ -115.2349848, 36.146082599800003 ], [ -115.2349848, 36.1460798998 ], [ -115.2350118, 36.1460798998 ], [ -115.2350118, 36.146082599800003 ], [ -115.2350253, 36.146082599800003 ], [ -115.2350253, 36.1460798998 ], [ -115.235028, 36.1460798998 ], [ -115.235028, 36.146082599800003 ], [ -115.2350793, 36.146082599800003 ], [ -115.2350793, 36.1460798998 ], [ -115.2351225, 36.1460798998 ], [ -115.2351225, 36.146082599800003 ], [ -115.2351279, 36.146082599800003 ], [ -115.2351279, 36.146085299799999 ], [ -115.2351306, 36.146085299799999 ], [ -115.2351306, 36.146141999800001 ], [ -115.2351333, 36.146141999800001 ], [ -115.2351333, 36.146152799799999 ], [ -115.2351306, 36.146152799799999 ], [ -115.2351306, 36.146255399799998 ], [ -115.2351279, 36.146255399799998 ], [ -115.2351279, 36.146258099800001 ], [ -115.235109, 36.146258099800001 ], [ -115.235109, 36.146260799799997 ] ] ] } },
{ "type": "Feature", "properties": { "value": 255.0 }, "geometry": { "type": "Polygon", "coordinates": [ [ [ -115.2338373, 36.145977299800002 ], [ -115.2338076, 36.145977299800002 ], [ -115.2338076, 36.145847699800001 ], [ -115.233831900000013, 36.145847699800001 ], [ -115.233831900000013, 36.1458773998 ], [ -115.2338346, 36.1458773998 ], [ -115.2338346, 36.1459205998 ], [ -115.2338373, 36.1459205998 ], [ -115.2338373, 36.145936799799998 ], [ -115.23384, 36.145936799799998 ], [ -115.23384, 36.145971899800003 ], [ -115.2338373, 36.145971899800003 ], [ -115.2338373, 36.145977299800002 ] ] ] } },
{ "type": "Feature", "properties": { "value": 255.0 }, "geometry": { "type": "Polygon", "coordinates": [ [ [ -115.2355167, 36.145909799800002 ], [ -115.2355113, 36.145909799800002 ], [ -115.2355113, 36.145907099799999 ], [ -115.2354816, 36.145907099799999 ], [ -115.2354816, 36.145904399800003 ], [ -115.2354789, 36.145904399800003 ], [ -115.2354789, 36.1459016998 ], [ -115.2354762, 36.1459016998 ], [ -115.2354762, 36.1458962998 ], [ -115.2354735, 36.1458962998 ], [ -115.2354735, 36.145866599800001 ], [ -115.2354762, 36.145866599800001 ], [ -115.2354762, 36.145861199800002 ], [ -115.2354789, 36.145861199800002 ], [ -115.2354789, 36.145855799800003 ], [ -115.2354816, 36.145855799800003 ], [ -115.2354816, 36.145847699800001 ], [ -115.2355626, 36.145847699800001 ], [ -115.2355626, 36.145907099799999 ], [ -115.2355167, 36.145907099799999 ], [ -115.2355167, 36.145909799800002 ] ] ] } },
{ "type": "Feature", "properties": { "value": 255.0 }, "geometry": { "type": "Polygon", "coordinates": [ [ [ -115.2343557, 36.145928699800002 ], [ -115.2342882, 36.145928699800002 ], [ -115.2342882, 36.145925999799999 ], [ -115.2342801, 36.145925999799999 ], [ -115.2342801, 36.1459205998 ], [ -115.2342774, 36.1459205998 ], [ -115.2342774, 36.1458962998 ], [ -115.2342801, 36.1458962998 ], [ -115.2342801, 36.145893599799997 ], [ -115.2342774, 36.145893599799997 ], [ -115.2342774, 36.145858499799999 ], [ -115.2342747, 36.145858499799999 ], [ -115.2342747, 36.145847699800001 ], [ -115.2344529, 36.145847699800001 ], [ -115.2344529, 36.145888199799998 ], [ -115.2344502, 36.145888199799998 ], [ -115.2344502, 36.1459205998 ], [ -115.2344475, 36.1459205998 ], [ -115.2344475, 36.145923299800003 ], [ -115.2344448, 36.145923299800003 ], [ -115.2344448, 36.145925999799999 ], [ -115.23438, 36.145925999799999 ], [ -115.23438, 36.145923299800003 ], [ -115.2343719, 36.145923299800003 ], [ -115.2343719, 36.1459205998 ], [ -115.2343665, 36.1459205998 ], [ -115.2343665, 36.145917899800004 ], [ -115.2343638, 36.145917899800004 ], [ -115.2343638, 36.1459205998 ], [ -115.2343611, 36.1459205998 ], [ -115.2343611, 36.145923299800003 ], [ -115.2343584, 36.145923299800003 ], [ -115.2343584, 36.145925999799999 ], [ -115.2343557, 36.145925999799999 ], [ -115.2343557, 36.145928699800002 ] ] ] } },
{ "type": "Feature", "properties": { "value": 255.0 }, "geometry": { "type": "Polygon", "coordinates": [ [ [ -115.2349227, 36.1459205998 ], [ -115.2348714, 36.1459205998 ], [ -115.2348714, 36.145917899800004 ], [ -115.234866, 36.145917899800004 ], [ -115.234866, 36.145915199800001 ], [ -115.2348633, 36.145915199800001 ], [ -115.2348633, 36.145907099799999 ], [ -115.2348606, 36.145907099799999 ], [ -115.2348606, 36.145885499800002 ], [ -115.2348633, 36.145885499800002 ], [ -115.2348633, 36.1458773998 ], [ -115.234866, 36.1458773998 ], [ -115.234866, 36.145874699800004 ], [ -115.2348714, 36.145874699800004 ], [ -115.2348714, 36.145871999800001 ], [ -115.2348768, 36.145871999800001 ], [ -115.2348768, 36.145869299799998 ], [ -115.2348822, 36.145869299799998 ], [ -115.2348822, 36.145863899799998 ], [ -115.2348795, 36.145863899799998 ], [ -115.2348795, 36.145847699800001 ], [ -115.2350685, 36.145847699800001 ], [ -115.2350685, 36.145869299799998 ], [ -115.2350658, 36.145869299799998 ], [ -115.2350658, 36.1458962998 ], [ -115.2350631, 36.1458962998 ], [ -115.2350631, 36.145915199800001 ], [ -115.2350415, 36.145915199800001 ], [ -115.2350415, 36.145917899800004 ], [ -115.2349875, 36.145917899800004 ], [ -115.2349875, 36.145915199800001 ], [ -115.2349578, 36.145915199800001 ], [ -115.2349578, 36.145917899800004 ], [ -115.2349227, 36.145917899800004 ], [ -115.2349227, 36.1459205998 ] ] ] } },
{ "type": "Feature", "properties": { "value": 255.0 }, "geometry": { "type": "Polygon", "coordinates": [ [ [ -115.2345825, 36.145917899800004 ], [ -115.2345447, 36.145917899800004 ], [ -115.2345447, 36.145915199800001 ], [ -115.2345393, 36.145915199800001 ], [ -115.2345393, 36.145912499799998 ], [ -115.2345366, 36.145912499799998 ], [ -115.2345366, 36.145893599799997 ], [ -115.2345393, 36.145893599799997 ], [ -115.2345393, 36.145847699800001 ], [ -115.2347094, 36.145847699800001 ], [ -115.2347094, 36.145850399800004 ], [ -115.2347121, 36.145850399800004 ], [ -115.2347121, 36.1458530998 ], [ -115.2347094, 36.1458530998 ], [ -115.2347094, 36.145861199800002 ], [ -115.2347067, 36.145861199800002 ], [ -115.2347067, 36.145871999800001 ], [ -115.234704, 36.145871999800001 ], [ -115.234704, 36.145885499800002 ], [ -115.2347013, 36.145885499800002 ], [ -115.2347013, 36.1459016998 ], [ -115.2346392, 36.1459016998 ], [ -115.2346392, 36.145904399800003 ], [ -115.2346095, 36.145904399800003 ], [ -115.2346095, 36.145907099799999 ], [ -115.234596, 36.145907099799999 ], [ -115.234596, 36.145909799800002 ], [ -115.2345906, 36.145909799800002 ], [ -115.2345906, 36.145912499799998 ], [ -115.2345879, 36.145912499799998 ], [ -115.2345879, 36.145915199800001 ], [ -115.2345825, 36.145915199800001 ], [ -115.2345825, 36.145917899800004 ] ] ] } },
{ "type": "Feature", "properties": { "value": 255.0 }, "geometry": { "type": "Polygon", "coordinates": [ [ [ -115.235325, 36.145898999800004 ], [ -115.2352575, 36.145898999800004 ], [ -115.2352575, 36.1458962998 ], [ -115.2352521, 36.1458962998 ], [ -115.2352521, 36.145893599799997 ], [ -115.2352413, 36.145893599799997 ], [ -115.2352413, 36.1458962998 ], [ -115.2352386, 36.1458962998 ], [ -115.2352386, 36.145898999800004 ], [ -115.235163, 36.145898999800004 ], [ -115.235163, 36.1458962998 ], [ -115.2351603, 36.1458962998 ], [ -115.2351603, 36.145893599799997 ], [ -115.2351576, 36.145893599799997 ], [ -115.2351576, 36.145863899799998 ], [ -115.2351549, 36.145863899799998 ], [ -115.2351549, 36.145858499799999 ], [ -115.2351522, 36.145858499799999 ], [ -115.2351522, 36.1458530998 ], [ -115.2351549, 36.1458530998 ], [ -115.2351549, 36.145847699800001 ], [ -115.2353358, 36.145847699800001 ], [ -115.2353358, 36.145850399800004 ], [ -115.2353331, 36.145850399800004 ], [ -115.2353331, 36.145866599800001 ], [ -115.2353304, 36.145866599800001 ], [ -115.2353304, 36.145893599799997 ], [ -115.2353277, 36.145893599799997 ], [ -115.2353277, 36.1458962998 ], [ -115.235325, 36.1458962998 ], [ -115.235325, 36.145898999800004 ] ] ] } }
]
}
