{
"type": "FeatureCollection",
"crs": { "type": "name", "properties": { "name": "urn:ogc:def:crs:OGC:1.3:CRS84" } },
"features": [
{ "type": "Feature", "properties": { "value": 255.0 }, "geometry": { "type": "Polygon", "coordinates": [ [ [ -115.2741618, 36.145688399800001 ], [ -115.2741186, 36.145688399800001 ], [ -115.2741186, 36.145685699799998 ], [ -115.2739971, 36.145685699799998 ], [ -115.2739971, 36.145682999800002 ], [ -115.2739728, 36.145682999800002 ], [ -115.2739728, 36.145685699799998 ], [ -115.2739134, 36.145685699799998 ], [ -115.2739134, 36.145682999800002 ], [ -115.2737865, 36.145682999800002 ], [ -115.2737865, 36.145680299799999 ], [ -115.2737541, 36.145680299799999 ], [ -115.2737541, 36.145682999800002 ], [ -115.2737406, 36.145682999800002 ], [ -115.2737406, 36.145680299799999 ], [ -115.2736083, 36.145680299799999 ], [ -115.2736083, 36.145677599800003 ], [ -115.2734976, 36.145677599800003 ], [ -115.2734976, 36.145674899799999 ], [ -115.2733896, 36.145674899799999 ], [ -115.2733896, 36.145672199800003 ], [ -115.2733572, 36.145672199800003 ], [ -115.2733572, 36.145674899799999 ], [ -115.273287, 36.145674899799999 ], [ -115.273287, 36.145672199800003 ], [ -115.2732519, 36.145672199800003 ], [ -115.2732519, 36.145674899799999 ], [ -115.2731979, 36.145674899799999 ], [ -115.2731979, 36.145672199800003 ], [ -115.2731817, 36.145672199800003 ], [ -115.2731817, 36.1456694998 ], [ -115.273179, 36.1456694998 ], [ -115.273179, 36.145672199800003 ], [ -115.2731061, 36.145672199800003 ], [ -115.2731061, 36.1456694998 ], [ -115.2729009, 36.1456694998 ], [ -115.2729009, 36.145666799799997 ], [ -115.2727848, 36.145666799799997 ], [ -115.2727848, 36.145664099800001 ], [ -115.272774, 36.145664099800001 ], [ -115.272774, 36.145666799799997 ], [ -115.272747, 36.145666799799997 ], [ -115.272747, 36.145664099800001 ], [ -115.2726093, 36.145664099800001 ], [ -115.2726093, 36.145661399799998 ], [ -115.2725796, 36.145661399799998 ], [ -115.2725796, 36.145664099800001 ], [ -115.2725256, 36.145664099800001 ], [ -115.2725256, 36.145661399799998 ], [ -115.2725229, 36.145661399799998 ], [ -115.2725229, 36.145658699800002 ], [ -115.2725202, 36.145658699800002 ], [ -115.2725202, 36.145618199799998 ], [ -115.2725229, 36.145618199799998 ], [ -115.2725229, 36.145615499800002 ], [ -115.2727065, 36.145615499800002 ], [ -115.2727065, 36.145618199799998 ], [ -115.2727902, 36.145618199799998 ], [ -115.2727902, 36.145620899800001 ], [ -115.2729009, 36.145620899800001 ], [ -115.2729009, 36.145623599800004 ], [ -115.2730656, 36.145623599800004 ], [ -115.2730656, 36.1456262998 ], [ -115.2733383, 36.1456262998 ], [ -115.2733383, 36.145628999800003 ], [ -115.2734868, 36.145628999800003 ], [ -115.2734868, 36.145631699799999 ], [ -115.2736596, 36.145631699799999 ], [ -115.2736596, 36.145634399800002 ], [ -115.2738594, 36.145634399800002 ], [ -115.2738594, 36.145637099799998 ], [ -115.274016, 36.145637099799998 ], [ -115.274016, 36.145639799800001 ], [ -115.2741726, 36.145639799800001 ], [ -115.2741726, 36.145685699799998 ], [ -115.2741618, 36.145685699799998 ], [ -115.2741618, 36.145688399800001 ] ] ] } },
{ "type": "Feature", "properties": { "value": 255.0 }, "geometry": { "type": "Polygon", "coordinates": [ [ [ -115.2731574, 36.145464299799997 ], [ -115.2731547, 36.145464299799997 ], [ -115.2731547, 36.145461599800001 ], [ -115.2731304, 36.145461599800001 ], [ -115.2731304, 36.145458899799998 ], [ -115.2731277, 36.145458899799998 ], [ -115.2731277, 36.145453499799999 ], [ -115.2731304, 36.145453499799999 ], [ -115.2731304, 36.145429199799999 ], [ -115.2731277, 36.145429199799999 ], [ -115.2731277, 36.1454183998 ], [ -115.2731304, 36.1454183998 ], [ -115.2731304, 36.145415699799997 ], [ -115.2731358, 36.145415699799997 ], [ -115.2731358, 36.145412999800001 ], [ -115.2731574, 36.145412999800001 ], [ -115.2731574, 36.145415699799997 ], [ -115.2731601, 36.145415699799997 ], [ -115.2731601, 36.1454183998 ], [ -115.2731628, 36.1454183998 ], [ -115.2731628, 36.145458899799998 ], [ -115.2731601, 36.145458899799998 ], [ -115.2731601, 36.145461599800001 ], [ -115.2731574, 36.145461599800001 ], [ -115.2731574, 36.145464299799997 ] ] ] } },
{ "type": "Feature", "properties": { "value": 255.0 }, "geometry": { "type": "Polygon", "coordinates": [ [ [ -115.2724608, 36.145615499800002 ], [ -115.2724176, 36.145615499800002 ], [ -115.2724176, 36.145318499799998 ], [ -115.2724284, 36.145318499799998 ], [ -115.2724284, 36.145321199800001 ], [ -115.2724419, 36.145321199800001 ], [ -115.2724419, 36.145323899799997 ], [ -115.2724446, 36.145323899799997 ], [ -115.2724446, 36.1453562998 ], [ -115.2724473, 36.1453562998 ], [ -115.2724473, 36.145385999799998 ], [ -115.27245, 36.145385999799998 ], [ -115.27245, 36.1454237998 ], [ -115.2724527, 36.1454237998 ], [ -115.2724527, 36.145464299799997 ], [ -115.2724554, 36.145464299799997 ], [ -115.2724554, 36.145480499800001 ], [ -115.2724581, 36.145480499800001 ], [ -115.2724581, 36.1455101998 ], [ -115.2724608, 36.1455101998 ], [ -115.2724608, 36.1455344998 ], [ -115.2724635, 36.1455344998 ], [ -115.2724635, 36.145588499799999 ], [ -115.2724662, 36.145588499799999 ], [ -115.2724662, 36.145612799799999 ], [ -115.2724608, 36.145612799799999 ], [ -115.2724608, 36.145615499800002 ] ] ] } },
{ "type": "Feature", "properties": { "value": 255.0 }, "geometry": { "type": "Polygon", "coordinates": [ [ [ -115.2737298, 36.145507499799997 ], [ -115.2736785, 36.145507499799997 ], [ -115.2736785, 36.145504799800001 ], [ -115.2736299, 36.145504799800001 ], [ -115.2736299, 36.145502099799998 ], [ -115.2735381, 36.145502099799998 ], [ -115.2735381, 36.145499399800002 ], [ -115.27353, 36.145499399800002 ], [ -115.27353, 36.145493999800003 ], [ -115.2735273, 36.145493999800003 ], [ -115.2735273, 36.145488599800004 ], [ -115.27353, 36.145488599800004 ], [ -115.27353, 36.145483199799997 ], [ -115.2735273, 36.145483199799997 ], [ -115.2735273, 36.145477799799998 ], [ -115.2735219, 36.145477799799998 ], [ -115.2735219, 36.145475099800002 ], [ -115.2734652, 36.145475099800002 ], [ -115.2734652, 36.145477799799998 ], [ -115.2734625, 36.145477799799998 ], [ -115.2734625, 36.145485899800001 ], [ -115.2734598, 36.145485899800001 ], [ -115.2734598, 36.1454912998 ], [ -115.2734571, 36.1454912998 ], [ -115.2734571, 36.145493999800003 ], [ -115.2734409, 36.145493999800003 ], [ -115.2734409, 36.145496699799999 ], [ -115.2734166, 36.145496699799999 ], [ -115.2734166, 36.145493999800003 ], [ -115.2734031, 36.145493999800003 ], [ -115.2734031, 36.145496699799999 ], [ -115.2733599, 36.145496699799999 ], [ -115.2733599, 36.145493999800003 ], [ -115.2733572, 36.145493999800003 ], [ -115.2733572, 36.145496699799999 ], [ -115.2733518, 36.145496699799999 ], [ -115.2733518, 36.145493999800003 ], [ -115.273341, 36.145493999800003 ], [ -115.273341, 36.145496699799999 ], [ -115.2732735, 36.145496699799999 ], [ -115.2732735, 36.145499399800002 ], [ -115.2732546, 36.145499399800002 ], [ -115.2732546, 36.145496699799999 ], [ -115.2732438, 36.145496699799999 ], [ -115.2732438, 36.1454912998 ], [ -115.2732411, 36.1454912998 ], [ -115.2732411, 36.145485899800001 ], [ -115.2732384, 36.145485899800001 ], [ -115.2732384, 36.145477799799998 ], [ -115.273233, 36.145477799799998 ], [ -115.273233, 36.145475099800002 ], [ -115.2732195, 36.145475099800002 ], [ -115.2732195, 36.145472399799999 ], [ -115.2732141, 36.145472399799999 ], [ -115.2732141, 36.145469699800003 ], [ -115.2732114, 36.145469699800003 ], [ -115.2732114, 36.1454669998 ], [ -115.2732087, 36.1454669998 ], [ -115.2732087, 36.145458899799998 ], [ -115.273206, 36.145458899799998 ], [ -115.273206, 36.1453994998 ], [ -115.2732033, 36.1453994998 ], [ -115.2732033, 36.145388699800002 ], [ -115.273206, 36.145388699800002 ], [ -115.273206, 36.145361699799999 ], [ -115.2732033, 36.145361699799999 ], [ -115.2732033, 36.145358999800003 ], [ -115.273206, 36.145358999800003 ], [ -115.273206, 36.145348199799997 ], [ -115.2732033, 36.145348199799997 ], [ -115.2732033, 36.145342799799998 ], [ -115.273206, 36.145342799799998 ], [ -115.273206, 36.145323899799997 ], [ -115.2732087, 36.145323899799997 ], [ -115.2732087, 36.145321199800001 ], [ -115.2732114, 36.145321199800001 ], [ -115.2732114, 36.145318499799998 ], [ -115.2732141, 36.145318499799998 ], [ -115.2732141, 36.145313099799999 ], [ -115.2732195, 36.145313099799999 ], [ -115.2732195, 36.145310399800003 ], [ -115.2732384, 36.145310399800003 ], [ -115.2732384, 36.1453076998 ], [ -115.2732546, 36.1453076998 ], [ -115.2732546, 36.145304999799997 ], [ -115.2732573, 36.145304999799997 ], [ -115.2732573, 36.145291499800003 ], [ -115.27326, 36.145291499800003 ], [ -115.27326, 36.145277999800001 ], [ -115.2732627, 36.145277999800001 ], [ -115.2732627, 36.145272599800002 ], [ -115.2732654, 36.145272599800002 ], [ -115.2732654, 36.145269899799999 ], [ -115.2732681, 36.145269899799999 ], [ -115.2732681, 36.145267199800003 ], [ -115.2732735, 36.145267199800003 ], [ -115.2732735, 36.1452644998 ], [ -115.2733086, 36.1452644998 ], [ -115.2733086, 36.145267199800003 ], [ -115.273314, 36.145267199800003 ], [ -115.273314, 36.145269899799999 ], [ -115.2733275, 36.145269899799999 ], [ -115.2733275, 36.145272599800002 ], [ -115.2733788, 36.145272599800002 ], [ -115.2733788, 36.145275299799998 ], [ -115.2733842, 36.145275299799998 ], [ -115.2733842, 36.145277999800001 ], [ -115.2734031, 36.145277999800001 ], [ -115.2734031, 36.145275299799998 ], [ -115.2734166, 36.145275299799998 ], [ -115.2734166, 36.145277999800001 ], [ -115.273422, 36.145277999800001 ], [ -115.273422, 36.145280699799997 ], [ -115.2734274, 36.145280699799997 ], [ -115.2734274, 36.1452833998 ], [ -115.2734301, 36.1452833998 ], [ -115.2734301, 36.145286099800003 ], [ -115.2734436, 36.145286099800003 ], [ -115.2734436, 36.1452833998 ], [ -115.2734463, 36.1452833998 ], [ -115.2734463, 36.145280699799997 ], [ -115.273449, 36.145280699799997 ], [ -115.273449, 36.145277999800001 ], [ -115.2734517, 36.145277999800001 ], [ -115.2734517, 36.145275299799998 ], [ -115.2734571, 36.145275299799998 ], [ -115.2734571, 36.145272599800002 ], [ -115.2734652, 36.145272599800002 ], [ -115.2734652, 36.145269899799999 ], [ -115.2734814, 36.145269899799999 ], [ -115.2734814, 36.145272599800002 ], [ -115.2735003, 36.145272599800002 ], [ -115.2735003, 36.145269899799999 ], [ -115.2735111, 36.145269899799999 ], [ -115.2735111, 36.145272599800002 ], [ -115.2735192, 36.145272599800002 ], [ -115.2735192, 36.145275299799998 ], [ -115.2735273, 36.145275299799998 ], [ -115.2735273, 36.145277999800001 ], [ -115.27353, 36.145277999800001 ], [ -115.27353, 36.145280699799997 ], [ -115.2735327, 36.145280699799997 ], [ -115.2735327, 36.145286099800003 ], [ -115.2735435, 36.145286099800003 ], [ -115.2735435, 36.145288799799999 ], [ -115.2735543, 36.145288799799999 ], [ -115.2735543, 36.145291499800003 ], [ -115.2735651, 36.145291499800003 ], [ -115.2735651, 36.145294199799999 ], [ -115.2735759, 36.145294199799999 ], [ -115.2735759, 36.145288799799999 ], [ -115.2735786, 36.145288799799999 ], [ -115.2735786, 36.145291499800003 ], [ -115.2735813, 36.145291499800003 ], [ -115.2735813, 36.145296899800002 ], [ -115.2735921, 36.145296899800002 ], [ -115.2735921, 36.145294199799999 ], [ -115.2736029, 36.145294199799999 ], [ -115.2736029, 36.145291499800003 ], [ -115.2736083, 36.145291499800003 ], [ -115.2736083, 36.145286099800003 ], [ -115.2736137, 36.145286099800003 ], [ -115.2736137, 36.1452833998 ], [ -115.2736245, 36.1452833998 ], [ -115.2736245, 36.145280699799997 ], [ -115.2736353, 36.145280699799997 ], [ -115.2736353, 36.145277999800001 ], [ -115.2736569, 36.145277999800001 ], [ -115.2736569, 36.145275299799998 ], [ -115.2736731, 36.145275299799998 ], [ -115.2736731, 36.145272599800002 ], [ -115.2736785, 36.145272599800002 ], [ -115.2736785, 36.145269899799999 ], [ -115.2736893, 36.145269899799999 ], [ -115.2736893, 36.145272599800002 ], [ -115.273692, 36.145272599800002 ], [ -115.273692, 36.145275299799998 ], [ -115.2737163, 36.145275299799998 ], [ -115.2737163, 36.145277999800001 ], [ -115.2737217, 36.145277999800001 ], [ -115.2737217, 36.145275299799998 ], [ -115.2737325, 36.145275299799998 ], [ -115.2737325, 36.145277999800001 ], [ -115.2737379, 36.145277999800001 ], [ -115.2737379, 36.1452833998 ], [ -115.2737406, 36.1452833998 ], [ -115.2737406, 36.145286099800003 ], [ -115.2737433, 36.145286099800003 ], [ -115.2737433, 36.145294199799999 ], [ -115.273746, 36.145294199799999 ], [ -115.273746, 36.145296899800002 ], [ -115.2737487, 36.145296899800002 ], [ -115.2737487, 36.145299599799998 ], [ -115.273746, 36.145299599799998 ], [ -115.273746, 36.145304999799997 ], [ -115.2737433, 36.145304999799997 ], [ -115.2737433, 36.145310399800003 ], [ -115.2737541, 36.145310399800003 ], [ -115.2737541, 36.145313099799999 ], [ -115.2737568, 36.145313099799999 ], [ -115.2737568, 36.145318499799998 ], [ -115.2737703, 36.145318499799998 ], [ -115.2737703, 36.145321199800001 ], [ -115.2737757, 36.145321199800001 ], [ -115.2737757, 36.145323899799997 ], [ -115.2737838, 36.145323899799997 ], [ -115.2737838, 36.145326599800001 ], [ -115.2737919, 36.145326599800001 ], [ -115.2737919, 36.145329299799997 ], [ -115.2737946, 36.145329299799997 ], [ -115.2737946, 36.1453319998 ], [ -115.2738, 36.1453319998 ], [ -115.2738, 36.145353599800004 ], [ -115.2738027, 36.145353599800004 ], [ -115.2738027, 36.145361699799999 ], [ -115.2738, 36.145361699799999 ], [ -115.2738, 36.145385999799998 ], [ -115.2737946, 36.145385999799998 ], [ -115.2737946, 36.145388699800002 ], [ -115.2737919, 36.145388699800002 ], [ -115.2737919, 36.145391399799998 ], [ -115.2737892, 36.145391399799998 ], [ -115.2737892, 36.145394099800001 ], [ -115.2737865, 36.145394099800001 ], [ -115.2737865, 36.145396799799997 ], [ -115.2737838, 36.145396799799997 ], [ -115.2737838, 36.1453994998 ], [ -115.2737811, 36.1453994998 ], [ -115.2737811, 36.145404899799999 ], [ -115.2737784, 36.145404899799999 ], [ -115.2737784, 36.145407599800002 ], [ -115.2737811, 36.145407599800002 ], [ -115.2737811, 36.145415699799997 ], [ -115.2737784, 36.145415699799997 ], [ -115.2737784, 36.145445399800003 ], [ -115.2737757, 36.145445399800003 ], [ -115.2737757, 36.1454669998 ], [ -115.273773, 36.1454669998 ], [ -115.273773, 36.145472399799999 ], [ -115.2737703, 36.145472399799999 ], [ -115.2737703, 36.145475099800002 ], [ -115.2737622, 36.145475099800002 ], [ -115.2737622, 36.145477799799998 ], [ -115.2737595, 36.145477799799998 ], [ -115.2737595, 36.145480499800001 ], [ -115.2737568, 36.145480499800001 ], [ -115.2737568, 36.145483199799997 ], [ -115.2737541, 36.145483199799997 ], [ -115.2737541, 36.145485899800001 ], [ -115.2737514, 36.145485899800001 ], [ -115.2737514, 36.1454912998 ], [ -115.2737487, 36.1454912998 ], [ -115.2737487, 36.145496699799999 ], [ -115.273746, 36.145496699799999 ], [ -115.273746, 36.145502099799998 ], [ -115.2737433, 36.145502099799998 ], [ -115.2737433, 36.145504799800001 ], [ -115.2737298, 36.145504799800001 ], [ -115.2737298, 36.145507499799997 ] ] ] } },
{ "type": "Feature", "properties": { "value": 255.0 }, "geometry": { "type": "Polygon", "coordinates": [ [ [ -115.274151, 36.145523699800002 ], [ -115.2741402, 36.145523699800002 ], [ -115.2741402, 36.145520999799999 ], [ -115.2741375, 36.145520999799999 ], [ -115.2741375, 36.145518299800003 ], [ -115.2741321, 36.145518299800003 ], [ -115.2741321, 36.1455155998 ], [ -115.2741294, 36.1455155998 ], [ -115.2741294, 36.145520999799999 ], [ -115.2741213, 36.145520999799999 ], [ -115.2741213, 36.145523699800002 ], [ -115.2741159, 36.145523699800002 ], [ -115.2741159, 36.145520999799999 ], [ -115.2741132, 36.145520999799999 ], [ -115.2741132, 36.145518299800003 ], [ -115.2741024, 36.145518299800003 ], [ -115.2741024, 36.1455155998 ], [ -115.274097, 36.1455155998 ], [ -115.274097, 36.145512899800003 ], [ -115.2740889, 36.145512899800003 ], [ -115.2740889, 36.1455101998 ], [ -115.2740835, 36.1455101998 ], [ -115.2740835, 36.145504799800001 ], [ -115.2740808, 36.145504799800001 ], [ -115.2740808, 36.145502099799998 ], [ -115.2740781, 36.145502099799998 ], [ -115.2740781, 36.145499399800002 ], [ -115.2740754, 36.145499399800002 ], [ -115.2740754, 36.145496699799999 ], [ -115.2740727, 36.145496699799999 ], [ -115.2740727, 36.145493999800003 ], [ -115.27407, 36.145493999800003 ], [ -115.27407, 36.1454912998 ], [ -115.2740673, 36.1454912998 ], [ -115.2740673, 36.145488599800004 ], [ -115.2740646, 36.145488599800004 ], [ -115.2740646, 36.145485899800001 ], [ -115.2740619, 36.145485899800001 ], [ -115.2740619, 36.145483199799997 ], [ -115.2740538, 36.145483199799997 ], [ -115.2740538, 36.145477799799998 ], [ -115.2740511, 36.145477799799998 ], [ -115.2740511, 36.145475099800002 ], [ -115.2740565, 36.145475099800002 ], [ -115.2740565, 36.145472399799999 ], [ -115.2740538, 36.145472399799999 ], [ -115.2740538, 36.1454669998 ], [ -115.2740511, 36.1454669998 ], [ -115.2740511, 36.145464299799997 ], [ -115.2740484, 36.145464299799997 ], [ -115.2740484, 36.145453499799999 ], [ -115.2740511, 36.145453499799999 ], [ -115.2740511, 36.145448099799999 ], [ -115.2740484, 36.145448099799999 ], [ -115.2740484, 36.145445399800003 ], [ -115.2740457, 36.145445399800003 ], [ -115.2740457, 36.145439999799997 ], [ -115.2740511, 36.145439999799997 ], [ -115.2740511, 36.145437299800001 ], [ -115.2740538, 36.145437299800001 ], [ -115.2740538, 36.145429199799999 ], [ -115.2740619, 36.145429199799999 ], [ -115.2740619, 36.145426499800003 ], [ -115.2740646, 36.145426499800003 ], [ -115.2740646, 36.145415699799997 ], [ -115.2740673, 36.145415699799997 ], [ -115.2740673, 36.1453994998 ], [ -115.27407, 36.1453994998 ], [ -115.27407, 36.145377899800003 ], [ -115.2740754, 36.145377899800003 ], [ -115.2740754, 36.1453751998 ], [ -115.2740781, 36.1453751998 ], [ -115.2740781, 36.145372499799997 ], [ -115.2740835, 36.145372499799997 ], [ -115.2740835, 36.1453751998 ], [ -115.2741105, 36.1453751998 ], [ -115.2741105, 36.145372499799997 ], [ -115.2741213, 36.145372499799997 ], [ -115.2741213, 36.145369799800001 ], [ -115.2741267, 36.145369799800001 ], [ -115.2741267, 36.145367099799998 ], [ -115.2741294, 36.145367099799998 ], [ -115.2741294, 36.145364399800002 ], [ -115.2741267, 36.145364399800002 ], [ -115.2741267, 36.145358999800003 ], [ -115.2741051, 36.145358999800003 ], [ -115.2741051, 36.1453562998 ], [ -115.2740808, 36.1453562998 ], [ -115.2740808, 36.145353599800004 ], [ -115.27407, 36.145353599800004 ], [ -115.27407, 36.1453508998 ], [ -115.2740619, 36.1453508998 ], [ -115.2740619, 36.145348199799997 ], [ -115.2740538, 36.145348199799997 ], [ -115.2740538, 36.145345499800001 ], [ -115.2740484, 36.145345499800001 ], [ -115.2740484, 36.145342799799998 ], [ -115.274043, 36.145342799799998 ], [ -115.274043, 36.145340099800002 ], [ -115.2740376, 36.145340099800002 ], [ -115.2740376, 36.145337399799999 ], [ -115.2740349, 36.145337399799999 ], [ -115.2740349, 36.145334699800003 ], [ -115.2740322, 36.145334699800003 ], [ -115.2740322, 36.1453319998 ], [ -115.2740295, 36.1453319998 ], [ -115.2740295, 36.145329299799997 ], [ -115.2740241, 36.145329299799997 ], [ -115.2740241, 36.145326599800001 ], [ -115.2740214, 36.145326599800001 ], [ -115.2740214, 36.145321199800001 ], [ -115.2740187, 36.145321199800001 ], [ -115.2740187, 36.145315799800002 ], [ -115.274016, 36.145315799800002 ], [ -115.274016, 36.145313099799999 ], [ -115.2740133, 36.145313099799999 ], [ -115.2740133, 36.145310399800003 ], [ -115.2740106, 36.145310399800003 ], [ -115.2740106, 36.145304999799997 ], [ -115.2740079, 36.145304999799997 ], [ -115.2740079, 36.145272599800002 ], [ -115.2740106, 36.145272599800002 ], [ -115.2740106, 36.1452644998 ], [ -115.2740133, 36.1452644998 ], [ -115.2740133, 36.145259099800001 ], [ -115.274016, 36.145259099800001 ], [ -115.274016, 36.145256399799997 ], [ -115.2740187, 36.145256399799997 ], [ -115.2740187, 36.145253699800001 ], [ -115.2740214, 36.145253699800001 ], [ -115.2740214, 36.145248299800002 ], [ -115.2740241, 36.145248299800002 ], [ -115.2740241, 36.145245599799999 ], [ -115.2740268, 36.145245599799999 ], [ -115.2740268, 36.145242899800003 ], [ -115.2740295, 36.145242899800003 ], [ -115.2740295, 36.145237499799997 ], [ -115.2740322, 36.145237499799997 ], [ -115.2740322, 36.145234799800001 ], [ -115.2740349, 36.145234799800001 ], [ -115.2740349, 36.145229399800002 ], [ -115.274043, 36.145229399800002 ], [ -115.274043, 36.145226699799998 ], [ -115.2740457, 36.145226699799998 ], [ -115.2740457, 36.145223999800002 ], [ -115.2740484, 36.145223999800002 ], [ -115.2740484, 36.145218599800003 ], [ -115.2740511, 36.145218599800003 ], [ -115.2740511, 36.1452158998 ], [ -115.2740565, 36.1452158998 ], [ -115.2740565, 36.145213199799997 ], [ -115.2740592, 36.145213199799997 ], [ -115.2740592, 36.145210499800001 ], [ -115.2740619, 36.145210499800001 ], [ -115.2740619, 36.145202399799999 ], [ -115.2740646, 36.145202399799999 ], [ -115.2740646, 36.1451969998 ], [ -115.27407, 36.1451969998 ], [ -115.27407, 36.145188899799997 ], [ -115.2740727, 36.145188899799997 ], [ -115.2740727, 36.145183499799998 ], [ -115.2740754, 36.145183499799998 ], [ -115.2740754, 36.145180799800002 ], [ -115.2740781, 36.145180799800002 ], [ -115.2740781, 36.145153799799999 ], [ -115.2740754, 36.145153799799999 ], [ -115.2740754, 36.145151099800003 ], [ -115.2740727, 36.145151099800003 ], [ -115.2740727, 36.1451483998 ], [ -115.27407, 36.1451483998 ], [ -115.27407, 36.145145699799997 ], [ -115.2740646, 36.145145699799997 ], [ -115.2740646, 36.145142999800001 ], [ -115.2740592, 36.145142999800001 ], [ -115.2740592, 36.145137599800002 ], [ -115.2740565, 36.145137599800002 ], [ -115.2740565, 36.145134899799999 ], [ -115.2740538, 36.145134899799999 ], [ -115.2740538, 36.145129499799999 ], [ -115.2740511, 36.145129499799999 ], [ -115.2740511, 36.145099799800001 ], [ -115.2740538, 36.145099799800001 ], [ -115.2740538, 36.145091699799998 ], [ -115.2740565, 36.145091699799998 ], [ -115.2740565, 36.145088999800002 ], [ -115.2740646, 36.145088999800002 ], [ -115.2740646, 36.145086299799999 ], [ -115.2740862, 36.145086299799999 ], [ -115.2740862, 36.145083599800003 ], [ -115.2741024, 36.145083599800003 ], [ -115.2741024, 36.1450808998 ], [ -115.2741078, 36.1450808998 ], [ -115.2741078, 36.145078199799997 ], [ -115.2741105, 36.145078199799997 ], [ -115.2741105, 36.145072799799998 ], [ -115.2741132, 36.145072799799998 ], [ -115.2741132, 36.145067399799998 ], [ -115.2741105, 36.145067399799998 ], [ -115.2741105, 36.145064699800002 ], [ -115.2741132, 36.145064699800002 ], [ -115.2741132, 36.145051199800001 ], [ -115.2741159, 36.145051199800001 ], [ -115.2741159, 36.145048499799998 ], [ -115.2741186, 36.145048499799998 ], [ -115.2741186, 36.145045799800002 ], [ -115.2741321, 36.145045799800002 ], [ -115.2741321, 36.145043099799999 ], [ -115.2741429, 36.145043099799999 ], [ -115.2741429, 36.145040399800003 ], [ -115.2741456, 36.145040399800003 ], [ -115.2741456, 36.145043099799999 ], [ -115.2741672, 36.145043099799999 ], [ -115.2741672, 36.145045799800002 ], [ -115.2741726, 36.145045799800002 ], [ -115.2741726, 36.145313099799999 ], [ -115.2741699, 36.145313099799999 ], [ -115.2741699, 36.145323899799997 ], [ -115.2741726, 36.145323899799997 ], [ -115.2741726, 36.1455155998 ], [ -115.2741618, 36.1455155998 ], [ -115.2741618, 36.145518299800003 ], [ -115.2741537, 36.145518299800003 ], [ -115.2741537, 36.145520999799999 ], [ -115.274151, 36.145520999799999 ], [ -115.274151, 36.145523699800002 ] ] ] } },
{ "type": "Feature", "properties": { "value": 255.0 }, "geometry": { "type": "Polygon", "coordinates": [ [ [ -115.2728577, 36.1454912998 ], [ -115.272828, 36.1454912998 ], [ -115.272828, 36.145488599800004 ], [ -115.2728226, 36.145488599800004 ], [ -115.2728226, 36.145485899800001 ], [ -115.2728091, 36.145485899800001 ], [ -115.2728091, 36.145483199799997 ], [ -115.2727902, 36.145483199799997 ], [ -115.2727902, 36.145477799799998 ], [ -115.2727443, 36.145477799799998 ], [ -115.2727443, 36.145480499800001 ], [ -115.2727389, 36.145480499800001 ], [ -115.2727389, 36.145477799799998 ], [ -115.2727092, 36.145477799799998 ], [ -115.2727092, 36.145475099800002 ], [ -115.2726606, 36.145475099800002 ], [ -115.2726606, 36.145472399799999 ], [ -115.2726525, 36.145472399799999 ], [ -115.2726525, 36.145469699800003 ], [ -115.2726498, 36.145469699800003 ], [ -115.2726498, 36.1454669998 ], [ -115.2726471, 36.1454669998 ], [ -115.2726471, 36.145464299799997 ], [ -115.272639, 36.145464299799997 ], [ -115.272639, 36.145458899799998 ], [ -115.2726363, 36.145458899799998 ], [ -115.2726363, 36.145426499800003 ], [ -115.272639, 36.145426499800003 ], [ -115.272639, 36.145396799799997 ], [ -115.2726417, 36.145396799799997 ], [ -115.2726417, 36.1453508998 ], [ -115.272639, 36.1453508998 ], [ -115.272639, 36.145337399799999 ], [ -115.2726417, 36.145337399799999 ], [ -115.2726417, 36.145280699799997 ], [ -115.272639, 36.145280699799997 ], [ -115.272639, 36.145277999800001 ], [ -115.2726417, 36.145277999800001 ], [ -115.2726417, 36.1452644998 ], [ -115.2726444, 36.1452644998 ], [ -115.2726444, 36.145261799799997 ], [ -115.2726498, 36.145261799799997 ], [ -115.2726498, 36.145259099800001 ], [ -115.2726525, 36.145259099800001 ], [ -115.2726525, 36.145256399799997 ], [ -115.2726552, 36.145256399799997 ], [ -115.2726552, 36.145248299800002 ], [ -115.2726579, 36.145248299800002 ], [ -115.2726579, 36.145242899800003 ], [ -115.2726606, 36.145242899800003 ], [ -115.2726606, 36.145237499799997 ], [ -115.2726579, 36.145237499799997 ], [ -115.2726579, 36.145229399800002 ], [ -115.2726552, 36.145229399800002 ], [ -115.2726552, 36.145226699799998 ], [ -115.2726525, 36.145226699799998 ], [ -115.2726525, 36.145223999800002 ], [ -115.2726498, 36.145223999800002 ], [ -115.2726498, 36.145221299799999 ], [ -115.2726471, 36.145221299799999 ], [ -115.2726471, 36.1452158998 ], [ -115.2726444, 36.1452158998 ], [ -115.2726444, 36.1451915998 ], [ -115.2726471, 36.1451915998 ], [ -115.2726471, 36.145129499799999 ], [ -115.2726498, 36.145129499799999 ], [ -115.2726498, 36.145115999799998 ], [ -115.2726471, 36.145115999799998 ], [ -115.2726471, 36.145110599799999 ], [ -115.2726498, 36.145110599799999 ], [ -115.2726498, 36.145075499800001 ], [ -115.2726471, 36.145075499800001 ], [ -115.2726471, 36.145072799799998 ], [ -115.2726498, 36.145072799799998 ], [ -115.2726498, 36.145053899799997 ], [ -115.2726471, 36.145053899799997 ], [ -115.2726471, 36.145007999800001 ], [ -115.2726498, 36.145007999800001 ], [ -115.2726498, 36.145002599800002 ], [ -115.2726633, 36.145002599800002 ], [ -115.2726633, 36.145005299799998 ], [ -115.2727119, 36.145005299799998 ], [ -115.2727119, 36.145007999800001 ], [ -115.2727173, 36.145007999800001 ], [ -115.2727173, 36.145010699799997 ], [ -115.2727443, 36.145010699799997 ], [ -115.2727443, 36.1450133998 ], [ -115.272774, 36.1450133998 ], [ -115.272774, 36.145010699799997 ], [ -115.2727794, 36.145010699799997 ], [ -115.2727794, 36.1450133998 ], [ -115.2728037, 36.1450133998 ], [ -115.2728037, 36.145010699799997 ], [ -115.2728064, 36.145010699799997 ], [ -115.2728064, 36.145007999800001 ], [ -115.2728253, 36.145007999800001 ], [ -115.2728253, 36.145005299799998 ], [ -115.2728361, 36.145005299799998 ], [ -115.2728361, 36.145007999800001 ], [ -115.2728442, 36.145007999800001 ], [ -115.2728442, 36.145010699799997 ], [ -115.2728469, 36.145010699799997 ], [ -115.2728469, 36.1450133998 ], [ -115.2728901, 36.1450133998 ], [ -115.2728901, 36.145016099800003 ], [ -115.2728928, 36.145016099800003 ], [ -115.2728928, 36.145018799799999 ], [ -115.2728955, 36.145018799799999 ], [ -115.2728955, 36.145021499800002 ], [ -115.2728982, 36.145021499800002 ], [ -115.2728982, 36.145029599799997 ], [ -115.2728955, 36.145029599799997 ], [ -115.2728955, 36.1450322998 ], [ -115.2728928, 36.1450322998 ], [ -115.2728928, 36.145034999799996 ], [ -115.2728901, 36.145034999799996 ], [ -115.2728901, 36.145040399800003 ], [ -115.2728874, 36.145040399800003 ], [ -115.2728874, 36.1450565998 ], [ -115.2728928, 36.1450565998 ], [ -115.2728928, 36.145059299799996 ], [ -115.2728955, 36.145059299799996 ], [ -115.2728955, 36.145061999799999 ], [ -115.2729252, 36.145061999799999 ], [ -115.2729252, 36.145064699800002 ], [ -115.2729306, 36.145064699800002 ], [ -115.2729306, 36.145067399799998 ], [ -115.2729414, 36.145067399799998 ], [ -115.2729414, 36.145070099800002 ], [ -115.2729441, 36.145070099800002 ], [ -115.2729441, 36.145072799799998 ], [ -115.2729468, 36.145072799799998 ], [ -115.2729468, 36.145075499800001 ], [ -115.2729495, 36.145075499800001 ], [ -115.2729495, 36.145088999800002 ], [ -115.2729468, 36.145088999800002 ], [ -115.2729468, 36.145094399800001 ], [ -115.2729495, 36.145094399800001 ], [ -115.2729495, 36.1451051998 ], [ -115.2729441, 36.1451051998 ], [ -115.2729441, 36.145107899800003 ], [ -115.2729414, 36.145107899800003 ], [ -115.2729414, 36.145110599799999 ], [ -115.2729306, 36.145110599799999 ], [ -115.2729306, 36.145113299800002 ], [ -115.2729225, 36.145113299800002 ], [ -115.2729225, 36.145115999799998 ], [ -115.2729198, 36.145115999799998 ], [ -115.2729198, 36.145118699800001 ], [ -115.2729171, 36.145118699800001 ], [ -115.2729171, 36.145121399799997 ], [ -115.2729144, 36.145121399799997 ], [ -115.2729144, 36.1451240998 ], [ -115.2729117, 36.1451240998 ], [ -115.2729117, 36.145129499799999 ], [ -115.2729144, 36.145129499799999 ], [ -115.2729144, 36.145132199800003 ], [ -115.2729117, 36.145132199800003 ], [ -115.2729117, 36.145137599800002 ], [ -115.272909, 36.145137599800002 ], [ -115.272909, 36.145140299799998 ], [ -115.2729063, 36.145140299799998 ], [ -115.2729063, 36.145142999800001 ], [ -115.272909, 36.145142999800001 ], [ -115.272909, 36.145167299800001 ], [ -115.2729117, 36.145167299800001 ], [ -115.2729117, 36.145175399800003 ], [ -115.2729144, 36.145175399800003 ], [ -115.2729144, 36.145180799800002 ], [ -115.2729171, 36.145180799800002 ], [ -115.2729171, 36.145188899799997 ], [ -115.2729198, 36.145188899799997 ], [ -115.2729198, 36.145194299799996 ], [ -115.2729225, 36.145194299799996 ], [ -115.2729225, 36.1451969998 ], [ -115.2729252, 36.1451969998 ], [ -115.2729252, 36.145199699800003 ], [ -115.2729306, 36.145199699800003 ], [ -115.2729306, 36.145202399799999 ], [ -115.272936, 36.145202399799999 ], [ -115.272936, 36.145205099800002 ], [ -115.2729414, 36.145205099800002 ], [ -115.2729414, 36.145207799799998 ], [ -115.2729576, 36.145207799799998 ], [ -115.2729576, 36.145210499800001 ], [ -115.2729684, 36.145210499800001 ], [ -115.2729684, 36.145213199799997 ], [ -115.2729711, 36.145213199799997 ], [ -115.2729711, 36.1452158998 ], [ -115.2729738, 36.1452158998 ], [ -115.2729738, 36.145221299799999 ], [ -115.2729765, 36.145221299799999 ], [ -115.2729765, 36.145226699799998 ], [ -115.2729792, 36.145226699799998 ], [ -115.2729792, 36.145229399800002 ], [ -115.2729819, 36.145229399800002 ], [ -115.2729819, 36.145232099799998 ], [ -115.2729846, 36.145232099799998 ], [ -115.2729846, 36.145237499799997 ], [ -115.2729873, 36.145237499799997 ], [ -115.2729873, 36.145242899800003 ], [ -115.27299, 36.145242899800003 ], [ -115.27299, 36.145269899799999 ], [ -115.2729873, 36.145269899799999 ], [ -115.2729873, 36.145272599800002 ], [ -115.2729846, 36.145272599800002 ], [ -115.2729846, 36.145275299799998 ], [ -115.2729792, 36.145275299799998 ], [ -115.2729792, 36.145277999800001 ], [ -115.2729765, 36.145277999800001 ], [ -115.2729765, 36.145280699799997 ], [ -115.2729738, 36.145280699799997 ], [ -115.2729738, 36.1452833998 ], [ -115.2729711, 36.1452833998 ], [ -115.2729711, 36.145286099800003 ], [ -115.2729684, 36.145286099800003 ], [ -115.2729684, 36.145288799799999 ], [ -115.2729657, 36.145288799799999 ], [ -115.2729657, 36.145291499800003 ], [ -115.272963, 36.145291499800003 ], [ -115.272963, 36.145294199799999 ], [ -115.2729603, 36.145294199799999 ], [ -115.2729603, 36.145296899800002 ], [ -115.2729576, 36.145296899800002 ], [ -115.2729576, 36.145299599799998 ], [ -115.2729549, 36.145299599799998 ], [ -115.2729549, 36.145302299800001 ], [ -115.2729522, 36.145302299800001 ], [ -115.2729522, 36.145304999799997 ], [ -115.2729468, 36.145304999799997 ], [ -115.2729468, 36.1453076998 ], [ -115.2729441, 36.1453076998 ], [ -115.2729441, 36.145310399800003 ], [ -115.2729387, 36.145310399800003 ], [ -115.2729387, 36.145313099799999 ], [ -115.2729279, 36.145313099799999 ], [ -115.2729279, 36.145315799800002 ], [ -115.2729063, 36.145315799800002 ], [ -115.2729063, 36.145318499799998 ], [ -115.2728928, 36.145318499799998 ], [ -115.2728928, 36.145323899799997 ], [ -115.2728955, 36.145323899799997 ], [ -115.2728955, 36.145329299799997 ], [ -115.2728982, 36.145329299799997 ], [ -115.2728982, 36.1453319998 ], [ -115.2729009, 36.1453319998 ], [ -115.2729009, 36.145334699800003 ], [ -115.2728982, 36.145334699800003 ], [ -115.2728982, 36.145361699799999 ], [ -115.2729009, 36.145361699799999 ], [ -115.2729009, 36.145377899800003 ], [ -115.2729036, 36.145377899800003 ], [ -115.2729036, 36.145385999799998 ], [ -115.272909, 36.145385999799998 ], [ -115.272909, 36.145391399799998 ], [ -115.2729117, 36.145391399799998 ], [ -115.2729117, 36.1453994998 ], [ -115.2729171, 36.1453994998 ], [ -115.2729171, 36.145402199800003 ], [ -115.2729225, 36.145402199800003 ], [ -115.2729225, 36.145404899799999 ], [ -115.2729252, 36.145404899799999 ], [ -115.2729252, 36.145407599800002 ], [ -115.2729279, 36.145407599800002 ], [ -115.2729279, 36.145410299799998 ], [ -115.2729306, 36.145410299799998 ], [ -115.2729306, 36.145412999800001 ], [ -115.2729333, 36.145412999800001 ], [ -115.2729333, 36.145415699799997 ], [ -115.272936, 36.145415699799997 ], [ -115.272936, 36.145431899800002 ], [ -115.2729333, 36.145431899800002 ], [ -115.2729333, 36.145434599799998 ], [ -115.2729279, 36.145434599799998 ], [ -115.2729279, 36.145437299800001 ], [ -115.2729225, 36.145437299800001 ], [ -115.2729225, 36.1454426998 ], [ -115.2729171, 36.1454426998 ], [ -115.2729171, 36.145450799800003 ], [ -115.2729144, 36.145450799800003 ], [ -115.2729144, 36.145453499799999 ], [ -115.2729117, 36.145453499799999 ], [ -115.2729117, 36.145456199800002 ], [ -115.2729063, 36.145456199800002 ], [ -115.2729063, 36.145458899799998 ], [ -115.2728928, 36.145458899799998 ], [ -115.2728928, 36.145461599800001 ], [ -115.2728874, 36.145461599800001 ], [ -115.2728874, 36.145464299799997 ], [ -115.2728847, 36.145464299799997 ], [ -115.2728847, 36.1454669998 ], [ -115.272882, 36.1454669998 ], [ -115.272882, 36.145472399799999 ], [ -115.2728793, 36.145472399799999 ], [ -115.2728793, 36.145477799799998 ], [ -115.2728766, 36.145477799799998 ], [ -115.2728766, 36.145480499800001 ], [ -115.2728739, 36.145480499800001 ], [ -115.2728739, 36.145483199799997 ], [ -115.2728604, 36.145483199799997 ], [ -115.2728604, 36.145485899800001 ], [ -115.2728577, 36.145485899800001 ], [ -115.2728577, 36.1454912998 ] ] ] } },
{ "type": "Feature", "properties": { "value": 255.0 }, "geometry": { "type": "Polygon", "coordinates": [ [ [ -115.2726336, 36.144797399799998 ], [ -115.2726066, 36.144797399799998 ], [ -115.2726066, 36.144791999799999 ], [ -115.2726039, 36.144791999799999 ], [ -115.2726039, 36.144770399800002 ], [ -115.2726012, 36.144770399800002 ], [ -115.2726012, 36.144759599799997 ], [ -115.2725985, 36.144759599799997 ], [ -115.2725985, 36.144756899800001 ], [ -115.2726012, 36.144756899800001 ], [ -115.2726012, 36.144751499800002 ], [ -115.272612, 36.144751499800002 ], [ -115.272612, 36.144748799799999 ], [ -115.2726336, 36.144748799799999 ], [ -115.2726336, 36.144751499800002 ], [ -115.2726363, 36.144751499800002 ], [ -115.2726363, 36.144794699800002 ], [ -115.2726336, 36.144794699800002 ], [ -115.2726336, 36.144797399799998 ] ] ] } },
{ "type": "Feature", "properties": { "value": 255.0 }, "geometry": { "type": "Polygon", "coordinates": [ [ [ -115.2741726, 36.144883799799999 ], [ -115.2740376, 36.144883799799999 ], [ -115.2740376, 36.144881099800003 ], [ -115.2740322, 36.144881099800003 ], [ -115.2740322, 36.144883799799999 ], [ -115.2740133, 36.144883799799999 ], [ -115.2740133, 36.144881099800003 ], [ -115.2739674, 36.144881099800003 ], [ -115.2739674, 36.1448783998 ], [ -115.2738, 36.1448783998 ], [ -115.2738, 36.144881099800003 ], [ -115.2737541, 36.144881099800003 ], [ -115.2737541, 36.1448783998 ], [ -115.2737514, 36.1448783998 ], [ -115.2737514, 36.144875699799996 ], [ -115.2737487, 36.144875699799996 ], [ -115.2737487, 36.144813599800003 ], [ -115.273746, 36.144813599800003 ], [ -115.273746, 36.1448108998 ], [ -115.2737433, 36.1448108998 ], [ -115.2737433, 36.1448054998 ], [ -115.2737379, 36.1448054998 ], [ -115.2737379, 36.144800099800001 ], [ -115.2737352, 36.144800099800001 ], [ -115.2737352, 36.144794699800002 ], [ -115.2737379, 36.144794699800002 ], [ -115.2737379, 36.144791999799999 ], [ -115.2737406, 36.144791999799999 ], [ -115.2737406, 36.144783899799997 ], [ -115.2737352, 36.144783899799997 ], [ -115.2737352, 36.144781199800001 ], [ -115.2737325, 36.144781199800001 ], [ -115.2737325, 36.144778499799997 ], [ -115.2737271, 36.144778499799997 ], [ -115.2737271, 36.144781199800001 ], [ -115.2737244, 36.144781199800001 ], [ -115.2737244, 36.144775799800001 ], [ -115.2737217, 36.144775799800001 ], [ -115.2737217, 36.144764999799996 ], [ -115.2737244, 36.144764999799996 ], [ -115.2737244, 36.1447622998 ], [ -115.2737271, 36.1447622998 ], [ -115.2737271, 36.144759599799997 ], [ -115.2737298, 36.144759599799997 ], [ -115.2737298, 36.144756899800001 ], [ -115.2737325, 36.144756899800001 ], [ -115.2737325, 36.144754199799998 ], [ -115.2737379, 36.144754199799998 ], [ -115.2737379, 36.144751499800002 ], [ -115.2737406, 36.144751499800002 ], [ -115.2737406, 36.144748799799999 ], [ -115.273746, 36.144748799799999 ], [ -115.273746, 36.144746099800003 ], [ -115.2737487, 36.144746099800003 ], [ -115.2737487, 36.144735299799997 ], [ -115.2737514, 36.144735299799997 ], [ -115.2737514, 36.144716399799997 ], [ -115.2737541, 36.144716399799997 ], [ -115.2737541, 36.1446947998 ], [ -115.2737514, 36.1446947998 ], [ -115.2737514, 36.144667799799997 ], [ -115.2737541, 36.144667799799997 ], [ -115.2737541, 36.144665099800001 ], [ -115.2737595, 36.144665099800001 ], [ -115.2737595, 36.144662399799998 ], [ -115.2737919, 36.144662399799998 ], [ -115.2737919, 36.144659699800002 ], [ -115.2737946, 36.144659699800002 ], [ -115.2737946, 36.144662399799998 ], [ -115.2738162, 36.144662399799998 ], [ -115.2738162, 36.144665099800001 ], [ -115.2738216, 36.144665099800001 ], [ -115.2738216, 36.144662399799998 ], [ -115.2738297, 36.144662399799998 ], [ -115.2738297, 36.144665099800001 ], [ -115.2738351, 36.144665099800001 ], [ -115.2738351, 36.144667799799997 ], [ -115.2738378, 36.144667799799997 ], [ -115.2738378, 36.1446704998 ], [ -115.2738405, 36.1446704998 ], [ -115.2738405, 36.144673199799996 ], [ -115.273854, 36.144673199799996 ], [ -115.273854, 36.144675899799999 ], [ -115.2738918, 36.144675899799999 ], [ -115.2738918, 36.144673199799996 ], [ -115.2738945, 36.144673199799996 ], [ -115.2738945, 36.144675899799999 ], [ -115.2739053, 36.144675899799999 ], [ -115.2739053, 36.144678599800002 ], [ -115.2739512, 36.144678599800002 ], [ -115.2739512, 36.144675899799999 ], [ -115.2739593, 36.144675899799999 ], [ -115.2739593, 36.144673199799996 ], [ -115.2739647, 36.144673199799996 ], [ -115.2739647, 36.1446704998 ], [ -115.2739701, 36.1446704998 ], [ -115.2739701, 36.144667799799997 ], [ -115.2739728, 36.144667799799997 ], [ -115.2739728, 36.144665099800001 ], [ -115.2739755, 36.144665099800001 ], [ -115.2739755, 36.144662399799998 ], [ -115.2739782, 36.144662399799998 ], [ -115.2739782, 36.144659699800002 ], [ -115.2739836, 36.144659699800002 ], [ -115.2739836, 36.144654299799996 ], [ -115.273989, 36.144654299799996 ], [ -115.273989, 36.1446515998 ], [ -115.2739944, 36.1446515998 ], [ -115.2739944, 36.144648899799996 ], [ -115.2739998, 36.144648899799996 ], [ -115.2739998, 36.1446461998 ], [ -115.2740025, 36.1446461998 ], [ -115.2740025, 36.144648899799996 ], [ -115.2740052, 36.144648899799996 ], [ -115.2740052, 36.1446461998 ], [ -115.2740457, 36.1446461998 ], [ -115.2740457, 36.144648899799996 ], [ -115.2740565, 36.144648899799996 ], [ -115.2740565, 36.1446515998 ], [ -115.2740646, 36.1446515998 ], [ -115.2740646, 36.144654299799996 ], [ -115.2740727, 36.144654299799996 ], [ -115.2740727, 36.144656999799999 ], [ -115.2740781, 36.144656999799999 ], [ -115.2740781, 36.144659699800002 ], [ -115.2740808, 36.144659699800002 ], [ -115.2740808, 36.144662399799998 ], [ -115.2740862, 36.144662399799998 ], [ -115.2740862, 36.144665099800001 ], [ -115.2740916, 36.144665099800001 ], [ -115.2740916, 36.144667799799997 ], [ -115.274097, 36.144667799799997 ], [ -115.274097, 36.1446704998 ], [ -115.2740997, 36.1446704998 ], [ -115.2740997, 36.144673199799996 ], [ -115.2741024, 36.144673199799996 ], [ -115.2741024, 36.144675899799999 ], [ -115.2741078, 36.144675899799999 ], [ -115.2741078, 36.144678599800002 ], [ -115.274124, 36.144678599800002 ], [ -115.274124, 36.144681299799998 ], [ -115.2741483, 36.144681299799998 ], [ -115.2741483, 36.144678599800002 ], [ -115.2741537, 36.144678599800002 ], [ -115.2741537, 36.144675899799999 ], [ -115.2741564, 36.144675899799999 ], [ -115.2741564, 36.144673199799996 ], [ -115.2741645, 36.144673199799996 ], [ -115.2741645, 36.1446704998 ], [ -115.2741726, 36.1446704998 ], [ -115.2741726, 36.144883799799999 ] ] ] } },
{ "type": "Feature", "properties": { "value": 255.0 }, "geometry": { "type": "Polygon", "coordinates": [ [ [ -115.27326, 36.144870299799997 ], [ -115.2732573, 36.144870299799997 ], [ -115.2732573, 36.144867599800001 ], [ -115.2732546, 36.144867599800001 ], [ -115.2732546, 36.144870299799997 ], [ -115.2732411, 36.144870299799997 ], [ -115.2732411, 36.144867599800001 ], [ -115.2731979, 36.144867599800001 ], [ -115.2731979, 36.144864899799998 ], [ -115.2731115, 36.144864899799998 ], [ -115.2731115, 36.144862199800002 ], [ -115.2730062, 36.144862199800002 ], [ -115.2730062, 36.144859499799999 ], [ -115.2729981, 36.144859499799999 ], [ -115.2729981, 36.144862199800002 ], [ -115.27299, 36.144862199800002 ], [ -115.27299, 36.144859499799999 ], [ -115.2729846, 36.144859499799999 ], [ -115.2729846, 36.144862199800002 ], [ -115.2729657, 36.144862199800002 ], [ -115.2729657, 36.144859499799999 ], [ -115.2728739, 36.144859499799999 ], [ -115.2728739, 36.144856799799996 ], [ -115.2728685, 36.144856799799996 ], [ -115.2728685, 36.144859499799999 ], [ -115.2728631, 36.144859499799999 ], [ -115.2728631, 36.144856799799996 ], [ -115.2727713, 36.144856799799996 ], [ -115.2727713, 36.144859499799999 ], [ -115.2727605, 36.144859499799999 ], [ -115.2727605, 36.144856799799996 ], [ -115.2727551, 36.144856799799996 ], [ -115.2727551, 36.144859499799999 ], [ -115.2727038, 36.144859499799999 ], [ -115.2727038, 36.144856799799996 ], [ -115.2726903, 36.144856799799996 ], [ -115.2726903, 36.1448540998 ], [ -115.2726876, 36.1448540998 ], [ -115.2726876, 36.144851399799997 ], [ -115.2726849, 36.144851399799997 ], [ -115.2726849, 36.1448108998 ], [ -115.2726876, 36.1448108998 ], [ -115.2726876, 36.144802799799997 ], [ -115.2726903, 36.144802799799997 ], [ -115.2726903, 36.144783899799997 ], [ -115.2726876, 36.144783899799997 ], [ -115.2726876, 36.144773099799998 ], [ -115.2726849, 36.144773099799998 ], [ -115.2726849, 36.144759599799997 ], [ -115.2726876, 36.144759599799997 ], [ -115.2726876, 36.144754199799998 ], [ -115.2726849, 36.144754199799998 ], [ -115.2726849, 36.144727199800002 ], [ -115.2726822, 36.144727199800002 ], [ -115.2726822, 36.144710999799997 ], [ -115.2726795, 36.144710999799997 ], [ -115.2726795, 36.144686699799998 ], [ -115.2726822, 36.144686699799998 ], [ -115.2726822, 36.144648899799996 ], [ -115.2726849, 36.144648899799996 ], [ -115.2726849, 36.1446461998 ], [ -115.2726876, 36.1446461998 ], [ -115.2726876, 36.144643499799997 ], [ -115.2727011, 36.144643499799997 ], [ -115.2727011, 36.144640799800001 ], [ -115.2727092, 36.144640799800001 ], [ -115.2727092, 36.144643499799997 ], [ -115.2727659, 36.144643499799997 ], [ -115.2727659, 36.1446461998 ], [ -115.272774, 36.1446461998 ], [ -115.272774, 36.144648899799996 ], [ -115.2727821, 36.144648899799996 ], [ -115.2727821, 36.1446515998 ], [ -115.2728118, 36.1446515998 ], [ -115.2728118, 36.144654299799996 ], [ -115.2728361, 36.144654299799996 ], [ -115.2728361, 36.1446515998 ], [ -115.2728604, 36.1446515998 ], [ -115.2728604, 36.144654299799996 ], [ -115.272882, 36.144654299799996 ], [ -115.272882, 36.144656999799999 ], [ -115.2728901, 36.144656999799999 ], [ -115.2728901, 36.144654299799996 ], [ -115.2729063, 36.144654299799996 ], [ -115.2729063, 36.1446515998 ], [ -115.2729279, 36.1446515998 ], [ -115.2729279, 36.144648899799996 ], [ -115.272936, 36.144648899799996 ], [ -115.272936, 36.1446461998 ], [ -115.2729414, 36.1446461998 ], [ -115.2729414, 36.144643499799997 ], [ -115.2729468, 36.144643499799997 ], [ -115.2729468, 36.144640799800001 ], [ -115.2729522, 36.144640799800001 ], [ -115.2729522, 36.144638099799998 ], [ -115.2729549, 36.144638099799998 ], [ -115.2729549, 36.144635399800002 ], [ -115.2729576, 36.144635399800002 ], [ -115.2729576, 36.144632699799999 ], [ -115.2729603, 36.144632699799999 ], [ -115.2729603, 36.144629999799996 ], [ -115.2729657, 36.144629999799996 ], [ -115.2729657, 36.1446272998 ], [ -115.2729927, 36.1446272998 ], [ -115.2729927, 36.144624599799997 ], [ -115.2730089, 36.144624599799997 ], [ -115.2730089, 36.1446272998 ], [ -115.2730143, 36.1446272998 ], [ -115.2730143, 36.144629999799996 ], [ -115.2730197, 36.144629999799996 ], [ -115.2730197, 36.144632699799999 ], [ -115.2730305, 36.144632699799999 ], [ -115.2730305, 36.144635399800002 ], [ -115.2730359, 36.144635399800002 ], [ -115.2730359, 36.144638099799998 ], [ -115.2730413, 36.144638099799998 ], [ -115.2730413, 36.144640799800001 ], [ -115.273044, 36.144640799800001 ], [ -115.273044, 36.144643499799997 ], [ -115.2730467, 36.144643499799997 ], [ -115.2730467, 36.1446461998 ], [ -115.2730521, 36.1446461998 ], [ -115.2730521, 36.144648899799996 ], [ -115.2730548, 36.144648899799996 ], [ -115.2730548, 36.1446515998 ], [ -115.2730575, 36.1446515998 ], [ -115.2730575, 36.144654299799996 ], [ -115.2730656, 36.144654299799996 ], [ -115.2730656, 36.144656999799999 ], [ -115.273071, 36.144656999799999 ], [ -115.273071, 36.144659699800002 ], [ -115.2730926, 36.144659699800002 ], [ -115.2730926, 36.144662399799998 ], [ -115.2730953, 36.144662399799998 ], [ -115.2730953, 36.144659699800002 ], [ -115.2731115, 36.144659699800002 ], [ -115.2731115, 36.144656999799999 ], [ -115.273125, 36.144656999799999 ], [ -115.273125, 36.144659699800002 ], [ -115.2731439, 36.144659699800002 ], [ -115.2731439, 36.144662399799998 ], [ -115.2731763, 36.144662399799998 ], [ -115.2731763, 36.144659699800002 ], [ -115.2731898, 36.144659699800002 ], [ -115.2731898, 36.144656999799999 ], [ -115.2732195, 36.144656999799999 ], [ -115.2732195, 36.144659699800002 ], [ -115.273233, 36.144659699800002 ], [ -115.273233, 36.144662399799998 ], [ -115.2732681, 36.144662399799998 ], [ -115.2732681, 36.144659699800002 ], [ -115.2732762, 36.144659699800002 ], [ -115.2732762, 36.144665099800001 ], [ -115.2732789, 36.144665099800001 ], [ -115.2732789, 36.144662399799998 ], [ -115.273287, 36.144662399799998 ], [ -115.273287, 36.1446704998 ], [ -115.2732897, 36.1446704998 ], [ -115.2732897, 36.144673199799996 ], [ -115.2732924, 36.144673199799996 ], [ -115.2732924, 36.144675899799999 ], [ -115.2732951, 36.144675899799999 ], [ -115.2732951, 36.144686699799998 ], [ -115.2732978, 36.144686699799998 ], [ -115.2732978, 36.144700199799999 ], [ -115.2732951, 36.144700199799999 ], [ -115.2732951, 36.144705599799998 ], [ -115.2732978, 36.144705599799998 ], [ -115.2732978, 36.144721799799996 ], [ -115.2732951, 36.144721799799996 ], [ -115.2732951, 36.144732599800001 ], [ -115.2732924, 36.144732599800001 ], [ -115.2732924, 36.1447379998 ], [ -115.2732897, 36.1447379998 ], [ -115.2732897, 36.144740699799996 ], [ -115.2732843, 36.144740699799996 ], [ -115.2732843, 36.144743399799999 ], [ -115.2732816, 36.144743399799999 ], [ -115.2732816, 36.144748799799999 ], [ -115.2732789, 36.144748799799999 ], [ -115.2732789, 36.144756899800001 ], [ -115.2732762, 36.144756899800001 ], [ -115.2732762, 36.144783899799997 ], [ -115.2732789, 36.144783899799997 ], [ -115.2732789, 36.144791999799999 ], [ -115.2732816, 36.144791999799999 ], [ -115.2732816, 36.144802799799997 ], [ -115.2732843, 36.144802799799997 ], [ -115.2732843, 36.144813599800003 ], [ -115.2732816, 36.144813599800003 ], [ -115.2732816, 36.144835199799999 ], [ -115.2732789, 36.144835199799999 ], [ -115.2732789, 36.144859499799999 ], [ -115.2732762, 36.144859499799999 ], [ -115.2732762, 36.144867599800001 ], [ -115.27326, 36.144867599800001 ], [ -115.27326, 36.144870299799997 ] ] ] } },
{ "type": "Feature", "properties": { "value": 255.0 }, "geometry": { "type": "Polygon", "coordinates": [ [ [ -115.2726741, 36.1444436998 ], [ -115.2726714, 36.1444436998 ], [ -115.2726714, 36.144440999799997 ], [ -115.272666, 36.144440999799997 ], [ -115.272666, 36.144438299800001 ], [ -115.2726525, 36.144438299800001 ], [ -115.2726525, 36.144435599799998 ], [ -115.2726498, 36.144435599799998 ], [ -115.2726498, 36.144438299800001 ], [ -115.2726444, 36.144438299800001 ], [ -115.2726444, 36.144435599799998 ], [ -115.272639, 36.144435599799998 ], [ -115.272639, 36.144432899800002 ], [ -115.2724581, 36.144432899800002 ], [ -115.2724581, 36.144430199799999 ], [ -115.2724554, 36.144430199799999 ], [ -115.2724554, 36.144424799799999 ], [ -115.2724527, 36.144424799799999 ], [ -115.2724527, 36.144392399799997 ], [ -115.2724554, 36.144392399799997 ], [ -115.2724554, 36.144386999799998 ], [ -115.2724581, 36.144386999799998 ], [ -115.2724581, 36.144373499799997 ], [ -115.2724554, 36.144373499799997 ], [ -115.2724554, 36.144368099799998 ], [ -115.2724527, 36.144368099799998 ], [ -115.2724527, 36.144354599799996 ], [ -115.27245, 36.144354599799996 ], [ -115.27245, 36.144316799799995 ], [ -115.2724527, 36.144316799799995 ], [ -115.2724527, 36.144314099799999 ], [ -115.27245, 36.144314099799999 ], [ -115.27245, 36.144311399799996 ], [ -115.2724527, 36.144311399799996 ], [ -115.2724527, 36.144295199799998 ], [ -115.2724554, 36.144295199799998 ], [ -115.2724554, 36.144287099799996 ], [ -115.2724581, 36.144287099799996 ], [ -115.2724581, 36.144281699799997 ], [ -115.2724608, 36.144281699799997 ], [ -115.2724608, 36.144276299799998 ], [ -115.2724635, 36.144276299799998 ], [ -115.2724635, 36.144268199799996 ], [ -115.2724662, 36.144268199799996 ], [ -115.2724662, 36.1442600998 ], [ -115.2724689, 36.1442600998 ], [ -115.2724689, 36.144251999799998 ], [ -115.2724716, 36.144251999799998 ], [ -115.2724716, 36.144243899799996 ], [ -115.2724743, 36.144243899799996 ], [ -115.2724743, 36.1442411998 ], [ -115.2724797, 36.1442411998 ], [ -115.2724797, 36.144238499799997 ], [ -115.2724824, 36.144238499799997 ], [ -115.2724824, 36.144235799800001 ], [ -115.2724878, 36.144235799800001 ], [ -115.2724878, 36.144233099799997 ], [ -115.2724932, 36.144233099799997 ], [ -115.2724932, 36.144230399800001 ], [ -115.2724986, 36.144230399800001 ], [ -115.2724986, 36.144227699799998 ], [ -115.2725094, 36.144227699799998 ], [ -115.2725094, 36.144224999799995 ], [ -115.2725148, 36.144224999799995 ], [ -115.2725148, 36.144222299799999 ], [ -115.2725202, 36.144222299799999 ], [ -115.2725202, 36.144219599799996 ], [ -115.2725229, 36.144219599799996 ], [ -115.2725229, 36.1442168998 ], [ -115.2725256, 36.1442168998 ], [ -115.2725256, 36.144214199799997 ], [ -115.272531, 36.144214199799997 ], [ -115.272531, 36.144211499800001 ], [ -115.2725364, 36.144211499800001 ], [ -115.2725364, 36.144208799799998 ], [ -115.2725391, 36.144208799799998 ], [ -115.2725391, 36.144206099800002 ], [ -115.2725472, 36.144206099800002 ], [ -115.2725472, 36.144203399799999 ], [ -115.2725526, 36.144203399799999 ], [ -115.2725526, 36.144206099800002 ], [ -115.2725661, 36.144206099800002 ], [ -115.2725661, 36.144203399799999 ], [ -115.2725904, 36.144203399799999 ], [ -115.2725904, 36.144206099800002 ], [ -115.2726687, 36.144206099800002 ], [ -115.2726687, 36.144203399799999 ], [ -115.2726741, 36.144203399799999 ], [ -115.2726741, 36.144206099800002 ], [ -115.2726957, 36.144206099800002 ], [ -115.2726957, 36.144208799799998 ], [ -115.2727065, 36.144208799799998 ], [ -115.2727065, 36.144211499800001 ], [ -115.2727092, 36.144211499800001 ], [ -115.2727092, 36.1442168998 ], [ -115.2727119, 36.1442168998 ], [ -115.2727119, 36.144224999799995 ], [ -115.2727146, 36.144224999799995 ], [ -115.2727146, 36.144227699799998 ], [ -115.2727173, 36.144227699799998 ], [ -115.2727173, 36.144230399800001 ], [ -115.27272, 36.144230399800001 ], [ -115.27272, 36.144235799800001 ], [ -115.2727173, 36.144235799800001 ], [ -115.2727173, 36.144243899799996 ], [ -115.27272, 36.144243899799996 ], [ -115.27272, 36.144246599799999 ], [ -115.2727227, 36.144246599799999 ], [ -115.2727227, 36.144254699800001 ], [ -115.27272, 36.144254699800001 ], [ -115.27272, 36.144270899799999 ], [ -115.2727227, 36.144270899799999 ], [ -115.2727227, 36.144276299799998 ], [ -115.27272, 36.144276299799998 ], [ -115.27272, 36.144287099799996 ], [ -115.2727227, 36.144287099799996 ], [ -115.2727227, 36.144289799799999 ], [ -115.2727254, 36.144289799799999 ], [ -115.2727254, 36.144292499799995 ], [ -115.2727335, 36.144292499799995 ], [ -115.2727335, 36.144295199799998 ], [ -115.2727389, 36.144295199799998 ], [ -115.2727389, 36.144300599799998 ], [ -115.2727416, 36.144300599799998 ], [ -115.2727416, 36.1443275998 ], [ -115.2727389, 36.1443275998 ], [ -115.2727389, 36.144343799799998 ], [ -115.2727362, 36.144343799799998 ], [ -115.2727362, 36.144357299799999 ], [ -115.2727335, 36.144357299799999 ], [ -115.2727335, 36.144359999799995 ], [ -115.2727254, 36.144359999799995 ], [ -115.2727254, 36.144362699799998 ], [ -115.2727146, 36.144362699799998 ], [ -115.2727146, 36.144365399800002 ], [ -115.2727092, 36.144365399800002 ], [ -115.2727092, 36.144368099799998 ], [ -115.2727065, 36.144368099799998 ], [ -115.2727065, 36.144370799800001 ], [ -115.2727038, 36.144370799800001 ], [ -115.2727038, 36.144378899799996 ], [ -115.2727011, 36.144378899799996 ], [ -115.2727011, 36.144405899799999 ], [ -115.2727038, 36.144405899799999 ], [ -115.2727038, 36.144408599800002 ], [ -115.2727065, 36.144408599800002 ], [ -115.2727065, 36.144411299799998 ], [ -115.2727092, 36.144411299799998 ], [ -115.2727092, 36.144413999800001 ], [ -115.2727065, 36.144413999800001 ], [ -115.2727065, 36.1444193998 ], [ -115.2727011, 36.1444193998 ], [ -115.2727011, 36.144422099799996 ], [ -115.272693, 36.144422099799996 ], [ -115.272693, 36.144424799799999 ], [ -115.2726903, 36.144424799799999 ], [ -115.2726903, 36.144430199799999 ], [ -115.2726876, 36.144430199799999 ], [ -115.2726876, 36.144432899800002 ], [ -115.2726795, 36.144432899800002 ], [ -115.2726795, 36.144438299800001 ], [ -115.2726768, 36.144438299800001 ], [ -115.2726768, 36.144440999799997 ], [ -115.2726741, 36.144440999799997 ], [ -115.2726741, 36.1444436998 ] ] ] } }
]
}
