{
"type": "FeatureCollection",
"crs": { "type": "name", "properties": { "name": "urn:ogc:def:crs:OGC:1.3:CRS84" } },
"features": [
{ "type": "Feature", "properties": { "value": 255.0 }, "geometry": { "type": "Polygon", "coordinates": [ [ [ -115.2139059, 36.210782699900001 ], [ -115.2138681, 36.210782699900001 ], [ -115.2138681, 36.210779999899998 ], [ -115.213887, 36.210779999899998 ], [ -115.213887, 36.210777299900002 ], [ -115.2139059, 36.210777299900002 ], [ -115.2139059, 36.210782699900001 ] ] ] } },
{ "type": "Feature", "properties": { "value": 255.0 }, "geometry": { "type": "Polygon", "coordinates": [ [ [ -115.2138519, 36.210782699900001 ], [ -115.2137979, 36.210782699900001 ], [ -115.2137979, 36.210779999899998 ], [ -115.2138114, 36.210779999899998 ], [ -115.2138114, 36.210777299900002 ], [ -115.2138465, 36.210777299900002 ], [ -115.2138465, 36.210779999899998 ], [ -115.2138519, 36.210779999899998 ], [ -115.2138519, 36.210782699900001 ] ] ] } },
{ "type": "Feature", "properties": { "value": 255.0 }, "geometry": { "type": "Polygon", "coordinates": [ [ [ -115.2145026, 36.210782699900001 ], [ -115.2144135, 36.210782699900001 ], [ -115.2144135, 36.210752999900002 ], [ -115.2144108, 36.210752999900002 ], [ -115.2144108, 36.2107448999 ], [ -115.2144135, 36.2107448999 ], [ -115.2144135, 36.210742199900004 ], [ -115.2144567, 36.210742199900004 ], [ -115.2144567, 36.210739499900001 ], [ -115.2144756, 36.210739499900001 ], [ -115.2144756, 36.210736799899998 ], [ -115.2144891, 36.210736799899998 ], [ -115.2144891, 36.210739499900001 ], [ -115.2144945, 36.210739499900001 ], [ -115.2144945, 36.210736799899998 ], [ -115.2145026, 36.210736799899998 ], [ -115.2145026, 36.210782699900001 ] ] ] } },
{ "type": "Feature", "properties": { "value": 255.0 }, "geometry": { "type": "Polygon", "coordinates": [ [ [ -115.2141408, 36.210782699900001 ], [ -115.2140004, 36.210782699900001 ], [ -115.2140004, 36.210779999899998 ], [ -115.2139977, 36.210779999899998 ], [ -115.2139977, 36.210774599899999 ], [ -115.213995, 36.210774599899999 ], [ -115.213995, 36.210771899900003 ], [ -115.2139923, 36.210771899900003 ], [ -115.2139923, 36.2107691999 ], [ -115.213995, 36.2107691999 ], [ -115.213995, 36.2107637999 ], [ -115.2139923, 36.2107637999 ], [ -115.2139923, 36.210752999900002 ], [ -115.213995, 36.210752999900002 ], [ -115.213995, 36.2107448999 ], [ -115.2139977, 36.2107448999 ], [ -115.2139977, 36.210742199900004 ], [ -115.2140679, 36.210742199900004 ], [ -115.2140679, 36.2107448999 ], [ -115.2140652, 36.2107448999 ], [ -115.2140652, 36.210750299899999 ], [ -115.2140625, 36.210750299899999 ], [ -115.2140625, 36.210758399900001 ], [ -115.2140652, 36.210758399900001 ], [ -115.2140652, 36.210761099900004 ], [ -115.2140679, 36.210761099900004 ], [ -115.2140679, 36.210766499900004 ], [ -115.2141192, 36.210766499900004 ], [ -115.2141192, 36.2107691999 ], [ -115.2141273, 36.2107691999 ], [ -115.2141273, 36.210771899900003 ], [ -115.2141327, 36.210771899900003 ], [ -115.2141327, 36.210774599899999 ], [ -115.2141408, 36.210774599899999 ], [ -115.2141408, 36.210782699900001 ] ] ] } },
{ "type": "Feature", "properties": { "value": 255.0 }, "geometry": { "type": "Polygon", "coordinates": [ [ [ -115.21278, 36.210782699900001 ], [ -115.2127476, 36.210782699900001 ], [ -115.2127476, 36.210717899900004 ], [ -115.2127773, 36.210717899900004 ], [ -115.2127773, 36.210739499900001 ], [ -115.21278, 36.210739499900001 ], [ -115.21278, 36.210782699900001 ] ] ] } },
{ "type": "Feature", "properties": { "value": 255.0 }, "geometry": { "type": "Polygon", "coordinates": [ [ [ -115.2132255, 36.210782699900001 ], [ -115.2129717, 36.210782699900001 ], [ -115.2129717, 36.210774599899999 ], [ -115.2129744, 36.210774599899999 ], [ -115.2129744, 36.210747599900003 ], [ -115.2129771, 36.210747599900003 ], [ -115.2129771, 36.2107448999 ], [ -115.2130068, 36.2107448999 ], [ -115.2130068, 36.210747599900003 ], [ -115.2130203, 36.210747599900003 ], [ -115.2130203, 36.210709799900002 ], [ -115.213023, 36.210709799900002 ], [ -115.213023, 36.210707099899999 ], [ -115.2130311, 36.210707099899999 ], [ -115.2130311, 36.210704399900003 ], [ -115.2130554, 36.210704399900003 ], [ -115.2130554, 36.210707099899999 ], [ -115.2130905, 36.210707099899999 ], [ -115.2130905, 36.210704399900003 ], [ -115.213158, 36.210704399900003 ], [ -115.213158, 36.210707099899999 ], [ -115.2132255, 36.210707099899999 ], [ -115.2132255, 36.210709799900002 ], [ -115.2132309, 36.210709799900002 ], [ -115.2132309, 36.210717899900004 ], [ -115.2132336, 36.210717899900004 ], [ -115.2132336, 36.210758399900001 ], [ -115.2132309, 36.210758399900001 ], [ -115.2132309, 36.210771899900003 ], [ -115.2132282, 36.210771899900003 ], [ -115.2132282, 36.210777299900002 ], [ -115.2132255, 36.210777299900002 ], [ -115.2132255, 36.210782699900001 ] ] ] } },
{ "type": "Feature", "properties": { "value": 255.0 }, "geometry": { "type": "Polygon", "coordinates": [ [ [ -115.2127881, 36.210666599900001 ], [ -115.2127476, 36.210666599900001 ], [ -115.2127476, 36.210523499899999 ], [ -115.2127638, 36.210523499899999 ], [ -115.2127638, 36.210520799900003 ], [ -115.2127935, 36.210520799900003 ], [ -115.2127935, 36.210523499899999 ], [ -115.2128124, 36.210523499899999 ], [ -115.2128124, 36.210526199900002 ], [ -115.2128367, 36.210526199900002 ], [ -115.2128367, 36.210531599900001 ], [ -115.2128394, 36.210531599900001 ], [ -115.2128394, 36.210617999900002 ], [ -115.2128421, 36.210617999900002 ], [ -115.2128421, 36.2106530999 ], [ -115.2128394, 36.2106530999 ], [ -115.2128394, 36.210658499899999 ], [ -115.2128097, 36.210658499899999 ], [ -115.2128097, 36.210661199900002 ], [ -115.2127962, 36.210661199900002 ], [ -115.2127962, 36.210663899899998 ], [ -115.2127881, 36.210663899899998 ], [ -115.2127881, 36.210666599900001 ] ] ] } },
{ "type": "Feature", "properties": { "value": 255.0 }, "geometry": { "type": "Polygon", "coordinates": [ [ [ -115.2129717, 36.210547799899999 ], [ -115.2129366, 36.210547799899999 ], [ -115.2129366, 36.2105423999 ], [ -115.2129339, 36.2105423999 ], [ -115.2129339, 36.210539699900004 ], [ -115.2129366, 36.210539699900004 ], [ -115.2129366, 36.210534299899997 ], [ -115.2129339, 36.210534299899997 ], [ -115.2129339, 36.210528899899998 ], [ -115.2129366, 36.210528899899998 ], [ -115.2129366, 36.210515399900004 ], [ -115.2129393, 36.210515399900004 ], [ -115.2129393, 36.210512699900001 ], [ -115.212969, 36.210512699900001 ], [ -115.212969, 36.210515399900004 ], [ -115.2129717, 36.210515399900004 ], [ -115.2129717, 36.2105180999 ], [ -115.2129744, 36.2105180999 ], [ -115.2129744, 36.210528899899998 ], [ -115.2129717, 36.210528899899998 ], [ -115.2129717, 36.210547799899999 ] ] ] } },
{ "type": "Feature", "properties": { "value": 255.0 }, "geometry": { "type": "Polygon", "coordinates": [ [ [ -115.2135981, 36.210666599900001 ], [ -115.2135819, 36.210666599900001 ], [ -115.2135819, 36.210663899899998 ], [ -115.2135711, 36.210663899899998 ], [ -115.2135711, 36.210661199900002 ], [ -115.2135441, 36.210661199900002 ], [ -115.2135441, 36.210663899899998 ], [ -115.2135279, 36.210663899899998 ], [ -115.2135279, 36.210661199900002 ], [ -115.2135252, 36.210661199900002 ], [ -115.2135252, 36.210650399900004 ], [ -115.2135225, 36.210650399900004 ], [ -115.2135225, 36.210615299899999 ], [ -115.2135198, 36.210615299899999 ], [ -115.2135198, 36.210596399899998 ], [ -115.2135171, 36.210596399899998 ], [ -115.2135171, 36.210558599900004 ], [ -115.2135144, 36.210558599900004 ], [ -115.2135144, 36.210545099900003 ], [ -115.2135279, 36.210545099900003 ], [ -115.2135279, 36.2105423999 ], [ -115.2135738, 36.2105423999 ], [ -115.2135738, 36.210539699900004 ], [ -115.2135765, 36.210539699900004 ], [ -115.2135765, 36.210531599900001 ], [ -115.2135792, 36.210531599900001 ], [ -115.2135792, 36.210520799900003 ], [ -115.2135765, 36.210520799900003 ], [ -115.2135765, 36.210496499900003 ], [ -115.2135792, 36.210496499900003 ], [ -115.2135792, 36.2104937999 ], [ -115.2135927, 36.2104937999 ], [ -115.2135927, 36.210491099900004 ], [ -115.2136494, 36.210491099900004 ], [ -115.2136494, 36.210488399900001 ], [ -115.2136872, 36.210488399900001 ], [ -115.2136872, 36.210491099900004 ], [ -115.2136899, 36.210491099900004 ], [ -115.2136899, 36.210528899899998 ], [ -115.2136926, 36.210528899899998 ], [ -115.2136926, 36.210558599900004 ], [ -115.2136953, 36.210558599900004 ], [ -115.2136953, 36.210593699900002 ], [ -115.213698, 36.210593699900002 ], [ -115.213698, 36.210623399900001 ], [ -115.2137007, 36.210623399900001 ], [ -115.2137007, 36.2106530999 ], [ -115.213698, 36.2106530999 ], [ -115.213698, 36.210655799900003 ], [ -115.213644, 36.210655799900003 ], [ -115.213644, 36.210658499899999 ], [ -115.2136143, 36.210658499899999 ], [ -115.2136143, 36.210661199900002 ], [ -115.2136089, 36.210661199900002 ], [ -115.2136089, 36.210663899899998 ], [ -115.2135981, 36.210663899899998 ], [ -115.2135981, 36.210666599900001 ] ] ] } },
{ "type": "Feature", "properties": { "value": 255.0 }, "geometry": { "type": "Polygon", "coordinates": [ [ [ -115.2131229, 36.2106530999 ], [ -115.2131202, 36.2106530999 ], [ -115.2131202, 36.210650399900004 ], [ -115.2130986, 36.210650399900004 ], [ -115.2130986, 36.2106530999 ], [ -115.2130284, 36.2106530999 ], [ -115.2130284, 36.210650399900004 ], [ -115.213023, 36.210650399900004 ], [ -115.213023, 36.210644999899998 ], [ -115.2130203, 36.210644999899998 ], [ -115.2130203, 36.210580199900001 ], [ -115.2130176, 36.210580199900001 ], [ -115.2130176, 36.210577499899998 ], [ -115.2130041, 36.210577499899998 ], [ -115.2130041, 36.210574799900002 ], [ -115.2129987, 36.210574799900002 ], [ -115.2129987, 36.210577499899998 ], [ -115.2129825, 36.210577499899998 ], [ -115.2129825, 36.210574799900002 ], [ -115.2129798, 36.210574799900002 ], [ -115.2129798, 36.210550499900002 ], [ -115.2129825, 36.210550499900002 ], [ -115.2129825, 36.210534299899997 ], [ -115.2129798, 36.210534299899997 ], [ -115.2129798, 36.210526199900002 ], [ -115.2129825, 36.210526199900002 ], [ -115.2129825, 36.210515399900004 ], [ -115.2129852, 36.210515399900004 ], [ -115.2129852, 36.210512699900001 ], [ -115.2129906, 36.210512699900001 ], [ -115.2129906, 36.210509999899998 ], [ -115.2130041, 36.210509999899998 ], [ -115.2130041, 36.210507299900001 ], [ -115.2130527, 36.210507299900001 ], [ -115.2130527, 36.210509999899998 ], [ -115.2130959, 36.210509999899998 ], [ -115.2130959, 36.210507299900001 ], [ -115.2131634, 36.210507299900001 ], [ -115.2131634, 36.210509999899998 ], [ -115.2131661, 36.210509999899998 ], [ -115.2131661, 36.210545099900003 ], [ -115.2131634, 36.210545099900003 ], [ -115.2131634, 36.210547799899999 ], [ -115.2131607, 36.210547799899999 ], [ -115.2131607, 36.210550499900002 ], [ -115.213158, 36.210550499900002 ], [ -115.213158, 36.210582899900004 ], [ -115.2132282, 36.210582899900004 ], [ -115.2132282, 36.210590999899999 ], [ -115.2132309, 36.210590999899999 ], [ -115.2132309, 36.210601799899997 ], [ -115.2132282, 36.210601799899997 ], [ -115.2132282, 36.210626099900004 ], [ -115.2132309, 36.210626099900004 ], [ -115.2132309, 36.210644999899998 ], [ -115.2132282, 36.210644999899998 ], [ -115.2132282, 36.210647699900001 ], [ -115.2131607, 36.210647699900001 ], [ -115.2131607, 36.210650399900004 ], [ -115.2131229, 36.210650399900004 ], [ -115.2131229, 36.2106530999 ] ] ] } },
{ "type": "Feature", "properties": { "value": 255.0 }, "geometry": { "type": "Polygon", "coordinates": [ [ [ -115.2129042, 36.210512699900001 ], [ -115.2128745, 36.210512699900001 ], [ -115.2128745, 36.210507299900001 ], [ -115.2128718, 36.210507299900001 ], [ -115.2128718, 36.210499199899999 ], [ -115.2128772, 36.210499199899999 ], [ -115.2128772, 36.210496499900003 ], [ -115.2129042, 36.210496499900003 ], [ -115.2129042, 36.210501899900002 ], [ -115.2129069, 36.210501899900002 ], [ -115.2129069, 36.210507299900001 ], [ -115.2129042, 36.210507299900001 ], [ -115.2129042, 36.210512699900001 ] ] ] } },
{ "type": "Feature", "properties": { "value": 255.0 }, "geometry": { "type": "Polygon", "coordinates": [ [ [ -115.2138249, 36.210661199900002 ], [ -115.2138087, 36.210661199900002 ], [ -115.2138087, 36.210658499899999 ], [ -115.2137655, 36.210658499899999 ], [ -115.2137655, 36.210661199900002 ], [ -115.2137439, 36.210661199900002 ], [ -115.2137439, 36.210644999899998 ], [ -115.2137412, 36.210644999899998 ], [ -115.2137412, 36.210617999900002 ], [ -115.2137385, 36.210617999900002 ], [ -115.2137385, 36.210566699899999 ], [ -115.2137358, 36.210566699899999 ], [ -115.2137358, 36.210520799900003 ], [ -115.2137331, 36.210520799900003 ], [ -115.2137331, 36.210491099900004 ], [ -115.2137358, 36.210491099900004 ], [ -115.2137358, 36.210488399900001 ], [ -115.2137628, 36.210488399900001 ], [ -115.2137628, 36.210485699899998 ], [ -115.2137979, 36.210485699899998 ], [ -115.2137979, 36.210482999900002 ], [ -115.2138033, 36.210482999900002 ], [ -115.2138033, 36.210485699899998 ], [ -115.2138411, 36.210485699899998 ], [ -115.2138411, 36.210488399900001 ], [ -115.2138438, 36.210488399900001 ], [ -115.2138438, 36.210491099900004 ], [ -115.2138465, 36.210491099900004 ], [ -115.2138465, 36.210504599899998 ], [ -115.2138492, 36.210504599899998 ], [ -115.2138492, 36.210520799900003 ], [ -115.2138681, 36.210520799900003 ], [ -115.2138681, 36.2105180999 ], [ -115.2139086, 36.2105180999 ], [ -115.2139086, 36.210523499899999 ], [ -115.2139113, 36.210523499899999 ], [ -115.2139113, 36.210539699900004 ], [ -115.213914, 36.210539699900004 ], [ -115.213914, 36.210580199900001 ], [ -115.2139167, 36.210580199900001 ], [ -115.2139167, 36.210620699899998 ], [ -115.2139194, 36.210620699899998 ], [ -115.2139194, 36.210650399900004 ], [ -115.2139167, 36.210650399900004 ], [ -115.2139167, 36.2106530999 ], [ -115.213887, 36.2106530999 ], [ -115.213887, 36.210655799900003 ], [ -115.2138573, 36.210655799900003 ], [ -115.2138573, 36.210658499899999 ], [ -115.2138249, 36.210658499899999 ], [ -115.2138249, 36.210661199900002 ] ] ] } },
{ "type": "Feature", "properties": { "value": 255.0 }, "geometry": { "type": "Polygon", "coordinates": [ [ [ -115.2140301, 36.210663899899998 ], [ -115.2140112, 36.210663899899998 ], [ -115.2140112, 36.210661199900002 ], [ -115.2140085, 36.210661199900002 ], [ -115.2140085, 36.210655799900003 ], [ -115.2140058, 36.210655799900003 ], [ -115.2140058, 36.210644999899998 ], [ -115.2140004, 36.210644999899998 ], [ -115.2140004, 36.210642299900002 ], [ -115.2139842, 36.210642299900002 ], [ -115.2139842, 36.210639599899999 ], [ -115.2139815, 36.210639599899999 ], [ -115.2139815, 36.210604499900001 ], [ -115.2139788, 36.210604499900001 ], [ -115.2139788, 36.210547799899999 ], [ -115.2139815, 36.210547799899999 ], [ -115.2139815, 36.210534299899997 ], [ -115.2139842, 36.210534299899997 ], [ -115.2139842, 36.210528899899998 ], [ -115.2139869, 36.210528899899998 ], [ -115.2139869, 36.210526199900002 ], [ -115.2139923, 36.210526199900002 ], [ -115.2139923, 36.210523499899999 ], [ -115.214022, 36.210523499899999 ], [ -115.214022, 36.210520799900003 ], [ -115.2140247, 36.210520799900003 ], [ -115.2140247, 36.2105180999 ], [ -115.2140301, 36.2105180999 ], [ -115.2140301, 36.210520799900003 ], [ -115.2140328, 36.210520799900003 ], [ -115.2140328, 36.2105180999 ], [ -115.2140355, 36.2105180999 ], [ -115.2140355, 36.210485699899998 ], [ -115.2140382, 36.210485699899998 ], [ -115.2140382, 36.210480299899999 ], [ -115.214049, 36.210480299899999 ], [ -115.214049, 36.210477599900003 ], [ -115.2140706, 36.210477599900003 ], [ -115.2140706, 36.210474899899999 ], [ -115.214103, 36.210474899899999 ], [ -115.214103, 36.210472199900003 ], [ -115.2141408, 36.210472199900003 ], [ -115.2141408, 36.210477599900003 ], [ -115.2141435, 36.210477599900003 ], [ -115.2141435, 36.210485699899998 ], [ -115.2141462, 36.210485699899998 ], [ -115.2141462, 36.210509999899998 ], [ -115.2141489, 36.210509999899998 ], [ -115.2141489, 36.210539699900004 ], [ -115.2141516, 36.210539699900004 ], [ -115.2141516, 36.210550499900002 ], [ -115.2141543, 36.210550499900002 ], [ -115.2141543, 36.210604499900001 ], [ -115.214157, 36.210604499900001 ], [ -115.214157, 36.210634199899999 ], [ -115.2141543, 36.210634199899999 ], [ -115.2141543, 36.210636899900003 ], [ -115.2140895, 36.210636899900003 ], [ -115.2140895, 36.210639599899999 ], [ -115.2140679, 36.210639599899999 ], [ -115.2140679, 36.210642299900002 ], [ -115.2140652, 36.210642299900002 ], [ -115.2140652, 36.210661199900002 ], [ -115.2140301, 36.210661199900002 ], [ -115.2140301, 36.210663899899998 ] ] ] } },
{ "type": "Feature", "properties": { "value": 255.0 }, "geometry": { "type": "Polygon", "coordinates": [ [ [ -115.2129717, 36.210496499900003 ], [ -115.2129609, 36.210496499900003 ], [ -115.2129609, 36.2104937999 ], [ -115.2129582, 36.2104937999 ], [ -115.2129582, 36.210496499900003 ], [ -115.212942, 36.210496499900003 ], [ -115.212942, 36.2104937999 ], [ -115.2129393, 36.2104937999 ], [ -115.2129393, 36.210480299899999 ], [ -115.2129663, 36.210480299899999 ], [ -115.2129663, 36.210477599900003 ], [ -115.2129744, 36.210477599900003 ], [ -115.2129744, 36.210482999900002 ], [ -115.2129771, 36.210482999900002 ], [ -115.2129771, 36.210485699899998 ], [ -115.2129744, 36.210485699899998 ], [ -115.2129744, 36.2104937999 ], [ -115.2129717, 36.2104937999 ], [ -115.2129717, 36.210496499900003 ] ] ] } },
{ "type": "Feature", "properties": { "value": 255.0 }, "geometry": { "type": "Polygon", "coordinates": [ [ [ -115.2143163, 36.210636899900003 ], [ -115.2142164, 36.210636899900003 ], [ -115.2142164, 36.2105855999 ], [ -115.2142137, 36.2105855999 ], [ -115.2142137, 36.2105423999 ], [ -115.214211, 36.2105423999 ], [ -115.214211, 36.210515399900004 ], [ -115.2142083, 36.210515399900004 ], [ -115.2142083, 36.210491099900004 ], [ -115.2142056, 36.210491099900004 ], [ -115.2142056, 36.210464099900001 ], [ -115.2142083, 36.210464099900001 ], [ -115.2142083, 36.210461399899998 ], [ -115.2142488, 36.210461399899998 ], [ -115.2142488, 36.210458699900002 ], [ -115.2142623, 36.210458699900002 ], [ -115.2142623, 36.210461399899998 ], [ -115.2142812, 36.210461399899998 ], [ -115.2142812, 36.210464099900001 ], [ -115.2142839, 36.210464099900001 ], [ -115.2142839, 36.210482999900002 ], [ -115.2142866, 36.210482999900002 ], [ -115.2142866, 36.210501899900002 ], [ -115.214292, 36.210501899900002 ], [ -115.214292, 36.210504599899998 ], [ -115.2143109, 36.210504599899998 ], [ -115.2143109, 36.210501899900002 ], [ -115.21432440000001, 36.210501899900002 ], [ -115.21432440000001, 36.210499199899999 ], [ -115.2143838, 36.210499199899999 ], [ -115.2143838, 36.210507299900001 ], [ -115.2143865, 36.210507299900001 ], [ -115.2143865, 36.210539699900004 ], [ -115.2143892, 36.210539699900004 ], [ -115.2143892, 36.210582899900004 ], [ -115.21439190000001, 36.210582899900004 ], [ -115.21439190000001, 36.2106098999 ], [ -115.2143946, 36.2106098999 ], [ -115.2143946, 36.210623399900001 ], [ -115.21439190000001, 36.210623399900001 ], [ -115.21439190000001, 36.2106287999 ], [ -115.2143784, 36.2106287999 ], [ -115.2143784, 36.210631499900003 ], [ -115.2143433, 36.210631499900003 ], [ -115.2143433, 36.210634199899999 ], [ -115.2143163, 36.210634199899999 ], [ -115.2143163, 36.210636899900003 ] ] ] } },
{ "type": "Feature", "properties": { "value": 255.0 }, "geometry": { "type": "Polygon", "coordinates": [ [ [ -115.2130473, 36.210280499900001 ], [ -115.212996, 36.210280499900001 ], [ -115.212996, 36.210275099900002 ], [ -115.2129933, 36.210275099900002 ], [ -115.2129933, 36.210245399900003 ], [ -115.2129906, 36.210245399900003 ], [ -115.2129906, 36.210234599899998 ], [ -115.2129852, 36.210234599899998 ], [ -115.2129852, 36.210231899900002 ], [ -115.2129744, 36.210231899900002 ], [ -115.2129744, 36.210234599899998 ], [ -115.212969, 36.210234599899998 ], [ -115.212969, 36.210237299900001 ], [ -115.2129663, 36.210237299900001 ], [ -115.2129663, 36.210239999899997 ], [ -115.2129339, 36.210239999899997 ], [ -115.2129339, 36.210237299900001 ], [ -115.2129258, 36.210237299900001 ], [ -115.2129258, 36.210234599899998 ], [ -115.2128934, 36.210234599899998 ], [ -115.2128934, 36.210231899900002 ], [ -115.2128907, 36.210231899900002 ], [ -115.2128907, 36.2101994999 ], [ -115.212888, 36.2101994999 ], [ -115.212888, 36.210161699899999 ], [ -115.2128853, 36.210161699899999 ], [ -115.2128853, 36.210134699900003 ], [ -115.212888, 36.210134699900003 ], [ -115.212888, 36.2101319999 ], [ -115.2129123, 36.2101319999 ], [ -115.2129123, 36.210129299899997 ], [ -115.212915, 36.210129299899997 ], [ -115.212915, 36.210126599900001 ], [ -115.2129177, 36.210126599900001 ], [ -115.2129177, 36.210110399900003 ], [ -115.212915, 36.210110399900003 ], [ -115.212915, 36.2101076999 ], [ -115.2129177, 36.2101076999 ], [ -115.2129177, 36.210104999899997 ], [ -115.2129204, 36.210104999899997 ], [ -115.2129204, 36.210102299900001 ], [ -115.2129744, 36.210102299900001 ], [ -115.2129744, 36.210099599899998 ], [ -115.2130068, 36.210099599899998 ], [ -115.2130068, 36.210096899900002 ], [ -115.2130149, 36.210096899900002 ], [ -115.2130149, 36.210099599899998 ], [ -115.2130203, 36.210099599899998 ], [ -115.2130203, 36.210121199900001 ], [ -115.213023, 36.210121199900001 ], [ -115.213023, 36.210123899899997 ], [ -115.2130554, 36.210123899899997 ], [ -115.2130554, 36.210126599900001 ], [ -115.2130581, 36.210126599900001 ], [ -115.2130581, 36.210129299899997 ], [ -115.2130608, 36.210129299899997 ], [ -115.2130608, 36.210148199899997 ], [ -115.2130635, 36.210148199899997 ], [ -115.2130635, 36.210196799899997 ], [ -115.2130662, 36.210196799899997 ], [ -115.2130662, 36.2102237999 ], [ -115.2130689, 36.2102237999 ], [ -115.2130689, 36.210277799899998 ], [ -115.2130473, 36.210277799899998 ], [ -115.2130473, 36.210280499900001 ] ] ] } },
{ "type": "Feature", "properties": { "value": 255.0 }, "geometry": { "type": "Polygon", "coordinates": [ [ [ -115.213158, 36.210275099900002 ], [ -115.2131364, 36.210275099900002 ], [ -115.2131364, 36.210272399899999 ], [ -115.2131337, 36.210272399899999 ], [ -115.2131337, 36.210269699900003 ], [ -115.213131, 36.210269699900003 ], [ -115.213131, 36.210258899899998 ], [ -115.2131283, 36.210258899899998 ], [ -115.2131283, 36.210239999899997 ], [ -115.213131, 36.210239999899997 ], [ -115.213131, 36.210231899900002 ], [ -115.2131283, 36.210231899900002 ], [ -115.2131283, 36.210188699900002 ], [ -115.2131256, 36.210188699900002 ], [ -115.2131256, 36.2101076999 ], [ -115.2131283, 36.2101076999 ], [ -115.2131283, 36.210104999899997 ], [ -115.2131337, 36.210104999899997 ], [ -115.2131337, 36.210102299900001 ], [ -115.2131823, 36.210102299900001 ], [ -115.2131823, 36.210099599899998 ], [ -115.2132066, 36.210099599899998 ], [ -115.2132066, 36.210096899900002 ], [ -115.2132255, 36.210096899900002 ], [ -115.2132255, 36.210094199899999 ], [ -115.2132444, 36.210094199899999 ], [ -115.2132444, 36.210096899900002 ], [ -115.2132984, 36.210096899900002 ], [ -115.2132984, 36.210104999899997 ], [ -115.2133011, 36.210104999899997 ], [ -115.2133011, 36.210113099899999 ], [ -115.2132984, 36.210113099899999 ], [ -115.2132984, 36.210148199899997 ], [ -115.2133011, 36.210148199899997 ], [ -115.2133011, 36.210177899900003 ], [ -115.2133038, 36.210177899900003 ], [ -115.2133038, 36.210215699899997 ], [ -115.2132984, 36.210215699899997 ], [ -115.2132984, 36.2102183999 ], [ -115.2132552, 36.2102183999 ], [ -115.2132552, 36.210215699899997 ], [ -115.2132498, 36.210215699899997 ], [ -115.2132498, 36.210212999900001 ], [ -115.2132417, 36.210212999900001 ], [ -115.2132417, 36.210210299899998 ], [ -115.2132282, 36.210210299899998 ], [ -115.2132282, 36.210212999900001 ], [ -115.2132066, 36.210212999900001 ], [ -115.2132066, 36.210256199900002 ], [ -115.2132093, 36.210256199900002 ], [ -115.2132093, 36.210269699900003 ], [ -115.2132039, 36.210269699900003 ], [ -115.2132039, 36.210272399899999 ], [ -115.213158, 36.210272399899999 ], [ -115.213158, 36.210275099900002 ] ] ] } },
{ "type": "Feature", "properties": { "value": 255.0 }, "geometry": { "type": "Polygon", "coordinates": [ [ [ -115.2127503, 36.210293999900003 ], [ -115.2127476, 36.210293999900003 ], [ -115.2127476, 36.210123899899997 ], [ -115.2127503, 36.210123899899997 ], [ -115.2127503, 36.210121199900001 ], [ -115.212753, 36.210121199900001 ], [ -115.212753, 36.210096899900002 ], [ -115.2127557, 36.210096899900002 ], [ -115.2127557, 36.210094199899999 ], [ -115.2128151, 36.210094199899999 ], [ -115.2128151, 36.210099599899998 ], [ -115.2128124, 36.210099599899998 ], [ -115.2128124, 36.210113099899999 ], [ -115.2128151, 36.210113099899999 ], [ -115.2128151, 36.210118499899998 ], [ -115.2128475, 36.210118499899998 ], [ -115.2128475, 36.210121199900001 ], [ -115.2128556, 36.210121199900001 ], [ -115.2128556, 36.210126599900001 ], [ -115.2128583, 36.210126599900001 ], [ -115.2128583, 36.210169799900001 ], [ -115.212861, 36.210169799900001 ], [ -115.212861, 36.210210299899998 ], [ -115.2128637, 36.210210299899998 ], [ -115.2128637, 36.2102426999 ], [ -115.212861, 36.2102426999 ], [ -115.212861, 36.210245399900003 ], [ -115.2128502, 36.210245399900003 ], [ -115.2128502, 36.2102426999 ], [ -115.2128475, 36.2102426999 ], [ -115.2128475, 36.210245399900003 ], [ -115.2128286, 36.210245399900003 ], [ -115.2128286, 36.2102426999 ], [ -115.2128205, 36.2102426999 ], [ -115.2128205, 36.210239999899997 ], [ -115.2128097, 36.210239999899997 ], [ -115.2128097, 36.2102426999 ], [ -115.212807, 36.2102426999 ], [ -115.212807, 36.210245399900003 ], [ -115.2128043, 36.210245399900003 ], [ -115.2128043, 36.210253499899999 ], [ -115.2128016, 36.210253499899999 ], [ -115.2128016, 36.210256199900002 ], [ -115.2128043, 36.210256199900002 ], [ -115.2128043, 36.210269699900003 ], [ -115.212807, 36.210269699900003 ], [ -115.212807, 36.210280499900001 ], [ -115.2128043, 36.210280499900001 ], [ -115.2128043, 36.210283199899997 ], [ -115.2127881, 36.210283199899997 ], [ -115.2127881, 36.210285899900001 ], [ -115.2127719, 36.210285899900001 ], [ -115.2127719, 36.210288599900004 ], [ -115.2127611, 36.210288599900004 ], [ -115.2127611, 36.2102912999 ], [ -115.2127503, 36.2102912999 ], [ -115.2127503, 36.210293999900003 ] ] ] } },
{ "type": "Feature", "properties": { "value": 255.0 }, "geometry": { "type": "Polygon", "coordinates": [ [ [ -115.2135063, 36.210258899899998 ], [ -115.2134388, 36.210258899899998 ], [ -115.2134388, 36.210256199900002 ], [ -115.2134037, 36.210256199900002 ], [ -115.2134037, 36.210253499899999 ], [ -115.213401, 36.210253499899999 ], [ -115.213401, 36.210248099899999 ], [ -115.2133983, 36.210248099899999 ], [ -115.2133983, 36.210215699899997 ], [ -115.2133848, 36.210215699899997 ], [ -115.2133848, 36.2102183999 ], [ -115.2133794, 36.2102183999 ], [ -115.2133794, 36.210221099900004 ], [ -115.2133713, 36.210221099900004 ], [ -115.2133713, 36.2102237999 ], [ -115.2133362, 36.2102237999 ], [ -115.2133362, 36.210221099900004 ], [ -115.2133335, 36.210221099900004 ], [ -115.2133335, 36.210188699900002 ], [ -115.2133308, 36.210188699900002 ], [ -115.2133308, 36.210161699899999 ], [ -115.2133281, 36.210161699899999 ], [ -115.2133281, 36.210091499900003 ], [ -115.2133335, 36.210091499900003 ], [ -115.2133335, 36.210088799899999 ], [ -115.2133362, 36.210088799899999 ], [ -115.2133362, 36.210086099900003 ], [ -115.2133389, 36.210086099900003 ], [ -115.2133389, 36.210061799899997 ], [ -115.213401, 36.210061799899997 ], [ -115.213401, 36.2100590999 ], [ -115.213428, 36.2100590999 ], [ -115.213428, 36.210061799899997 ], [ -115.2134307, 36.210061799899997 ], [ -115.2134307, 36.210086099900003 ], [ -115.2134334, 36.210086099900003 ], [ -115.2134334, 36.210088799899999 ], [ -115.2134901, 36.210088799899999 ], [ -115.2134901, 36.210086099900003 ], [ -115.2134955, 36.210086099900003 ], [ -115.2134955, 36.210088799899999 ], [ -115.2135009, 36.210088799899999 ], [ -115.2135009, 36.210091499900003 ], [ -115.2135036, 36.210091499900003 ], [ -115.2135036, 36.210104999899997 ], [ -115.2135063, 36.210104999899997 ], [ -115.2135063, 36.210172499899997 ], [ -115.213509, 36.210172499899997 ], [ -115.213509, 36.210204899899999 ], [ -115.2135117, 36.210204899899999 ], [ -115.2135117, 36.210239999899997 ], [ -115.2135144, 36.210239999899997 ], [ -115.2135144, 36.210253499899999 ], [ -115.2135117, 36.210253499899999 ], [ -115.2135117, 36.210256199900002 ], [ -115.2135063, 36.210256199900002 ], [ -115.2135063, 36.210258899899998 ] ] ] } },
{ "type": "Feature", "properties": { "value": 255.0 }, "geometry": { "type": "Polygon", "coordinates": [ [ [ -115.2139572, 36.210237299900001 ], [ -115.2138573, 36.210237299900001 ], [ -115.2138573, 36.210234599899998 ], [ -115.2138546, 36.210234599899998 ], [ -115.2138546, 36.210202199900003 ], [ -115.2138519, 36.210202199900003 ], [ -115.2138519, 36.210188699900002 ], [ -115.2138438, 36.210188699900002 ], [ -115.2138438, 36.210191399899998 ], [ -115.2138357, 36.210191399899998 ], [ -115.2138357, 36.210194099900001 ], [ -115.2137898, 36.210194099900001 ], [ -115.2137898, 36.210191399899998 ], [ -115.2137871, 36.210191399899998 ], [ -115.2137871, 36.210148199899997 ], [ -115.2137844, 36.210148199899997 ], [ -115.2137844, 36.210118499899998 ], [ -115.2137817, 36.210118499899998 ], [ -115.2137817, 36.210080699899997 ], [ -115.2137844, 36.210080699899997 ], [ -115.2137844, 36.210075299899998 ], [ -115.2137871, 36.210075299899998 ], [ -115.2137871, 36.210072599900002 ], [ -115.2138033, 36.210072599900002 ], [ -115.2138033, 36.210069899899999 ], [ -115.2138276, 36.210069899899999 ], [ -115.2138276, 36.210067199900003 ], [ -115.2138627, 36.210067199900003 ], [ -115.2138627, 36.210069899899999 ], [ -115.2138816, 36.210069899899999 ], [ -115.2138816, 36.210067199900003 ], [ -115.2139572, 36.210067199900003 ], [ -115.2139572, 36.210069899899999 ], [ -115.2139599, 36.210069899899999 ], [ -115.2139599, 36.2101076999 ], [ -115.2139626, 36.2101076999 ], [ -115.2139626, 36.210185999899998 ], [ -115.2139653, 36.210185999899998 ], [ -115.2139653, 36.2102183999 ], [ -115.213968, 36.2102183999 ], [ -115.213968, 36.210231899900002 ], [ -115.2139653, 36.210231899900002 ], [ -115.2139653, 36.210234599899998 ], [ -115.2139572, 36.210234599899998 ], [ -115.2139572, 36.210237299900001 ] ] ] } },
{ "type": "Feature", "properties": { "value": 255.0 }, "geometry": { "type": "Polygon", "coordinates": [ [ [ -115.2144837, 36.210212999900001 ], [ -115.2144459, 36.210212999900001 ], [ -115.2144459, 36.210210299899998 ], [ -115.2144351, 36.210210299899998 ], [ -115.2144351, 36.210207599900002 ], [ -115.2144324, 36.210207599900002 ], [ -115.2144324, 36.210183299900002 ], [ -115.2144297, 36.210183299900002 ], [ -115.2144297, 36.210140099900002 ], [ -115.214427, 36.210140099900002 ], [ -115.214427, 36.210110399900003 ], [ -115.2144243, 36.210110399900003 ], [ -115.2144243, 36.210069899899999 ], [ -115.2144216, 36.210069899899999 ], [ -115.2144216, 36.210042899900003 ], [ -115.2144243, 36.210042899900003 ], [ -115.2144243, 36.2100401999 ], [ -115.214427, 36.2100401999 ], [ -115.214427, 36.210037499899997 ], [ -115.2144837, 36.210037499899997 ], [ -115.2144837, 36.2100401999 ], [ -115.2145026, 36.2100401999 ], [ -115.2145026, 36.210210299899998 ], [ -115.2144837, 36.210210299899998 ], [ -115.2144837, 36.210212999900001 ] ] ] } },
{ "type": "Feature", "properties": { "value": 255.0 }, "geometry": { "type": "Polygon", "coordinates": [ [ [ -115.2136008, 36.210253499899999 ], [ -115.21359, 36.210253499899999 ], [ -115.21359, 36.210250799900003 ], [ -115.2135711, 36.210250799900003 ], [ -115.2135711, 36.210245399900003 ], [ -115.2135684, 36.210245399900003 ], [ -115.2135684, 36.210177899900003 ], [ -115.2135657, 36.210177899900003 ], [ -115.2135657, 36.210148199899997 ], [ -115.213563, 36.210148199899997 ], [ -115.213563, 36.2101076999 ], [ -115.2135603, 36.2101076999 ], [ -115.2135603, 36.210080699899997 ], [ -115.2136278, 36.210080699899997 ], [ -115.2136278, 36.210077999900001 ], [ -115.213644, 36.210077999900001 ], [ -115.213644, 36.210075299899998 ], [ -115.2136467, 36.210075299899998 ], [ -115.2136467, 36.210050999899998 ], [ -115.2136602, 36.210050999899998 ], [ -115.2136602, 36.210053699900001 ], [ -115.2137169, 36.210053699900001 ], [ -115.2137169, 36.210056399899997 ], [ -115.2137196, 36.210056399899997 ], [ -115.2137196, 36.210061799899997 ], [ -115.2137223, 36.210061799899997 ], [ -115.2137223, 36.210067199900003 ], [ -115.213725, 36.210067199900003 ], [ -115.213725, 36.210069899899999 ], [ -115.2137304, 36.210069899899999 ], [ -115.2137304, 36.210072599900002 ], [ -115.2137331, 36.210072599900002 ], [ -115.2137331, 36.210075299899998 ], [ -115.2137358, 36.210075299899998 ], [ -115.2137358, 36.210102299900001 ], [ -115.2137385, 36.210102299900001 ], [ -115.2137385, 36.210140099900002 ], [ -115.2137412, 36.210140099900002 ], [ -115.2137412, 36.210161699899999 ], [ -115.2137439, 36.210161699899999 ], [ -115.2137439, 36.210194099900001 ], [ -115.2137412, 36.210194099900001 ], [ -115.2137412, 36.210196799899997 ], [ -115.2137385, 36.210196799899997 ], [ -115.2137385, 36.2101994999 ], [ -115.213698, 36.2101994999 ], [ -115.213698, 36.210202199900003 ], [ -115.2136737, 36.210202199900003 ], [ -115.2136737, 36.210204899899999 ], [ -115.2136629, 36.210204899899999 ], [ -115.2136629, 36.210207599900002 ], [ -115.2136548, 36.210207599900002 ], [ -115.2136548, 36.210215699899997 ], [ -115.2136521, 36.210215699899997 ], [ -115.2136521, 36.210245399900003 ], [ -115.2136494, 36.210245399900003 ], [ -115.2136494, 36.210248099899999 ], [ -115.2136467, 36.210248099899999 ], [ -115.2136467, 36.210250799900003 ], [ -115.2136008, 36.210250799900003 ], [ -115.2136008, 36.210253499899999 ] ] ] } },
{ "type": "Feature", "properties": { "value": 255.0 }, "geometry": { "type": "Polygon", "coordinates": [ [ [ -115.2143946, 36.210215699899997 ], [ -115.2142974, 36.210215699899997 ], [ -115.2142974, 36.210212999900001 ], [ -115.2142947, 36.210212999900001 ], [ -115.2142947, 36.210185999899998 ], [ -115.214292, 36.210185999899998 ], [ -115.214292, 36.210169799900001 ], [ -115.2142785, 36.210169799900001 ], [ -115.2142785, 36.210172499899997 ], [ -115.2142299, 36.210172499899997 ], [ -115.2142299, 36.210169799900001 ], [ -115.2142272, 36.210169799900001 ], [ -115.2142272, 36.210153599900003 ], [ -115.2142245, 36.210153599900003 ], [ -115.2142245, 36.2101508999 ], [ -115.2142272, 36.2101508999 ], [ -115.2142272, 36.210126599900001 ], [ -115.2142245, 36.210126599900001 ], [ -115.2142245, 36.210110399900003 ], [ -115.2142218, 36.210110399900003 ], [ -115.2142218, 36.210053699900001 ], [ -115.2142326, 36.210053699900001 ], [ -115.2142326, 36.210050999899998 ], [ -115.2142596, 36.210050999899998 ], [ -115.2142596, 36.210048299900002 ], [ -115.2142731, 36.210048299900002 ], [ -115.2142731, 36.210045599899999 ], [ -115.2143163, 36.210045599899999 ], [ -115.2143163, 36.210048299900002 ], [ -115.2143298, 36.210048299900002 ], [ -115.2143298, 36.210045599899999 ], [ -115.2143946, 36.210045599899999 ], [ -115.2143946, 36.210048299900002 ], [ -115.2143973, 36.210048299900002 ], [ -115.2143973, 36.210053699900001 ], [ -115.2144, 36.210053699900001 ], [ -115.2144, 36.210069899899999 ], [ -115.2143973, 36.210069899899999 ], [ -115.2143973, 36.210075299899998 ], [ -115.2144, 36.210075299899998 ], [ -115.2144, 36.210121199900001 ], [ -115.2144027, 36.210121199900001 ], [ -115.2144027, 36.210169799900001 ], [ -115.2144054, 36.210169799900001 ], [ -115.2144054, 36.210212999900001 ], [ -115.2143946, 36.210212999900001 ], [ -115.2143946, 36.210215699899997 ] ] ] } },
{ "type": "Feature", "properties": { "value": 255.0 }, "geometry": { "type": "Polygon", "coordinates": [ [ [ -115.2140517, 36.210231899900002 ], [ -115.213995, 36.210231899900002 ], [ -115.213995, 36.210229199899999 ], [ -115.2139923, 36.210229199899999 ], [ -115.2139923, 36.210212999900001 ], [ -115.2139896, 36.210212999900001 ], [ -115.2139896, 36.210142799899998 ], [ -115.2139869, 36.210142799899998 ], [ -115.2139869, 36.2101319999 ], [ -115.2139896, 36.2101319999 ], [ -115.2139896, 36.210110399900003 ], [ -115.2139869, 36.210110399900003 ], [ -115.2139869, 36.210075299899998 ], [ -115.2139842, 36.210075299899998 ], [ -115.2139842, 36.210069899899999 ], [ -115.2139869, 36.210069899899999 ], [ -115.2139869, 36.2100644999 ], [ -115.2139896, 36.2100644999 ], [ -115.2139896, 36.210061799899997 ], [ -115.2140355, 36.210061799899997 ], [ -115.2140355, 36.2100590999 ], [ -115.2140598, 36.2100590999 ], [ -115.2140598, 36.210056399899997 ], [ -115.2140706, 36.210056399899997 ], [ -115.2140706, 36.2100590999 ], [ -115.2140733, 36.2100590999 ], [ -115.2140733, 36.210056399899997 ], [ -115.2140787, 36.210056399899997 ], [ -115.2140787, 36.210053699900001 ], [ -115.2140868, 36.210053699900001 ], [ -115.2140868, 36.210050999899998 ], [ -115.2140949, 36.210050999899998 ], [ -115.2140949, 36.210053699900001 ], [ -115.2141057, 36.210053699900001 ], [ -115.2141057, 36.210056399899997 ], [ -115.2141273, 36.210056399899997 ], [ -115.2141273, 36.2100590999 ], [ -115.21413, 36.2100590999 ], [ -115.21413, 36.210056399899997 ], [ -115.2141597, 36.210056399899997 ], [ -115.2141597, 36.2100590999 ], [ -115.2141624, 36.2100590999 ], [ -115.2141624, 36.210061799899997 ], [ -115.2141651, 36.210061799899997 ], [ -115.2141651, 36.210069899899999 ], [ -115.2141624, 36.210069899899999 ], [ -115.2141624, 36.210072599900002 ], [ -115.2141651, 36.210072599900002 ], [ -115.2141651, 36.210129299899997 ], [ -115.2141678, 36.210129299899997 ], [ -115.2141678, 36.210169799900001 ], [ -115.2141651, 36.210169799900001 ], [ -115.2141651, 36.2101751999 ], [ -115.2141543, 36.2101751999 ], [ -115.2141543, 36.210177899900003 ], [ -115.2141165, 36.210177899900003 ], [ -115.2141165, 36.2101751999 ], [ -115.2141138, 36.2101751999 ], [ -115.2141138, 36.210172499899997 ], [ -115.2141084, 36.210172499899997 ], [ -115.2141084, 36.210169799900001 ], [ -115.2140787, 36.210169799900001 ], [ -115.2140787, 36.210172499899997 ], [ -115.2140706, 36.210172499899997 ], [ -115.2140706, 36.210229199899999 ], [ -115.2140517, 36.210229199899999 ], [ -115.2140517, 36.210231899900002 ] ] ] } },
{ "type": "Feature", "properties": { "value": 255.0 }, "geometry": { "type": "Polygon", "coordinates": [ [ [ -115.2127503, 36.209953799899999 ], [ -115.2127476, 36.209953799899999 ], [ -115.2127476, 36.209848499899998 ], [ -115.2127692, 36.209848499899998 ], [ -115.2127692, 36.209851199900001 ], [ -115.2127827, 36.209851199900001 ], [ -115.2127827, 36.209853899899997 ], [ -115.2127854, 36.209853899899997 ], [ -115.2127854, 36.2098565999 ], [ -115.2127881, 36.2098565999 ], [ -115.2127881, 36.209861999899999 ], [ -115.2127908, 36.209861999899999 ], [ -115.2127908, 36.2099051999 ], [ -115.2127935, 36.2099051999 ], [ -115.2127935, 36.2099483999 ], [ -115.2127908, 36.2099483999 ], [ -115.2127908, 36.209951099900003 ], [ -115.2127503, 36.209951099900003 ], [ -115.2127503, 36.209953799899999 ] ] ] } },
{ "type": "Feature", "properties": { "value": 255.0 }, "geometry": { "type": "Polygon", "coordinates": [ [ [ -115.2128691, 36.209975399900003 ], [ -115.2128421, 36.209975399900003 ], [ -115.2128421, 36.2099726999 ], [ -115.2128394, 36.2099726999 ], [ -115.2128394, 36.209953799899999 ], [ -115.2128367, 36.209953799899999 ], [ -115.2128367, 36.209942999900001 ], [ -115.212834, 36.209942999900001 ], [ -115.212834, 36.209932199900003 ], [ -115.2128313, 36.209932199900003 ], [ -115.2128313, 36.209915999899998 ], [ -115.2128286, 36.209915999899998 ], [ -115.2128286, 36.209897099899997 ], [ -115.2128259, 36.209897099899997 ], [ -115.2128259, 36.2098808999 ], [ -115.2128232, 36.2098808999 ], [ -115.2128232, 36.209859299899996 ], [ -115.2128259, 36.209859299899996 ], [ -115.2128259, 36.2098565999 ], [ -115.2128583, 36.2098565999 ], [ -115.2128583, 36.209853899899997 ], [ -115.2128772, 36.209853899899997 ], [ -115.2128772, 36.2098565999 ], [ -115.2129123, 36.2098565999 ], [ -115.2129123, 36.209853899899997 ], [ -115.2129285, 36.209853899899997 ], [ -115.2129285, 36.209851199900001 ], [ -115.2129339, 36.209851199900001 ], [ -115.2129339, 36.209848499899998 ], [ -115.2129366, 36.209848499899998 ], [ -115.2129366, 36.209845799900002 ], [ -115.2129447, 36.209845799900002 ], [ -115.2129447, 36.209843099899999 ], [ -115.2129501, 36.209843099899999 ], [ -115.2129501, 36.209840399900003 ], [ -115.2129555, 36.209840399900003 ], [ -115.2129555, 36.2098376999 ], [ -115.2129636, 36.2098376999 ], [ -115.2129636, 36.209834999899996 ], [ -115.2129717, 36.209834999899996 ], [ -115.2129717, 36.2098322999 ], [ -115.2129744, 36.2098322999 ], [ -115.2129744, 36.209834999899996 ], [ -115.2129798, 36.209834999899996 ], [ -115.2129798, 36.2098376999 ], [ -115.2129825, 36.2098376999 ], [ -115.2129825, 36.209840399900003 ], [ -115.2129852, 36.209840399900003 ], [ -115.2129852, 36.209843099899999 ], [ -115.2129879, 36.209843099899999 ], [ -115.2129879, 36.209848499899998 ], [ -115.2129906, 36.209848499899998 ], [ -115.2129906, 36.209853899899997 ], [ -115.2129933, 36.209853899899997 ], [ -115.2129933, 36.209861999899999 ], [ -115.212996, 36.209861999899999 ], [ -115.212996, 36.209867399899998 ], [ -115.2129987, 36.209867399899998 ], [ -115.2129987, 36.209870099900002 ], [ -115.2130014, 36.209870099900002 ], [ -115.2130014, 36.209872799899998 ], [ -115.2130041, 36.209872799899998 ], [ -115.2130041, 36.209894399900001 ], [ -115.2130014, 36.209894399900001 ], [ -115.2130014, 36.209915999899998 ], [ -115.2130041, 36.209915999899998 ], [ -115.2130041, 36.209937599900002 ], [ -115.2130068, 36.209937599900002 ], [ -115.2130068, 36.209953799899999 ], [ -115.2130041, 36.209953799899999 ], [ -115.2130041, 36.209956499900002 ], [ -115.212996, 36.209956499900002 ], [ -115.212996, 36.209959199899998 ], [ -115.2129798, 36.209959199899998 ], [ -115.2129798, 36.209961899900001 ], [ -115.2129609, 36.209961899900001 ], [ -115.2129609, 36.209964599899997 ], [ -115.2129447, 36.209964599899997 ], [ -115.2129447, 36.209967299900001 ], [ -115.2129285, 36.209967299900001 ], [ -115.2129285, 36.209969999899997 ], [ -115.2128961, 36.209969999899997 ], [ -115.2128961, 36.2099726999 ], [ -115.2128691, 36.2099726999 ], [ -115.2128691, 36.209975399900003 ] ] ] } },
{ "type": "Feature", "properties": { "value": 255.0 }, "geometry": { "type": "Polygon", "coordinates": [ [ [ -115.2137196, 36.209907899900003 ], [ -115.2136872, 36.209907899900003 ], [ -115.2136872, 36.2099051999 ], [ -115.2136845, 36.2099051999 ], [ -115.2136845, 36.209894399900001 ], [ -115.2136818, 36.209894399900001 ], [ -115.2136818, 36.209864699900002 ], [ -115.2136791, 36.209864699900002 ], [ -115.2136791, 36.2098322999 ], [ -115.2136764, 36.2098322999 ], [ -115.2136764, 36.209805299899998 ], [ -115.2136953, 36.209805299899998 ], [ -115.2136953, 36.209802599900001 ], [ -115.2137709, 36.209802599900001 ], [ -115.2137709, 36.209805299899998 ], [ -115.2137736, 36.209805299899998 ], [ -115.2137736, 36.209807999900001 ], [ -115.213779, 36.209807999900001 ], [ -115.213779, 36.209810699899997 ], [ -115.2137844, 36.209810699899997 ], [ -115.2137844, 36.2098133999 ], [ -115.2137979, 36.2098133999 ], [ -115.2137979, 36.209816099900003 ], [ -115.2138033, 36.209816099900003 ], [ -115.2138033, 36.209818799899999 ], [ -115.213806, 36.209818799899999 ], [ -115.213806, 36.209859299899996 ], [ -115.2138087, 36.209859299899996 ], [ -115.2138087, 36.209902499899997 ], [ -115.2138006, 36.209902499899997 ], [ -115.2138006, 36.2099051999 ], [ -115.2137196, 36.2099051999 ], [ -115.2137196, 36.209907899900003 ] ] ] } },
{ "type": "Feature", "properties": { "value": 255.0 }, "geometry": { "type": "Polygon", "coordinates": [ [ [ -115.2134982, 36.209951099900003 ], [ -115.2134955, 36.209951099900003 ], [ -115.2134955, 36.2099483999 ], [ -115.2134901, 36.2099483999 ], [ -115.2134901, 36.209945699899997 ], [ -115.2134685, 36.209945699899997 ], [ -115.2134685, 36.209942999900001 ], [ -115.2134604, 36.209942999900001 ], [ -115.2134604, 36.209940299899998 ], [ -115.2134577, 36.209940299899998 ], [ -115.2134577, 36.209932199900003 ], [ -115.213455, 36.209932199900003 ], [ -115.213455, 36.209929499899999 ], [ -115.2134523, 36.209929499899999 ], [ -115.2134523, 36.2099240999 ], [ -115.213455, 36.2099240999 ], [ -115.213455, 36.209918699900001 ], [ -115.2134577, 36.209918699900001 ], [ -115.2134577, 36.209913299900002 ], [ -115.2134496, 36.209913299900002 ], [ -115.2134496, 36.209907899900003 ], [ -115.2134469, 36.209907899900003 ], [ -115.2134469, 36.2099051999 ], [ -115.2134388, 36.2099051999 ], [ -115.2134388, 36.209902499899997 ], [ -115.2134334, 36.209902499899997 ], [ -115.2134334, 36.209899799900001 ], [ -115.2134307, 36.209899799900001 ], [ -115.2134307, 36.209894399900001 ], [ -115.213428, 36.209894399900001 ], [ -115.213428, 36.2098808999 ], [ -115.2134307, 36.2098808999 ], [ -115.2134307, 36.209872799899998 ], [ -115.2134334, 36.209872799899998 ], [ -115.2134334, 36.209867399899998 ], [ -115.2134361, 36.209867399899998 ], [ -115.2134361, 36.209859299899996 ], [ -115.2134388, 36.209859299899996 ], [ -115.2134388, 36.2098565999 ], [ -115.2134415, 36.2098565999 ], [ -115.2134415, 36.209851199900001 ], [ -115.2134442, 36.209851199900001 ], [ -115.2134442, 36.209848499899998 ], [ -115.2134469, 36.209848499899998 ], [ -115.2134469, 36.209843099899999 ], [ -115.2134496, 36.209843099899999 ], [ -115.2134496, 36.209834999899996 ], [ -115.2134523, 36.209834999899996 ], [ -115.2134523, 36.209826899900001 ], [ -115.213455, 36.209826899900001 ], [ -115.213455, 36.209821499900002 ], [ -115.2134577, 36.209821499900002 ], [ -115.2134577, 36.209816099900003 ], [ -115.2134604, 36.209816099900003 ], [ -115.2134604, 36.2098133999 ], [ -115.2134631, 36.2098133999 ], [ -115.2134631, 36.209810699899997 ], [ -115.2134658, 36.209810699899997 ], [ -115.2134658, 36.209807999900001 ], [ -115.2134685, 36.209807999900001 ], [ -115.2134685, 36.209805299899998 ], [ -115.2134766, 36.209805299899998 ], [ -115.2134766, 36.209807999900001 ], [ -115.2134874, 36.209807999900001 ], [ -115.2134874, 36.209810699899997 ], [ -115.2134982, 36.209810699899997 ], [ -115.2134982, 36.2098133999 ], [ -115.2135144, 36.2098133999 ], [ -115.2135144, 36.209810699899997 ], [ -115.2135171, 36.209810699899997 ], [ -115.2135171, 36.209807999900001 ], [ -115.2135225, 36.209807999900001 ], [ -115.2135225, 36.209810699899997 ], [ -115.2135279, 36.209810699899997 ], [ -115.2135279, 36.2098133999 ], [ -115.2135414, 36.2098133999 ], [ -115.2135414, 36.209816099900003 ], [ -115.2135495, 36.209816099900003 ], [ -115.2135495, 36.209818799899999 ], [ -115.2135549, 36.209818799899999 ], [ -115.2135549, 36.209821499900002 ], [ -115.213563, 36.209821499900002 ], [ -115.213563, 36.209824199899998 ], [ -115.2135657, 36.209824199899998 ], [ -115.2135657, 36.209826899900001 ], [ -115.2135738, 36.209826899900001 ], [ -115.2135738, 36.209829599899997 ], [ -115.2135792, 36.209829599899997 ], [ -115.2135792, 36.2098322999 ], [ -115.2135819, 36.2098322999 ], [ -115.2135819, 36.209834999899996 ], [ -115.2135846, 36.209834999899996 ], [ -115.2135846, 36.209843099899999 ], [ -115.2135819, 36.209843099899999 ], [ -115.2135819, 36.209853899899997 ], [ -115.2135792, 36.209853899899997 ], [ -115.2135792, 36.209861999899999 ], [ -115.2135765, 36.209861999899999 ], [ -115.2135765, 36.209870099900002 ], [ -115.2135738, 36.209870099900002 ], [ -115.2135738, 36.209875499900001 ], [ -115.2135711, 36.209875499900001 ], [ -115.2135711, 36.2098808999 ], [ -115.2135684, 36.2098808999 ], [ -115.2135684, 36.209886299899999 ], [ -115.2135657, 36.209886299899999 ], [ -115.2135657, 36.209891699899998 ], [ -115.213563, 36.209891699899998 ], [ -115.213563, 36.209897099899997 ], [ -115.2135603, 36.209897099899997 ], [ -115.2135603, 36.209902499899997 ], [ -115.2135576, 36.209902499899997 ], [ -115.2135576, 36.209907899900003 ], [ -115.2135549, 36.209907899900003 ], [ -115.2135549, 36.209913299900002 ], [ -115.2135522, 36.209913299900002 ], [ -115.2135522, 36.209918699900001 ], [ -115.2135495, 36.209918699900001 ], [ -115.2135495, 36.2099240999 ], [ -115.2135468, 36.2099240999 ], [ -115.2135468, 36.209926799899996 ], [ -115.2135414, 36.209926799899996 ], [ -115.2135414, 36.209929499899999 ], [ -115.213536, 36.209929499899999 ], [ -115.213536, 36.209926799899996 ], [ -115.2135252, 36.209926799899996 ], [ -115.2135252, 36.2099240999 ], [ -115.2135036, 36.2099240999 ], [ -115.2135036, 36.209932199900003 ], [ -115.2135009, 36.209932199900003 ], [ -115.2135009, 36.209945699899997 ], [ -115.2134982, 36.209945699899997 ], [ -115.2134982, 36.209951099900003 ] ] ] } },
{ "type": "Feature", "properties": { "value": 255.0 }, "geometry": { "type": "Polygon", "coordinates": [ [ [ -115.2138924, 36.209888999900002 ], [ -115.21386, 36.209888999900002 ], [ -115.21386, 36.209886299899999 ], [ -115.2138573, 36.209886299899999 ], [ -115.2138573, 36.2098808999 ], [ -115.2138546, 36.2098808999 ], [ -115.2138546, 36.209864699900002 ], [ -115.2138519, 36.209864699900002 ], [ -115.2138519, 36.209848499899998 ], [ -115.2138492, 36.209848499899998 ], [ -115.2138492, 36.209797199900002 ], [ -115.2138546, 36.209797199900002 ], [ -115.2138546, 36.209794499899999 ], [ -115.2138681, 36.209794499899999 ], [ -115.2138681, 36.209791799899996 ], [ -115.2138708, 36.209791799899996 ], [ -115.2138708, 36.2097890999 ], [ -115.2138762, 36.2097890999 ], [ -115.2138762, 36.209786399899997 ], [ -115.2138789, 36.209786399899997 ], [ -115.2138789, 36.209783699900001 ], [ -115.2139302, 36.209783699900001 ], [ -115.2139302, 36.209780999899998 ], [ -115.2139383, 36.209780999899998 ], [ -115.2139383, 36.209783699900001 ], [ -115.213968, 36.209783699900001 ], [ -115.213968, 36.209786399899997 ], [ -115.2139707, 36.209786399899997 ], [ -115.2139707, 36.2097890999 ], [ -115.2139734, 36.2097890999 ], [ -115.2139734, 36.209794499899999 ], [ -115.2139761, 36.209794499899999 ], [ -115.2139761, 36.2098322999 ], [ -115.2139788, 36.2098322999 ], [ -115.2139788, 36.209878199899997 ], [ -115.2139761, 36.209878199899997 ], [ -115.2139761, 36.2098808999 ], [ -115.2139734, 36.2098808999 ], [ -115.2139734, 36.209883599900003 ], [ -115.2139275, 36.209883599900003 ], [ -115.2139275, 36.209886299899999 ], [ -115.2138924, 36.209886299899999 ], [ -115.2138924, 36.209888999900002 ] ] ] } },
{ "type": "Feature", "properties": { "value": 255.0 }, "geometry": { "type": "Polygon", "coordinates": [ [ [ -115.2140517, 36.209891699899998 ], [ -115.214049, 36.209891699899998 ], [ -115.214049, 36.209888999900002 ], [ -115.2140436, 36.209888999900002 ], [ -115.2140436, 36.209886299899999 ], [ -115.2140409, 36.209886299899999 ], [ -115.2140409, 36.209875499900001 ], [ -115.2140382, 36.209875499900001 ], [ -115.2140382, 36.209861999899999 ], [ -115.2140409, 36.209861999899999 ], [ -115.2140409, 36.209845799900002 ], [ -115.2140382, 36.209845799900002 ], [ -115.2140382, 36.2098322999 ], [ -115.2140355, 36.2098322999 ], [ -115.2140355, 36.209829599899997 ], [ -115.2140328, 36.209829599899997 ], [ -115.2140328, 36.209791799899996 ], [ -115.2140301, 36.209791799899996 ], [ -115.2140301, 36.209786399899997 ], [ -115.2140328, 36.209786399899997 ], [ -115.2140328, 36.209778299900002 ], [ -115.2140301, 36.209778299900002 ], [ -115.2140301, 36.209770199899999 ], [ -115.2140517, 36.209770199899999 ], [ -115.2140517, 36.209767499899996 ], [ -115.2140733, 36.209767499899996 ], [ -115.2140733, 36.209770199899999 ], [ -115.2140868, 36.209770199899999 ], [ -115.2140868, 36.209772899900003 ], [ -115.2140922, 36.209772899900003 ], [ -115.2140922, 36.209770199899999 ], [ -115.2141057, 36.209770199899999 ], [ -115.2141057, 36.209767499899996 ], [ -115.2141435, 36.209767499899996 ], [ -115.2141435, 36.2097647999 ], [ -115.2141489, 36.2097647999 ], [ -115.2141489, 36.209767499899996 ], [ -115.2141516, 36.209767499899996 ], [ -115.2141516, 36.209772899900003 ], [ -115.2141543, 36.209772899900003 ], [ -115.2141543, 36.209783699900001 ], [ -115.214157, 36.209783699900001 ], [ -115.214157, 36.209786399899997 ], [ -115.2141597, 36.209786399899997 ], [ -115.2141597, 36.209794499899999 ], [ -115.2141624, 36.209794499899999 ], [ -115.2141624, 36.209840399900003 ], [ -115.2141651, 36.209840399900003 ], [ -115.2141651, 36.2098808999 ], [ -115.2141624, 36.2098808999 ], [ -115.2141624, 36.209883599900003 ], [ -115.2141435, 36.209883599900003 ], [ -115.2141435, 36.209886299899999 ], [ -115.2140949, 36.209886299899999 ], [ -115.2140949, 36.209888999900002 ], [ -115.2140517, 36.209888999900002 ], [ -115.2140517, 36.209891699899998 ] ] ] } },
{ "type": "Feature", "properties": { "value": 255.0 }, "geometry": { "type": "Polygon", "coordinates": [ [ [ -115.2144378, 36.209872799899998 ], [ -115.21439190000001, 36.209872799899998 ], [ -115.21439190000001, 36.209867399899998 ], [ -115.2143892, 36.209867399899998 ], [ -115.2143892, 36.209853899899997 ], [ -115.2143865, 36.209853899899997 ], [ -115.2143865, 36.209824199899998 ], [ -115.2143838, 36.209824199899998 ], [ -115.2143838, 36.209802599900001 ], [ -115.2143811, 36.209802599900001 ], [ -115.2143811, 36.209794499899999 ], [ -115.2143838, 36.209794499899999 ], [ -115.2143838, 36.209770199899999 ], [ -115.2144, 36.209770199899999 ], [ -115.2144, 36.209767499899996 ], [ -115.2144189, 36.209767499899996 ], [ -115.2144189, 36.2097647999 ], [ -115.2144378, 36.2097647999 ], [ -115.2144378, 36.209762099899997 ], [ -115.214454, 36.209762099899997 ], [ -115.214454, 36.2097647999 ], [ -115.2144621, 36.2097647999 ], [ -115.2144621, 36.209767499899996 ], [ -115.2144702, 36.209767499899996 ], [ -115.2144702, 36.209770199899999 ], [ -115.2144918, 36.209770199899999 ], [ -115.2144918, 36.209772899900003 ], [ -115.2144945, 36.209772899900003 ], [ -115.2144945, 36.209770199899999 ], [ -115.2145026, 36.209770199899999 ], [ -115.2145026, 36.209867399899998 ], [ -115.2144675, 36.209867399899998 ], [ -115.2144675, 36.209870099900002 ], [ -115.2144378, 36.209870099900002 ], [ -115.2144378, 36.209872799899998 ] ] ] } },
{ "type": "Feature", "properties": { "value": 255.0 }, "geometry": { "type": "Polygon", "coordinates": [ [ [ -115.2142407, 36.209870099900002 ], [ -115.2142056, 36.209870099900002 ], [ -115.2142056, 36.209867399899998 ], [ -115.2142029, 36.209867399899998 ], [ -115.2142029, 36.209859299899996 ], [ -115.2142002, 36.209859299899996 ], [ -115.2142002, 36.209851199900001 ], [ -115.2141975, 36.209851199900001 ], [ -115.2141975, 36.209810699899997 ], [ -115.2141948, 36.209810699899997 ], [ -115.2141948, 36.209802599900001 ], [ -115.2141975, 36.209802599900001 ], [ -115.2141975, 36.2097890999 ], [ -115.2141948, 36.2097890999 ], [ -115.2141948, 36.209783699900001 ], [ -115.2141975, 36.209783699900001 ], [ -115.2141975, 36.209780999899998 ], [ -115.2142002, 36.209780999899998 ], [ -115.2142002, 36.209778299900002 ], [ -115.2142137, 36.209778299900002 ], [ -115.2142137, 36.209775599899999 ], [ -115.2142218, 36.209775599899999 ], [ -115.2142218, 36.209772899900003 ], [ -115.2142299, 36.209772899900003 ], [ -115.2142299, 36.209770199899999 ], [ -115.2142677, 36.209770199899999 ], [ -115.2142677, 36.209767499899996 ], [ -115.2142812, 36.209767499899996 ], [ -115.2142812, 36.2097647999 ], [ -115.2143163, 36.2097647999 ], [ -115.2143163, 36.209767499899996 ], [ -115.214319, 36.209767499899996 ], [ -115.214319, 36.209770199899999 ], [ -115.2143217, 36.209770199899999 ], [ -115.2143217, 36.209772899900003 ], [ -115.21432440000001, 36.209772899900003 ], [ -115.21432440000001, 36.209826899900001 ], [ -115.2143271, 36.209826899900001 ], [ -115.2143271, 36.209859299899996 ], [ -115.21432440000001, 36.209859299899996 ], [ -115.21432440000001, 36.209861999899999 ], [ -115.2143217, 36.209861999899999 ], [ -115.2143217, 36.209864699900002 ], [ -115.2142758, 36.209864699900002 ], [ -115.2142758, 36.209867399899998 ], [ -115.2142407, 36.209867399899998 ], [ -115.2142407, 36.209870099900002 ] ] ] } },
{ "type": "Feature", "properties": { "value": 255.0 }, "geometry": { "type": "Polygon", "coordinates": [ [ [ -115.2131661, 36.209818799899999 ], [ -115.2131553, 36.209818799899999 ], [ -115.2131553, 36.209816099900003 ], [ -115.2131499, 36.209816099900003 ], [ -115.2131499, 36.2098133999 ], [ -115.2131364, 36.2098133999 ], [ -115.2131364, 36.209816099900003 ], [ -115.213131, 36.209816099900003 ], [ -115.213131, 36.209818799899999 ], [ -115.2131202, 36.209818799899999 ], [ -115.2131202, 36.209816099900003 ], [ -115.2131121, 36.209816099900003 ], [ -115.2131121, 36.2098133999 ], [ -115.2130905, 36.2098133999 ], [ -115.2130905, 36.209810699899997 ], [ -115.2130797, 36.209810699899997 ], [ -115.2130797, 36.209807999900001 ], [ -115.2130635, 36.209807999900001 ], [ -115.2130635, 36.209805299899998 ], [ -115.2130554, 36.209805299899998 ], [ -115.2130554, 36.209802599900001 ], [ -115.2130446, 36.209802599900001 ], [ -115.2130446, 36.209799899899998 ], [ -115.2130338, 36.209799899899998 ], [ -115.2130338, 36.209797199900002 ], [ -115.2130257, 36.209797199900002 ], [ -115.2130257, 36.209794499899999 ], [ -115.2130149, 36.209794499899999 ], [ -115.2130149, 36.209791799899996 ], [ -115.2130095, 36.209791799899996 ], [ -115.2130095, 36.209759399900001 ], [ -115.2130122, 36.209759399900001 ], [ -115.2130122, 36.209737799899997 ], [ -115.2130149, 36.209737799899997 ], [ -115.2130149, 36.209729699900002 ], [ -115.2130122, 36.209729699900002 ], [ -115.2130122, 36.2097215999 ], [ -115.2130149, 36.2097215999 ], [ -115.2130149, 36.209716199900001 ], [ -115.2130122, 36.209716199900001 ], [ -115.2130122, 36.209710799900002 ], [ -115.2130149, 36.209710799900002 ], [ -115.2130149, 36.209708099899999 ], [ -115.2130176, 36.209708099899999 ], [ -115.2130176, 36.209705399900002 ], [ -115.2130203, 36.209705399900002 ], [ -115.2130203, 36.209702699899999 ], [ -115.213023, 36.209702699899999 ], [ -115.213023, 36.209699999899996 ], [ -115.2130284, 36.209699999899996 ], [ -115.2130284, 36.2096972999 ], [ -115.2130311, 36.2096972999 ], [ -115.2130311, 36.209694599899997 ], [ -115.2130554, 36.209694599899997 ], [ -115.2130554, 36.2096972999 ], [ -115.2130662, 36.2096972999 ], [ -115.2130662, 36.209699999899996 ], [ -115.2130824, 36.209699999899996 ], [ -115.2130824, 36.209702699899999 ], [ -115.2130932, 36.209702699899999 ], [ -115.2130932, 36.209705399900002 ], [ -115.213104, 36.209705399900002 ], [ -115.213104, 36.209708099899999 ], [ -115.2131121, 36.209708099899999 ], [ -115.2131121, 36.209710799900002 ], [ -115.2131202, 36.209710799900002 ], [ -115.2131202, 36.209713499899998 ], [ -115.2131283, 36.209713499899998 ], [ -115.2131283, 36.209716199900001 ], [ -115.2131391, 36.209716199900001 ], [ -115.2131391, 36.209718899899997 ], [ -115.2131472, 36.209718899899997 ], [ -115.2131472, 36.2097215999 ], [ -115.2131526, 36.2097215999 ], [ -115.2131526, 36.209724299899996 ], [ -115.2131553, 36.209724299899996 ], [ -115.2131553, 36.209726999899999 ], [ -115.2131607, 36.209726999899999 ], [ -115.2131607, 36.209732399899998 ], [ -115.2131661, 36.209732399899998 ], [ -115.2131661, 36.209735099900001 ], [ -115.2131688, 36.209735099900001 ], [ -115.2131688, 36.209737799899997 ], [ -115.2131715, 36.209737799899997 ], [ -115.2131715, 36.209740499900001 ], [ -115.2131742, 36.209740499900001 ], [ -115.2131742, 36.209772899900003 ], [ -115.2131715, 36.209772899900003 ], [ -115.2131715, 36.209797199900002 ], [ -115.2131688, 36.209797199900002 ], [ -115.2131688, 36.2098133999 ], [ -115.2131661, 36.2098133999 ], [ -115.2131661, 36.209818799899999 ] ] ] } },
{ "type": "Feature", "properties": { "value": 255.0 }, "geometry": { "type": "Polygon", "coordinates": [ [ [ -115.2132768, 36.209775599899999 ], [ -115.2132714, 36.209775599899999 ], [ -115.2132714, 36.209772899900003 ], [ -115.2132687, 36.209772899900003 ], [ -115.2132687, 36.209770199899999 ], [ -115.213266, 36.209770199899999 ], [ -115.213266, 36.209762099899997 ], [ -115.2132633, 36.209762099899997 ], [ -115.2132633, 36.209756699899998 ], [ -115.2132606, 36.209756699899998 ], [ -115.2132606, 36.209751299899999 ], [ -115.2132579, 36.209751299899999 ], [ -115.2132579, 36.209743199899997 ], [ -115.2132552, 36.209743199899997 ], [ -115.2132552, 36.209737799899997 ], [ -115.2132525, 36.209737799899997 ], [ -115.2132525, 36.209729699900002 ], [ -115.2132498, 36.209729699900002 ], [ -115.2132498, 36.2097215999 ], [ -115.2132471, 36.2097215999 ], [ -115.2132471, 36.209713499899998 ], [ -115.2132444, 36.209713499899998 ], [ -115.2132444, 36.209705399900002 ], [ -115.2132417, 36.209705399900002 ], [ -115.2132417, 36.2096972999 ], [ -115.213239, 36.2096972999 ], [ -115.213239, 36.209689199899998 ], [ -115.2132417, 36.209689199899998 ], [ -115.2132417, 36.209686499900002 ], [ -115.2132444, 36.209686499900002 ], [ -115.2132444, 36.209683799899999 ], [ -115.2132525, 36.209683799899999 ], [ -115.2132525, 36.209681099900003 ], [ -115.2132606, 36.209681099900003 ], [ -115.2132606, 36.209683799899999 ], [ -115.2132633, 36.209683799899999 ], [ -115.2132633, 36.209681099900003 ], [ -115.2132687, 36.209681099900003 ], [ -115.2132687, 36.2096783999 ], [ -115.2132741, 36.2096783999 ], [ -115.2132741, 36.209675699899996 ], [ -115.2132795, 36.209675699899996 ], [ -115.2132795, 36.2096729999 ], [ -115.2132849, 36.2096729999 ], [ -115.2132849, 36.209670299899997 ], [ -115.2132903, 36.209670299899997 ], [ -115.2132903, 36.209667599900001 ], [ -115.2133038, 36.209667599900001 ], [ -115.2133038, 36.209664899899998 ], [ -115.2133308, 36.209664899899998 ], [ -115.2133308, 36.209662199900002 ], [ -115.2133524, 36.209662199900002 ], [ -115.2133524, 36.209659499899999 ], [ -115.2133659, 36.209659499899999 ], [ -115.2133659, 36.209656799899996 ], [ -115.2133794, 36.209656799899996 ], [ -115.2133794, 36.2096540999 ], [ -115.2133902, 36.2096540999 ], [ -115.2133902, 36.209656799899996 ], [ -115.2133983, 36.209656799899996 ], [ -115.2133983, 36.209659499899999 ], [ -115.213401, 36.209659499899999 ], [ -115.213401, 36.209664899899998 ], [ -115.2134037, 36.209664899899998 ], [ -115.2134037, 36.209675699899996 ], [ -115.2134064, 36.209675699899996 ], [ -115.2134064, 36.209683799899999 ], [ -115.2134091, 36.209683799899999 ], [ -115.2134091, 36.209689199899998 ], [ -115.2134118, 36.209689199899998 ], [ -115.2134118, 36.209694599899997 ], [ -115.2134145, 36.209694599899997 ], [ -115.2134145, 36.209699999899996 ], [ -115.2134172, 36.209699999899996 ], [ -115.2134172, 36.209705399900002 ], [ -115.2134199, 36.209705399900002 ], [ -115.2134199, 36.209710799900002 ], [ -115.2134226, 36.209710799900002 ], [ -115.2134226, 36.209726999899999 ], [ -115.2134199, 36.209726999899999 ], [ -115.2134199, 36.209729699900002 ], [ -115.2134172, 36.209729699900002 ], [ -115.2134172, 36.209735099900001 ], [ -115.2134145, 36.209735099900001 ], [ -115.2134145, 36.2097458999 ], [ -115.2134118, 36.2097458999 ], [ -115.2134118, 36.209751299899999 ], [ -115.2134091, 36.209751299899999 ], [ -115.2134091, 36.209753999900002 ], [ -115.2134037, 36.209753999900002 ], [ -115.2134037, 36.209756699899998 ], [ -115.2133956, 36.209756699899998 ], [ -115.2133956, 36.209759399900001 ], [ -115.2133875, 36.209759399900001 ], [ -115.2133875, 36.209762099899997 ], [ -115.2133767, 36.209762099899997 ], [ -115.2133767, 36.2097647999 ], [ -115.2133605, 36.2097647999 ], [ -115.2133605, 36.209767499899996 ], [ -115.2133416, 36.209767499899996 ], [ -115.2133416, 36.209770199899999 ], [ -115.2133281, 36.209770199899999 ], [ -115.2133281, 36.209772899900003 ], [ -115.2133173, 36.209772899900003 ], [ -115.2133173, 36.209770199899999 ], [ -115.2133119, 36.209770199899999 ], [ -115.2133119, 36.209767499899996 ], [ -115.2133038, 36.209767499899996 ], [ -115.2133038, 36.209770199899999 ], [ -115.2132903, 36.209770199899999 ], [ -115.2132903, 36.209772899900003 ], [ -115.2132768, 36.209772899900003 ], [ -115.2132768, 36.209775599899999 ] ] ] } },
{ "type": "Feature", "properties": { "value": 255.0 }, "geometry": { "type": "Polygon", "coordinates": [ [ [ -115.2131742, 36.209689199899998 ], [ -115.2131634, 36.209689199899998 ], [ -115.2131634, 36.209686499900002 ], [ -115.213158, 36.209686499900002 ], [ -115.213158, 36.209683799899999 ], [ -115.2131553, 36.209683799899999 ], [ -115.2131553, 36.209667599900001 ], [ -115.213158, 36.209667599900001 ], [ -115.213158, 36.209664899899998 ], [ -115.2131607, 36.209664899899998 ], [ -115.2131607, 36.209662199900002 ], [ -115.2131958, 36.209662199900002 ], [ -115.2131958, 36.209664899899998 ], [ -115.2131985, 36.209664899899998 ], [ -115.2131985, 36.209683799899999 ], [ -115.2131958, 36.209683799899999 ], [ -115.2131958, 36.209686499900002 ], [ -115.2131742, 36.209686499900002 ], [ -115.2131742, 36.209689199899998 ] ] ] } },
{ "type": "Feature", "properties": { "value": 255.0 }, "geometry": { "type": "Polygon", "coordinates": [ [ [ -115.2130581, 36.209632499899996 ], [ -115.2130203, 36.209632499899996 ], [ -115.2130203, 36.2096297999 ], [ -115.2130176, 36.2096297999 ], [ -115.2130176, 36.209618999900002 ], [ -115.2130149, 36.209618999900002 ], [ -115.2130149, 36.209613599900003 ], [ -115.2130068, 36.209613599900003 ], [ -115.2130068, 36.209610899899999 ], [ -115.212996, 36.209610899899999 ], [ -115.212996, 36.209608199899996 ], [ -115.2129933, 36.209608199899996 ], [ -115.2129933, 36.209602799899997 ], [ -115.2129906, 36.209602799899997 ], [ -115.2129906, 36.209581199900001 ], [ -115.2129933, 36.209581199900001 ], [ -115.2129933, 36.209529899899998 ], [ -115.2130284, 36.209529899899998 ], [ -115.2130284, 36.209527199900002 ], [ -115.2130797, 36.209527199900002 ], [ -115.2130797, 36.209524499899999 ], [ -115.2131445, 36.209524499899999 ], [ -115.2131445, 36.209529899899998 ], [ -115.2131472, 36.209529899899998 ], [ -115.2131472, 36.2095379999 ], [ -115.2131499, 36.2095379999 ], [ -115.2131499, 36.209540699899996 ], [ -115.2131526, 36.209540699899996 ], [ -115.2131526, 36.209567699899999 ], [ -115.2131553, 36.209567699899999 ], [ -115.2131553, 36.209581199900001 ], [ -115.213158, 36.209581199900001 ], [ -115.213158, 36.209591999899999 ], [ -115.2131553, 36.209591999899999 ], [ -115.2131553, 36.209613599900003 ], [ -115.2131499, 36.209613599900003 ], [ -115.2131499, 36.209616299899999 ], [ -115.2131337, 36.209616299899999 ], [ -115.2131337, 36.209613599900003 ], [ -115.2131283, 36.209613599900003 ], [ -115.2131283, 36.209608199899996 ], [ -115.2131256, 36.209608199899996 ], [ -115.2131256, 36.209610899899999 ], [ -115.2131229, 36.209610899899999 ], [ -115.2131229, 36.209621699899998 ], [ -115.2131202, 36.209621699899998 ], [ -115.2131202, 36.209624399900001 ], [ -115.2131175, 36.209624399900001 ], [ -115.2131175, 36.209627099899997 ], [ -115.2130986, 36.209627099899997 ], [ -115.2130986, 36.2096297999 ], [ -115.2130581, 36.2096297999 ], [ -115.2130581, 36.209632499899996 ] ] ] } },
{ "type": "Feature", "properties": { "value": 255.0 }, "geometry": { "type": "Polygon", "coordinates": [ [ [ -115.2137709, 36.209610899899999 ], [ -115.2137547, 36.209610899899999 ], [ -115.2137547, 36.209608199899996 ], [ -115.2137466, 36.209608199899996 ], [ -115.2137466, 36.209610899899999 ], [ -115.2137439, 36.209610899899999 ], [ -115.2137439, 36.209608199899996 ], [ -115.2137385, 36.209608199899996 ], [ -115.2137385, 36.209610899899999 ], [ -115.2137007, 36.209610899899999 ], [ -115.2137007, 36.209608199899996 ], [ -115.213698, 36.209608199899996 ], [ -115.213698, 36.209600099900001 ], [ -115.2136953, 36.209600099900001 ], [ -115.2136953, 36.209594699900002 ], [ -115.2136926, 36.209594699900002 ], [ -115.2136926, 36.209591999899999 ], [ -115.2136872, 36.209591999899999 ], [ -115.2136872, 36.209589299899996 ], [ -115.2136791, 36.209589299899996 ], [ -115.2136791, 36.2095865999 ], [ -115.2136764, 36.2095865999 ], [ -115.2136764, 36.209581199900001 ], [ -115.2136737, 36.209581199900001 ], [ -115.2136737, 36.209564999899996 ], [ -115.2136764, 36.209564999899996 ], [ -115.2136764, 36.209546099900003 ], [ -115.2136791, 36.209546099900003 ], [ -115.2136791, 36.209529899899998 ], [ -115.2136764, 36.209529899899998 ], [ -115.2136764, 36.209510999899997 ], [ -115.2136791, 36.209510999899997 ], [ -115.2136791, 36.209505599899998 ], [ -115.2137196, 36.209505599899998 ], [ -115.2137196, 36.209502899900002 ], [ -115.2137439, 36.209502899900002 ], [ -115.2137439, 36.209505599899998 ], [ -115.2137763, 36.209505599899998 ], [ -115.2137763, 36.209508299900001 ], [ -115.2137979, 36.209508299900001 ], [ -115.2137979, 36.2095136999 ], [ -115.2138006, 36.2095136999 ], [ -115.2138006, 36.209589299899996 ], [ -115.2137979, 36.209589299899996 ], [ -115.2137979, 36.209602799899997 ], [ -115.2137952, 36.209602799899997 ], [ -115.2137952, 36.209608199899996 ], [ -115.2137709, 36.209608199899996 ], [ -115.2137709, 36.209610899899999 ] ] ] } },
{ "type": "Feature", "properties": { "value": 255.0 }, "geometry": { "type": "Polygon", "coordinates": [ [ [ -115.2133227, 36.209613599900003 ], [ -115.2132822, 36.209613599900003 ], [ -115.2132822, 36.209610899899999 ], [ -115.2132795, 36.209610899899999 ], [ -115.2132795, 36.2096054999 ], [ -115.2132768, 36.2096054999 ], [ -115.2132768, 36.209591999899999 ], [ -115.2132741, 36.209591999899999 ], [ -115.2132741, 36.209575799900001 ], [ -115.2132633, 36.209575799900001 ], [ -115.2132633, 36.209578499899997 ], [ -115.2132606, 36.209578499899997 ], [ -115.2132606, 36.209575799900001 ], [ -115.2132498, 36.209575799900001 ], [ -115.2132498, 36.209559599899997 ], [ -115.2132525, 36.209559599899997 ], [ -115.2132525, 36.209551499900002 ], [ -115.2132552, 36.209551499900002 ], [ -115.2132552, 36.209543399899999 ], [ -115.2132633, 36.209543399899999 ], [ -115.2132633, 36.209540699899996 ], [ -115.213266, 36.209540699899996 ], [ -115.213266, 36.2095379999 ], [ -115.2132687, 36.2095379999 ], [ -115.2132687, 36.209532599900001 ], [ -115.2132714, 36.209532599900001 ], [ -115.2132714, 36.2095136999 ], [ -115.2132768, 36.2095136999 ], [ -115.2132768, 36.209510999899997 ], [ -115.2133254, 36.209510999899997 ], [ -115.2133254, 36.209508299900001 ], [ -115.2133983, 36.209508299900001 ], [ -115.2133983, 36.209505599899998 ], [ -115.2134091, 36.209505599899998 ], [ -115.2134091, 36.209508299900001 ], [ -115.2134118, 36.209508299900001 ], [ -115.2134118, 36.209559599899997 ], [ -115.2134145, 36.209559599899997 ], [ -115.2134145, 36.209564999899996 ], [ -115.2134118, 36.209564999899996 ], [ -115.2134118, 36.209567699899999 ], [ -115.2134091, 36.209567699899999 ], [ -115.2134091, 36.209570399900002 ], [ -115.2134037, 36.209570399900002 ], [ -115.2134037, 36.209578499899997 ], [ -115.213401, 36.209578499899997 ], [ -115.213401, 36.209581199900001 ], [ -115.2134037, 36.209581199900001 ], [ -115.2134037, 36.209602799899997 ], [ -115.213401, 36.209602799899997 ], [ -115.213401, 36.209608199899996 ], [ -115.2133983, 36.209608199899996 ], [ -115.2133983, 36.209610899899999 ], [ -115.2133227, 36.209610899899999 ], [ -115.2133227, 36.209613599900003 ] ], [ [ -115.2132687, 36.209573099899998 ], [ -115.2132687, 36.209570399900002 ], [ -115.2132714, 36.209570399900002 ], [ -115.2132714, 36.209564999899996 ], [ -115.2132687, 36.209564999899996 ], [ -115.2132687, 36.209548799899999 ], [ -115.2132579, 36.209548799899999 ], [ -115.2132579, 36.209554199899998 ], [ -115.2132606, 36.209554199899998 ], [ -115.2132606, 36.209556899900001 ], [ -115.2132633, 36.209556899900001 ], [ -115.2132633, 36.209564999899996 ], [ -115.2132579, 36.209564999899996 ], [ -115.2132579, 36.209570399900002 ], [ -115.213266, 36.209570399900002 ], [ -115.213266, 36.209573099899998 ], [ -115.2132687, 36.209573099899998 ] ] ] } },
{ "type": "Feature", "properties": { "value": 255.0 }, "geometry": { "type": "Polygon", "coordinates": [ [ [ -115.2140625, 36.209594699900002 ], [ -115.2139842, 36.209594699900002 ], [ -115.2139842, 36.209591999899999 ], [ -115.2139815, 36.209591999899999 ], [ -115.2139815, 36.2095865999 ], [ -115.2139788, 36.2095865999 ], [ -115.2139788, 36.209583899899997 ], [ -115.2139761, 36.209583899899997 ], [ -115.2139761, 36.209581199900001 ], [ -115.2139194, 36.209581199900001 ], [ -115.2139194, 36.209578499899997 ], [ -115.2139113, 36.209578499899997 ], [ -115.2139113, 36.209573099899998 ], [ -115.2139086, 36.209573099899998 ], [ -115.2139086, 36.209492099899997 ], [ -115.2139113, 36.209492099899997 ], [ -115.2139113, 36.209489399900001 ], [ -115.2139167, 36.209489399900001 ], [ -115.2139167, 36.209486699899998 ], [ -115.2139356, 36.209486699899998 ], [ -115.2139356, 36.209483999900002 ], [ -115.2139383, 36.209483999900002 ], [ -115.2139383, 36.209486699899998 ], [ -115.2139437, 36.209486699899998 ], [ -115.2139437, 36.209483999900002 ], [ -115.2139815, 36.209483999900002 ], [ -115.2139815, 36.209486699899998 ], [ -115.2140949, 36.209486699899998 ], [ -115.2140949, 36.209489399900001 ], [ -115.2141003, 36.209489399900001 ], [ -115.2141003, 36.2094947999 ], [ -115.214103, 36.2094947999 ], [ -115.214103, 36.209548799899999 ], [ -115.2141057, 36.209548799899999 ], [ -115.2141057, 36.209567699899999 ], [ -115.214103, 36.209567699899999 ], [ -115.214103, 36.209570399900002 ], [ -115.2141003, 36.209570399900002 ], [ -115.2141003, 36.209573099899998 ], [ -115.2140949, 36.209573099899998 ], [ -115.2140949, 36.209575799900001 ], [ -115.2140895, 36.209575799900001 ], [ -115.2140895, 36.209578499899997 ], [ -115.2140868, 36.209578499899997 ], [ -115.2140868, 36.209583899899997 ], [ -115.2140841, 36.209583899899997 ], [ -115.2140841, 36.209589299899996 ], [ -115.2140814, 36.209589299899996 ], [ -115.2140814, 36.209591999899999 ], [ -115.2140625, 36.209591999899999 ], [ -115.2140625, 36.209594699900002 ] ] ] } },
{ "type": "Feature", "properties": { "value": 255.0 }, "geometry": { "type": "Polygon", "coordinates": [ [ [ -115.2130041, 36.209478599900002 ], [ -115.2129879, 36.209478599900002 ], [ -115.2129879, 36.209475899899999 ], [ -115.2129825, 36.209475899899999 ], [ -115.2129825, 36.209473199899996 ], [ -115.2129798, 36.209473199899996 ], [ -115.2129798, 36.2094704999 ], [ -115.2129771, 36.2094704999 ], [ -115.2129771, 36.209438099899998 ], [ -115.2129744, 36.209438099899998 ], [ -115.2129744, 36.2094272999 ], [ -115.2129771, 36.2094272999 ], [ -115.2129771, 36.209411099900002 ], [ -115.2129744, 36.209411099900002 ], [ -115.2129744, 36.209408399899999 ], [ -115.2129717, 36.209408399899999 ], [ -115.2129717, 36.2094029999 ], [ -115.2129663, 36.2094029999 ], [ -115.2129663, 36.209400299899997 ], [ -115.2129636, 36.209400299899997 ], [ -115.2129636, 36.209373299900001 ], [ -115.2129663, 36.209373299900001 ], [ -115.2129663, 36.209370599899998 ], [ -115.2129825, 36.209370599899998 ], [ -115.2129825, 36.209373299900001 ], [ -115.2130554, 36.209373299900001 ], [ -115.2130554, 36.209370599899998 ], [ -115.2130716, 36.209370599899998 ], [ -115.2130716, 36.209373299900001 ], [ -115.2130743, 36.209373299900001 ], [ -115.2130743, 36.209370599899998 ], [ -115.213104, 36.209370599899998 ], [ -115.213104, 36.209373299900001 ], [ -115.2131067, 36.209373299900001 ], [ -115.2131067, 36.209381399899996 ], [ -115.2131094, 36.209381399899996 ], [ -115.2131094, 36.209416499900001 ], [ -115.2131121, 36.209416499900001 ], [ -115.2131121, 36.2094704999 ], [ -115.2131094, 36.2094704999 ], [ -115.2131094, 36.209473199899996 ], [ -115.2130554, 36.209473199899996 ], [ -115.2130554, 36.209475899899999 ], [ -115.2130041, 36.209475899899999 ], [ -115.2130041, 36.209478599900002 ] ] ] } },
{ "type": "Feature", "properties": { "value": 255.0 }, "geometry": { "type": "Polygon", "coordinates": [ [ [ -115.213374, 36.209462399899998 ], [ -115.2133065, 36.209462399899998 ], [ -115.2133065, 36.209459699900002 ], [ -115.2133038, 36.209459699900002 ], [ -115.2133038, 36.209454299899996 ], [ -115.2133011, 36.209454299899996 ], [ -115.2133011, 36.209408399899999 ], [ -115.2132984, 36.209408399899999 ], [ -115.2132984, 36.2094029999 ], [ -115.2133011, 36.2094029999 ], [ -115.2133011, 36.209394899899998 ], [ -115.2132984, 36.209394899899998 ], [ -115.2132984, 36.2093597999 ], [ -115.213374, 36.2093597999 ], [ -115.213374, 36.209357099899997 ], [ -115.2133875, 36.209357099899997 ], [ -115.2133875, 36.2093597999 ], [ -115.2133929, 36.2093597999 ], [ -115.2133929, 36.209357099899997 ], [ -115.2134037, 36.209357099899997 ], [ -115.2134037, 36.2093597999 ], [ -115.2134064, 36.2093597999 ], [ -115.2134064, 36.209362499899996 ], [ -115.2134091, 36.209362499899996 ], [ -115.2134091, 36.209365199899999 ], [ -115.2134118, 36.209365199899999 ], [ -115.2134118, 36.209367899900002 ], [ -115.2134145, 36.209367899900002 ], [ -115.2134145, 36.209381399899996 ], [ -115.2134172, 36.209381399899996 ], [ -115.2134172, 36.209386799899995 ], [ -115.2134199, 36.209386799899995 ], [ -115.2134199, 36.209400299899997 ], [ -115.2134226, 36.209400299899997 ], [ -115.2134226, 36.2094029999 ], [ -115.2134253, 36.2094029999 ], [ -115.2134253, 36.209435399900002 ], [ -115.2134226, 36.209435399900002 ], [ -115.2134226, 36.209456999899999 ], [ -115.2134199, 36.209456999899999 ], [ -115.2134199, 36.209459699900002 ], [ -115.213374, 36.209459699900002 ], [ -115.213374, 36.209462399899998 ] ] ] } },
{ "type": "Feature", "properties": { "value": 255.0 }, "geometry": { "type": "Polygon", "coordinates": [ [ [ -115.2138303, 36.209443499899997 ], [ -115.2138006, 36.209443499899997 ], [ -115.2138006, 36.209440799900001 ], [ -115.213671, 36.209440799900001 ], [ -115.213671, 36.209438099899998 ], [ -115.2136683, 36.209438099899998 ], [ -115.2136683, 36.209421899900001 ], [ -115.2136656, 36.209421899900001 ], [ -115.2136656, 36.209416499900001 ], [ -115.2136629, 36.209416499900001 ], [ -115.2136629, 36.209411099900002 ], [ -115.2136602, 36.209411099900002 ], [ -115.2136602, 36.209408399899999 ], [ -115.2136548, 36.209408399899999 ], [ -115.2136548, 36.209400299899997 ], [ -115.2136575, 36.209400299899997 ], [ -115.2136575, 36.209392199900002 ], [ -115.2136548, 36.209392199900002 ], [ -115.2136548, 36.209373299900001 ], [ -115.2136575, 36.209373299900001 ], [ -115.2136575, 36.209370599899998 ], [ -115.2136548, 36.209370599899998 ], [ -115.2136548, 36.209362499899996 ], [ -115.2136575, 36.209362499899996 ], [ -115.2136575, 36.209357099899997 ], [ -115.2136602, 36.209357099899997 ], [ -115.2136602, 36.209343599900002 ], [ -115.2136629, 36.209343599900002 ], [ -115.2136629, 36.209340899899999 ], [ -115.2136656, 36.209340899899999 ], [ -115.2136656, 36.209338199899996 ], [ -115.213833, 36.209338199899996 ], [ -115.213833, 36.209340899899999 ], [ -115.2138357, 36.209340899899999 ], [ -115.2138357, 36.209432699899999 ], [ -115.213833, 36.209432699899999 ], [ -115.213833, 36.209440799900001 ], [ -115.2138303, 36.209440799900001 ], [ -115.2138303, 36.209443499899997 ] ] ] } },
{ "type": "Feature", "properties": { "value": 255.0 }, "geometry": { "type": "Polygon", "coordinates": [ [ [ -115.2141057, 36.209435399900002 ], [ -115.2141003, 36.209435399900002 ], [ -115.2141003, 36.209432699899999 ], [ -115.2139329, 36.209432699899999 ], [ -115.2139329, 36.209429999899996 ], [ -115.2139302, 36.209429999899996 ], [ -115.2139302, 36.209419199899997 ], [ -115.2139275, 36.209419199899997 ], [ -115.2139275, 36.209413799899998 ], [ -115.2139248, 36.209413799899998 ], [ -115.2139248, 36.209408399899999 ], [ -115.2139221, 36.209408399899999 ], [ -115.2139221, 36.209405699899996 ], [ -115.2139167, 36.209405699899996 ], [ -115.2139167, 36.209411099900002 ], [ -115.2139113, 36.209411099900002 ], [ -115.2139113, 36.209413799899998 ], [ -115.2139086, 36.209413799899998 ], [ -115.2139086, 36.209416499900001 ], [ -115.2139059, 36.209416499900001 ], [ -115.2139059, 36.209413799899998 ], [ -115.2139005, 36.209413799899998 ], [ -115.2139005, 36.209411099900002 ], [ -115.2138978, 36.209411099900002 ], [ -115.2138978, 36.209389499899999 ], [ -115.2139005, 36.209389499899999 ], [ -115.2139005, 36.209373299900001 ], [ -115.2139032, 36.209373299900001 ], [ -115.2139032, 36.209370599899998 ], [ -115.2139167, 36.209370599899998 ], [ -115.2139167, 36.209365199899999 ], [ -115.2139275, 36.209365199899999 ], [ -115.2139275, 36.209367899900002 ], [ -115.2139302, 36.209367899900002 ], [ -115.2139302, 36.209330099900001 ], [ -115.2140976, 36.209330099900001 ], [ -115.2140976, 36.209332799899997 ], [ -115.2141003, 36.209332799899997 ], [ -115.2141003, 36.209338199899996 ], [ -115.214103, 36.209338199899996 ], [ -115.214103, 36.209343599900002 ], [ -115.2141003, 36.209343599900002 ], [ -115.2141003, 36.209348999900001 ], [ -115.214103, 36.209348999900001 ], [ -115.214103, 36.2093543999 ], [ -115.2141057, 36.2093543999 ], [ -115.2141057, 36.2093597999 ], [ -115.2141084, 36.2093597999 ], [ -115.2141084, 36.209370599899998 ], [ -115.2141111, 36.209370599899998 ], [ -115.2141111, 36.209394899899998 ], [ -115.2141138, 36.209394899899998 ], [ -115.2141138, 36.209400299899997 ], [ -115.2141111, 36.209400299899997 ], [ -115.2141111, 36.209408399899999 ], [ -115.2141138, 36.209408399899999 ], [ -115.2141138, 36.209416499900001 ], [ -115.2141111, 36.209416499900001 ], [ -115.2141111, 36.209432699899999 ], [ -115.2141057, 36.209432699899999 ], [ -115.2141057, 36.209435399900002 ] ] ] } },
{ "type": "Feature", "properties": { "value": 255.0 }, "geometry": { "type": "Polygon", "coordinates": [ [ [ -115.2130446, 36.209216699899997 ], [ -115.2130149, 36.209216699899997 ], [ -115.2130149, 36.209213999900001 ], [ -115.2130095, 36.209213999900001 ], [ -115.2130095, 36.209203199899996 ], [ -115.2130068, 36.209203199899996 ], [ -115.2130068, 36.2092004999 ], [ -115.2130014, 36.2092004999 ], [ -115.2130014, 36.209197799899997 ], [ -115.2129906, 36.209197799899997 ], [ -115.2129906, 36.2092004999 ], [ -115.212969, 36.2092004999 ], [ -115.212969, 36.209197799899997 ], [ -115.2129663, 36.209197799899997 ], [ -115.2129663, 36.209181599899999 ], [ -115.212969, 36.209181599899999 ], [ -115.212969, 36.209138399899999 ], [ -115.2129744, 36.209138399899999 ], [ -115.2129744, 36.209135699899996 ], [ -115.2129879, 36.209135699899996 ], [ -115.2129879, 36.2091329999 ], [ -115.2130392, 36.2091329999 ], [ -115.2130392, 36.209130299899996 ], [ -115.2130419, 36.209130299899996 ], [ -115.2130419, 36.209116799899995 ], [ -115.2130446, 36.209116799899995 ], [ -115.2130446, 36.209111399899996 ], [ -115.2130662, 36.209111399899996 ], [ -115.2130662, 36.2091086999 ], [ -115.2130986, 36.2091086999 ], [ -115.2130986, 36.209114099899999 ], [ -115.2131013, 36.209114099899999 ], [ -115.2131013, 36.2091275999 ], [ -115.2131094, 36.2091275999 ], [ -115.2131094, 36.209130299899996 ], [ -115.2131202, 36.209130299899996 ], [ -115.2131202, 36.2091275999 ], [ -115.213131, 36.2091275999 ], [ -115.213131, 36.209130299899996 ], [ -115.2131364, 36.209130299899996 ], [ -115.2131364, 36.2091275999 ], [ -115.2131661, 36.2091275999 ], [ -115.2131661, 36.209130299899996 ], [ -115.2131715, 36.209130299899996 ], [ -115.2131715, 36.2091329999 ], [ -115.2131742, 36.2091329999 ], [ -115.2131742, 36.209208599900002 ], [ -115.2131688, 36.209208599900002 ], [ -115.2131688, 36.209211299899998 ], [ -115.2131229, 36.209211299899998 ], [ -115.2131229, 36.209213999900001 ], [ -115.2131202, 36.209213999900001 ], [ -115.2131202, 36.209211299899998 ], [ -115.2131121, 36.209211299899998 ], [ -115.2131121, 36.209213999900001 ], [ -115.2130446, 36.209213999900001 ], [ -115.2130446, 36.209216699899997 ] ] ] } },
{ "type": "Feature", "properties": { "value": 255.0 }, "geometry": { "type": "Polygon", "coordinates": [ [ [ -115.2138303, 36.209227499899995 ], [ -115.2137979, 36.209227499899995 ], [ -115.2137979, 36.209224799899999 ], [ -115.213779, 36.209224799899999 ], [ -115.213779, 36.209227499899995 ], [ -115.2137196, 36.209227499899995 ], [ -115.2137196, 36.209224799899999 ], [ -115.2137169, 36.209224799899999 ], [ -115.2137169, 36.209222099899996 ], [ -115.2137142, 36.209222099899996 ], [ -115.2137142, 36.209173499899997 ], [ -115.2137169, 36.209173499899997 ], [ -115.2137169, 36.209168099899998 ], [ -115.2137142, 36.209168099899998 ], [ -115.2137142, 36.209162699899998 ], [ -115.2137169, 36.209162699899998 ], [ -115.2137169, 36.2091518999 ], [ -115.2137196, 36.2091518999 ], [ -115.2137196, 36.209149199899997 ], [ -115.2137223, 36.209149199899997 ], [ -115.2137223, 36.209143799899998 ], [ -115.213725, 36.209143799899998 ], [ -115.213725, 36.209122199900001 ], [ -115.2137304, 36.209122199900001 ], [ -115.2137304, 36.209119499899998 ], [ -115.2137331, 36.209119499899998 ], [ -115.2137331, 36.209122199900001 ], [ -115.2137601, 36.209122199900001 ], [ -115.2137601, 36.209124899899997 ], [ -115.2138033, 36.209124899899997 ], [ -115.2138033, 36.2091275999 ], [ -115.2138357, 36.2091275999 ], [ -115.2138357, 36.209130299899996 ], [ -115.2138384, 36.209130299899996 ], [ -115.2138384, 36.209157299899999 ], [ -115.2138357, 36.209157299899999 ], [ -115.2138357, 36.209195099900001 ], [ -115.2138384, 36.209195099900001 ], [ -115.2138384, 36.209197799899997 ], [ -115.2138357, 36.209197799899997 ], [ -115.2138357, 36.209222099899996 ], [ -115.213833, 36.209222099899996 ], [ -115.213833, 36.209224799899999 ], [ -115.2138303, 36.209224799899999 ], [ -115.2138303, 36.209227499899995 ] ] ] } },
{ "type": "Feature", "properties": { "value": 255.0 }, "geometry": { "type": "Polygon", "coordinates": [ [ [ -115.21413, 36.209216699899997 ], [ -115.214022, 36.209216699899997 ], [ -115.214022, 36.209213999900001 ], [ -115.2140031, 36.209213999900001 ], [ -115.2140031, 36.209208599900002 ], [ -115.2140004, 36.209208599900002 ], [ -115.2140004, 36.209157299899999 ], [ -115.2139977, 36.209157299899999 ], [ -115.2139977, 36.2091329999 ], [ -115.2140004, 36.2091329999 ], [ -115.2140004, 36.209122199900001 ], [ -115.2139977, 36.209122199900001 ], [ -115.2139977, 36.209116799899995 ], [ -115.2140004, 36.209116799899995 ], [ -115.2140004, 36.209114099899999 ], [ -115.2140652, 36.209114099899999 ], [ -115.2140652, 36.209116799899995 ], [ -115.2141192, 36.209116799899995 ], [ -115.2141192, 36.209119499899998 ], [ -115.2141246, 36.209119499899998 ], [ -115.2141246, 36.209130299899996 ], [ -115.2141273, 36.209130299899996 ], [ -115.2141273, 36.209135699899996 ], [ -115.2141246, 36.209135699899996 ], [ -115.2141246, 36.209138399899999 ], [ -115.2141273, 36.209138399899999 ], [ -115.2141273, 36.209149199899997 ], [ -115.21413, 36.209149199899997 ], [ -115.21413, 36.209154599899996 ], [ -115.2141327, 36.209154599899996 ], [ -115.2141327, 36.209165399900002 ], [ -115.2141354, 36.209165399900002 ], [ -115.2141354, 36.209173499899997 ], [ -115.2141327, 36.209173499899997 ], [ -115.2141327, 36.209189699900001 ], [ -115.21413, 36.209189699900001 ], [ -115.21413, 36.209216699899997 ] ] ] } },
{ "type": "Feature", "properties": { "value": 255.0 }, "geometry": { "type": "Polygon", "coordinates": [ [ [ -115.2134388, 36.2092004999 ], [ -115.2134361, 36.2092004999 ], [ -115.2134361, 36.209197799899997 ], [ -115.2133632, 36.209197799899997 ], [ -115.2133632, 36.2092004999 ], [ -115.2133524, 36.2092004999 ], [ -115.2133524, 36.209197799899997 ], [ -115.2133416, 36.209197799899997 ], [ -115.2133416, 36.209195099900001 ], [ -115.2133389, 36.209195099900001 ], [ -115.2133389, 36.209192399899997 ], [ -115.2133362, 36.209192399899997 ], [ -115.2133362, 36.2091518999 ], [ -115.2133389, 36.2091518999 ], [ -115.2133389, 36.209143799899998 ], [ -115.2133362, 36.209143799899998 ], [ -115.2133362, 36.209138399899999 ], [ -115.2133389, 36.209138399899999 ], [ -115.2133389, 36.209124899899997 ], [ -115.2133362, 36.209124899899997 ], [ -115.2133362, 36.209122199900001 ], [ -115.2133389, 36.209122199900001 ], [ -115.2133389, 36.209095199899998 ], [ -115.2133416, 36.209095199899998 ], [ -115.2133416, 36.209092499899995 ], [ -115.213347, 36.209092499899995 ], [ -115.213347, 36.209095199899998 ], [ -115.2133902, 36.209095199899998 ], [ -115.2133902, 36.209097899900001 ], [ -115.2134577, 36.209097899900001 ], [ -115.2134577, 36.209100599899998 ], [ -115.2134604, 36.209100599899998 ], [ -115.2134604, 36.209103299900001 ], [ -115.2134631, 36.209103299900001 ], [ -115.2134631, 36.209111399899996 ], [ -115.2134658, 36.209111399899996 ], [ -115.2134658, 36.209114099899999 ], [ -115.2134631, 36.209114099899999 ], [ -115.2134631, 36.209124899899997 ], [ -115.2134658, 36.209124899899997 ], [ -115.2134658, 36.209130299899996 ], [ -115.2134631, 36.209130299899996 ], [ -115.2134631, 36.209135699899996 ], [ -115.2134658, 36.209135699899996 ], [ -115.2134658, 36.209157299899999 ], [ -115.2134685, 36.209157299899999 ], [ -115.2134685, 36.2091761999 ], [ -115.2134658, 36.2091761999 ], [ -115.2134658, 36.209178899899996 ], [ -115.2134604, 36.209178899899996 ], [ -115.2134604, 36.209181599899999 ], [ -115.2134496, 36.209181599899999 ], [ -115.2134496, 36.209184299899995 ], [ -115.2134469, 36.209184299899995 ], [ -115.2134469, 36.209195099900001 ], [ -115.2134442, 36.209195099900001 ], [ -115.2134442, 36.209197799899997 ], [ -115.2134388, 36.209197799899997 ], [ -115.2134388, 36.2092004999 ] ] ] } },
{ "type": "Feature", "properties": { "value": 255.0 }, "geometry": { "type": "Polygon", "coordinates": [ [ [ -115.2131067, 36.209095199899998 ], [ -115.2130689, 36.209095199899998 ], [ -115.2130689, 36.209092499899995 ], [ -115.2130662, 36.209092499899995 ], [ -115.2130662, 36.209076299899998 ], [ -115.2130635, 36.209076299899998 ], [ -115.2130635, 36.209073599900002 ], [ -115.2130608, 36.209073599900002 ], [ -115.2130608, 36.209070899899999 ], [ -115.2130419, 36.209070899899999 ], [ -115.2130419, 36.209073599900002 ], [ -115.2129906, 36.209073599900002 ], [ -115.2129906, 36.209070899899999 ], [ -115.2129879, 36.209070899899999 ], [ -115.2129879, 36.209068199899995 ], [ -115.2129852, 36.209068199899995 ], [ -115.2129852, 36.209038499899997 ], [ -115.2129825, 36.209038499899997 ], [ -115.2129825, 36.209027699899998 ], [ -115.2131958, 36.209027699899998 ], [ -115.2131958, 36.209062799899996 ], [ -115.2131931, 36.209062799899996 ], [ -115.2131931, 36.209065499899999 ], [ -115.2131445, 36.209065499899999 ], [ -115.2131445, 36.209068199899995 ], [ -115.2131229, 36.209068199899995 ], [ -115.2131229, 36.209087099899996 ], [ -115.2131202, 36.209087099899996 ], [ -115.2131202, 36.209089799899999 ], [ -115.2131175, 36.209089799899999 ], [ -115.2131175, 36.209092499899995 ], [ -115.2131067, 36.209092499899995 ], [ -115.2131067, 36.209095199899998 ] ] ] } },
{ "type": "Feature", "properties": { "value": 255.0 }, "geometry": { "type": "Polygon", "coordinates": [ [ [ -115.2141381, 36.209087099899996 ], [ -115.2141057, 36.209087099899996 ], [ -115.2141057, 36.2090843999 ], [ -115.2140409, 36.2090843999 ], [ -115.2140409, 36.209081699899997 ], [ -115.2140355, 36.209081699899997 ], [ -115.2140355, 36.209078999900001 ], [ -115.2140328, 36.209078999900001 ], [ -115.2140328, 36.209073599900002 ], [ -115.2140193, 36.209073599900002 ], [ -115.2140193, 36.209070899899999 ], [ -115.2140085, 36.209070899899999 ], [ -115.2140085, 36.209073599900002 ], [ -115.2140058, 36.209073599900002 ], [ -115.2140058, 36.209070899899999 ], [ -115.2139977, 36.209070899899999 ], [ -115.2139977, 36.209027699899998 ], [ -115.214157, 36.209027699899998 ], [ -115.214157, 36.209035799900001 ], [ -115.2141597, 36.209035799900001 ], [ -115.2141597, 36.2090411999 ], [ -115.2141624, 36.2090411999 ], [ -115.2141624, 36.209051999899998 ], [ -115.2141651, 36.209051999899998 ], [ -115.2141651, 36.2090600999 ], [ -115.2141624, 36.2090600999 ], [ -115.2141624, 36.209062799899996 ], [ -115.214157, 36.209062799899996 ], [ -115.214157, 36.209065499899999 ], [ -115.2141462, 36.209065499899999 ], [ -115.2141462, 36.209068199899995 ], [ -115.2141435, 36.209068199899995 ], [ -115.2141435, 36.209078999900001 ], [ -115.2141408, 36.209078999900001 ], [ -115.2141408, 36.2090843999 ], [ -115.2141381, 36.2090843999 ], [ -115.2141381, 36.209087099899996 ] ] ] } },
{ "type": "Feature", "properties": { "value": 255.0 }, "geometry": { "type": "Polygon", "coordinates": [ [ [ -115.2138519, 36.209089799899999 ], [ -115.2137925, 36.209089799899999 ], [ -115.2137925, 36.209087099899996 ], [ -115.2137871, 36.209087099899996 ], [ -115.2137871, 36.209089799899999 ], [ -115.2137844, 36.209089799899999 ], [ -115.2137844, 36.209087099899996 ], [ -115.213752, 36.209087099899996 ], [ -115.213752, 36.2090843999 ], [ -115.2137493, 36.2090843999 ], [ -115.2137493, 36.209081699899997 ], [ -115.2137466, 36.209081699899997 ], [ -115.2137466, 36.209062799899996 ], [ -115.2137439, 36.209062799899996 ], [ -115.2137439, 36.2090600999 ], [ -115.2137385, 36.2090600999 ], [ -115.2137385, 36.209057399899997 ], [ -115.2137358, 36.209057399899997 ], [ -115.2137358, 36.209054699900001 ], [ -115.2137331, 36.209054699900001 ], [ -115.2137331, 36.209051999899998 ], [ -115.2137304, 36.209051999899998 ], [ -115.2137304, 36.209054699900001 ], [ -115.2137277, 36.209054699900001 ], [ -115.2137277, 36.209046599899999 ], [ -115.2137304, 36.209046599899999 ], [ -115.2137304, 36.2090411999 ], [ -115.2137277, 36.2090411999 ], [ -115.2137277, 36.209035799900001 ], [ -115.2137304, 36.209035799900001 ], [ -115.2137304, 36.209027699899998 ], [ -115.2138681, 36.209027699899998 ], [ -115.2138681, 36.2090411999 ], [ -115.2138708, 36.2090411999 ], [ -115.2138708, 36.209051999899998 ], [ -115.2138681, 36.209051999899998 ], [ -115.2138681, 36.209054699900001 ], [ -115.2138708, 36.209054699900001 ], [ -115.2138708, 36.209078999900001 ], [ -115.2138681, 36.209078999900001 ], [ -115.2138681, 36.2090843999 ], [ -115.2138654, 36.2090843999 ], [ -115.2138654, 36.209087099899996 ], [ -115.2138519, 36.209087099899996 ], [ -115.2138519, 36.209089799899999 ] ] ] } },
{ "type": "Feature", "properties": { "value": 255.0 }, "geometry": { "type": "Polygon", "coordinates": [ [ [ -115.2134712, 36.209046599899999 ], [ -115.2134118, 36.209046599899999 ], [ -115.2134118, 36.209043899899996 ], [ -115.2133281, 36.209043899899996 ], [ -115.2133281, 36.2090411999 ], [ -115.2133254, 36.2090411999 ], [ -115.2133254, 36.209038499899997 ], [ -115.2133227, 36.209038499899997 ], [ -115.2133227, 36.209027699899998 ], [ -115.2134739, 36.209027699899998 ], [ -115.2134739, 36.209043899899996 ], [ -115.2134712, 36.209043899899996 ], [ -115.2134712, 36.209046599899999 ] ] ] } }
]
}
