{
"type": "FeatureCollection",
"crs": { "type": "name", "properties": { "name": "urn:ogc:def:crs:OGC:1.3:CRS84" } },
"features": [
{ "type": "Feature", "properties": { "value": 255.0 }, "geometry": { "type": "Polygon", "coordinates": [ [ [ -115.2328653, 36.1719755998 ], [ -115.2328248, 36.1719755998 ], [ -115.2328248, 36.171972899800004 ], [ -115.2328113, 36.171972899800004 ], [ -115.2328113, 36.1719755998 ], [ -115.2328032, 36.1719755998 ], [ -115.2328032, 36.171972899800004 ], [ -115.2327978, 36.171972899800004 ], [ -115.2327978, 36.171970199800001 ], [ -115.2327951, 36.171970199800001 ], [ -115.2327951, 36.171964799800001 ], [ -115.2327924, 36.171964799800001 ], [ -115.2327924, 36.171956699799999 ], [ -115.2327897, 36.171956699799999 ], [ -115.2327897, 36.171953999800003 ], [ -115.2327924, 36.171953999800003 ], [ -115.2327924, 36.171945899800001 ], [ -115.2327897, 36.171945899800001 ], [ -115.2327897, 36.171940499800002 ], [ -115.232787, 36.171940499800002 ], [ -115.232787, 36.1719269998 ], [ -115.2327897, 36.1719269998 ], [ -115.2327897, 36.171921599800001 ], [ -115.2327951, 36.171921599800001 ], [ -115.2327951, 36.171899999799997 ], [ -115.2327924, 36.171899999799997 ], [ -115.2327924, 36.171894599799998 ], [ -115.2327897, 36.171894599799998 ], [ -115.2327897, 36.171891899800002 ], [ -115.2327654, 36.171891899800002 ], [ -115.2327654, 36.171889199799999 ], [ -115.2327627, 36.171889199799999 ], [ -115.2327627, 36.171872999800001 ], [ -115.23276, 36.171872999800001 ], [ -115.23276, 36.171843299800003 ], [ -115.2327627, 36.171843299800003 ], [ -115.2327627, 36.171840599799999 ], [ -115.2327681, 36.171840599799999 ], [ -115.2327681, 36.171837899800003 ], [ -115.2327843, 36.171837899800003 ], [ -115.2327843, 36.1718351998 ], [ -115.232787, 36.1718351998 ], [ -115.232787, 36.171832499799997 ], [ -115.2327924, 36.171832499799997 ], [ -115.2327924, 36.171829799800001 ], [ -115.2327978, 36.171829799800001 ], [ -115.2327978, 36.171827099799998 ], [ -115.232886900000011, 36.171827099799998 ], [ -115.232886900000011, 36.171829799800001 ], [ -115.2328896, 36.171829799800001 ], [ -115.2328896, 36.171832499799997 ], [ -115.2328923, 36.171832499799997 ], [ -115.2328923, 36.171870299799998 ], [ -115.232895, 36.171870299799998 ], [ -115.232895, 36.171899999799997 ], [ -115.2328977, 36.171899999799997 ], [ -115.2328977, 36.1719080998 ], [ -115.2329004, 36.1719080998 ], [ -115.2329004, 36.1719269998 ], [ -115.2329031, 36.1719269998 ], [ -115.2329031, 36.171967499799997 ], [ -115.2329004, 36.171967499799997 ], [ -115.2329004, 36.171972899800004 ], [ -115.2328653, 36.171972899800004 ], [ -115.2328653, 36.1719755998 ] ] ] } },
{ "type": "Feature", "properties": { "value": 255.0 }, "geometry": { "type": "Polygon", "coordinates": [ [ [ -115.23227940000001, 36.171983699800002 ], [ -115.2322308, 36.171983699800002 ], [ -115.2322308, 36.171980999799999 ], [ -115.2322281, 36.171980999799999 ], [ -115.2322281, 36.171959399800002 ], [ -115.2322227, 36.171959399800002 ], [ -115.2322227, 36.171956699799999 ], [ -115.2322065, 36.171956699799999 ], [ -115.2322065, 36.171953999800003 ], [ -115.2322038, 36.171953999800003 ], [ -115.2322038, 36.1719512998 ], [ -115.2322011, 36.1719512998 ], [ -115.2322011, 36.171948599800004 ], [ -115.2321147, 36.171948599800004 ], [ -115.2321147, 36.171945899800001 ], [ -115.232112, 36.171945899800001 ], [ -115.232112, 36.171943199799998 ], [ -115.2321093, 36.171943199799998 ], [ -115.2321093, 36.171924299799997 ], [ -115.232112, 36.171924299799997 ], [ -115.232112, 36.171864899799999 ], [ -115.2321147, 36.171864899799999 ], [ -115.2321147, 36.171862199800003 ], [ -115.2321849, 36.171862199800003 ], [ -115.2321849, 36.1718594998 ], [ -115.2321903, 36.1718594998 ], [ -115.2321903, 36.171856799799997 ], [ -115.232193, 36.171856799799997 ], [ -115.232193, 36.171843299800003 ], [ -115.2321903, 36.171843299800003 ], [ -115.2321903, 36.1718351998 ], [ -115.232193, 36.1718351998 ], [ -115.232193, 36.171827099799998 ], [ -115.2321984, 36.171827099799998 ], [ -115.2321984, 36.171824399800002 ], [ -115.2322578, 36.171824399800002 ], [ -115.2322578, 36.171827099799998 ], [ -115.23226050000001, 36.171827099799998 ], [ -115.23226050000001, 36.171829799800001 ], [ -115.2322632, 36.171829799800001 ], [ -115.2322632, 36.171851399799998 ], [ -115.2322659, 36.171851399799998 ], [ -115.2322659, 36.171856799799997 ], [ -115.2322767, 36.171856799799997 ], [ -115.2322767, 36.1718594998 ], [ -115.2322821, 36.1718594998 ], [ -115.2322821, 36.171862199800003 ], [ -115.2322848, 36.171862199800003 ], [ -115.2322848, 36.171886499800003 ], [ -115.2322821, 36.171886499800003 ], [ -115.2322821, 36.171980999799999 ], [ -115.23227940000001, 36.171980999799999 ], [ -115.23227940000001, 36.171983699800002 ] ] ] } },
{ "type": "Feature", "properties": { "value": 255.0 }, "geometry": { "type": "Polygon", "coordinates": [ [ [ -115.23249, 36.171945899800001 ], [ -115.2324171, 36.171945899800001 ], [ -115.2324171, 36.171943199799998 ], [ -115.23241440000001, 36.171943199799998 ], [ -115.23241440000001, 36.171937799799998 ], [ -115.2324063, 36.171937799799998 ], [ -115.2324063, 36.171935099800002 ], [ -115.2323982, 36.171935099800002 ], [ -115.2323982, 36.171937799799998 ], [ -115.2323766, 36.171937799799998 ], [ -115.2323766, 36.171940499800002 ], [ -115.2323658, 36.171940499800002 ], [ -115.2323658, 36.171943199799998 ], [ -115.23234690000001, 36.171943199799998 ], [ -115.23234690000001, 36.171940499800002 ], [ -115.2323226, 36.171940499800002 ], [ -115.2323226, 36.171937799799998 ], [ -115.2323199, 36.171937799799998 ], [ -115.2323199, 36.171932399799999 ], [ -115.2323172, 36.171932399799999 ], [ -115.2323172, 36.171929699800003 ], [ -115.2323145, 36.171929699800003 ], [ -115.2323145, 36.171921599800001 ], [ -115.2323118, 36.171921599800001 ], [ -115.2323118, 36.1719080998 ], [ -115.2323091, 36.1719080998 ], [ -115.2323091, 36.171899999799997 ], [ -115.2323064, 36.171899999799997 ], [ -115.2323064, 36.171881099800004 ], [ -115.2323091, 36.171881099800004 ], [ -115.2323091, 36.171867599800002 ], [ -115.2323064, 36.171867599800002 ], [ -115.2323064, 36.1718594998 ], [ -115.2323091, 36.1718594998 ], [ -115.2323091, 36.1718351998 ], [ -115.2323064, 36.1718351998 ], [ -115.2323064, 36.171810899800001 ], [ -115.2323091, 36.171810899800001 ], [ -115.2323091, 36.171802799799998 ], [ -115.2323118, 36.171802799799998 ], [ -115.2323118, 36.171800099800002 ], [ -115.2323334, 36.171800099800002 ], [ -115.2323334, 36.171797399799999 ], [ -115.2323523, 36.171797399799999 ], [ -115.2323523, 36.171800099800002 ], [ -115.2324252, 36.171800099800002 ], [ -115.2324252, 36.171810899800001 ], [ -115.2324279, 36.171810899800001 ], [ -115.2324279, 36.171818999800003 ], [ -115.2324306, 36.171818999800003 ], [ -115.2324306, 36.171829799800001 ], [ -115.2324333, 36.171829799800001 ], [ -115.2324333, 36.171832499799997 ], [ -115.232436, 36.171832499799997 ], [ -115.232436, 36.1718351998 ], [ -115.2324387, 36.1718351998 ], [ -115.2324387, 36.171837899800003 ], [ -115.2324711, 36.171837899800003 ], [ -115.2324711, 36.171840599799999 ], [ -115.2324765, 36.171840599799999 ], [ -115.2324765, 36.171837899800003 ], [ -115.23248190000001, 36.171837899800003 ], [ -115.23248190000001, 36.171840599799999 ], [ -115.2324873, 36.171840599799999 ], [ -115.2324873, 36.171843299800003 ], [ -115.23249, 36.171843299800003 ], [ -115.23249, 36.171881099800004 ], [ -115.2324927, 36.171881099800004 ], [ -115.2324927, 36.1718837998 ], [ -115.2324954, 36.1718837998 ], [ -115.2324954, 36.171932399799999 ], [ -115.2324927, 36.171932399799999 ], [ -115.2324927, 36.171943199799998 ], [ -115.23249, 36.171943199799998 ], [ -115.23249, 36.171945899800001 ] ] ] } },
{ "type": "Feature", "properties": { "value": 255.0 }, "geometry": { "type": "Polygon", "coordinates": [ [ [ -115.2320796, 36.171945899800001 ], [ -115.2320526, 36.171945899800001 ], [ -115.2320526, 36.171775799800002 ], [ -115.23207690000001, 36.171775799800002 ], [ -115.23207690000001, 36.171778499799998 ], [ -115.2320796, 36.171778499799998 ], [ -115.2320796, 36.171781199800002 ], [ -115.2320823, 36.171781199800002 ], [ -115.2320823, 36.171894599799998 ], [ -115.2320796, 36.171894599799998 ], [ -115.2320796, 36.171945899800001 ] ] ] } },
{ "type": "Feature", "properties": { "value": 255.0 }, "geometry": { "type": "Polygon", "coordinates": [ [ [ -115.2322929, 36.1717919998 ], [ -115.232274, 36.1717919998 ], [ -115.232274, 36.171789299799997 ], [ -115.2322551, 36.171789299799997 ], [ -115.2322551, 36.171783899799998 ], [ -115.2322524, 36.171783899799998 ], [ -115.2322524, 36.171746099800004 ], [ -115.2322551, 36.171746099800004 ], [ -115.2322551, 36.1717433998 ], [ -115.2322632, 36.1717433998 ], [ -115.2322632, 36.171740699799997 ], [ -115.2322713, 36.171740699799997 ], [ -115.2322713, 36.1717433998 ], [ -115.2322875, 36.1717433998 ], [ -115.2322875, 36.171740699799997 ], [ -115.2322902, 36.171740699799997 ], [ -115.2322902, 36.1717433998 ], [ -115.2322956, 36.1717433998 ], [ -115.2322956, 36.1717487998 ], [ -115.2322983, 36.1717487998 ], [ -115.2322983, 36.171783899799998 ], [ -115.2322956, 36.171783899799998 ], [ -115.2322956, 36.171789299799997 ], [ -115.2322929, 36.171789299799997 ], [ -115.2322929, 36.1717919998 ] ] ] } },
{ "type": "Feature", "properties": { "value": 255.0 }, "geometry": { "type": "Polygon", "coordinates": [ [ [ -115.2327708, 36.171802799799998 ], [ -115.2327033, 36.171802799799998 ], [ -115.2327033, 36.171800099800002 ], [ -115.2326817, 36.171800099800002 ], [ -115.2326817, 36.171729899799999 ], [ -115.232679, 36.171729899799999 ], [ -115.232679, 36.171692099799998 ], [ -115.2326763, 36.171692099799998 ], [ -115.2326763, 36.171686699799999 ], [ -115.232679, 36.171686699799999 ], [ -115.232679, 36.1716758998 ], [ -115.2326817, 36.1716758998 ], [ -115.2326817, 36.171673199799997 ], [ -115.232684400000011, 36.171673199799997 ], [ -115.232684400000011, 36.171670499800001 ], [ -115.2326871, 36.171670499800001 ], [ -115.2326871, 36.171667799799998 ], [ -115.2327033, 36.171667799799998 ], [ -115.2327033, 36.171665099800002 ], [ -115.2327222, 36.171665099800002 ], [ -115.2327222, 36.171662399799999 ], [ -115.2327843, 36.171662399799999 ], [ -115.2327843, 36.171659699800003 ], [ -115.2328842, 36.171659699800003 ], [ -115.2328842, 36.171662399799999 ], [ -115.232886900000011, 36.171662399799999 ], [ -115.232886900000011, 36.171673199799997 ], [ -115.2328896, 36.171673199799997 ], [ -115.2328896, 36.171713699800002 ], [ -115.232886900000011, 36.171713699800002 ], [ -115.232886900000011, 36.171727199800003 ], [ -115.2328842, 36.171727199800003 ], [ -115.2328842, 36.171729899799999 ], [ -115.2328815, 36.171729899799999 ], [ -115.2328815, 36.171732599800002 ], [ -115.2328788, 36.171732599800002 ], [ -115.2328788, 36.171737999800001 ], [ -115.2328761, 36.171737999800001 ], [ -115.2328761, 36.171740699799997 ], [ -115.2328734, 36.171740699799997 ], [ -115.2328734, 36.171751499800003 ], [ -115.2328761, 36.171751499800003 ], [ -115.2328761, 36.1717919998 ], [ -115.2328734, 36.1717919998 ], [ -115.2328734, 36.171797399799999 ], [ -115.2328707, 36.171797399799999 ], [ -115.2328707, 36.171800099800002 ], [ -115.2327708, 36.171800099800002 ], [ -115.2327708, 36.171802799799998 ] ] ] } },
{ "type": "Feature", "properties": { "value": 255.0 }, "geometry": { "type": "Polygon", "coordinates": [ [ [ -115.2322173, 36.171613799799999 ], [ -115.2322065, 36.171613799799999 ], [ -115.2322065, 36.171611099800003 ], [ -115.2322038, 36.171611099800003 ], [ -115.2322038, 36.1716083998 ], [ -115.2322011, 36.1716083998 ], [ -115.2322011, 36.171605699799997 ], [ -115.2322038, 36.171605699799997 ], [ -115.2322038, 36.171602999800001 ], [ -115.23221190000001, 36.171602999800001 ], [ -115.23221190000001, 36.171605699799997 ], [ -115.2322146, 36.171605699799997 ], [ -115.2322146, 36.1716083998 ], [ -115.2322173, 36.1716083998 ], [ -115.2322173, 36.171605699799997 ], [ -115.2322227, 36.171605699799997 ], [ -115.2322227, 36.1716083998 ], [ -115.2322254, 36.1716083998 ], [ -115.2322254, 36.171611099800003 ], [ -115.2322173, 36.171611099800003 ], [ -115.2322173, 36.171613799799999 ] ] ] } },
{ "type": "Feature", "properties": { "value": 255.0 }, "geometry": { "type": "Polygon", "coordinates": [ [ [ -115.2321066, 36.171638099799999 ], [ -115.2320688, 36.171638099799999 ], [ -115.2320688, 36.171635399800003 ], [ -115.2320661, 36.171635399800003 ], [ -115.2320661, 36.171638099799999 ], [ -115.2320634, 36.171638099799999 ], [ -115.2320634, 36.171635399800003 ], [ -115.2320526, 36.171635399800003 ], [ -115.2320526, 36.171554399800002 ], [ -115.2320553, 36.171554399800002 ], [ -115.2320553, 36.171557099799998 ], [ -115.2320661, 36.171557099799998 ], [ -115.2320661, 36.171554399800002 ], [ -115.2320958, 36.171554399800002 ], [ -115.2320958, 36.171557099799998 ], [ -115.2321012, 36.171557099799998 ], [ -115.2321012, 36.171559799800001 ], [ -115.2321039, 36.171559799800001 ], [ -115.2321039, 36.1715651998 ], [ -115.2321066, 36.1715651998 ], [ -115.2321066, 36.171573299800002 ], [ -115.2321093, 36.171573299800002 ], [ -115.2321093, 36.171578699800001 ], [ -115.232112, 36.171578699800001 ], [ -115.232112, 36.171581399799997 ], [ -115.2321147, 36.171581399799997 ], [ -115.2321147, 36.171586799799996 ], [ -115.2321174, 36.171586799799996 ], [ -115.2321174, 36.171594899799999 ], [ -115.2321201, 36.171594899799999 ], [ -115.2321201, 36.171600299799998 ], [ -115.2321228, 36.171600299799998 ], [ -115.2321228, 36.171605699799997 ], [ -115.2321255, 36.171605699799997 ], [ -115.2321255, 36.171624599799998 ], [ -115.2321282, 36.171624599799998 ], [ -115.2321282, 36.171627299800001 ], [ -115.2321255, 36.171627299800001 ], [ -115.2321255, 36.1716326998 ], [ -115.2321228, 36.1716326998 ], [ -115.2321228, 36.171635399800003 ], [ -115.2321066, 36.171635399800003 ], [ -115.2321066, 36.171638099799999 ] ] ] } },
{ "type": "Feature", "properties": { "value": 255.0 }, "geometry": { "type": "Polygon", "coordinates": [ [ [ -115.2328815, 36.171627299800001 ], [ -115.2328734, 36.171627299800001 ], [ -115.2328734, 36.171624599799998 ], [ -115.2327924, 36.171624599799998 ], [ -115.2327924, 36.171621899800002 ], [ -115.2327897, 36.171621899800002 ], [ -115.2327897, 36.171616499800002 ], [ -115.232787, 36.171616499800002 ], [ -115.232787, 36.171557099799998 ], [ -115.2327843, 36.171557099799998 ], [ -115.2327843, 36.171554399800002 ], [ -115.2327438, 36.171554399800002 ], [ -115.2327438, 36.171551699799998 ], [ -115.2327384, 36.171551699799998 ], [ -115.2327384, 36.171543599800003 ], [ -115.2327357, 36.171543599800003 ], [ -115.2327357, 36.171535499800001 ], [ -115.2327384, 36.171535499800001 ], [ -115.2327384, 36.171508499799998 ], [ -115.2327411, 36.171508499799998 ], [ -115.2327411, 36.171505799800002 ], [ -115.2327546, 36.171505799800002 ], [ -115.2327546, 36.171503099799999 ], [ -115.2327573, 36.171503099799999 ], [ -115.2327573, 36.171505799800002 ], [ -115.2327762, 36.171505799800002 ], [ -115.2327762, 36.171503099799999 ], [ -115.23278160000001, 36.171503099799999 ], [ -115.23278160000001, 36.171505799800002 ], [ -115.232787, 36.171505799800002 ], [ -115.232787, 36.171484199799998 ], [ -115.2327897, 36.171484199799998 ], [ -115.2327897, 36.171478799799999 ], [ -115.2327924, 36.171478799799999 ], [ -115.2327924, 36.171476099800003 ], [ -115.2328626, 36.171476099800003 ], [ -115.2328626, 36.171478799799999 ], [ -115.2328707, 36.171478799799999 ], [ -115.2328707, 36.171481499800002 ], [ -115.2328734, 36.171481499800002 ], [ -115.2328734, 36.171484199799998 ], [ -115.2328761, 36.171484199799998 ], [ -115.2328761, 36.171486899800001 ], [ -115.2328788, 36.171486899800001 ], [ -115.2328788, 36.171492299800001 ], [ -115.2328815, 36.171492299800001 ], [ -115.2328815, 36.171503099799999 ], [ -115.2328842, 36.171503099799999 ], [ -115.2328842, 36.171513899799997 ], [ -115.232886900000011, 36.171513899799997 ], [ -115.232886900000011, 36.1715165998 ], [ -115.232895, 36.1715165998 ], [ -115.232895, 36.171519299799996 ], [ -115.2329004, 36.171519299799996 ], [ -115.2329004, 36.171521999799999 ], [ -115.2329031, 36.171521999799999 ], [ -115.2329031, 36.171548999800002 ], [ -115.2329004, 36.171548999800002 ], [ -115.2329004, 36.171551699799998 ], [ -115.2328977, 36.171551699799998 ], [ -115.2328977, 36.171554399800002 ], [ -115.232895, 36.171554399800002 ], [ -115.232895, 36.1715651998 ], [ -115.2328923, 36.1715651998 ], [ -115.2328923, 36.171570599799999 ], [ -115.232895, 36.171570599799999 ], [ -115.232895, 36.171621899800002 ], [ -115.2328923, 36.171621899800002 ], [ -115.2328923, 36.171624599799998 ], [ -115.2328815, 36.171624599799998 ], [ -115.2328815, 36.171627299800001 ] ] ] } },
{ "type": "Feature", "properties": { "value": 255.0 }, "geometry": { "type": "Polygon", "coordinates": [ [ [ -115.2322524, 36.171621899800002 ], [ -115.232247, 36.171621899800002 ], [ -115.232247, 36.171619199799999 ], [ -115.2322443, 36.171619199799999 ], [ -115.2322443, 36.171616499800002 ], [ -115.2322389, 36.171616499800002 ], [ -115.2322389, 36.171611099800003 ], [ -115.2322362, 36.171611099800003 ], [ -115.2322362, 36.1716083998 ], [ -115.2322308, 36.1716083998 ], [ -115.2322308, 36.171605699799997 ], [ -115.2322281, 36.171605699799997 ], [ -115.2322281, 36.171602999800001 ], [ -115.2322254, 36.171602999800001 ], [ -115.2322254, 36.171600299799998 ], [ -115.2322227, 36.171600299799998 ], [ -115.2322227, 36.171597599800002 ], [ -115.2322173, 36.171597599800002 ], [ -115.2322173, 36.1715894998 ], [ -115.2321984, 36.1715894998 ], [ -115.2321984, 36.171592199800003 ], [ -115.2321903, 36.171592199800003 ], [ -115.2321903, 36.171594899799999 ], [ -115.2321741, 36.171594899799999 ], [ -115.2321741, 36.171592199800003 ], [ -115.2321714, 36.171592199800003 ], [ -115.2321714, 36.1715894998 ], [ -115.2321687, 36.1715894998 ], [ -115.2321687, 36.171586799799996 ], [ -115.232166, 36.171586799799996 ], [ -115.232166, 36.171581399799997 ], [ -115.2321633, 36.171581399799997 ], [ -115.2321633, 36.171578699800001 ], [ -115.2321606, 36.171578699800001 ], [ -115.2321606, 36.171573299800002 ], [ -115.2321579, 36.171573299800002 ], [ -115.2321579, 36.171570599799999 ], [ -115.2321552, 36.171570599799999 ], [ -115.2321552, 36.1715651998 ], [ -115.2321525, 36.1715651998 ], [ -115.2321525, 36.171559799800001 ], [ -115.2321498, 36.171559799800001 ], [ -115.2321498, 36.171557099799998 ], [ -115.2321471, 36.171557099799998 ], [ -115.2321471, 36.171551699799998 ], [ -115.23214440000001, 36.171551699799998 ], [ -115.23214440000001, 36.171548999800002 ], [ -115.2321417, 36.171548999800002 ], [ -115.2321417, 36.171546299799999 ], [ -115.232139, 36.171546299799999 ], [ -115.232139, 36.1715408998 ], [ -115.2321363, 36.1715408998 ], [ -115.2321363, 36.171538199799997 ], [ -115.2321336, 36.171538199799997 ], [ -115.2321336, 36.171532799799998 ], [ -115.2321309, 36.171532799799998 ], [ -115.2321309, 36.171527399799999 ], [ -115.2321282, 36.171527399799999 ], [ -115.2321282, 36.171524699800003 ], [ -115.2321255, 36.171524699800003 ], [ -115.2321255, 36.171521999799999 ], [ -115.2321228, 36.171521999799999 ], [ -115.2321228, 36.171513899799997 ], [ -115.2321255, 36.171513899799997 ], [ -115.2321255, 36.171511199800001 ], [ -115.2321309, 36.171511199800001 ], [ -115.2321309, 36.171508499799998 ], [ -115.2321363, 36.171508499799998 ], [ -115.2321363, 36.171505799800002 ], [ -115.2321417, 36.171505799800002 ], [ -115.2321417, 36.171503099799999 ], [ -115.2321498, 36.171503099799999 ], [ -115.2321498, 36.171500399800003 ], [ -115.2321552, 36.171500399800003 ], [ -115.2321552, 36.1714976998 ], [ -115.2321606, 36.1714976998 ], [ -115.2321606, 36.171494999799997 ], [ -115.232166, 36.171494999799997 ], [ -115.232166, 36.171492299800001 ], [ -115.2321741, 36.171492299800001 ], [ -115.2321741, 36.171489599799997 ], [ -115.2321795, 36.171489599799997 ], [ -115.2321795, 36.171486899800001 ], [ -115.2321849, 36.171486899800001 ], [ -115.2321849, 36.171484199799998 ], [ -115.2321903, 36.171484199799998 ], [ -115.2321903, 36.171481499800002 ], [ -115.232193, 36.171481499800002 ], [ -115.232193, 36.171478799799999 ], [ -115.2322011, 36.171478799799999 ], [ -115.2322011, 36.171476099800003 ], [ -115.2322065, 36.171476099800003 ], [ -115.2322065, 36.1714733998 ], [ -115.23221190000001, 36.1714733998 ], [ -115.23221190000001, 36.171470699799997 ], [ -115.23222, 36.171470699799997 ], [ -115.23222, 36.171467999800001 ], [ -115.2322281, 36.171467999800001 ], [ -115.2322281, 36.171465299799998 ], [ -115.2322335, 36.171465299799998 ], [ -115.2322335, 36.171462599800002 ], [ -115.2322416, 36.171462599800002 ], [ -115.2322416, 36.171459899799999 ], [ -115.2322443, 36.171459899799999 ], [ -115.2322443, 36.171457199800003 ], [ -115.2322497, 36.171457199800003 ], [ -115.2322497, 36.171454499799999 ], [ -115.2322524, 36.171454499799999 ], [ -115.2322524, 36.171451799799996 ], [ -115.2322551, 36.171451799799996 ], [ -115.2322551, 36.1714490998 ], [ -115.23226050000001, 36.1714490998 ], [ -115.23226050000001, 36.171446399799997 ], [ -115.2322767, 36.171446399799997 ], [ -115.2322767, 36.1714490998 ], [ -115.23227940000001, 36.1714490998 ], [ -115.23227940000001, 36.171451799799996 ], [ -115.2322821, 36.171451799799996 ], [ -115.2322821, 36.171457199800003 ], [ -115.2322848, 36.171457199800003 ], [ -115.2322848, 36.171459899799999 ], [ -115.2322875, 36.171459899799999 ], [ -115.2322875, 36.171462599800002 ], [ -115.2322902, 36.171462599800002 ], [ -115.2322902, 36.171467999800001 ], [ -115.2322929, 36.171467999800001 ], [ -115.2322929, 36.171470699799997 ], [ -115.2322956, 36.171470699799997 ], [ -115.2322956, 36.1714733998 ], [ -115.2322983, 36.1714733998 ], [ -115.2322983, 36.171478799799999 ], [ -115.232301, 36.171478799799999 ], [ -115.232301, 36.171481499800002 ], [ -115.2323037, 36.171481499800002 ], [ -115.2323037, 36.171484199799998 ], [ -115.2323064, 36.171484199799998 ], [ -115.2323064, 36.171486899800001 ], [ -115.2323091, 36.171486899800001 ], [ -115.2323091, 36.171489599799997 ], [ -115.2323118, 36.171489599799997 ], [ -115.2323118, 36.171494999799997 ], [ -115.2323145, 36.171494999799997 ], [ -115.2323145, 36.1714976998 ], [ -115.2323199, 36.1714976998 ], [ -115.2323199, 36.171500399800003 ], [ -115.2323226, 36.171500399800003 ], [ -115.2323226, 36.171505799800002 ], [ -115.2323253, 36.171505799800002 ], [ -115.2323253, 36.171511199800001 ], [ -115.232328, 36.171511199800001 ], [ -115.232328, 36.1715165998 ], [ -115.2323307, 36.1715165998 ], [ -115.2323307, 36.171521999799999 ], [ -115.2323334, 36.171521999799999 ], [ -115.2323334, 36.171535499800001 ], [ -115.2323361, 36.171535499800001 ], [ -115.2323361, 36.171538199799997 ], [ -115.2323388, 36.171538199799997 ], [ -115.2323388, 36.1715408998 ], [ -115.2323442, 36.1715408998 ], [ -115.2323442, 36.171543599800003 ], [ -115.2323496, 36.171543599800003 ], [ -115.2323496, 36.171546299799999 ], [ -115.2323523, 36.171546299799999 ], [ -115.2323523, 36.171559799800001 ], [ -115.232355, 36.171559799800001 ], [ -115.232355, 36.171567899800003 ], [ -115.2323523, 36.171567899800003 ], [ -115.2323523, 36.171573299800002 ], [ -115.2323496, 36.171573299800002 ], [ -115.2323496, 36.171575999799998 ], [ -115.23234690000001, 36.171575999799998 ], [ -115.23234690000001, 36.171578699800001 ], [ -115.2323415, 36.171578699800001 ], [ -115.2323415, 36.171581399799997 ], [ -115.2323361, 36.171581399799997 ], [ -115.2323361, 36.1715840998 ], [ -115.2323307, 36.1715840998 ], [ -115.2323307, 36.171586799799996 ], [ -115.2323253, 36.171586799799996 ], [ -115.2323253, 36.1715894998 ], [ -115.2323172, 36.1715894998 ], [ -115.2323172, 36.171592199800003 ], [ -115.2323118, 36.171592199800003 ], [ -115.2323118, 36.171594899799999 ], [ -115.2323064, 36.171594899799999 ], [ -115.2323064, 36.171597599800002 ], [ -115.232301, 36.171597599800002 ], [ -115.232301, 36.171600299799998 ], [ -115.2322929, 36.171600299799998 ], [ -115.2322929, 36.171602999800001 ], [ -115.2322875, 36.171602999800001 ], [ -115.2322875, 36.171605699799997 ], [ -115.2322848, 36.171605699799997 ], [ -115.2322848, 36.1716083998 ], [ -115.23227940000001, 36.1716083998 ], [ -115.23227940000001, 36.171611099800003 ], [ -115.232274, 36.171611099800003 ], [ -115.232274, 36.171613799799999 ], [ -115.2322686, 36.171613799799999 ], [ -115.2322686, 36.171616499800002 ], [ -115.23226050000001, 36.171616499800002 ], [ -115.23226050000001, 36.171619199799999 ], [ -115.2322524, 36.171619199799999 ], [ -115.2322524, 36.171621899800002 ] ] ] } },
{ "type": "Feature", "properties": { "value": 255.0 }, "geometry": { "type": "Polygon", "coordinates": [ [ [ -115.2328761, 36.1714490998 ], [ -115.2328626, 36.1714490998 ], [ -115.2328626, 36.171446399799997 ], [ -115.2327789, 36.171446399799997 ], [ -115.2327789, 36.171432899800003 ], [ -115.2327762, 36.171432899800003 ], [ -115.2327762, 36.171397799799998 ], [ -115.2327735, 36.171397799799998 ], [ -115.2327735, 36.171395099800002 ], [ -115.2327762, 36.171395099800002 ], [ -115.2327762, 36.171324899799998 ], [ -115.2327735, 36.171324899799998 ], [ -115.2327735, 36.171311399799997 ], [ -115.2327762, 36.171311399799997 ], [ -115.2327762, 36.171305999799998 ], [ -115.2327789, 36.171305999799998 ], [ -115.2327789, 36.171303299800002 ], [ -115.23278160000001, 36.171303299800002 ], [ -115.23278160000001, 36.171305999799998 ], [ -115.2328302, 36.171305999799998 ], [ -115.2328302, 36.171308699800001 ], [ -115.2328626, 36.171308699800001 ], [ -115.2328626, 36.171305999799998 ], [ -115.2328707, 36.171305999799998 ], [ -115.2328707, 36.171308699800001 ], [ -115.2328734, 36.171308699800001 ], [ -115.2328734, 36.1713383998 ], [ -115.2328761, 36.1713383998 ], [ -115.2328761, 36.171370799800002 ], [ -115.2328788, 36.171370799800002 ], [ -115.2328788, 36.171376199800001 ], [ -115.2328815, 36.171376199800001 ], [ -115.2328815, 36.171384299799996 ], [ -115.2328842, 36.171384299799996 ], [ -115.2328842, 36.171443699800001 ], [ -115.2328815, 36.171443699800001 ], [ -115.2328815, 36.171446399799997 ], [ -115.2328761, 36.171446399799997 ], [ -115.2328761, 36.1714490998 ] ] ] } },
{ "type": "Feature", "properties": { "value": 255.0 }, "geometry": { "type": "Polygon", "coordinates": [ [ [ -115.23239550000001, 36.171438299800002 ], [ -115.2323685, 36.171438299800002 ], [ -115.2323685, 36.171435599799999 ], [ -115.2323442, 36.171435599799999 ], [ -115.2323442, 36.171432899800003 ], [ -115.2323361, 36.171432899800003 ], [ -115.2323361, 36.1714301998 ], [ -115.2323226, 36.1714301998 ], [ -115.2323226, 36.171427499799996 ], [ -115.2323118, 36.171427499799996 ], [ -115.2323118, 36.1714247998 ], [ -115.2323037, 36.1714247998 ], [ -115.2323037, 36.171422099799997 ], [ -115.2322983, 36.171422099799997 ], [ -115.2322983, 36.171403199799997 ], [ -115.232301, 36.171403199799997 ], [ -115.232301, 36.171395099800002 ], [ -115.2323037, 36.171395099800002 ], [ -115.2323037, 36.171376199800001 ], [ -115.2323064, 36.171376199800001 ], [ -115.2323064, 36.171373499799998 ], [ -115.2323091, 36.171373499799998 ], [ -115.2323091, 36.171368099799999 ], [ -115.2323118, 36.171368099799999 ], [ -115.2323118, 36.171365399800003 ], [ -115.2323145, 36.171365399800003 ], [ -115.2323145, 36.171354599799997 ], [ -115.2323172, 36.171354599799997 ], [ -115.2323172, 36.171341099800003 ], [ -115.2323199, 36.171341099800003 ], [ -115.2323199, 36.171330299799997 ], [ -115.2323226, 36.171330299799997 ], [ -115.2323226, 36.171324899799998 ], [ -115.2323253, 36.171324899799998 ], [ -115.2323253, 36.171316799799996 ], [ -115.232328, 36.171316799799996 ], [ -115.232328, 36.171305999799998 ], [ -115.2323307, 36.171305999799998 ], [ -115.2323307, 36.171297899800003 ], [ -115.2323334, 36.171297899800003 ], [ -115.2323334, 36.171295199799999 ], [ -115.2323442, 36.171295199799999 ], [ -115.2323442, 36.171292499799996 ], [ -115.2323577, 36.171292499799996 ], [ -115.2323577, 36.171295199799999 ], [ -115.2323766, 36.171295199799999 ], [ -115.2323766, 36.171297899800003 ], [ -115.2323901, 36.171297899800003 ], [ -115.2323901, 36.171300599799999 ], [ -115.232409, 36.171300599799999 ], [ -115.232409, 36.171303299800002 ], [ -115.2324225, 36.171303299800002 ], [ -115.2324225, 36.171305999799998 ], [ -115.2324252, 36.171305999799998 ], [ -115.2324252, 36.171311399799997 ], [ -115.2324279, 36.171311399799997 ], [ -115.2324279, 36.171330299799997 ], [ -115.2324252, 36.171330299799997 ], [ -115.2324252, 36.1713383998 ], [ -115.2324225, 36.1713383998 ], [ -115.2324225, 36.171354599799997 ], [ -115.2324198, 36.171354599799997 ], [ -115.2324198, 36.171368099799999 ], [ -115.2324225, 36.171368099799999 ], [ -115.2324225, 36.171370799800002 ], [ -115.2324252, 36.171370799800002 ], [ -115.2324252, 36.171376199800001 ], [ -115.2324306, 36.171376199800001 ], [ -115.2324306, 36.171378899799997 ], [ -115.2324522, 36.171378899799997 ], [ -115.2324522, 36.1713815998 ], [ -115.232463, 36.1713815998 ], [ -115.232463, 36.171384299799996 ], [ -115.2324657, 36.171384299799996 ], [ -115.2324657, 36.171403199799997 ], [ -115.232463, 36.171403199799997 ], [ -115.232463, 36.171419399800001 ], [ -115.2324603, 36.171419399800001 ], [ -115.2324603, 36.171432899800003 ], [ -115.2324549, 36.171432899800003 ], [ -115.2324549, 36.171435599799999 ], [ -115.2324522, 36.171435599799999 ], [ -115.2324522, 36.171432899800003 ], [ -115.2324333, 36.171432899800003 ], [ -115.2324333, 36.1714301998 ], [ -115.2324306, 36.1714301998 ], [ -115.2324306, 36.171432899800003 ], [ -115.23241440000001, 36.171432899800003 ], [ -115.23241440000001, 36.1714301998 ], [ -115.232409, 36.1714301998 ], [ -115.232409, 36.171427499799996 ], [ -115.2324009, 36.171427499799996 ], [ -115.2324009, 36.1714301998 ], [ -115.2323982, 36.1714301998 ], [ -115.2323982, 36.171435599799999 ], [ -115.23239550000001, 36.171435599799999 ], [ -115.23239550000001, 36.171438299800002 ] ] ] } },
{ "type": "Feature", "properties": { "value": 255.0 }, "geometry": { "type": "Polygon", "coordinates": [ [ [ -115.2328221, 36.171273599800003 ], [ -115.232751900000011, 36.171273599800003 ], [ -115.232751900000011, 36.1712708998 ], [ -115.2327492, 36.1712708998 ], [ -115.2327492, 36.171260099800001 ], [ -115.2327465, 36.171260099800001 ], [ -115.2327465, 36.171254699800002 ], [ -115.2327492, 36.171254699800002 ], [ -115.2327492, 36.171208799799999 ], [ -115.2327465, 36.171208799799999 ], [ -115.2327465, 36.171160199799999 ], [ -115.2327492, 36.171160199799999 ], [ -115.2327492, 36.171157499799996 ], [ -115.232751900000011, 36.171157499799996 ], [ -115.232751900000011, 36.1711547998 ], [ -115.2327546, 36.1711547998 ], [ -115.2327546, 36.171152099799997 ], [ -115.2327573, 36.171152099799997 ], [ -115.2327573, 36.171149399800001 ], [ -115.23276, 36.171149399800001 ], [ -115.23276, 36.171146699799998 ], [ -115.2327708, 36.171146699799998 ], [ -115.2327708, 36.171143999800002 ], [ -115.2327789, 36.171143999800002 ], [ -115.2327789, 36.171141299799999 ], [ -115.23278160000001, 36.171141299799999 ], [ -115.23278160000001, 36.171135899799999 ], [ -115.2327843, 36.171135899799999 ], [ -115.2327843, 36.171133199799996 ], [ -115.2327951, 36.171133199799996 ], [ -115.2327951, 36.1711304998 ], [ -115.2328734, 36.1711304998 ], [ -115.2328734, 36.171127799799997 ], [ -115.232886900000011, 36.171127799799997 ], [ -115.232886900000011, 36.171125099800001 ], [ -115.2329031, 36.171125099800001 ], [ -115.2329031, 36.171122399799998 ], [ -115.2329139, 36.171122399799998 ], [ -115.2329139, 36.171125099800001 ], [ -115.2329193, 36.171125099800001 ], [ -115.2329193, 36.171122399799998 ], [ -115.2329247, 36.171122399799998 ], [ -115.2329247, 36.171125099800001 ], [ -115.2329328, 36.171125099800001 ], [ -115.2329328, 36.1711304998 ], [ -115.232935500000011, 36.1711304998 ], [ -115.232935500000011, 36.171138599800003 ], [ -115.2329328, 36.171138599800003 ], [ -115.2329328, 36.171176399799997 ], [ -115.232935500000011, 36.171176399799997 ], [ -115.232935500000011, 36.171184499799999 ], [ -115.2329328, 36.171184499799999 ], [ -115.2329328, 36.171189899799998 ], [ -115.2329301, 36.171189899799998 ], [ -115.2329301, 36.171192599800001 ], [ -115.232922, 36.171192599800001 ], [ -115.232922, 36.171195299799997 ], [ -115.23291660000001, 36.171195299799997 ], [ -115.23291660000001, 36.1712033998 ], [ -115.2329139, 36.1712033998 ], [ -115.2329139, 36.171224999799996 ], [ -115.23291660000001, 36.171224999799996 ], [ -115.23291660000001, 36.171235799800002 ], [ -115.2329139, 36.171235799800002 ], [ -115.2329139, 36.171243899799997 ], [ -115.2329112, 36.171243899799997 ], [ -115.2329112, 36.171251999799999 ], [ -115.2329085, 36.171251999799999 ], [ -115.2329085, 36.171257399799998 ], [ -115.2329058, 36.171257399799998 ], [ -115.2329058, 36.171260099800001 ], [ -115.2329031, 36.171260099800001 ], [ -115.2329031, 36.171262799799997 ], [ -115.2329004, 36.171262799799997 ], [ -115.2329004, 36.1712654998 ], [ -115.2328977, 36.1712654998 ], [ -115.2328977, 36.171268199799997 ], [ -115.2328923, 36.171268199799997 ], [ -115.2328923, 36.1712708998 ], [ -115.2328221, 36.1712708998 ], [ -115.2328221, 36.171273599800003 ] ] ] } },
{ "type": "Feature", "properties": { "value": 255.0 }, "geometry": { "type": "Polygon", "coordinates": [ [ [ -115.2323226, 36.171257399799998 ], [ -115.2322659, 36.171257399799998 ], [ -115.2322659, 36.171254699800002 ], [ -115.2322632, 36.171254699800002 ], [ -115.2322632, 36.171251999799999 ], [ -115.23226050000001, 36.171251999799999 ], [ -115.23226050000001, 36.171227699799999 ], [ -115.2322632, 36.171227699799999 ], [ -115.2322632, 36.171184499799999 ], [ -115.2322659, 36.171184499799999 ], [ -115.2322659, 36.171181799799996 ], [ -115.23227940000001, 36.171181799799996 ], [ -115.23227940000001, 36.171170999799998 ], [ -115.2322821, 36.171170999799998 ], [ -115.2322821, 36.1711547998 ], [ -115.2322848, 36.1711547998 ], [ -115.2322848, 36.171146699799998 ], [ -115.2322821, 36.171146699799998 ], [ -115.2322821, 36.171122399799998 ], [ -115.2322848, 36.171122399799998 ], [ -115.2322848, 36.171119699800002 ], [ -115.2322875, 36.171119699800002 ], [ -115.2322875, 36.171116999799999 ], [ -115.2324036, 36.171116999799999 ], [ -115.2324036, 36.171119699800002 ], [ -115.2324252, 36.171119699800002 ], [ -115.2324252, 36.171122399799998 ], [ -115.2324387, 36.171122399799998 ], [ -115.2324387, 36.171125099800001 ], [ -115.2324414, 36.171125099800001 ], [ -115.2324414, 36.171133199799996 ], [ -115.2324441, 36.171133199799996 ], [ -115.2324441, 36.171149399800001 ], [ -115.2324414, 36.171149399800001 ], [ -115.2324414, 36.171152099799997 ], [ -115.2324387, 36.171152099799997 ], [ -115.2324387, 36.171227699799999 ], [ -115.2324414, 36.171227699799999 ], [ -115.2324414, 36.171251999799999 ], [ -115.232436, 36.171251999799999 ], [ -115.232436, 36.171254699800002 ], [ -115.2324036, 36.171254699800002 ], [ -115.2324036, 36.171251999799999 ], [ -115.2323523, 36.171251999799999 ], [ -115.2323523, 36.171249299799996 ], [ -115.23234690000001, 36.171249299799996 ], [ -115.23234690000001, 36.171251999799999 ], [ -115.2323334, 36.171251999799999 ], [ -115.2323334, 36.171254699800002 ], [ -115.2323226, 36.171254699800002 ], [ -115.2323226, 36.171257399799998 ] ] ] } },
{ "type": "Feature", "properties": { "value": 255.0 }, "geometry": { "type": "Polygon", "coordinates": [ [ [ -115.2324927, 36.171152099799997 ], [ -115.2324738, 36.171152099799997 ], [ -115.2324738, 36.171149399800001 ], [ -115.2324711, 36.171149399800001 ], [ -115.2324711, 36.171133199799996 ], [ -115.2324684, 36.171133199799996 ], [ -115.2324684, 36.171127799799997 ], [ -115.2324711, 36.171127799799997 ], [ -115.2324711, 36.171125099800001 ], [ -115.2324738, 36.171125099800001 ], [ -115.2324738, 36.171122399799998 ], [ -115.2324765, 36.171122399799998 ], [ -115.2324765, 36.171119699800002 ], [ -115.2325008, 36.171119699800002 ], [ -115.2325008, 36.171116999799999 ], [ -115.2325062, 36.171116999799999 ], [ -115.2325062, 36.171119699800002 ], [ -115.2325089, 36.171119699800002 ], [ -115.2325089, 36.171122399799998 ], [ -115.2325116, 36.171122399799998 ], [ -115.2325116, 36.171143999800002 ], [ -115.2325089, 36.171143999800002 ], [ -115.2325089, 36.171146699799998 ], [ -115.2325062, 36.171146699799998 ], [ -115.2325062, 36.171149399800001 ], [ -115.2324927, 36.171149399800001 ], [ -115.2324927, 36.171152099799997 ] ] ] } },
{ "type": "Feature", "properties": { "value": 255.0 }, "geometry": { "type": "Polygon", "coordinates": [ [ [ -115.2327168, 36.171095399800002 ], [ -115.2327114, 36.171095399800002 ], [ -115.2327114, 36.171089999799996 ], [ -115.2327006, 36.171089999799996 ], [ -115.2327006, 36.1710872998 ], [ -115.2326979, 36.1710872998 ], [ -115.2326979, 36.171081899800001 ], [ -115.2327006, 36.171081899800001 ], [ -115.2327006, 36.171076499800002 ], [ -115.2327033, 36.171076499800002 ], [ -115.2327033, 36.171079199799998 ], [ -115.2327114, 36.171079199799998 ], [ -115.2327114, 36.171076499800002 ], [ -115.2327087, 36.171076499800002 ], [ -115.2327087, 36.171068399799999 ], [ -115.2327168, 36.171068399799999 ], [ -115.2327168, 36.171071099800002 ], [ -115.2327195, 36.171071099800002 ], [ -115.2327195, 36.171073799799998 ], [ -115.2327168, 36.171073799799998 ], [ -115.2327168, 36.171084599799997 ], [ -115.2327195, 36.171084599799997 ], [ -115.2327195, 36.171092699799999 ], [ -115.2327168, 36.171092699799999 ], [ -115.2327168, 36.171095399800002 ] ] ] } },
{ "type": "Feature", "properties": { "value": 255.0 }, "geometry": { "type": "Polygon", "coordinates": [ [ [ -115.2327465, 36.171100799800001 ], [ -115.2327384, 36.171100799800001 ], [ -115.2327384, 36.171098099799998 ], [ -115.232733, 36.171098099799998 ], [ -115.232733, 36.171092699799999 ], [ -115.2327303, 36.171092699799999 ], [ -115.2327303, 36.171089999799996 ], [ -115.2327249, 36.171089999799996 ], [ -115.2327249, 36.171084599799997 ], [ -115.2327276, 36.171084599799997 ], [ -115.2327276, 36.171079199799998 ], [ -115.2327249, 36.171079199799998 ], [ -115.2327249, 36.171073799799998 ], [ -115.2327276, 36.171073799799998 ], [ -115.2327276, 36.171068399799999 ], [ -115.2327303, 36.171068399799999 ], [ -115.2327303, 36.171060299799997 ], [ -115.2327276, 36.171060299799997 ], [ -115.2327276, 36.171057599800001 ], [ -115.2327249, 36.171057599800001 ], [ -115.2327249, 36.171054899799998 ], [ -115.2327222, 36.171054899799998 ], [ -115.2327222, 36.171052199800002 ], [ -115.2327195, 36.171052199800002 ], [ -115.2327195, 36.171054899799998 ], [ -115.2327168, 36.171054899799998 ], [ -115.2327168, 36.171057599800001 ], [ -115.232706, 36.171057599800001 ], [ -115.232706, 36.171054899799998 ], [ -115.2327033, 36.171054899799998 ], [ -115.2327033, 36.171033299800001 ], [ -115.2327006, 36.171033299800001 ], [ -115.2327006, 36.171008999800002 ], [ -115.2327033, 36.171008999800002 ], [ -115.2327033, 36.171003599800002 ], [ -115.2327006, 36.171003599800002 ], [ -115.2327006, 36.1709954998 ], [ -115.2327033, 36.1709954998 ], [ -115.2327033, 36.170979299799995 ], [ -115.2327087, 36.170979299799995 ], [ -115.2327087, 36.170976599799999 ], [ -115.2327114, 36.170976599799999 ], [ -115.2327114, 36.170979299799995 ], [ -115.2327195, 36.170979299799995 ], [ -115.2327195, 36.170976599799999 ], [ -115.2327222, 36.170976599799999 ], [ -115.2327222, 36.170979299799995 ], [ -115.2327249, 36.170979299799995 ], [ -115.2327249, 36.170976599799999 ], [ -115.2327411, 36.170976599799999 ], [ -115.2327411, 36.170973899799996 ], [ -115.2327465, 36.170973899799996 ], [ -115.2327465, 36.170976599799999 ], [ -115.232751900000011, 36.170976599799999 ], [ -115.232751900000011, 36.170973899799996 ], [ -115.2327681, 36.170973899799996 ], [ -115.2327681, 36.170968499799997 ], [ -115.2327708, 36.170968499799997 ], [ -115.2327708, 36.170957699799999 ], [ -115.2327735, 36.170957699799999 ], [ -115.2327735, 36.170954999799996 ], [ -115.2328167, 36.170954999799996 ], [ -115.2328167, 36.1709522998 ], [ -115.2328572, 36.1709522998 ], [ -115.2328572, 36.170949599799997 ], [ -115.2328734, 36.170949599799997 ], [ -115.2328734, 36.1709522998 ], [ -115.2328761, 36.1709522998 ], [ -115.2328761, 36.170957699799999 ], [ -115.2328788, 36.170957699799999 ], [ -115.2328788, 36.1710872998 ], [ -115.2328626, 36.1710872998 ], [ -115.2328626, 36.171089999799996 ], [ -115.2328383, 36.171089999799996 ], [ -115.2328383, 36.171092699799999 ], [ -115.2328356, 36.171092699799999 ], [ -115.2328356, 36.171095399800002 ], [ -115.2327843, 36.171095399800002 ], [ -115.2327843, 36.171098099799998 ], [ -115.2327465, 36.171098099799998 ], [ -115.2327465, 36.171100799800001 ] ], [ [ -115.2327303, 36.171089999799996 ], [ -115.232733, 36.171089999799996 ], [ -115.232733, 36.171084599799997 ], [ -115.2327303, 36.171084599799997 ], [ -115.2327303, 36.171089999799996 ] ] ] } },
{ "type": "Feature", "properties": { "value": 255.0 }, "geometry": { "type": "Polygon", "coordinates": [ [ [ -115.2323118, 36.171084599799997 ], [ -115.2322659, 36.171084599799997 ], [ -115.2322659, 36.171081899800001 ], [ -115.2322632, 36.171081899800001 ], [ -115.2322632, 36.1710197998 ], [ -115.2322686, 36.1710197998 ], [ -115.2322686, 36.171017099799997 ], [ -115.23227940000001, 36.171017099799997 ], [ -115.23227940000001, 36.171014399800001 ], [ -115.2322848, 36.171014399800001 ], [ -115.2322848, 36.171017099799997 ], [ -115.232328, 36.171017099799997 ], [ -115.232328, 36.171014399800001 ], [ -115.2323307, 36.171014399800001 ], [ -115.2323307, 36.171008999800002 ], [ -115.2323334, 36.171008999800002 ], [ -115.2323334, 36.170979299799995 ], [ -115.2323361, 36.170979299799995 ], [ -115.2323361, 36.1709522998 ], [ -115.2323388, 36.1709522998 ], [ -115.2323388, 36.170949599799997 ], [ -115.2323766, 36.170949599799997 ], [ -115.2323766, 36.170946899800001 ], [ -115.2324252, 36.170946899800001 ], [ -115.2324252, 36.170949599799997 ], [ -115.2324279, 36.170949599799997 ], [ -115.2324279, 36.1709522998 ], [ -115.2324306, 36.1709522998 ], [ -115.2324306, 36.170949599799997 ], [ -115.2324333, 36.170949599799997 ], [ -115.2324333, 36.1709522998 ], [ -115.232436, 36.1709522998 ], [ -115.232436, 36.170954999799996 ], [ -115.2324414, 36.170954999799996 ], [ -115.2324414, 36.170957699799999 ], [ -115.2324441, 36.170957699799999 ], [ -115.2324441, 36.170960399800002 ], [ -115.2324468, 36.170960399800002 ], [ -115.2324468, 36.170963099799998 ], [ -115.2324495, 36.170963099799998 ], [ -115.2324495, 36.170960399800002 ], [ -115.2324549, 36.170960399800002 ], [ -115.2324549, 36.170963099799998 ], [ -115.2324576, 36.170963099799998 ], [ -115.2324576, 36.170968499799997 ], [ -115.2324603, 36.170968499799997 ], [ -115.2324603, 36.170976599799999 ], [ -115.232463, 36.170976599799999 ], [ -115.232463, 36.170979299799995 ], [ -115.2324657, 36.170979299799995 ], [ -115.2324657, 36.170992799799997 ], [ -115.2324603, 36.170992799799997 ], [ -115.2324603, 36.170990099800001 ], [ -115.2324549, 36.170990099800001 ], [ -115.2324549, 36.170992799799997 ], [ -115.2324522, 36.170992799799997 ], [ -115.2324522, 36.170998199799996 ], [ -115.2324549, 36.170998199799996 ], [ -115.2324549, 36.171003599800002 ], [ -115.2324522, 36.171003599800002 ], [ -115.2324522, 36.171006299799998 ], [ -115.2324441, 36.171006299799998 ], [ -115.2324441, 36.171008999800002 ], [ -115.2324414, 36.171008999800002 ], [ -115.2324414, 36.171025199799999 ], [ -115.2324549, 36.171025199799999 ], [ -115.2324549, 36.171027899800002 ], [ -115.2324603, 36.171027899800002 ], [ -115.2324603, 36.171030599799998 ], [ -115.232463, 36.171030599799998 ], [ -115.232463, 36.171033299800001 ], [ -115.2324657, 36.171033299800001 ], [ -115.2324657, 36.171035999799997 ], [ -115.2324684, 36.171035999799997 ], [ -115.2324684, 36.171076499800002 ], [ -115.2324657, 36.171076499800002 ], [ -115.2324657, 36.171079199799998 ], [ -115.2324603, 36.171079199799998 ], [ -115.2324603, 36.171081899800001 ], [ -115.2323118, 36.171081899800001 ], [ -115.2323118, 36.171084599799997 ] ] ] } },
{ "type": "Feature", "properties": { "value": 255.0 }, "geometry": { "type": "Polygon", "coordinates": [ [ [ -115.2325008, 36.170965799800001 ], [ -115.2324765, 36.170965799800001 ], [ -115.2324765, 36.170963099799998 ], [ -115.2324738, 36.170963099799998 ], [ -115.2324738, 36.170946899800001 ], [ -115.2324765, 36.170946899800001 ], [ -115.2324765, 36.170944199799997 ], [ -115.2325035, 36.170944199799997 ], [ -115.2325035, 36.170949599799997 ], [ -115.2325062, 36.170949599799997 ], [ -115.2325062, 36.170957699799999 ], [ -115.2325035, 36.170957699799999 ], [ -115.2325035, 36.170963099799998 ], [ -115.2325008, 36.170963099799998 ], [ -115.2325008, 36.170965799800001 ] ] ] } },
{ "type": "Feature", "properties": { "value": 255.0 }, "geometry": { "type": "Polygon", "coordinates": [ [ [ -115.2326898, 36.170954999799996 ], [ -115.23266550000001, 36.170954999799996 ], [ -115.23266550000001, 36.1709522998 ], [ -115.2326628, 36.1709522998 ], [ -115.2326628, 36.170938799799998 ], [ -115.23266550000001, 36.170938799799998 ], [ -115.23266550000001, 36.170933399799999 ], [ -115.2326763, 36.170933399799999 ], [ -115.2326763, 36.170930699799996 ], [ -115.2326925, 36.170930699799996 ], [ -115.2326925, 36.1709522998 ], [ -115.2326898, 36.1709522998 ], [ -115.2326898, 36.170954999799996 ] ] ] } },
{ "type": "Feature", "properties": { "value": 255.0 }, "geometry": { "type": "Polygon", "coordinates": [ [ [ -115.2322686, 36.170922599800001 ], [ -115.23226050000001, 36.170922599800001 ], [ -115.23226050000001, 36.170919899799998 ], [ -115.2322578, 36.170919899799998 ], [ -115.2322578, 36.170914499799999 ], [ -115.2322551, 36.170914499799999 ], [ -115.2322551, 36.1708361998 ], [ -115.2322524, 36.1708361998 ], [ -115.2322524, 36.170790299799997 ], [ -115.2322551, 36.170790299799997 ], [ -115.2322551, 36.170779499799998 ], [ -115.23226050000001, 36.170779499799998 ], [ -115.23226050000001, 36.170776799799995 ], [ -115.2323388, 36.170776799799995 ], [ -115.2323388, 36.170779499799998 ], [ -115.2323712, 36.170779499799998 ], [ -115.2323712, 36.170776799799995 ], [ -115.2323874, 36.170776799799995 ], [ -115.2323874, 36.170774099799999 ], [ -115.2324036, 36.170774099799999 ], [ -115.2324036, 36.170771399799996 ], [ -115.2324198, 36.170771399799996 ], [ -115.2324198, 36.170774099799999 ], [ -115.2324252, 36.170774099799999 ], [ -115.2324252, 36.170779499799998 ], [ -115.2324279, 36.170779499799998 ], [ -115.2324279, 36.170782199800001 ], [ -115.2324333, 36.170782199800001 ], [ -115.2324333, 36.170790299799997 ], [ -115.232436, 36.170790299799997 ], [ -115.232436, 36.170857799799997 ], [ -115.2324333, 36.170857799799997 ], [ -115.2324333, 36.170876699799997 ], [ -115.2324306, 36.170876699799997 ], [ -115.2324306, 36.170882099799996 ], [ -115.2324252, 36.170882099799996 ], [ -115.2324252, 36.1708847998 ], [ -115.2324036, 36.1708847998 ], [ -115.2324036, 36.170887499799996 ], [ -115.2323793, 36.170887499799996 ], [ -115.2323793, 36.170892899800002 ], [ -115.2323766, 36.170892899800002 ], [ -115.2323766, 36.170917199800002 ], [ -115.2323739, 36.170917199800002 ], [ -115.2323739, 36.170919899799998 ], [ -115.2322686, 36.170919899799998 ], [ -115.2322686, 36.170922599800001 ] ] ] } },
{ "type": "Feature", "properties": { "value": 255.0 }, "geometry": { "type": "Polygon", "coordinates": [ [ [ -115.232733, 36.170917199800002 ], [ -115.2327087, 36.170917199800002 ], [ -115.2327087, 36.170914499799999 ], [ -115.232706, 36.170914499799999 ], [ -115.232706, 36.170909099799999 ], [ -115.2327033, 36.170909099799999 ], [ -115.2327033, 36.170855099800001 ], [ -115.2327006, 36.170855099800001 ], [ -115.2327006, 36.170852399799998 ], [ -115.2326709, 36.170852399799998 ], [ -115.2326709, 36.170846999799998 ], [ -115.2326682, 36.170846999799998 ], [ -115.2326682, 36.170822699799999 ], [ -115.23266550000001, 36.170822699799999 ], [ -115.23266550000001, 36.170803799799998 ], [ -115.2326682, 36.170803799799998 ], [ -115.2326682, 36.170801099800002 ], [ -115.2326736, 36.170801099800002 ], [ -115.2326736, 36.170798399799999 ], [ -115.2326925, 36.170798399799999 ], [ -115.2326925, 36.170795699799996 ], [ -115.2326952, 36.170795699799996 ], [ -115.2326952, 36.1707929998 ], [ -115.2326979, 36.1707929998 ], [ -115.2326979, 36.170790299799997 ], [ -115.2326952, 36.170790299799997 ], [ -115.2326952, 36.170782199800001 ], [ -115.2327006, 36.170782199800001 ], [ -115.2327006, 36.170779499799998 ], [ -115.2327033, 36.170779499799998 ], [ -115.2327033, 36.170776799799995 ], [ -115.2327114, 36.170776799799995 ], [ -115.2327114, 36.170774099799999 ], [ -115.2327303, 36.170774099799999 ], [ -115.2327303, 36.170776799799995 ], [ -115.2327492, 36.170776799799995 ], [ -115.2327492, 36.170774099799999 ], [ -115.2327708, 36.170774099799999 ], [ -115.2327708, 36.170776799799995 ], [ -115.2328707, 36.170776799799995 ], [ -115.2328707, 36.170779499799998 ], [ -115.2328761, 36.170779499799998 ], [ -115.2328761, 36.170784899799997 ], [ -115.2328788, 36.170784899799997 ], [ -115.2328788, 36.170787599800001 ], [ -115.2328761, 36.170787599800001 ], [ -115.2328761, 36.1708118998 ], [ -115.2328788, 36.1708118998 ], [ -115.2328788, 36.170841599799999 ], [ -115.2328761, 36.170841599799999 ], [ -115.2328761, 36.170844299799995 ], [ -115.232814, 36.170844299799995 ], [ -115.232814, 36.170846999799998 ], [ -115.2328086, 36.170846999799998 ], [ -115.2328086, 36.170868599800002 ], [ -115.2328059, 36.170868599800002 ], [ -115.2328059, 36.170876699799997 ], [ -115.2328086, 36.170876699799997 ], [ -115.2328086, 36.170887499799996 ], [ -115.2328059, 36.170887499799996 ], [ -115.2328059, 36.170911799799995 ], [ -115.2328032, 36.170911799799995 ], [ -115.2328032, 36.170914499799999 ], [ -115.232733, 36.170914499799999 ], [ -115.232733, 36.170917199800002 ] ] ] } },
{ "type": "Feature", "properties": { "value": 255.0 }, "geometry": { "type": "Polygon", "coordinates": [ [ [ -115.2336861, 36.170606699799997 ], [ -115.2335862, 36.170606699799997 ], [ -115.2335862, 36.170603999800001 ], [ -115.2335565, 36.170603999800001 ], [ -115.2335565, 36.170590499799999 ], [ -115.23355380000001, 36.170590499799999 ], [ -115.23355380000001, 36.170558099799997 ], [ -115.2335565, 36.170558099799997 ], [ -115.2335565, 36.170555399800001 ], [ -115.2335592, 36.170555399800001 ], [ -115.2335592, 36.170552699799998 ], [ -115.2336132, 36.170552699799998 ], [ -115.2336132, 36.170555399800001 ], [ -115.2336861, 36.170555399800001 ], [ -115.2336861, 36.170558099799997 ], [ -115.23368880000001, 36.170558099799997 ], [ -115.23368880000001, 36.170603999800001 ], [ -115.2336861, 36.170603999800001 ], [ -115.2336861, 36.170606699799997 ] ] ] } },
{ "type": "Feature", "properties": { "value": 255.0 }, "geometry": { "type": "Polygon", "coordinates": [ [ [ -115.233389100000011, 36.170487899800001 ], [ -115.2333729, 36.170487899800001 ], [ -115.2333729, 36.170485199799998 ], [ -115.23337020000001, 36.170485199799998 ], [ -115.23337020000001, 36.170482499799995 ], [ -115.2333675, 36.170482499799995 ], [ -115.2333675, 36.170479799799999 ], [ -115.2333648, 36.170479799799999 ], [ -115.2333648, 36.170477099799996 ], [ -115.2333621, 36.170477099799996 ], [ -115.2333621, 36.1704743998 ], [ -115.233359400000012, 36.1704743998 ], [ -115.233359400000012, 36.170471699799997 ], [ -115.2333567, 36.170471699799997 ], [ -115.2333567, 36.170468999800001 ], [ -115.233354, 36.170468999800001 ], [ -115.233354, 36.170466299799998 ], [ -115.2333486, 36.170466299799998 ], [ -115.2333486, 36.170463599800001 ], [ -115.2333432, 36.170463599800001 ], [ -115.2333432, 36.170460899799998 ], [ -115.2333351, 36.170460899799998 ], [ -115.2333351, 36.170458199799995 ], [ -115.2333297, 36.170458199799995 ], [ -115.2333297, 36.170455499799999 ], [ -115.2333243, 36.170455499799999 ], [ -115.2333243, 36.170452799799996 ], [ -115.233321600000011, 36.170452799799996 ], [ -115.233321600000011, 36.1704500998 ], [ -115.2333189, 36.1704500998 ], [ -115.2333189, 36.170447399799997 ], [ -115.2333135, 36.170447399799997 ], [ -115.2333135, 36.170441999799998 ], [ -115.2333108, 36.170441999799998 ], [ -115.2333108, 36.170439299799995 ], [ -115.2333081, 36.170439299799995 ], [ -115.2333081, 36.170436599799999 ], [ -115.2333054, 36.170436599799999 ], [ -115.2333054, 36.1704257998 ], [ -115.2333081, 36.1704257998 ], [ -115.2333081, 36.170420399800001 ], [ -115.2333108, 36.170420399800001 ], [ -115.2333108, 36.170417699799998 ], [ -115.233435, 36.170417699799998 ], [ -115.233435, 36.170423099799997 ], [ -115.23343770000001, 36.170423099799997 ], [ -115.23343770000001, 36.170428499799996 ], [ -115.2334404, 36.170428499799996 ], [ -115.2334404, 36.170431199799999 ], [ -115.2334431, 36.170431199799999 ], [ -115.2334431, 36.170436599799999 ], [ -115.2334404, 36.170436599799999 ], [ -115.2334404, 36.170439299799995 ], [ -115.233435, 36.170439299799995 ], [ -115.233435, 36.170447399799997 ], [ -115.2334323, 36.170447399799997 ], [ -115.2334323, 36.1704500998 ], [ -115.2334296, 36.1704500998 ], [ -115.2334296, 36.170452799799996 ], [ -115.233426900000012, 36.170452799799996 ], [ -115.233426900000012, 36.170458199799995 ], [ -115.2334242, 36.170458199799995 ], [ -115.2334242, 36.170460899799998 ], [ -115.2334215, 36.170460899799998 ], [ -115.2334215, 36.170463599800001 ], [ -115.2334161, 36.170463599800001 ], [ -115.2334161, 36.170466299799998 ], [ -115.2334134, 36.170466299799998 ], [ -115.2334134, 36.170468999800001 ], [ -115.2334053, 36.170468999800001 ], [ -115.2334053, 36.170471699799997 ], [ -115.2334026, 36.170471699799997 ], [ -115.2334026, 36.1704743998 ], [ -115.2333972, 36.1704743998 ], [ -115.2333972, 36.170477099799996 ], [ -115.2333945, 36.170477099799996 ], [ -115.2333945, 36.170479799799999 ], [ -115.2333918, 36.170479799799999 ], [ -115.2333918, 36.170482499799995 ], [ -115.233389100000011, 36.170482499799995 ], [ -115.233389100000011, 36.170487899800001 ] ] ] } },
{ "type": "Feature", "properties": { "value": 255.0 }, "geometry": { "type": "Polygon", "coordinates": [ [ [ -115.232841, 36.170539199799997 ], [ -115.2326979, 36.170539199799997 ], [ -115.2326979, 36.170536499800001 ], [ -115.2326952, 36.170536499800001 ], [ -115.2326952, 36.170528399799998 ], [ -115.2326925, 36.170528399799998 ], [ -115.2326925, 36.170514899799997 ], [ -115.2326898, 36.170514899799997 ], [ -115.2326898, 36.170487899800001 ], [ -115.2326871, 36.170487899800001 ], [ -115.2326871, 36.170477099799996 ], [ -115.2326898, 36.170477099799996 ], [ -115.2326898, 36.170460899799998 ], [ -115.2326925, 36.170460899799998 ], [ -115.2326925, 36.170444699800001 ], [ -115.2326952, 36.170444699800001 ], [ -115.2326952, 36.170431199799999 ], [ -115.2326925, 36.170431199799999 ], [ -115.2326925, 36.170417699799998 ], [ -115.23280050000001, 36.170417699799998 ], [ -115.23280050000001, 36.1704257998 ], [ -115.2327978, 36.1704257998 ], [ -115.2327978, 36.170458199799995 ], [ -115.23280050000001, 36.170458199799995 ], [ -115.23280050000001, 36.170468999800001 ], [ -115.2328032, 36.170468999800001 ], [ -115.2328032, 36.170471699799997 ], [ -115.2328518, 36.170471699799997 ], [ -115.2328518, 36.1704743998 ], [ -115.2328599, 36.1704743998 ], [ -115.2328599, 36.170479799799999 ], [ -115.2328626, 36.170479799799999 ], [ -115.2328626, 36.170495999799996 ], [ -115.2328653, 36.170495999799996 ], [ -115.2328653, 36.170506799799995 ], [ -115.232868, 36.170506799799995 ], [ -115.232868, 36.170525699799995 ], [ -115.2328653, 36.170525699799995 ], [ -115.2328653, 36.170528399799998 ], [ -115.232868, 36.170528399799998 ], [ -115.232868, 36.170531099800002 ], [ -115.2328653, 36.170531099800002 ], [ -115.2328653, 36.170536499800001 ], [ -115.232841, 36.170536499800001 ], [ -115.232841, 36.170539199799997 ] ] ] } },
{ "type": "Feature", "properties": { "value": 255.0 }, "geometry": { "type": "Polygon", "coordinates": [ [ [ -115.232328, 36.170536499800001 ], [ -115.2322551, 36.170536499800001 ], [ -115.2322551, 36.170533799799998 ], [ -115.2322524, 36.170533799799998 ], [ -115.2322524, 36.170531099800002 ], [ -115.2322497, 36.170531099800002 ], [ -115.2322497, 36.1705175998 ], [ -115.2322524, 36.1705175998 ], [ -115.2322524, 36.170512199800001 ], [ -115.2322497, 36.170512199800001 ], [ -115.2322497, 36.170506799799995 ], [ -115.2322524, 36.170506799799995 ], [ -115.2322524, 36.170479799799999 ], [ -115.2322497, 36.170479799799999 ], [ -115.2322497, 36.170477099799996 ], [ -115.2322524, 36.170477099799996 ], [ -115.2322524, 36.170468999800001 ], [ -115.2322551, 36.170468999800001 ], [ -115.2322551, 36.170466299799998 ], [ -115.2323091, 36.170466299799998 ], [ -115.2323091, 36.170468999800001 ], [ -115.2323118, 36.170468999800001 ], [ -115.2323118, 36.170466299799998 ], [ -115.2323199, 36.170466299799998 ], [ -115.2323199, 36.170417699799998 ], [ -115.2324927, 36.170417699799998 ], [ -115.2324927, 36.1704257998 ], [ -115.2324846, 36.1704257998 ], [ -115.2324846, 36.170428499799996 ], [ -115.2324684, 36.170428499799996 ], [ -115.2324684, 36.1704257998 ], [ -115.2324387, 36.1704257998 ], [ -115.2324387, 36.170423099799997 ], [ -115.2324333, 36.170423099799997 ], [ -115.2324333, 36.170420399800001 ], [ -115.2324252, 36.170420399800001 ], [ -115.2324252, 36.170441999799998 ], [ -115.2324279, 36.170441999799998 ], [ -115.2324279, 36.170444699800001 ], [ -115.2324603, 36.170444699800001 ], [ -115.2324603, 36.170447399799997 ], [ -115.232463, 36.170447399799997 ], [ -115.232463, 36.170485199799998 ], [ -115.2324657, 36.170485199799998 ], [ -115.2324657, 36.170520299799996 ], [ -115.232463, 36.170520299799996 ], [ -115.232463, 36.170522999799999 ], [ -115.2324306, 36.170522999799999 ], [ -115.2324306, 36.170525699799995 ], [ -115.2324252, 36.170525699799995 ], [ -115.2324252, 36.170533799799998 ], [ -115.232328, 36.170533799799998 ], [ -115.232328, 36.170536499800001 ] ] ] } }
]
}
