{
"type": "FeatureCollection",
"crs": { "type": "name", "properties": { "name": "urn:ogc:def:crs:OGC:1.3:CRS84" } },
"features": [
{ "type": "Feature", "properties": { "value": 255.0 }, "geometry": { "type": "Polygon", "coordinates": [ [ [ -115.223877, 36.2599227 ], [ -115.2237312, 36.2599227 ], [ -115.2237312, 36.25992 ], [ -115.2237285, 36.25992 ], [ -115.2237285, 36.2598687 ], [ -115.2237474, 36.2598687 ], [ -115.2237474, 36.259866 ], [ -115.2237933, 36.259866 ], [ -115.2237933, 36.2598633 ], [ -115.2238068, 36.2598633 ], [ -115.2238068, 36.259866 ], [ -115.2238122, 36.259866 ], [ -115.2238122, 36.2598687 ], [ -115.2238149, 36.2598687 ], [ -115.2238149, 36.2598741 ], [ -115.2238176, 36.2598741 ], [ -115.2238176, 36.259893 ], [ -115.2238203, 36.259893 ], [ -115.2238203, 36.2598957 ], [ -115.2238257, 36.2598957 ], [ -115.2238257, 36.2598984 ], [ -115.2238473, 36.2598984 ], [ -115.2238473, 36.2599011 ], [ -115.2238527, 36.2599011 ], [ -115.2238527, 36.2599065 ], [ -115.2238554, 36.2599065 ], [ -115.2238554, 36.2599092 ], [ -115.2238743, 36.2599092 ], [ -115.2238743, 36.2599119 ], [ -115.2238797, 36.2599119 ], [ -115.2238797, 36.2599146 ], [ -115.22387160000001, 36.2599146 ], [ -115.22387160000001, 36.25992 ], [ -115.223877, 36.25992 ], [ -115.223877, 36.2599227 ] ] ] } },
{ "type": "Feature", "properties": { "value": 255.0 }, "geometry": { "type": "Polygon", "coordinates": [ [ [ -115.2236178, 36.2599227 ], [ -115.2234234, 36.2599227 ], [ -115.2234234, 36.2599119 ], [ -115.2234261, 36.2599119 ], [ -115.2234261, 36.2598984 ], [ -115.2234288, 36.2598984 ], [ -115.2234288, 36.2598876 ], [ -115.2234315, 36.2598876 ], [ -115.2234315, 36.2598822 ], [ -115.2234342, 36.2598822 ], [ -115.2234342, 36.2598768 ], [ -115.22343690000001, 36.2598768 ], [ -115.22343690000001, 36.2598606 ], [ -115.2234396, 36.2598606 ], [ -115.2234396, 36.2598552 ], [ -115.2234423, 36.2598552 ], [ -115.2234423, 36.2598525 ], [ -115.2234531, 36.2598525 ], [ -115.2234531, 36.2598552 ], [ -115.223472, 36.2598552 ], [ -115.223472, 36.2598579 ], [ -115.2234774, 36.2598579 ], [ -115.2234774, 36.2598552 ], [ -115.2234936, 36.2598552 ], [ -115.2234936, 36.2598579 ], [ -115.2235098, 36.2598579 ], [ -115.2235098, 36.2598552 ], [ -115.2235233, 36.2598552 ], [ -115.2235233, 36.2598525 ], [ -115.2235287, 36.2598525 ], [ -115.2235287, 36.2598552 ], [ -115.2235368, 36.2598552 ], [ -115.2235368, 36.2598579 ], [ -115.2235422, 36.2598579 ], [ -115.2235422, 36.2598606 ], [ -115.2235449, 36.2598606 ], [ -115.2235449, 36.2598633 ], [ -115.2235503, 36.2598633 ], [ -115.2235503, 36.259866 ], [ -115.2235557, 36.259866 ], [ -115.2235557, 36.2598633 ], [ -115.2235611, 36.2598633 ], [ -115.2235611, 36.259866 ], [ -115.22357190000001, 36.259866 ], [ -115.22357190000001, 36.2598633 ], [ -115.2235746, 36.2598633 ], [ -115.2235746, 36.2598606 ], [ -115.2235881, 36.2598606 ], [ -115.2235881, 36.2598579 ], [ -115.2236178, 36.2598579 ], [ -115.2236178, 36.2598606 ], [ -115.22362050000001, 36.2598606 ], [ -115.22362050000001, 36.2598633 ], [ -115.2236232, 36.2598633 ], [ -115.2236232, 36.259866 ], [ -115.22362050000001, 36.259866 ], [ -115.22362050000001, 36.2599146 ], [ -115.2236178, 36.2599146 ], [ -115.2236178, 36.2599227 ] ], [ [ -115.2235665, 36.259893 ], [ -115.2235665, 36.2598903 ], [ -115.2235692, 36.2598903 ], [ -115.2235692, 36.2598741 ], [ -115.2235665, 36.2598741 ], [ -115.2235665, 36.2598714 ], [ -115.2235611, 36.2598714 ], [ -115.2235611, 36.2598903 ], [ -115.2235638, 36.2598903 ], [ -115.2235638, 36.259893 ], [ -115.2235665, 36.259893 ] ] ] } },
{ "type": "Feature", "properties": { "value": 255.0 }, "geometry": { "type": "Polygon", "coordinates": [ [ [ -115.2247599, 36.2599227 ], [ -115.2245358, 36.2599227 ], [ -115.2245358, 36.25992 ], [ -115.2245385, 36.25992 ], [ -115.2245385, 36.2599146 ], [ -115.2245358, 36.2599146 ], [ -115.2245358, 36.2599092 ], [ -115.2245385, 36.2599092 ], [ -115.2245385, 36.2598984 ], [ -115.2245412, 36.2598984 ], [ -115.2245412, 36.2598606 ], [ -115.2245439, 36.2598606 ], [ -115.2245439, 36.2598093 ], [ -115.224681600000011, 36.2598093 ], [ -115.224681600000011, 36.2598363 ], [ -115.2246843, 36.2598363 ], [ -115.2246843, 36.2598444 ], [ -115.224687, 36.2598444 ], [ -115.224687, 36.2598525 ], [ -115.2246897, 36.2598525 ], [ -115.2246897, 36.259866 ], [ -115.2246924, 36.259866 ], [ -115.2246924, 36.2598687 ], [ -115.224714, 36.2598687 ], [ -115.224714, 36.2598714 ], [ -115.2247221, 36.2598714 ], [ -115.2247221, 36.2598741 ], [ -115.2247248, 36.2598741 ], [ -115.2247248, 36.2598768 ], [ -115.22473020000001, 36.2598768 ], [ -115.22473020000001, 36.2598795 ], [ -115.2247356, 36.2598795 ], [ -115.2247356, 36.2598822 ], [ -115.2247437, 36.2598822 ], [ -115.2247437, 36.2598849 ], [ -115.224749100000011, 36.2598849 ], [ -115.224749100000011, 36.2598876 ], [ -115.2247518, 36.2598876 ], [ -115.2247518, 36.2598903 ], [ -115.2247545, 36.2598903 ], [ -115.2247545, 36.2598984 ], [ -115.2247572, 36.2598984 ], [ -115.2247572, 36.2599011 ], [ -115.2247599, 36.2599011 ], [ -115.2247599, 36.2599227 ] ] ] } },
{ "type": "Feature", "properties": { "value": 255.0 }, "geometry": { "type": "Polygon", "coordinates": [ [ [ -115.2236745, 36.259839 ], [ -115.2236691, 36.259839 ], [ -115.2236691, 36.2598363 ], [ -115.2236556, 36.2598363 ], [ -115.2236556, 36.259839 ], [ -115.2236421, 36.259839 ], [ -115.2236421, 36.2598363 ], [ -115.22363940000001, 36.2598363 ], [ -115.22363940000001, 36.2598093 ], [ -115.2236502, 36.2598093 ], [ -115.2236502, 36.259812 ], [ -115.2236529, 36.259812 ], [ -115.2236529, 36.2598093 ], [ -115.223661, 36.2598093 ], [ -115.223661, 36.259812 ], [ -115.2236664, 36.259812 ], [ -115.2236664, 36.2598093 ], [ -115.2236718, 36.2598093 ], [ -115.2236718, 36.259812 ], [ -115.2236745, 36.259812 ], [ -115.2236745, 36.2598147 ], [ -115.2236772, 36.2598147 ], [ -115.2236772, 36.2598363 ], [ -115.2236745, 36.2598363 ], [ -115.2236745, 36.259839 ] ] ] } },
{ "type": "Feature", "properties": { "value": 255.0 }, "geometry": { "type": "Polygon", "coordinates": [ [ [ -115.2244089, 36.2599227 ], [ -115.2242712, 36.2599227 ], [ -115.2242712, 36.2599119 ], [ -115.2242739, 36.2599119 ], [ -115.2242739, 36.2599092 ], [ -115.2242496, 36.2599092 ], [ -115.2242496, 36.2599038 ], [ -115.2242685, 36.2599038 ], [ -115.2242685, 36.2599011 ], [ -115.2242712, 36.2599011 ], [ -115.2242712, 36.2598984 ], [ -115.2242739, 36.2598984 ], [ -115.2242739, 36.2598957 ], [ -115.22427660000001, 36.2598957 ], [ -115.22427660000001, 36.2598768 ], [ -115.2242739, 36.2598768 ], [ -115.2242739, 36.2598741 ], [ -115.2242307, 36.2598741 ], [ -115.2242307, 36.2598768 ], [ -115.2242145, 36.2598768 ], [ -115.2242145, 36.2598741 ], [ -115.2242118, 36.2598741 ], [ -115.2242118, 36.259812 ], [ -115.2242145, 36.259812 ], [ -115.2242145, 36.2598093 ], [ -115.2242415, 36.2598093 ], [ -115.2242415, 36.259812 ], [ -115.224246900000011, 36.259812 ], [ -115.224246900000011, 36.2598093 ], [ -115.2242685, 36.2598093 ], [ -115.2242685, 36.259812 ], [ -115.2243198, 36.259812 ], [ -115.2243198, 36.2598147 ], [ -115.2244062, 36.2598147 ], [ -115.2244062, 36.2598174 ], [ -115.2244089, 36.2598174 ], [ -115.2244089, 36.2598309 ], [ -115.2244062, 36.2598309 ], [ -115.2244062, 36.2599119 ], [ -115.2244089, 36.2599119 ], [ -115.2244089, 36.2599227 ] ] ] } },
{ "type": "Feature", "properties": { "value": 255.0 }, "geometry": { "type": "Polygon", "coordinates": [ [ [ -115.2238068, 36.2598336 ], [ -115.2237852, 36.2598336 ], [ -115.2237852, 36.2598174 ], [ -115.2237879, 36.2598174 ], [ -115.2237879, 36.2598147 ], [ -115.223796, 36.2598147 ], [ -115.223796, 36.2598228 ], [ -115.2238149, 36.2598228 ], [ -115.2238149, 36.2598282 ], [ -115.2238122, 36.2598282 ], [ -115.2238122, 36.2598309 ], [ -115.2238068, 36.2598309 ], [ -115.2238068, 36.2598336 ] ] ] } },
{ "type": "Feature", "properties": { "value": 255.0 }, "geometry": { "type": "Polygon", "coordinates": [ [ [ -115.2244062, 36.2597904 ], [ -115.22434410000001, 36.2597904 ], [ -115.22434410000001, 36.2597877 ], [ -115.2242199, 36.2597877 ], [ -115.2242199, 36.259785 ], [ -115.2242145, 36.259785 ], [ -115.2242145, 36.2597688 ], [ -115.2242118, 36.2597688 ], [ -115.2242118, 36.2597229 ], [ -115.2242145, 36.2597229 ], [ -115.2242145, 36.2597202 ], [ -115.2242253, 36.2597202 ], [ -115.2242253, 36.2597175 ], [ -115.2242307, 36.2597175 ], [ -115.2242307, 36.2597202 ], [ -115.2242442, 36.2597202 ], [ -115.2242442, 36.2597175 ], [ -115.2242631, 36.2597175 ], [ -115.2242631, 36.2597148 ], [ -115.2242712, 36.2597148 ], [ -115.2242712, 36.2597094 ], [ -115.2242739, 36.2597094 ], [ -115.2242739, 36.2597013 ], [ -115.22427660000001, 36.2597013 ], [ -115.22427660000001, 36.2596959 ], [ -115.2242793, 36.2596959 ], [ -115.2242793, 36.2596905 ], [ -115.224282, 36.2596905 ], [ -115.224282, 36.2596878 ], [ -115.2242847, 36.2596878 ], [ -115.2242847, 36.2596716 ], [ -115.2242874, 36.2596716 ], [ -115.2242874, 36.2596662 ], [ -115.2242847, 36.2596662 ], [ -115.2242847, 36.2596635 ], [ -115.224282, 36.2596635 ], [ -115.224282, 36.2596608 ], [ -115.2242847, 36.2596608 ], [ -115.2242847, 36.2596581 ], [ -115.2243333, 36.2596581 ], [ -115.2243333, 36.2596608 ], [ -115.2244251, 36.2596608 ], [ -115.2244251, 36.259677 ], [ -115.2244278, 36.259677 ], [ -115.2244278, 36.2596824 ], [ -115.2244251, 36.2596824 ], [ -115.2244251, 36.2597391 ], [ -115.2244278, 36.2597391 ], [ -115.2244278, 36.2597472 ], [ -115.2244251, 36.2597472 ], [ -115.2244251, 36.2597877 ], [ -115.2244062, 36.2597877 ], [ -115.2244062, 36.2597904 ] ] ] } },
{ "type": "Feature", "properties": { "value": 255.0 }, "geometry": { "type": "Polygon", "coordinates": [ [ [ -115.2238473, 36.2597688 ], [ -115.2237366, 36.2597688 ], [ -115.2237366, 36.2597661 ], [ -115.223715, 36.2597661 ], [ -115.223715, 36.2597634 ], [ -115.223688, 36.2597634 ], [ -115.223688, 36.2597607 ], [ -115.2236853, 36.2597607 ], [ -115.2236853, 36.2597553 ], [ -115.2236826, 36.2597553 ], [ -115.2236826, 36.2596716 ], [ -115.2236853, 36.2596716 ], [ -115.2236853, 36.2596473 ], [ -115.223688, 36.2596473 ], [ -115.223688, 36.2596446 ], [ -115.223774400000011, 36.2596446 ], [ -115.223774400000011, 36.2596473 ], [ -115.2238041, 36.2596473 ], [ -115.2238041, 36.2596446 ], [ -115.2238338, 36.2596446 ], [ -115.2238338, 36.2596419 ], [ -115.2239067, 36.2596419 ], [ -115.2239067, 36.2596446 ], [ -115.2239121, 36.2596446 ], [ -115.2239121, 36.2596797 ], [ -115.2239148, 36.2596797 ], [ -115.2239148, 36.2596878 ], [ -115.2239121, 36.2596878 ], [ -115.2239121, 36.259704 ], [ -115.223909400000011, 36.259704 ], [ -115.223909400000011, 36.2597067 ], [ -115.2238473, 36.2597067 ], [ -115.2238473, 36.2597094 ], [ -115.2238446, 36.2597094 ], [ -115.2238446, 36.2597283 ], [ -115.2238473, 36.2597283 ], [ -115.2238473, 36.2597337 ], [ -115.22385, 36.2597337 ], [ -115.22385, 36.2597661 ], [ -115.2238473, 36.2597661 ], [ -115.2238473, 36.2597688 ] ] ] } },
{ "type": "Feature", "properties": { "value": 255.0 }, "geometry": { "type": "Polygon", "coordinates": [ [ [ -115.2234747, 36.2597688 ], [ -115.2234666, 36.2597688 ], [ -115.2234666, 36.2597661 ], [ -115.2234639, 36.2597661 ], [ -115.2234639, 36.2597634 ], [ -115.2234612, 36.2597634 ], [ -115.2234612, 36.259758 ], [ -115.2234639, 36.259758 ], [ -115.2234639, 36.2597553 ], [ -115.2234612, 36.2597553 ], [ -115.2234612, 36.2597445 ], [ -115.2234504, 36.2597445 ], [ -115.2234504, 36.2597418 ], [ -115.2234423, 36.2597418 ], [ -115.2234423, 36.2597391 ], [ -115.2234261, 36.2597391 ], [ -115.2234261, 36.2597364 ], [ -115.2234234, 36.2597364 ], [ -115.2234234, 36.259731 ], [ -115.2234261, 36.259731 ], [ -115.2234261, 36.2597256 ], [ -115.2234234, 36.2597256 ], [ -115.2234234, 36.2597229 ], [ -115.2234261, 36.2597229 ], [ -115.2234261, 36.2597175 ], [ -115.2234234, 36.2597175 ], [ -115.2234234, 36.2597148 ], [ -115.2234099, 36.2597148 ], [ -115.2234099, 36.2597121 ], [ -115.2233991, 36.2597121 ], [ -115.2233991, 36.2597094 ], [ -115.2233613, 36.2597094 ], [ -115.2233613, 36.2597067 ], [ -115.2233586, 36.2597067 ], [ -115.2233586, 36.2596851 ], [ -115.2233613, 36.2596851 ], [ -115.2233613, 36.2596608 ], [ -115.2233586, 36.2596608 ], [ -115.2233586, 36.25965 ], [ -115.2233613, 36.25965 ], [ -115.2233613, 36.2596446 ], [ -115.2233667, 36.2596446 ], [ -115.2233667, 36.2596419 ], [ -115.2234072, 36.2596419 ], [ -115.2234072, 36.2596446 ], [ -115.2234504, 36.2596446 ], [ -115.2234504, 36.2596473 ], [ -115.2235314, 36.2596473 ], [ -115.2235314, 36.25965 ], [ -115.2235368, 36.25965 ], [ -115.2235368, 36.2596473 ], [ -115.2235773, 36.2596473 ], [ -115.2235773, 36.2596446 ], [ -115.22358, 36.2596446 ], [ -115.22358, 36.2596473 ], [ -115.2235854, 36.2596473 ], [ -115.2235854, 36.25965 ], [ -115.2235881, 36.25965 ], [ -115.2235881, 36.2596743 ], [ -115.2235854, 36.2596743 ], [ -115.2235854, 36.2597013 ], [ -115.2235557, 36.2597013 ], [ -115.2235557, 36.259704 ], [ -115.223553, 36.259704 ], [ -115.223553, 36.2597067 ], [ -115.2235503, 36.2597067 ], [ -115.2235503, 36.2597148 ], [ -115.2235476, 36.2597148 ], [ -115.2235476, 36.2597418 ], [ -115.2235449, 36.2597418 ], [ -115.2235449, 36.2597553 ], [ -115.2235422, 36.2597553 ], [ -115.2235422, 36.2597661 ], [ -115.2234747, 36.2597661 ], [ -115.2234747, 36.2597688 ] ] ] } },
{ "type": "Feature", "properties": { "value": 255.0 }, "geometry": { "type": "Polygon", "coordinates": [ [ [ -115.2233424, 36.2596527 ], [ -115.2233343, 36.2596527 ], [ -115.2233343, 36.25965 ], [ -115.2233316, 36.25965 ], [ -115.2233316, 36.2596473 ], [ -115.2233046, 36.2596473 ], [ -115.2233046, 36.2596446 ], [ -115.22330190000001, 36.2596446 ], [ -115.22330190000001, 36.2596311 ], [ -115.2233046, 36.2596311 ], [ -115.2233046, 36.2596284 ], [ -115.2233127, 36.2596284 ], [ -115.2233127, 36.2596311 ], [ -115.2233181, 36.2596311 ], [ -115.2233181, 36.2596284 ], [ -115.223337, 36.2596284 ], [ -115.223337, 36.2596257 ], [ -115.2233397, 36.2596257 ], [ -115.2233397, 36.2596284 ], [ -115.2233451, 36.2596284 ], [ -115.2233451, 36.2596257 ], [ -115.2233505, 36.2596257 ], [ -115.2233505, 36.2596284 ], [ -115.2233559, 36.2596284 ], [ -115.2233559, 36.2596338 ], [ -115.2233586, 36.2596338 ], [ -115.2233586, 36.2596365 ], [ -115.2233559, 36.2596365 ], [ -115.2233559, 36.2596473 ], [ -115.2233451, 36.2596473 ], [ -115.2233451, 36.25965 ], [ -115.2233424, 36.25965 ], [ -115.2233424, 36.2596527 ] ] ] } },
{ "type": "Feature", "properties": { "value": 255.0 }, "geometry": { "type": "Polygon", "coordinates": [ [ [ -115.22466, 36.259758 ], [ -115.224584400000012, 36.259758 ], [ -115.224584400000012, 36.2597499 ], [ -115.2245817, 36.2597499 ], [ -115.2245817, 36.2597472 ], [ -115.224584400000012, 36.2597472 ], [ -115.224584400000012, 36.2597418 ], [ -115.2245817, 36.2597418 ], [ -115.2245817, 36.2596851 ], [ -115.224579, 36.2596851 ], [ -115.224579, 36.2596824 ], [ -115.2245439, 36.2596824 ], [ -115.2245439, 36.2596797 ], [ -115.2245385, 36.2596797 ], [ -115.2245385, 36.2596635 ], [ -115.2245358, 36.2596635 ], [ -115.2245358, 36.2596473 ], [ -115.2245385, 36.2596473 ], [ -115.2245385, 36.2596068 ], [ -115.2246843, 36.2596068 ], [ -115.2246843, 36.2596041 ], [ -115.2246951, 36.2596041 ], [ -115.2246951, 36.2596014 ], [ -115.2247518, 36.2596014 ], [ -115.2247518, 36.2596041 ], [ -115.2247572, 36.2596041 ], [ -115.2247572, 36.2596068 ], [ -115.2247599, 36.2596068 ], [ -115.2247599, 36.2596149 ], [ -115.2247626, 36.2596149 ], [ -115.2247626, 36.2596257 ], [ -115.2247599, 36.2596257 ], [ -115.2247599, 36.2596284 ], [ -115.2247626, 36.2596284 ], [ -115.2247626, 36.2596446 ], [ -115.2247599, 36.2596446 ], [ -115.2247599, 36.2596689 ], [ -115.2247464, 36.2596689 ], [ -115.2247464, 36.2596716 ], [ -115.2247329, 36.2596716 ], [ -115.2247329, 36.2596743 ], [ -115.2246897, 36.2596743 ], [ -115.2246897, 36.2596797 ], [ -115.224687, 36.2596797 ], [ -115.224687, 36.2596986 ], [ -115.2246843, 36.2596986 ], [ -115.2246843, 36.259704 ], [ -115.2246762, 36.259704 ], [ -115.2246762, 36.2597067 ], [ -115.2246681, 36.2597067 ], [ -115.2246681, 36.2597094 ], [ -115.2246654, 36.2597094 ], [ -115.2246654, 36.259731 ], [ -115.22466270000001, 36.259731 ], [ -115.22466270000001, 36.2597553 ], [ -115.22466, 36.2597553 ], [ -115.22466, 36.259758 ] ] ] } },
{ "type": "Feature", "properties": { "value": 255.0 }, "geometry": { "type": "Polygon", "coordinates": [ [ [ -115.22439270000001, 36.2596095 ], [ -115.22439, 36.2596095 ], [ -115.22439, 36.2596068 ], [ -115.2243657, 36.2596068 ], [ -115.2243657, 36.2596041 ], [ -115.2243603, 36.2596041 ], [ -115.2243603, 36.2596014 ], [ -115.2243576, 36.2596014 ], [ -115.2243576, 36.2595987 ], [ -115.224336, 36.2595987 ], [ -115.224336, 36.2596014 ], [ -115.2243306, 36.2596014 ], [ -115.2243306, 36.2596041 ], [ -115.22432520000001, 36.2596041 ], [ -115.22432520000001, 36.2596068 ], [ -115.2243171, 36.2596068 ], [ -115.2243171, 36.2596095 ], [ -115.2242928, 36.2596095 ], [ -115.2242928, 36.2596068 ], [ -115.2242874, 36.2596068 ], [ -115.2242874, 36.2596041 ], [ -115.2242847, 36.2596041 ], [ -115.2242847, 36.259596 ], [ -115.224282, 36.259596 ], [ -115.224282, 36.2595933 ], [ -115.2242793, 36.2595933 ], [ -115.2242793, 36.2595906 ], [ -115.2242604, 36.2595906 ], [ -115.2242604, 36.2595933 ], [ -115.22425770000001, 36.2595933 ], [ -115.22425770000001, 36.2595987 ], [ -115.224255, 36.2595987 ], [ -115.224255, 36.2596014 ], [ -115.2242118, 36.2596014 ], [ -115.2242118, 36.2595987 ], [ -115.22420910000001, 36.2595987 ], [ -115.22420910000001, 36.2595636 ], [ -115.2242118, 36.2595636 ], [ -115.2242118, 36.2595609 ], [ -115.22420910000001, 36.2595609 ], [ -115.22420910000001, 36.2595501 ], [ -115.2242118, 36.2595501 ], [ -115.2242118, 36.2595474 ], [ -115.2242145, 36.2595474 ], [ -115.2242145, 36.2595393 ], [ -115.2242199, 36.2595393 ], [ -115.2242199, 36.2595366 ], [ -115.2242226, 36.2595366 ], [ -115.2242226, 36.2595339 ], [ -115.224228, 36.2595339 ], [ -115.224228, 36.2595312 ], [ -115.2242334, 36.2595312 ], [ -115.2242334, 36.2595285 ], [ -115.2242361, 36.2595285 ], [ -115.2242361, 36.2595258 ], [ -115.2242388, 36.2595258 ], [ -115.2242388, 36.2595231 ], [ -115.2242415, 36.2595231 ], [ -115.2242415, 36.2595204 ], [ -115.2242442, 36.2595204 ], [ -115.2242442, 36.2595177 ], [ -115.2242496, 36.2595177 ], [ -115.2242496, 36.259515 ], [ -115.224255, 36.259515 ], [ -115.224255, 36.2595123 ], [ -115.2242658, 36.2595123 ], [ -115.2242658, 36.2595096 ], [ -115.2242685, 36.2595096 ], [ -115.2242685, 36.2595069 ], [ -115.2242712, 36.2595069 ], [ -115.2242712, 36.2595042 ], [ -115.22427660000001, 36.2595042 ], [ -115.22427660000001, 36.2595015 ], [ -115.224282, 36.2595015 ], [ -115.224282, 36.2594961 ], [ -115.2242874, 36.2594961 ], [ -115.2242874, 36.2594934 ], [ -115.2242901, 36.2594934 ], [ -115.2242901, 36.2594907 ], [ -115.2242928, 36.2594907 ], [ -115.2242928, 36.259488 ], [ -115.2243009, 36.259488 ], [ -115.2243009, 36.2594853 ], [ -115.2243063, 36.2594853 ], [ -115.2243063, 36.2594826 ], [ -115.2243171, 36.2594826 ], [ -115.2243171, 36.2594799 ], [ -115.2243522, 36.2594799 ], [ -115.2243522, 36.2594826 ], [ -115.2243711, 36.2594826 ], [ -115.2243711, 36.2594799 ], [ -115.2243738, 36.2594799 ], [ -115.2243738, 36.2594826 ], [ -115.2244035, 36.2594826 ], [ -115.2244035, 36.2594853 ], [ -115.2244278, 36.2594853 ], [ -115.2244278, 36.259488 ], [ -115.224430500000011, 36.259488 ], [ -115.224430500000011, 36.2595825 ], [ -115.2244278, 36.2595825 ], [ -115.2244278, 36.2595933 ], [ -115.2244251, 36.2595933 ], [ -115.2244251, 36.259596 ], [ -115.2244035, 36.259596 ], [ -115.2244035, 36.2595987 ], [ -115.2244008, 36.2595987 ], [ -115.2244008, 36.2596041 ], [ -115.2243981, 36.2596041 ], [ -115.2243981, 36.2596068 ], [ -115.22439270000001, 36.2596068 ], [ -115.22439270000001, 36.2596095 ] ] ] } },
{ "type": "Feature", "properties": { "value": 255.0 }, "geometry": { "type": "Polygon", "coordinates": [ [ [ -115.2235692, 36.259623 ], [ -115.2234693, 36.259623 ], [ -115.2234693, 36.2596203 ], [ -115.2233721, 36.2596203 ], [ -115.2233721, 36.2596176 ], [ -115.2233667, 36.2596176 ], [ -115.2233667, 36.2596149 ], [ -115.223364, 36.2596149 ], [ -115.223364, 36.2596014 ], [ -115.2233613, 36.2596014 ], [ -115.2233613, 36.2595582 ], [ -115.223364, 36.2595582 ], [ -115.223364, 36.2595555 ], [ -115.2233667, 36.2595555 ], [ -115.2233667, 36.2595528 ], [ -115.2234153, 36.2595528 ], [ -115.2234153, 36.2595501 ], [ -115.2234261, 36.2595501 ], [ -115.2234261, 36.2595474 ], [ -115.2234288, 36.2595474 ], [ -115.2234288, 36.2595339 ], [ -115.2234315, 36.2595339 ], [ -115.2234315, 36.2595285 ], [ -115.2234342, 36.2595285 ], [ -115.2234342, 36.2595231 ], [ -115.22343690000001, 36.2595231 ], [ -115.22343690000001, 36.259515 ], [ -115.2234396, 36.259515 ], [ -115.2234396, 36.2594961 ], [ -115.2234423, 36.2594961 ], [ -115.2234423, 36.2594934 ], [ -115.2235098, 36.2594934 ], [ -115.2235098, 36.2594961 ], [ -115.2235395, 36.2594961 ], [ -115.2235395, 36.2594934 ], [ -115.2235773, 36.2594934 ], [ -115.2235773, 36.2594961 ], [ -115.22358, 36.2594961 ], [ -115.22358, 36.2595042 ], [ -115.2235827, 36.2595042 ], [ -115.2235827, 36.2595177 ], [ -115.2235854, 36.2595177 ], [ -115.2235854, 36.2595204 ], [ -115.2235962, 36.2595204 ], [ -115.2235962, 36.2595231 ], [ -115.2236016, 36.2595231 ], [ -115.2236016, 36.2595258 ], [ -115.2236043, 36.2595258 ], [ -115.2236043, 36.2595231 ], [ -115.2236097, 36.2595231 ], [ -115.2236097, 36.2595474 ], [ -115.223607, 36.2595474 ], [ -115.223607, 36.2595447 ], [ -115.2236016, 36.2595447 ], [ -115.2236016, 36.2595474 ], [ -115.2235962, 36.2595474 ], [ -115.2235962, 36.2595501 ], [ -115.2236124, 36.2595501 ], [ -115.2236124, 36.259569 ], [ -115.2236097, 36.259569 ], [ -115.2236097, 36.2595717 ], [ -115.2235962, 36.2595717 ], [ -115.2235962, 36.2595744 ], [ -115.2235854, 36.2595744 ], [ -115.2235854, 36.2595771 ], [ -115.2235827, 36.2595771 ], [ -115.2235827, 36.2596176 ], [ -115.22358, 36.2596176 ], [ -115.22358, 36.2596203 ], [ -115.2235692, 36.2596203 ], [ -115.2235692, 36.259623 ] ], [ [ -115.2235989, 36.2595339 ], [ -115.2235989, 36.2595258 ], [ -115.2235935, 36.2595258 ], [ -115.2235935, 36.2595312 ], [ -115.2235962, 36.2595312 ], [ -115.2235962, 36.2595339 ], [ -115.2235989, 36.2595339 ] ] ] } },
{ "type": "Feature", "properties": { "value": 255.0 }, "geometry": { "type": "Polygon", "coordinates": [ [ [ -115.223909400000011, 36.2596203 ], [ -115.223715, 36.2596203 ], [ -115.223715, 36.2596176 ], [ -115.2236988, 36.2596176 ], [ -115.2236988, 36.2596122 ], [ -115.2236961, 36.2596122 ], [ -115.2236961, 36.259569 ], [ -115.2236988, 36.259569 ], [ -115.2236988, 36.2595555 ], [ -115.2236961, 36.2595555 ], [ -115.2236961, 36.2595501 ], [ -115.2236988, 36.2595501 ], [ -115.2236988, 36.259542 ], [ -115.2236961, 36.259542 ], [ -115.2236961, 36.2595339 ], [ -115.2236988, 36.2595339 ], [ -115.2236988, 36.2595015 ], [ -115.2236961, 36.2595015 ], [ -115.2236961, 36.2594961 ], [ -115.2236988, 36.2594961 ], [ -115.2236988, 36.2594907 ], [ -115.2237798, 36.2594907 ], [ -115.2237798, 36.259488 ], [ -115.2237825, 36.259488 ], [ -115.2237825, 36.259461 ], [ -115.2237852, 36.259461 ], [ -115.2237852, 36.2594583 ], [ -115.2237987, 36.2594583 ], [ -115.2237987, 36.2594556 ], [ -115.2238527, 36.2594556 ], [ -115.2238527, 36.2594529 ], [ -115.2238986, 36.2594529 ], [ -115.2238986, 36.2594556 ], [ -115.2239121, 36.2594556 ], [ -115.2239121, 36.2594583 ], [ -115.2239148, 36.2594583 ], [ -115.2239148, 36.2596095 ], [ -115.2239121, 36.2596095 ], [ -115.2239121, 36.2596176 ], [ -115.223909400000011, 36.2596176 ], [ -115.223909400000011, 36.2596203 ] ] ] } },
{ "type": "Feature", "properties": { "value": 255.0 }, "geometry": { "type": "Polygon", "coordinates": [ [ [ -115.224749100000011, 36.2595825 ], [ -115.2247464, 36.2595825 ], [ -115.2247464, 36.2595798 ], [ -115.2247356, 36.2595798 ], [ -115.2247356, 36.2595825 ], [ -115.2246978, 36.2595825 ], [ -115.2246978, 36.2595798 ], [ -115.2246654, 36.2595798 ], [ -115.2246654, 36.2595825 ], [ -115.2245817, 36.2595825 ], [ -115.2245817, 36.2595798 ], [ -115.224546600000011, 36.2595798 ], [ -115.224546600000011, 36.2595771 ], [ -115.2245439, 36.2595771 ], [ -115.2245439, 36.2595501 ], [ -115.2245412, 36.2595501 ], [ -115.2245412, 36.259542 ], [ -115.2245439, 36.259542 ], [ -115.2245439, 36.2595285 ], [ -115.224546600000011, 36.2595285 ], [ -115.224546600000011, 36.2595204 ], [ -115.2245439, 36.2595204 ], [ -115.2245439, 36.2595123 ], [ -115.2245412, 36.2595123 ], [ -115.2245412, 36.2595096 ], [ -115.224525, 36.2595096 ], [ -115.224525, 36.2595069 ], [ -115.2245223, 36.2595069 ], [ -115.2245223, 36.2595042 ], [ -115.2245196, 36.2595042 ], [ -115.2245196, 36.2594799 ], [ -115.2245223, 36.2594799 ], [ -115.2245223, 36.2594718 ], [ -115.224525, 36.2594718 ], [ -115.224525, 36.2594664 ], [ -115.22452770000001, 36.2594664 ], [ -115.22452770000001, 36.2594637 ], [ -115.2245331, 36.2594637 ], [ -115.2245331, 36.259461 ], [ -115.2245358, 36.259461 ], [ -115.2245358, 36.2594583 ], [ -115.2245385, 36.2594583 ], [ -115.2245385, 36.2594556 ], [ -115.2245439, 36.2594556 ], [ -115.2245439, 36.2594529 ], [ -115.224681600000011, 36.2594529 ], [ -115.224681600000011, 36.2594556 ], [ -115.2246843, 36.2594556 ], [ -115.2246843, 36.2594772 ], [ -115.224687, 36.2594772 ], [ -115.224687, 36.2594853 ], [ -115.2246897, 36.2594853 ], [ -115.2246897, 36.2594988 ], [ -115.2246924, 36.2594988 ], [ -115.2246924, 36.2595123 ], [ -115.2247545, 36.2595123 ], [ -115.2247545, 36.259515 ], [ -115.2247599, 36.259515 ], [ -115.2247599, 36.2595771 ], [ -115.2247572, 36.2595771 ], [ -115.2247572, 36.2595798 ], [ -115.224749100000011, 36.2595798 ], [ -115.224749100000011, 36.2595825 ] ] ] } },
{ "type": "Feature", "properties": { "value": 255.0 }, "geometry": { "type": "Polygon", "coordinates": [ [ [ -115.2238095, 36.2592261 ], [ -115.2237933, 36.2592261 ], [ -115.2237933, 36.2592234 ], [ -115.2237852, 36.2592234 ], [ -115.2237852, 36.2592207 ], [ -115.2237825, 36.2592207 ], [ -115.2237825, 36.259218 ], [ -115.2237798, 36.259218 ], [ -115.2237798, 36.2592099 ], [ -115.2237771, 36.2592099 ], [ -115.2237771, 36.2591802 ], [ -115.223774400000011, 36.2591802 ], [ -115.223774400000011, 36.2591721 ], [ -115.2237717, 36.2591721 ], [ -115.2237717, 36.2591694 ], [ -115.223774400000011, 36.2591694 ], [ -115.223774400000011, 36.2591532 ], [ -115.2237771, 36.2591532 ], [ -115.2237771, 36.25911 ], [ -115.2237798, 36.25911 ], [ -115.2237798, 36.2590992 ], [ -115.2237771, 36.2590992 ], [ -115.2237771, 36.2590938 ], [ -115.2237798, 36.2590938 ], [ -115.2237798, 36.2590722 ], [ -115.2237771, 36.2590722 ], [ -115.2237771, 36.2590695 ], [ -115.2237798, 36.2590695 ], [ -115.2237798, 36.2590668 ], [ -115.2237825, 36.2590668 ], [ -115.2237825, 36.2590641 ], [ -115.2237906, 36.2590641 ], [ -115.2237906, 36.2590614 ], [ -115.2238095, 36.2590614 ], [ -115.2238095, 36.2590587 ], [ -115.223823, 36.2590587 ], [ -115.223823, 36.259056 ], [ -115.2238338, 36.259056 ], [ -115.2238338, 36.2590587 ], [ -115.2238581, 36.2590587 ], [ -115.2238581, 36.259056 ], [ -115.2238635, 36.259056 ], [ -115.2238635, 36.2590533 ], [ -115.2238743, 36.2590533 ], [ -115.2238743, 36.2590506 ], [ -115.223877, 36.2590506 ], [ -115.223877, 36.2590533 ], [ -115.2239013, 36.2590533 ], [ -115.2239013, 36.259056 ], [ -115.2239067, 36.259056 ], [ -115.2239067, 36.2590587 ], [ -115.2239364, 36.2590587 ], [ -115.2239364, 36.2590641 ], [ -115.22393910000001, 36.2590641 ], [ -115.22393910000001, 36.2590884 ], [ -115.2239418, 36.2590884 ], [ -115.2239418, 36.2591154 ], [ -115.22393910000001, 36.2591154 ], [ -115.22393910000001, 36.2591262 ], [ -115.2239418, 36.2591262 ], [ -115.2239418, 36.2591559 ], [ -115.22393910000001, 36.2591559 ], [ -115.22393910000001, 36.2591586 ], [ -115.223909400000011, 36.2591586 ], [ -115.223909400000011, 36.2591613 ], [ -115.223904, 36.2591613 ], [ -115.223904, 36.259164 ], [ -115.2238986, 36.259164 ], [ -115.2238986, 36.2591667 ], [ -115.2238689, 36.2591667 ], [ -115.2238689, 36.2591694 ], [ -115.2238662, 36.2591694 ], [ -115.2238662, 36.2591721 ], [ -115.2238635, 36.2591721 ], [ -115.2238635, 36.2591802 ], [ -115.2238662, 36.2591802 ], [ -115.2238662, 36.2591991 ], [ -115.2238635, 36.2591991 ], [ -115.2238635, 36.2592207 ], [ -115.2238608, 36.2592207 ], [ -115.2238608, 36.2592234 ], [ -115.2238095, 36.2592234 ], [ -115.2238095, 36.2592261 ] ] ] } },
{ "type": "Feature", "properties": { "value": 255.0 }, "geometry": { "type": "Polygon", "coordinates": [ [ [ -115.2237231, 36.2592288 ], [ -115.2236934, 36.2592288 ], [ -115.2236934, 36.2592261 ], [ -115.2236799, 36.2592261 ], [ -115.2236799, 36.2592288 ], [ -115.2236772, 36.2592288 ], [ -115.2236772, 36.2592261 ], [ -115.2236718, 36.2592261 ], [ -115.2236718, 36.2592045 ], [ -115.2236691, 36.2592045 ], [ -115.2236691, 36.2591775 ], [ -115.2236664, 36.2591775 ], [ -115.2236664, 36.2591748 ], [ -115.2236637, 36.2591748 ], [ -115.2236637, 36.2591721 ], [ -115.2236583, 36.2591721 ], [ -115.2236583, 36.2591748 ], [ -115.2236556, 36.2591748 ], [ -115.2236556, 36.2591775 ], [ -115.2236529, 36.2591775 ], [ -115.2236529, 36.2591802 ], [ -115.2236367, 36.2591802 ], [ -115.2236367, 36.2591829 ], [ -115.223634, 36.2591829 ], [ -115.223634, 36.2591802 ], [ -115.2236232, 36.2591802 ], [ -115.2236232, 36.2591829 ], [ -115.22362050000001, 36.2591829 ], [ -115.22362050000001, 36.2591802 ], [ -115.2236151, 36.2591802 ], [ -115.2236151, 36.2591775 ], [ -115.2236124, 36.2591775 ], [ -115.2236124, 36.259164 ], [ -115.2236097, 36.259164 ], [ -115.2236097, 36.2591613 ], [ -115.2235962, 36.2591613 ], [ -115.2235962, 36.2591586 ], [ -115.2235935, 36.2591586 ], [ -115.2235935, 36.2591559 ], [ -115.2235908, 36.2591559 ], [ -115.2235908, 36.2591046 ], [ -115.2235881, 36.2591046 ], [ -115.2235881, 36.2590587 ], [ -115.2235908, 36.2590587 ], [ -115.2235908, 36.2590533 ], [ -115.2235935, 36.2590533 ], [ -115.2235935, 36.2590506 ], [ -115.2236151, 36.2590506 ], [ -115.2236151, 36.2590479 ], [ -115.2236502, 36.2590479 ], [ -115.2236502, 36.2590533 ], [ -115.2236529, 36.2590533 ], [ -115.2236529, 36.2590668 ], [ -115.2236556, 36.2590668 ], [ -115.2236556, 36.2590749 ], [ -115.223661, 36.2590749 ], [ -115.223661, 36.2590776 ], [ -115.2236826, 36.2590776 ], [ -115.2236826, 36.2590749 ], [ -115.2236988, 36.2590749 ], [ -115.2236988, 36.2590641 ], [ -115.2236961, 36.2590641 ], [ -115.2236961, 36.2590533 ], [ -115.2237042, 36.2590533 ], [ -115.2237042, 36.2590614 ], [ -115.2237015, 36.2590614 ], [ -115.2237015, 36.2590668 ], [ -115.22370690000001, 36.2590668 ], [ -115.22370690000001, 36.2590641 ], [ -115.2237123, 36.2590641 ], [ -115.2237123, 36.2590668 ], [ -115.2237204, 36.2590668 ], [ -115.2237204, 36.2590776 ], [ -115.2237312, 36.2590776 ], [ -115.2237312, 36.2590803 ], [ -115.2237366, 36.2590803 ], [ -115.2237366, 36.259083 ], [ -115.2237393, 36.259083 ], [ -115.2237393, 36.2590857 ], [ -115.223742, 36.2590857 ], [ -115.223742, 36.2591316 ], [ -115.2237447, 36.2591316 ], [ -115.2237447, 36.2591343 ], [ -115.223742, 36.2591343 ], [ -115.223742, 36.2591424 ], [ -115.2237447, 36.2591424 ], [ -115.2237447, 36.2591586 ], [ -115.2237474, 36.2591586 ], [ -115.2237474, 36.2591613 ], [ -115.2237501, 36.2591613 ], [ -115.2237501, 36.259164 ], [ -115.2237528, 36.259164 ], [ -115.2237528, 36.2591721 ], [ -115.22375550000001, 36.2591721 ], [ -115.22375550000001, 36.259218 ], [ -115.2237528, 36.259218 ], [ -115.2237528, 36.2592234 ], [ -115.2237501, 36.2592234 ], [ -115.2237501, 36.2592261 ], [ -115.2237231, 36.2592261 ], [ -115.2237231, 36.2592288 ] ] ] } },
{ "type": "Feature", "properties": { "value": 255.0 }, "geometry": { "type": "Polygon", "coordinates": [ [ [ -115.2250326, 36.2592018 ], [ -115.2250137, 36.2592018 ], [ -115.2250137, 36.2591991 ], [ -115.225000200000011, 36.2591991 ], [ -115.225000200000011, 36.2591964 ], [ -115.2249975, 36.2591964 ], [ -115.2249975, 36.2591937 ], [ -115.2249948, 36.2591937 ], [ -115.2249948, 36.259191 ], [ -115.2249921, 36.259191 ], [ -115.2249921, 36.2591478 ], [ -115.224989400000013, 36.2591478 ], [ -115.224989400000013, 36.2591451 ], [ -115.22498130000001, 36.2591451 ], [ -115.22498130000001, 36.2591424 ], [ -115.2249678, 36.2591424 ], [ -115.2249678, 36.2591397 ], [ -115.2249597, 36.2591397 ], [ -115.2249597, 36.259137 ], [ -115.2249192, 36.259137 ], [ -115.2249192, 36.2591343 ], [ -115.2249165, 36.2591343 ], [ -115.2249165, 36.2591019 ], [ -115.22491380000001, 36.2591019 ], [ -115.22491380000001, 36.259029 ], [ -115.2249165, 36.259029 ], [ -115.2249165, 36.2590263 ], [ -115.2249192, 36.2590263 ], [ -115.2249192, 36.2590236 ], [ -115.224921900000012, 36.2590236 ], [ -115.224921900000012, 36.2590263 ], [ -115.224932700000011, 36.2590263 ], [ -115.224932700000011, 36.2590236 ], [ -115.2249381, 36.2590236 ], [ -115.2249381, 36.2590263 ], [ -115.2249651, 36.2590263 ], [ -115.2249651, 36.2590236 ], [ -115.2250326, 36.2590236 ], [ -115.2250326, 36.2592018 ] ] ] } },
{ "type": "Feature", "properties": { "value": 255.0 }, "geometry": { "type": "Polygon", "coordinates": [ [ [ -115.2246276, 36.2592072 ], [ -115.2245574, 36.2592072 ], [ -115.2245574, 36.2592045 ], [ -115.2245547, 36.2592045 ], [ -115.2245547, 36.2591991 ], [ -115.224552, 36.2591991 ], [ -115.224552, 36.2591613 ], [ -115.2245493, 36.2591613 ], [ -115.2245493, 36.2591559 ], [ -115.2245385, 36.2591559 ], [ -115.2245385, 36.2591586 ], [ -115.2245358, 36.2591586 ], [ -115.2245358, 36.2591613 ], [ -115.224498, 36.2591613 ], [ -115.224498, 36.2591586 ], [ -115.2244953, 36.2591586 ], [ -115.2244953, 36.2591478 ], [ -115.2244926, 36.2591478 ], [ -115.2244926, 36.2591424 ], [ -115.224479100000011, 36.2591424 ], [ -115.224479100000011, 36.2591397 ], [ -115.2244737, 36.2591397 ], [ -115.2244737, 36.2591208 ], [ -115.224471, 36.2591208 ], [ -115.224471, 36.2591073 ], [ -115.2244737, 36.2591073 ], [ -115.2244737, 36.2590884 ], [ -115.224471, 36.2590884 ], [ -115.224471, 36.2590749 ], [ -115.2244737, 36.2590749 ], [ -115.2244737, 36.2590641 ], [ -115.224471, 36.2590641 ], [ -115.224471, 36.2590614 ], [ -115.2244737, 36.2590614 ], [ -115.2244737, 36.2590344 ], [ -115.2245385, 36.2590344 ], [ -115.2245385, 36.2590371 ], [ -115.2245412, 36.2590371 ], [ -115.2245412, 36.2590533 ], [ -115.2245439, 36.2590533 ], [ -115.2245439, 36.2590587 ], [ -115.2246168, 36.2590587 ], [ -115.2246168, 36.2590641 ], [ -115.2246195, 36.2590641 ], [ -115.2246195, 36.259083 ], [ -115.2246222, 36.259083 ], [ -115.2246222, 36.25911 ], [ -115.2246249, 36.25911 ], [ -115.2246249, 36.2591397 ], [ -115.2246276, 36.2591397 ], [ -115.2246276, 36.2591424 ], [ -115.2246303, 36.2591424 ], [ -115.2246303, 36.2591451 ], [ -115.224633, 36.2591451 ], [ -115.224633, 36.2591478 ], [ -115.2246357, 36.2591478 ], [ -115.2246357, 36.2591505 ], [ -115.2246384, 36.2591505 ], [ -115.2246384, 36.2591532 ], [ -115.2246357, 36.2591532 ], [ -115.2246357, 36.2591829 ], [ -115.2246384, 36.2591829 ], [ -115.2246384, 36.2592018 ], [ -115.2246357, 36.2592018 ], [ -115.2246357, 36.2592045 ], [ -115.2246276, 36.2592045 ], [ -115.2246276, 36.2592072 ] ] ] } },
{ "type": "Feature", "properties": { "value": 255.0 }, "geometry": { "type": "Polygon", "coordinates": [ [ [ -115.2241281, 36.2592018 ], [ -115.2241173, 36.2592018 ], [ -115.2241173, 36.2591991 ], [ -115.2241146, 36.2591991 ], [ -115.2241146, 36.2591937 ], [ -115.2241173, 36.2591937 ], [ -115.2241173, 36.2591883 ], [ -115.22412, 36.2591883 ], [ -115.22412, 36.2591667 ], [ -115.2241173, 36.2591667 ], [ -115.2241173, 36.259164 ], [ -115.2241011, 36.259164 ], [ -115.2241011, 36.2591613 ], [ -115.2240822, 36.2591613 ], [ -115.2240822, 36.2591586 ], [ -115.2240795, 36.2591586 ], [ -115.2240795, 36.2591451 ], [ -115.2240714, 36.2591451 ], [ -115.2240714, 36.2591424 ], [ -115.224044400000011, 36.2591424 ], [ -115.224044400000011, 36.2591181 ], [ -115.2240417, 36.2591181 ], [ -115.2240417, 36.2591073 ], [ -115.224044400000011, 36.2591073 ], [ -115.224044400000011, 36.2590857 ], [ -115.2240417, 36.2590857 ], [ -115.2240417, 36.259083 ], [ -115.224044400000011, 36.259083 ], [ -115.224044400000011, 36.2590749 ], [ -115.2240471, 36.2590749 ], [ -115.2240471, 36.2590722 ], [ -115.2240498, 36.2590722 ], [ -115.2240498, 36.2590695 ], [ -115.2240525, 36.2590695 ], [ -115.2240525, 36.2590668 ], [ -115.2240579, 36.2590668 ], [ -115.2240579, 36.2590641 ], [ -115.2240633, 36.2590641 ], [ -115.2240633, 36.2590587 ], [ -115.2240606, 36.2590587 ], [ -115.2240606, 36.259056 ], [ -115.2240633, 36.259056 ], [ -115.2240633, 36.2590533 ], [ -115.224066, 36.2590533 ], [ -115.224066, 36.2590398 ], [ -115.2240687, 36.2590398 ], [ -115.2240687, 36.2590371 ], [ -115.2241011, 36.2590371 ], [ -115.2241011, 36.2590344 ], [ -115.2241875, 36.2590344 ], [ -115.2241875, 36.2590371 ], [ -115.22419020000001, 36.2590371 ], [ -115.22419020000001, 36.2590749 ], [ -115.2241929, 36.2590749 ], [ -115.2241929, 36.2590803 ], [ -115.2241956, 36.2590803 ], [ -115.2241956, 36.2590965 ], [ -115.2241929, 36.2590965 ], [ -115.2241929, 36.2591073 ], [ -115.2241956, 36.2591073 ], [ -115.2241956, 36.2591262 ], [ -115.2241983, 36.2591262 ], [ -115.2241983, 36.2591613 ], [ -115.2241956, 36.2591613 ], [ -115.2241956, 36.259164 ], [ -115.2241929, 36.259164 ], [ -115.2241929, 36.2591667 ], [ -115.2241848, 36.2591667 ], [ -115.2241848, 36.2591694 ], [ -115.2241821, 36.2591694 ], [ -115.2241821, 36.2591748 ], [ -115.224179400000011, 36.2591748 ], [ -115.224179400000011, 36.2591775 ], [ -115.2241767, 36.2591775 ], [ -115.2241767, 36.2591829 ], [ -115.224179400000011, 36.2591829 ], [ -115.224179400000011, 36.2591883 ], [ -115.2241767, 36.2591883 ], [ -115.2241767, 36.2591937 ], [ -115.2241632, 36.2591937 ], [ -115.2241632, 36.2591964 ], [ -115.224147, 36.2591964 ], [ -115.224147, 36.2591991 ], [ -115.2241281, 36.2591991 ], [ -115.2241281, 36.2592018 ] ] ] } },
{ "type": "Feature", "properties": { "value": 255.0 }, "geometry": { "type": "Polygon", "coordinates": [ [ [ -115.2235071, 36.2592315 ], [ -115.2234585, 36.2592315 ], [ -115.2234585, 36.2592288 ], [ -115.2234531, 36.2592288 ], [ -115.2234531, 36.2591991 ], [ -115.2234504, 36.2591991 ], [ -115.2234504, 36.2591829 ], [ -115.2234477, 36.2591829 ], [ -115.2234477, 36.2591775 ], [ -115.2234423, 36.2591775 ], [ -115.2234423, 36.2591748 ], [ -115.2234153, 36.2591748 ], [ -115.2234153, 36.2591721 ], [ -115.2234072, 36.2591721 ], [ -115.2234072, 36.2591694 ], [ -115.2233802, 36.2591694 ], [ -115.2233802, 36.2591667 ], [ -115.2233748, 36.2591667 ], [ -115.2233748, 36.259164 ], [ -115.2233721, 36.259164 ], [ -115.2233721, 36.2591586 ], [ -115.22336940000001, 36.2591586 ], [ -115.22336940000001, 36.2591559 ], [ -115.2233667, 36.2591559 ], [ -115.2233667, 36.2591478 ], [ -115.2233613, 36.2591478 ], [ -115.2233613, 36.2591505 ], [ -115.2233586, 36.2591505 ], [ -115.2233586, 36.2591532 ], [ -115.2233289, 36.2591532 ], [ -115.2233289, 36.2591505 ], [ -115.2233262, 36.2591505 ], [ -115.2233262, 36.2591478 ], [ -115.2233289, 36.2591478 ], [ -115.2233289, 36.2591316 ], [ -115.2233262, 36.2591316 ], [ -115.2233262, 36.2591073 ], [ -115.2233289, 36.2591073 ], [ -115.2233289, 36.2591046 ], [ -115.2233316, 36.2591046 ], [ -115.2233316, 36.2591019 ], [ -115.2233424, 36.2591019 ], [ -115.2233424, 36.2590992 ], [ -115.2233586, 36.2590992 ], [ -115.2233586, 36.2591019 ], [ -115.2233613, 36.2591019 ], [ -115.2233613, 36.2591046 ], [ -115.223364, 36.2591046 ], [ -115.223364, 36.2591073 ], [ -115.2233613, 36.2591073 ], [ -115.2233613, 36.25911 ], [ -115.223364, 36.25911 ], [ -115.223364, 36.2591154 ], [ -115.2233667, 36.2591154 ], [ -115.2233667, 36.2591073 ], [ -115.22336940000001, 36.2591073 ], [ -115.22336940000001, 36.2590398 ], [ -115.2233721, 36.2590398 ], [ -115.2233721, 36.2590371 ], [ -115.2234126, 36.2590371 ], [ -115.2234126, 36.2590398 ], [ -115.2234747, 36.2590398 ], [ -115.2234747, 36.2590425 ], [ -115.2234774, 36.2590425 ], [ -115.2234774, 36.2590452 ], [ -115.2234801, 36.2590452 ], [ -115.2234801, 36.2590506 ], [ -115.2234828, 36.2590506 ], [ -115.2234828, 36.2590533 ], [ -115.2235314, 36.2590533 ], [ -115.2235314, 36.259056 ], [ -115.2235341, 36.259056 ], [ -115.2235341, 36.259083 ], [ -115.2235314, 36.259083 ], [ -115.2235314, 36.2590965 ], [ -115.2235341, 36.2590965 ], [ -115.2235341, 36.2591262 ], [ -115.2235314, 36.2591262 ], [ -115.2235314, 36.259137 ], [ -115.2235341, 36.259137 ], [ -115.2235341, 36.259218 ], [ -115.2235368, 36.259218 ], [ -115.2235368, 36.2592261 ], [ -115.2235341, 36.2592261 ], [ -115.2235341, 36.2592288 ], [ -115.2235071, 36.2592288 ], [ -115.2235071, 36.2592315 ] ], [ [ -115.2233667, 36.2591343 ], [ -115.2233667, 36.2591235 ], [ -115.223364, 36.2591235 ], [ -115.223364, 36.2591343 ], [ -115.2233667, 36.2591343 ] ] ] } },
{ "type": "Feature", "properties": { "value": 255.0 }, "geometry": { "type": "Polygon", "coordinates": [ [ [ -115.224741, 36.2592072 ], [ -115.2246654, 36.2592072 ], [ -115.2246654, 36.2592045 ], [ -115.22466270000001, 36.2592045 ], [ -115.22466270000001, 36.2591991 ], [ -115.22466, 36.2591991 ], [ -115.22466, 36.2591451 ], [ -115.22466270000001, 36.2591451 ], [ -115.22466270000001, 36.2591424 ], [ -115.2246654, 36.2591424 ], [ -115.2246654, 36.2591397 ], [ -115.2246681, 36.2591397 ], [ -115.2246681, 36.259137 ], [ -115.2246708, 36.259137 ], [ -115.2246708, 36.2591289 ], [ -115.2246735, 36.2591289 ], [ -115.2246735, 36.259056 ], [ -115.2246924, 36.259056 ], [ -115.2246924, 36.2590533 ], [ -115.2247221, 36.2590533 ], [ -115.2247221, 36.2590344 ], [ -115.224719400000012, 36.2590344 ], [ -115.224719400000012, 36.2590371 ], [ -115.2247167, 36.2590371 ], [ -115.2247167, 36.2590398 ], [ -115.224714, 36.2590398 ], [ -115.224714, 36.2590371 ], [ -115.22471130000001, 36.2590371 ], [ -115.22471130000001, 36.2590317 ], [ -115.2247086, 36.2590317 ], [ -115.2247086, 36.2590263 ], [ -115.22471130000001, 36.2590263 ], [ -115.22471130000001, 36.2590236 ], [ -115.224714, 36.2590236 ], [ -115.224714, 36.2590182 ], [ -115.224719400000012, 36.2590182 ], [ -115.224719400000012, 36.2590209 ], [ -115.2247221, 36.2590209 ], [ -115.2247221, 36.2590236 ], [ -115.2247275, 36.2590236 ], [ -115.2247275, 36.2590209 ], [ -115.224741, 36.2590209 ], [ -115.224741, 36.2590236 ], [ -115.2247545, 36.2590236 ], [ -115.2247545, 36.2590263 ], [ -115.2247815, 36.2590263 ], [ -115.2247815, 36.259029 ], [ -115.224797700000011, 36.259029 ], [ -115.224797700000011, 36.2590263 ], [ -115.2248058, 36.2590263 ], [ -115.2248058, 36.259029 ], [ -115.224816600000011, 36.259029 ], [ -115.224816600000011, 36.2590398 ], [ -115.2248193, 36.2590398 ], [ -115.2248193, 36.259056 ], [ -115.224822, 36.259056 ], [ -115.224822, 36.2590776 ], [ -115.2248247, 36.2590776 ], [ -115.2248247, 36.2591343 ], [ -115.224822, 36.2591343 ], [ -115.224822, 36.259137 ], [ -115.2248085, 36.259137 ], [ -115.2248085, 36.2591397 ], [ -115.2248058, 36.2591397 ], [ -115.2248058, 36.2591532 ], [ -115.2248031, 36.2591532 ], [ -115.2248031, 36.2591559 ], [ -115.2248004, 36.2591559 ], [ -115.2248004, 36.2591586 ], [ -115.2247653, 36.2591586 ], [ -115.2247653, 36.2591559 ], [ -115.2247626, 36.2591559 ], [ -115.2247626, 36.2591532 ], [ -115.2247572, 36.2591532 ], [ -115.2247572, 36.2591505 ], [ -115.224749100000011, 36.2591505 ], [ -115.224749100000011, 36.2591532 ], [ -115.2247464, 36.2591532 ], [ -115.2247464, 36.2592045 ], [ -115.224741, 36.2592045 ], [ -115.224741, 36.2592072 ] ] ] } },
{ "type": "Feature", "properties": { "value": 255.0 }, "geometry": { "type": "Polygon", "coordinates": [ [ [ -115.2242901, 36.2592153 ], [ -115.2242253, 36.2592153 ], [ -115.2242253, 36.2592126 ], [ -115.2242199, 36.2592126 ], [ -115.2242199, 36.2592099 ], [ -115.2242172, 36.2592099 ], [ -115.2242172, 36.2591775 ], [ -115.2242145, 36.2591775 ], [ -115.2242145, 36.2591613 ], [ -115.2242172, 36.2591613 ], [ -115.2242172, 36.2590857 ], [ -115.2242145, 36.2590857 ], [ -115.2242145, 36.2590695 ], [ -115.2242118, 36.2590695 ], [ -115.2242118, 36.2590398 ], [ -115.2242145, 36.2590398 ], [ -115.2242145, 36.2590371 ], [ -115.2242874, 36.2590371 ], [ -115.2242874, 36.2590344 ], [ -115.224295500000011, 36.2590344 ], [ -115.224295500000011, 36.2590371 ], [ -115.224314400000011, 36.2590371 ], [ -115.224314400000011, 36.2590344 ], [ -115.2243171, 36.2590344 ], [ -115.2243171, 36.2590182 ], [ -115.2243198, 36.2590182 ], [ -115.2243198, 36.2590155 ], [ -115.2243225, 36.2590155 ], [ -115.2243225, 36.2590128 ], [ -115.2243711, 36.2590128 ], [ -115.2243711, 36.2590155 ], [ -115.2243738, 36.2590155 ], [ -115.2243738, 36.2590236 ], [ -115.2243765, 36.2590236 ], [ -115.2243765, 36.2590425 ], [ -115.2243792, 36.2590425 ], [ -115.2243792, 36.2590695 ], [ -115.224381900000012, 36.2590695 ], [ -115.224381900000012, 36.2590803 ], [ -115.2243792, 36.2590803 ], [ -115.2243792, 36.2591181 ], [ -115.224381900000012, 36.2591181 ], [ -115.224381900000012, 36.2591451 ], [ -115.2243792, 36.2591451 ], [ -115.2243792, 36.2591478 ], [ -115.2243738, 36.2591478 ], [ -115.2243738, 36.2591505 ], [ -115.2243468, 36.2591505 ], [ -115.2243468, 36.2591532 ], [ -115.22434410000001, 36.2591532 ], [ -115.22434410000001, 36.2591559 ], [ -115.224336, 36.2591559 ], [ -115.224336, 36.2591586 ], [ -115.2243306, 36.2591586 ], [ -115.2243306, 36.2591559 ], [ -115.2243171, 36.2591559 ], [ -115.2243171, 36.2591586 ], [ -115.2243063, 36.2591586 ], [ -115.2243063, 36.2592099 ], [ -115.2243036, 36.2592099 ], [ -115.2243036, 36.2592126 ], [ -115.2242901, 36.2592126 ], [ -115.2242901, 36.2592153 ] ] ] } },
{ "type": "Feature", "properties": { "value": 255.0 }, "geometry": { "type": "Polygon", "coordinates": [ [ [ -115.2235152, 36.259029 ], [ -115.2235125, 36.259029 ], [ -115.2235125, 36.2590209 ], [ -115.2235098, 36.2590209 ], [ -115.2235098, 36.2590182 ], [ -115.2235125, 36.2590182 ], [ -115.2235125, 36.2590155 ], [ -115.2235152, 36.2590155 ], [ -115.2235152, 36.2590182 ], [ -115.2235287, 36.2590182 ], [ -115.2235287, 36.2590236 ], [ -115.2235179, 36.2590236 ], [ -115.2235179, 36.2590263 ], [ -115.2235152, 36.2590263 ], [ -115.2235152, 36.259029 ] ] ] } },
{ "type": "Feature", "properties": { "value": 255.0 }, "geometry": { "type": "Polygon", "coordinates": [ [ [ -115.2246114, 36.2589831 ], [ -115.2245925, 36.2589831 ], [ -115.2245925, 36.2589696 ], [ -115.2246087, 36.2589696 ], [ -115.2246087, 36.2589723 ], [ -115.2246195, 36.2589723 ], [ -115.2246195, 36.2589669 ], [ -115.2246222, 36.2589669 ], [ -115.2246222, 36.2589696 ], [ -115.2246249, 36.2589696 ], [ -115.2246249, 36.2589723 ], [ -115.2246276, 36.2589723 ], [ -115.2246276, 36.2589696 ], [ -115.2246303, 36.2589696 ], [ -115.2246303, 36.2589669 ], [ -115.224633, 36.2589669 ], [ -115.224633, 36.2589696 ], [ -115.2246357, 36.2589696 ], [ -115.2246357, 36.2589777 ], [ -115.224633, 36.2589777 ], [ -115.224633, 36.2589804 ], [ -115.2246114, 36.2589804 ], [ -115.2246114, 36.2589831 ] ] ] } },
{ "type": "Feature", "properties": { "value": 255.0 }, "geometry": { "type": "Polygon", "coordinates": [ [ [ -115.2249597, 36.258975 ], [ -115.2249408, 36.258975 ], [ -115.2249408, 36.2589723 ], [ -115.2249354, 36.2589723 ], [ -115.2249354, 36.2589669 ], [ -115.224932700000011, 36.2589669 ], [ -115.224932700000011, 36.2589588 ], [ -115.22493, 36.2589588 ], [ -115.22493, 36.2589453 ], [ -115.2249273, 36.2589453 ], [ -115.2249273, 36.2589345 ], [ -115.2249246, 36.2589345 ], [ -115.2249246, 36.2589237 ], [ -115.224921900000012, 36.2589237 ], [ -115.224921900000012, 36.2589156 ], [ -115.2249246, 36.2589156 ], [ -115.2249246, 36.2589129 ], [ -115.2249543, 36.2589129 ], [ -115.2249543, 36.2589156 ], [ -115.2249597, 36.2589156 ], [ -115.2249597, 36.2589102 ], [ -115.22496240000001, 36.2589102 ], [ -115.22496240000001, 36.2589075 ], [ -115.224984, 36.2589075 ], [ -115.224984, 36.2589102 ], [ -115.2249867, 36.2589102 ], [ -115.2249867, 36.2589156 ], [ -115.224989400000013, 36.2589156 ], [ -115.224989400000013, 36.2589237 ], [ -115.2249921, 36.2589237 ], [ -115.2249921, 36.2589453 ], [ -115.2249948, 36.2589453 ], [ -115.2249948, 36.2589669 ], [ -115.2249732, 36.2589669 ], [ -115.2249732, 36.2589642 ], [ -115.2249678, 36.2589642 ], [ -115.2249678, 36.2589588 ], [ -115.2249651, 36.2589588 ], [ -115.2249651, 36.2589696 ], [ -115.22496240000001, 36.2589696 ], [ -115.22496240000001, 36.2589723 ], [ -115.2249597, 36.2589723 ], [ -115.2249597, 36.258975 ] ] ] } },
{ "type": "Feature", "properties": { "value": 255.0 }, "geometry": { "type": "Polygon", "coordinates": [ [ [ -115.2233883, 36.2589858 ], [ -115.2233775, 36.2589858 ], [ -115.2233775, 36.2589831 ], [ -115.2233667, 36.2589831 ], [ -115.2233667, 36.2589777 ], [ -115.223364, 36.2589777 ], [ -115.223364, 36.2589534 ], [ -115.2233613, 36.2589534 ], [ -115.2233613, 36.2589453 ], [ -115.2233586, 36.2589453 ], [ -115.2233586, 36.2589102 ], [ -115.2233559, 36.2589102 ], [ -115.2233559, 36.2589021 ], [ -115.2233586, 36.2589021 ], [ -115.2233586, 36.258894 ], [ -115.2233559, 36.258894 ], [ -115.2233559, 36.2588427 ], [ -115.22336940000001, 36.2588427 ], [ -115.22336940000001, 36.25884 ], [ -115.2233748, 36.25884 ], [ -115.2233748, 36.2588427 ], [ -115.2233829, 36.2588427 ], [ -115.2233829, 36.25884 ], [ -115.223391, 36.25884 ], [ -115.223391, 36.2588373 ], [ -115.2233937, 36.2588373 ], [ -115.2233937, 36.2588346 ], [ -115.2234126, 36.2588346 ], [ -115.2234126, 36.2588319 ], [ -115.2234234, 36.2588319 ], [ -115.2234234, 36.2588292 ], [ -115.2234261, 36.2588292 ], [ -115.2234261, 36.2588184 ], [ -115.2234288, 36.2588184 ], [ -115.2234288, 36.2587914 ], [ -115.2234315, 36.2587914 ], [ -115.2234315, 36.2587887 ], [ -115.2235098, 36.2587887 ], [ -115.2235098, 36.2587914 ], [ -115.2235125, 36.2587914 ], [ -115.2235125, 36.25884 ], [ -115.2235152, 36.25884 ], [ -115.2235152, 36.2588832 ], [ -115.2235179, 36.2588832 ], [ -115.2235179, 36.2589534 ], [ -115.2235152, 36.2589534 ], [ -115.2235152, 36.2589588 ], [ -115.2235098, 36.2589588 ], [ -115.2235098, 36.2589615 ], [ -115.22350440000001, 36.2589615 ], [ -115.22350440000001, 36.2589642 ], [ -115.2235017, 36.2589642 ], [ -115.2235017, 36.258975 ], [ -115.2234882, 36.258975 ], [ -115.2234882, 36.2589777 ], [ -115.22348550000001, 36.2589777 ], [ -115.22348550000001, 36.258975 ], [ -115.2234504, 36.258975 ], [ -115.2234504, 36.2589777 ], [ -115.2234261, 36.2589777 ], [ -115.2234261, 36.2589804 ], [ -115.2234207, 36.2589804 ], [ -115.2234207, 36.2589831 ], [ -115.2233883, 36.2589831 ], [ -115.2233883, 36.2589858 ] ] ] } },
{ "type": "Feature", "properties": { "value": 255.0 }, "geometry": { "type": "Polygon", "coordinates": [ [ [ -115.2248139, 36.2589507 ], [ -115.2247923, 36.2589507 ], [ -115.2247923, 36.258948 ], [ -115.224786900000012, 36.258948 ], [ -115.224786900000012, 36.2589453 ], [ -115.2247842, 36.2589453 ], [ -115.2247842, 36.2589426 ], [ -115.2247815, 36.2589426 ], [ -115.2247815, 36.2589399 ], [ -115.2247761, 36.2589399 ], [ -115.2247761, 36.2589372 ], [ -115.2247707, 36.2589372 ], [ -115.2247707, 36.2589345 ], [ -115.224741, 36.2589345 ], [ -115.224741, 36.2589372 ], [ -115.2246978, 36.2589372 ], [ -115.2246978, 36.2589318 ], [ -115.2246951, 36.2589318 ], [ -115.2246951, 36.2589075 ], [ -115.2246924, 36.2589075 ], [ -115.2246924, 36.258894 ], [ -115.2246951, 36.258894 ], [ -115.2246951, 36.2588886 ], [ -115.2246924, 36.2588886 ], [ -115.2246924, 36.2588643 ], [ -115.2246897, 36.2588643 ], [ -115.2246897, 36.2588589 ], [ -115.224687, 36.2588589 ], [ -115.224687, 36.2588562 ], [ -115.2246843, 36.2588562 ], [ -115.2246843, 36.2588535 ], [ -115.2246789, 36.2588535 ], [ -115.2246789, 36.2588481 ], [ -115.2246762, 36.2588481 ], [ -115.2246762, 36.2588427 ], [ -115.2246789, 36.2588427 ], [ -115.2246789, 36.2588319 ], [ -115.2246762, 36.2588319 ], [ -115.2246762, 36.2587995 ], [ -115.2246735, 36.2587995 ], [ -115.2246735, 36.2587941 ], [ -115.2246762, 36.2587941 ], [ -115.2246762, 36.2587914 ], [ -115.2246843, 36.2587914 ], [ -115.2246843, 36.2587887 ], [ -115.2246951, 36.2587887 ], [ -115.2246951, 36.2587914 ], [ -115.224719400000012, 36.2587914 ], [ -115.224719400000012, 36.2587887 ], [ -115.2247545, 36.2587887 ], [ -115.2247545, 36.2587914 ], [ -115.2247572, 36.2587914 ], [ -115.2247572, 36.2587941 ], [ -115.2247599, 36.2587941 ], [ -115.2247599, 36.2588346 ], [ -115.2247626, 36.2588346 ], [ -115.2247626, 36.25884 ], [ -115.2247815, 36.25884 ], [ -115.2247815, 36.2588373 ], [ -115.2248058, 36.2588373 ], [ -115.2248058, 36.25884 ], [ -115.224822, 36.25884 ], [ -115.224822, 36.2588427 ], [ -115.2248247, 36.2588427 ], [ -115.2248247, 36.2588454 ], [ -115.2248301, 36.2588454 ], [ -115.2248301, 36.2588481 ], [ -115.2248328, 36.2588481 ], [ -115.2248328, 36.2588508 ], [ -115.2248382, 36.2588508 ], [ -115.2248382, 36.2588535 ], [ -115.2248409, 36.2588535 ], [ -115.2248409, 36.2588589 ], [ -115.2248436, 36.2588589 ], [ -115.2248436, 36.2588859 ], [ -115.22484630000001, 36.2588859 ], [ -115.22484630000001, 36.258894 ], [ -115.2248436, 36.258894 ], [ -115.2248436, 36.2589048 ], [ -115.2248409, 36.2589048 ], [ -115.2248409, 36.2589075 ], [ -115.2248382, 36.2589075 ], [ -115.2248382, 36.2589102 ], [ -115.224835500000012, 36.2589102 ], [ -115.224835500000012, 36.2589156 ], [ -115.2248328, 36.2589156 ], [ -115.2248328, 36.2589264 ], [ -115.2248301, 36.2589264 ], [ -115.2248301, 36.2589291 ], [ -115.2248274, 36.2589291 ], [ -115.2248274, 36.2589345 ], [ -115.2248247, 36.2589345 ], [ -115.2248247, 36.2589372 ], [ -115.224822, 36.2589372 ], [ -115.224822, 36.2589399 ], [ -115.2248193, 36.2589399 ], [ -115.2248193, 36.2589426 ], [ -115.224816600000011, 36.2589426 ], [ -115.224816600000011, 36.2589453 ], [ -115.2248139, 36.2589453 ], [ -115.2248139, 36.2589507 ] ] ] } },
{ "type": "Feature", "properties": { "value": 255.0 }, "geometry": { "type": "Polygon", "coordinates": [ [ [ -115.223688, 36.2589399 ], [ -115.2236691, 36.2589399 ], [ -115.2236691, 36.2589372 ], [ -115.2236421, 36.2589372 ], [ -115.2236421, 36.2589345 ], [ -115.2235989, 36.2589345 ], [ -115.2235989, 36.2589318 ], [ -115.2235908, 36.2589318 ], [ -115.2235908, 36.2589048 ], [ -115.2235881, 36.2589048 ], [ -115.2235881, 36.2588967 ], [ -115.2235908, 36.2588967 ], [ -115.2235908, 36.2588778 ], [ -115.2235881, 36.2588778 ], [ -115.2235881, 36.2588724 ], [ -115.2235908, 36.2588724 ], [ -115.2235908, 36.258867 ], [ -115.2235935, 36.258867 ], [ -115.2235935, 36.2588616 ], [ -115.2235962, 36.2588616 ], [ -115.2235962, 36.2588589 ], [ -115.2236124, 36.2588589 ], [ -115.2236124, 36.2588562 ], [ -115.2236151, 36.2588562 ], [ -115.2236151, 36.2588535 ], [ -115.2236178, 36.2588535 ], [ -115.2236178, 36.2588454 ], [ -115.22362050000001, 36.2588454 ], [ -115.22362050000001, 36.2588373 ], [ -115.2236232, 36.2588373 ], [ -115.2236232, 36.2588319 ], [ -115.2236259, 36.2588319 ], [ -115.2236259, 36.2588292 ], [ -115.2236313, 36.2588292 ], [ -115.2236313, 36.2588238 ], [ -115.223634, 36.2588238 ], [ -115.223634, 36.2588211 ], [ -115.2236421, 36.2588211 ], [ -115.2236421, 36.2588184 ], [ -115.2236448, 36.2588184 ], [ -115.2236448, 36.258813 ], [ -115.2236475, 36.258813 ], [ -115.2236475, 36.2587995 ], [ -115.2236448, 36.2587995 ], [ -115.2236448, 36.2587941 ], [ -115.2236421, 36.2587941 ], [ -115.2236421, 36.2587914 ], [ -115.2236448, 36.2587914 ], [ -115.2236448, 36.258786 ], [ -115.2236421, 36.258786 ], [ -115.2236421, 36.2587833 ], [ -115.2236475, 36.2587833 ], [ -115.2236475, 36.2587806 ], [ -115.2236664, 36.2587806 ], [ -115.2236664, 36.2587779 ], [ -115.2237258, 36.2587779 ], [ -115.2237258, 36.2587806 ], [ -115.2237339, 36.2587806 ], [ -115.2237339, 36.2587968 ], [ -115.2237366, 36.2587968 ], [ -115.2237366, 36.2588265 ], [ -115.2237393, 36.2588265 ], [ -115.2237393, 36.2588454 ], [ -115.223742, 36.2588454 ], [ -115.223742, 36.2588886 ], [ -115.2237447, 36.2588886 ], [ -115.2237447, 36.2589318 ], [ -115.2237393, 36.2589318 ], [ -115.2237393, 36.2589345 ], [ -115.2237177, 36.2589345 ], [ -115.2237177, 36.2589372 ], [ -115.223688, 36.2589372 ], [ -115.223688, 36.2589399 ] ] ] } },
{ "type": "Feature", "properties": { "value": 255.0 }, "geometry": { "type": "Polygon", "coordinates": [ [ [ -115.22450880000001, 36.2589399 ], [ -115.2245034, 36.2589399 ], [ -115.2245034, 36.2589372 ], [ -115.224498, 36.2589372 ], [ -115.224498, 36.258921 ], [ -115.2244953, 36.258921 ], [ -115.2244953, 36.2588832 ], [ -115.2244926, 36.2588832 ], [ -115.2244926, 36.2588265 ], [ -115.2245115, 36.2588265 ], [ -115.2245115, 36.2588238 ], [ -115.22452770000001, 36.2588238 ], [ -115.22452770000001, 36.2588211 ], [ -115.2245358, 36.2588211 ], [ -115.2245358, 36.2588184 ], [ -115.224565500000011, 36.2588184 ], [ -115.224565500000011, 36.2588049 ], [ -115.2245682, 36.2588049 ], [ -115.2245682, 36.2587914 ], [ -115.224565500000011, 36.2587914 ], [ -115.224565500000011, 36.2587671 ], [ -115.2245682, 36.2587671 ], [ -115.2245682, 36.2587644 ], [ -115.2246465, 36.2587644 ], [ -115.2246465, 36.2587671 ], [ -115.2246492, 36.2587671 ], [ -115.2246492, 36.258786 ], [ -115.224651900000012, 36.258786 ], [ -115.224651900000012, 36.2588427 ], [ -115.2246546, 36.2588427 ], [ -115.2246546, 36.2588994 ], [ -115.2246573, 36.2588994 ], [ -115.2246573, 36.2589129 ], [ -115.2246546, 36.2589129 ], [ -115.2246546, 36.2589345 ], [ -115.2245898, 36.2589345 ], [ -115.2245898, 36.2589372 ], [ -115.22450880000001, 36.2589372 ], [ -115.22450880000001, 36.2589399 ] ] ] } },
{ "type": "Feature", "properties": { "value": 255.0 }, "geometry": { "type": "Polygon", "coordinates": [ [ [ -115.2243657, 36.2589291 ], [ -115.2243522, 36.2589291 ], [ -115.2243522, 36.2589264 ], [ -115.22434410000001, 36.2589264 ], [ -115.22434410000001, 36.2589237 ], [ -115.2243225, 36.2589237 ], [ -115.2243225, 36.2589264 ], [ -115.2242604, 36.2589264 ], [ -115.2242604, 36.2589237 ], [ -115.224255, 36.2589237 ], [ -115.224255, 36.258921 ], [ -115.2242496, 36.258921 ], [ -115.2242496, 36.2589183 ], [ -115.224246900000011, 36.2589183 ], [ -115.224246900000011, 36.2589075 ], [ -115.2242442, 36.2589075 ], [ -115.2242442, 36.2588994 ], [ -115.2242415, 36.2588994 ], [ -115.2242415, 36.2588859 ], [ -115.2242388, 36.2588859 ], [ -115.2242388, 36.2588724 ], [ -115.2242415, 36.2588724 ], [ -115.2242415, 36.2588616 ], [ -115.2242388, 36.2588616 ], [ -115.2242388, 36.25884 ], [ -115.2242361, 36.25884 ], [ -115.2242361, 36.2588319 ], [ -115.2242334, 36.2588319 ], [ -115.2242334, 36.2587725 ], [ -115.2242361, 36.2587725 ], [ -115.2242361, 36.2587698 ], [ -115.2242388, 36.2587698 ], [ -115.2242388, 36.2587671 ], [ -115.224314400000011, 36.2587671 ], [ -115.224314400000011, 36.2587698 ], [ -115.2243171, 36.2587698 ], [ -115.2243171, 36.2587779 ], [ -115.2243198, 36.2587779 ], [ -115.2243198, 36.2588049 ], [ -115.2243225, 36.2588049 ], [ -115.2243225, 36.2588265 ], [ -115.22432520000001, 36.2588265 ], [ -115.22432520000001, 36.2588292 ], [ -115.2243279, 36.2588292 ], [ -115.2243279, 36.2588346 ], [ -115.2243333, 36.2588346 ], [ -115.2243333, 36.2588373 ], [ -115.224336, 36.2588373 ], [ -115.224336, 36.2588346 ], [ -115.2243387, 36.2588346 ], [ -115.2243387, 36.2588292 ], [ -115.2243414, 36.2588292 ], [ -115.2243414, 36.2588319 ], [ -115.2243468, 36.2588319 ], [ -115.2243468, 36.2588346 ], [ -115.2243549, 36.2588346 ], [ -115.2243549, 36.2588373 ], [ -115.224363, 36.2588373 ], [ -115.224363, 36.25884 ], [ -115.2243657, 36.25884 ], [ -115.2243657, 36.2588427 ], [ -115.2243684, 36.2588427 ], [ -115.2243684, 36.2588508 ], [ -115.2243711, 36.2588508 ], [ -115.2243711, 36.2588535 ], [ -115.2243738, 36.2588535 ], [ -115.2243738, 36.2588616 ], [ -115.224381900000012, 36.2588616 ], [ -115.224381900000012, 36.2588643 ], [ -115.2243846, 36.2588643 ], [ -115.2243846, 36.258867 ], [ -115.2243873, 36.258867 ], [ -115.2243873, 36.2588859 ], [ -115.2243846, 36.2588859 ], [ -115.2243846, 36.2588913 ], [ -115.224381900000012, 36.2588913 ], [ -115.224381900000012, 36.2589075 ], [ -115.2243792, 36.2589075 ], [ -115.2243792, 36.2589156 ], [ -115.2243765, 36.2589156 ], [ -115.2243765, 36.258921 ], [ -115.2243738, 36.258921 ], [ -115.2243738, 36.2589237 ], [ -115.2243711, 36.2589237 ], [ -115.2243711, 36.2589264 ], [ -115.2243657, 36.2589264 ], [ -115.2243657, 36.2589291 ] ] ] } },
{ "type": "Feature", "properties": { "value": 255.0 }, "geometry": { "type": "Polygon", "coordinates": [ [ [ -115.2240795, 36.258948 ], [ -115.2240363, 36.258948 ], [ -115.2240363, 36.2589453 ], [ -115.2240336, 36.2589453 ], [ -115.2240336, 36.2589318 ], [ -115.2240309, 36.2589318 ], [ -115.2240309, 36.258921 ], [ -115.2240282, 36.258921 ], [ -115.2240282, 36.2589156 ], [ -115.22402550000001, 36.2589156 ], [ -115.22402550000001, 36.2589048 ], [ -115.2240228, 36.2589048 ], [ -115.2240228, 36.258867 ], [ -115.22402550000001, 36.258867 ], [ -115.22402550000001, 36.2588589 ], [ -115.2240228, 36.2588589 ], [ -115.2240228, 36.2588508 ], [ -115.22402550000001, 36.2588508 ], [ -115.22402550000001, 36.25884 ], [ -115.2240282, 36.25884 ], [ -115.2240282, 36.2588346 ], [ -115.2240336, 36.2588346 ], [ -115.2240336, 36.2588319 ], [ -115.2240363, 36.2588319 ], [ -115.2240363, 36.2588292 ], [ -115.2240498, 36.2588292 ], [ -115.2240498, 36.2588265 ], [ -115.2240606, 36.2588265 ], [ -115.2240606, 36.2588238 ], [ -115.2240822, 36.2588238 ], [ -115.2240822, 36.2588265 ], [ -115.2240849, 36.2588265 ], [ -115.2240849, 36.2588238 ], [ -115.224093, 36.2588238 ], [ -115.224093, 36.2588184 ], [ -115.2240957, 36.2588184 ], [ -115.2240957, 36.2587779 ], [ -115.2240984, 36.2587779 ], [ -115.2240984, 36.2587752 ], [ -115.2241713, 36.2587752 ], [ -115.2241713, 36.2588049 ], [ -115.224174, 36.2588049 ], [ -115.224174, 36.2588238 ], [ -115.2241713, 36.2588238 ], [ -115.2241713, 36.2588346 ], [ -115.224174, 36.2588346 ], [ -115.224174, 36.2588427 ], [ -115.2241713, 36.2588427 ], [ -115.2241713, 36.2589183 ], [ -115.2241362, 36.2589183 ], [ -115.2241362, 36.258921 ], [ -115.2240876, 36.258921 ], [ -115.2240876, 36.2589291 ], [ -115.2240849, 36.2589291 ], [ -115.2240849, 36.2589453 ], [ -115.2240795, 36.2589453 ], [ -115.2240795, 36.258948 ] ] ] } },
{ "type": "Feature", "properties": { "value": 255.0 }, "geometry": { "type": "Polygon", "coordinates": [ [ [ -115.223931, 36.2589588 ], [ -115.2238284, 36.2589588 ], [ -115.2238284, 36.2589561 ], [ -115.2238257, 36.2589561 ], [ -115.2238257, 36.2589507 ], [ -115.223823, 36.2589507 ], [ -115.223823, 36.2589426 ], [ -115.2238203, 36.2589426 ], [ -115.2238203, 36.2589372 ], [ -115.223823, 36.2589372 ], [ -115.223823, 36.258921 ], [ -115.2238257, 36.258921 ], [ -115.2238257, 36.2589021 ], [ -115.2238284, 36.2589021 ], [ -115.2238284, 36.2588913 ], [ -115.2238257, 36.2588913 ], [ -115.2238257, 36.2588724 ], [ -115.223823, 36.2588724 ], [ -115.223823, 36.2588562 ], [ -115.2238203, 36.2588562 ], [ -115.2238203, 36.2588427 ], [ -115.2238176, 36.2588427 ], [ -115.2238176, 36.2588184 ], [ -115.2238203, 36.2588184 ], [ -115.2238203, 36.2587887 ], [ -115.223823, 36.2587887 ], [ -115.223823, 36.2587833 ], [ -115.2238284, 36.2587833 ], [ -115.2238284, 36.2587806 ], [ -115.2238338, 36.2587806 ], [ -115.2238338, 36.2587779 ], [ -115.2238473, 36.2587779 ], [ -115.2238473, 36.2587752 ], [ -115.2238527, 36.2587752 ], [ -115.2238527, 36.2587779 ], [ -115.2238581, 36.2587779 ], [ -115.2238581, 36.2587752 ], [ -115.2238932, 36.2587752 ], [ -115.2238932, 36.2587779 ], [ -115.2239013, 36.2587779 ], [ -115.2239013, 36.2587833 ], [ -115.223904, 36.2587833 ], [ -115.223904, 36.2587968 ], [ -115.2239067, 36.2587968 ], [ -115.2239067, 36.2588103 ], [ -115.223904, 36.2588103 ], [ -115.223904, 36.2588184 ], [ -115.2239067, 36.2588184 ], [ -115.2239067, 36.2588238 ], [ -115.2239121, 36.2588238 ], [ -115.2239121, 36.2588265 ], [ -115.2239796, 36.2588265 ], [ -115.2239796, 36.2588292 ], [ -115.2239823, 36.2588292 ], [ -115.2239823, 36.2588589 ], [ -115.2239796, 36.2588589 ], [ -115.2239796, 36.2588778 ], [ -115.2239823, 36.2588778 ], [ -115.2239823, 36.2589102 ], [ -115.2239796, 36.2589102 ], [ -115.2239796, 36.2589372 ], [ -115.223976900000011, 36.2589372 ], [ -115.223976900000011, 36.2589534 ], [ -115.2239742, 36.2589534 ], [ -115.2239742, 36.2589561 ], [ -115.223931, 36.2589561 ], [ -115.223931, 36.2589588 ] ] ] } },
{ "type": "Feature", "properties": { "value": 255.0 }, "geometry": { "type": "Polygon", "coordinates": [ [ [ -115.2250326, 36.2587968 ], [ -115.2250245, 36.2587968 ], [ -115.2250245, 36.2587941 ], [ -115.225019100000011, 36.2587941 ], [ -115.225019100000011, 36.2587914 ], [ -115.2250137, 36.2587914 ], [ -115.2250137, 36.2587887 ], [ -115.225011, 36.2587887 ], [ -115.225011, 36.2587833 ], [ -115.2250083, 36.2587833 ], [ -115.2250083, 36.2587779 ], [ -115.225011, 36.2587779 ], [ -115.225011, 36.2587725 ], [ -115.2250164, 36.2587725 ], [ -115.2250164, 36.2587698 ], [ -115.2250218, 36.2587698 ], [ -115.2250218, 36.2587671 ], [ -115.22502990000001, 36.2587671 ], [ -115.22502990000001, 36.2587644 ], [ -115.2250326, 36.2587644 ], [ -115.2250326, 36.2587968 ] ] ] } },
{ "type": "Feature", "properties": { "value": 255.0 }, "geometry": { "type": "Polygon", "coordinates": [ [ [ -115.2235503, 36.2585457 ], [ -115.2234693, 36.2585457 ], [ -115.2234693, 36.258543 ], [ -115.2234666, 36.258543 ], [ -115.2234666, 36.2585403 ], [ -115.2234693, 36.2585403 ], [ -115.2234693, 36.2585322 ], [ -115.2234666, 36.2585322 ], [ -115.2234666, 36.2585133 ], [ -115.2234693, 36.2585133 ], [ -115.2234693, 36.2585106 ], [ -115.2234666, 36.2585106 ], [ -115.2234666, 36.2585052 ], [ -115.2234639, 36.2585052 ], [ -115.2234639, 36.2585025 ], [ -115.2234612, 36.2585025 ], [ -115.2234612, 36.2584998 ], [ -115.2234585, 36.2584998 ], [ -115.2234585, 36.2584971 ], [ -115.2234558, 36.2584971 ], [ -115.2234558, 36.2584998 ], [ -115.2234153, 36.2584998 ], [ -115.2234153, 36.2584971 ], [ -115.2234126, 36.2584971 ], [ -115.2234126, 36.2584836 ], [ -115.2234099, 36.2584836 ], [ -115.2234099, 36.2584809 ], [ -115.2233991, 36.2584809 ], [ -115.2233991, 36.2584782 ], [ -115.223391, 36.2584782 ], [ -115.223391, 36.258462 ], [ -115.2233883, 36.258462 ], [ -115.2233883, 36.2584377 ], [ -115.223391, 36.2584377 ], [ -115.223391, 36.2584323 ], [ -115.2233883, 36.2584323 ], [ -115.2233883, 36.2584026 ], [ -115.223391, 36.2584026 ], [ -115.223391, 36.2583999 ], [ -115.2234234, 36.2583999 ], [ -115.2234234, 36.2583972 ], [ -115.2235341, 36.2583972 ], [ -115.2235341, 36.2583999 ], [ -115.2235368, 36.2583999 ], [ -115.2235368, 36.2584215 ], [ -115.2235395, 36.2584215 ], [ -115.2235395, 36.2584809 ], [ -115.2235422, 36.2584809 ], [ -115.2235422, 36.2584836 ], [ -115.2235476, 36.2584836 ], [ -115.2235476, 36.2584863 ], [ -115.223553, 36.2584863 ], [ -115.223553, 36.2585079 ], [ -115.2235557, 36.2585079 ], [ -115.2235557, 36.258543 ], [ -115.2235503, 36.258543 ], [ -115.2235503, 36.2585457 ] ] ] } },
{ "type": "Feature", "properties": { "value": 255.0 }, "geometry": { "type": "Polygon", "coordinates": [ [ [ -115.2250326, 36.2585106 ], [ -115.2250218, 36.2585106 ], [ -115.2250218, 36.2585079 ], [ -115.2250164, 36.2585079 ], [ -115.2250164, 36.2585052 ], [ -115.2250137, 36.2585052 ], [ -115.2250137, 36.2585025 ], [ -115.2250083, 36.2585025 ], [ -115.2250083, 36.2584998 ], [ -115.2250029, 36.2584998 ], [ -115.2250029, 36.2584971 ], [ -115.2249975, 36.2584971 ], [ -115.2249975, 36.2584944 ], [ -115.2249921, 36.2584944 ], [ -115.2249921, 36.2584917 ], [ -115.2249867, 36.2584917 ], [ -115.2249867, 36.258489 ], [ -115.22498130000001, 36.258489 ], [ -115.22498130000001, 36.2584863 ], [ -115.2249759, 36.2584863 ], [ -115.2249759, 36.2584836 ], [ -115.224970500000012, 36.2584836 ], [ -115.224970500000012, 36.2584809 ], [ -115.2249678, 36.2584809 ], [ -115.2249678, 36.2584782 ], [ -115.22496240000001, 36.2584782 ], [ -115.22496240000001, 36.2584728 ], [ -115.2249597, 36.2584728 ], [ -115.2249597, 36.2584647 ], [ -115.22496240000001, 36.2584647 ], [ -115.22496240000001, 36.258462 ], [ -115.2249651, 36.258462 ], [ -115.2249651, 36.2584593 ], [ -115.2249678, 36.2584593 ], [ -115.2249678, 36.2584566 ], [ -115.224970500000012, 36.2584566 ], [ -115.224970500000012, 36.2584539 ], [ -115.2249732, 36.2584539 ], [ -115.2249732, 36.2584512 ], [ -115.2249759, 36.2584512 ], [ -115.2249759, 36.2584485 ], [ -115.22498130000001, 36.2584485 ], [ -115.22498130000001, 36.2584458 ], [ -115.224984, 36.2584458 ], [ -115.224984, 36.2584431 ], [ -115.2249867, 36.2584431 ], [ -115.2249867, 36.2584404 ], [ -115.224989400000013, 36.2584404 ], [ -115.224989400000013, 36.2584377 ], [ -115.2249921, 36.2584377 ], [ -115.2249921, 36.258435 ], [ -115.2249948, 36.258435 ], [ -115.2249948, 36.2584323 ], [ -115.225000200000011, 36.2584323 ], [ -115.225000200000011, 36.2584296 ], [ -115.2250056, 36.2584296 ], [ -115.2250056, 36.2584269 ], [ -115.225011, 36.2584269 ], [ -115.225011, 36.2584242 ], [ -115.2250137, 36.2584242 ], [ -115.2250137, 36.2584188 ], [ -115.2250164, 36.2584188 ], [ -115.2250164, 36.2584161 ], [ -115.225019100000011, 36.2584161 ], [ -115.225019100000011, 36.2584134 ], [ -115.2250245, 36.2584134 ], [ -115.2250245, 36.2584107 ], [ -115.22502990000001, 36.2584107 ], [ -115.22502990000001, 36.258408 ], [ -115.2250326, 36.258408 ], [ -115.2250326, 36.2585106 ] ] ] } },
{ "type": "Feature", "properties": { "value": 255.0 }, "geometry": { "type": "Polygon", "coordinates": [ [ [ -115.2236799, 36.258543 ], [ -115.2236151, 36.258543 ], [ -115.2236151, 36.2585403 ], [ -115.223607, 36.2585403 ], [ -115.223607, 36.2585349 ], [ -115.2236043, 36.2585349 ], [ -115.2236043, 36.2584836 ], [ -115.223607, 36.2584836 ], [ -115.223607, 36.2583756 ], [ -115.2236043, 36.2583756 ], [ -115.2236043, 36.2583729 ], [ -115.223607, 36.2583729 ], [ -115.223607, 36.2583675 ], [ -115.2236475, 36.2583675 ], [ -115.2236475, 36.2583648 ], [ -115.2236556, 36.2583648 ], [ -115.2236556, 36.2583621 ], [ -115.223661, 36.2583621 ], [ -115.223661, 36.2583594 ], [ -115.2236988, 36.2583594 ], [ -115.2236988, 36.2583621 ], [ -115.2237609, 36.2583621 ], [ -115.2237609, 36.2583648 ], [ -115.2237636, 36.2583648 ], [ -115.2237636, 36.258408 ], [ -115.2237663, 36.258408 ], [ -115.2237663, 36.2584701 ], [ -115.2237636, 36.2584701 ], [ -115.2237636, 36.2584755 ], [ -115.2237582, 36.2584755 ], [ -115.2237582, 36.2584782 ], [ -115.2237339, 36.2584782 ], [ -115.2237339, 36.2584809 ], [ -115.2237231, 36.2584809 ], [ -115.2237231, 36.2584836 ], [ -115.22370690000001, 36.2584836 ], [ -115.22370690000001, 36.2584863 ], [ -115.2236907, 36.2584863 ], [ -115.2236907, 36.2585376 ], [ -115.223688, 36.2585376 ], [ -115.223688, 36.2585403 ], [ -115.2236799, 36.2585403 ], [ -115.2236799, 36.258543 ] ] ] } },
{ "type": "Feature", "properties": { "value": 255.0 }, "geometry": { "type": "Polygon", "coordinates": [ [ [ -115.224565500000011, 36.2585241 ], [ -115.2244899, 36.2585241 ], [ -115.2244899, 36.2585214 ], [ -115.2244872, 36.2585214 ], [ -115.2244872, 36.258489 ], [ -115.2244845, 36.258489 ], [ -115.2244845, 36.2584647 ], [ -115.2244872, 36.2584647 ], [ -115.2244872, 36.2584404 ], [ -115.2244899, 36.2584404 ], [ -115.2244899, 36.2583864 ], [ -115.2244872, 36.2583864 ], [ -115.2244872, 36.2583675 ], [ -115.2244953, 36.2583675 ], [ -115.2244953, 36.2583648 ], [ -115.224552, 36.2583648 ], [ -115.224552, 36.2583675 ], [ -115.2245601, 36.2583675 ], [ -115.2245601, 36.2583702 ], [ -115.2245682, 36.2583702 ], [ -115.2245682, 36.2583675 ], [ -115.224584400000012, 36.2583675 ], [ -115.224584400000012, 36.2583648 ], [ -115.2246114, 36.2583648 ], [ -115.2246114, 36.2583675 ], [ -115.2246195, 36.2583675 ], [ -115.2246195, 36.2583702 ], [ -115.224633, 36.2583702 ], [ -115.224633, 36.2583729 ], [ -115.2246357, 36.2583729 ], [ -115.2246357, 36.2583756 ], [ -115.2246384, 36.2583756 ], [ -115.2246384, 36.2583864 ], [ -115.2246411, 36.2583864 ], [ -115.2246411, 36.2584161 ], [ -115.22464380000001, 36.2584161 ], [ -115.22464380000001, 36.2584431 ], [ -115.2246465, 36.2584431 ], [ -115.2246465, 36.2584512 ], [ -115.22464380000001, 36.2584512 ], [ -115.22464380000001, 36.2584539 ], [ -115.2246465, 36.2584539 ], [ -115.2246465, 36.2584647 ], [ -115.22464380000001, 36.2584647 ], [ -115.22464380000001, 36.2584674 ], [ -115.2246411, 36.2584674 ], [ -115.2246411, 36.2584701 ], [ -115.2246006, 36.2584701 ], [ -115.2246006, 36.2584674 ], [ -115.2245736, 36.2584674 ], [ -115.2245736, 36.2584701 ], [ -115.2245709, 36.2584701 ], [ -115.2245709, 36.2584728 ], [ -115.2245736, 36.2584728 ], [ -115.2245736, 36.2584863 ], [ -115.2245709, 36.2584863 ], [ -115.2245709, 36.2585106 ], [ -115.2245736, 36.2585106 ], [ -115.2245736, 36.2585187 ], [ -115.2245709, 36.2585187 ], [ -115.2245709, 36.2585214 ], [ -115.224565500000011, 36.2585214 ], [ -115.224565500000011, 36.2585241 ] ] ] } },
{ "type": "Feature", "properties": { "value": 255.0 }, "geometry": { "type": "Polygon", "coordinates": [ [ [ -115.2240876, 36.2585349 ], [ -115.2240633, 36.2585349 ], [ -115.2240633, 36.2585322 ], [ -115.2240606, 36.2585322 ], [ -115.2240606, 36.2585349 ], [ -115.2240525, 36.2585349 ], [ -115.2240525, 36.2585322 ], [ -115.2240471, 36.2585322 ], [ -115.2240471, 36.258516 ], [ -115.224044400000011, 36.258516 ], [ -115.224044400000011, 36.2584593 ], [ -115.2240471, 36.2584593 ], [ -115.2240471, 36.2584377 ], [ -115.224044400000011, 36.2584377 ], [ -115.224044400000011, 36.2584161 ], [ -115.2240471, 36.2584161 ], [ -115.2240471, 36.2583945 ], [ -115.224044400000011, 36.2583945 ], [ -115.224044400000011, 36.2583783 ], [ -115.2240471, 36.2583783 ], [ -115.2240471, 36.2583729 ], [ -115.2241011, 36.2583729 ], [ -115.2241011, 36.2583702 ], [ -115.2241983, 36.2583702 ], [ -115.2241983, 36.2583729 ], [ -115.224201, 36.2583729 ], [ -115.224201, 36.2583864 ], [ -115.2242037, 36.2583864 ], [ -115.2242037, 36.2583891 ], [ -115.224201, 36.2583891 ], [ -115.224201, 36.2584026 ], [ -115.2242037, 36.2584026 ], [ -115.2242037, 36.258408 ], [ -115.224201, 36.258408 ], [ -115.224201, 36.2584134 ], [ -115.2242037, 36.2584134 ], [ -115.2242037, 36.2584755 ], [ -115.224201, 36.2584755 ], [ -115.224201, 36.2584782 ], [ -115.2241551, 36.2584782 ], [ -115.2241551, 36.2584755 ], [ -115.2241335, 36.2584755 ], [ -115.2241335, 36.2584782 ], [ -115.2241308, 36.2584782 ], [ -115.2241308, 36.2585295 ], [ -115.2241281, 36.2585295 ], [ -115.2241281, 36.2585322 ], [ -115.2240876, 36.2585322 ], [ -115.2240876, 36.2585349 ] ] ] } },
{ "type": "Feature", "properties": { "value": 255.0 }, "geometry": { "type": "Polygon", "coordinates": [ [ [ -115.2239931, 36.2585322 ], [ -115.2239904, 36.2585322 ], [ -115.2239904, 36.2585295 ], [ -115.223985, 36.2585295 ], [ -115.223985, 36.2585241 ], [ -115.2239823, 36.2585241 ], [ -115.2239823, 36.2585187 ], [ -115.2239796, 36.2585187 ], [ -115.2239796, 36.258516 ], [ -115.22393910000001, 36.258516 ], [ -115.22393910000001, 36.2585187 ], [ -115.2239229, 36.2585187 ], [ -115.2239229, 36.258516 ], [ -115.2239202, 36.258516 ], [ -115.2239202, 36.2584863 ], [ -115.2239148, 36.2584863 ], [ -115.2239148, 36.2584836 ], [ -115.2238797, 36.2584836 ], [ -115.2238797, 36.2584674 ], [ -115.223877, 36.2584674 ], [ -115.223877, 36.2584647 ], [ -115.2238689, 36.2584647 ], [ -115.2238689, 36.258462 ], [ -115.2238446, 36.258462 ], [ -115.2238446, 36.2584593 ], [ -115.223841900000011, 36.2584593 ], [ -115.223841900000011, 36.2584269 ], [ -115.2238392, 36.2584269 ], [ -115.2238392, 36.2584242 ], [ -115.223841900000011, 36.2584242 ], [ -115.223841900000011, 36.2584188 ], [ -115.2238392, 36.2584188 ], [ -115.2238392, 36.2584107 ], [ -115.223841900000011, 36.2584107 ], [ -115.223841900000011, 36.2583972 ], [ -115.2238446, 36.2583972 ], [ -115.2238446, 36.2583945 ], [ -115.2239121, 36.2583945 ], [ -115.2239121, 36.2583918 ], [ -115.2239202, 36.2583918 ], [ -115.2239202, 36.2583891 ], [ -115.2239229, 36.2583891 ], [ -115.2239229, 36.2583783 ], [ -115.2239256, 36.2583783 ], [ -115.2239256, 36.2583702 ], [ -115.2239661, 36.2583702 ], [ -115.2239661, 36.2583729 ], [ -115.223985, 36.2583729 ], [ -115.223985, 36.2583756 ], [ -115.2239877, 36.2583756 ], [ -115.2239877, 36.258381 ], [ -115.223985, 36.258381 ], [ -115.223985, 36.2583891 ], [ -115.2239877, 36.2583891 ], [ -115.2239877, 36.2583972 ], [ -115.2239904, 36.2583972 ], [ -115.2239904, 36.2583999 ], [ -115.2239931, 36.2583999 ], [ -115.2239931, 36.258408 ], [ -115.2239958, 36.258408 ], [ -115.2239958, 36.2584377 ], [ -115.2239985, 36.2584377 ], [ -115.2239985, 36.258462 ], [ -115.2240012, 36.258462 ], [ -115.2240012, 36.2584701 ], [ -115.2239985, 36.2584701 ], [ -115.2239985, 36.2584863 ], [ -115.2239931, 36.2584863 ], [ -115.2239931, 36.258489 ], [ -115.2239823, 36.258489 ], [ -115.2239823, 36.2584917 ], [ -115.2239958, 36.2584917 ], [ -115.2239958, 36.2584944 ], [ -115.2239985, 36.2584944 ], [ -115.2239985, 36.2585079 ], [ -115.2239958, 36.2585079 ], [ -115.2239958, 36.258516 ], [ -115.2239985, 36.258516 ], [ -115.2239985, 36.2585241 ], [ -115.2239958, 36.2585241 ], [ -115.2239958, 36.2585295 ], [ -115.2239931, 36.2585295 ], [ -115.2239931, 36.2585322 ] ], [ [ -115.2239742, 36.2583783 ], [ -115.2239742, 36.2583756 ], [ -115.2239715, 36.2583756 ], [ -115.2239715, 36.2583783 ], [ -115.2239742, 36.2583783 ] ] ] } },
{ "type": "Feature", "properties": { "value": 255.0 }, "geometry": { "type": "Polygon", "coordinates": [ [ [ -115.2244278, 36.2585268 ], [ -115.2243522, 36.2585268 ], [ -115.2243522, 36.2585214 ], [ -115.2243495, 36.2585214 ], [ -115.2243495, 36.2585187 ], [ -115.2243522, 36.2585187 ], [ -115.2243522, 36.2584755 ], [ -115.2243495, 36.2584755 ], [ -115.2243495, 36.2584728 ], [ -115.2243414, 36.2584728 ], [ -115.2243414, 36.2584701 ], [ -115.224314400000011, 36.2584701 ], [ -115.224314400000011, 36.2584674 ], [ -115.224309, 36.2584674 ], [ -115.224309, 36.2584647 ], [ -115.2242793, 36.2584647 ], [ -115.2242793, 36.258462 ], [ -115.22427660000001, 36.258462 ], [ -115.22427660000001, 36.2584593 ], [ -115.2242739, 36.2584593 ], [ -115.2242739, 36.2584539 ], [ -115.2242712, 36.2584539 ], [ -115.2242712, 36.2584107 ], [ -115.2242685, 36.2584107 ], [ -115.2242685, 36.2583567 ], [ -115.2242712, 36.2583567 ], [ -115.2242712, 36.258354 ], [ -115.2242874, 36.258354 ], [ -115.2242874, 36.2583513 ], [ -115.224363, 36.2583513 ], [ -115.224363, 36.2583486 ], [ -115.2243738, 36.2583486 ], [ -115.2243738, 36.2583513 ], [ -115.2244035, 36.2583513 ], [ -115.2244035, 36.2583486 ], [ -115.2244089, 36.2583486 ], [ -115.2244089, 36.2583513 ], [ -115.2244278, 36.2583513 ], [ -115.2244278, 36.2583567 ], [ -115.224430500000011, 36.2583567 ], [ -115.224430500000011, 36.2583729 ], [ -115.2244332, 36.2583729 ], [ -115.2244332, 36.258408 ], [ -115.2244359, 36.258408 ], [ -115.2244359, 36.2584188 ], [ -115.2244332, 36.2584188 ], [ -115.2244332, 36.2584755 ], [ -115.2244359, 36.2584755 ], [ -115.2244359, 36.2585241 ], [ -115.2244278, 36.2585241 ], [ -115.2244278, 36.2585268 ] ] ] } },
{ "type": "Feature", "properties": { "value": 255.0 }, "geometry": { "type": "Polygon", "coordinates": [ [ [ -115.2247275, 36.2584836 ], [ -115.22471130000001, 36.2584836 ], [ -115.22471130000001, 36.2584809 ], [ -115.2246978, 36.2584809 ], [ -115.2246978, 36.2584782 ], [ -115.2246951, 36.2584782 ], [ -115.2246951, 36.2584728 ], [ -115.2246924, 36.2584728 ], [ -115.2246924, 36.2584269 ], [ -115.2246897, 36.2584269 ], [ -115.2246897, 36.2584242 ], [ -115.2246924, 36.2584242 ], [ -115.2246924, 36.2584188 ], [ -115.2246951, 36.2584188 ], [ -115.2246951, 36.2584161 ], [ -115.2246978, 36.2584161 ], [ -115.2246978, 36.2584134 ], [ -115.224700500000012, 36.2584134 ], [ -115.224700500000012, 36.2584107 ], [ -115.2247032, 36.2584107 ], [ -115.2247032, 36.2584026 ], [ -115.2247059, 36.2584026 ], [ -115.2247059, 36.2583432 ], [ -115.2247032, 36.2583432 ], [ -115.2247032, 36.2583351 ], [ -115.2247059, 36.2583351 ], [ -115.2247059, 36.2583297 ], [ -115.2247761, 36.2583297 ], [ -115.2247761, 36.258327 ], [ -115.224797700000011, 36.258327 ], [ -115.224797700000011, 36.2583297 ], [ -115.224822, 36.2583297 ], [ -115.224822, 36.2583324 ], [ -115.2248274, 36.2583324 ], [ -115.2248274, 36.2583297 ], [ -115.2248436, 36.2583297 ], [ -115.2248436, 36.2583324 ], [ -115.224854400000012, 36.2583324 ], [ -115.224854400000012, 36.2583621 ], [ -115.2248571, 36.2583621 ], [ -115.2248571, 36.2583972 ], [ -115.224854400000012, 36.2583972 ], [ -115.224854400000012, 36.2583999 ], [ -115.2248571, 36.2583999 ], [ -115.2248571, 36.258408 ], [ -115.224854400000012, 36.258408 ], [ -115.224854400000012, 36.2584107 ], [ -115.2248409, 36.2584107 ], [ -115.2248409, 36.2584134 ], [ -115.2248382, 36.2584134 ], [ -115.2248382, 36.2584161 ], [ -115.224835500000012, 36.2584161 ], [ -115.224835500000012, 36.2584323 ], [ -115.224795, 36.2584323 ], [ -115.224795, 36.2584296 ], [ -115.2247923, 36.2584296 ], [ -115.2247923, 36.2584269 ], [ -115.2247896, 36.2584269 ], [ -115.2247896, 36.2584242 ], [ -115.2247815, 36.2584242 ], [ -115.2247815, 36.2584269 ], [ -115.22477880000001, 36.2584269 ], [ -115.22477880000001, 36.2584593 ], [ -115.2247761, 36.2584593 ], [ -115.2247761, 36.2584674 ], [ -115.22477880000001, 36.2584674 ], [ -115.22477880000001, 36.2584755 ], [ -115.2247761, 36.2584755 ], [ -115.2247761, 36.2584782 ], [ -115.2247734, 36.2584782 ], [ -115.2247734, 36.2584809 ], [ -115.2247275, 36.2584809 ], [ -115.2247275, 36.2584836 ] ] ] } },
{ "type": "Feature", "properties": { "value": 255.0 }, "geometry": { "type": "Polygon", "coordinates": [ [ [ -115.22400660000001, 36.2583432 ], [ -115.2239796, 36.2583432 ], [ -115.2239796, 36.2583405 ], [ -115.223976900000011, 36.2583405 ], [ -115.223976900000011, 36.2583243 ], [ -115.2239796, 36.2583243 ], [ -115.2239796, 36.2583216 ], [ -115.2240093, 36.2583216 ], [ -115.2240093, 36.2583243 ], [ -115.224012, 36.2583243 ], [ -115.224012, 36.2583324 ], [ -115.2240093, 36.2583324 ], [ -115.2240093, 36.2583405 ], [ -115.22400660000001, 36.2583405 ], [ -115.22400660000001, 36.2583432 ] ] ] } },
{ "type": "Feature", "properties": { "value": 255.0 }, "geometry": { "type": "Polygon", "coordinates": [ [ [ -115.2248922, 36.2582622 ], [ -115.2248787, 36.2582622 ], [ -115.2248787, 36.2582595 ], [ -115.2248733, 36.2582595 ], [ -115.2248733, 36.2582568 ], [ -115.2248706, 36.2582568 ], [ -115.2248706, 36.2582487 ], [ -115.2248679, 36.2582487 ], [ -115.2248679, 36.2582406 ], [ -115.2248706, 36.2582406 ], [ -115.2248706, 36.2582298 ], [ -115.2248733, 36.2582298 ], [ -115.2248733, 36.2582244 ], [ -115.2248787, 36.2582244 ], [ -115.2248787, 36.2582217 ], [ -115.2248895, 36.2582217 ], [ -115.2248895, 36.258219 ], [ -115.2248922, 36.258219 ], [ -115.2248922, 36.2582217 ], [ -115.2249003, 36.2582217 ], [ -115.2249003, 36.2582271 ], [ -115.2248976, 36.2582271 ], [ -115.2248976, 36.2582298 ], [ -115.2248868, 36.2582298 ], [ -115.2248868, 36.2582379 ], [ -115.2248922, 36.2582379 ], [ -115.2248922, 36.2582352 ], [ -115.224903, 36.2582352 ], [ -115.224903, 36.2582379 ], [ -115.2249057, 36.2582379 ], [ -115.2249057, 36.2582406 ], [ -115.224903, 36.2582406 ], [ -115.224903, 36.2582433 ], [ -115.2249003, 36.2582433 ], [ -115.2249003, 36.2582541 ], [ -115.2248976, 36.2582541 ], [ -115.2248976, 36.2582568 ], [ -115.22489490000001, 36.2582568 ], [ -115.22489490000001, 36.2582595 ], [ -115.2248922, 36.2582595 ], [ -115.2248922, 36.2582622 ] ] ] } },
{ "type": "Feature", "properties": { "value": 255.0 }, "geometry": { "type": "Polygon", "coordinates": [ [ [ -115.223418, 36.2582973 ], [ -115.2233964, 36.2582973 ], [ -115.2233964, 36.2582946 ], [ -115.2233937, 36.2582946 ], [ -115.2233937, 36.2582892 ], [ -115.223391, 36.2582892 ], [ -115.223391, 36.2582811 ], [ -115.2233883, 36.2582811 ], [ -115.2233883, 36.2581839 ], [ -115.223391, 36.2581839 ], [ -115.223391, 36.2581758 ], [ -115.2233964, 36.2581758 ], [ -115.2233964, 36.2581731 ], [ -115.2234018, 36.2581731 ], [ -115.2234018, 36.2581704 ], [ -115.2234045, 36.2581704 ], [ -115.2234045, 36.2581677 ], [ -115.2235476, 36.2581677 ], [ -115.2235476, 36.2582676 ], [ -115.2235449, 36.2582676 ], [ -115.2235449, 36.2582703 ], [ -115.2235395, 36.2582703 ], [ -115.2235395, 36.258273 ], [ -115.2234774, 36.258273 ], [ -115.2234774, 36.2582757 ], [ -115.223445, 36.2582757 ], [ -115.223445, 36.2582784 ], [ -115.2234396, 36.2582784 ], [ -115.2234396, 36.2582811 ], [ -115.22343690000001, 36.2582811 ], [ -115.22343690000001, 36.2582838 ], [ -115.2234288, 36.2582838 ], [ -115.2234288, 36.2582865 ], [ -115.2234234, 36.2582865 ], [ -115.2234234, 36.2582892 ], [ -115.2234207, 36.2582892 ], [ -115.2234207, 36.2582946 ], [ -115.223418, 36.2582946 ], [ -115.223418, 36.2582973 ] ] ] } },
{ "type": "Feature", "properties": { "value": 255.0 }, "geometry": { "type": "Polygon", "coordinates": [ [ [ -115.224565500000011, 36.2582622 ], [ -115.2245628, 36.2582622 ], [ -115.2245628, 36.2582595 ], [ -115.2245547, 36.2582595 ], [ -115.2245547, 36.2582406 ], [ -115.224552, 36.2582406 ], [ -115.224552, 36.2582379 ], [ -115.2245493, 36.2582379 ], [ -115.2245493, 36.2582352 ], [ -115.2244926, 36.2582352 ], [ -115.2244926, 36.2582379 ], [ -115.2244845, 36.2582379 ], [ -115.2244845, 36.2582352 ], [ -115.2244818, 36.2582352 ], [ -115.2244818, 36.2582136 ], [ -115.224479100000011, 36.2582136 ], [ -115.224479100000011, 36.2581812 ], [ -115.2244764, 36.2581812 ], [ -115.2244764, 36.2581677 ], [ -115.2246276, 36.2581677 ], [ -115.2246276, 36.2581704 ], [ -115.2246303, 36.2581704 ], [ -115.2246303, 36.2581812 ], [ -115.224633, 36.2581812 ], [ -115.224633, 36.2582595 ], [ -115.224565500000011, 36.2582595 ], [ -115.224565500000011, 36.2582622 ] ] ] } },
{ "type": "Feature", "properties": { "value": 255.0 }, "geometry": { "type": "Polygon", "coordinates": [ [ [ -115.2237339, 36.2582865 ], [ -115.2236475, 36.2582865 ], [ -115.2236475, 36.2582838 ], [ -115.2236448, 36.2582838 ], [ -115.2236448, 36.2582622 ], [ -115.2236421, 36.2582622 ], [ -115.2236421, 36.2582568 ], [ -115.22363940000001, 36.2582568 ], [ -115.22363940000001, 36.2582541 ], [ -115.2236124, 36.2582541 ], [ -115.2236124, 36.2582568 ], [ -115.2236097, 36.2582568 ], [ -115.2236097, 36.2582541 ], [ -115.2236016, 36.2582541 ], [ -115.2236016, 36.2582352 ], [ -115.2235989, 36.2582352 ], [ -115.2235989, 36.2582298 ], [ -115.2236016, 36.2582298 ], [ -115.2236016, 36.258219 ], [ -115.2235989, 36.258219 ], [ -115.2235989, 36.2581866 ], [ -115.2235962, 36.2581866 ], [ -115.2235962, 36.2581812 ], [ -115.2235989, 36.2581812 ], [ -115.2235989, 36.2581677 ], [ -115.2237528, 36.2581677 ], [ -115.2237528, 36.2581731 ], [ -115.22375550000001, 36.2581731 ], [ -115.22375550000001, 36.2582433 ], [ -115.2237528, 36.2582433 ], [ -115.2237528, 36.258273 ], [ -115.2237501, 36.258273 ], [ -115.2237501, 36.2582784 ], [ -115.2237474, 36.2582784 ], [ -115.2237474, 36.2582811 ], [ -115.2237447, 36.2582811 ], [ -115.2237447, 36.2582838 ], [ -115.2237339, 36.2582838 ], [ -115.2237339, 36.2582865 ] ] ] } },
{ "type": "Feature", "properties": { "value": 255.0 }, "geometry": { "type": "Polygon", "coordinates": [ [ [ -115.224749100000011, 36.2582487 ], [ -115.224719400000012, 36.2582487 ], [ -115.224719400000012, 36.258246 ], [ -115.224714, 36.258246 ], [ -115.224714, 36.2582433 ], [ -115.2247059, 36.2582433 ], [ -115.2247059, 36.2582406 ], [ -115.2247032, 36.2582406 ], [ -115.2247032, 36.2582352 ], [ -115.224700500000012, 36.2582352 ], [ -115.224700500000012, 36.2582217 ], [ -115.2246978, 36.2582217 ], [ -115.2246978, 36.2581677 ], [ -115.2248409, 36.2581677 ], [ -115.2248409, 36.2581704 ], [ -115.22484630000001, 36.2581704 ], [ -115.22484630000001, 36.2581731 ], [ -115.224849, 36.2581731 ], [ -115.224849, 36.2582352 ], [ -115.22484630000001, 36.2582352 ], [ -115.22484630000001, 36.2582379 ], [ -115.2248247, 36.2582379 ], [ -115.2248247, 36.2582406 ], [ -115.224797700000011, 36.2582406 ], [ -115.224797700000011, 36.2582433 ], [ -115.2247815, 36.2582433 ], [ -115.2247815, 36.258246 ], [ -115.224749100000011, 36.258246 ], [ -115.224749100000011, 36.2582487 ] ] ] } },
{ "type": "Feature", "properties": { "value": 255.0 }, "geometry": { "type": "Polygon", "coordinates": [ [ [ -115.2243495, 36.2582622 ], [ -115.2243333, 36.2582622 ], [ -115.2243333, 36.2582595 ], [ -115.2243225, 36.2582595 ], [ -115.2243225, 36.2582622 ], [ -115.2243117, 36.2582622 ], [ -115.2243117, 36.2582595 ], [ -115.2243063, 36.2582595 ], [ -115.2243063, 36.2582568 ], [ -115.22427660000001, 36.2582568 ], [ -115.22427660000001, 36.2582541 ], [ -115.2242739, 36.2582541 ], [ -115.2242739, 36.2582406 ], [ -115.2242712, 36.2582406 ], [ -115.2242712, 36.2582325 ], [ -115.2242685, 36.2582325 ], [ -115.2242685, 36.2582028 ], [ -115.2242658, 36.2582028 ], [ -115.2242658, 36.2581677 ], [ -115.22441160000001, 36.2581677 ], [ -115.22441160000001, 36.2581731 ], [ -115.2244143, 36.2581731 ], [ -115.2244143, 36.2582244 ], [ -115.22441160000001, 36.2582244 ], [ -115.22441160000001, 36.2582271 ], [ -115.2243738, 36.2582271 ], [ -115.2243738, 36.2582298 ], [ -115.2243576, 36.2582298 ], [ -115.2243576, 36.2582325 ], [ -115.2243549, 36.2582325 ], [ -115.2243549, 36.2582352 ], [ -115.2243522, 36.2582352 ], [ -115.2243522, 36.2582568 ], [ -115.2243495, 36.2582568 ], [ -115.2243495, 36.2582622 ] ] ] } },
{ "type": "Feature", "properties": { "value": 255.0 }, "geometry": { "type": "Polygon", "coordinates": [ [ [ -115.2250326, 36.2582082 ], [ -115.2250272, 36.2582082 ], [ -115.2250272, 36.2582055 ], [ -115.2250218, 36.2582055 ], [ -115.2250218, 36.2582028 ], [ -115.2250164, 36.2582028 ], [ -115.2250164, 36.2582001 ], [ -115.225011, 36.2582001 ], [ -115.225011, 36.2581974 ], [ -115.2250083, 36.2581974 ], [ -115.2250083, 36.2581947 ], [ -115.2250056, 36.2581947 ], [ -115.2250056, 36.258192 ], [ -115.2250029, 36.258192 ], [ -115.2250029, 36.2581866 ], [ -115.225000200000011, 36.2581866 ], [ -115.225000200000011, 36.2581839 ], [ -115.2249975, 36.2581839 ], [ -115.2249975, 36.2581785 ], [ -115.225000200000011, 36.2581785 ], [ -115.225000200000011, 36.2581731 ], [ -115.2250029, 36.2581731 ], [ -115.2250029, 36.2581677 ], [ -115.2250326, 36.2581677 ], [ -115.2250326, 36.2582082 ] ] ] } },
{ "type": "Feature", "properties": { "value": 255.0 }, "geometry": { "type": "Polygon", "coordinates": [ [ [ -115.2241443, 36.2582649 ], [ -115.2241173, 36.2582649 ], [ -115.2241173, 36.2582622 ], [ -115.2241146, 36.2582622 ], [ -115.2241146, 36.2582487 ], [ -115.224111900000011, 36.2582487 ], [ -115.224111900000011, 36.258246 ], [ -115.2241065, 36.258246 ], [ -115.2241065, 36.2582433 ], [ -115.2240876, 36.2582433 ], [ -115.2240876, 36.258246 ], [ -115.2240471, 36.258246 ], [ -115.2240471, 36.2582433 ], [ -115.224044400000011, 36.2582433 ], [ -115.224044400000011, 36.2582406 ], [ -115.2240417, 36.2582406 ], [ -115.2240417, 36.2582163 ], [ -115.224039, 36.2582163 ], [ -115.224039, 36.2581677 ], [ -115.2241956, 36.2581677 ], [ -115.2241956, 36.2581704 ], [ -115.2241983, 36.2581704 ], [ -115.2241983, 36.2581974 ], [ -115.2241956, 36.2581974 ], [ -115.2241956, 36.2582244 ], [ -115.2241929, 36.2582244 ], [ -115.2241929, 36.2582379 ], [ -115.22419020000001, 36.2582379 ], [ -115.22419020000001, 36.2582433 ], [ -115.2241848, 36.2582433 ], [ -115.2241848, 36.258246 ], [ -115.2241767, 36.258246 ], [ -115.2241767, 36.2582487 ], [ -115.2241713, 36.2582487 ], [ -115.2241713, 36.2582514 ], [ -115.2241659, 36.2582514 ], [ -115.2241659, 36.2582541 ], [ -115.2241632, 36.2582541 ], [ -115.2241632, 36.2582568 ], [ -115.224160500000011, 36.2582568 ], [ -115.224160500000011, 36.2582595 ], [ -115.2241551, 36.2582595 ], [ -115.2241551, 36.2582622 ], [ -115.2241443, 36.2582622 ], [ -115.2241443, 36.2582649 ] ] ] } },
{ "type": "Feature", "properties": { "value": 255.0 }, "geometry": { "type": "Polygon", "coordinates": [ [ [ -115.223976900000011, 36.258246 ], [ -115.223909400000011, 36.258246 ], [ -115.223909400000011, 36.2582433 ], [ -115.2238689, 36.2582433 ], [ -115.2238689, 36.2582406 ], [ -115.2238392, 36.2582406 ], [ -115.2238392, 36.2582325 ], [ -115.2238365, 36.2582325 ], [ -115.2238365, 36.2581731 ], [ -115.2238392, 36.2581731 ], [ -115.2238392, 36.2581704 ], [ -115.2238446, 36.2581704 ], [ -115.2238446, 36.2581677 ], [ -115.22393910000001, 36.2581677 ], [ -115.22393910000001, 36.2581704 ], [ -115.2239445, 36.2581704 ], [ -115.2239445, 36.2581731 ], [ -115.223958, 36.2581731 ], [ -115.223958, 36.2581704 ], [ -115.2239796, 36.2581704 ], [ -115.2239796, 36.2581731 ], [ -115.2239877, 36.2581731 ], [ -115.2239877, 36.2581758 ], [ -115.2239904, 36.2581758 ], [ -115.2239904, 36.2581812 ], [ -115.2239931, 36.2581812 ], [ -115.2239931, 36.2581866 ], [ -115.2239904, 36.2581866 ], [ -115.2239904, 36.2581974 ], [ -115.2239931, 36.2581974 ], [ -115.2239931, 36.2582379 ], [ -115.2239904, 36.2582379 ], [ -115.2239904, 36.2582406 ], [ -115.2239877, 36.2582406 ], [ -115.2239877, 36.2582433 ], [ -115.223976900000011, 36.2582433 ], [ -115.223976900000011, 36.258246 ] ] ] } }
]
}
