{
"type": "FeatureCollection",
"crs": { "type": "name", "properties": { "name": "urn:ogc:def:crs:OGC:1.3:CRS84" } },
"features": [
{ "type": "Feature", "properties": { "value": 255.0 }, "geometry": { "type": "Polygon", "coordinates": [ [ [ -115.2759708, 36.128162699699999 ], [ -115.2759627, 36.128162699699999 ], [ -115.2759627, 36.128159999700003 ], [ -115.2759546, 36.128159999700003 ], [ -115.2759546, 36.1281572997 ], [ -115.2759438, 36.1281572997 ], [ -115.2759438, 36.128154599699997 ], [ -115.2759411, 36.128154599699997 ], [ -115.2759411, 36.128151899700001 ], [ -115.2759303, 36.128151899700001 ], [ -115.2759303, 36.128154599699997 ], [ -115.2759276, 36.128154599699997 ], [ -115.2759276, 36.128111399699996 ], [ -115.2759357, 36.128111399699996 ], [ -115.2759357, 36.128114099699999 ], [ -115.2759384, 36.128114099699999 ], [ -115.2759384, 36.128111399699996 ], [ -115.2759411, 36.128111399699996 ], [ -115.2759411, 36.128105999699997 ], [ -115.2759438, 36.128105999699997 ], [ -115.2759438, 36.128103299700001 ], [ -115.2759465, 36.128103299700001 ], [ -115.2759465, 36.128097899700002 ], [ -115.2759438, 36.128097899700002 ], [ -115.2759438, 36.128081699699997 ], [ -115.2759465, 36.128081699699997 ], [ -115.2759465, 36.128076299699998 ], [ -115.2759492, 36.128076299699998 ], [ -115.2759492, 36.128078999700001 ], [ -115.27595190000001, 36.128078999700001 ], [ -115.27595190000001, 36.128081699699997 ], [ -115.2759546, 36.128081699699997 ], [ -115.2759546, 36.128078999700001 ], [ -115.2759708, 36.128078999700001 ], [ -115.2759708, 36.128081699699997 ], [ -115.2759762, 36.128081699699997 ], [ -115.2759762, 36.128078999700001 ], [ -115.2759951, 36.128078999700001 ], [ -115.2759951, 36.128070899699999 ], [ -115.2759978, 36.128070899699999 ], [ -115.2759978, 36.1280654997 ], [ -115.276014, 36.1280654997 ], [ -115.276014, 36.128062799699997 ], [ -115.27601940000001, 36.128062799699997 ], [ -115.27601940000001, 36.128060099700001 ], [ -115.2760248, 36.128060099700001 ], [ -115.2760248, 36.128057399699998 ], [ -115.2760275, 36.128057399699998 ], [ -115.2760275, 36.128051999699998 ], [ -115.2760302, 36.128051999699998 ], [ -115.2760302, 36.1280411997 ], [ -115.2760383, 36.1280411997 ], [ -115.2760383, 36.128038499699997 ], [ -115.2760437, 36.128038499699997 ], [ -115.2760437, 36.1280411997 ], [ -115.2760464, 36.1280411997 ], [ -115.2760464, 36.128038499699997 ], [ -115.2760518, 36.128038499699997 ], [ -115.2760518, 36.128043899700003 ], [ -115.2760545, 36.128043899700003 ], [ -115.2760545, 36.128030399700002 ], [ -115.2760599, 36.128030399700002 ], [ -115.2760599, 36.128027699699999 ], [ -115.2760734, 36.128027699699999 ], [ -115.2760734, 36.128030399700002 ], [ -115.2760788, 36.128030399700002 ], [ -115.2760788, 36.128033099699998 ], [ -115.2760842, 36.128033099699998 ], [ -115.2760842, 36.128035799700001 ], [ -115.27608690000001, 36.128035799700001 ], [ -115.27608690000001, 36.128043899700003 ], [ -115.2760842, 36.128043899700003 ], [ -115.2760842, 36.128046599699999 ], [ -115.2760896, 36.128046599699999 ], [ -115.2760896, 36.128049299700002 ], [ -115.2760923, 36.128049299700002 ], [ -115.2760923, 36.128046599699999 ], [ -115.276095, 36.128046599699999 ], [ -115.276095, 36.128049299700002 ], [ -115.2760977, 36.128049299700002 ], [ -115.2760977, 36.128051999699998 ], [ -115.2761004, 36.128051999699998 ], [ -115.2761004, 36.128054699700002 ], [ -115.2761031, 36.128054699700002 ], [ -115.2761031, 36.128060099700001 ], [ -115.2761058, 36.128060099700001 ], [ -115.2761058, 36.1280654997 ], [ -115.2761112, 36.1280654997 ], [ -115.2761112, 36.128073599700002 ], [ -115.2761139, 36.128073599700002 ], [ -115.2761139, 36.128084399700001 ], [ -115.2761112, 36.128084399700001 ], [ -115.2761112, 36.128092499700003 ], [ -115.2761085, 36.128092499700003 ], [ -115.2761085, 36.128095199699999 ], [ -115.2761058, 36.128095199699999 ], [ -115.2761058, 36.128097899700002 ], [ -115.2761031, 36.128097899700002 ], [ -115.2761031, 36.128100599699998 ], [ -115.2760977, 36.128100599699998 ], [ -115.2760977, 36.128103299700001 ], [ -115.2760923, 36.128103299700001 ], [ -115.2760923, 36.128105999699997 ], [ -115.2760815, 36.128105999699997 ], [ -115.2760815, 36.1281086997 ], [ -115.2760788, 36.1281086997 ], [ -115.2760788, 36.128111399699996 ], [ -115.2760761, 36.128111399699996 ], [ -115.2760761, 36.128114099699999 ], [ -115.2760734, 36.128114099699999 ], [ -115.2760734, 36.128116799700003 ], [ -115.2760707, 36.128116799700003 ], [ -115.2760707, 36.128119499699999 ], [ -115.276068, 36.128119499699999 ], [ -115.276068, 36.128124899699998 ], [ -115.2760653, 36.128124899699998 ], [ -115.2760653, 36.128127599700001 ], [ -115.2760626, 36.128127599700001 ], [ -115.2760626, 36.128130299699997 ], [ -115.2760599, 36.128130299699997 ], [ -115.2760599, 36.1281329997 ], [ -115.2760572, 36.1281329997 ], [ -115.2760572, 36.128135699699996 ], [ -115.2760545, 36.128135699699996 ], [ -115.2760545, 36.128127599700001 ], [ -115.2760518, 36.128127599700001 ], [ -115.2760518, 36.128124899699998 ], [ -115.2760545, 36.128124899699998 ], [ -115.2760545, 36.128122199700002 ], [ -115.2760518, 36.128122199700002 ], [ -115.2760518, 36.128119499699999 ], [ -115.2760491, 36.128119499699999 ], [ -115.2760491, 36.128122199700002 ], [ -115.2760464, 36.128122199700002 ], [ -115.2760464, 36.128119499699999 ], [ -115.2760437, 36.128119499699999 ], [ -115.2760437, 36.128116799700003 ], [ -115.276041, 36.128116799700003 ], [ -115.276041, 36.128114099699999 ], [ -115.2760383, 36.128114099699999 ], [ -115.2760383, 36.128111399699996 ], [ -115.2760329, 36.128111399699996 ], [ -115.2760329, 36.1281086997 ], [ -115.2760302, 36.1281086997 ], [ -115.2760302, 36.128114099699999 ], [ -115.2760275, 36.128114099699999 ], [ -115.2760275, 36.128138399699999 ], [ -115.27601940000001, 36.128138399699999 ], [ -115.27601940000001, 36.1281329997 ], [ -115.2760221, 36.1281329997 ], [ -115.2760221, 36.128124899699998 ], [ -115.276014, 36.128124899699998 ], [ -115.276014, 36.128127599700001 ], [ -115.2760113, 36.128127599700001 ], [ -115.2760113, 36.128130299699997 ], [ -115.2760005, 36.128130299699997 ], [ -115.2760005, 36.1281329997 ], [ -115.2759978, 36.1281329997 ], [ -115.2759978, 36.128135699699996 ], [ -115.2759951, 36.128135699699996 ], [ -115.2759951, 36.128138399699999 ], [ -115.2759924, 36.128138399699999 ], [ -115.2759924, 36.128151899700001 ], [ -115.2759951, 36.128151899700001 ], [ -115.2759951, 36.128154599699997 ], [ -115.2759978, 36.128154599699997 ], [ -115.2759978, 36.128146499700001 ], [ -115.2760005, 36.128146499700001 ], [ -115.2760005, 36.128143799699998 ], [ -115.2760113, 36.128143799699998 ], [ -115.2760113, 36.128146499700001 ], [ -115.2760086, 36.128146499700001 ], [ -115.2760086, 36.128149199699997 ], [ -115.2760032, 36.128149199699997 ], [ -115.2760032, 36.128151899700001 ], [ -115.2760005, 36.128151899700001 ], [ -115.2760005, 36.1281572997 ], [ -115.2760032, 36.1281572997 ], [ -115.2760032, 36.128159999700003 ], [ -115.275987, 36.128159999700003 ], [ -115.275987, 36.1281572997 ], [ -115.2759762, 36.1281572997 ], [ -115.2759762, 36.128159999700003 ], [ -115.2759708, 36.128159999700003 ], [ -115.2759708, 36.128162699699999 ] ], [ [ -115.2759384, 36.128130299699997 ], [ -115.2759384, 36.128124899699998 ], [ -115.2759357, 36.128124899699998 ], [ -115.2759357, 36.128127599700001 ], [ -115.275933, 36.128127599700001 ], [ -115.275933, 36.128130299699997 ], [ -115.2759384, 36.128130299699997 ] ], [ [ -115.2759546, 36.128100599699998 ], [ -115.2759546, 36.128097899700002 ], [ -115.27595190000001, 36.128097899700002 ], [ -115.27595190000001, 36.128100599699998 ], [ -115.2759546, 36.128100599699998 ] ], [ [ -115.2759627, 36.128095199699999 ], [ -115.2759627, 36.128092499700003 ], [ -115.2759654, 36.128092499700003 ], [ -115.2759654, 36.128087099699997 ], [ -115.2759627, 36.128087099699997 ], [ -115.2759627, 36.128084399700001 ], [ -115.27596, 36.128084399700001 ], [ -115.27596, 36.128092499700003 ], [ -115.2759573, 36.128092499700003 ], [ -115.2759573, 36.128095199699999 ], [ -115.2759627, 36.128095199699999 ] ], [ [ -115.275987, 36.128092499700003 ], [ -115.275987, 36.128087099699997 ], [ -115.2759843, 36.128087099699997 ], [ -115.2759843, 36.128084399700001 ], [ -115.2759708, 36.128084399700001 ], [ -115.2759708, 36.128087099699997 ], [ -115.2759735, 36.128087099699997 ], [ -115.2759735, 36.1280897997 ], [ -115.2759789, 36.1280897997 ], [ -115.2759789, 36.128092499700003 ], [ -115.275987, 36.128092499700003 ] ] ] } },
{ "type": "Feature", "properties": { "value": 255.0 }, "geometry": { "type": "Polygon", "coordinates": [ [ [ -115.2761166, 36.127970999699997 ], [ -115.2761139, 36.127970999699997 ], [ -115.2761139, 36.127968299700001 ], [ -115.2761112, 36.127968299700001 ], [ -115.2761112, 36.127965599699998 ], [ -115.2761085, 36.127965599699998 ], [ -115.2761085, 36.127946699699997 ], [ -115.2761058, 36.127946699699997 ], [ -115.2761058, 36.127927799699997 ], [ -115.2761031, 36.127927799699997 ], [ -115.2761031, 36.127922399699997 ], [ -115.2761004, 36.127922399699997 ], [ -115.2761004, 36.127919699700001 ], [ -115.2761031, 36.127919699700001 ], [ -115.2761031, 36.127916999699998 ], [ -115.2761004, 36.127916999699998 ], [ -115.2761004, 36.127889999700002 ], [ -115.2760977, 36.127889999700002 ], [ -115.2760977, 36.127852199700001 ], [ -115.2761004, 36.127852199700001 ], [ -115.2761004, 36.127846799700002 ], [ -115.2761058, 36.127846799700002 ], [ -115.2761058, 36.127844099699999 ], [ -115.2761193, 36.127844099699999 ], [ -115.2761193, 36.127841399700003 ], [ -115.2761652, 36.127841399700003 ], [ -115.2761652, 36.1278386997 ], [ -115.2761706, 36.1278386997 ], [ -115.2761706, 36.127835999700004 ], [ -115.2761733, 36.127835999700004 ], [ -115.2761733, 36.127833299700001 ], [ -115.2762192, 36.127833299700001 ], [ -115.2762192, 36.127835999700004 ], [ -115.2762327, 36.127835999700004 ], [ -115.2762327, 36.127833299700001 ], [ -115.2762489, 36.127833299700001 ], [ -115.2762489, 36.127835999700004 ], [ -115.2762516, 36.127835999700004 ], [ -115.2762516, 36.1278386997 ], [ -115.2762543, 36.1278386997 ], [ -115.2762543, 36.127846799700002 ], [ -115.276257, 36.127846799700002 ], [ -115.276257, 36.127852199700001 ], [ -115.2762597, 36.127852199700001 ], [ -115.2762597, 36.127868399699999 ], [ -115.2762624, 36.127868399699999 ], [ -115.2762624, 36.127889999700002 ], [ -115.2762651, 36.127889999700002 ], [ -115.2762651, 36.127908899700003 ], [ -115.2762678, 36.127908899700003 ], [ -115.2762678, 36.127933199700003 ], [ -115.27627050000001, 36.127933199700003 ], [ -115.27627050000001, 36.127941299699998 ], [ -115.2762678, 36.127941299699998 ], [ -115.2762678, 36.127954799699999 ], [ -115.2762651, 36.127954799699999 ], [ -115.2762651, 36.127957499700003 ], [ -115.2762624, 36.127957499700003 ], [ -115.2762624, 36.127960199699999 ], [ -115.2762435, 36.127960199699999 ], [ -115.2762435, 36.127962899700002 ], [ -115.2762138, 36.127962899700002 ], [ -115.2762138, 36.127965599699998 ], [ -115.2761814, 36.127965599699998 ], [ -115.2761814, 36.127968299700001 ], [ -115.2761166, 36.127968299700001 ], [ -115.2761166, 36.127970999699997 ] ] ] } },
{ "type": "Feature", "properties": { "value": 255.0 }, "geometry": { "type": "Polygon", "coordinates": [ [ [ -115.2759492, 36.128046599699999 ], [ -115.2759438, 36.128046599699999 ], [ -115.2759438, 36.1280411997 ], [ -115.2759411, 36.1280411997 ], [ -115.2759411, 36.128038499699997 ], [ -115.2759384, 36.128038499699997 ], [ -115.2759384, 36.1280411997 ], [ -115.2759357, 36.1280411997 ], [ -115.2759357, 36.128046599699999 ], [ -115.275933, 36.128046599699999 ], [ -115.275933, 36.128043899700003 ], [ -115.2759276, 36.128043899700003 ], [ -115.2759276, 36.127827899700002 ], [ -115.2759303, 36.127827899700002 ], [ -115.2759303, 36.127825199699998 ], [ -115.275933, 36.127825199699998 ], [ -115.275933, 36.127817099700003 ], [ -115.2759357, 36.127817099700003 ], [ -115.2759357, 36.127825199699998 ], [ -115.2759384, 36.127825199699998 ], [ -115.2759384, 36.127830599699998 ], [ -115.2759303, 36.127830599699998 ], [ -115.2759303, 36.127841399700003 ], [ -115.2759384, 36.127841399700003 ], [ -115.2759384, 36.127846799700002 ], [ -115.2759411, 36.127846799700002 ], [ -115.2759411, 36.127849499699998 ], [ -115.2759438, 36.127849499699998 ], [ -115.2759438, 36.127852199700001 ], [ -115.2759492, 36.127852199700001 ], [ -115.2759492, 36.127854899699997 ], [ -115.27595190000001, 36.127854899699997 ], [ -115.27595190000001, 36.1278575997 ], [ -115.2759546, 36.1278575997 ], [ -115.2759546, 36.127860299700004 ], [ -115.2759573, 36.127860299700004 ], [ -115.2759573, 36.1278629997 ], [ -115.2759627, 36.1278629997 ], [ -115.2759627, 36.127865699700003 ], [ -115.2759654, 36.127865699700003 ], [ -115.2759654, 36.127868399699999 ], [ -115.2759708, 36.127868399699999 ], [ -115.2759708, 36.127871099700002 ], [ -115.2759735, 36.127871099700002 ], [ -115.2759735, 36.127873799699998 ], [ -115.2759762, 36.127873799699998 ], [ -115.2759762, 36.127876499700001 ], [ -115.2759789, 36.127876499700001 ], [ -115.2759789, 36.127879199699997 ], [ -115.2759816, 36.127879199699997 ], [ -115.2759816, 36.127884599700003 ], [ -115.2759843, 36.127884599700003 ], [ -115.2759843, 36.127887299699999 ], [ -115.275987, 36.127887299699999 ], [ -115.275987, 36.127900799700001 ], [ -115.2759897, 36.127900799700001 ], [ -115.2759897, 36.127911599699999 ], [ -115.275987, 36.127911599699999 ], [ -115.275987, 36.127933199700003 ], [ -115.2759897, 36.127933199700003 ], [ -115.2759897, 36.127938599700002 ], [ -115.2759924, 36.127938599700002 ], [ -115.2759924, 36.127943999700001 ], [ -115.2759951, 36.127943999700001 ], [ -115.2759951, 36.1279493997 ], [ -115.2759978, 36.1279493997 ], [ -115.2759978, 36.127954799699999 ], [ -115.2760005, 36.127954799699999 ], [ -115.2760005, 36.127960199699999 ], [ -115.2760032, 36.127960199699999 ], [ -115.2760032, 36.127962899700002 ], [ -115.2760059, 36.127962899700002 ], [ -115.2760059, 36.127968299700001 ], [ -115.2760086, 36.127968299700001 ], [ -115.2760086, 36.127989899699998 ], [ -115.2760059, 36.127989899699998 ], [ -115.2760059, 36.127995299699997 ], [ -115.2760032, 36.127995299699997 ], [ -115.2760032, 36.128000699700003 ], [ -115.2759978, 36.128000699700003 ], [ -115.2759978, 36.128003399699999 ], [ -115.2759924, 36.128003399699999 ], [ -115.2759924, 36.128006099700002 ], [ -115.2759843, 36.128006099700002 ], [ -115.2759843, 36.128008799699998 ], [ -115.2759735, 36.128008799699998 ], [ -115.2759735, 36.128011499700001 ], [ -115.2759681, 36.128011499700001 ], [ -115.2759681, 36.128014199699997 ], [ -115.2759627, 36.128014199699997 ], [ -115.2759627, 36.1280168997 ], [ -115.2759573, 36.1280168997 ], [ -115.2759573, 36.128019599699996 ], [ -115.2759546, 36.128019599699996 ], [ -115.2759546, 36.1280222997 ], [ -115.2759492, 36.1280222997 ], [ -115.2759492, 36.128024999700003 ], [ -115.2759465, 36.128024999700003 ], [ -115.2759465, 36.128027699699999 ], [ -115.2759438, 36.128027699699999 ], [ -115.2759438, 36.128030399700002 ], [ -115.2759411, 36.128030399700002 ], [ -115.2759411, 36.128035799700001 ], [ -115.2759465, 36.128035799700001 ], [ -115.2759465, 36.128043899700003 ], [ -115.2759492, 36.128043899700003 ], [ -115.2759492, 36.128046599699999 ] ] ] } },
{ "type": "Feature", "properties": { "value": 255.0 }, "geometry": { "type": "Polygon", "coordinates": [ [ [ -115.2761301, 36.127754999700002 ], [ -115.2761274, 36.127754999700002 ], [ -115.2761274, 36.127752299699999 ], [ -115.2761247, 36.127752299699999 ], [ -115.2761247, 36.127754999700002 ], [ -115.2761193, 36.127754999700002 ], [ -115.2761193, 36.127752299699999 ], [ -115.2761166, 36.127752299699999 ], [ -115.2761166, 36.1277468997 ], [ -115.2761193, 36.1277468997 ], [ -115.2761193, 36.127733399699999 ], [ -115.2761247, 36.127733399699999 ], [ -115.2761247, 36.127727999699999 ], [ -115.2761301, 36.127727999699999 ], [ -115.2761301, 36.127725299700003 ], [ -115.2761328, 36.127725299700003 ], [ -115.2761328, 36.1277225997 ], [ -115.2761409, 36.1277225997 ], [ -115.2761409, 36.127744199700004 ], [ -115.2761382, 36.127744199700004 ], [ -115.2761382, 36.127752299699999 ], [ -115.2761301, 36.127752299699999 ], [ -115.2761301, 36.127754999700002 ] ] ] } },
{ "type": "Feature", "properties": { "value": 255.0 }, "geometry": { "type": "Polygon", "coordinates": [ [ [ -115.2761733, 36.127744199700004 ], [ -115.2761625, 36.127744199700004 ], [ -115.2761625, 36.127741499700001 ], [ -115.2761598, 36.127741499700001 ], [ -115.2761598, 36.127738799699998 ], [ -115.2761625, 36.127738799699998 ], [ -115.2761625, 36.127733399699999 ], [ -115.2761652, 36.127733399699999 ], [ -115.2761652, 36.127727999699999 ], [ -115.2761625, 36.127727999699999 ], [ -115.2761625, 36.1277225997 ], [ -115.2761706, 36.1277225997 ], [ -115.2761706, 36.127725299700003 ], [ -115.2761733, 36.127725299700003 ], [ -115.2761733, 36.127727999699999 ], [ -115.2761706, 36.127727999699999 ], [ -115.2761706, 36.127730699700003 ], [ -115.2761733, 36.127730699700003 ], [ -115.2761733, 36.127733399699999 ], [ -115.2761814, 36.127733399699999 ], [ -115.2761814, 36.127730699700003 ], [ -115.2761868, 36.127730699700003 ], [ -115.2761868, 36.127738799699998 ], [ -115.2761814, 36.127738799699998 ], [ -115.2761814, 36.127741499700001 ], [ -115.2761733, 36.127741499700001 ], [ -115.2761733, 36.127744199700004 ] ] ] } },
{ "type": "Feature", "properties": { "value": 255.0 }, "geometry": { "type": "Polygon", "coordinates": [ [ [ -115.2762192, 36.127733399699999 ], [ -115.2762165, 36.127733399699999 ], [ -115.2762165, 36.127730699700003 ], [ -115.2762111, 36.127730699700003 ], [ -115.2762111, 36.1277225997 ], [ -115.2762084, 36.1277225997 ], [ -115.2762084, 36.127714499699998 ], [ -115.2762057, 36.127714499699998 ], [ -115.2762057, 36.127711799700002 ], [ -115.2762003, 36.127711799700002 ], [ -115.2762003, 36.127709099699999 ], [ -115.2761949, 36.127709099699999 ], [ -115.2761949, 36.127706399700003 ], [ -115.2761922, 36.127706399700003 ], [ -115.2761922, 36.127709099699999 ], [ -115.2761841, 36.127709099699999 ], [ -115.2761841, 36.127711799700002 ], [ -115.27615440000001, 36.127711799700002 ], [ -115.27615440000001, 36.127714499699998 ], [ -115.276149, 36.127714499699998 ], [ -115.276149, 36.127709099699999 ], [ -115.2761706, 36.127709099699999 ], [ -115.2761706, 36.127706399700003 ], [ -115.2761733, 36.127706399700003 ], [ -115.2761733, 36.127709099699999 ], [ -115.2761787, 36.127709099699999 ], [ -115.2761787, 36.127700999700004 ], [ -115.2761814, 36.127700999700004 ], [ -115.2761814, 36.127695599699997 ], [ -115.2761949, 36.127695599699997 ], [ -115.2761949, 36.127692899700001 ], [ -115.2761976, 36.127692899700001 ], [ -115.2761976, 36.127690199699998 ], [ -115.2762003, 36.127690199699998 ], [ -115.2762003, 36.127687499700002 ], [ -115.2762084, 36.127687499700002 ], [ -115.2762084, 36.127690199699998 ], [ -115.2762111, 36.127690199699998 ], [ -115.2762111, 36.127687499700002 ], [ -115.2762165, 36.127687499700002 ], [ -115.2762165, 36.127684799699999 ], [ -115.2762192, 36.127684799699999 ], [ -115.2762192, 36.127682099700003 ], [ -115.27622190000001, 36.127682099700003 ], [ -115.27622190000001, 36.1276793997 ], [ -115.27623, 36.1276793997 ], [ -115.27623, 36.127682099700003 ], [ -115.2762327, 36.127682099700003 ], [ -115.2762327, 36.127684799699999 ], [ -115.2762354, 36.127684799699999 ], [ -115.2762354, 36.127690199699998 ], [ -115.2762381, 36.127690199699998 ], [ -115.2762381, 36.127695599699997 ], [ -115.2762354, 36.127695599699997 ], [ -115.2762354, 36.1277036997 ], [ -115.2762327, 36.1277036997 ], [ -115.2762327, 36.127709099699999 ], [ -115.2762354, 36.127709099699999 ], [ -115.2762354, 36.127719899699997 ], [ -115.2762381, 36.127719899699997 ], [ -115.2762381, 36.1277225997 ], [ -115.2762408, 36.1277225997 ], [ -115.2762408, 36.127727999699999 ], [ -115.2762354, 36.127727999699999 ], [ -115.2762354, 36.127730699700003 ], [ -115.2762327, 36.127730699700003 ], [ -115.2762327, 36.127727999699999 ], [ -115.2762246, 36.127727999699999 ], [ -115.2762246, 36.127730699700003 ], [ -115.2762192, 36.127730699700003 ], [ -115.2762192, 36.127733399699999 ] ], [ [ -115.2762273, 36.1277225997 ], [ -115.2762273, 36.127719899699997 ], [ -115.2762246, 36.127719899699997 ], [ -115.2762246, 36.1277225997 ], [ -115.2762273, 36.1277225997 ] ] ] } }
]
}
