{
"type": "FeatureCollection",
"crs": { "type": "name", "properties": { "name": "urn:ogc:def:crs:OGC:1.3:CRS84" } },
"features": [
{ "type": "Feature", "properties": { "value": 255.0 }, "geometry": { "type": "Polygon", "coordinates": [ [ [ -115.2261234, 36.2546442 ], [ -115.2261153, 36.2546442 ], [ -115.2261153, 36.2546388 ], [ -115.226118, 36.2546388 ], [ -115.226118, 36.2546334 ], [ -115.2261153, 36.2546334 ], [ -115.2261153, 36.2546307 ], [ -115.226118, 36.2546307 ], [ -115.226118, 36.2546199 ], [ -115.2261207, 36.2546199 ], [ -115.2261207, 36.2546145 ], [ -115.2261234, 36.2546145 ], [ -115.2261234, 36.2546199 ], [ -115.2261261, 36.2546199 ], [ -115.2261261, 36.2546307 ], [ -115.2261234, 36.2546307 ], [ -115.2261234, 36.2546334 ], [ -115.2261207, 36.2546334 ], [ -115.2261207, 36.2546388 ], [ -115.2261234, 36.2546388 ], [ -115.2261234, 36.2546442 ] ] ] } },
{ "type": "Feature", "properties": { "value": 255.0 }, "geometry": { "type": "Polygon", "coordinates": [ [ [ -115.2251676, 36.2545875 ], [ -115.225105500000012, 36.2545875 ], [ -115.225105500000012, 36.2545821 ], [ -115.2251028, 36.2545821 ], [ -115.2251028, 36.2545146 ], [ -115.225105500000012, 36.2545146 ], [ -115.225105500000012, 36.2545092 ], [ -115.2251082, 36.2545092 ], [ -115.2251082, 36.2545065 ], [ -115.2251136, 36.2545065 ], [ -115.2251136, 36.2545038 ], [ -115.22511630000001, 36.2545038 ], [ -115.22511630000001, 36.2545011 ], [ -115.225119, 36.2545011 ], [ -115.225119, 36.2544984 ], [ -115.2251217, 36.2544984 ], [ -115.2251217, 36.2544957 ], [ -115.225119, 36.2544957 ], [ -115.225119, 36.2544903 ], [ -115.2251217, 36.2544903 ], [ -115.2251217, 36.2544822 ], [ -115.2251244, 36.2544822 ], [ -115.2251244, 36.2544795 ], [ -115.2251514, 36.2544795 ], [ -115.2251514, 36.2544822 ], [ -115.2251676, 36.2544822 ], [ -115.2251676, 36.2544795 ], [ -115.2251703, 36.2544795 ], [ -115.2251703, 36.2544606 ], [ -115.2251757, 36.2544606 ], [ -115.2251757, 36.2544579 ], [ -115.2251811, 36.2544579 ], [ -115.2251811, 36.2544552 ], [ -115.2252054, 36.2544552 ], [ -115.2252054, 36.2544579 ], [ -115.2252108, 36.2544579 ], [ -115.2252108, 36.2544606 ], [ -115.22521350000001, 36.2544606 ], [ -115.22521350000001, 36.2544849 ], [ -115.2252162, 36.2544849 ], [ -115.2252162, 36.2544876 ], [ -115.2252378, 36.2544876 ], [ -115.2252378, 36.2544849 ], [ -115.2252648, 36.2544849 ], [ -115.2252648, 36.2544822 ], [ -115.2252756, 36.2544822 ], [ -115.2252756, 36.2544849 ], [ -115.225281, 36.2544849 ], [ -115.225281, 36.2544822 ], [ -115.2252864, 36.2544822 ], [ -115.2252864, 36.2544849 ], [ -115.2252891, 36.2544849 ], [ -115.2252891, 36.2544876 ], [ -115.2252918, 36.2544876 ], [ -115.2252918, 36.2544903 ], [ -115.2252891, 36.2544903 ], [ -115.2252891, 36.2544984 ], [ -115.2252918, 36.2544984 ], [ -115.2252918, 36.2545038 ], [ -115.2252891, 36.2545038 ], [ -115.2252891, 36.2545173 ], [ -115.2252918, 36.2545173 ], [ -115.2252918, 36.2545281 ], [ -115.2252891, 36.2545281 ], [ -115.2252891, 36.2545362 ], [ -115.2252918, 36.2545362 ], [ -115.2252918, 36.254547 ], [ -115.2252891, 36.254547 ], [ -115.2252891, 36.2545497 ], [ -115.2252918, 36.2545497 ], [ -115.2252918, 36.2545605 ], [ -115.2252891, 36.2545605 ], [ -115.2252891, 36.254574 ], [ -115.2252918, 36.254574 ], [ -115.2252918, 36.2545767 ], [ -115.2252891, 36.2545767 ], [ -115.2252891, 36.2545821 ], [ -115.2252864, 36.2545821 ], [ -115.2252864, 36.2545848 ], [ -115.2252783, 36.2545848 ], [ -115.2252783, 36.2545794 ], [ -115.2252756, 36.2545794 ], [ -115.2252756, 36.254574 ], [ -115.2252729, 36.254574 ], [ -115.2252729, 36.2545686 ], [ -115.2252648, 36.2545686 ], [ -115.2252648, 36.2545659 ], [ -115.225254, 36.2545659 ], [ -115.225254, 36.2545686 ], [ -115.2252297, 36.2545686 ], [ -115.2252297, 36.2545659 ], [ -115.2252189, 36.2545659 ], [ -115.2252189, 36.2545686 ], [ -115.225202700000011, 36.2545686 ], [ -115.225202700000011, 36.2545659 ], [ -115.2251811, 36.2545659 ], [ -115.2251811, 36.2545686 ], [ -115.2251784, 36.2545686 ], [ -115.2251784, 36.2545713 ], [ -115.2251757, 36.2545713 ], [ -115.2251757, 36.2545821 ], [ -115.225173, 36.2545821 ], [ -115.225173, 36.2545848 ], [ -115.2251676, 36.2545848 ], [ -115.2251676, 36.2545875 ] ] ] } },
{ "type": "Feature", "properties": { "value": 255.0 }, "geometry": { "type": "Polygon", "coordinates": [ [ [ -115.2259668, 36.2545524 ], [ -115.2258858, 36.2545524 ], [ -115.2258858, 36.2545497 ], [ -115.2258804, 36.2545497 ], [ -115.2258804, 36.2544903 ], [ -115.2258831, 36.2544903 ], [ -115.2258831, 36.2544876 ], [ -115.2258858, 36.2544876 ], [ -115.2258858, 36.2544849 ], [ -115.2259209, 36.2544849 ], [ -115.2259209, 36.2544822 ], [ -115.2259236, 36.2544822 ], [ -115.2259236, 36.2544768 ], [ -115.2259209, 36.2544768 ], [ -115.2259209, 36.2544741 ], [ -115.2259236, 36.2544741 ], [ -115.2259236, 36.2544714 ], [ -115.225929, 36.2544714 ], [ -115.225929, 36.2544633 ], [ -115.2259263, 36.2544633 ], [ -115.2259263, 36.2544606 ], [ -115.2259209, 36.2544606 ], [ -115.2259209, 36.2544525 ], [ -115.2259263, 36.2544525 ], [ -115.2259263, 36.2544336 ], [ -115.2259236, 36.2544336 ], [ -115.2259236, 36.2544309 ], [ -115.2259182, 36.2544309 ], [ -115.2259182, 36.2544282 ], [ -115.2259155, 36.2544282 ], [ -115.2259155, 36.2544039 ], [ -115.2259182, 36.2544039 ], [ -115.2259182, 36.2544012 ], [ -115.2259236, 36.2544012 ], [ -115.2259236, 36.2543985 ], [ -115.2260073, 36.2543985 ], [ -115.2260073, 36.2543958 ], [ -115.2260397, 36.2543958 ], [ -115.2260397, 36.2543985 ], [ -115.2260451, 36.2543985 ], [ -115.2260451, 36.2544012 ], [ -115.2260478, 36.2544012 ], [ -115.2260478, 36.2544255 ], [ -115.2260505, 36.2544255 ], [ -115.2260505, 36.2544336 ], [ -115.2260532, 36.2544336 ], [ -115.2260532, 36.2544741 ], [ -115.2260559, 36.2544741 ], [ -115.2260559, 36.2544822 ], [ -115.2260532, 36.2544822 ], [ -115.2260532, 36.254493 ], [ -115.2260559, 36.254493 ], [ -115.2260559, 36.2545254 ], [ -115.2260532, 36.2545254 ], [ -115.2260532, 36.2545308 ], [ -115.2260559, 36.2545308 ], [ -115.2260559, 36.2545389 ], [ -115.2260532, 36.2545389 ], [ -115.2260532, 36.2545416 ], [ -115.2260478, 36.2545416 ], [ -115.2260478, 36.2545443 ], [ -115.2260451, 36.2545443 ], [ -115.2260451, 36.254547 ], [ -115.2259749, 36.254547 ], [ -115.2259749, 36.2545497 ], [ -115.2259668, 36.2545497 ], [ -115.2259668, 36.2545524 ] ] ] } },
{ "type": "Feature", "properties": { "value": 255.0 }, "geometry": { "type": "Polygon", "coordinates": [ [ [ -115.2260532, 36.2543688 ], [ -115.2260397, 36.2543688 ], [ -115.2260397, 36.2543661 ], [ -115.2260262, 36.2543661 ], [ -115.2260262, 36.2543688 ], [ -115.2259938, 36.2543688 ], [ -115.2259938, 36.2543661 ], [ -115.2259911, 36.2543661 ], [ -115.2259911, 36.2543418 ], [ -115.2260181, 36.2543418 ], [ -115.2260181, 36.2543391 ], [ -115.2260262, 36.2543391 ], [ -115.2260262, 36.2543364 ], [ -115.2260424, 36.2543364 ], [ -115.2260424, 36.2543391 ], [ -115.2260532, 36.2543391 ], [ -115.2260532, 36.2543445 ], [ -115.2260559, 36.2543445 ], [ -115.2260559, 36.2543661 ], [ -115.2260532, 36.2543661 ], [ -115.2260532, 36.2543688 ] ] ] } },
{ "type": "Feature", "properties": { "value": 255.0 }, "geometry": { "type": "Polygon", "coordinates": [ [ [ -115.2262935, 36.2543499 ], [ -115.2262719, 36.2543499 ], [ -115.2262719, 36.2543472 ], [ -115.2262692, 36.2543472 ], [ -115.2262692, 36.2543418 ], [ -115.2262665, 36.2543418 ], [ -115.2262665, 36.2543283 ], [ -115.2262692, 36.2543283 ], [ -115.2262692, 36.2543256 ], [ -115.2262719, 36.2543256 ], [ -115.2262719, 36.2543229 ], [ -115.2262773, 36.2543229 ], [ -115.2262773, 36.2543256 ], [ -115.2262935, 36.2543256 ], [ -115.2262935, 36.2543283 ], [ -115.2262989, 36.2543283 ], [ -115.2262989, 36.2543337 ], [ -115.2263016, 36.2543337 ], [ -115.2263016, 36.2543391 ], [ -115.2262989, 36.2543391 ], [ -115.2262989, 36.2543445 ], [ -115.2262962, 36.2543445 ], [ -115.2262962, 36.2543472 ], [ -115.2262935, 36.2543472 ], [ -115.2262935, 36.2543499 ] ] ] } },
{ "type": "Feature", "properties": { "value": 255.0 }, "geometry": { "type": "Polygon", "coordinates": [ [ [ -115.2250947, 36.2544228 ], [ -115.2250839, 36.2544228 ], [ -115.2250839, 36.2544201 ], [ -115.2250812, 36.2544201 ], [ -115.2250812, 36.2544174 ], [ -115.2250785, 36.2544174 ], [ -115.2250785, 36.2544147 ], [ -115.2250758, 36.2544147 ], [ -115.2250758, 36.254412 ], [ -115.2250731, 36.254412 ], [ -115.2250731, 36.2544093 ], [ -115.2250704, 36.2544093 ], [ -115.2250704, 36.2544066 ], [ -115.225067700000011, 36.2544066 ], [ -115.225067700000011, 36.2544012 ], [ -115.225065, 36.2544012 ], [ -115.225065, 36.2543985 ], [ -115.2250623, 36.2543985 ], [ -115.2250623, 36.2543958 ], [ -115.2250596, 36.2543958 ], [ -115.2250596, 36.2543904 ], [ -115.225056900000013, 36.2543904 ], [ -115.225056900000013, 36.2543877 ], [ -115.2250542, 36.2543877 ], [ -115.2250542, 36.2543823 ], [ -115.2250515, 36.2543823 ], [ -115.2250515, 36.2543796 ], [ -115.22504880000001, 36.2543796 ], [ -115.22504880000001, 36.2543634 ], [ -115.2250461, 36.2543634 ], [ -115.2250461, 36.2543553 ], [ -115.22504880000001, 36.2543553 ], [ -115.22504880000001, 36.2543526 ], [ -115.2250515, 36.2543526 ], [ -115.2250515, 36.2543445 ], [ -115.2250542, 36.2543445 ], [ -115.2250542, 36.2543418 ], [ -115.2250515, 36.2543418 ], [ -115.2250515, 36.2543364 ], [ -115.2250542, 36.2543364 ], [ -115.2250542, 36.2543337 ], [ -115.2250596, 36.2543337 ], [ -115.2250596, 36.254331 ], [ -115.2250623, 36.254331 ], [ -115.2250623, 36.2543283 ], [ -115.225065, 36.2543283 ], [ -115.225065, 36.2543148 ], [ -115.225067700000011, 36.2543148 ], [ -115.225067700000011, 36.2543121 ], [ -115.2250731, 36.2543121 ], [ -115.2250731, 36.2543094 ], [ -115.2250758, 36.2543094 ], [ -115.2250758, 36.2543067 ], [ -115.2250731, 36.2543067 ], [ -115.2250731, 36.254304 ], [ -115.2250785, 36.254304 ], [ -115.2250785, 36.2542878 ], [ -115.2250758, 36.2542878 ], [ -115.2250758, 36.2542851 ], [ -115.2250785, 36.2542851 ], [ -115.2250785, 36.2542797 ], [ -115.2250893, 36.2542797 ], [ -115.2250893, 36.2542851 ], [ -115.225105500000012, 36.2542851 ], [ -115.225105500000012, 36.2542905 ], [ -115.2251136, 36.2542905 ], [ -115.2251136, 36.2542878 ], [ -115.22511630000001, 36.2542878 ], [ -115.22511630000001, 36.2542824 ], [ -115.2251217, 36.2542824 ], [ -115.2251217, 36.2542797 ], [ -115.2251298, 36.2542797 ], [ -115.2251298, 36.254277 ], [ -115.2251514, 36.254277 ], [ -115.2251514, 36.2542797 ], [ -115.2251568, 36.2542797 ], [ -115.2251568, 36.2542851 ], [ -115.2251703, 36.2542851 ], [ -115.2251703, 36.2542878 ], [ -115.225173, 36.2542878 ], [ -115.225173, 36.2542905 ], [ -115.2251757, 36.2542905 ], [ -115.2251757, 36.2542959 ], [ -115.2251784, 36.2542959 ], [ -115.2251784, 36.2542986 ], [ -115.225183800000011, 36.2542986 ], [ -115.225183800000011, 36.254304 ], [ -115.2251892, 36.254304 ], [ -115.2251892, 36.2543067 ], [ -115.2251919, 36.2543067 ], [ -115.2251919, 36.2543121 ], [ -115.2251946, 36.2543121 ], [ -115.2251946, 36.2543202 ], [ -115.2251973, 36.2543202 ], [ -115.2251973, 36.2543256 ], [ -115.2252, 36.2543256 ], [ -115.2252, 36.254331 ], [ -115.225202700000011, 36.254331 ], [ -115.225202700000011, 36.2543391 ], [ -115.2252, 36.2543391 ], [ -115.2252, 36.2543418 ], [ -115.2251973, 36.2543418 ], [ -115.2251973, 36.2543445 ], [ -115.2251946, 36.2543445 ], [ -115.2251946, 36.2543472 ], [ -115.2251919, 36.2543472 ], [ -115.2251919, 36.2543499 ], [ -115.2251865, 36.2543499 ], [ -115.2251865, 36.2543526 ], [ -115.225183800000011, 36.2543526 ], [ -115.225183800000011, 36.2543553 ], [ -115.2251784, 36.2543553 ], [ -115.2251784, 36.254358 ], [ -115.2251703, 36.254358 ], [ -115.2251703, 36.2543607 ], [ -115.2251676, 36.2543607 ], [ -115.2251676, 36.2543634 ], [ -115.2251622, 36.2543634 ], [ -115.2251622, 36.2543661 ], [ -115.225154100000012, 36.2543661 ], [ -115.225154100000012, 36.2543688 ], [ -115.225146, 36.2543688 ], [ -115.225146, 36.2543715 ], [ -115.2251406, 36.2543715 ], [ -115.2251406, 36.2543796 ], [ -115.2251379, 36.2543796 ], [ -115.2251379, 36.2543823 ], [ -115.225135200000011, 36.2543823 ], [ -115.225135200000011, 36.2543985 ], [ -115.2251325, 36.2543985 ], [ -115.2251325, 36.2544012 ], [ -115.2251298, 36.2544012 ], [ -115.2251298, 36.2544039 ], [ -115.2251244, 36.2544039 ], [ -115.2251244, 36.2544066 ], [ -115.225119, 36.2544066 ], [ -115.225119, 36.2544093 ], [ -115.2251136, 36.2544093 ], [ -115.2251136, 36.254412 ], [ -115.2251082, 36.254412 ], [ -115.2251082, 36.2544147 ], [ -115.225105500000012, 36.2544147 ], [ -115.225105500000012, 36.2544174 ], [ -115.2251001, 36.2544174 ], [ -115.2251001, 36.2544201 ], [ -115.2250947, 36.2544201 ], [ -115.2250947, 36.2544228 ] ] ] } },
{ "type": "Feature", "properties": { "value": 255.0 }, "geometry": { "type": "Polygon", "coordinates": [ [ [ -115.2260532, 36.2543229 ], [ -115.2260316, 36.2543229 ], [ -115.2260316, 36.2543202 ], [ -115.2260262, 36.2543202 ], [ -115.2260262, 36.2542986 ], [ -115.2260289, 36.2542986 ], [ -115.2260289, 36.2542959 ], [ -115.2260505, 36.2542959 ], [ -115.2260505, 36.2542986 ], [ -115.2260532, 36.2542986 ], [ -115.2260532, 36.2543094 ], [ -115.2260559, 36.2543094 ], [ -115.2260559, 36.2543202 ], [ -115.2260532, 36.2543202 ], [ -115.2260532, 36.2543229 ] ] ] } },
{ "type": "Feature", "properties": { "value": 255.0 }, "geometry": { "type": "Polygon", "coordinates": [ [ [ -115.2266472, 36.2543256 ], [ -115.2266418, 36.2543256 ], [ -115.2266418, 36.2543229 ], [ -115.226617499999989, 36.2543229 ], [ -115.226617499999989, 36.2543202 ], [ -115.2265932, 36.2543202 ], [ -115.2265932, 36.2543175 ], [ -115.2265527, 36.2543175 ], [ -115.2265527, 36.2543148 ], [ -115.2265365, 36.2543148 ], [ -115.2265365, 36.2543121 ], [ -115.226523, 36.2543121 ], [ -115.226523, 36.2543094 ], [ -115.2265203, 36.2543094 ], [ -115.2265203, 36.2543013 ], [ -115.226523, 36.2543013 ], [ -115.226523, 36.2542824 ], [ -115.2265257, 36.2542824 ], [ -115.2265257, 36.2542527 ], [ -115.2265284, 36.2542527 ], [ -115.2265284, 36.254223 ], [ -115.2265311, 36.254223 ], [ -115.2265311, 36.2542203 ], [ -115.2265473, 36.2542203 ], [ -115.2265473, 36.254223 ], [ -115.2265743, 36.254223 ], [ -115.2265743, 36.2542257 ], [ -115.226604, 36.2542257 ], [ -115.226604, 36.2542284 ], [ -115.2266337, 36.2542284 ], [ -115.2266337, 36.2542311 ], [ -115.2266553, 36.2542311 ], [ -115.2266553, 36.2542338 ], [ -115.226658, 36.2542338 ], [ -115.226658, 36.2542365 ], [ -115.2266607, 36.2542365 ], [ -115.2266607, 36.2542743 ], [ -115.226658, 36.2542743 ], [ -115.226658, 36.2542986 ], [ -115.2266553, 36.2542986 ], [ -115.2266553, 36.2543121 ], [ -115.2266526, 36.2543121 ], [ -115.2266526, 36.2543202 ], [ -115.2266499, 36.2543202 ], [ -115.2266499, 36.2543229 ], [ -115.2266472, 36.2543229 ], [ -115.2266472, 36.2543256 ] ] ] } },
{ "type": "Feature", "properties": { "value": 255.0 }, "geometry": { "type": "Polygon", "coordinates": [ [ [ -115.2259371, 36.2542095 ], [ -115.2259155, 36.2542095 ], [ -115.2259155, 36.2542068 ], [ -115.2258966, 36.2542068 ], [ -115.2258966, 36.2542041 ], [ -115.2258939, 36.2542041 ], [ -115.2258939, 36.2542014 ], [ -115.2258912, 36.2542014 ], [ -115.2258912, 36.2541852 ], [ -115.2258939, 36.2541852 ], [ -115.2258939, 36.2541771 ], [ -115.2258966, 36.2541771 ], [ -115.2258966, 36.2541744 ], [ -115.2259047, 36.2541744 ], [ -115.2259047, 36.2541771 ], [ -115.225929, 36.2541771 ], [ -115.225929, 36.2541798 ], [ -115.2259317, 36.2541798 ], [ -115.2259317, 36.2541825 ], [ -115.2259371, 36.2541825 ], [ -115.2259371, 36.2541879 ], [ -115.2259398, 36.2541879 ], [ -115.2259398, 36.2542014 ], [ -115.2259371, 36.2542014 ], [ -115.2259371, 36.2542095 ] ] ] } },
{ "type": "Feature", "properties": { "value": 255.0 }, "geometry": { "type": "Polygon", "coordinates": [ [ [ -115.2267876, 36.25425 ], [ -115.2267849, 36.25425 ], [ -115.2267849, 36.2542446 ], [ -115.226782199999988, 36.2542446 ], [ -115.226782199999988, 36.2542122 ], [ -115.2267795, 36.2542122 ], [ -115.2267795, 36.2541798 ], [ -115.226782199999988, 36.2541798 ], [ -115.226782199999988, 36.2541636 ], [ -115.2267849, 36.2541636 ], [ -115.2267849, 36.2541582 ], [ -115.2267876, 36.2541582 ], [ -115.2267876, 36.25425 ] ] ] } },
{ "type": "Feature", "properties": { "value": 255.0 }, "geometry": { "type": "Polygon", "coordinates": [ [ [ -115.2264636, 36.2541987 ], [ -115.2264501, 36.2541987 ], [ -115.2264501, 36.254196 ], [ -115.2264366, 36.254196 ], [ -115.2264366, 36.2541933 ], [ -115.2264015, 36.2541933 ], [ -115.2264015, 36.2541906 ], [ -115.2263799, 36.2541906 ], [ -115.2263799, 36.2541879 ], [ -115.2263529, 36.2541879 ], [ -115.2263529, 36.2541852 ], [ -115.2263313, 36.2541852 ], [ -115.2263313, 36.2541825 ], [ -115.2263232, 36.2541825 ], [ -115.2263232, 36.2541744 ], [ -115.2263205, 36.2541744 ], [ -115.2263205, 36.2541717 ], [ -115.2263232, 36.2541717 ], [ -115.2263232, 36.2541663 ], [ -115.2263259, 36.2541663 ], [ -115.2263259, 36.2541636 ], [ -115.2263286, 36.2541636 ], [ -115.2263286, 36.2541609 ], [ -115.226334, 36.2541609 ], [ -115.226334, 36.2541582 ], [ -115.2263367, 36.2541582 ], [ -115.2263367, 36.2541555 ], [ -115.2263394, 36.2541555 ], [ -115.2263394, 36.254142 ], [ -115.2263367, 36.254142 ], [ -115.2263367, 36.2541366 ], [ -115.226334, 36.2541366 ], [ -115.226334, 36.2541258 ], [ -115.2263313, 36.2541258 ], [ -115.2263313, 36.2541204 ], [ -115.226334, 36.2541204 ], [ -115.226334, 36.254115 ], [ -115.2263313, 36.254115 ], [ -115.2263313, 36.2540853 ], [ -115.226334, 36.2540853 ], [ -115.226334, 36.2540772 ], [ -115.2263313, 36.2540772 ], [ -115.2263313, 36.2540718 ], [ -115.226334, 36.2540718 ], [ -115.226334, 36.2540637 ], [ -115.2263313, 36.2540637 ], [ -115.2263313, 36.254061 ], [ -115.226334, 36.254061 ], [ -115.226334, 36.2540556 ], [ -115.2263367, 36.2540556 ], [ -115.2263367, 36.2540529 ], [ -115.2263394, 36.2540529 ], [ -115.2263394, 36.2540502 ], [ -115.2263421, 36.2540502 ], [ -115.2263421, 36.2540475 ], [ -115.2263745, 36.2540475 ], [ -115.2263745, 36.2540502 ], [ -115.2264042, 36.2540502 ], [ -115.2264042, 36.2540529 ], [ -115.226415, 36.2540529 ], [ -115.226415, 36.2540799 ], [ -115.2264285, 36.2540799 ], [ -115.2264285, 36.2540826 ], [ -115.2264393, 36.2540826 ], [ -115.2264393, 36.2540853 ], [ -115.2264447, 36.2540853 ], [ -115.2264447, 36.254088 ], [ -115.226496, 36.254088 ], [ -115.226496, 36.2540853 ], [ -115.2265419, 36.2540853 ], [ -115.2265419, 36.254088 ], [ -115.2265716, 36.254088 ], [ -115.2265716, 36.2540907 ], [ -115.2265797, 36.2540907 ], [ -115.2265797, 36.2540961 ], [ -115.2265824, 36.2540961 ], [ -115.2265824, 36.2540988 ], [ -115.2265797, 36.2540988 ], [ -115.2265797, 36.2541366 ], [ -115.226577, 36.2541366 ], [ -115.226577, 36.2541474 ], [ -115.2265743, 36.2541474 ], [ -115.2265743, 36.2541663 ], [ -115.2265716, 36.2541663 ], [ -115.2265716, 36.254169 ], [ -115.2265689, 36.254169 ], [ -115.2265689, 36.2541717 ], [ -115.2265662, 36.2541717 ], [ -115.2265662, 36.2541744 ], [ -115.2265419, 36.2541744 ], [ -115.2265419, 36.2541717 ], [ -115.2265095, 36.2541717 ], [ -115.2265095, 36.254169 ], [ -115.226496, 36.254169 ], [ -115.226496, 36.2541663 ], [ -115.2264744, 36.2541663 ], [ -115.2264744, 36.254169 ], [ -115.2264717, 36.254169 ], [ -115.2264717, 36.2541771 ], [ -115.226469, 36.2541771 ], [ -115.226469, 36.2541879 ], [ -115.2264663, 36.2541879 ], [ -115.2264663, 36.254196 ], [ -115.2264636, 36.254196 ], [ -115.2264636, 36.2541987 ] ] ] } },
{ "type": "Feature", "properties": { "value": 255.0 }, "geometry": { "type": "Polygon", "coordinates": [ [ [ -115.2259236, 36.2541609 ], [ -115.2258399, 36.2541609 ], [ -115.2258399, 36.2541582 ], [ -115.2258183, 36.2541582 ], [ -115.2258183, 36.2541555 ], [ -115.2258156, 36.2541555 ], [ -115.2258156, 36.2541312 ], [ -115.2258183, 36.2541312 ], [ -115.2258183, 36.2541123 ], [ -115.225821, 36.2541123 ], [ -115.225821, 36.2540961 ], [ -115.2258237, 36.2540961 ], [ -115.2258237, 36.2540772 ], [ -115.2258264, 36.2540772 ], [ -115.2258264, 36.2540691 ], [ -115.2258291, 36.2540691 ], [ -115.2258291, 36.2540637 ], [ -115.2258318, 36.2540637 ], [ -115.2258318, 36.2540583 ], [ -115.2258345, 36.2540583 ], [ -115.2258345, 36.2540421 ], [ -115.2258372, 36.2540421 ], [ -115.2258372, 36.2539962 ], [ -115.2258399, 36.2539962 ], [ -115.2258399, 36.2539935 ], [ -115.225875, 36.2539935 ], [ -115.225875, 36.2539962 ], [ -115.2259074, 36.2539962 ], [ -115.2259074, 36.2539989 ], [ -115.2259236, 36.2539989 ], [ -115.2259236, 36.2540016 ], [ -115.225929, 36.2540016 ], [ -115.225929, 36.2540043 ], [ -115.2259344, 36.2540043 ], [ -115.2259344, 36.254007 ], [ -115.2259398, 36.254007 ], [ -115.2259398, 36.2540097 ], [ -115.2259479, 36.2540097 ], [ -115.2259479, 36.2540124 ], [ -115.2259641, 36.2540124 ], [ -115.2259641, 36.2540151 ], [ -115.2259776, 36.2540151 ], [ -115.2259776, 36.2540178 ], [ -115.2259857, 36.2540178 ], [ -115.2259857, 36.2540205 ], [ -115.2259965, 36.2540205 ], [ -115.2259965, 36.2540232 ], [ -115.2260073, 36.2540232 ], [ -115.2260073, 36.2540259 ], [ -115.2260127, 36.2540259 ], [ -115.2260127, 36.2540286 ], [ -115.2260154, 36.2540286 ], [ -115.2260154, 36.2540313 ], [ -115.2260208, 36.2540313 ], [ -115.2260208, 36.254034 ], [ -115.2260262, 36.254034 ], [ -115.2260262, 36.2540367 ], [ -115.2260316, 36.2540367 ], [ -115.2260316, 36.2540394 ], [ -115.2260451, 36.2540394 ], [ -115.2260451, 36.2540421 ], [ -115.2260559, 36.2540421 ], [ -115.2260559, 36.2540448 ], [ -115.2260586, 36.2540448 ], [ -115.2260586, 36.2540556 ], [ -115.2260613, 36.2540556 ], [ -115.2260613, 36.2540664 ], [ -115.226064, 36.2540664 ], [ -115.226064, 36.2540718 ], [ -115.2260667, 36.2540718 ], [ -115.2260667, 36.2540772 ], [ -115.2260694, 36.2540772 ], [ -115.2260694, 36.2540799 ], [ -115.2260721, 36.2540799 ], [ -115.2260721, 36.2540853 ], [ -115.2260748, 36.2540853 ], [ -115.2260748, 36.254088 ], [ -115.2260775, 36.254088 ], [ -115.2260775, 36.2540907 ], [ -115.2260748, 36.2540907 ], [ -115.2260748, 36.2540961 ], [ -115.2260775, 36.2540961 ], [ -115.2260775, 36.2540988 ], [ -115.2260748, 36.2540988 ], [ -115.2260748, 36.2541177 ], [ -115.2260721, 36.2541177 ], [ -115.2260721, 36.2541231 ], [ -115.2260397, 36.2541231 ], [ -115.2260397, 36.2541204 ], [ -115.2260154, 36.2541204 ], [ -115.2260154, 36.2541177 ], [ -115.2259884, 36.2541177 ], [ -115.2259884, 36.254115 ], [ -115.2259641, 36.254115 ], [ -115.2259641, 36.2541123 ], [ -115.2259344, 36.2541123 ], [ -115.2259344, 36.254115 ], [ -115.2259317, 36.254115 ], [ -115.2259317, 36.2541285 ], [ -115.225929, 36.2541285 ], [ -115.225929, 36.2541474 ], [ -115.2259263, 36.2541474 ], [ -115.2259263, 36.2541555 ], [ -115.2259236, 36.2541555 ], [ -115.2259236, 36.2541609 ] ] ] } },
{ "type": "Feature", "properties": { "value": 255.0 }, "geometry": { "type": "Polygon", "coordinates": [ [ [ -115.2250353, 36.2540475 ], [ -115.2250326, 36.2540475 ], [ -115.2250326, 36.253926 ], [ -115.2250407, 36.253926 ], [ -115.2250407, 36.2539287 ], [ -115.2250434, 36.2539287 ], [ -115.2250434, 36.2539341 ], [ -115.2250461, 36.2539341 ], [ -115.2250461, 36.2539476 ], [ -115.22504880000001, 36.2539476 ], [ -115.22504880000001, 36.2539368 ], [ -115.2250515, 36.2539368 ], [ -115.2250515, 36.2539341 ], [ -115.2250542, 36.2539341 ], [ -115.2250542, 36.2539368 ], [ -115.2250596, 36.2539368 ], [ -115.2250596, 36.2539395 ], [ -115.2250623, 36.2539395 ], [ -115.2250623, 36.2539422 ], [ -115.2250596, 36.2539422 ], [ -115.2250596, 36.253953 ], [ -115.2250623, 36.253953 ], [ -115.2250623, 36.2539557 ], [ -115.2250731, 36.2539557 ], [ -115.2250731, 36.2539584 ], [ -115.2250758, 36.2539584 ], [ -115.2250758, 36.2539611 ], [ -115.225092, 36.2539611 ], [ -115.225092, 36.2539638 ], [ -115.2250947, 36.2539638 ], [ -115.2250947, 36.2540151 ], [ -115.2250812, 36.2540151 ], [ -115.2250812, 36.2540178 ], [ -115.225067700000011, 36.2540178 ], [ -115.225067700000011, 36.2540151 ], [ -115.2250542, 36.2540151 ], [ -115.2250542, 36.2540124 ], [ -115.2250515, 36.2540124 ], [ -115.2250515, 36.2540097 ], [ -115.22504880000001, 36.2540097 ], [ -115.22504880000001, 36.2540124 ], [ -115.2250461, 36.2540124 ], [ -115.2250461, 36.2540421 ], [ -115.2250434, 36.2540421 ], [ -115.2250434, 36.2540448 ], [ -115.2250353, 36.2540448 ], [ -115.2250353, 36.2540475 ] ], [ [ -115.22504880000001, 36.2539827 ], [ -115.22504880000001, 36.2539773 ], [ -115.2250461, 36.2539773 ], [ -115.2250461, 36.2539827 ], [ -115.22504880000001, 36.2539827 ] ] ] } },
{ "type": "Feature", "properties": { "value": 255.0 }, "geometry": { "type": "Polygon", "coordinates": [ [ [ -115.225251300000011, 36.2540448 ], [ -115.2252405, 36.2540448 ], [ -115.2252405, 36.2540421 ], [ -115.2252297, 36.2540421 ], [ -115.2252297, 36.2540394 ], [ -115.2252216, 36.2540394 ], [ -115.2252216, 36.2540367 ], [ -115.2252162, 36.2540367 ], [ -115.2252162, 36.2540313 ], [ -115.22521350000001, 36.2540313 ], [ -115.22521350000001, 36.2540286 ], [ -115.2252108, 36.2540286 ], [ -115.2252108, 36.2540259 ], [ -115.225135200000011, 36.2540259 ], [ -115.225135200000011, 36.2540232 ], [ -115.2251325, 36.2540232 ], [ -115.2251325, 36.2540205 ], [ -115.2251298, 36.2540205 ], [ -115.2251298, 36.2540151 ], [ -115.2251271, 36.2540151 ], [ -115.2251271, 36.2540124 ], [ -115.2251244, 36.2540124 ], [ -115.2251244, 36.2540097 ], [ -115.2251217, 36.2540097 ], [ -115.2251217, 36.254007 ], [ -115.225119, 36.254007 ], [ -115.225119, 36.2540043 ], [ -115.22511630000001, 36.2540043 ], [ -115.22511630000001, 36.2539935 ], [ -115.2251136, 36.2539935 ], [ -115.2251136, 36.2539638 ], [ -115.22511630000001, 36.2539638 ], [ -115.22511630000001, 36.2539449 ], [ -115.2251136, 36.2539449 ], [ -115.2251136, 36.2539314 ], [ -115.2251109, 36.2539314 ], [ -115.2251109, 36.2539179 ], [ -115.2251082, 36.2539179 ], [ -115.2251082, 36.2538747 ], [ -115.2251109, 36.2538747 ], [ -115.2251109, 36.253872 ], [ -115.2251946, 36.253872 ], [ -115.2251946, 36.2538801 ], [ -115.2251973, 36.2538801 ], [ -115.2251973, 36.2538855 ], [ -115.2252, 36.2538855 ], [ -115.2252, 36.2538882 ], [ -115.225202700000011, 36.2538882 ], [ -115.225202700000011, 36.2538936 ], [ -115.2252054, 36.2538936 ], [ -115.2252054, 36.2539071 ], [ -115.2252081, 36.2539071 ], [ -115.2252081, 36.2539152 ], [ -115.2252108, 36.2539152 ], [ -115.2252108, 36.2539179 ], [ -115.2252486, 36.2539179 ], [ -115.2252486, 36.2539206 ], [ -115.225251300000011, 36.2539206 ], [ -115.225251300000011, 36.2539368 ], [ -115.225254, 36.2539368 ], [ -115.225254, 36.2539449 ], [ -115.2252567, 36.2539449 ], [ -115.2252567, 36.2539503 ], [ -115.2252594, 36.2539503 ], [ -115.2252594, 36.253953 ], [ -115.2252621, 36.253953 ], [ -115.2252621, 36.2539557 ], [ -115.2252648, 36.2539557 ], [ -115.2252648, 36.2540124 ], [ -115.2252621, 36.2540124 ], [ -115.2252621, 36.2540232 ], [ -115.2252594, 36.2540232 ], [ -115.2252594, 36.2540367 ], [ -115.2252567, 36.2540367 ], [ -115.2252567, 36.2540421 ], [ -115.225251300000011, 36.2540421 ], [ -115.225251300000011, 36.2540448 ] ] ] } },
{ "type": "Feature", "properties": { "value": 255.0 }, "geometry": { "type": "Polygon", "coordinates": [ [ [ -115.2264717, 36.2536587 ], [ -115.2264609, 36.2536587 ], [ -115.2264609, 36.253656 ], [ -115.2264555, 36.253656 ], [ -115.2264555, 36.2536533 ], [ -115.2264474, 36.2536533 ], [ -115.2264474, 36.2536506 ], [ -115.2264339, 36.2536506 ], [ -115.2264339, 36.2536479 ], [ -115.2264015, 36.2536479 ], [ -115.2264015, 36.2536452 ], [ -115.2263448, 36.2536452 ], [ -115.2263448, 36.2536425 ], [ -115.2263421, 36.2536425 ], [ -115.2263421, 36.2536452 ], [ -115.2263205, 36.2536452 ], [ -115.2263205, 36.2536425 ], [ -115.2263151, 36.2536425 ], [ -115.2263151, 36.2536398 ], [ -115.2263124, 36.2536398 ], [ -115.2263124, 36.2536344 ], [ -115.2263097, 36.2536344 ], [ -115.2263097, 36.2536209 ], [ -115.2263124, 36.2536209 ], [ -115.2263124, 36.2535966 ], [ -115.2263151, 36.2535966 ], [ -115.2263151, 36.2535777 ], [ -115.2263178, 36.2535777 ], [ -115.2263178, 36.2535669 ], [ -115.2263205, 36.2535669 ], [ -115.2263205, 36.2535534 ], [ -115.2263232, 36.2535534 ], [ -115.2263232, 36.2535237 ], [ -115.2263259, 36.2535237 ], [ -115.2263259, 36.2535183 ], [ -115.2263286, 36.2535183 ], [ -115.2263286, 36.2534967 ], [ -115.2263313, 36.2534967 ], [ -115.2263313, 36.253494 ], [ -115.226334, 36.253494 ], [ -115.226334, 36.2534886 ], [ -115.2263367, 36.2534886 ], [ -115.2263367, 36.2534859 ], [ -115.2263475, 36.2534859 ], [ -115.2263475, 36.2534832 ], [ -115.2263934, 36.2534832 ], [ -115.2263934, 36.2534859 ], [ -115.2263961, 36.2534859 ], [ -115.2263961, 36.2534886 ], [ -115.2263988, 36.2534886 ], [ -115.2263988, 36.2535021 ], [ -115.2264015, 36.2535021 ], [ -115.2264015, 36.2535048 ], [ -115.2264177, 36.2535048 ], [ -115.2264177, 36.2535021 ], [ -115.2264771, 36.2535021 ], [ -115.2264771, 36.2535048 ], [ -115.2264906, 36.2535048 ], [ -115.2264906, 36.2535075 ], [ -115.226496, 36.2535075 ], [ -115.226496, 36.2535102 ], [ -115.2264987, 36.2535102 ], [ -115.2264987, 36.2535318 ], [ -115.226496, 36.2535318 ], [ -115.226496, 36.253548 ], [ -115.2264933, 36.253548 ], [ -115.2264933, 36.2535642 ], [ -115.2264906, 36.2535642 ], [ -115.2264906, 36.253602 ], [ -115.2264879, 36.253602 ], [ -115.2264879, 36.253629 ], [ -115.2264852, 36.253629 ], [ -115.2264852, 36.2536398 ], [ -115.2264825, 36.2536398 ], [ -115.2264825, 36.2536452 ], [ -115.2264798, 36.2536452 ], [ -115.2264798, 36.2536506 ], [ -115.2264771, 36.2536506 ], [ -115.2264771, 36.253656 ], [ -115.2264717, 36.253656 ], [ -115.2264717, 36.2536587 ] ] ] } },
{ "type": "Feature", "properties": { "value": 255.0 }, "geometry": { "type": "Polygon", "coordinates": [ [ [ -115.226145, 36.2536101 ], [ -115.2261342, 36.2536101 ], [ -115.2261342, 36.2536074 ], [ -115.2261315, 36.2536074 ], [ -115.2261315, 36.2536047 ], [ -115.2261288, 36.2536047 ], [ -115.2261288, 36.253602 ], [ -115.2261261, 36.253602 ], [ -115.2261261, 36.2535993 ], [ -115.2261234, 36.2535993 ], [ -115.2261234, 36.2535966 ], [ -115.2261207, 36.2535966 ], [ -115.2261207, 36.2535939 ], [ -115.226118, 36.2535939 ], [ -115.226118, 36.2535912 ], [ -115.2261153, 36.2535912 ], [ -115.2261153, 36.2535885 ], [ -115.2261099, 36.2535885 ], [ -115.2261099, 36.2535858 ], [ -115.2261072, 36.2535858 ], [ -115.2261072, 36.2535831 ], [ -115.2261045, 36.2535831 ], [ -115.2261045, 36.2535804 ], [ -115.2261018, 36.2535804 ], [ -115.2261018, 36.2535777 ], [ -115.2260829, 36.2535777 ], [ -115.2260829, 36.2535804 ], [ -115.2260802, 36.2535804 ], [ -115.2260802, 36.2535831 ], [ -115.2260775, 36.2535831 ], [ -115.2260775, 36.2535858 ], [ -115.2260748, 36.2535858 ], [ -115.2260748, 36.2535885 ], [ -115.2260721, 36.2535885 ], [ -115.2260721, 36.2535912 ], [ -115.2260694, 36.2535912 ], [ -115.2260694, 36.2535939 ], [ -115.2260667, 36.2535939 ], [ -115.2260667, 36.2535966 ], [ -115.2260613, 36.2535966 ], [ -115.2260613, 36.2535993 ], [ -115.2260586, 36.2535993 ], [ -115.2260586, 36.253602 ], [ -115.2260289, 36.253602 ], [ -115.2260289, 36.2535993 ], [ -115.2260235, 36.2535993 ], [ -115.2260235, 36.2535966 ], [ -115.2260208, 36.2535966 ], [ -115.2260208, 36.2535939 ], [ -115.2260181, 36.2535939 ], [ -115.2260181, 36.2535912 ], [ -115.2260154, 36.2535912 ], [ -115.2260154, 36.2535885 ], [ -115.22601, 36.2535885 ], [ -115.22601, 36.2535858 ], [ -115.2260073, 36.2535858 ], [ -115.2260073, 36.2535831 ], [ -115.2260046, 36.2535831 ], [ -115.2260046, 36.2535804 ], [ -115.2259965, 36.2535804 ], [ -115.2259965, 36.2535777 ], [ -115.2259911, 36.2535777 ], [ -115.2259911, 36.253575 ], [ -115.2259857, 36.253575 ], [ -115.2259857, 36.2535723 ], [ -115.225983, 36.2535723 ], [ -115.225983, 36.2535696 ], [ -115.2259776, 36.2535696 ], [ -115.2259776, 36.2535669 ], [ -115.2259749, 36.2535669 ], [ -115.2259749, 36.2535642 ], [ -115.2259722, 36.2535642 ], [ -115.2259722, 36.2535615 ], [ -115.2259668, 36.2535615 ], [ -115.2259668, 36.2535588 ], [ -115.2259641, 36.2535588 ], [ -115.2259641, 36.2535507 ], [ -115.2259668, 36.2535507 ], [ -115.2259668, 36.253548 ], [ -115.2259695, 36.253548 ], [ -115.2259695, 36.2535453 ], [ -115.2259749, 36.2535453 ], [ -115.2259749, 36.2535426 ], [ -115.2259776, 36.2535426 ], [ -115.2259776, 36.2535399 ], [ -115.2259803, 36.2535399 ], [ -115.2259803, 36.2535372 ], [ -115.2259857, 36.2535372 ], [ -115.2259857, 36.2535345 ], [ -115.2259884, 36.2535345 ], [ -115.2259884, 36.2535318 ], [ -115.2259911, 36.2535318 ], [ -115.2259911, 36.2535291 ], [ -115.2259938, 36.2535291 ], [ -115.2259938, 36.2535264 ], [ -115.2259992, 36.2535264 ], [ -115.2259992, 36.2535237 ], [ -115.2260019, 36.2535237 ], [ -115.2260019, 36.253521 ], [ -115.2260046, 36.253521 ], [ -115.2260046, 36.2535183 ], [ -115.22601, 36.2535183 ], [ -115.22601, 36.2535156 ], [ -115.2260127, 36.2535156 ], [ -115.2260127, 36.2535129 ], [ -115.2260154, 36.2535129 ], [ -115.2260154, 36.2535102 ], [ -115.2260181, 36.2535102 ], [ -115.2260181, 36.2535075 ], [ -115.2260208, 36.2535075 ], [ -115.2260208, 36.2535048 ], [ -115.2260235, 36.2535048 ], [ -115.2260235, 36.2535021 ], [ -115.2260262, 36.2535021 ], [ -115.2260262, 36.2534994 ], [ -115.2260289, 36.2534994 ], [ -115.2260289, 36.2534967 ], [ -115.2260316, 36.2534967 ], [ -115.2260316, 36.253494 ], [ -115.2260343, 36.253494 ], [ -115.2260343, 36.2534913 ], [ -115.226037, 36.2534913 ], [ -115.226037, 36.2534886 ], [ -115.2260424, 36.2534886 ], [ -115.2260424, 36.2534859 ], [ -115.2260451, 36.2534859 ], [ -115.2260451, 36.2534832 ], [ -115.2260478, 36.2534832 ], [ -115.2260478, 36.2534805 ], [ -115.2260505, 36.2534805 ], [ -115.2260505, 36.2534778 ], [ -115.2260559, 36.2534778 ], [ -115.2260559, 36.2534751 ], [ -115.2260586, 36.2534751 ], [ -115.2260586, 36.2534724 ], [ -115.2260613, 36.2534724 ], [ -115.2260613, 36.2534697 ], [ -115.226064, 36.2534697 ], [ -115.226064, 36.253467 ], [ -115.2260667, 36.253467 ], [ -115.2260667, 36.2534643 ], [ -115.2260721, 36.2534643 ], [ -115.2260721, 36.2534616 ], [ -115.2260775, 36.2534616 ], [ -115.2260775, 36.2534589 ], [ -115.2260829, 36.2534589 ], [ -115.2260829, 36.2534562 ], [ -115.2260883, 36.2534562 ], [ -115.2260883, 36.2534535 ], [ -115.2260937, 36.2534535 ], [ -115.2260937, 36.2534508 ], [ -115.2260991, 36.2534508 ], [ -115.2260991, 36.2534481 ], [ -115.2261018, 36.2534481 ], [ -115.2261018, 36.2534454 ], [ -115.2261045, 36.2534454 ], [ -115.2261045, 36.2534427 ], [ -115.2261099, 36.2534427 ], [ -115.2261099, 36.25344 ], [ -115.2261126, 36.25344 ], [ -115.2261126, 36.2534373 ], [ -115.2261153, 36.2534373 ], [ -115.2261153, 36.2534346 ], [ -115.226118, 36.2534346 ], [ -115.226118, 36.2534319 ], [ -115.2261234, 36.2534319 ], [ -115.2261234, 36.2534292 ], [ -115.2261261, 36.2534292 ], [ -115.2261261, 36.2534265 ], [ -115.2261288, 36.2534265 ], [ -115.2261288, 36.2534238 ], [ -115.2261342, 36.2534238 ], [ -115.2261342, 36.2534211 ], [ -115.2261396, 36.2534211 ], [ -115.2261396, 36.2534184 ], [ -115.226145, 36.2534184 ], [ -115.226145, 36.2534157 ], [ -115.2261585, 36.2534157 ], [ -115.2261585, 36.2534184 ], [ -115.2261639, 36.2534184 ], [ -115.2261639, 36.2534211 ], [ -115.2261666, 36.2534211 ], [ -115.2261666, 36.2534238 ], [ -115.226172, 36.2534238 ], [ -115.226172, 36.2534265 ], [ -115.2261747, 36.2534265 ], [ -115.2261747, 36.2534292 ], [ -115.2261774, 36.2534292 ], [ -115.2261774, 36.2534319 ], [ -115.2261801, 36.2534319 ], [ -115.2261801, 36.2534346 ], [ -115.2261855, 36.2534346 ], [ -115.2261855, 36.2534373 ], [ -115.2261882, 36.2534373 ], [ -115.2261882, 36.25344 ], [ -115.2261909, 36.25344 ], [ -115.2261909, 36.2534427 ], [ -115.2261936, 36.2534427 ], [ -115.2261936, 36.2534454 ], [ -115.2261963, 36.2534454 ], [ -115.2261963, 36.2534481 ], [ -115.226199, 36.2534481 ], [ -115.226199, 36.2534535 ], [ -115.2262017, 36.2534535 ], [ -115.2262017, 36.2534562 ], [ -115.2262044, 36.2534562 ], [ -115.2262044, 36.2534589 ], [ -115.2262071, 36.2534589 ], [ -115.2262071, 36.2534616 ], [ -115.2262125, 36.2534616 ], [ -115.2262125, 36.2534643 ], [ -115.2262152, 36.2534643 ], [ -115.2262152, 36.253467 ], [ -115.2262179, 36.253467 ], [ -115.2262179, 36.2534697 ], [ -115.2262233, 36.2534697 ], [ -115.2262233, 36.2534724 ], [ -115.226226, 36.2534724 ], [ -115.226226, 36.2534751 ], [ -115.2262314, 36.2534751 ], [ -115.2262314, 36.2534778 ], [ -115.2262368, 36.2534778 ], [ -115.2262368, 36.2534805 ], [ -115.2262449, 36.2534805 ], [ -115.2262449, 36.2534859 ], [ -115.2262476, 36.2534859 ], [ -115.2262476, 36.253494 ], [ -115.2262449, 36.253494 ], [ -115.2262449, 36.2534967 ], [ -115.2262476, 36.2534967 ], [ -115.2262476, 36.2535021 ], [ -115.2262449, 36.2535021 ], [ -115.2262449, 36.2535048 ], [ -115.2262395, 36.2535048 ], [ -115.2262395, 36.2535075 ], [ -115.2262341, 36.2535075 ], [ -115.2262341, 36.2535237 ], [ -115.2262368, 36.2535237 ], [ -115.2262368, 36.2535264 ], [ -115.2262341, 36.2535264 ], [ -115.2262341, 36.2535372 ], [ -115.2262314, 36.2535372 ], [ -115.2262314, 36.2535426 ], [ -115.2262287, 36.2535426 ], [ -115.2262287, 36.2535453 ], [ -115.226226, 36.2535453 ], [ -115.226226, 36.253548 ], [ -115.2262233, 36.253548 ], [ -115.2262233, 36.2535507 ], [ -115.2262206, 36.2535507 ], [ -115.2262206, 36.2535534 ], [ -115.2262152, 36.2535534 ], [ -115.2262152, 36.2535561 ], [ -115.2262125, 36.2535561 ], [ -115.2262125, 36.2535588 ], [ -115.2262098, 36.2535588 ], [ -115.2262098, 36.2535615 ], [ -115.2262071, 36.2535615 ], [ -115.2262071, 36.2535642 ], [ -115.2262044, 36.2535642 ], [ -115.2262044, 36.2535669 ], [ -115.2262017, 36.2535669 ], [ -115.2262017, 36.2535696 ], [ -115.2261963, 36.2535696 ], [ -115.2261963, 36.2535723 ], [ -115.2261936, 36.2535723 ], [ -115.2261936, 36.253575 ], [ -115.2261882, 36.253575 ], [ -115.2261882, 36.2535777 ], [ -115.2261855, 36.2535777 ], [ -115.2261855, 36.2535804 ], [ -115.2261801, 36.2535804 ], [ -115.2261801, 36.2535831 ], [ -115.2261774, 36.2535831 ], [ -115.2261774, 36.2535858 ], [ -115.2261747, 36.2535858 ], [ -115.2261747, 36.2535885 ], [ -115.2261693, 36.2535885 ], [ -115.2261693, 36.2535912 ], [ -115.2261666, 36.2535912 ], [ -115.2261666, 36.2535939 ], [ -115.2261639, 36.2535939 ], [ -115.2261639, 36.2535966 ], [ -115.2261612, 36.2535966 ], [ -115.2261612, 36.2535993 ], [ -115.2261585, 36.2535993 ], [ -115.2261585, 36.253602 ], [ -115.2261558, 36.253602 ], [ -115.2261558, 36.2536047 ], [ -115.2261504, 36.2536047 ], [ -115.2261504, 36.2536074 ], [ -115.226145, 36.2536074 ], [ -115.226145, 36.2536101 ] ] ] } },
{ "type": "Feature", "properties": { "value": 255.0 }, "geometry": { "type": "Polygon", "coordinates": [ [ [ -115.2260127, 36.2533968 ], [ -115.2258318, 36.2533968 ], [ -115.2258318, 36.2533941 ], [ -115.2258264, 36.2533941 ], [ -115.2258264, 36.2533914 ], [ -115.2258237, 36.2533914 ], [ -115.2258237, 36.2533887 ], [ -115.225821, 36.2533887 ], [ -115.225821, 36.2533509 ], [ -115.2258237, 36.2533509 ], [ -115.2258237, 36.2533455 ], [ -115.2258264, 36.2533455 ], [ -115.2258264, 36.2533428 ], [ -115.2258561, 36.2533428 ], [ -115.2258561, 36.2533401 ], [ -115.2258642, 36.2533401 ], [ -115.2258642, 36.2533374 ], [ -115.2258669, 36.2533374 ], [ -115.2258669, 36.2533023 ], [ -115.2258696, 36.2533023 ], [ -115.2258696, 36.2532753 ], [ -115.2258723, 36.2532753 ], [ -115.2258723, 36.253251 ], [ -115.2258966, 36.253251 ], [ -115.2258966, 36.2532483 ], [ -115.225929, 36.2532483 ], [ -115.225929, 36.253251 ], [ -115.2259857, 36.253251 ], [ -115.2259857, 36.2532537 ], [ -115.2260424, 36.2532537 ], [ -115.2260424, 36.253251 ], [ -115.2260559, 36.253251 ], [ -115.2260559, 36.2532537 ], [ -115.2260586, 36.2532537 ], [ -115.2260586, 36.253305 ], [ -115.2260559, 36.253305 ], [ -115.2260559, 36.2533077 ], [ -115.2260208, 36.2533077 ], [ -115.2260208, 36.2533158 ], [ -115.2260181, 36.2533158 ], [ -115.2260181, 36.2533293 ], [ -115.2260154, 36.2533293 ], [ -115.2260154, 36.253332 ], [ -115.22601, 36.253332 ], [ -115.22601, 36.2533374 ], [ -115.2260127, 36.2533374 ], [ -115.2260127, 36.2533401 ], [ -115.2260154, 36.2533401 ], [ -115.2260154, 36.2533779 ], [ -115.2260181, 36.2533779 ], [ -115.2260181, 36.253386 ], [ -115.2260154, 36.253386 ], [ -115.2260154, 36.2533941 ], [ -115.2260127, 36.2533941 ], [ -115.2260127, 36.2533968 ] ] ] } },
{ "type": "Feature", "properties": { "value": 255.0 }, "geometry": { "type": "Polygon", "coordinates": [ [ [ -115.2250731, 36.2532834 ], [ -115.2250542, 36.2532834 ], [ -115.2250542, 36.2532807 ], [ -115.2250326, 36.2532807 ], [ -115.2250326, 36.2532024 ], [ -115.2250434, 36.2532024 ], [ -115.2250434, 36.2531997 ], [ -115.2250515, 36.2531997 ], [ -115.2250515, 36.253197 ], [ -115.225056900000013, 36.253197 ], [ -115.225056900000013, 36.2531997 ], [ -115.2250731, 36.2531997 ], [ -115.2250731, 36.2532024 ], [ -115.2250758, 36.2532024 ], [ -115.2250758, 36.2532105 ], [ -115.2250785, 36.2532105 ], [ -115.2250785, 36.2532618 ], [ -115.2250758, 36.2532618 ], [ -115.2250758, 36.253278 ], [ -115.2250731, 36.253278 ], [ -115.2250731, 36.2532834 ] ] ] } },
{ "type": "Feature", "properties": { "value": 255.0 }, "geometry": { "type": "Polygon", "coordinates": [ [ [ -115.226388, 36.2531943 ], [ -115.2263826, 36.2531943 ], [ -115.2263826, 36.2531916 ], [ -115.2263799, 36.2531916 ], [ -115.2263799, 36.2531889 ], [ -115.2263772, 36.2531889 ], [ -115.2263772, 36.2531754 ], [ -115.2263745, 36.2531754 ], [ -115.2263745, 36.2531727 ], [ -115.2263772, 36.2531727 ], [ -115.2263772, 36.2531673 ], [ -115.2263853, 36.2531673 ], [ -115.2263853, 36.25317 ], [ -115.2264069, 36.25317 ], [ -115.2264069, 36.2531754 ], [ -115.2264096, 36.2531754 ], [ -115.2264096, 36.2531781 ], [ -115.2264123, 36.2531781 ], [ -115.2264123, 36.2531808 ], [ -115.2264096, 36.2531808 ], [ -115.2264096, 36.2531835 ], [ -115.2264069, 36.2531835 ], [ -115.2264069, 36.2531889 ], [ -115.2264042, 36.2531889 ], [ -115.2264042, 36.2531916 ], [ -115.226388, 36.2531916 ], [ -115.226388, 36.2531943 ] ] ] } },
{ "type": "Feature", "properties": { "value": 255.0 }, "geometry": { "type": "Polygon", "coordinates": [ [ [ -115.2260397, 36.2532294 ], [ -115.2259236, 36.2532294 ], [ -115.2259236, 36.2532267 ], [ -115.2259155, 36.2532267 ], [ -115.2259155, 36.253224 ], [ -115.2258615, 36.253224 ], [ -115.2258615, 36.2532186 ], [ -115.2258588, 36.2532186 ], [ -115.2258588, 36.2532105 ], [ -115.2258561, 36.2532105 ], [ -115.2258561, 36.2531943 ], [ -115.2258534, 36.2531943 ], [ -115.2258534, 36.2531916 ], [ -115.2258426, 36.2531916 ], [ -115.2258426, 36.2531889 ], [ -115.2258264, 36.2531889 ], [ -115.2258264, 36.2531133 ], [ -115.2258291, 36.2531133 ], [ -115.2258291, 36.2531106 ], [ -115.2258534, 36.2531106 ], [ -115.2258534, 36.2530971 ], [ -115.2258561, 36.2530971 ], [ -115.2258561, 36.2530863 ], [ -115.2258642, 36.2530863 ], [ -115.2258642, 36.2530836 ], [ -115.2258885, 36.2530836 ], [ -115.2258885, 36.2530809 ], [ -115.2259452, 36.2530809 ], [ -115.2259452, 36.2530836 ], [ -115.2260451, 36.2530836 ], [ -115.2260451, 36.2530863 ], [ -115.2260478, 36.2530863 ], [ -115.2260478, 36.253089 ], [ -115.2260505, 36.253089 ], [ -115.2260505, 36.2531079 ], [ -115.2260532, 36.2531079 ], [ -115.2260532, 36.2531187 ], [ -115.2260505, 36.2531187 ], [ -115.2260505, 36.2531484 ], [ -115.2260478, 36.2531484 ], [ -115.2260478, 36.2531538 ], [ -115.2260451, 36.2531538 ], [ -115.2260451, 36.2531673 ], [ -115.2260478, 36.2531673 ], [ -115.2260478, 36.25317 ], [ -115.2260559, 36.25317 ], [ -115.2260559, 36.2531727 ], [ -115.2260613, 36.2531727 ], [ -115.2260613, 36.2531943 ], [ -115.2260586, 36.2531943 ], [ -115.2260586, 36.253197 ], [ -115.2260559, 36.253197 ], [ -115.2260559, 36.2532051 ], [ -115.2260532, 36.2532051 ], [ -115.2260532, 36.2532078 ], [ -115.2260478, 36.2532078 ], [ -115.2260478, 36.2532105 ], [ -115.2260451, 36.2532105 ], [ -115.2260451, 36.2532159 ], [ -115.2260424, 36.2532159 ], [ -115.2260424, 36.2532267 ], [ -115.2260397, 36.2532267 ], [ -115.2260397, 36.2532294 ] ] ] } },
{ "type": "Feature", "properties": { "value": 255.0 }, "geometry": { "type": "Polygon", "coordinates": [ [ [ -115.2258399, 36.2530755 ], [ -115.2258021, 36.2530755 ], [ -115.2258021, 36.2530728 ], [ -115.2257994, 36.2530728 ], [ -115.2257994, 36.2530485 ], [ -115.2258021, 36.2530485 ], [ -115.2258021, 36.2530458 ], [ -115.2258183, 36.2530458 ], [ -115.2258183, 36.2530485 ], [ -115.2258291, 36.2530485 ], [ -115.2258291, 36.2530458 ], [ -115.2258399, 36.2530458 ], [ -115.2258399, 36.2530485 ], [ -115.2258426, 36.2530485 ], [ -115.2258426, 36.2530674 ], [ -115.2258399, 36.2530674 ], [ -115.2258399, 36.2530755 ] ] ] } },
{ "type": "Feature", "properties": { "value": 255.0 }, "geometry": { "type": "Polygon", "coordinates": [ [ [ -115.2259749, 36.2530755 ], [ -115.2259506, 36.2530755 ], [ -115.2259506, 36.2530728 ], [ -115.2259425, 36.2530728 ], [ -115.2259425, 36.2530647 ], [ -115.2259398, 36.2530647 ], [ -115.2259398, 36.2530566 ], [ -115.225956, 36.2530566 ], [ -115.225956, 36.2530539 ], [ -115.2259776, 36.2530539 ], [ -115.2259776, 36.2530566 ], [ -115.2259803, 36.2530566 ], [ -115.2259803, 36.2530593 ], [ -115.2259776, 36.2530593 ], [ -115.2259776, 36.253062 ], [ -115.2259803, 36.253062 ], [ -115.2259803, 36.2530674 ], [ -115.2259776, 36.2530674 ], [ -115.2259776, 36.2530728 ], [ -115.2259749, 36.2530728 ], [ -115.2259749, 36.2530755 ] ] ] } },
{ "type": "Feature", "properties": { "value": 255.0 }, "geometry": { "type": "Polygon", "coordinates": [ [ [ -115.2267876, 36.2531376 ], [ -115.226763299999988, 36.2531376 ], [ -115.226763299999988, 36.2531349 ], [ -115.2267606, 36.2531349 ], [ -115.2267606, 36.2531295 ], [ -115.2267579, 36.2531295 ], [ -115.2267579, 36.2531268 ], [ -115.2267552, 36.2531268 ], [ -115.2267552, 36.2530998 ], [ -115.226752499999989, 36.2530998 ], [ -115.226752499999989, 36.2530971 ], [ -115.2267498, 36.2530971 ], [ -115.2267498, 36.2530944 ], [ -115.2267444, 36.2530944 ], [ -115.2267444, 36.2530917 ], [ -115.2267417, 36.2530917 ], [ -115.2267417, 36.253089 ], [ -115.2267363, 36.253089 ], [ -115.2267363, 36.2530863 ], [ -115.226733599999989, 36.2530863 ], [ -115.226733599999989, 36.2530836 ], [ -115.2267282, 36.2530836 ], [ -115.2267282, 36.2530809 ], [ -115.2267255, 36.2530809 ], [ -115.2267255, 36.2530755 ], [ -115.2267228, 36.2530755 ], [ -115.2267228, 36.2530728 ], [ -115.2267201, 36.2530728 ], [ -115.2267201, 36.2530701 ], [ -115.2267174, 36.2530701 ], [ -115.2267174, 36.2530674 ], [ -115.226714699999988, 36.2530674 ], [ -115.226714699999988, 36.2530539 ], [ -115.2267174, 36.2530539 ], [ -115.2267174, 36.2530485 ], [ -115.2267201, 36.2530485 ], [ -115.2267201, 36.2530458 ], [ -115.2267228, 36.2530458 ], [ -115.2267228, 36.2530431 ], [ -115.2267255, 36.2530431 ], [ -115.2267255, 36.2530404 ], [ -115.2267282, 36.2530404 ], [ -115.2267282, 36.2530377 ], [ -115.2267309, 36.2530377 ], [ -115.2267309, 36.253035 ], [ -115.226733599999989, 36.253035 ], [ -115.226733599999989, 36.2530323 ], [ -115.2267363, 36.2530323 ], [ -115.2267363, 36.2530296 ], [ -115.226739, 36.2530296 ], [ -115.226739, 36.2530215 ], [ -115.2267417, 36.2530215 ], [ -115.2267417, 36.2530188 ], [ -115.2267444, 36.2530188 ], [ -115.2267444, 36.2530161 ], [ -115.2267471, 36.2530161 ], [ -115.2267471, 36.2530107 ], [ -115.2267498, 36.2530107 ], [ -115.2267498, 36.253008 ], [ -115.2267552, 36.253008 ], [ -115.2267552, 36.2530053 ], [ -115.2267579, 36.2530053 ], [ -115.2267579, 36.2530026 ], [ -115.226766, 36.2530026 ], [ -115.226766, 36.2529999 ], [ -115.2267795, 36.2529999 ], [ -115.2267795, 36.2529972 ], [ -115.2267876, 36.2529972 ], [ -115.2267876, 36.2531376 ] ] ] } },
{ "type": "Feature", "properties": { "value": 255.0 }, "geometry": { "type": "Polygon", "coordinates": [ [ [ -115.2264933, 36.2531322 ], [ -115.2264663, 36.2531322 ], [ -115.2264663, 36.2531295 ], [ -115.226388, 36.2531295 ], [ -115.226388, 36.2531322 ], [ -115.2263529, 36.2531322 ], [ -115.2263529, 36.2531295 ], [ -115.2263502, 36.2531295 ], [ -115.2263502, 36.2531241 ], [ -115.2263475, 36.2531241 ], [ -115.2263475, 36.2531052 ], [ -115.2263421, 36.2531052 ], [ -115.2263421, 36.2531025 ], [ -115.2263394, 36.2531025 ], [ -115.2263394, 36.2530998 ], [ -115.2263367, 36.2530998 ], [ -115.2263367, 36.2530971 ], [ -115.226334, 36.2530971 ], [ -115.226334, 36.2530809 ], [ -115.2263313, 36.2530809 ], [ -115.2263313, 36.2530782 ], [ -115.2263259, 36.2530782 ], [ -115.2263259, 36.2530755 ], [ -115.2263232, 36.2530755 ], [ -115.2263232, 36.2530728 ], [ -115.2263205, 36.2530728 ], [ -115.2263205, 36.2530458 ], [ -115.2263178, 36.2530458 ], [ -115.2263178, 36.2530269 ], [ -115.2263205, 36.2530269 ], [ -115.2263205, 36.2530134 ], [ -115.2263178, 36.2530134 ], [ -115.2263178, 36.2529945 ], [ -115.2263205, 36.2529945 ], [ -115.2263205, 36.2529918 ], [ -115.2263232, 36.2529918 ], [ -115.2263232, 36.2529891 ], [ -115.2263718, 36.2529891 ], [ -115.2263718, 36.2529918 ], [ -115.2264177, 36.2529918 ], [ -115.2264177, 36.2529891 ], [ -115.2264312, 36.2529891 ], [ -115.2264312, 36.2529918 ], [ -115.2264474, 36.2529918 ], [ -115.2264474, 36.2529891 ], [ -115.2264582, 36.2529891 ], [ -115.2264582, 36.2529918 ], [ -115.2265743, 36.2529918 ], [ -115.2265743, 36.2529945 ], [ -115.226577, 36.2529945 ], [ -115.226577, 36.2530161 ], [ -115.2265743, 36.2530161 ], [ -115.2265743, 36.253035 ], [ -115.2265716, 36.253035 ], [ -115.2265716, 36.2530593 ], [ -115.2265689, 36.2530593 ], [ -115.2265689, 36.2530674 ], [ -115.2265662, 36.2530674 ], [ -115.2265662, 36.2530701 ], [ -115.2265608, 36.2530701 ], [ -115.2265608, 36.2530728 ], [ -115.2265581, 36.2530728 ], [ -115.2265581, 36.2530755 ], [ -115.2265068, 36.2530755 ], [ -115.2265068, 36.2530782 ], [ -115.2265041, 36.2530782 ], [ -115.2265041, 36.2530809 ], [ -115.226501399999989, 36.2530809 ], [ -115.226501399999989, 36.2530836 ], [ -115.2264987, 36.2530836 ], [ -115.2264987, 36.2530971 ], [ -115.226496, 36.2530971 ], [ -115.226496, 36.2531295 ], [ -115.2264933, 36.2531295 ], [ -115.2264933, 36.2531322 ] ] ] } },
{ "type": "Feature", "properties": { "value": 255.0 }, "geometry": { "type": "Polygon", "coordinates": [ [ [ -115.2267768, 36.252981 ], [ -115.2267228, 36.252981 ], [ -115.2267228, 36.2529756 ], [ -115.2267201, 36.2529756 ], [ -115.2267201, 36.2529702 ], [ -115.2267174, 36.2529702 ], [ -115.2267174, 36.2529243 ], [ -115.2267201, 36.2529243 ], [ -115.2267201, 36.2529027 ], [ -115.2267876, 36.2529027 ], [ -115.2267876, 36.2529702 ], [ -115.2267849, 36.2529702 ], [ -115.2267849, 36.2529729 ], [ -115.226782199999988, 36.2529729 ], [ -115.226782199999988, 36.2529756 ], [ -115.2267795, 36.2529756 ], [ -115.2267795, 36.2529783 ], [ -115.2267768, 36.2529783 ], [ -115.2267768, 36.252981 ] ] ] } },
{ "type": "Feature", "properties": { "value": 255.0 }, "geometry": { "type": "Polygon", "coordinates": [ [ [ -115.2260154, 36.2530134 ], [ -115.225956, 36.2530134 ], [ -115.225956, 36.2530107 ], [ -115.2259398, 36.2530107 ], [ -115.2259398, 36.2530134 ], [ -115.2258318, 36.2530134 ], [ -115.2258318, 36.2530107 ], [ -115.2258291, 36.2530107 ], [ -115.2258291, 36.253008 ], [ -115.2258264, 36.253008 ], [ -115.2258264, 36.2529891 ], [ -115.2258237, 36.2529891 ], [ -115.2258237, 36.2529783 ], [ -115.2258264, 36.2529783 ], [ -115.2258264, 36.2529675 ], [ -115.2258291, 36.2529675 ], [ -115.2258291, 36.2529621 ], [ -115.2258318, 36.2529621 ], [ -115.2258318, 36.2529594 ], [ -115.2258696, 36.2529594 ], [ -115.2258696, 36.2529567 ], [ -115.2258723, 36.2529567 ], [ -115.2258723, 36.2529459 ], [ -115.2258696, 36.2529459 ], [ -115.2258696, 36.2529189 ], [ -115.2258453, 36.2529189 ], [ -115.2258453, 36.2529135 ], [ -115.2258426, 36.2529135 ], [ -115.2258426, 36.2529027 ], [ -115.2260613, 36.2529027 ], [ -115.2260613, 36.2529216 ], [ -115.2260586, 36.2529216 ], [ -115.2260586, 36.2529243 ], [ -115.2260235, 36.2529243 ], [ -115.2260235, 36.2529405 ], [ -115.2260208, 36.2529405 ], [ -115.2260208, 36.2529432 ], [ -115.2260181, 36.2529432 ], [ -115.2260181, 36.2529459 ], [ -115.2260019, 36.2529459 ], [ -115.2260019, 36.2529486 ], [ -115.2259992, 36.2529486 ], [ -115.2259992, 36.2529513 ], [ -115.2260019, 36.2529513 ], [ -115.2260019, 36.2529567 ], [ -115.2260046, 36.2529567 ], [ -115.2260046, 36.2529594 ], [ -115.2260154, 36.2529594 ], [ -115.2260154, 36.2529621 ], [ -115.2260181, 36.2529621 ], [ -115.2260181, 36.2529702 ], [ -115.2260208, 36.2529702 ], [ -115.2260208, 36.252981 ], [ -115.2260181, 36.252981 ], [ -115.2260181, 36.2530107 ], [ -115.2260154, 36.2530107 ], [ -115.2260154, 36.2530134 ] ] ] } },
{ "type": "Feature", "properties": { "value": 255.0 }, "geometry": { "type": "Polygon", "coordinates": [ [ [ -115.2265743, 36.2529459 ], [ -115.2263232, 36.2529459 ], [ -115.2263232, 36.2529432 ], [ -115.2263205, 36.2529432 ], [ -115.2263205, 36.2529351 ], [ -115.2263232, 36.2529351 ], [ -115.2263232, 36.2529027 ], [ -115.2265851, 36.2529027 ], [ -115.2265851, 36.2529054 ], [ -115.2265824, 36.2529054 ], [ -115.2265824, 36.2529081 ], [ -115.2265851, 36.2529081 ], [ -115.2265851, 36.2529216 ], [ -115.2265824, 36.2529216 ], [ -115.2265824, 36.2529243 ], [ -115.2265851, 36.2529243 ], [ -115.2265851, 36.2529405 ], [ -115.2265824, 36.2529405 ], [ -115.2265824, 36.2529432 ], [ -115.2265743, 36.2529432 ], [ -115.2265743, 36.2529459 ] ] ] } }
]
}
