{
"type": "FeatureCollection",
"crs": { "type": "name", "properties": { "name": "urn:ogc:def:crs:OGC:1.3:CRS84" } },
"features": [
{ "type": "Feature", "properties": { "value": 255.0 }, "geometry": { "type": "Polygon", "coordinates": [ [ [ -115.1934777, 36.198497699900003 ], [ -115.1934426, 36.198497699900003 ], [ -115.1934426, 36.198400499900004 ], [ -115.193448, 36.198400499900004 ], [ -115.193448, 36.1984031999 ], [ -115.1934534, 36.1984031999 ], [ -115.1934534, 36.198408599900006 ], [ -115.1934561, 36.198408599900006 ], [ -115.1934561, 36.198411299900002 ], [ -115.1934588, 36.198411299900002 ], [ -115.1934588, 36.198416699900001 ], [ -115.1934615, 36.198416699900001 ], [ -115.1934615, 36.198419399900004 ], [ -115.1934669, 36.198419399900004 ], [ -115.1934669, 36.1984220999 ], [ -115.1934723, 36.1984220999 ], [ -115.1934723, 36.198424799900003 ], [ -115.193475, 36.198424799900003 ], [ -115.193475, 36.198427499899999 ], [ -115.1934804, 36.198427499899999 ], [ -115.1934804, 36.198430199900002 ], [ -115.1934831, 36.198430199900002 ], [ -115.1934831, 36.198432899900006 ], [ -115.1934858, 36.198432899900006 ], [ -115.1934858, 36.198435599900002 ], [ -115.1934885, 36.198435599900002 ], [ -115.1934885, 36.198440999900001 ], [ -115.1934912, 36.198440999900001 ], [ -115.1934912, 36.198443699900004 ], [ -115.1934939, 36.198443699900004 ], [ -115.1934939, 36.1984463999 ], [ -115.1934966, 36.1984463999 ], [ -115.1934966, 36.198449099900003 ], [ -115.1934993, 36.198449099900003 ], [ -115.1934993, 36.198451799899999 ], [ -115.193502, 36.198451799899999 ], [ -115.193502, 36.198454499900002 ], [ -115.1935047, 36.198454499900002 ], [ -115.1935047, 36.198467999900004 ], [ -115.193502, 36.198467999900004 ], [ -115.193502, 36.1984706999 ], [ -115.1934993, 36.1984706999 ], [ -115.1934993, 36.198473399900003 ], [ -115.1934966, 36.198473399900003 ], [ -115.1934966, 36.198476099900006 ], [ -115.1934939, 36.198476099900006 ], [ -115.1934939, 36.198478799900002 ], [ -115.1934912, 36.198478799900002 ], [ -115.1934912, 36.198481499900005 ], [ -115.1934885, 36.198481499900005 ], [ -115.1934885, 36.198484199900001 ], [ -115.1934858, 36.198484199900001 ], [ -115.1934858, 36.198486899900004 ], [ -115.1934831, 36.198486899900004 ], [ -115.1934831, 36.1984895999 ], [ -115.1934804, 36.1984895999 ], [ -115.1934804, 36.198492299900003 ], [ -115.1934777, 36.198492299900003 ], [ -115.1934777, 36.198497699900003 ] ] ] } },
{ "type": "Feature", "properties": { "value": 255.0 }, "geometry": { "type": "Polygon", "coordinates": [ [ [ -115.1943957, 36.198370799900005 ], [ -115.1943795, 36.198370799900005 ], [ -115.1943795, 36.198368099900001 ], [ -115.1943741, 36.198368099900001 ], [ -115.1943741, 36.198365399900005 ], [ -115.1943687, 36.198365399900005 ], [ -115.1943687, 36.198362699900002 ], [ -115.1943633, 36.198362699900002 ], [ -115.1943633, 36.198359999899999 ], [ -115.1943606, 36.198359999899999 ], [ -115.1943606, 36.198357299900003 ], [ -115.1943525, 36.198357299900003 ], [ -115.1943525, 36.1983545999 ], [ -115.1943498, 36.1983545999 ], [ -115.1943498, 36.198351899900004 ], [ -115.1943471, 36.198351899900004 ], [ -115.1943471, 36.198346499900005 ], [ -115.1943444, 36.198346499900005 ], [ -115.1943444, 36.198343799900002 ], [ -115.1943417, 36.198343799900002 ], [ -115.1943417, 36.198341099900006 ], [ -115.1943363, 36.198341099900006 ], [ -115.1943363, 36.198335699899999 ], [ -115.1943336, 36.198335699899999 ], [ -115.1943336, 36.198332999900003 ], [ -115.1943363, 36.198332999900003 ], [ -115.1943363, 36.198327599900004 ], [ -115.1943336, 36.198327599900004 ], [ -115.1943336, 36.198324899900001 ], [ -115.1943363, 36.198324899900001 ], [ -115.1943363, 36.198300599900001 ], [ -115.1943336, 36.198300599900001 ], [ -115.1943336, 36.198295199900002 ], [ -115.1943309, 36.198295199900002 ], [ -115.1943309, 36.198284399900004 ], [ -115.1943336, 36.198284399900004 ], [ -115.1943336, 36.198278999900005 ], [ -115.1943363, 36.198278999900005 ], [ -115.1943363, 36.198273599900006 ], [ -115.194339, 36.198273599900006 ], [ -115.194339, 36.198270899900002 ], [ -115.1943417, 36.198270899900002 ], [ -115.1943417, 36.198260099900004 ], [ -115.1943444, 36.198260099900004 ], [ -115.1943444, 36.198254699900005 ], [ -115.1943471, 36.198254699900005 ], [ -115.1943471, 36.198251999900002 ], [ -115.1943498, 36.198251999900002 ], [ -115.1943498, 36.198249299899999 ], [ -115.1943552, 36.198249299899999 ], [ -115.1943552, 36.198246599900003 ], [ -115.1943606, 36.198246599900003 ], [ -115.1943606, 36.1982438999 ], [ -115.1943849, 36.1982438999 ], [ -115.1943849, 36.198241199900004 ], [ -115.194393, 36.198241199900004 ], [ -115.194393, 36.1982384999 ], [ -115.1944011, 36.1982384999 ], [ -115.1944011, 36.198235799900004 ], [ -115.1944038, 36.198235799900004 ], [ -115.1944038, 36.198233099900001 ], [ -115.1944065, 36.198233099900001 ], [ -115.1944065, 36.198230399900005 ], [ -115.1944119, 36.198230399900005 ], [ -115.1944119, 36.198227699900002 ], [ -115.1944146, 36.198227699900002 ], [ -115.1944146, 36.198224999899999 ], [ -115.1944173, 36.198224999899999 ], [ -115.1944173, 36.198222299900003 ], [ -115.19442, 36.198222299900003 ], [ -115.19442, 36.1982195999 ], [ -115.1944227, 36.1982195999 ], [ -115.1944227, 36.198216899900004 ], [ -115.1944254, 36.198216899900004 ], [ -115.1944254, 36.198214199900001 ], [ -115.1944281, 36.198214199900001 ], [ -115.1944281, 36.198211499900005 ], [ -115.1944254, 36.198211499900005 ], [ -115.1944254, 36.198208799900002 ], [ -115.19442, 36.198208799900002 ], [ -115.19442, 36.198206099900005 ], [ -115.1944173, 36.198206099900005 ], [ -115.1944173, 36.198203399900002 ], [ -115.1944146, 36.198203399900002 ], [ -115.1944146, 36.198200699899999 ], [ -115.1944119, 36.198200699899999 ], [ -115.1944119, 36.198197999900003 ], [ -115.1944092, 36.198197999900003 ], [ -115.1944092, 36.198192599900004 ], [ -115.1944038, 36.198192599900004 ], [ -115.1944038, 36.198187199900005 ], [ -115.1944119, 36.198187199900005 ], [ -115.1944119, 36.198184499900002 ], [ -115.1944146, 36.198184499900002 ], [ -115.1944146, 36.198181799899999 ], [ -115.1944254, 36.198181799899999 ], [ -115.1944254, 36.198179099900003 ], [ -115.1944281, 36.198179099900003 ], [ -115.1944281, 36.198168299900004 ], [ -115.1944308, 36.198168299900004 ], [ -115.1944308, 36.198165599900001 ], [ -115.1944335, 36.198165599900001 ], [ -115.1944335, 36.198162899900005 ], [ -115.1944389, 36.198162899900005 ], [ -115.1944389, 36.198160199900002 ], [ -115.194447, 36.198160199900002 ], [ -115.194447, 36.198157499899999 ], [ -115.1944713, 36.198157499899999 ], [ -115.1944713, 36.198160199900002 ], [ -115.194474, 36.198160199900002 ], [ -115.194474, 36.198165599900001 ], [ -115.1944767, 36.198165599900001 ], [ -115.1944767, 36.1981709999 ], [ -115.1944794, 36.1981709999 ], [ -115.1944794, 36.198173699900003 ], [ -115.1944821, 36.198173699900003 ], [ -115.1944821, 36.198176399899999 ], [ -115.1944848, 36.198176399899999 ], [ -115.1944848, 36.198179099900003 ], [ -115.194501, 36.198179099900003 ], [ -115.194501, 36.198181799899999 ], [ -115.1945037, 36.198181799899999 ], [ -115.1945037, 36.198184499900002 ], [ -115.1945064, 36.198184499900002 ], [ -115.1945064, 36.198187199900005 ], [ -115.1945091, 36.198187199900005 ], [ -115.1945091, 36.198189899900001 ], [ -115.1945145, 36.198189899900001 ], [ -115.1945145, 36.198192599900004 ], [ -115.1945172, 36.198192599900004 ], [ -115.1945172, 36.1981952999 ], [ -115.1945226, 36.1981952999 ], [ -115.1945226, 36.198197999900003 ], [ -115.1945361, 36.198197999900003 ], [ -115.1945361, 36.198200699899999 ], [ -115.1945442, 36.198200699899999 ], [ -115.1945442, 36.198197999900003 ], [ -115.1945523, 36.198197999900003 ], [ -115.1945523, 36.198200699899999 ], [ -115.194555, 36.198200699899999 ], [ -115.194555, 36.198203399900002 ], [ -115.1945577, 36.198203399900002 ], [ -115.1945577, 36.198206099900005 ], [ -115.1945604, 36.198206099900005 ], [ -115.1945604, 36.198208799900002 ], [ -115.1945631, 36.198208799900002 ], [ -115.1945631, 36.198214199900001 ], [ -115.1945658, 36.198214199900001 ], [ -115.1945658, 36.198235799900004 ], [ -115.1945631, 36.198235799900004 ], [ -115.1945631, 36.198246599900003 ], [ -115.1945604, 36.198246599900003 ], [ -115.1945604, 36.1982627999 ], [ -115.1945577, 36.1982627999 ], [ -115.1945577, 36.198265499900003 ], [ -115.194555, 36.198265499900003 ], [ -115.194555, 36.198268199899999 ], [ -115.1945523, 36.198268199899999 ], [ -115.1945523, 36.198273599900006 ], [ -115.1945496, 36.198273599900006 ], [ -115.1945496, 36.198276299900002 ], [ -115.1945469, 36.198276299900002 ], [ -115.1945469, 36.198284399900004 ], [ -115.1945496, 36.198284399900004 ], [ -115.1945496, 36.1982870999 ], [ -115.1945469, 36.1982870999 ], [ -115.1945469, 36.198289799900003 ], [ -115.1945415, 36.198289799900003 ], [ -115.1945415, 36.198292499899999 ], [ -115.1945388, 36.198292499899999 ], [ -115.1945388, 36.198295199900002 ], [ -115.1945334, 36.198295199900002 ], [ -115.1945334, 36.198297899900005 ], [ -115.194528, 36.198297899900005 ], [ -115.194528, 36.198300599900001 ], [ -115.1945226, 36.198300599900001 ], [ -115.1945226, 36.198303299900005 ], [ -115.1945172, 36.198303299900005 ], [ -115.1945172, 36.198305999900001 ], [ -115.1945118, 36.198305999900001 ], [ -115.1945118, 36.198308699900004 ], [ -115.1945091, 36.198308699900004 ], [ -115.1945091, 36.1983113999 ], [ -115.1945064, 36.1983113999 ], [ -115.1945064, 36.198314099900003 ], [ -115.1945037, 36.198314099900003 ], [ -115.1945037, 36.198327599900004 ], [ -115.194501, 36.198327599900004 ], [ -115.194501, 36.1983302999 ], [ -115.1944956, 36.1983302999 ], [ -115.1944956, 36.198332999900003 ], [ -115.1944929, 36.198332999900003 ], [ -115.1944929, 36.198335699899999 ], [ -115.1944902, 36.198335699899999 ], [ -115.1944902, 36.198341099900006 ], [ -115.1944875, 36.198341099900006 ], [ -115.1944875, 36.198343799900002 ], [ -115.1944821, 36.198343799900002 ], [ -115.1944821, 36.198346499900005 ], [ -115.194474, 36.198346499900005 ], [ -115.194474, 36.198349199900001 ], [ -115.1944632, 36.198349199900001 ], [ -115.1944632, 36.198346499900005 ], [ -115.1944254, 36.198346499900005 ], [ -115.1944254, 36.198349199900001 ], [ -115.19442, 36.198349199900001 ], [ -115.19442, 36.1983545999 ], [ -115.1944146, 36.1983545999 ], [ -115.1944146, 36.198357299900003 ], [ -115.1944119, 36.198357299900003 ], [ -115.1944119, 36.198359999899999 ], [ -115.1944065, 36.198359999899999 ], [ -115.1944065, 36.198362699900002 ], [ -115.1944038, 36.198362699900002 ], [ -115.1944038, 36.198365399900005 ], [ -115.1944011, 36.198365399900005 ], [ -115.1944011, 36.198368099900001 ], [ -115.1943957, 36.198368099900001 ], [ -115.1943957, 36.198370799900005 ] ], [ [ -115.1944335, 36.198206099900005 ], [ -115.1944335, 36.198197999900003 ], [ -115.1944389, 36.198197999900003 ], [ -115.1944389, 36.1981952999 ], [ -115.1944416, 36.1981952999 ], [ -115.1944416, 36.198184499900002 ], [ -115.1944362, 36.198184499900002 ], [ -115.1944362, 36.198187199900005 ], [ -115.1944335, 36.198187199900005 ], [ -115.1944335, 36.198189899900001 ], [ -115.1944308, 36.198189899900001 ], [ -115.1944308, 36.198206099900005 ], [ -115.1944335, 36.198206099900005 ] ] ] } },
{ "type": "Feature", "properties": { "value": 255.0 }, "geometry": { "type": "Polygon", "coordinates": [ [ [ -115.1947872, 36.197498699900002 ], [ -115.1947737, 36.197498699900002 ], [ -115.1947737, 36.197495999899999 ], [ -115.1947629, 36.197495999899999 ], [ -115.1947629, 36.197493299900003 ], [ -115.1947575, 36.197493299900003 ], [ -115.1947575, 36.197495999899999 ], [ -115.1947197, 36.197495999899999 ], [ -115.1947197, 36.197493299900003 ], [ -115.1947143, 36.197493299900003 ], [ -115.1947143, 36.1974905999 ], [ -115.1947116, 36.1974905999 ], [ -115.1947116, 36.197487899900004 ], [ -115.1947062, 36.197487899900004 ], [ -115.1947062, 36.197485199900001 ], [ -115.1947035, 36.197485199900001 ], [ -115.1947035, 36.197479799900002 ], [ -115.1947008, 36.197479799900002 ], [ -115.1947008, 36.197477099899999 ], [ -115.1946981, 36.197477099899999 ], [ -115.1946981, 36.197474399900003 ], [ -115.1946954, 36.197474399900003 ], [ -115.1946954, 36.197471699899999 ], [ -115.19469, 36.197471699899999 ], [ -115.19469, 36.1974662999 ], [ -115.1946873, 36.1974662999 ], [ -115.1946873, 36.197463599900004 ], [ -115.1946846, 36.197463599900004 ], [ -115.1946846, 36.197460899900001 ], [ -115.1946819, 36.197460899900001 ], [ -115.1946819, 36.197458199899998 ], [ -115.1946792, 36.197458199899998 ], [ -115.1946792, 36.197455499900002 ], [ -115.1946765, 36.197455499900002 ], [ -115.1946765, 36.197452799899999 ], [ -115.1946738, 36.197452799899999 ], [ -115.1946738, 36.197450099900003 ], [ -115.1946711, 36.197450099900003 ], [ -115.1946711, 36.1974473999 ], [ -115.1946684, 36.1974473999 ], [ -115.1946684, 36.197444699900004 ], [ -115.1946657, 36.197444699900004 ], [ -115.1946657, 36.197441999900001 ], [ -115.194663, 36.197441999900001 ], [ -115.194663, 36.197439299899997 ], [ -115.1946603, 36.197439299899997 ], [ -115.1946603, 36.197436599900001 ], [ -115.1946576, 36.197436599900001 ], [ -115.1946576, 36.197433899899998 ], [ -115.1946549, 36.197433899899998 ], [ -115.1946549, 36.197431199900002 ], [ -115.1946522, 36.197431199900002 ], [ -115.1946522, 36.197428499899999 ], [ -115.1946495, 36.197428499899999 ], [ -115.1946495, 36.197425799900003 ], [ -115.1946468, 36.197425799900003 ], [ -115.1946468, 36.1974230999 ], [ -115.1946441, 36.1974230999 ], [ -115.1946441, 36.197420399900004 ], [ -115.1946414, 36.197420399900004 ], [ -115.1946414, 36.197417699900001 ], [ -115.1946387, 36.197417699900001 ], [ -115.1946387, 36.197414999899998 ], [ -115.194636, 36.197414999899998 ], [ -115.194636, 36.197412299900002 ], [ -115.1946333, 36.197412299900002 ], [ -115.1946333, 36.197409599899999 ], [ -115.1946306, 36.197409599899999 ], [ -115.1946306, 36.197406899900002 ], [ -115.1946279, 36.197406899900002 ], [ -115.1946279, 36.197404199899999 ], [ -115.1946252, 36.197404199899999 ], [ -115.1946252, 36.197401499900003 ], [ -115.1946225, 36.197401499900003 ], [ -115.1946225, 36.1973987999 ], [ -115.1946198, 36.1973987999 ], [ -115.1946198, 36.197396099900004 ], [ -115.1946171, 36.197396099900004 ], [ -115.1946171, 36.197390699899998 ], [ -115.1946144, 36.197390699899998 ], [ -115.1946144, 36.197387999900002 ], [ -115.1946117, 36.197387999900002 ], [ -115.1946117, 36.197385299899999 ], [ -115.194609, 36.197385299899999 ], [ -115.194609, 36.197382599900003 ], [ -115.1946063, 36.197382599900003 ], [ -115.1946063, 36.1973798999 ], [ -115.1946036, 36.1973798999 ], [ -115.1946036, 36.197377199900004 ], [ -115.1946009, 36.197377199900004 ], [ -115.1946009, 36.1973744999 ], [ -115.1945982, 36.1973744999 ], [ -115.1945982, 36.197371799899997 ], [ -115.1945955, 36.197371799899997 ], [ -115.1945955, 36.197369099900001 ], [ -115.1945928, 36.197369099900001 ], [ -115.1945928, 36.197366399899998 ], [ -115.1945901, 36.197366399899998 ], [ -115.1945901, 36.197363699900002 ], [ -115.1945874, 36.197363699900002 ], [ -115.1945874, 36.197360999899999 ], [ -115.1945847, 36.197360999899999 ], [ -115.1945847, 36.197358299900003 ], [ -115.194582, 36.197358299900003 ], [ -115.194582, 36.1973555999 ], [ -115.1945793, 36.1973555999 ], [ -115.1945793, 36.197350199900001 ], [ -115.1945766, 36.197350199900001 ], [ -115.1945766, 36.197347499899998 ], [ -115.1945739, 36.197347499899998 ], [ -115.1945739, 36.197344799900002 ], [ -115.1945712, 36.197344799900002 ], [ -115.1945712, 36.197342099899998 ], [ -115.1945685, 36.197342099899998 ], [ -115.1945685, 36.197339399900002 ], [ -115.1945658, 36.197339399900002 ], [ -115.1945658, 36.197333999900003 ], [ -115.1945604, 36.197333999900003 ], [ -115.1945604, 36.1973312999 ], [ -115.1945577, 36.1973312999 ], [ -115.1945577, 36.197328599900004 ], [ -115.194555, 36.197328599900004 ], [ -115.194555, 36.197325899900001 ], [ -115.1945523, 36.197325899900001 ], [ -115.1945523, 36.197320499900002 ], [ -115.1945496, 36.197320499900002 ], [ -115.1945496, 36.197317799899999 ], [ -115.1945442, 36.197317799899999 ], [ -115.1945442, 36.197312399899999 ], [ -115.1945388, 36.197312399899999 ], [ -115.1945388, 36.197309699900003 ], [ -115.1945361, 36.197309699900003 ], [ -115.1945361, 36.197304299899997 ], [ -115.1945334, 36.197304299899997 ], [ -115.1945334, 36.197301599900001 ], [ -115.1945307, 36.197301599900001 ], [ -115.1945307, 36.197298899899998 ], [ -115.194528, 36.197298899899998 ], [ -115.194528, 36.197296199900002 ], [ -115.1945253, 36.197296199900002 ], [ -115.1945253, 36.197293499899999 ], [ -115.1945226, 36.197293499899999 ], [ -115.1945226, 36.197290799900003 ], [ -115.1945199, 36.197290799900003 ], [ -115.1945199, 36.1972880999 ], [ -115.1945172, 36.1972880999 ], [ -115.1945172, 36.197285399900004 ], [ -115.1945145, 36.197285399900004 ], [ -115.1945145, 36.197279999899997 ], [ -115.1945118, 36.197279999899997 ], [ -115.1945118, 36.197277299900001 ], [ -115.1945091, 36.197277299900001 ], [ -115.1945091, 36.197274599899998 ], [ -115.1945064, 36.197274599899998 ], [ -115.1945064, 36.197269199899999 ], [ -115.1945037, 36.197269199899999 ], [ -115.1945037, 36.197266499900003 ], [ -115.194501, 36.197266499900003 ], [ -115.194501, 36.1972637999 ], [ -115.1944983, 36.1972637999 ], [ -115.1944983, 36.197261099900004 ], [ -115.1944956, 36.197261099900004 ], [ -115.1944956, 36.197258399900001 ], [ -115.1944929, 36.197258399900001 ], [ -115.1944929, 36.197252999900002 ], [ -115.1944902, 36.197252999900002 ], [ -115.1944902, 36.197250299899999 ], [ -115.1944875, 36.197250299899999 ], [ -115.1944875, 36.197247599900003 ], [ -115.1944848, 36.197247599900003 ], [ -115.1944848, 36.197244899899999 ], [ -115.1944821, 36.197244899899999 ], [ -115.1944821, 36.1972394999 ], [ -115.1944794, 36.1972394999 ], [ -115.1944794, 36.197236799899997 ], [ -115.194474, 36.197236799899997 ], [ -115.194474, 36.197234099900001 ], [ -115.1944713, 36.197234099900001 ], [ -115.1944713, 36.197228699900002 ], [ -115.1944686, 36.197228699900002 ], [ -115.1944686, 36.197225999899999 ], [ -115.1944659, 36.197225999899999 ], [ -115.1944659, 36.197223299900003 ], [ -115.1944632, 36.197223299900003 ], [ -115.1944632, 36.1972205999 ], [ -115.1944605, 36.1972205999 ], [ -115.1944605, 36.1972151999 ], [ -115.1944578, 36.1972151999 ], [ -115.1944578, 36.197212499899997 ], [ -115.1944551, 36.197212499899997 ], [ -115.1944551, 36.197209799900001 ], [ -115.1944524, 36.197209799900001 ], [ -115.1944524, 36.197207099899998 ], [ -115.1944497, 36.197207099899998 ], [ -115.1944497, 36.197204399900002 ], [ -115.194447, 36.197204399900002 ], [ -115.194447, 36.197201699899999 ], [ -115.1944443, 36.197201699899999 ], [ -115.1944443, 36.197198999900003 ], [ -115.1944416, 36.197198999900003 ], [ -115.1944416, 36.1971962999 ], [ -115.1944389, 36.1971962999 ], [ -115.1944389, 36.197193599900004 ], [ -115.1944362, 36.197193599900004 ], [ -115.1944362, 36.197190899900001 ], [ -115.1944335, 36.197190899900001 ], [ -115.1944335, 36.197188199899998 ], [ -115.1944308, 36.197188199899998 ], [ -115.1944308, 36.197185499900002 ], [ -115.1944281, 36.197185499900002 ], [ -115.1944281, 36.197182799899998 ], [ -115.1944227, 36.197182799899998 ], [ -115.1944227, 36.197177399899999 ], [ -115.19442, 36.197177399899999 ], [ -115.19442, 36.197174699900003 ], [ -115.1944173, 36.197174699900003 ], [ -115.1944173, 36.1971719999 ], [ -115.1944146, 36.1971719999 ], [ -115.1944146, 36.197169299899997 ], [ -115.1944119, 36.197169299899997 ], [ -115.1944119, 36.197166599900001 ], [ -115.1944092, 36.197166599900001 ], [ -115.1944092, 36.197163899899998 ], [ -115.1944065, 36.197163899899998 ], [ -115.1944065, 36.197161199900002 ], [ -115.1944038, 36.197161199900002 ], [ -115.1944038, 36.197158499899999 ], [ -115.1944011, 36.197158499899999 ], [ -115.1944011, 36.1971530999 ], [ -115.1943984, 36.1971530999 ], [ -115.1943984, 36.197150399900003 ], [ -115.1943957, 36.197150399900003 ], [ -115.1943957, 36.1971476999 ], [ -115.194393, 36.1971476999 ], [ -115.194393, 36.197142299900001 ], [ -115.1943903, 36.197142299900001 ], [ -115.1943903, 36.197139599899998 ], [ -115.1943876, 36.197139599899998 ], [ -115.1943876, 36.197136899900002 ], [ -115.1943822, 36.197136899900002 ], [ -115.1943822, 36.197134199899999 ], [ -115.1943795, 36.197134199899999 ], [ -115.1943795, 36.1971287999 ], [ -115.1943768, 36.1971287999 ], [ -115.1943768, 36.197126099900004 ], [ -115.1943741, 36.197126099900004 ], [ -115.1943741, 36.197123399900001 ], [ -115.1943714, 36.197123399900001 ], [ -115.1943714, 36.197120699899997 ], [ -115.1943687, 36.197120699899997 ], [ -115.1943687, 36.197115299899998 ], [ -115.1943633, 36.197115299899998 ], [ -115.1943633, 36.197112599900002 ], [ -115.1943579, 36.197112599900002 ], [ -115.1943579, 36.197107199900003 ], [ -115.1943525, 36.197107199900003 ], [ -115.1943525, 36.1971044999 ], [ -115.1943498, 36.1971044999 ], [ -115.1943498, 36.197101799899997 ], [ -115.1943471, 36.197101799899997 ], [ -115.1943471, 36.197099099900001 ], [ -115.1943444, 36.197099099900001 ], [ -115.1943444, 36.197096399899998 ], [ -115.1943417, 36.197096399899998 ], [ -115.1943417, 36.197093699900002 ], [ -115.194339, 36.197093699900002 ], [ -115.194339, 36.197090999899999 ], [ -115.1943363, 36.197090999899999 ], [ -115.1943363, 36.197085599899999 ], [ -115.1943336, 36.197085599899999 ], [ -115.1943336, 36.197082899900003 ], [ -115.1943309, 36.197082899900003 ], [ -115.1943309, 36.1970801999 ], [ -115.1943282, 36.1970801999 ], [ -115.1943282, 36.197077499899997 ], [ -115.1943255, 36.197077499899997 ], [ -115.1943255, 36.197074799900001 ], [ -115.1943228, 36.197074799900001 ], [ -115.1943228, 36.197072099899998 ], [ -115.1943201, 36.197072099899998 ], [ -115.1943201, 36.197069399900002 ], [ -115.1943174, 36.197069399900002 ], [ -115.1943174, 36.197066699899999 ], [ -115.1943147, 36.197066699899999 ], [ -115.1943147, 36.1970612999 ], [ -115.194312, 36.1970612999 ], [ -115.194312, 36.197058599900004 ], [ -115.1943093, 36.197058599900004 ], [ -115.1943093, 36.1970558999 ], [ -115.1943066, 36.1970558999 ], [ -115.1943066, 36.197053199899997 ], [ -115.1943039, 36.197053199899997 ], [ -115.1943039, 36.197050499900001 ], [ -115.1943012, 36.197050499900001 ], [ -115.1943012, 36.197047799899998 ], [ -115.1942985, 36.197047799899998 ], [ -115.1942985, 36.197042399899999 ], [ -115.1942958, 36.197042399899999 ], [ -115.1942958, 36.197039699900003 ], [ -115.1942931, 36.197039699900003 ], [ -115.1942931, 36.1970369999 ], [ -115.1942904, 36.1970369999 ], [ -115.1942904, 36.197031599900001 ], [ -115.1942877, 36.197031599900001 ], [ -115.1942877, 36.197028899899998 ], [ -115.194285, 36.197028899899998 ], [ -115.194285, 36.197026199900002 ], [ -115.1942823, 36.197026199900002 ], [ -115.1942823, 36.197023499899998 ], [ -115.1942796, 36.197023499899998 ], [ -115.1942796, 36.197020799900002 ], [ -115.1942769, 36.197020799900002 ], [ -115.1942769, 36.197018099899999 ], [ -115.1942742, 36.197018099899999 ], [ -115.1942742, 36.1970126999 ], [ -115.1942715, 36.1970126999 ], [ -115.1942715, 36.197009999899997 ], [ -115.1942688, 36.197009999899997 ], [ -115.1942688, 36.197007299900001 ], [ -115.1942661, 36.197007299900001 ], [ -115.1942661, 36.197004599899998 ], [ -115.1942634, 36.197004599899998 ], [ -115.1942634, 36.197001899900002 ], [ -115.1942607, 36.197001899900002 ], [ -115.1942607, 36.196999199899999 ], [ -115.194258, 36.196999199899999 ], [ -115.194258, 36.196996499900003 ], [ -115.1942553, 36.196996499900003 ], [ -115.1942553, 36.196991099900004 ], [ -115.1942526, 36.196991099900004 ], [ -115.1942526, 36.1969883999 ], [ -115.1942499, 36.1969883999 ], [ -115.1942499, 36.196985699899997 ], [ -115.1942472, 36.196985699899997 ], [ -115.1942472, 36.196982999900001 ], [ -115.1942445, 36.196982999900001 ], [ -115.1942445, 36.196980299899998 ], [ -115.1942418, 36.196980299899998 ], [ -115.1942418, 36.196974899899999 ], [ -115.1942391, 36.196974899899999 ], [ -115.1942391, 36.196972199900003 ], [ -115.1942364, 36.196972199900003 ], [ -115.1942364, 36.1969694999 ], [ -115.194231, 36.1969694999 ], [ -115.194231, 36.196966799899997 ], [ -115.1942256, 36.196966799899997 ], [ -115.1942256, 36.196964099900001 ], [ -115.1942229, 36.196964099900001 ], [ -115.1942229, 36.196961399899998 ], [ -115.1942202, 36.196961399899998 ], [ -115.1942202, 36.196955999899998 ], [ -115.1942175, 36.196955999899998 ], [ -115.1942175, 36.196953299900002 ], [ -115.1942148, 36.196953299900002 ], [ -115.1942148, 36.196950599899999 ], [ -115.1942121, 36.196950599899999 ], [ -115.1942121, 36.1969451999 ], [ -115.1942148, 36.1969451999 ], [ -115.1942148, 36.196942499899997 ], [ -115.1942175, 36.196942499899997 ], [ -115.1942175, 36.196939799900001 ], [ -115.1942202, 36.196939799900001 ], [ -115.1942202, 36.196937099899998 ], [ -115.1942256, 36.196937099899998 ], [ -115.1942256, 36.196904699900003 ], [ -115.1942283, 36.196904699900003 ], [ -115.1942283, 36.1969019999 ], [ -115.194231, 36.1969019999 ], [ -115.194231, 36.196899299899997 ], [ -115.1942337, 36.196899299899997 ], [ -115.1942337, 36.196896599900001 ], [ -115.1942364, 36.196896599900001 ], [ -115.1942364, 36.196891199900001 ], [ -115.1942391, 36.196891199900001 ], [ -115.1942391, 36.196888499899998 ], [ -115.1942418, 36.196888499899998 ], [ -115.1942418, 36.196885799900002 ], [ -115.1942445, 36.196885799900002 ], [ -115.1942445, 36.196883099899999 ], [ -115.1942499, 36.196883099899999 ], [ -115.1942499, 36.196880399900003 ], [ -115.1942526, 36.196880399900003 ], [ -115.1942526, 36.1968776999 ], [ -115.194258, 36.1968776999 ], [ -115.194258, 36.196874999899997 ], [ -115.1942607, 36.196874999899997 ], [ -115.1942607, 36.196872299900001 ], [ -115.1942661, 36.196872299900001 ], [ -115.1942661, 36.196869599899998 ], [ -115.1942688, 36.196869599899998 ], [ -115.1942688, 36.196866899900002 ], [ -115.1942742, 36.196866899900002 ], [ -115.1942742, 36.196864199899998 ], [ -115.1942769, 36.196864199899998 ], [ -115.1942769, 36.196861499900002 ], [ -115.1942823, 36.196861499900002 ], [ -115.1942823, 36.196858799899999 ], [ -115.1942877, 36.196858799899999 ], [ -115.1942877, 36.196856099900003 ], [ -115.1942904, 36.196856099900003 ], [ -115.1942904, 36.1968533999 ], [ -115.1942958, 36.1968533999 ], [ -115.1942958, 36.196850699899997 ], [ -115.1943012, 36.196850699899997 ], [ -115.1943012, 36.196847999900001 ], [ -115.1943039, 36.196847999900001 ], [ -115.1943039, 36.196845299899998 ], [ -115.1943093, 36.196845299899998 ], [ -115.1943093, 36.196842599900002 ], [ -115.1943147, 36.196842599900002 ], [ -115.1943147, 36.196839899899999 ], [ -115.1943201, 36.196839899899999 ], [ -115.1943201, 36.196837199900003 ], [ -115.1943255, 36.196837199900003 ], [ -115.1943255, 36.1968344999 ], [ -115.1943282, 36.1968344999 ], [ -115.1943282, 36.196831799899996 ], [ -115.1943336, 36.196831799899996 ], [ -115.1943336, 36.1968290999 ], [ -115.194339, 36.1968290999 ], [ -115.194339, 36.196826399899997 ], [ -115.1943417, 36.196826399899997 ], [ -115.1943417, 36.196823699900001 ], [ -115.1943471, 36.196823699900001 ], [ -115.1943471, 36.196820999899998 ], [ -115.1943498, 36.196820999899998 ], [ -115.1943498, 36.196818299900002 ], [ -115.1943552, 36.196818299900002 ], [ -115.1943552, 36.196815599899999 ], [ -115.1943579, 36.196815599899999 ], [ -115.1943579, 36.196812899900003 ], [ -115.1943633, 36.196812899900003 ], [ -115.1943633, 36.1968101999 ], [ -115.194366, 36.1968101999 ], [ -115.194366, 36.196807499899997 ], [ -115.1943714, 36.196807499899997 ], [ -115.1943714, 36.196804799900001 ], [ -115.1943768, 36.196804799900001 ], [ -115.1943768, 36.196802099899998 ], [ -115.1943795, 36.196802099899998 ], [ -115.1943795, 36.196799399900002 ], [ -115.1943849, 36.196799399900002 ], [ -115.1943849, 36.196796699899998 ], [ -115.1943876, 36.196796699899998 ], [ -115.1943876, 36.196793999900002 ], [ -115.194393, 36.196793999900002 ], [ -115.194393, 36.196791299899999 ], [ -115.1943984, 36.196791299899999 ], [ -115.1943984, 36.196788599900003 ], [ -115.1944011, 36.196788599900003 ], [ -115.1944011, 36.1967858999 ], [ -115.1944065, 36.1967858999 ], [ -115.1944065, 36.196783199899997 ], [ -115.1944119, 36.196783199899997 ], [ -115.1944119, 36.196780499900001 ], [ -115.1944146, 36.196780499900001 ], [ -115.1944146, 36.196777799899998 ], [ -115.1944173, 36.196777799899998 ], [ -115.1944173, 36.196775099900002 ], [ -115.1944227, 36.196775099900002 ], [ -115.1944227, 36.196772399899999 ], [ -115.1944281, 36.196772399899999 ], [ -115.1944281, 36.196769699900003 ], [ -115.1944335, 36.196769699900003 ], [ -115.1944335, 36.196766999899999 ], [ -115.1944389, 36.196766999899999 ], [ -115.1944389, 36.196764299899996 ], [ -115.1944416, 36.196764299899996 ], [ -115.1944416, 36.1967615999 ], [ -115.194447, 36.1967615999 ], [ -115.194447, 36.196758899899997 ], [ -115.1944497, 36.196758899899997 ], [ -115.1944497, 36.196756199900001 ], [ -115.1944524, 36.196756199900001 ], [ -115.1944524, 36.196753499899998 ], [ -115.1944551, 36.196753499899998 ], [ -115.1944551, 36.196750799900002 ], [ -115.1944605, 36.196750799900002 ], [ -115.1944605, 36.196748099899999 ], [ -115.1944632, 36.196748099899999 ], [ -115.1944632, 36.1967426999 ], [ -115.1948061, 36.1967426999 ], [ -115.1948061, 36.196745399900003 ], [ -115.1948088, 36.196745399900003 ], [ -115.1948088, 36.196750799900002 ], [ -115.1948115, 36.196750799900002 ], [ -115.1948115, 36.196753499899998 ], [ -115.1948142, 36.196753499899998 ], [ -115.1948142, 36.196756199900001 ], [ -115.1948169, 36.196756199900001 ], [ -115.1948169, 36.196758899899997 ], [ -115.1948223, 36.196758899899997 ], [ -115.1948223, 36.196764299899996 ], [ -115.194825, 36.196764299899996 ], [ -115.194825, 36.196769699900003 ], [ -115.1948277, 36.196769699900003 ], [ -115.1948277, 36.196772399899999 ], [ -115.1948304, 36.196772399899999 ], [ -115.1948304, 36.196775099900002 ], [ -115.1948331, 36.196775099900002 ], [ -115.1948331, 36.196777799899998 ], [ -115.1948358, 36.196777799899998 ], [ -115.1948358, 36.196780499900001 ], [ -115.1948385, 36.196780499900001 ], [ -115.1948385, 36.196783199899997 ], [ -115.1948412, 36.196783199899997 ], [ -115.1948412, 36.1967858999 ], [ -115.1948439, 36.1967858999 ], [ -115.1948439, 36.196788599900003 ], [ -115.1948466, 36.196788599900003 ], [ -115.1948466, 36.196791299899999 ], [ -115.1948493, 36.196791299899999 ], [ -115.1948493, 36.196793999900002 ], [ -115.194852, 36.196793999900002 ], [ -115.194852, 36.196796699899998 ], [ -115.1948547, 36.196796699899998 ], [ -115.1948547, 36.196802099899998 ], [ -115.1948574, 36.196802099899998 ], [ -115.1948574, 36.196804799900001 ], [ -115.1948601, 36.196804799900001 ], [ -115.1948601, 36.196807499899997 ], [ -115.1948628, 36.196807499899997 ], [ -115.1948628, 36.1968101999 ], [ -115.1948655, 36.1968101999 ], [ -115.1948655, 36.196812899900003 ], [ -115.1948682, 36.196812899900003 ], [ -115.1948682, 36.196815599899999 ], [ -115.1948709, 36.196815599899999 ], [ -115.1948709, 36.196818299900002 ], [ -115.1948736, 36.196818299900002 ], [ -115.1948736, 36.196820999899998 ], [ -115.1948763, 36.196820999899998 ], [ -115.1948763, 36.196823699900001 ], [ -115.194879, 36.196823699900001 ], [ -115.194879, 36.196826399899997 ], [ -115.1948817, 36.196826399899997 ], [ -115.1948817, 36.1968290999 ], [ -115.1948844, 36.1968290999 ], [ -115.1948844, 36.196831799899996 ], [ -115.1948871, 36.196831799899996 ], [ -115.1948871, 36.196837199900003 ], [ -115.1948898, 36.196837199900003 ], [ -115.1948898, 36.196839899899999 ], [ -115.1948925, 36.196839899899999 ], [ -115.1948925, 36.196842599900002 ], [ -115.1948952, 36.196842599900002 ], [ -115.1948952, 36.196845299899998 ], [ -115.1948979, 36.196845299899998 ], [ -115.1948979, 36.196850699899997 ], [ -115.1949006, 36.196850699899997 ], [ -115.1949006, 36.1968533999 ], [ -115.1949033, 36.1968533999 ], [ -115.1949033, 36.196856099900003 ], [ -115.194906, 36.196856099900003 ], [ -115.194906, 36.196858799899999 ], [ -115.1949087, 36.196858799899999 ], [ -115.1949087, 36.196861499900002 ], [ -115.1949114, 36.196861499900002 ], [ -115.1949114, 36.196864199899998 ], [ -115.1949141, 36.196864199899998 ], [ -115.1949141, 36.196866899900002 ], [ -115.1949168, 36.196866899900002 ], [ -115.1949168, 36.196869599899998 ], [ -115.1949195, 36.196869599899998 ], [ -115.1949195, 36.196872299900001 ], [ -115.1949222, 36.196872299900001 ], [ -115.1949222, 36.196874999899997 ], [ -115.1949249, 36.196874999899997 ], [ -115.1949249, 36.1968776999 ], [ -115.1949276, 36.1968776999 ], [ -115.1949276, 36.196880399900003 ], [ -115.1949303, 36.196880399900003 ], [ -115.1949303, 36.196883099899999 ], [ -115.194933, 36.196883099899999 ], [ -115.194933, 36.196885799900002 ], [ -115.1949357, 36.196885799900002 ], [ -115.1949357, 36.196888499899998 ], [ -115.1949384, 36.196888499899998 ], [ -115.1949384, 36.196891199900001 ], [ -115.1949411, 36.196891199900001 ], [ -115.1949411, 36.196893899899997 ], [ -115.1949438, 36.196893899899997 ], [ -115.1949438, 36.196896599900001 ], [ -115.1949465, 36.196896599900001 ], [ -115.1949465, 36.196899299899997 ], [ -115.1949492, 36.196899299899997 ], [ -115.1949492, 36.1969019999 ], [ -115.1949519, 36.1969019999 ], [ -115.1949519, 36.196904699900003 ], [ -115.1949546, 36.196904699900003 ], [ -115.1949546, 36.196907399899999 ], [ -115.1949573, 36.196907399899999 ], [ -115.1949573, 36.196910099900002 ], [ -115.19496, 36.196910099900002 ], [ -115.19496, 36.196912799899998 ], [ -115.1949627, 36.196912799899998 ], [ -115.1949627, 36.196915499900001 ], [ -115.1949654, 36.196915499900001 ], [ -115.1949654, 36.196918199899997 ], [ -115.1949681, 36.196918199899997 ], [ -115.1949681, 36.1969208999 ], [ -115.1949708, 36.1969208999 ], [ -115.1949708, 36.196923599900003 ], [ -115.1949735, 36.196923599900003 ], [ -115.1949735, 36.196926299899999 ], [ -115.1949762, 36.196926299899999 ], [ -115.1949762, 36.196928999900003 ], [ -115.1949789, 36.196928999900003 ], [ -115.1949789, 36.196931699899999 ], [ -115.1949816, 36.196931699899999 ], [ -115.1949816, 36.196934399900002 ], [ -115.1949843, 36.196934399900002 ], [ -115.1949843, 36.196937099899998 ], [ -115.194987, 36.196937099899998 ], [ -115.194987, 36.196939799900001 ], [ -115.1949897, 36.196939799900001 ], [ -115.1949897, 36.196942499899997 ], [ -115.1949951, 36.196942499899997 ], [ -115.1949951, 36.1969451999 ], [ -115.1949978, 36.1969451999 ], [ -115.1949978, 36.196947899900003 ], [ -115.1950032, 36.196947899900003 ], [ -115.1950032, 36.196950599899999 ], [ -115.1950059, 36.196950599899999 ], [ -115.1950059, 36.196953299900002 ], [ -115.1950086, 36.196953299900002 ], [ -115.1950086, 36.196955999899998 ], [ -115.195014, 36.196955999899998 ], [ -115.195014, 36.196958699900001 ], [ -115.1950167, 36.196958699900001 ], [ -115.1950167, 36.196961399899998 ], [ -115.1950194, 36.196961399899998 ], [ -115.1950194, 36.196964099900001 ], [ -115.1950221, 36.196964099900001 ], [ -115.1950221, 36.196966799899997 ], [ -115.1950248, 36.196966799899997 ], [ -115.1950248, 36.1969694999 ], [ -115.1950275, 36.1969694999 ], [ -115.1950275, 36.196972199900003 ], [ -115.1950302, 36.196972199900003 ], [ -115.1950302, 36.196974899899999 ], [ -115.1950356, 36.196974899899999 ], [ -115.1950356, 36.196977599900002 ], [ -115.1950383, 36.196977599900002 ], [ -115.1950383, 36.196982999900001 ], [ -115.195041, 36.196982999900001 ], [ -115.195041, 36.196985699899997 ], [ -115.1950437, 36.196985699899997 ], [ -115.1950437, 36.1969883999 ], [ -115.1950464, 36.1969883999 ], [ -115.1950464, 36.1969937999 ], [ -115.1950491, 36.1969937999 ], [ -115.1950491, 36.196999199899999 ], [ -115.1950518, 36.196999199899999 ], [ -115.1950518, 36.197007299900001 ], [ -115.1950545, 36.197007299900001 ], [ -115.1950545, 36.1970126999 ], [ -115.1950572, 36.1970126999 ], [ -115.1950572, 36.197015399900003 ], [ -115.1950599, 36.197015399900003 ], [ -115.1950599, 36.197020799900002 ], [ -115.1950626, 36.197020799900002 ], [ -115.1950626, 36.197023499899998 ], [ -115.1950653, 36.197023499899998 ], [ -115.1950653, 36.197026199900002 ], [ -115.195068, 36.197026199900002 ], [ -115.195068, 36.197028899899998 ], [ -115.1950707, 36.197028899899998 ], [ -115.1950707, 36.197031599900001 ], [ -115.1950734, 36.197031599900001 ], [ -115.1950734, 36.197034299899997 ], [ -115.1950761, 36.197034299899997 ], [ -115.1950761, 36.1970369999 ], [ -115.1950788, 36.1970369999 ], [ -115.1950788, 36.197039699900003 ], [ -115.1950815, 36.197039699900003 ], [ -115.1950815, 36.197042399899999 ], [ -115.1950842, 36.197042399899999 ], [ -115.1950842, 36.197045099900002 ], [ -115.1950869, 36.197045099900002 ], [ -115.1950869, 36.197050499900001 ], [ -115.1950896, 36.197050499900001 ], [ -115.1950896, 36.197053199899997 ], [ -115.1950923, 36.197053199899997 ], [ -115.1950923, 36.1970558999 ], [ -115.195095, 36.1970558999 ], [ -115.195095, 36.197058599900004 ], [ -115.1950977, 36.197058599900004 ], [ -115.1950977, 36.1970612999 ], [ -115.1951004, 36.1970612999 ], [ -115.1951004, 36.197063999900003 ], [ -115.1951031, 36.197063999900003 ], [ -115.1951031, 36.197066699899999 ], [ -115.1951058, 36.197066699899999 ], [ -115.1951058, 36.197069399900002 ], [ -115.1951085, 36.197069399900002 ], [ -115.1951085, 36.197072099899998 ], [ -115.1951112, 36.197072099899998 ], [ -115.1951112, 36.197074799900001 ], [ -115.1951139, 36.197074799900001 ], [ -115.1951139, 36.197077499899997 ], [ -115.1951166, 36.197077499899997 ], [ -115.1951166, 36.1970801999 ], [ -115.1951193, 36.1970801999 ], [ -115.1951193, 36.197082899900003 ], [ -115.195122, 36.197082899900003 ], [ -115.195122, 36.197085599899999 ], [ -115.1951247, 36.197085599899999 ], [ -115.1951247, 36.197088299900003 ], [ -115.1951274, 36.197088299900003 ], [ -115.1951274, 36.197093699900002 ], [ -115.1951301, 36.197093699900002 ], [ -115.1951301, 36.197096399899998 ], [ -115.1951328, 36.197096399899998 ], [ -115.1951328, 36.197099099900001 ], [ -115.1951355, 36.197099099900001 ], [ -115.1951355, 36.197101799899997 ], [ -115.1951382, 36.197101799899997 ], [ -115.1951382, 36.1971044999 ], [ -115.1951409, 36.1971044999 ], [ -115.1951409, 36.197109899899999 ], [ -115.1951436, 36.197109899899999 ], [ -115.1951436, 36.197112599900002 ], [ -115.1951463, 36.197112599900002 ], [ -115.1951463, 36.197115299899998 ], [ -115.195149, 36.197115299899998 ], [ -115.195149, 36.197117999900001 ], [ -115.1951517, 36.197117999900001 ], [ -115.1951517, 36.197120699899997 ], [ -115.1951544, 36.197120699899997 ], [ -115.1951544, 36.197126099900004 ], [ -115.1951571, 36.197126099900004 ], [ -115.1951571, 36.1971287999 ], [ -115.1951625, 36.1971287999 ], [ -115.1951625, 36.197131499900003 ], [ -115.1951652, 36.197131499900003 ], [ -115.1951652, 36.197134199899999 ], [ -115.1951679, 36.197134199899999 ], [ -115.1951679, 36.197136899900002 ], [ -115.1951706, 36.197136899900002 ], [ -115.1951706, 36.197139599899998 ], [ -115.1951733, 36.197139599899998 ], [ -115.1951733, 36.197142299900001 ], [ -115.195176, 36.197142299900001 ], [ -115.195176, 36.1971476999 ], [ -115.1951787, 36.1971476999 ], [ -115.1951787, 36.197150399900003 ], [ -115.1951814, 36.197150399900003 ], [ -115.1951814, 36.197155799900003 ], [ -115.1951841, 36.197155799900003 ], [ -115.1951841, 36.197158499899999 ], [ -115.1951868, 36.197158499899999 ], [ -115.1951868, 36.197163899899998 ], [ -115.1951895, 36.197163899899998 ], [ -115.1951895, 36.197166599900001 ], [ -115.1951922, 36.197166599900001 ], [ -115.1951922, 36.197169299899997 ], [ -115.1951949, 36.197169299899997 ], [ -115.1951949, 36.197166599900001 ], [ -115.1951976, 36.197166599900001 ], [ -115.1951976, 36.197252999900002 ], [ -115.1951949, 36.197252999900002 ], [ -115.1951949, 36.1972637999 ], [ -115.1951895, 36.1972637999 ], [ -115.1951895, 36.197261099900004 ], [ -115.1951841, 36.197261099900004 ], [ -115.1951841, 36.1972637999 ], [ -115.1951814, 36.1972637999 ], [ -115.1951814, 36.197266499900003 ], [ -115.1951733, 36.197266499900003 ], [ -115.1951733, 36.197269199899999 ], [ -115.1951679, 36.197269199899999 ], [ -115.1951679, 36.197271899900002 ], [ -115.1951652, 36.197271899900002 ], [ -115.1951652, 36.197274599899998 ], [ -115.1951598, 36.197274599899998 ], [ -115.1951598, 36.197277299900001 ], [ -115.1951571, 36.197277299900001 ], [ -115.1951571, 36.197279999899997 ], [ -115.1951544, 36.197279999899997 ], [ -115.1951544, 36.197282699900001 ], [ -115.195149, 36.197282699900001 ], [ -115.195149, 36.197285399900004 ], [ -115.1951463, 36.197285399900004 ], [ -115.1951463, 36.1972880999 ], [ -115.1951409, 36.1972880999 ], [ -115.1951409, 36.197290799900003 ], [ -115.1951355, 36.197290799900003 ], [ -115.1951355, 36.197293499899999 ], [ -115.1951301, 36.197293499899999 ], [ -115.1951301, 36.197296199900002 ], [ -115.1951247, 36.197296199900002 ], [ -115.1951247, 36.197298899899998 ], [ -115.195122, 36.197298899899998 ], [ -115.195122, 36.197301599900001 ], [ -115.1951193, 36.197301599900001 ], [ -115.1951193, 36.197304299899997 ], [ -115.1951166, 36.197304299899997 ], [ -115.1951166, 36.1973069999 ], [ -115.1951112, 36.1973069999 ], [ -115.1951112, 36.197309699900003 ], [ -115.1951058, 36.197309699900003 ], [ -115.1951058, 36.197312399899999 ], [ -115.1950977, 36.197312399899999 ], [ -115.1950977, 36.197315099900003 ], [ -115.1950923, 36.197315099900003 ], [ -115.1950923, 36.197317799899999 ], [ -115.1950869, 36.197317799899999 ], [ -115.1950869, 36.197320499900002 ], [ -115.1950842, 36.197320499900002 ], [ -115.1950842, 36.197323199899998 ], [ -115.1950788, 36.197323199899998 ], [ -115.1950788, 36.197325899900001 ], [ -115.1950761, 36.197325899900001 ], [ -115.1950761, 36.197328599900004 ], [ -115.1950707, 36.197328599900004 ], [ -115.1950707, 36.1973312999 ], [ -115.195068, 36.1973312999 ], [ -115.195068, 36.197333999900003 ], [ -115.1950626, 36.197333999900003 ], [ -115.1950626, 36.197336699899999 ], [ -115.1950599, 36.197336699899999 ], [ -115.1950599, 36.197339399900002 ], [ -115.1950545, 36.197339399900002 ], [ -115.1950545, 36.197342099899998 ], [ -115.1950518, 36.197342099899998 ], [ -115.1950518, 36.197344799900002 ], [ -115.1950491, 36.197344799900002 ], [ -115.1950491, 36.197347499899998 ], [ -115.1950437, 36.197347499899998 ], [ -115.1950437, 36.197350199900001 ], [ -115.1950383, 36.197350199900001 ], [ -115.1950383, 36.197352899900004 ], [ -115.1950356, 36.197352899900004 ], [ -115.1950356, 36.1973555999 ], [ -115.1950302, 36.1973555999 ], [ -115.1950302, 36.197358299900003 ], [ -115.1950248, 36.197358299900003 ], [ -115.1950248, 36.197360999899999 ], [ -115.1950194, 36.197360999899999 ], [ -115.1950194, 36.197363699900002 ], [ -115.195014, 36.197363699900002 ], [ -115.195014, 36.197366399899998 ], [ -115.1950059, 36.197366399899998 ], [ -115.1950059, 36.197369099900001 ], [ -115.1950005, 36.197369099900001 ], [ -115.1950005, 36.197371799899997 ], [ -115.1949924, 36.197371799899997 ], [ -115.1949924, 36.1973744999 ], [ -115.1949897, 36.1973744999 ], [ -115.1949897, 36.197377199900004 ], [ -115.194987, 36.197377199900004 ], [ -115.194987, 36.1973798999 ], [ -115.1949816, 36.1973798999 ], [ -115.1949816, 36.197382599900003 ], [ -115.1949789, 36.197382599900003 ], [ -115.1949789, 36.197385299899999 ], [ -115.1949735, 36.197385299899999 ], [ -115.1949735, 36.197387999900002 ], [ -115.1949708, 36.197387999900002 ], [ -115.1949708, 36.197390699899998 ], [ -115.1949681, 36.197390699899998 ], [ -115.1949681, 36.197393399900001 ], [ -115.1949654, 36.197393399900001 ], [ -115.1949654, 36.197396099900004 ], [ -115.19496, 36.197396099900004 ], [ -115.19496, 36.1973987999 ], [ -115.1949546, 36.1973987999 ], [ -115.1949546, 36.197401499900003 ], [ -115.1949492, 36.197401499900003 ], [ -115.1949492, 36.197404199899999 ], [ -115.1949465, 36.197404199899999 ], [ -115.1949465, 36.197406899900002 ], [ -115.1949411, 36.197406899900002 ], [ -115.1949411, 36.197409599899999 ], [ -115.1949357, 36.197409599899999 ], [ -115.1949357, 36.197412299900002 ], [ -115.1949276, 36.197412299900002 ], [ -115.1949276, 36.197414999899998 ], [ -115.1949249, 36.197414999899998 ], [ -115.1949249, 36.197417699900001 ], [ -115.1949195, 36.197417699900001 ], [ -115.1949195, 36.197420399900004 ], [ -115.1949141, 36.197420399900004 ], [ -115.1949141, 36.1974230999 ], [ -115.1949087, 36.1974230999 ], [ -115.1949087, 36.197425799900003 ], [ -115.194906, 36.197425799900003 ], [ -115.194906, 36.197428499899999 ], [ -115.1949006, 36.197428499899999 ], [ -115.1949006, 36.197431199900002 ], [ -115.1948979, 36.197431199900002 ], [ -115.1948979, 36.197433899899998 ], [ -115.1948952, 36.197433899899998 ], [ -115.1948952, 36.197436599900001 ], [ -115.1948925, 36.197436599900001 ], [ -115.1948925, 36.197439299899997 ], [ -115.1948871, 36.197439299899997 ], [ -115.1948871, 36.197441999900001 ], [ -115.1948817, 36.197441999900001 ], [ -115.1948817, 36.197444699900004 ], [ -115.1948763, 36.197444699900004 ], [ -115.1948763, 36.1974473999 ], [ -115.1948709, 36.1974473999 ], [ -115.1948709, 36.197450099900003 ], [ -115.1948682, 36.197450099900003 ], [ -115.1948682, 36.197452799899999 ], [ -115.1948655, 36.197452799899999 ], [ -115.1948655, 36.197455499900002 ], [ -115.1948601, 36.197455499900002 ], [ -115.1948601, 36.197458199899998 ], [ -115.1948574, 36.197458199899998 ], [ -115.1948574, 36.197460899900001 ], [ -115.194852, 36.197460899900001 ], [ -115.194852, 36.197463599900004 ], [ -115.1948466, 36.197463599900004 ], [ -115.1948466, 36.1974662999 ], [ -115.1948412, 36.1974662999 ], [ -115.1948412, 36.197468999900003 ], [ -115.1948385, 36.197468999900003 ], [ -115.1948385, 36.197471699899999 ], [ -115.1948331, 36.197471699899999 ], [ -115.1948331, 36.197474399900003 ], [ -115.1948277, 36.197474399900003 ], [ -115.1948277, 36.197477099899999 ], [ -115.194825, 36.197477099899999 ], [ -115.194825, 36.197479799900002 ], [ -115.1948223, 36.197479799900002 ], [ -115.1948223, 36.197482499899998 ], [ -115.1948142, 36.197482499899998 ], [ -115.1948142, 36.197485199900001 ], [ -115.1948088, 36.197485199900001 ], [ -115.1948088, 36.197487899900004 ], [ -115.1948007, 36.197487899900004 ], [ -115.1948007, 36.1974905999 ], [ -115.194798, 36.1974905999 ], [ -115.194798, 36.197493299900003 ], [ -115.1947926, 36.197493299900003 ], [ -115.1947926, 36.197495999899999 ], [ -115.1947872, 36.197495999899999 ], [ -115.1947872, 36.197498699900002 ] ] ] } },
{ "type": "Feature", "properties": { "value": 255.0 }, "geometry": { "type": "Polygon", "coordinates": [ [ [ -115.1951976, 36.197023499899998 ], [ -115.1951949, 36.197023499899998 ], [ -115.1951949, 36.197020799900002 ], [ -115.1951895, 36.197020799900002 ], [ -115.1951895, 36.197018099899999 ], [ -115.1951868, 36.197018099899999 ], [ -115.1951868, 36.197015399900003 ], [ -115.1951841, 36.197015399900003 ], [ -115.1951841, 36.1970126999 ], [ -115.1951814, 36.1970126999 ], [ -115.1951814, 36.197009999899997 ], [ -115.1951787, 36.197009999899997 ], [ -115.1951787, 36.197007299900001 ], [ -115.195176, 36.197007299900001 ], [ -115.195176, 36.197004599899998 ], [ -115.1951733, 36.197004599899998 ], [ -115.1951733, 36.197001899900002 ], [ -115.1951706, 36.197001899900002 ], [ -115.1951706, 36.196999199899999 ], [ -115.1951679, 36.196999199899999 ], [ -115.1951679, 36.196996499900003 ], [ -115.1951652, 36.196996499900003 ], [ -115.1951652, 36.1969937999 ], [ -115.1951598, 36.1969937999 ], [ -115.1951598, 36.196991099900004 ], [ -115.1951571, 36.196991099900004 ], [ -115.1951571, 36.1969883999 ], [ -115.1951544, 36.1969883999 ], [ -115.1951544, 36.196985699899997 ], [ -115.195149, 36.196985699899997 ], [ -115.195149, 36.196982999900001 ], [ -115.1951382, 36.196982999900001 ], [ -115.1951382, 36.196980299899998 ], [ -115.1951328, 36.196980299899998 ], [ -115.1951328, 36.196977599900002 ], [ -115.1951301, 36.196977599900002 ], [ -115.1951301, 36.196974899899999 ], [ -115.1951274, 36.196974899899999 ], [ -115.1951274, 36.196972199900003 ], [ -115.1951247, 36.196972199900003 ], [ -115.1951247, 36.1969694999 ], [ -115.195122, 36.1969694999 ], [ -115.195122, 36.196966799899997 ], [ -115.1951193, 36.196966799899997 ], [ -115.1951193, 36.196964099900001 ], [ -115.1951166, 36.196964099900001 ], [ -115.1951166, 36.196958699900001 ], [ -115.1951139, 36.196958699900001 ], [ -115.1951139, 36.196955999899998 ], [ -115.1951112, 36.196955999899998 ], [ -115.1951112, 36.196953299900002 ], [ -115.1951085, 36.196953299900002 ], [ -115.1951085, 36.196947899900003 ], [ -115.1951058, 36.196947899900003 ], [ -115.1951058, 36.1969451999 ], [ -115.1951031, 36.1969451999 ], [ -115.1951031, 36.196942499899997 ], [ -115.1951004, 36.196942499899997 ], [ -115.1951004, 36.196939799900001 ], [ -115.1950977, 36.196939799900001 ], [ -115.1950977, 36.196937099899998 ], [ -115.195095, 36.196937099899998 ], [ -115.195095, 36.196931699899999 ], [ -115.1950923, 36.196931699899999 ], [ -115.1950923, 36.196928999900003 ], [ -115.1950896, 36.196928999900003 ], [ -115.1950896, 36.196926299899999 ], [ -115.1950869, 36.196926299899999 ], [ -115.1950869, 36.196915499900001 ], [ -115.1950896, 36.196915499900001 ], [ -115.1950896, 36.196904699900003 ], [ -115.1950869, 36.196904699900003 ], [ -115.1950869, 36.196899299899997 ], [ -115.1950842, 36.196899299899997 ], [ -115.1950842, 36.196893899899997 ], [ -115.1950815, 36.196893899899997 ], [ -115.1950815, 36.196891199900001 ], [ -115.1950788, 36.196891199900001 ], [ -115.1950788, 36.196888499899998 ], [ -115.1950761, 36.196888499899998 ], [ -115.1950761, 36.196885799900002 ], [ -115.1950734, 36.196885799900002 ], [ -115.1950734, 36.196883099899999 ], [ -115.1950707, 36.196883099899999 ], [ -115.1950707, 36.196880399900003 ], [ -115.195068, 36.196880399900003 ], [ -115.195068, 36.1968776999 ], [ -115.1950653, 36.1968776999 ], [ -115.1950653, 36.196874999899997 ], [ -115.1950626, 36.196874999899997 ], [ -115.1950626, 36.196872299900001 ], [ -115.1950599, 36.196872299900001 ], [ -115.1950599, 36.196869599899998 ], [ -115.1950572, 36.196869599899998 ], [ -115.1950572, 36.196866899900002 ], [ -115.1950545, 36.196866899900002 ], [ -115.1950545, 36.196864199899998 ], [ -115.1950518, 36.196864199899998 ], [ -115.1950518, 36.196861499900002 ], [ -115.1950491, 36.196861499900002 ], [ -115.1950491, 36.196858799899999 ], [ -115.1950464, 36.196858799899999 ], [ -115.1950464, 36.196856099900003 ], [ -115.1950437, 36.196856099900003 ], [ -115.1950437, 36.196850699899997 ], [ -115.195041, 36.196850699899997 ], [ -115.195041, 36.196847999900001 ], [ -115.1950383, 36.196847999900001 ], [ -115.1950383, 36.196845299899998 ], [ -115.1950356, 36.196845299899998 ], [ -115.1950356, 36.196842599900002 ], [ -115.1950329, 36.196842599900002 ], [ -115.1950329, 36.196837199900003 ], [ -115.1950302, 36.196837199900003 ], [ -115.1950302, 36.1968344999 ], [ -115.1950275, 36.1968344999 ], [ -115.1950275, 36.196831799899996 ], [ -115.1950248, 36.196831799899996 ], [ -115.1950248, 36.1968290999 ], [ -115.1950221, 36.1968290999 ], [ -115.1950221, 36.196826399899997 ], [ -115.1950194, 36.196826399899997 ], [ -115.1950194, 36.196823699900001 ], [ -115.1950167, 36.196823699900001 ], [ -115.1950167, 36.196820999899998 ], [ -115.195014, 36.196820999899998 ], [ -115.195014, 36.196818299900002 ], [ -115.1950113, 36.196818299900002 ], [ -115.1950113, 36.196815599899999 ], [ -115.1950086, 36.196815599899999 ], [ -115.1950086, 36.196812899900003 ], [ -115.1950059, 36.196812899900003 ], [ -115.1950059, 36.1968101999 ], [ -115.1950032, 36.1968101999 ], [ -115.1950032, 36.196807499899997 ], [ -115.1950005, 36.196807499899997 ], [ -115.1950005, 36.196802099899998 ], [ -115.1949978, 36.196802099899998 ], [ -115.1949978, 36.196799399900002 ], [ -115.1949951, 36.196799399900002 ], [ -115.1949951, 36.196796699899998 ], [ -115.1949924, 36.196796699899998 ], [ -115.1949924, 36.196793999900002 ], [ -115.1949897, 36.196793999900002 ], [ -115.1949897, 36.196791299899999 ], [ -115.194987, 36.196791299899999 ], [ -115.194987, 36.196788599900003 ], [ -115.1949843, 36.196788599900003 ], [ -115.1949843, 36.1967858999 ], [ -115.1949816, 36.1967858999 ], [ -115.1949816, 36.196780499900001 ], [ -115.1949789, 36.196780499900001 ], [ -115.1949789, 36.196777799899998 ], [ -115.1949762, 36.196777799899998 ], [ -115.1949762, 36.196775099900002 ], [ -115.1949708, 36.196775099900002 ], [ -115.1949708, 36.196772399899999 ], [ -115.1949681, 36.196772399899999 ], [ -115.1949681, 36.196769699900003 ], [ -115.1949654, 36.196769699900003 ], [ -115.1949654, 36.196766999899999 ], [ -115.19496, 36.196766999899999 ], [ -115.19496, 36.196764299899996 ], [ -115.1949573, 36.196764299899996 ], [ -115.1949573, 36.1967615999 ], [ -115.1949546, 36.1967615999 ], [ -115.1949546, 36.196756199900001 ], [ -115.1949519, 36.196756199900001 ], [ -115.1949519, 36.196753499899998 ], [ -115.1949492, 36.196753499899998 ], [ -115.1949492, 36.196750799900002 ], [ -115.1949465, 36.196750799900002 ], [ -115.1949465, 36.196748099899999 ], [ -115.1949438, 36.196748099899999 ], [ -115.1949438, 36.1967426999 ], [ -115.1950572, 36.1967426999 ], [ -115.1950572, 36.196745399900003 ], [ -115.1950599, 36.196745399900003 ], [ -115.1950599, 36.196748099899999 ], [ -115.1950626, 36.196748099899999 ], [ -115.1950626, 36.196750799900002 ], [ -115.1950653, 36.196750799900002 ], [ -115.1950653, 36.196753499899998 ], [ -115.195068, 36.196753499899998 ], [ -115.195068, 36.196758899899997 ], [ -115.1950707, 36.196758899899997 ], [ -115.1950707, 36.1967615999 ], [ -115.1950788, 36.1967615999 ], [ -115.1950788, 36.196764299899996 ], [ -115.1950896, 36.196764299899996 ], [ -115.1950896, 36.196766999899999 ], [ -115.195095, 36.196766999899999 ], [ -115.195095, 36.196769699900003 ], [ -115.1950977, 36.196769699900003 ], [ -115.1950977, 36.196772399899999 ], [ -115.1951004, 36.196772399899999 ], [ -115.1951004, 36.196775099900002 ], [ -115.1951031, 36.196775099900002 ], [ -115.1951031, 36.196777799899998 ], [ -115.1951058, 36.196777799899998 ], [ -115.1951058, 36.196780499900001 ], [ -115.1951085, 36.196780499900001 ], [ -115.1951085, 36.196783199899997 ], [ -115.1951112, 36.196783199899997 ], [ -115.1951112, 36.1967858999 ], [ -115.1951166, 36.1967858999 ], [ -115.1951166, 36.196788599900003 ], [ -115.1951193, 36.196788599900003 ], [ -115.1951193, 36.196791299899999 ], [ -115.195122, 36.196791299899999 ], [ -115.195122, 36.196796699899998 ], [ -115.1951247, 36.196796699899998 ], [ -115.1951247, 36.196799399900002 ], [ -115.1951274, 36.196799399900002 ], [ -115.1951274, 36.196802099899998 ], [ -115.1951301, 36.196802099899998 ], [ -115.1951301, 36.196804799900001 ], [ -115.1951328, 36.196804799900001 ], [ -115.1951328, 36.196807499899997 ], [ -115.1951355, 36.196807499899997 ], [ -115.1951355, 36.1968101999 ], [ -115.1951382, 36.1968101999 ], [ -115.1951382, 36.196812899900003 ], [ -115.1951409, 36.196812899900003 ], [ -115.1951409, 36.196818299900002 ], [ -115.1951463, 36.196818299900002 ], [ -115.1951463, 36.196820999899998 ], [ -115.195149, 36.196820999899998 ], [ -115.195149, 36.196823699900001 ], [ -115.1951517, 36.196823699900001 ], [ -115.1951517, 36.196826399899997 ], [ -115.1951544, 36.196826399899997 ], [ -115.1951544, 36.1968290999 ], [ -115.1951571, 36.1968290999 ], [ -115.1951571, 36.196831799899996 ], [ -115.1951598, 36.196831799899996 ], [ -115.1951598, 36.1968344999 ], [ -115.1951625, 36.1968344999 ], [ -115.1951625, 36.196837199900003 ], [ -115.1951652, 36.196837199900003 ], [ -115.1951652, 36.196845299899998 ], [ -115.1951679, 36.196845299899998 ], [ -115.1951679, 36.196847999900001 ], [ -115.1951706, 36.196847999900001 ], [ -115.1951706, 36.196850699899997 ], [ -115.1951733, 36.196850699899997 ], [ -115.1951733, 36.196858799899999 ], [ -115.195176, 36.196858799899999 ], [ -115.195176, 36.196866899900002 ], [ -115.1951787, 36.196866899900002 ], [ -115.1951787, 36.196872299900001 ], [ -115.1951814, 36.196872299900001 ], [ -115.1951814, 36.196883099899999 ], [ -115.1951841, 36.196883099899999 ], [ -115.1951841, 36.196891199900001 ], [ -115.1951868, 36.196891199900001 ], [ -115.1951868, 36.196893899899997 ], [ -115.1951895, 36.196893899899997 ], [ -115.1951895, 36.196896599900001 ], [ -115.1951922, 36.196896599900001 ], [ -115.1951922, 36.196899299899997 ], [ -115.1951949, 36.196899299899997 ], [ -115.1951949, 36.1969019999 ], [ -115.1951976, 36.1969019999 ], [ -115.1951976, 36.197023499899998 ] ] ] } },
{ "type": "Feature", "properties": { "value": 255.0 }, "geometry": { "type": "Polygon", "coordinates": [ [ [ -115.1942283, 36.196791299899999 ], [ -115.1942175, 36.196791299899999 ], [ -115.1942175, 36.196788599900003 ], [ -115.1942148, 36.196788599900003 ], [ -115.1942148, 36.1967858999 ], [ -115.1942121, 36.1967858999 ], [ -115.1942121, 36.196783199899997 ], [ -115.1942094, 36.196783199899997 ], [ -115.1942094, 36.196780499900001 ], [ -115.1942067, 36.196780499900001 ], [ -115.1942067, 36.196777799899998 ], [ -115.194204, 36.196777799899998 ], [ -115.194204, 36.196775099900002 ], [ -115.1942013, 36.196775099900002 ], [ -115.1942013, 36.196772399899999 ], [ -115.1941986, 36.196772399899999 ], [ -115.1941986, 36.196769699900003 ], [ -115.1941959, 36.196769699900003 ], [ -115.1941959, 36.196764299899996 ], [ -115.1941932, 36.196764299899996 ], [ -115.1941932, 36.1967615999 ], [ -115.1941905, 36.1967615999 ], [ -115.1941905, 36.196758899899997 ], [ -115.1941878, 36.196758899899997 ], [ -115.1941878, 36.196756199900001 ], [ -115.1941851, 36.196756199900001 ], [ -115.1941851, 36.196753499899998 ], [ -115.1941824, 36.196753499899998 ], [ -115.1941824, 36.196745399900003 ], [ -115.1941797, 36.196745399900003 ], [ -115.1941797, 36.1967426999 ], [ -115.1943012, 36.1967426999 ], [ -115.1943012, 36.196745399900003 ], [ -115.1942958, 36.196745399900003 ], [ -115.1942958, 36.196748099899999 ], [ -115.1942904, 36.196748099899999 ], [ -115.1942904, 36.196750799900002 ], [ -115.194285, 36.196750799900002 ], [ -115.194285, 36.196753499899998 ], [ -115.1942796, 36.196753499899998 ], [ -115.1942796, 36.196756199900001 ], [ -115.1942742, 36.196756199900001 ], [ -115.1942742, 36.196758899899997 ], [ -115.1942661, 36.196758899899997 ], [ -115.1942661, 36.1967615999 ], [ -115.1942607, 36.1967615999 ], [ -115.1942607, 36.196764299899996 ], [ -115.194258, 36.196764299899996 ], [ -115.194258, 36.196766999899999 ], [ -115.1942526, 36.196766999899999 ], [ -115.1942526, 36.196769699900003 ], [ -115.1942499, 36.196769699900003 ], [ -115.1942499, 36.196772399899999 ], [ -115.1942472, 36.196772399899999 ], [ -115.1942472, 36.196775099900002 ], [ -115.1942445, 36.196775099900002 ], [ -115.1942445, 36.196777799899998 ], [ -115.1942418, 36.196777799899998 ], [ -115.1942418, 36.196780499900001 ], [ -115.1942364, 36.196780499900001 ], [ -115.1942364, 36.196783199899997 ], [ -115.1942337, 36.196783199899997 ], [ -115.1942337, 36.1967858999 ], [ -115.194231, 36.1967858999 ], [ -115.194231, 36.196788599900003 ], [ -115.1942283, 36.196788599900003 ], [ -115.1942283, 36.196791299899999 ] ] ] } }
]
}
