{
"type": "FeatureCollection",
"crs": { "type": "name", "properties": { "name": "urn:ogc:def:crs:OGC:1.3:CRS84" } },
"features": [
{ "type": "Feature", "properties": { "value": 255.0 }, "geometry": { "type": "Polygon", "coordinates": [ [ [ -115.1997147, 36.126542699700003 ], [ -115.1994582, 36.126542699700003 ], [ -115.1994582, 36.1265399997 ], [ -115.1994528, 36.1265399997 ], [ -115.1994528, 36.126537299700004 ], [ -115.1994582, 36.126537299700004 ], [ -115.1994582, 36.126534599700001 ], [ -115.1994609, 36.126534599700001 ], [ -115.1994609, 36.126531899700005 ], [ -115.199469, 36.126531899700005 ], [ -115.199469, 36.126529199700002 ], [ -115.1994717, 36.126529199700002 ], [ -115.1994717, 36.126526499700006 ], [ -115.1994744, 36.126526499700006 ], [ -115.1994744, 36.126523799700003 ], [ -115.199469, 36.126523799700003 ], [ -115.199469, 36.126521099700007 ], [ -115.1994717, 36.126521099700007 ], [ -115.1994717, 36.126518399700004 ], [ -115.1994879, 36.126518399700004 ], [ -115.1994879, 36.126515699700001 ], [ -115.1996067, 36.126515699700001 ], [ -115.1996067, 36.126512999700005 ], [ -115.1996229, 36.126512999700005 ], [ -115.1996229, 36.126515699700001 ], [ -115.1996499, 36.126515699700001 ], [ -115.1996499, 36.126518399700004 ], [ -115.1996985, 36.126518399700004 ], [ -115.1996985, 36.126521099700007 ], [ -115.1997066, 36.126521099700007 ], [ -115.1997066, 36.126523799700003 ], [ -115.199712, 36.126523799700003 ], [ -115.199712, 36.126529199700002 ], [ -115.1997147, 36.126529199700002 ], [ -115.1997147, 36.126534599700001 ], [ -115.1997174, 36.126534599700001 ], [ -115.1997174, 36.1265399997 ], [ -115.1997147, 36.1265399997 ], [ -115.1997147, 36.126542699700003 ] ] ] } },
{ "type": "Feature", "properties": { "value": 255.0 }, "geometry": { "type": "Polygon", "coordinates": [ [ [ -115.200171, 36.126151199700004 ], [ -115.2001683, 36.126151199700004 ], [ -115.2001683, 36.126148499700001 ], [ -115.2001629, 36.126148499700001 ], [ -115.2001629, 36.126151199700004 ], [ -115.200144, 36.126151199700004 ], [ -115.200144, 36.126145799700005 ], [ -115.2001413, 36.126145799700005 ], [ -115.2001413, 36.126140399700006 ], [ -115.200144, 36.126140399700006 ], [ -115.200144, 36.1261295997 ], [ -115.2001467, 36.1261295997 ], [ -115.2001467, 36.126124199700001 ], [ -115.2001494, 36.126124199700001 ], [ -115.2001494, 36.126126899700004 ], [ -115.2001629, 36.126126899700004 ], [ -115.2001629, 36.1261349997 ], [ -115.2001683, 36.1261349997 ], [ -115.2001683, 36.126126899700004 ], [ -115.2001737, 36.126126899700004 ], [ -115.2001737, 36.126132299700004 ], [ -115.200176399999989, 36.126132299700004 ], [ -115.200176399999989, 36.126143099700002 ], [ -115.2001737, 36.126143099700002 ], [ -115.2001737, 36.126148499700001 ], [ -115.200171, 36.126148499700001 ], [ -115.200171, 36.126151199700004 ] ] ] } },
{ "type": "Feature", "properties": { "value": 255.0 }, "geometry": { "type": "Polygon", "coordinates": [ [ [ -115.1987886, 36.1261106997 ], [ -115.1987076, 36.1261106997 ], [ -115.1987076, 36.126051299700002 ], [ -115.19872380000001, 36.126051299700002 ], [ -115.19872380000001, 36.126048599700006 ], [ -115.1987265, 36.126048599700006 ], [ -115.1987265, 36.126051299700002 ], [ -115.198731900000013, 36.126051299700002 ], [ -115.198731900000013, 36.126053999700005 ], [ -115.1987373, 36.126053999700005 ], [ -115.1987373, 36.126051299700002 ], [ -115.1987535, 36.126051299700002 ], [ -115.1987535, 36.126053999700005 ], [ -115.1987967, 36.126053999700005 ], [ -115.1987967, 36.126051299700002 ], [ -115.1988183, 36.126051299700002 ], [ -115.1988183, 36.126053999700005 ], [ -115.1988345, 36.126053999700005 ], [ -115.1988345, 36.126078299700005 ], [ -115.1988318, 36.126078299700005 ], [ -115.1988318, 36.126091799699999 ], [ -115.1988345, 36.126091799699999 ], [ -115.1988345, 36.126097199700006 ], [ -115.1988318, 36.126097199700006 ], [ -115.1988318, 36.126105299700001 ], [ -115.198829100000012, 36.126105299700001 ], [ -115.198829100000012, 36.126107999700004 ], [ -115.1987886, 36.126107999700004 ], [ -115.1987886, 36.1261106997 ] ] ] } },
{ "type": "Feature", "properties": { "value": 255.0 }, "geometry": { "type": "Polygon", "coordinates": [ [ [ -115.199712, 36.126170099700005 ], [ -115.1995905, 36.126170099700005 ], [ -115.1995905, 36.126164699700006 ], [ -115.1995824, 36.126164699700006 ], [ -115.1995824, 36.126159299699999 ], [ -115.1995797, 36.126159299699999 ], [ -115.1995797, 36.1261538997 ], [ -115.199577, 36.1261538997 ], [ -115.199577, 36.126145799700005 ], [ -115.1995743, 36.126145799700005 ], [ -115.1995743, 36.126143099700002 ], [ -115.1995716, 36.126143099700002 ], [ -115.1995716, 36.126145799700005 ], [ -115.1995689, 36.126145799700005 ], [ -115.1995689, 36.126140399700006 ], [ -115.1995716, 36.126140399700006 ], [ -115.1995716, 36.1261349997 ], [ -115.1995689, 36.1261349997 ], [ -115.1995689, 36.126132299700004 ], [ -115.1995581, 36.126132299700004 ], [ -115.1995581, 36.1261295997 ], [ -115.1995527, 36.1261295997 ], [ -115.1995527, 36.126126899700004 ], [ -115.1995446, 36.126126899700004 ], [ -115.1995446, 36.126124199700001 ], [ -115.1995392, 36.126124199700001 ], [ -115.1995392, 36.126121499700005 ], [ -115.1995338, 36.126121499700005 ], [ -115.1995338, 36.126118799700002 ], [ -115.1995311, 36.126118799700002 ], [ -115.1995311, 36.126116099700006 ], [ -115.1995257, 36.126116099700006 ], [ -115.1995257, 36.126113399700003 ], [ -115.199523, 36.126113399700003 ], [ -115.199523, 36.1261106997 ], [ -115.1995203, 36.1261106997 ], [ -115.1995203, 36.126107999700004 ], [ -115.1995176, 36.126107999700004 ], [ -115.1995176, 36.126105299700001 ], [ -115.1995149, 36.126105299700001 ], [ -115.1995149, 36.126102599700005 ], [ -115.1995122, 36.126102599700005 ], [ -115.1995122, 36.126099899700002 ], [ -115.1995095, 36.126099899700002 ], [ -115.1995095, 36.126097199700006 ], [ -115.1995068, 36.126097199700006 ], [ -115.1995068, 36.126094499700002 ], [ -115.1995014, 36.126094499700002 ], [ -115.1995014, 36.126091799699999 ], [ -115.1994987, 36.126091799699999 ], [ -115.1994987, 36.126089099700003 ], [ -115.199496, 36.126089099700003 ], [ -115.199496, 36.1260863997 ], [ -115.1994933, 36.1260863997 ], [ -115.1994933, 36.126080999700001 ], [ -115.1994852, 36.126080999700001 ], [ -115.1994852, 36.126078299700005 ], [ -115.1994825, 36.126078299700005 ], [ -115.1994825, 36.126075599700002 ], [ -115.1994852, 36.126075599700002 ], [ -115.1994852, 36.1260620997 ], [ -115.1994825, 36.1260620997 ], [ -115.1994825, 36.126064799700004 ], [ -115.1994798, 36.126064799700004 ], [ -115.1994798, 36.126056699700001 ], [ -115.1994771, 36.126056699700001 ], [ -115.1994771, 36.126053999700005 ], [ -115.1994744, 36.126053999700005 ], [ -115.1994744, 36.126051299700002 ], [ -115.1994528, 36.126051299700002 ], [ -115.1994528, 36.126048599700006 ], [ -115.1994393, 36.126048599700006 ], [ -115.1994393, 36.126045899700003 ], [ -115.1994366, 36.126045899700003 ], [ -115.1994366, 36.1260431997 ], [ -115.1994258, 36.1260431997 ], [ -115.1994258, 36.126040499700004 ], [ -115.1994231, 36.126040499700004 ], [ -115.1994231, 36.126037799700001 ], [ -115.1994204, 36.126037799700001 ], [ -115.1994204, 36.126032399700001 ], [ -115.1994177, 36.126032399700001 ], [ -115.1994177, 36.126024299699999 ], [ -115.199415, 36.126024299699999 ], [ -115.199415, 36.1259945997 ], [ -115.1994177, 36.1259945997 ], [ -115.1994177, 36.125964899700001 ], [ -115.199415, 36.125964899700001 ], [ -115.199415, 36.125954099700003 ], [ -115.1994177, 36.125954099700003 ], [ -115.1994177, 36.125940599700002 ], [ -115.1994204, 36.125940599700002 ], [ -115.1994204, 36.125935199700002 ], [ -115.1994231, 36.125935199700002 ], [ -115.1994231, 36.125916299700002 ], [ -115.1994258, 36.125916299700002 ], [ -115.1994258, 36.1259081997 ], [ -115.1994231, 36.1259081997 ], [ -115.1994231, 36.1259027997 ], [ -115.1994204, 36.1259027997 ], [ -115.1994204, 36.125894699700005 ], [ -115.1994177, 36.125894699700005 ], [ -115.1994177, 36.125889299699999 ], [ -115.199415, 36.125889299699999 ], [ -115.199415, 36.125870399700005 ], [ -115.1994177, 36.125870399700005 ], [ -115.1994177, 36.125862299700003 ], [ -115.1994231, 36.125862299700003 ], [ -115.1994231, 36.125856899700004 ], [ -115.1994285, 36.125856899700004 ], [ -115.1994285, 36.125854199700001 ], [ -115.1994339, 36.125854199700001 ], [ -115.1994339, 36.125856899700004 ], [ -115.1994528, 36.125856899700004 ], [ -115.1994528, 36.125854199700001 ], [ -115.1994825, 36.125854199700001 ], [ -115.1994825, 36.125851499700005 ], [ -115.1994933, 36.125851499700005 ], [ -115.1994933, 36.125854199700001 ], [ -115.1995716, 36.125854199700001 ], [ -115.1995716, 36.125856899700004 ], [ -115.1995797, 36.125856899700004 ], [ -115.1995797, 36.125854199700001 ], [ -115.1995932, 36.125854199700001 ], [ -115.1995932, 36.125856899700004 ], [ -115.1996418, 36.125856899700004 ], [ -115.1996418, 36.1258595997 ], [ -115.1996634, 36.1258595997 ], [ -115.1996634, 36.125862299700003 ], [ -115.1996769, 36.125862299700003 ], [ -115.1996769, 36.125864999699999 ], [ -115.1996958, 36.125864999699999 ], [ -115.1996958, 36.125867699700002 ], [ -115.1997714, 36.125867699700002 ], [ -115.1997714, 36.125864999699999 ], [ -115.199874, 36.125864999699999 ], [ -115.199874, 36.125867699700002 ], [ -115.1998794, 36.125867699700002 ], [ -115.1998794, 36.125873099700001 ], [ -115.1998821, 36.125873099700001 ], [ -115.1998821, 36.125878499700001 ], [ -115.1998848, 36.125878499700001 ], [ -115.1998848, 36.125881199700004 ], [ -115.1998821, 36.125881199700004 ], [ -115.1998821, 36.125886599700003 ], [ -115.1998848, 36.125886599700003 ], [ -115.1998848, 36.125900099700004 ], [ -115.1998875, 36.125900099700004 ], [ -115.1998875, 36.125916299700002 ], [ -115.1998902, 36.125916299700002 ], [ -115.1998902, 36.125983799700002 ], [ -115.1998875, 36.125983799700002 ], [ -115.1998875, 36.126013499700001 ], [ -115.1998848, 36.126013499700001 ], [ -115.1998848, 36.126064799700004 ], [ -115.1998821, 36.126064799700004 ], [ -115.1998821, 36.1260674997 ], [ -115.1998848, 36.1260674997 ], [ -115.1998848, 36.126094499700002 ], [ -115.1998821, 36.126094499700002 ], [ -115.1998821, 36.126116099700006 ], [ -115.1998794, 36.126116099700006 ], [ -115.1998794, 36.126126899700004 ], [ -115.1998767, 36.126126899700004 ], [ -115.1998767, 36.126132299700004 ], [ -115.199874, 36.126132299700004 ], [ -115.199874, 36.1261349997 ], [ -115.1998713, 36.1261349997 ], [ -115.1998713, 36.126137699700003 ], [ -115.1998659, 36.126137699700003 ], [ -115.1998659, 36.126140399700006 ], [ -115.1998524, 36.126140399700006 ], [ -115.1998524, 36.126143099700002 ], [ -115.1998443, 36.126143099700002 ], [ -115.1998443, 36.126140399700006 ], [ -115.1998254, 36.126140399700006 ], [ -115.1998254, 36.126143099700002 ], [ -115.1998065, 36.126143099700002 ], [ -115.1998065, 36.126145799700005 ], [ -115.1998011, 36.126145799700005 ], [ -115.1998011, 36.126148499700001 ], [ -115.1997984, 36.126148499700001 ], [ -115.1997984, 36.126151199700004 ], [ -115.199793, 36.126151199700004 ], [ -115.199793, 36.1261538997 ], [ -115.1997876, 36.1261538997 ], [ -115.1997876, 36.126156599700003 ], [ -115.1997849, 36.126156599700003 ], [ -115.1997849, 36.126161999700003 ], [ -115.1997822, 36.126161999700003 ], [ -115.1997822, 36.126164699700006 ], [ -115.1997714, 36.126164699700006 ], [ -115.1997714, 36.126167399700002 ], [ -115.199712, 36.126167399700002 ], [ -115.199712, 36.126170099700005 ] ] ] } },
{ "type": "Feature", "properties": { "value": 255.0 }, "geometry": { "type": "Polygon", "coordinates": [ [ [ -115.1987184, 36.1258595997 ], [ -115.1987076, 36.1258595997 ], [ -115.1987076, 36.1257245997 ], [ -115.1987211, 36.1257245997 ], [ -115.1987211, 36.125727299700003 ], [ -115.198731900000013, 36.125727299700003 ], [ -115.198731900000013, 36.125762399700001 ], [ -115.1987346, 36.125762399700001 ], [ -115.1987346, 36.125832599700004 ], [ -115.198731900000013, 36.125832599700004 ], [ -115.198731900000013, 36.125843399700003 ], [ -115.1987292, 36.125843399700003 ], [ -115.1987292, 36.125851499700005 ], [ -115.1987265, 36.125851499700005 ], [ -115.1987265, 36.125854199700001 ], [ -115.1987211, 36.125854199700001 ], [ -115.1987211, 36.125856899700004 ], [ -115.1987184, 36.125856899700004 ], [ -115.1987184, 36.1258595997 ] ] ] } },
{ "type": "Feature", "properties": { "value": 255.0 }, "geometry": { "type": "Polygon", "coordinates": [ [ [ -115.1987103, 36.125611199700003 ], [ -115.1987076, 36.125611199700003 ], [ -115.1987076, 36.125551799699998 ], [ -115.19874, 36.125551799699998 ], [ -115.19874, 36.125549099700002 ], [ -115.1987481, 36.125549099700002 ], [ -115.1987481, 36.125551799699998 ], [ -115.19877240000001, 36.125551799699998 ], [ -115.19877240000001, 36.125549099700002 ], [ -115.1988804, 36.125549099700002 ], [ -115.1988804, 36.125551799699998 ], [ -115.198902, 36.125551799699998 ], [ -115.198902, 36.125500499700003 ], [ -115.1989047, 36.125500499700003 ], [ -115.1989047, 36.125484299699998 ], [ -115.19890740000001, 36.125484299699998 ], [ -115.19890740000001, 36.125478899699999 ], [ -115.1989101, 36.125478899699999 ], [ -115.1989101, 36.125476199700003 ], [ -115.1989182, 36.125476199700003 ], [ -115.1989182, 36.1254734997 ], [ -115.1989209, 36.1254734997 ], [ -115.1989209, 36.125470799700004 ], [ -115.1989344, 36.125470799700004 ], [ -115.1989344, 36.125468099700001 ], [ -115.1989425, 36.125468099700001 ], [ -115.1989425, 36.125470799700004 ], [ -115.1989506, 36.125470799700004 ], [ -115.1989506, 36.125468099700001 ], [ -115.1990073, 36.125468099700001 ], [ -115.1990073, 36.125470799700004 ], [ -115.19901, 36.125470799700004 ], [ -115.19901, 36.1254734997 ], [ -115.1990073, 36.1254734997 ], [ -115.1990073, 36.125476199700003 ], [ -115.19901, 36.125476199700003 ], [ -115.19901, 36.125481599700002 ], [ -115.1990046, 36.125481599700002 ], [ -115.1990046, 36.125478899699999 ], [ -115.1990019, 36.125478899699999 ], [ -115.1990019, 36.1254734997 ], [ -115.1989992, 36.1254734997 ], [ -115.1989992, 36.125470799700004 ], [ -115.1989965, 36.125470799700004 ], [ -115.1989965, 36.1254734997 ], [ -115.198993800000011, 36.1254734997 ], [ -115.198993800000011, 36.125476199700003 ], [ -115.1989965, 36.125476199700003 ], [ -115.1989965, 36.125486999700001 ], [ -115.198993800000011, 36.125486999700001 ], [ -115.198993800000011, 36.125495099700004 ], [ -115.1989965, 36.125495099700004 ], [ -115.1989965, 36.125508599700005 ], [ -115.1989992, 36.125508599700005 ], [ -115.1989992, 36.125530199700002 ], [ -115.1990019, 36.125530199700002 ], [ -115.1990019, 36.1255409997 ], [ -115.1989992, 36.1255409997 ], [ -115.1989992, 36.125546399699999 ], [ -115.1990019, 36.125546399699999 ], [ -115.1990019, 36.125557199700005 ], [ -115.1989992, 36.125557199700005 ], [ -115.1989992, 36.125562599700004 ], [ -115.1989965, 36.125562599700004 ], [ -115.1989965, 36.1255652997 ], [ -115.1989911, 36.1255652997 ], [ -115.1989911, 36.125570699699999 ], [ -115.1989668, 36.125570699699999 ], [ -115.1989668, 36.125567999700003 ], [ -115.1989533, 36.125567999700003 ], [ -115.1989533, 36.125570699699999 ], [ -115.1989317, 36.125570699699999 ], [ -115.1989317, 36.125567999700003 ], [ -115.198929, 36.125567999700003 ], [ -115.198929, 36.125570699699999 ], [ -115.1989155, 36.125570699699999 ], [ -115.1989155, 36.125573399700002 ], [ -115.1989101, 36.125573399700002 ], [ -115.1989101, 36.125576099700005 ], [ -115.19890740000001, 36.125576099700005 ], [ -115.19890740000001, 36.125597699700002 ], [ -115.1989047, 36.125597699700002 ], [ -115.1989047, 36.125605799700004 ], [ -115.1988534, 36.125605799700004 ], [ -115.1988534, 36.1256084997 ], [ -115.1987103, 36.1256084997 ], [ -115.1987103, 36.125611199700003 ] ] ] } },
{ "type": "Feature", "properties": { "value": 255.0 }, "geometry": { "type": "Polygon", "coordinates": [ [ [ -115.1998308, 36.125619299699999 ], [ -115.1998281, 36.125619299699999 ], [ -115.1998281, 36.125616599700002 ], [ -115.1998227, 36.125616599700002 ], [ -115.1998227, 36.125619299699999 ], [ -115.1997201, 36.125619299699999 ], [ -115.1997201, 36.125616599700002 ], [ -115.1996715, 36.125616599700002 ], [ -115.1996715, 36.125619299699999 ], [ -115.1996553, 36.125619299699999 ], [ -115.1996553, 36.125616599700002 ], [ -115.1996175, 36.125616599700002 ], [ -115.1996175, 36.125613899699999 ], [ -115.1995932, 36.125613899699999 ], [ -115.1995932, 36.125616599700002 ], [ -115.1995122, 36.125616599700002 ], [ -115.1995122, 36.125613899699999 ], [ -115.199496, 36.125613899699999 ], [ -115.199496, 36.125611199700003 ], [ -115.1994879, 36.125611199700003 ], [ -115.1994879, 36.125613899699999 ], [ -115.1994501, 36.125613899699999 ], [ -115.1994501, 36.125616599700002 ], [ -115.1994474, 36.125616599700002 ], [ -115.1994474, 36.125619299699999 ], [ -115.1994447, 36.125619299699999 ], [ -115.1994447, 36.125616599700002 ], [ -115.1994393, 36.125616599700002 ], [ -115.1994393, 36.125613899699999 ], [ -115.1994366, 36.125613899699999 ], [ -115.1994366, 36.125605799700004 ], [ -115.199442, 36.125605799700004 ], [ -115.199442, 36.125603099700001 ], [ -115.1994393, 36.125603099700001 ], [ -115.1994393, 36.125600399700005 ], [ -115.1994366, 36.125600399700005 ], [ -115.1994366, 36.125597699700002 ], [ -115.1994339, 36.125597699700002 ], [ -115.1994339, 36.125594999699999 ], [ -115.1994312, 36.125594999699999 ], [ -115.1994312, 36.125592299700003 ], [ -115.1994285, 36.125592299700003 ], [ -115.1994285, 36.1255841997 ], [ -115.1994177, 36.1255841997 ], [ -115.1994177, 36.125581499700004 ], [ -115.1994096, 36.125581499700004 ], [ -115.1994096, 36.125578799700001 ], [ -115.1994069, 36.125578799700001 ], [ -115.1994069, 36.125576099700005 ], [ -115.1994015, 36.125576099700005 ], [ -115.1994015, 36.125573399700002 ], [ -115.1993961, 36.125573399700002 ], [ -115.1993961, 36.125570699699999 ], [ -115.1993934, 36.125570699699999 ], [ -115.1993934, 36.125567999700003 ], [ -115.1993961, 36.125567999700003 ], [ -115.1993961, 36.125557199700005 ], [ -115.1993934, 36.125557199700005 ], [ -115.1993934, 36.125554499700002 ], [ -115.1993961, 36.125554499700002 ], [ -115.1993961, 36.125527499699999 ], [ -115.1993988, 36.125527499699999 ], [ -115.1993988, 36.125511299700001 ], [ -115.1994015, 36.125511299700001 ], [ -115.1994015, 36.125508599700005 ], [ -115.1994042, 36.125508599700005 ], [ -115.1994042, 36.125500499700003 ], [ -115.1994069, 36.125500499700003 ], [ -115.1994069, 36.125489699700005 ], [ -115.1994096, 36.125489699700005 ], [ -115.1994096, 36.125478899699999 ], [ -115.1994123, 36.125478899699999 ], [ -115.1994123, 36.1254734997 ], [ -115.199415, 36.1254734997 ], [ -115.199415, 36.125470799700004 ], [ -115.1994177, 36.125470799700004 ], [ -115.1994177, 36.125457299700003 ], [ -115.1994204, 36.125457299700003 ], [ -115.1994204, 36.125446499700004 ], [ -115.1994231, 36.125446499700004 ], [ -115.1994231, 36.125443799700001 ], [ -115.1994258, 36.125443799700001 ], [ -115.1994258, 36.125432999700003 ], [ -115.1994285, 36.125432999700003 ], [ -115.1994285, 36.1254302997 ], [ -115.1994312, 36.1254302997 ], [ -115.1994312, 36.125427599700004 ], [ -115.1994879, 36.125427599700004 ], [ -115.1994879, 36.1254302997 ], [ -115.199658, 36.1254302997 ], [ -115.199658, 36.125432999700003 ], [ -115.1996769, 36.125432999700003 ], [ -115.1996769, 36.1254302997 ], [ -115.1996877, 36.1254302997 ], [ -115.1996877, 36.125432999700003 ], [ -115.1997417, 36.125432999700003 ], [ -115.1997417, 36.125435699699999 ], [ -115.1997849, 36.125435699699999 ], [ -115.1997849, 36.125438399700002 ], [ -115.199793, 36.125438399700002 ], [ -115.199793, 36.125441099700005 ], [ -115.1998308, 36.125441099700005 ], [ -115.1998308, 36.125443799700001 ], [ -115.1998524, 36.125443799700001 ], [ -115.1998524, 36.125446499700004 ], [ -115.1998605, 36.125446499700004 ], [ -115.1998605, 36.1254491997 ], [ -115.1998686, 36.1254491997 ], [ -115.1998686, 36.125451899700003 ], [ -115.199874, 36.125451899700003 ], [ -115.199874, 36.125454599699999 ], [ -115.1998767, 36.125454599699999 ], [ -115.1998767, 36.125457299700003 ], [ -115.1998794, 36.125457299700003 ], [ -115.1998794, 36.125459999699999 ], [ -115.1998821, 36.125459999699999 ], [ -115.1998821, 36.125462699700002 ], [ -115.1998794, 36.125462699700002 ], [ -115.1998794, 36.125465399700005 ], [ -115.1998821, 36.125465399700005 ], [ -115.1998821, 36.125468099700001 ], [ -115.1998794, 36.125468099700001 ], [ -115.1998794, 36.125481599700002 ], [ -115.1998821, 36.125481599700002 ], [ -115.1998821, 36.125489699700005 ], [ -115.1998794, 36.125489699700005 ], [ -115.1998794, 36.125505899700002 ], [ -115.1998821, 36.125505899700002 ], [ -115.1998821, 36.1255166997 ], [ -115.1998848, 36.1255166997 ], [ -115.1998848, 36.1255220997 ], [ -115.1998821, 36.1255220997 ], [ -115.1998821, 36.125538299700004 ], [ -115.1998794, 36.125538299700004 ], [ -115.1998794, 36.125549099700002 ], [ -115.1998767, 36.125549099700002 ], [ -115.1998767, 36.125567999700003 ], [ -115.199874, 36.125567999700003 ], [ -115.199874, 36.125576099700005 ], [ -115.1998713, 36.125576099700005 ], [ -115.1998713, 36.125581499700004 ], [ -115.1998686, 36.125581499700004 ], [ -115.1998686, 36.1255841997 ], [ -115.1998659, 36.1255841997 ], [ -115.1998659, 36.125586899700004 ], [ -115.1998632, 36.125586899700004 ], [ -115.1998632, 36.1255895997 ], [ -115.1998605, 36.1255895997 ], [ -115.1998605, 36.125592299700003 ], [ -115.1998578, 36.125592299700003 ], [ -115.1998578, 36.125594999699999 ], [ -115.1998551, 36.125594999699999 ], [ -115.1998551, 36.125597699700002 ], [ -115.1998524, 36.125597699700002 ], [ -115.1998524, 36.125600399700005 ], [ -115.1998497, 36.125600399700005 ], [ -115.1998497, 36.125605799700004 ], [ -115.199847, 36.125605799700004 ], [ -115.199847, 36.1256084997 ], [ -115.1998443, 36.1256084997 ], [ -115.1998443, 36.125613899699999 ], [ -115.1998389, 36.125613899699999 ], [ -115.1998389, 36.125616599700002 ], [ -115.1998308, 36.125616599700002 ], [ -115.1998308, 36.125619299699999 ] ] ] } },
{ "type": "Feature", "properties": { "value": 255.0 }, "geometry": { "type": "Polygon", "coordinates": [ [ [ -115.2003303, 36.126032399700001 ], [ -115.2002844, 36.126032399700001 ], [ -115.2002844, 36.126029699700005 ], [ -115.2002817, 36.126029699700005 ], [ -115.2002817, 36.126026999700002 ], [ -115.200279, 36.126026999700002 ], [ -115.200279, 36.126005399700006 ], [ -115.2002817, 36.126005399700006 ], [ -115.2002817, 36.125970299700001 ], [ -115.200279, 36.125970299700001 ], [ -115.200279, 36.125959499700002 ], [ -115.2002817, 36.125959499700002 ], [ -115.2002817, 36.125894699700005 ], [ -115.200279, 36.125894699700005 ], [ -115.200279, 36.125889299699999 ], [ -115.2002817, 36.125889299699999 ], [ -115.2002817, 36.125813699700004 ], [ -115.2002844, 36.125813699700004 ], [ -115.2002844, 36.125773199699999 ], [ -115.2002871, 36.125773199699999 ], [ -115.2002871, 36.1255841997 ], [ -115.2002844, 36.1255841997 ], [ -115.2002844, 36.125570699699999 ], [ -115.2002871, 36.125570699699999 ], [ -115.2002871, 36.125465399700005 ], [ -115.2002898, 36.125465399700005 ], [ -115.2002898, 36.125446499700004 ], [ -115.200292499999989, 36.125446499700004 ], [ -115.200292499999989, 36.125368199699999 ], [ -115.2002898, 36.125368199699999 ], [ -115.2002898, 36.125349299699998 ], [ -115.200292499999989, 36.125349299699998 ], [ -115.200292499999989, 36.125341199700003 ], [ -115.2002898, 36.125341199700003 ], [ -115.2002898, 36.1253384997 ], [ -115.200292499999989, 36.1253384997 ], [ -115.200292499999989, 36.125292599700003 ], [ -115.2003033, 36.125292599700003 ], [ -115.2003033, 36.1252898997 ], [ -115.2003087, 36.1252898997 ], [ -115.2003087, 36.125292599700003 ], [ -115.2003222, 36.125292599700003 ], [ -115.2003222, 36.125295299699999 ], [ -115.200341099999989, 36.125295299699999 ], [ -115.200341099999989, 36.125297999700003 ], [ -115.2004032, 36.125297999700003 ], [ -115.2004032, 36.125322299700002 ], [ -115.2004005, 36.125322299700002 ], [ -115.2004005, 36.125373599700005 ], [ -115.2004032, 36.125373599700005 ], [ -115.2004032, 36.125465399700005 ], [ -115.2004005, 36.125465399700005 ], [ -115.2004005, 36.125500499700003 ], [ -115.2003978, 36.125500499700003 ], [ -115.2003978, 36.125570699699999 ], [ -115.2003951, 36.125570699699999 ], [ -115.2003951, 36.125643599700005 ], [ -115.2003924, 36.125643599700005 ], [ -115.2003924, 36.125843399700003 ], [ -115.200389699999988, 36.125843399700003 ], [ -115.200389699999988, 36.125900099700004 ], [ -115.200387, 36.125900099700004 ], [ -115.200387, 36.1259513997 ], [ -115.200389699999988, 36.1259513997 ], [ -115.200389699999988, 36.125972999700004 ], [ -115.200387, 36.125972999700004 ], [ -115.200387, 36.125983799700002 ], [ -115.200389699999988, 36.125983799700002 ], [ -115.200389699999988, 36.126026999700002 ], [ -115.20036, 36.126026999700002 ], [ -115.20036, 36.126029699700005 ], [ -115.2003303, 36.126029699700005 ], [ -115.2003303, 36.126032399700001 ] ] ] } },
{ "type": "Feature", "properties": { "value": 255.0 }, "geometry": { "type": "Polygon", "coordinates": [ [ [ -115.198794, 36.125476199700003 ], [ -115.1987076, 36.125476199700003 ], [ -115.1987076, 36.125262899700004 ], [ -115.1987103, 36.125262899700004 ], [ -115.1987103, 36.125265599700001 ], [ -115.1987535, 36.125265599700001 ], [ -115.1987535, 36.125262899700004 ], [ -115.1987589, 36.125262899700004 ], [ -115.1987589, 36.125265599700001 ], [ -115.198767, 36.125265599700001 ], [ -115.198767, 36.125262899700004 ], [ -115.1987832, 36.125262899700004 ], [ -115.1987832, 36.125265599700001 ], [ -115.198791300000011, 36.125265599700001 ], [ -115.198791300000011, 36.125268299700004 ], [ -115.198794, 36.125268299700004 ], [ -115.198794, 36.1252709997 ], [ -115.1987967, 36.1252709997 ], [ -115.1987967, 36.125273699700003 ], [ -115.1987994, 36.125273699700003 ], [ -115.1987994, 36.1252898997 ], [ -115.1988021, 36.1252898997 ], [ -115.1988021, 36.125311499700004 ], [ -115.1988048, 36.125311499700004 ], [ -115.1988048, 36.125324999699998 ], [ -115.1988021, 36.125324999699998 ], [ -115.1988021, 36.1253816997 ], [ -115.1987994, 36.1253816997 ], [ -115.1987994, 36.125387099699999 ], [ -115.1987967, 36.125387099699999 ], [ -115.1987967, 36.125392499699998 ], [ -115.1987994, 36.125392499699998 ], [ -115.1987994, 36.125397899700005 ], [ -115.1988021, 36.125397899700005 ], [ -115.1988021, 36.125400599700001 ], [ -115.1987994, 36.125400599700001 ], [ -115.1987994, 36.125403299700004 ], [ -115.1988021, 36.125403299700004 ], [ -115.1988021, 36.125414099700002 ], [ -115.1987994, 36.125414099700002 ], [ -115.1987994, 36.125422199700004 ], [ -115.1988021, 36.125422199700004 ], [ -115.1988021, 36.125462699700002 ], [ -115.1987994, 36.125462699700002 ], [ -115.1987994, 36.1254734997 ], [ -115.198794, 36.1254734997 ], [ -115.198794, 36.125476199700003 ] ] ] } },
{ "type": "Feature", "properties": { "value": 255.0 }, "geometry": { "type": "Polygon", "coordinates": [ [ [ -115.2001737, 36.126035099700005 ], [ -115.2001683, 36.126035099700005 ], [ -115.2001683, 36.126032399700001 ], [ -115.2001656, 36.126032399700001 ], [ -115.2001656, 36.126035099700005 ], [ -115.2001629, 36.126035099700005 ], [ -115.2001629, 36.126032399700001 ], [ -115.2001467, 36.126032399700001 ], [ -115.2001467, 36.126035099700005 ], [ -115.2001278, 36.126035099700005 ], [ -115.2001278, 36.126032399700001 ], [ -115.2001143, 36.126032399700001 ], [ -115.2001143, 36.126029699700005 ], [ -115.2001116, 36.126029699700005 ], [ -115.2001116, 36.126026999700002 ], [ -115.2001062, 36.126026999700002 ], [ -115.2001062, 36.126024299699999 ], [ -115.2001035, 36.126024299699999 ], [ -115.2001035, 36.126026999700002 ], [ -115.2001008, 36.126026999700002 ], [ -115.2001008, 36.126029699700005 ], [ -115.2000927, 36.126029699700005 ], [ -115.2000927, 36.126032399700001 ], [ -115.20009, 36.126032399700001 ], [ -115.20009, 36.125997299700003 ], [ -115.2000927, 36.125997299700003 ], [ -115.2000927, 36.126002699700003 ], [ -115.2000954, 36.126002699700003 ], [ -115.2000954, 36.126005399700006 ], [ -115.2000981, 36.126005399700006 ], [ -115.2000981, 36.126010799700005 ], [ -115.2001035, 36.126010799700005 ], [ -115.2001035, 36.126005399700006 ], [ -115.2001062, 36.126005399700006 ], [ -115.2001062, 36.126002699700003 ], [ -115.2001116, 36.126002699700003 ], [ -115.2001116, 36.125997299700003 ], [ -115.2001143, 36.125997299700003 ], [ -115.2001143, 36.125991899700004 ], [ -115.200117, 36.125991899700004 ], [ -115.200117, 36.125986499700005 ], [ -115.2001197, 36.125986499700005 ], [ -115.2001197, 36.125948699700004 ], [ -115.2001224, 36.125948699700004 ], [ -115.2001224, 36.1259081997 ], [ -115.2001197, 36.1259081997 ], [ -115.2001197, 36.125905499700004 ], [ -115.200117, 36.125905499700004 ], [ -115.200117, 36.1259027997 ], [ -115.2000684, 36.1259027997 ], [ -115.2000684, 36.125894699700005 ], [ -115.2000657, 36.125894699700005 ], [ -115.2000657, 36.125878499700001 ], [ -115.2000684, 36.125878499700001 ], [ -115.2000684, 36.125651699700001 ], [ -115.2000711, 36.125651699700001 ], [ -115.2000711, 36.125562599700004 ], [ -115.2000738, 36.125562599700004 ], [ -115.2000738, 36.125527499699999 ], [ -115.2000765, 36.125527499699999 ], [ -115.2000765, 36.125354699700004 ], [ -115.2000792, 36.125354699700004 ], [ -115.2000792, 36.125262899700004 ], [ -115.2000819, 36.125262899700004 ], [ -115.2000819, 36.125225099700003 ], [ -115.2000846, 36.125225099700003 ], [ -115.2000846, 36.1252223997 ], [ -115.2000873, 36.1252223997 ], [ -115.2000873, 36.125219699700004 ], [ -115.20009, 36.125219699700004 ], [ -115.20009, 36.1252223997 ], [ -115.200144, 36.1252223997 ], [ -115.200144, 36.125219699700004 ], [ -115.2001575, 36.125219699700004 ], [ -115.2001575, 36.125216999700001 ], [ -115.2001683, 36.125216999700001 ], [ -115.2001683, 36.125214299699998 ], [ -115.2001926, 36.125214299699998 ], [ -115.2001926, 36.125216999700001 ], [ -115.2001953, 36.125216999700001 ], [ -115.2001953, 36.125230499700002 ], [ -115.2001926, 36.125230499700002 ], [ -115.2001926, 36.125260199700001 ], [ -115.2001899, 36.125260199700001 ], [ -115.2001899, 36.125292599700003 ], [ -115.2001872, 36.125292599700003 ], [ -115.2001872, 36.125341199700003 ], [ -115.2001845, 36.125341199700003 ], [ -115.2001845, 36.125476199700003 ], [ -115.2001872, 36.125476199700003 ], [ -115.2001872, 36.125554499700002 ], [ -115.2001845, 36.125554499700002 ], [ -115.2001845, 36.125594999699999 ], [ -115.2001818, 36.125594999699999 ], [ -115.2001818, 36.125605799700004 ], [ -115.2001845, 36.125605799700004 ], [ -115.2001845, 36.125613899699999 ], [ -115.2001818, 36.125613899699999 ], [ -115.2001818, 36.1256327997 ], [ -115.2001845, 36.1256327997 ], [ -115.2001845, 36.125708399700002 ], [ -115.2001818, 36.125708399700002 ], [ -115.2001818, 36.125740799700004 ], [ -115.2001791, 36.125740799700004 ], [ -115.2001791, 36.125754299699999 ], [ -115.200176399999989, 36.125754299699999 ], [ -115.200176399999989, 36.125808299700005 ], [ -115.2001791, 36.125808299700005 ], [ -115.2001791, 36.125878499700001 ], [ -115.2001818, 36.125878499700001 ], [ -115.2001818, 36.125897399700001 ], [ -115.2001791, 36.125897399700001 ], [ -115.2001791, 36.125900099700004 ], [ -115.2001818, 36.125900099700004 ], [ -115.2001818, 36.1259027997 ], [ -115.2001791, 36.1259027997 ], [ -115.2001791, 36.125929799700003 ], [ -115.2001818, 36.125929799700003 ], [ -115.2001818, 36.125991899700004 ], [ -115.2001791, 36.125991899700004 ], [ -115.2001791, 36.126032399700001 ], [ -115.2001737, 36.126032399700001 ], [ -115.2001737, 36.126035099700005 ] ] ] } },
{ "type": "Feature", "properties": { "value": 255.0 }, "geometry": { "type": "Polygon", "coordinates": [ [ [ -115.1989857, 36.125262899700004 ], [ -115.1989803, 36.125262899700004 ], [ -115.1989803, 36.125260199700001 ], [ -115.1989344, 36.125260199700001 ], [ -115.1989344, 36.125262899700004 ], [ -115.1989047, 36.125262899700004 ], [ -115.1989047, 36.125260199700001 ], [ -115.1988993, 36.125260199700001 ], [ -115.1988993, 36.125257499699998 ], [ -115.1988966, 36.125257499699998 ], [ -115.1988966, 36.125254799700002 ], [ -115.1988939, 36.125254799700002 ], [ -115.1988939, 36.125249399700003 ], [ -115.1988912, 36.125249399700003 ], [ -115.1988912, 36.125230499700002 ], [ -115.19888850000001, 36.125230499700002 ], [ -115.19888850000001, 36.125200799700004 ], [ -115.1988912, 36.125200799700004 ], [ -115.1988912, 36.125184599699999 ], [ -115.19888850000001, 36.125184599699999 ], [ -115.19888850000001, 36.125181899700003 ], [ -115.1988831, 36.125181899700003 ], [ -115.1988831, 36.1251791997 ], [ -115.198875, 36.1251791997 ], [ -115.198875, 36.125181899700003 ], [ -115.1987076, 36.125181899700003 ], [ -115.1987076, 36.125125199700001 ], [ -115.1987346, 36.125125199700001 ], [ -115.1987346, 36.125127899700004 ], [ -115.1987832, 36.125127899700004 ], [ -115.1987832, 36.1251305997 ], [ -115.1988345, 36.1251305997 ], [ -115.1988345, 36.125133299700003 ], [ -115.1988534, 36.125133299700003 ], [ -115.1988534, 36.125135999699999 ], [ -115.1988642, 36.125135999699999 ], [ -115.1988642, 36.125133299700003 ], [ -115.1988831, 36.125133299700003 ], [ -115.1988831, 36.125135999699999 ], [ -115.198926300000011, 36.125135999699999 ], [ -115.198926300000011, 36.125138699700003 ], [ -115.1989479, 36.125138699700003 ], [ -115.1989479, 36.125141399699999 ], [ -115.198956, 36.125141399699999 ], [ -115.198956, 36.125144099700002 ], [ -115.1989587, 36.125144099700002 ], [ -115.1989587, 36.125146799699998 ], [ -115.1989614, 36.125146799699998 ], [ -115.1989614, 36.125149499700001 ], [ -115.1989695, 36.125149499700001 ], [ -115.1989695, 36.125152199700004 ], [ -115.198983, 36.125152199700004 ], [ -115.198983, 36.1251548997 ], [ -115.1989965, 36.1251548997 ], [ -115.1989965, 36.125157599700003 ], [ -115.1989992, 36.125157599700003 ], [ -115.1989992, 36.125160299699999 ], [ -115.1989371, 36.125160299699999 ], [ -115.1989371, 36.125162999700002 ], [ -115.1989668, 36.125162999700002 ], [ -115.1989668, 36.125165699699998 ], [ -115.1989695, 36.125165699699998 ], [ -115.1989695, 36.125162999700002 ], [ -115.198993800000011, 36.125162999700002 ], [ -115.198993800000011, 36.125165699699998 ], [ -115.1989992, 36.125165699699998 ], [ -115.1989992, 36.125171099700005 ], [ -115.1990019, 36.125171099700005 ], [ -115.1990019, 36.1252034997 ], [ -115.1990046, 36.1252034997 ], [ -115.1990046, 36.125252099699999 ], [ -115.1990019, 36.125252099699999 ], [ -115.1990019, 36.125257499699998 ], [ -115.198993800000011, 36.125257499699998 ], [ -115.198993800000011, 36.125260199700001 ], [ -115.1989857, 36.125260199700001 ], [ -115.1989857, 36.125262899700004 ] ] ] } },
{ "type": "Feature", "properties": { "value": 255.0 }, "geometry": { "type": "Polygon", "coordinates": [ [ [ -115.200279, 36.125100899700001 ], [ -115.2002034, 36.125100899700001 ], [ -115.2002034, 36.125098199699998 ], [ -115.2001845, 36.125098199699998 ], [ -115.2001845, 36.125095499700002 ], [ -115.2001818, 36.125095499700002 ], [ -115.2001818, 36.125092799699999 ], [ -115.2001683, 36.125092799699999 ], [ -115.2001683, 36.125090099700003 ], [ -115.2001602, 36.125090099700003 ], [ -115.2001602, 36.1250873997 ], [ -115.2001494, 36.1250873997 ], [ -115.2001494, 36.125079299699998 ], [ -115.2001467, 36.125079299699998 ], [ -115.2001467, 36.125076599700002 ], [ -115.2001494, 36.125076599700002 ], [ -115.2001494, 36.125073899699998 ], [ -115.2001521, 36.125073899699998 ], [ -115.2001521, 36.125068499699999 ], [ -115.2001602, 36.125068499699999 ], [ -115.2001602, 36.125065799700003 ], [ -115.2001737, 36.125065799700003 ], [ -115.2001737, 36.1250630997 ], [ -115.2002115, 36.1250630997 ], [ -115.2002115, 36.125060399700004 ], [ -115.2002277, 36.125060399700004 ], [ -115.2002277, 36.1250630997 ], [ -115.2002385, 36.1250630997 ], [ -115.2002385, 36.125060399700004 ], [ -115.2002439, 36.125060399700004 ], [ -115.2002439, 36.1250630997 ], [ -115.2002493, 36.1250630997 ], [ -115.2002493, 36.125060399700004 ], [ -115.200252, 36.125060399700004 ], [ -115.200252, 36.1250630997 ], [ -115.2002817, 36.1250630997 ], [ -115.2002817, 36.125065799700003 ], [ -115.2002898, 36.125065799700003 ], [ -115.2002898, 36.125068499699999 ], [ -115.200292499999989, 36.125068499699999 ], [ -115.200292499999989, 36.125076599700002 ], [ -115.2002952, 36.125076599700002 ], [ -115.2002952, 36.1250873997 ], [ -115.200292499999989, 36.1250873997 ], [ -115.200292499999989, 36.125092799699999 ], [ -115.2002898, 36.125092799699999 ], [ -115.2002898, 36.125095499700002 ], [ -115.2002817, 36.125095499700002 ], [ -115.2002817, 36.125098199699998 ], [ -115.200279, 36.125098199699998 ], [ -115.200279, 36.125100899700001 ] ] ] } },
{ "type": "Feature", "properties": { "value": 255.0 }, "geometry": { "type": "Polygon", "coordinates": [ [ [ -115.1997957, 36.125103599700005 ], [ -115.1996823, 36.125103599700005 ], [ -115.1996823, 36.125100899700001 ], [ -115.1996796, 36.125100899700001 ], [ -115.1996796, 36.125057699700001 ], [ -115.199685, 36.125057699700001 ], [ -115.199685, 36.125054999699998 ], [ -115.1997039, 36.125054999699998 ], [ -115.1997039, 36.125057699700001 ], [ -115.1997741, 36.125057699700001 ], [ -115.1997741, 36.125060399700004 ], [ -115.199793, 36.125060399700004 ], [ -115.199793, 36.1250630997 ], [ -115.1997957, 36.1250630997 ], [ -115.1997957, 36.125065799700003 ], [ -115.1997984, 36.125065799700003 ], [ -115.1997984, 36.125100899700001 ], [ -115.1997957, 36.125100899700001 ], [ -115.1997957, 36.125103599700005 ] ] ] } },
{ "type": "Feature", "properties": { "value": 255.0 }, "geometry": { "type": "Polygon", "coordinates": [ [ [ -115.1987211, 36.1250630997 ], [ -115.1987076, 36.1250630997 ], [ -115.1987076, 36.125033399700001 ], [ -115.198713, 36.125033399700001 ], [ -115.198713, 36.125041499700004 ], [ -115.1987211, 36.125041499700004 ], [ -115.1987211, 36.125049599699999 ], [ -115.19872380000001, 36.125049599699999 ], [ -115.19872380000001, 36.125060399700004 ], [ -115.1987211, 36.125060399700004 ], [ -115.1987211, 36.1250630997 ] ] ] } },
{ "type": "Feature", "properties": { "value": 255.0 }, "geometry": { "type": "Polygon", "coordinates": [ [ [ -115.198794, 36.125071199700002 ], [ -115.1987859, 36.125071199700002 ], [ -115.1987859, 36.125068499699999 ], [ -115.1987832, 36.125068499699999 ], [ -115.1987832, 36.125071199700002 ], [ -115.1987778, 36.125071199700002 ], [ -115.1987778, 36.125068499699999 ], [ -115.1987454, 36.125068499699999 ], [ -115.1987454, 36.125065799700003 ], [ -115.198742700000011, 36.125065799700003 ], [ -115.198742700000011, 36.1250630997 ], [ -115.19874, 36.1250630997 ], [ -115.19874, 36.125014499700001 ], [ -115.1987373, 36.125014499700001 ], [ -115.1987373, 36.125003699700002 ], [ -115.1987346, 36.125003699700002 ], [ -115.1987346, 36.124998299700003 ], [ -115.1987373, 36.124998299700003 ], [ -115.1987373, 36.124990199700001 ], [ -115.19874, 36.124990199700001 ], [ -115.19874, 36.124984799700002 ], [ -115.198742700000011, 36.124984799700002 ], [ -115.198742700000011, 36.124968599700004 ], [ -115.19874, 36.124968599700004 ], [ -115.19874, 36.124960499700002 ], [ -115.1987373, 36.124960499700002 ], [ -115.1987373, 36.124946999700001 ], [ -115.1987346, 36.124946999700001 ], [ -115.1987346, 36.124944299699997 ], [ -115.1987373, 36.124944299699997 ], [ -115.1987373, 36.124936199700002 ], [ -115.19874, 36.124936199700002 ], [ -115.19874, 36.124933499699999 ], [ -115.198742700000011, 36.124933499699999 ], [ -115.198742700000011, 36.124930799700003 ], [ -115.1987454, 36.124930799700003 ], [ -115.1987454, 36.1249280997 ], [ -115.1987886, 36.1249280997 ], [ -115.1987886, 36.124930799700003 ], [ -115.1988048, 36.124930799700003 ], [ -115.1988048, 36.124925399700004 ], [ -115.1988075, 36.124925399700004 ], [ -115.1988075, 36.124922699700001 ], [ -115.198810200000011, 36.124922699700001 ], [ -115.198810200000011, 36.124919999699998 ], [ -115.1988156, 36.124919999699998 ], [ -115.1988156, 36.124922699700001 ], [ -115.1988183, 36.124922699700001 ], [ -115.1988183, 36.1249280997 ], [ -115.1988237, 36.1249280997 ], [ -115.1988237, 36.124922699700001 ], [ -115.1988264, 36.124922699700001 ], [ -115.1988264, 36.124919999699998 ], [ -115.1988345, 36.124919999699998 ], [ -115.1988345, 36.124922699700001 ], [ -115.1988372, 36.124922699700001 ], [ -115.1988372, 36.124925399700004 ], [ -115.1988426, 36.124925399700004 ], [ -115.1988426, 36.124930799700003 ], [ -115.1988453, 36.124930799700003 ], [ -115.1988453, 36.124933499699999 ], [ -115.1988669, 36.124933499699999 ], [ -115.1988669, 36.124936199700002 ], [ -115.1988723, 36.124936199700002 ], [ -115.1988723, 36.124933499699999 ], [ -115.1988804, 36.124933499699999 ], [ -115.1988804, 36.124936199700002 ], [ -115.1988939, 36.124936199700002 ], [ -115.1988939, 36.124930799700003 ], [ -115.1988966, 36.124930799700003 ], [ -115.1988966, 36.124925399700004 ], [ -115.1988993, 36.124925399700004 ], [ -115.1988993, 36.124917299700002 ], [ -115.198926300000011, 36.124917299700002 ], [ -115.198926300000011, 36.124919999699998 ], [ -115.198929, 36.124919999699998 ], [ -115.198929, 36.124922699700001 ], [ -115.1989371, 36.124922699700001 ], [ -115.1989371, 36.124925399700004 ], [ -115.1989884, 36.124925399700004 ], [ -115.1989884, 36.1249280997 ], [ -115.198993800000011, 36.1249280997 ], [ -115.198993800000011, 36.124930799700003 ], [ -115.1989911, 36.124930799700003 ], [ -115.1989911, 36.124933499699999 ], [ -115.198993800000011, 36.124933499699999 ], [ -115.198993800000011, 36.124936199700002 ], [ -115.1989965, 36.124936199700002 ], [ -115.1989965, 36.1249523997 ], [ -115.198993800000011, 36.1249523997 ], [ -115.198993800000011, 36.124960499700002 ], [ -115.1989911, 36.124960499700002 ], [ -115.1989911, 36.124963199699998 ], [ -115.1989884, 36.124963199699998 ], [ -115.1989884, 36.124990199700001 ], [ -115.1989857, 36.124990199700001 ], [ -115.1989857, 36.124992899700004 ], [ -115.1989884, 36.124992899700004 ], [ -115.1989884, 36.1250198997 ], [ -115.198993800000011, 36.1250198997 ], [ -115.198993800000011, 36.125025299699999 ], [ -115.1989965, 36.125025299699999 ], [ -115.1989965, 36.125030699699998 ], [ -115.1989992, 36.125030699699998 ], [ -115.1989992, 36.125027999700002 ], [ -115.1990019, 36.125027999700002 ], [ -115.1990019, 36.125030699699998 ], [ -115.1990073, 36.125030699699998 ], [ -115.1990073, 36.125052299700002 ], [ -115.1990019, 36.125052299700002 ], [ -115.1990019, 36.125049599699999 ], [ -115.1989965, 36.125049599699999 ], [ -115.1989965, 36.125060399700004 ], [ -115.1989884, 36.125060399700004 ], [ -115.1989884, 36.1250630997 ], [ -115.198945200000011, 36.1250630997 ], [ -115.198945200000011, 36.125065799700003 ], [ -115.1989425, 36.125065799700003 ], [ -115.1989425, 36.1250630997 ], [ -115.1989344, 36.1250630997 ], [ -115.1989344, 36.125060399700004 ], [ -115.1989317, 36.125060399700004 ], [ -115.1989317, 36.1250630997 ], [ -115.198929, 36.1250630997 ], [ -115.198929, 36.125060399700004 ], [ -115.198926300000011, 36.125060399700004 ], [ -115.198926300000011, 36.125057699700001 ], [ -115.1989209, 36.125057699700001 ], [ -115.1989209, 36.125060399700004 ], [ -115.1989182, 36.125060399700004 ], [ -115.1989182, 36.125057699700001 ], [ -115.1989155, 36.125057699700001 ], [ -115.1989155, 36.125060399700004 ], [ -115.1989101, 36.125060399700004 ], [ -115.1989101, 36.125057699700001 ], [ -115.1989047, 36.125057699700001 ], [ -115.1989047, 36.125054999699998 ], [ -115.1988939, 36.125054999699998 ], [ -115.1988939, 36.125052299700002 ], [ -115.1988696, 36.125052299700002 ], [ -115.1988696, 36.125054999699998 ], [ -115.1988507, 36.125054999699998 ], [ -115.1988507, 36.125057699700001 ], [ -115.1988372, 36.125057699700001 ], [ -115.1988372, 36.125060399700004 ], [ -115.198829100000012, 36.125060399700004 ], [ -115.198829100000012, 36.1250630997 ], [ -115.1988237, 36.1250630997 ], [ -115.1988237, 36.125065799700003 ], [ -115.1988129, 36.125065799700003 ], [ -115.1988129, 36.125068499699999 ], [ -115.198794, 36.125068499699999 ], [ -115.198794, 36.125071199700002 ] ] ] } },
{ "type": "Feature", "properties": { "value": 255.0 }, "geometry": { "type": "Polygon", "coordinates": [ [ [ -115.199901, 36.124917299700002 ], [ -115.1998605, 36.124917299700002 ], [ -115.1998605, 36.124914599699999 ], [ -115.1998551, 36.124914599699999 ], [ -115.1998551, 36.124911899700002 ], [ -115.1998524, 36.124911899700002 ], [ -115.1998524, 36.1249037997 ], [ -115.1998497, 36.1249037997 ], [ -115.1998497, 36.124892999700002 ], [ -115.199847, 36.124892999700002 ], [ -115.199847, 36.124874099700001 ], [ -115.1998497, 36.124874099700001 ], [ -115.1998497, 36.1248605997 ], [ -115.1998524, 36.1248605997 ], [ -115.1998524, 36.124825499700002 ], [ -115.1998551, 36.124825499700002 ], [ -115.1998551, 36.124822799699999 ], [ -115.1998767, 36.124822799699999 ], [ -115.1998767, 36.124820099700003 ], [ -115.1998956, 36.124820099700003 ], [ -115.1998956, 36.124822799699999 ], [ -115.199901, 36.124822799699999 ], [ -115.199901, 36.1248848997 ], [ -115.1999037, 36.1248848997 ], [ -115.1999037, 36.124911899700002 ], [ -115.199901, 36.124911899700002 ], [ -115.199901, 36.124917299700002 ] ] ] } },
{ "type": "Feature", "properties": { "value": 255.0 }, "geometry": { "type": "Polygon", "coordinates": [ [ [ -115.2004626, 36.124938899699998 ], [ -115.2004518, 36.124938899699998 ], [ -115.2004518, 36.124936199700002 ], [ -115.200441, 36.124936199700002 ], [ -115.200441, 36.124933499699999 ], [ -115.200438299999988, 36.124933499699999 ], [ -115.200438299999988, 36.124930799700003 ], [ -115.2004356, 36.124930799700003 ], [ -115.2004356, 36.1249280997 ], [ -115.2004329, 36.1249280997 ], [ -115.2004329, 36.124922699700001 ], [ -115.2004302, 36.124922699700001 ], [ -115.2004302, 36.124919999699998 ], [ -115.2004248, 36.124919999699998 ], [ -115.2004248, 36.124917299700002 ], [ -115.2004113, 36.124917299700002 ], [ -115.2004113, 36.124914599699999 ], [ -115.2002493, 36.124914599699999 ], [ -115.2002493, 36.124909199699999 ], [ -115.2002466, 36.124909199699999 ], [ -115.2002466, 36.124906499700003 ], [ -115.2002439, 36.124906499700003 ], [ -115.2002439, 36.124847099699998 ], [ -115.2002412, 36.124847099699998 ], [ -115.2002412, 36.1248119997 ], [ -115.2002439, 36.1248119997 ], [ -115.2002439, 36.124806599700001 ], [ -115.200252, 36.124806599700001 ], [ -115.200252, 36.124803899699998 ], [ -115.2002547, 36.124803899699998 ], [ -115.2002547, 36.124801199700002 ], [ -115.2002574, 36.124801199700002 ], [ -115.2002574, 36.124798499699999 ], [ -115.2002628, 36.124798499699999 ], [ -115.2002628, 36.124801199700002 ], [ -115.2002655, 36.124801199700002 ], [ -115.2002655, 36.124798499699999 ], [ -115.2002736, 36.124798499699999 ], [ -115.2002736, 36.124795799700003 ], [ -115.2002817, 36.124795799700003 ], [ -115.2002817, 36.124798499699999 ], [ -115.2002871, 36.124798499699999 ], [ -115.2002871, 36.124801199700002 ], [ -115.200292499999989, 36.124801199700002 ], [ -115.200292499999989, 36.124798499699999 ], [ -115.2003006, 36.124798499699999 ], [ -115.2003006, 36.124801199700002 ], [ -115.2003087, 36.124801199700002 ], [ -115.2003087, 36.124803899699998 ], [ -115.200341099999989, 36.124803899699998 ], [ -115.200341099999989, 36.124801199700002 ], [ -115.2003492, 36.124801199700002 ], [ -115.2003492, 36.124798499699999 ], [ -115.2003519, 36.124798499699999 ], [ -115.2003519, 36.124795799700003 ], [ -115.2003546, 36.124795799700003 ], [ -115.2003546, 36.1247930997 ], [ -115.2003789, 36.1247930997 ], [ -115.2003789, 36.124795799700003 ], [ -115.2003816, 36.124795799700003 ], [ -115.2003816, 36.124798499699999 ], [ -115.2004005, 36.124798499699999 ], [ -115.2004005, 36.124795799700003 ], [ -115.2004113, 36.124795799700003 ], [ -115.2004113, 36.1247930997 ], [ -115.2004302, 36.1247930997 ], [ -115.2004302, 36.124790399700004 ], [ -115.200438299999988, 36.124790399700004 ], [ -115.200438299999988, 36.124787699700001 ], [ -115.200457199999988, 36.124787699700001 ], [ -115.200457199999988, 36.124790399700004 ], [ -115.2004599, 36.124790399700004 ], [ -115.2004599, 36.1247930997 ], [ -115.2004626, 36.1247930997 ], [ -115.2004626, 36.124938899699998 ] ] ] } },
{ "type": "Feature", "properties": { "value": 255.0 }, "geometry": { "type": "Polygon", "coordinates": [ [ [ -115.2000711, 36.124919999699998 ], [ -115.2000495, 36.124919999699998 ], [ -115.2000495, 36.124917299700002 ], [ -115.2000441, 36.124917299700002 ], [ -115.2000441, 36.124919999699998 ], [ -115.2000306, 36.124919999699998 ], [ -115.2000306, 36.124917299700002 ], [ -115.2000279, 36.124917299700002 ], [ -115.2000279, 36.124914599699999 ], [ -115.2000144, 36.124914599699999 ], [ -115.2000144, 36.124911899700002 ], [ -115.1999361, 36.124911899700002 ], [ -115.1999361, 36.124909199699999 ], [ -115.1999334, 36.124909199699999 ], [ -115.1999334, 36.124865999699999 ], [ -115.1999307, 36.124865999699999 ], [ -115.1999307, 36.1248605997 ], [ -115.1999334, 36.1248605997 ], [ -115.1999334, 36.124855199700001 ], [ -115.1999307, 36.124855199700001 ], [ -115.1999307, 36.124825499700002 ], [ -115.1999334, 36.124825499700002 ], [ -115.1999334, 36.124822799699999 ], [ -115.1999307, 36.124822799699999 ], [ -115.1999307, 36.124803899699998 ], [ -115.1999334, 36.124803899699998 ], [ -115.1999334, 36.124801199700002 ], [ -115.1999361, 36.124801199700002 ], [ -115.1999361, 36.124798499699999 ], [ -115.1999388, 36.124798499699999 ], [ -115.1999388, 36.124801199700002 ], [ -115.2000063, 36.124801199700002 ], [ -115.2000063, 36.124803899699998 ], [ -115.2000252, 36.124803899699998 ], [ -115.2000252, 36.124806599700001 ], [ -115.2000333, 36.124806599700001 ], [ -115.2000333, 36.124809299699997 ], [ -115.2000387, 36.124809299699997 ], [ -115.2000387, 36.1248119997 ], [ -115.2000441, 36.1248119997 ], [ -115.2000441, 36.124814699700003 ], [ -115.2000468, 36.124814699700003 ], [ -115.2000468, 36.1248119997 ], [ -115.2000711, 36.1248119997 ], [ -115.2000711, 36.124814699700003 ], [ -115.2000738, 36.124814699700003 ], [ -115.2000738, 36.1248119997 ], [ -115.2000846, 36.1248119997 ], [ -115.2000846, 36.124814699700003 ], [ -115.20009, 36.124814699700003 ], [ -115.20009, 36.1248119997 ], [ -115.2001197, 36.1248119997 ], [ -115.2001197, 36.124814699700003 ], [ -115.2001251, 36.124814699700003 ], [ -115.2001251, 36.1248119997 ], [ -115.2001386, 36.1248119997 ], [ -115.2001386, 36.124814699700003 ], [ -115.2002061, 36.124814699700003 ], [ -115.2002061, 36.124817399699999 ], [ -115.2002088, 36.124817399699999 ], [ -115.2002088, 36.124820099700003 ], [ -115.2002115, 36.124820099700003 ], [ -115.2002115, 36.124828199699998 ], [ -115.2002142, 36.124828199699998 ], [ -115.2002142, 36.124841699699999 ], [ -115.2002169, 36.124841699699999 ], [ -115.2002169, 36.124890299699999 ], [ -115.2002142, 36.124890299699999 ], [ -115.2002142, 36.1249037997 ], [ -115.2002115, 36.1249037997 ], [ -115.2002115, 36.124914599699999 ], [ -115.2002088, 36.124914599699999 ], [ -115.2002088, 36.124917299700002 ], [ -115.2001683, 36.124917299700002 ], [ -115.2001683, 36.124914599699999 ], [ -115.2001197, 36.124914599699999 ], [ -115.2001197, 36.124917299700002 ], [ -115.2000711, 36.124917299700002 ], [ -115.2000711, 36.124919999699998 ] ] ] } },
{ "type": "Feature", "properties": { "value": 255.0 }, "geometry": { "type": "Polygon", "coordinates": [ [ [ -115.1996715, 36.124973999700003 ], [ -115.1995905, 36.124973999700003 ], [ -115.1995905, 36.1249712997 ], [ -115.1995851, 36.1249712997 ], [ -115.1995851, 36.124968599700004 ], [ -115.199577, 36.124968599700004 ], [ -115.199577, 36.124965899700001 ], [ -115.1995743, 36.124965899700001 ], [ -115.1995743, 36.124963199699998 ], [ -115.1995716, 36.124963199699998 ], [ -115.1995716, 36.124957799699999 ], [ -115.1995689, 36.124957799699999 ], [ -115.1995689, 36.1249523997 ], [ -115.1995662, 36.1249523997 ], [ -115.1995662, 36.124946999700001 ], [ -115.1995635, 36.124946999700001 ], [ -115.1995635, 36.124936199700002 ], [ -115.1995608, 36.124936199700002 ], [ -115.1995608, 36.124919999699998 ], [ -115.1995635, 36.124919999699998 ], [ -115.1995635, 36.124890299699999 ], [ -115.1995662, 36.124890299699999 ], [ -115.1995662, 36.124882199700004 ], [ -115.1995635, 36.124882199700004 ], [ -115.1995635, 36.1248605997 ], [ -115.1995662, 36.1248605997 ], [ -115.1995662, 36.124833599700004 ], [ -115.1995635, 36.124833599700004 ], [ -115.1995635, 36.124825499700002 ], [ -115.1995608, 36.124825499700002 ], [ -115.1995608, 36.124820099700003 ], [ -115.1995635, 36.124820099700003 ], [ -115.1995635, 36.124817399699999 ], [ -115.1995608, 36.124817399699999 ], [ -115.1995608, 36.1247930997 ], [ -115.1995581, 36.1247930997 ], [ -115.1995581, 36.124790399700004 ], [ -115.1995554, 36.124790399700004 ], [ -115.1995554, 36.124787699700001 ], [ -115.1996985, 36.124787699700001 ], [ -115.1996985, 36.124790399700004 ], [ -115.1997012, 36.124790399700004 ], [ -115.1997012, 36.124809299699997 ], [ -115.1997039, 36.124809299699997 ], [ -115.1997039, 36.124814699700003 ], [ -115.1997066, 36.124814699700003 ], [ -115.1997066, 36.124822799699999 ], [ -115.1997039, 36.124822799699999 ], [ -115.1997039, 36.124828199699998 ], [ -115.1997066, 36.124828199699998 ], [ -115.1997066, 36.124833599700004 ], [ -115.1997093, 36.124833599700004 ], [ -115.1997093, 36.124844399700002 ], [ -115.1997066, 36.124844399700002 ], [ -115.1997066, 36.124849799700002 ], [ -115.1997093, 36.124849799700002 ], [ -115.1997093, 36.124855199700001 ], [ -115.1997066, 36.124855199700001 ], [ -115.1997066, 36.124868699700002 ], [ -115.1997039, 36.124868699700002 ], [ -115.1997039, 36.124874099700001 ], [ -115.1997066, 36.124874099700001 ], [ -115.1997066, 36.124901099700004 ], [ -115.1997039, 36.124901099700004 ], [ -115.1997039, 36.124917299700002 ], [ -115.1997066, 36.124917299700002 ], [ -115.1997066, 36.124930799700003 ], [ -115.1997039, 36.124930799700003 ], [ -115.1997039, 36.124960499700002 ], [ -115.1997012, 36.124960499700002 ], [ -115.1997012, 36.124963199699998 ], [ -115.1996985, 36.124963199699998 ], [ -115.1996985, 36.124965899700001 ], [ -115.1996931, 36.124965899700001 ], [ -115.1996931, 36.124968599700004 ], [ -115.1996823, 36.124968599700004 ], [ -115.1996823, 36.1249712997 ], [ -115.1996715, 36.1249712997 ], [ -115.1996715, 36.124973999700003 ] ] ] } },
{ "type": "Feature", "properties": { "value": 255.0 }, "geometry": { "type": "Polygon", "coordinates": [ [ [ -115.1988129, 36.1248848997 ], [ -115.1988075, 36.1248848997 ], [ -115.1988075, 36.124882199700004 ], [ -115.1987994, 36.124882199700004 ], [ -115.1987994, 36.1248848997 ], [ -115.198791300000011, 36.1248848997 ], [ -115.198791300000011, 36.124882199700004 ], [ -115.198761600000012, 36.124882199700004 ], [ -115.198761600000012, 36.1248848997 ], [ -115.1987535, 36.1248848997 ], [ -115.1987535, 36.124882199700004 ], [ -115.1987481, 36.124882199700004 ], [ -115.1987481, 36.1248848997 ], [ -115.1987454, 36.1248848997 ], [ -115.1987454, 36.124882199700004 ], [ -115.198731900000013, 36.124882199700004 ], [ -115.198731900000013, 36.124852499699998 ], [ -115.1987292, 36.124852499699998 ], [ -115.1987292, 36.124847099699998 ], [ -115.198731900000013, 36.124847099699998 ], [ -115.198731900000013, 36.124787699700001 ], [ -115.1990181, 36.124787699700001 ], [ -115.1990181, 36.124822799699999 ], [ -115.1990154, 36.124822799699999 ], [ -115.1990154, 36.124830899700001 ], [ -115.1990127, 36.124830899700001 ], [ -115.1990127, 36.124849799700002 ], [ -115.19901, 36.124849799700002 ], [ -115.19901, 36.124852499699998 ], [ -115.1990073, 36.124852499699998 ], [ -115.1990073, 36.124868699700002 ], [ -115.1990046, 36.124868699700002 ], [ -115.1990046, 36.124871399699998 ], [ -115.1989992, 36.124871399699998 ], [ -115.1989992, 36.124868699700002 ], [ -115.1989911, 36.124868699700002 ], [ -115.1989911, 36.124871399699998 ], [ -115.1989857, 36.124871399699998 ], [ -115.1989857, 36.124874099700001 ], [ -115.1989722, 36.124874099700001 ], [ -115.1989722, 36.124876799699997 ], [ -115.1989506, 36.124876799699997 ], [ -115.1989506, 36.124874099700001 ], [ -115.1989479, 36.124874099700001 ], [ -115.1989479, 36.124876799699997 ], [ -115.1989398, 36.124876799699997 ], [ -115.1989398, 36.124874099700001 ], [ -115.198929, 36.124874099700001 ], [ -115.198929, 36.124871399699998 ], [ -115.198926300000011, 36.124871399699998 ], [ -115.198926300000011, 36.124868699700002 ], [ -115.1989236, 36.124868699700002 ], [ -115.1989236, 36.1248605997 ], [ -115.1989209, 36.1248605997 ], [ -115.1989209, 36.124855199700001 ], [ -115.1989236, 36.124855199700001 ], [ -115.1989236, 36.124852499699998 ], [ -115.1989209, 36.124852499699998 ], [ -115.1989209, 36.124844399700002 ], [ -115.1989182, 36.124844399700002 ], [ -115.1989182, 36.124841699699999 ], [ -115.1989155, 36.124841699699999 ], [ -115.1989155, 36.124838999700003 ], [ -115.1989101, 36.124838999700003 ], [ -115.1989101, 36.1248362997 ], [ -115.1988858, 36.1248362997 ], [ -115.1988858, 36.124838999700003 ], [ -115.198848, 36.124838999700003 ], [ -115.198848, 36.124841699699999 ], [ -115.1988453, 36.124841699699999 ], [ -115.1988453, 36.124844399700002 ], [ -115.19883990000001, 36.124844399700002 ], [ -115.19883990000001, 36.124849799700002 ], [ -115.1988372, 36.124849799700002 ], [ -115.1988372, 36.124865999699999 ], [ -115.19883990000001, 36.124865999699999 ], [ -115.19883990000001, 36.124871399699998 ], [ -115.1988372, 36.124871399699998 ], [ -115.1988372, 36.124876799699997 ], [ -115.1988345, 36.124876799699997 ], [ -115.1988345, 36.1248794997 ], [ -115.198829100000012, 36.1248794997 ], [ -115.198829100000012, 36.124882199700004 ], [ -115.1988129, 36.124882199700004 ], [ -115.1988129, 36.1248848997 ] ] ] } }
]
}
