{
"type": "FeatureCollection",
"crs": { "type": "name", "properties": { "name": "urn:ogc:def:crs:OGC:1.3:CRS84" } },
"features": [
{ "type": "Feature", "properties": { "value": 255.0 }, "geometry": { "type": "Polygon", "coordinates": [ [ [ -115.186563, 36.2174300999 ], [ -115.1864901, 36.2174300999 ], [ -115.1864901, 36.217421999899997 ], [ -115.1864928, 36.217421999899997 ], [ -115.1864928, 36.217419299900001 ], [ -115.1865036, 36.217419299900001 ], [ -115.1865036, 36.217421999899997 ], [ -115.1865198, 36.217421999899997 ], [ -115.1865198, 36.217419299900001 ], [ -115.1865306, 36.217419299900001 ], [ -115.1865306, 36.217421999899997 ], [ -115.1865468, 36.217421999899997 ], [ -115.1865468, 36.2174246999 ], [ -115.1865549, 36.2174246999 ], [ -115.1865549, 36.217427399899996 ], [ -115.186563, 36.217427399899996 ], [ -115.186563, 36.2174300999 ] ] ] } },
{ "type": "Feature", "properties": { "value": 255.0 }, "geometry": { "type": "Polygon", "coordinates": [ [ [ -115.1864253, 36.2171114999 ], [ -115.1864226, 36.2171114999 ], [ -115.1864226, 36.216846899899998 ], [ -115.1864253, 36.216846899899998 ], [ -115.1864253, 36.216841499899999 ], [ -115.1864307, 36.216841499899999 ], [ -115.1864307, 36.216838799900003 ], [ -115.1865036, 36.216838799900003 ], [ -115.1865036, 36.216841499899999 ], [ -115.1865333, 36.216841499899999 ], [ -115.1865333, 36.216838799900003 ], [ -115.1866494, 36.216838799900003 ], [ -115.1866494, 36.216841499899999 ], [ -115.1866548, 36.216841499899999 ], [ -115.1866548, 36.216844199900002 ], [ -115.1866575, 36.216844199900002 ], [ -115.1866575, 36.216857699900004 ], [ -115.1866548, 36.216857699900004 ], [ -115.1866548, 36.216871199899998 ], [ -115.1866521, 36.216871199899998 ], [ -115.1866521, 36.216933299899999 ], [ -115.1866494, 36.216933299899999 ], [ -115.1866494, 36.216938699899998 ], [ -115.1866467, 36.216938699899998 ], [ -115.1866467, 36.216941399900001 ], [ -115.186644, 36.216941399900001 ], [ -115.186644, 36.216946799900001 ], [ -115.1866413, 36.216946799900001 ], [ -115.1866413, 36.216968399899997 ], [ -115.1866386, 36.216968399899997 ], [ -115.1866386, 36.216989999900001 ], [ -115.1866413, 36.216989999900001 ], [ -115.1866413, 36.217060199899997 ], [ -115.1866386, 36.217060199899997 ], [ -115.1866386, 36.2170628999 ], [ -115.186617, 36.2170628999 ], [ -115.186617, 36.217065599900003 ], [ -115.1865846, 36.217065599900003 ], [ -115.1865846, 36.2170628999 ], [ -115.1865684, 36.2170628999 ], [ -115.1865684, 36.217065599900003 ], [ -115.1865576, 36.217065599900003 ], [ -115.1865576, 36.217070999900002 ], [ -115.1865549, 36.217070999900002 ], [ -115.1865549, 36.217076399900002 ], [ -115.1865522, 36.217076399900002 ], [ -115.1865522, 36.217084499899997 ], [ -115.1865495, 36.217084499899997 ], [ -115.1865495, 36.217089899900003 ], [ -115.1865468, 36.217089899900003 ], [ -115.1865468, 36.217092599899999 ], [ -115.1865333, 36.217092599899999 ], [ -115.1865333, 36.217095299900002 ], [ -115.1865009, 36.217095299900002 ], [ -115.1865009, 36.217092599899999 ], [ -115.1864955, 36.217092599899999 ], [ -115.1864955, 36.217095299900002 ], [ -115.1864901, 36.217095299900002 ], [ -115.1864901, 36.217092599899999 ], [ -115.186482, 36.217092599899999 ], [ -115.186482, 36.217095299900002 ], [ -115.1864523, 36.217095299900002 ], [ -115.1864523, 36.217097999899998 ], [ -115.1864361, 36.217097999899998 ], [ -115.1864361, 36.217103399899997 ], [ -115.1864334, 36.217103399899997 ], [ -115.1864334, 36.217106099900001 ], [ -115.186428, 36.217106099900001 ], [ -115.186428, 36.217108799899997 ], [ -115.1864253, 36.217108799899997 ], [ -115.1864253, 36.2171114999 ] ] ] } },
{ "type": "Feature", "properties": { "value": 255.0 }, "geometry": { "type": "Polygon", "coordinates": [ [ [ -115.1864334, 36.216611999900003 ], [ -115.1864307, 36.216611999900003 ], [ -115.1864307, 36.216606599900004 ], [ -115.186428, 36.216606599900004 ], [ -115.186428, 36.216590399899999 ], [ -115.1864307, 36.216590399899999 ], [ -115.1864307, 36.216582299900004 ], [ -115.1864253, 36.216582299900004 ], [ -115.1864253, 36.216587699900003 ], [ -115.1864226, 36.216587699900003 ], [ -115.1864226, 36.216574199900002 ], [ -115.1864307, 36.216574199900002 ], [ -115.1864307, 36.216571499899999 ], [ -115.1864361, 36.216571499899999 ], [ -115.1864361, 36.216574199900002 ], [ -115.1864415, 36.216574199900002 ], [ -115.1864415, 36.216579599900001 ], [ -115.1864388, 36.216579599900001 ], [ -115.1864388, 36.216601199899998 ], [ -115.1864361, 36.216601199899998 ], [ -115.1864361, 36.216603899900001 ], [ -115.1864334, 36.216603899900001 ], [ -115.1864334, 36.216611999900003 ] ] ] } },
{ "type": "Feature", "properties": { "value": 255.0 }, "geometry": { "type": "Polygon", "coordinates": [ [ [ -115.1869977, 36.217119599900002 ], [ -115.1869923, 36.217119599900002 ], [ -115.1869923, 36.217116899899999 ], [ -115.1869815, 36.217116899899999 ], [ -115.1869815, 36.217114199900003 ], [ -115.1869761, 36.217114199900003 ], [ -115.1869761, 36.2171114999 ], [ -115.1869707, 36.2171114999 ], [ -115.1869707, 36.217100699900001 ], [ -115.1869653, 36.217100699900001 ], [ -115.1869653, 36.217097999899998 ], [ -115.1869626, 36.217097999899998 ], [ -115.1869626, 36.217095299900002 ], [ -115.1869599, 36.217095299900002 ], [ -115.1869599, 36.217092599899999 ], [ -115.1869545, 36.217092599899999 ], [ -115.1869545, 36.217089899900003 ], [ -115.1868654, 36.217089899900003 ], [ -115.1868654, 36.2170871999 ], [ -115.1868546, 36.2170871999 ], [ -115.1868546, 36.217084499899997 ], [ -115.1868519, 36.217084499899997 ], [ -115.1868519, 36.217081799900001 ], [ -115.1868492, 36.217081799900001 ], [ -115.1868492, 36.217070999900002 ], [ -115.1868438, 36.217070999900002 ], [ -115.1868438, 36.217068299899999 ], [ -115.1868411, 36.217068299899999 ], [ -115.1868411, 36.217065599900003 ], [ -115.1868357, 36.217065599900003 ], [ -115.1868357, 36.2170628999 ], [ -115.1868276, 36.2170628999 ], [ -115.1868276, 36.217060199899997 ], [ -115.1867925, 36.217060199899997 ], [ -115.1867925, 36.2170628999 ], [ -115.1867628, 36.2170628999 ], [ -115.1867628, 36.217065599900003 ], [ -115.1867574, 36.217065599900003 ], [ -115.1867574, 36.2170628999 ], [ -115.186752, 36.2170628999 ], [ -115.186752, 36.217057499900001 ], [ -115.1867493, 36.217057499900001 ], [ -115.1867493, 36.2170439999 ], [ -115.1867466, 36.2170439999 ], [ -115.1867466, 36.217035899899997 ], [ -115.1867439, 36.217035899899997 ], [ -115.1867439, 36.216979199900003 ], [ -115.1867412, 36.216979199900003 ], [ -115.1867412, 36.216962999899998 ], [ -115.1867385, 36.216962999899998 ], [ -115.1867385, 36.216954899900003 ], [ -115.1867358, 36.216954899900003 ], [ -115.1867358, 36.216941399900001 ], [ -115.1867331, 36.216941399900001 ], [ -115.1867331, 36.216925199900004 ], [ -115.1867304, 36.216925199900004 ], [ -115.1867304, 36.216906299900003 ], [ -115.1867277, 36.216906299900003 ], [ -115.1867277, 36.2168360999 ], [ -115.1867466, 36.2168360999 ], [ -115.1867466, 36.216833399900004 ], [ -115.1867736, 36.216833399900004 ], [ -115.1867736, 36.2168360999 ], [ -115.18686, 36.2168360999 ], [ -115.18686, 36.216838799900003 ], [ -115.1868816, 36.216838799900003 ], [ -115.1868816, 36.2168360999 ], [ -115.1869032, 36.2168360999 ], [ -115.1869032, 36.216833399900004 ], [ -115.1869464, 36.216833399900004 ], [ -115.1869464, 36.2168360999 ], [ -115.1869572, 36.2168360999 ], [ -115.1869572, 36.216838799900003 ], [ -115.1869599, 36.216838799900003 ], [ -115.1869599, 36.2168603999 ], [ -115.1869626, 36.2168603999 ], [ -115.1869626, 36.216876599899997 ], [ -115.1869653, 36.216876599899997 ], [ -115.1869653, 36.216881999900004 ], [ -115.186968, 36.216881999900004 ], [ -115.186968, 36.2168846999 ], [ -115.1870085, 36.2168846999 ], [ -115.1870085, 36.216881999900004 ], [ -115.1870193, 36.216881999900004 ], [ -115.1870193, 36.2168846999 ], [ -115.1870598, 36.2168846999 ], [ -115.1870598, 36.216881999900004 ], [ -115.1870652, 36.216881999900004 ], [ -115.1870652, 36.2168792999 ], [ -115.1870679, 36.2168792999 ], [ -115.1870679, 36.216871199899998 ], [ -115.1870706, 36.216871199899998 ], [ -115.1870706, 36.216852299899998 ], [ -115.1870679, 36.216852299899998 ], [ -115.1870679, 36.216841499899999 ], [ -115.1870652, 36.216841499899999 ], [ -115.1870652, 36.216825299900002 ], [ -115.1870625, 36.216825299900002 ], [ -115.1870625, 36.2168117999 ], [ -115.1870598, 36.2168117999 ], [ -115.1870598, 36.216806399900001 ], [ -115.1870571, 36.216806399900001 ], [ -115.1870571, 36.216787499900001 ], [ -115.1870544, 36.216787499900001 ], [ -115.1870544, 36.216738899900001 ], [ -115.1870571, 36.216738899900001 ], [ -115.1870571, 36.216706499899999 ], [ -115.1870544, 36.216706499899999 ], [ -115.1870544, 36.216684899900002 ], [ -115.1870571, 36.216684899900002 ], [ -115.1870571, 36.216671399900001 ], [ -115.1870544, 36.216671399900001 ], [ -115.1870544, 36.2164985999 ], [ -115.1870517, 36.2164985999 ], [ -115.1870517, 36.216463499900001 ], [ -115.1870544, 36.216463499900001 ], [ -115.1870544, 36.216436499899999 ], [ -115.1870571, 36.216436499899999 ], [ -115.1870571, 36.216420299900001 ], [ -115.1870652, 36.216420299900001 ], [ -115.1870652, 36.216417599900005 ], [ -115.1870679, 36.216417599900005 ], [ -115.1870679, 36.216414899900002 ], [ -115.1870706, 36.216414899900002 ], [ -115.1870706, 36.216412199899999 ], [ -115.1870733, 36.216412199899999 ], [ -115.1870733, 36.216409499900003 ], [ -115.187076, 36.216409499900003 ], [ -115.187076, 36.216404099900004 ], [ -115.1870787, 36.216404099900004 ], [ -115.1870787, 36.216401399900001 ], [ -115.1870814, 36.216401399900001 ], [ -115.1870814, 36.216398699900004 ], [ -115.1870841, 36.216398699900004 ], [ -115.1870841, 36.216393299899998 ], [ -115.1870868, 36.216393299899998 ], [ -115.1870868, 36.216390599900002 ], [ -115.1870895, 36.216390599900002 ], [ -115.1870895, 36.216387899899999 ], [ -115.1870922, 36.216387899899999 ], [ -115.1870922, 36.216379799900004 ], [ -115.1870949, 36.216379799900004 ], [ -115.1870949, 36.216377099900001 ], [ -115.18713, 36.216377099900001 ], [ -115.18713, 36.216374399900005 ], [ -115.1871516, 36.216374399900005 ], [ -115.1871516, 36.216371699900002 ], [ -115.1871732, 36.216371699900002 ], [ -115.1871732, 36.216368999899998 ], [ -115.1872002, 36.216368999899998 ], [ -115.1872002, 36.216366299900002 ], [ -115.1872218, 36.216366299900002 ], [ -115.1872218, 36.216368999899998 ], [ -115.187238, 36.216368999899998 ], [ -115.187238, 36.216366299900002 ], [ -115.1872434, 36.216366299900002 ], [ -115.1872434, 36.216368999899998 ], [ -115.1872596, 36.216368999899998 ], [ -115.1872596, 36.216371699900002 ], [ -115.1872812, 36.216371699900002 ], [ -115.1872812, 36.216374399900005 ], [ -115.1872893, 36.216374399900005 ], [ -115.1872893, 36.216371699900002 ], [ -115.1872974, 36.216371699900002 ], [ -115.1872974, 36.216374399900005 ], [ -115.1873163, 36.216374399900005 ], [ -115.1873163, 36.216377099900001 ], [ -115.1873244, 36.216377099900001 ], [ -115.1873244, 36.216379799900004 ], [ -115.1873298, 36.216379799900004 ], [ -115.1873298, 36.2163824999 ], [ -115.1873595, 36.2163824999 ], [ -115.1873595, 36.216385199900003 ], [ -115.1873757, 36.216385199900003 ], [ -115.1873757, 36.216387899899999 ], [ -115.1873811, 36.216387899899999 ], [ -115.1873811, 36.216393299899998 ], [ -115.1873838, 36.216393299899998 ], [ -115.1873838, 36.216401399900001 ], [ -115.1873811, 36.216401399900001 ], [ -115.1873811, 36.216420299900001 ], [ -115.1873865, 36.216420299900001 ], [ -115.1873865, 36.216428399900003 ], [ -115.1873838, 36.216428399900003 ], [ -115.1873838, 36.216439199900002 ], [ -115.1873865, 36.216439199900002 ], [ -115.1873865, 36.216466199900005 ], [ -115.1873892, 36.216466199900005 ], [ -115.1873892, 36.216520199900003 ], [ -115.1873919, 36.216520199900003 ], [ -115.1873919, 36.216522899899999 ], [ -115.1873892, 36.216522899899999 ], [ -115.1873892, 36.2165417999 ], [ -115.1873865, 36.2165417999 ], [ -115.1873865, 36.2165606999 ], [ -115.1873838, 36.2165606999 ], [ -115.1873838, 36.216571499899999 ], [ -115.1873811, 36.216571499899999 ], [ -115.1873811, 36.216660599900003 ], [ -115.1873838, 36.216660599900003 ], [ -115.1873838, 36.216679499900003 ], [ -115.1873865, 36.216679499900003 ], [ -115.1873865, 36.216706499899999 ], [ -115.1873892, 36.216706499899999 ], [ -115.1873892, 36.216733499900002 ], [ -115.1873919, 36.216733499900002 ], [ -115.1873919, 36.216746999900003 ], [ -115.1873892, 36.216746999900003 ], [ -115.1873892, 36.216763199900001 ], [ -115.1873865, 36.216763199900001 ], [ -115.1873865, 36.216765899900004 ], [ -115.1873838, 36.216765899900004 ], [ -115.1873838, 36.216773999899999 ], [ -115.1873811, 36.216773999899999 ], [ -115.1873811, 36.216784799899997 ], [ -115.1873784, 36.216784799899997 ], [ -115.1873784, 36.216806399900001 ], [ -115.1873757, 36.216806399900001 ], [ -115.1873757, 36.216822599899999 ], [ -115.1873784, 36.216822599899999 ], [ -115.1873784, 36.216830699900001 ], [ -115.1873757, 36.216830699900001 ], [ -115.1873757, 36.216841499899999 ], [ -115.1873784, 36.216841499899999 ], [ -115.1873784, 36.216854999900001 ], [ -115.1873811, 36.216854999900001 ], [ -115.1873811, 36.2168792999 ], [ -115.1873784, 36.2168792999 ], [ -115.1873784, 36.216881999900004 ], [ -115.1873757, 36.216881999900004 ], [ -115.1873757, 36.216887399900003 ], [ -115.187373, 36.216887399900003 ], [ -115.187373, 36.216898199900001 ], [ -115.1873703, 36.216898199900001 ], [ -115.1873703, 36.216911699900002 ], [ -115.1873676, 36.216911699900002 ], [ -115.1873676, 36.216917099900002 ], [ -115.1873649, 36.216917099900002 ], [ -115.1873649, 36.216919799899998 ], [ -115.1873622, 36.216919799899998 ], [ -115.1873622, 36.216922499900001 ], [ -115.1873595, 36.216922499900001 ], [ -115.1873595, 36.2169278999 ], [ -115.1873622, 36.2169278999 ], [ -115.1873622, 36.216933299899999 ], [ -115.1873595, 36.216933299899999 ], [ -115.1873595, 36.216957599899999 ], [ -115.1873568, 36.216957599899999 ], [ -115.1873568, 36.216973799900003 ], [ -115.1873595, 36.216973799900003 ], [ -115.1873595, 36.217016999899997 ], [ -115.1873568, 36.217016999899997 ], [ -115.1873568, 36.217033199900001 ], [ -115.1873541, 36.217033199900001 ], [ -115.1873541, 36.217035899899997 ], [ -115.1873487, 36.217035899899997 ], [ -115.1873487, 36.2170385999 ], [ -115.1873433, 36.2170385999 ], [ -115.1873433, 36.217041299900004 ], [ -115.1873379, 36.217041299900004 ], [ -115.1873379, 36.2170439999 ], [ -115.1873325, 36.2170439999 ], [ -115.1873325, 36.217046699900003 ], [ -115.1873298, 36.217046699900003 ], [ -115.1873298, 36.217052099900002 ], [ -115.1873271, 36.217052099900002 ], [ -115.1873271, 36.217068299899999 ], [ -115.1873244, 36.217068299899999 ], [ -115.1873244, 36.217081799900001 ], [ -115.1873217, 36.217081799900001 ], [ -115.1873217, 36.217084499899997 ], [ -115.1873082, 36.217084499899997 ], [ -115.1873082, 36.2170871999 ], [ -115.1872461, 36.2170871999 ], [ -115.1872461, 36.217089899900003 ], [ -115.187238, 36.217089899900003 ], [ -115.187238, 36.217092599899999 ], [ -115.1872353, 36.217092599899999 ], [ -115.1872353, 36.217095299900002 ], [ -115.1872326, 36.217095299900002 ], [ -115.1872326, 36.217100699900001 ], [ -115.1872299, 36.217100699900001 ], [ -115.1872299, 36.217106099900001 ], [ -115.1872272, 36.217106099900001 ], [ -115.1872272, 36.217108799899997 ], [ -115.1872245, 36.217108799899997 ], [ -115.1872245, 36.2171114999 ], [ -115.1872137, 36.2171114999 ], [ -115.1872137, 36.217114199900003 ], [ -115.1870706, 36.217114199900003 ], [ -115.1870706, 36.217116899899999 ], [ -115.1869977, 36.217116899899999 ], [ -115.1869977, 36.217119599900002 ] ] ] } },
{ "type": "Feature", "properties": { "value": 255.0 }, "geometry": { "type": "Polygon", "coordinates": [ [ [ -115.1877807, 36.216371699900002 ], [ -115.1877429, 36.216371699900002 ], [ -115.1877429, 36.216368999899998 ], [ -115.1877267, 36.216368999899998 ], [ -115.1877267, 36.216366299900002 ], [ -115.187724, 36.216366299900002 ], [ -115.187724, 36.216341999900003 ], [ -115.1877213, 36.216341999900003 ], [ -115.1877213, 36.216336599900004 ], [ -115.187724, 36.216336599900004 ], [ -115.187724, 36.216323099900002 ], [ -115.1877267, 36.216323099900002 ], [ -115.1877267, 36.216320399899999 ], [ -115.1877429, 36.216320399899999 ], [ -115.1877429, 36.216317699900003 ], [ -115.1877672, 36.216317699900003 ], [ -115.1877672, 36.216320399899999 ], [ -115.187778, 36.216320399899999 ], [ -115.187778, 36.216323099900002 ], [ -115.1877807, 36.216323099900002 ], [ -115.1877807, 36.216331199900004 ], [ -115.1877834, 36.216331199900004 ], [ -115.1877834, 36.216368999899998 ], [ -115.1877807, 36.216368999899998 ], [ -115.1877807, 36.216371699900002 ] ] ] } },
{ "type": "Feature", "properties": { "value": 255.0 }, "geometry": { "type": "Polygon", "coordinates": [ [ [ -115.1878752, 36.216690299900002 ], [ -115.187832, 36.216690299900002 ], [ -115.187832, 36.216687599899998 ], [ -115.1878293, 36.216687599899998 ], [ -115.1878293, 36.216684899900002 ], [ -115.1878266, 36.216684899900002 ], [ -115.1878266, 36.216682199899999 ], [ -115.1878239, 36.216682199899999 ], [ -115.1878239, 36.216660599900003 ], [ -115.1878212, 36.216660599900003 ], [ -115.1878212, 36.216579599900001 ], [ -115.1878185, 36.216579599900001 ], [ -115.1878185, 36.2165417999 ], [ -115.1878158, 36.2165417999 ], [ -115.1878158, 36.216525599900002 ], [ -115.1878131, 36.216525599900002 ], [ -115.1878131, 36.216520199900003 ], [ -115.1878104, 36.216520199900003 ], [ -115.1878104, 36.216509399899998 ], [ -115.1878077, 36.216509399899998 ], [ -115.1878077, 36.216471599900004 ], [ -115.187805, 36.216471599900004 ], [ -115.187805, 36.216401399900001 ], [ -115.1878077, 36.216401399900001 ], [ -115.1878077, 36.216387899899999 ], [ -115.1878104, 36.216387899899999 ], [ -115.1878104, 36.216355499900004 ], [ -115.1878077, 36.216355499900004 ], [ -115.1878077, 36.216350099900005 ], [ -115.1878104, 36.216350099900005 ], [ -115.1878104, 36.216274499900003 ], [ -115.1878131, 36.216274499900003 ], [ -115.1878131, 36.216269099900003 ], [ -115.1878185, 36.216269099900003 ], [ -115.1878185, 36.2162663999 ], [ -115.1878212, 36.2162663999 ], [ -115.1878212, 36.216263699900004 ], [ -115.1878239, 36.216263699900004 ], [ -115.1878239, 36.216260999900001 ], [ -115.1878266, 36.216260999900001 ], [ -115.1878266, 36.216258299900005 ], [ -115.187832, 36.216258299900005 ], [ -115.187832, 36.216255599900002 ], [ -115.1879643, 36.216255599900002 ], [ -115.1879643, 36.216252899899999 ], [ -115.1879697, 36.216252899899999 ], [ -115.1879697, 36.216255599900002 ], [ -115.1880561, 36.216255599900002 ], [ -115.1880561, 36.216252899899999 ], [ -115.1880615, 36.216252899899999 ], [ -115.1880615, 36.216255599900002 ], [ -115.18806690000001, 36.216255599900002 ], [ -115.18806690000001, 36.216252899899999 ], [ -115.1880885, 36.216252899899999 ], [ -115.1880885, 36.216255599900002 ], [ -115.1881182, 36.216255599900002 ], [ -115.1881182, 36.216258299900005 ], [ -115.1881263, 36.216258299900005 ], [ -115.1881263, 36.216260999900001 ], [ -115.188129, 36.216260999900001 ], [ -115.188129, 36.216263699900004 ], [ -115.18813440000001, 36.216263699900004 ], [ -115.18813440000001, 36.2162663999 ], [ -115.1881371, 36.2162663999 ], [ -115.1881371, 36.216287999900004 ], [ -115.1881398, 36.216287999900004 ], [ -115.1881398, 36.216317699900003 ], [ -115.1881371, 36.216317699900003 ], [ -115.1881371, 36.216344699899999 ], [ -115.1881398, 36.216344699899999 ], [ -115.1881398, 36.216347399900002 ], [ -115.1881371, 36.216347399900002 ], [ -115.1881371, 36.216352799900001 ], [ -115.1881398, 36.216352799900001 ], [ -115.1881398, 36.216412199899999 ], [ -115.1881371, 36.216412199899999 ], [ -115.1881371, 36.216420299900001 ], [ -115.188129, 36.216420299900001 ], [ -115.188129, 36.2164256999 ], [ -115.1881317, 36.2164256999 ], [ -115.1881317, 36.216433799900003 ], [ -115.18813440000001, 36.216433799900003 ], [ -115.18813440000001, 36.216460799899998 ], [ -115.1881371, 36.216460799899998 ], [ -115.1881371, 36.216468899900001 ], [ -115.1881398, 36.216468899900001 ], [ -115.1881398, 36.216471599900004 ], [ -115.1881425, 36.216471599900004 ], [ -115.1881425, 36.216476999900003 ], [ -115.1881452, 36.216476999900003 ], [ -115.1881452, 36.2164931999 ], [ -115.1881425, 36.2164931999 ], [ -115.1881425, 36.2164985999 ], [ -115.1881452, 36.2164985999 ], [ -115.1881452, 36.216522899899999 ], [ -115.1881425, 36.216522899899999 ], [ -115.1881425, 36.2165417999 ], [ -115.1881398, 36.2165417999 ], [ -115.1881398, 36.2165606999 ], [ -115.1881425, 36.2165606999 ], [ -115.1881425, 36.216576899899998 ], [ -115.1881452, 36.216576899899998 ], [ -115.1881452, 36.216593099900003 ], [ -115.1881425, 36.216593099900003 ], [ -115.1881425, 36.216598499900002 ], [ -115.1881452, 36.216598499900002 ], [ -115.1881452, 36.216606599900004 ], [ -115.1881425, 36.216606599900004 ], [ -115.1881425, 36.2166524999 ], [ -115.1881398, 36.2166524999 ], [ -115.1881398, 36.216668699899998 ], [ -115.1881371, 36.216668699899998 ], [ -115.1881371, 36.216674099900004 ], [ -115.1881317, 36.216674099900004 ], [ -115.1881317, 36.2166767999 ], [ -115.1881263, 36.2166767999 ], [ -115.1881263, 36.216679499900003 ], [ -115.1880804, 36.216679499900003 ], [ -115.1880804, 36.216682199899999 ], [ -115.1880129, 36.216682199899999 ], [ -115.1880129, 36.216684899900002 ], [ -115.1879751, 36.216684899900002 ], [ -115.1879751, 36.216687599899998 ], [ -115.1879454, 36.216687599899998 ], [ -115.1879454, 36.216684899900002 ], [ -115.1879373, 36.216684899900002 ], [ -115.1879373, 36.216687599899998 ], [ -115.1879319, 36.216687599899998 ], [ -115.1879319, 36.216684899900002 ], [ -115.1879211, 36.216684899900002 ], [ -115.1879211, 36.216687599899998 ], [ -115.1878752, 36.216687599899998 ], [ -115.1878752, 36.216690299900002 ] ] ] } }
]
}
