{
"type": "FeatureCollection",
"crs": { "type": "name", "properties": { "name": "urn:ogc:def:crs:OGC:1.3:CRS84" } },
"features": [
{ "type": "Feature", "properties": { "value": 255.0 }, "geometry": { "type": "Polygon", "coordinates": [ [ [ -115.1969553, 36.210825899900001 ], [ -115.1969526, 36.210825899900001 ], [ -115.1969526, 36.210798899899999 ], [ -115.196958, 36.210798899899999 ], [ -115.196958, 36.210820499900002 ], [ -115.1969553, 36.210820499900002 ], [ -115.1969553, 36.210825899900001 ] ] ] } }
]
}
