{
"type": "FeatureCollection",
"crs": { "type": "name", "properties": { "name": "urn:ogc:def:crs:OGC:1.3:CRS84" } },
"features": [
{ "type": "Feature", "properties": { "value": 255.0 }, "geometry": { "type": "Polygon", "coordinates": [ [ [ -115.2218466, 36.135287999700004 ], [ -115.2218115, 36.135287999700004 ], [ -115.2218115, 36.135285299700001 ], [ -115.2218034, 36.135285299700001 ], [ -115.2218034, 36.135287999700004 ], [ -115.2218007, 36.135287999700004 ], [ -115.2218007, 36.135285299700001 ], [ -115.2217953, 36.135285299700001 ], [ -115.2217953, 36.135287999700004 ], [ -115.2217737, 36.135287999700004 ], [ -115.2217737, 36.135285299700001 ], [ -115.221771, 36.135285299700001 ], [ -115.221771, 36.135266399700001 ], [ -115.2217683, 36.135266399700001 ], [ -115.2217683, 36.135263699700005 ], [ -115.2217791, 36.135263699700005 ], [ -115.2217791, 36.135260999700002 ], [ -115.2217899, 36.135260999700002 ], [ -115.2217899, 36.135263699700005 ], [ -115.2218034, 36.135263699700005 ], [ -115.2218034, 36.135260999700002 ], [ -115.2218115, 36.135260999700002 ], [ -115.2218115, 36.135258299700006 ], [ -115.2218142, 36.135258299700006 ], [ -115.2218142, 36.135255599700002 ], [ -115.2218169, 36.135255599700002 ], [ -115.2218169, 36.135252899700006 ], [ -115.2218196, 36.135252899700006 ], [ -115.2218196, 36.1352474997 ], [ -115.2218331, 36.1352474997 ], [ -115.2218331, 36.135244799700004 ], [ -115.2218466, 36.135244799700004 ], [ -115.2218466, 36.135250199700003 ], [ -115.2218493, 36.135250199700003 ], [ -115.2218493, 36.135285299700001 ], [ -115.2218466, 36.135285299700001 ], [ -115.2218466, 36.135287999700004 ] ] ] } },
{ "type": "Feature", "properties": { "value": 255.0 }, "geometry": { "type": "Polygon", "coordinates": [ [ [ -115.2216765, 36.135287999700004 ], [ -115.2216495, 36.135287999700004 ], [ -115.2216495, 36.135285299700001 ], [ -115.2216468, 36.135285299700001 ], [ -115.2216468, 36.135282599700005 ], [ -115.2216414, 36.135282599700005 ], [ -115.2216414, 36.135279899700002 ], [ -115.221555, 36.135279899700002 ], [ -115.221555, 36.135277199700006 ], [ -115.2215523, 36.135277199700006 ], [ -115.2215523, 36.135231299700003 ], [ -115.221555, 36.135231299700003 ], [ -115.221555, 36.135174599700001 ], [ -115.2215523, 36.135174599700001 ], [ -115.2215523, 36.135152999700004 ], [ -115.221555, 36.135152999700004 ], [ -115.221555, 36.135150299700001 ], [ -115.2215577, 36.135150299700001 ], [ -115.2215577, 36.135147599700005 ], [ -115.2215604, 36.135147599700005 ], [ -115.2215604, 36.135144899700002 ], [ -115.2215658, 36.135144899700002 ], [ -115.2215658, 36.135142199700006 ], [ -115.2215712, 36.135142199700006 ], [ -115.2215712, 36.135139499700003 ], [ -115.2215766, 36.135139499700003 ], [ -115.2215766, 36.135142199700006 ], [ -115.2216036, 36.135142199700006 ], [ -115.2216036, 36.135139499700003 ], [ -115.2216198, 36.135139499700003 ], [ -115.2216198, 36.1351367997 ], [ -115.2216279, 36.1351367997 ], [ -115.2216279, 36.135139499700003 ], [ -115.2216333, 36.135139499700003 ], [ -115.2216333, 36.135144899700002 ], [ -115.2216549, 36.135144899700002 ], [ -115.2216549, 36.135147599700005 ], [ -115.221663, 36.135147599700005 ], [ -115.221663, 36.135150299700001 ], [ -115.2216711, 36.135150299700001 ], [ -115.2216711, 36.135152999700004 ], [ -115.2216738, 36.135152999700004 ], [ -115.2216738, 36.1351556997 ], [ -115.2217062, 36.1351556997 ], [ -115.2217062, 36.135158399700003 ], [ -115.2217116, 36.135158399700003 ], [ -115.2217116, 36.135161099700007 ], [ -115.2218115, 36.135161099700007 ], [ -115.2218115, 36.135163799700003 ], [ -115.2218142, 36.135163799700003 ], [ -115.2218142, 36.1351799997 ], [ -115.2218169, 36.1351799997 ], [ -115.2218169, 36.135233999700006 ], [ -115.2218142, 36.135233999700006 ], [ -115.2218142, 36.135236699700002 ], [ -115.2217548, 36.135236699700002 ], [ -115.2217548, 36.135239399700005 ], [ -115.2217305, 36.135239399700005 ], [ -115.2217305, 36.135242099700001 ], [ -115.2217224, 36.135242099700001 ], [ -115.2217224, 36.135244799700004 ], [ -115.2217197, 36.135244799700004 ], [ -115.2217197, 36.135258299700006 ], [ -115.221717, 36.135258299700006 ], [ -115.221717, 36.135285299700001 ], [ -115.2216765, 36.135285299700001 ], [ -115.2216765, 36.135287999700004 ] ] ] } },
{ "type": "Feature", "properties": { "value": 255.0 }, "geometry": { "type": "Polygon", "coordinates": [ [ [ -115.2225324, 36.135285299700001 ], [ -115.2225, 36.135285299700001 ], [ -115.2225, 36.135282599700005 ], [ -115.2224973, 36.135282599700005 ], [ -115.2224973, 36.135260999700002 ], [ -115.2224946, 36.135260999700002 ], [ -115.2224946, 36.135231299700003 ], [ -115.2224973, 36.135231299700003 ], [ -115.2224973, 36.135190799700005 ], [ -115.2224946, 36.135190799700005 ], [ -115.2224946, 36.135166499700006 ], [ -115.2224919, 36.135166499700006 ], [ -115.2224919, 36.135139499700003 ], [ -115.2224946, 36.135139499700003 ], [ -115.2224946, 36.1351367997 ], [ -115.2225081, 36.1351367997 ], [ -115.2225081, 36.135134099700004 ], [ -115.222554, 36.135134099700004 ], [ -115.222554, 36.135131399700001 ], [ -115.2225594, 36.135131399700001 ], [ -115.2225594, 36.135134099700004 ], [ -115.2225648, 36.135134099700004 ], [ -115.2225648, 36.135131399700001 ], [ -115.2225891, 36.135131399700001 ], [ -115.2225891, 36.135128699700005 ], [ -115.2225918, 36.135128699700005 ], [ -115.2225918, 36.135125999700001 ], [ -115.2225972, 36.135125999700001 ], [ -115.2225972, 36.135120599700002 ], [ -115.2225999, 36.135120599700002 ], [ -115.2225999, 36.135117899700006 ], [ -115.2226107, 36.135117899700006 ], [ -115.2226107, 36.135115199700003 ], [ -115.2226215, 36.135115199700003 ], [ -115.2226215, 36.1351124997 ], [ -115.2226782, 36.1351124997 ], [ -115.2226782, 36.135115199700003 ], [ -115.2226917, 36.135115199700003 ], [ -115.2226917, 36.1351124997 ], [ -115.2226998, 36.1351124997 ], [ -115.2226998, 36.135109799700004 ], [ -115.2227511, 36.135109799700004 ], [ -115.2227511, 36.135107099700001 ], [ -115.2228024, 36.135107099700001 ], [ -115.2228024, 36.135109799700004 ], [ -115.2228051, 36.135109799700004 ], [ -115.2228051, 36.135152999700004 ], [ -115.2228078, 36.135152999700004 ], [ -115.2228078, 36.135201599700004 ], [ -115.2228051, 36.135201599700004 ], [ -115.2228051, 36.1352042997 ], [ -115.2227997, 36.1352042997 ], [ -115.2227997, 36.135206999700003 ], [ -115.2227754, 36.135206999700003 ], [ -115.2227754, 36.1352042997 ], [ -115.2227646, 36.1352042997 ], [ -115.2227646, 36.135206999700003 ], [ -115.2227565, 36.135206999700003 ], [ -115.2227565, 36.1352042997 ], [ -115.2227511, 36.1352042997 ], [ -115.2227511, 36.135206999700003 ], [ -115.2227457, 36.135206999700003 ], [ -115.2227457, 36.135228599700007 ], [ -115.222743, 36.135228599700007 ], [ -115.222743, 36.135231299700003 ], [ -115.2227241, 36.135231299700003 ], [ -115.2227241, 36.135233999700006 ], [ -115.2227133, 36.135233999700006 ], [ -115.2227133, 36.135236699700002 ], [ -115.2227079, 36.135236699700002 ], [ -115.2227079, 36.135239399700005 ], [ -115.2227106, 36.135239399700005 ], [ -115.2227106, 36.1352474997 ], [ -115.2227079, 36.1352474997 ], [ -115.2227079, 36.135255599700002 ], [ -115.2227106, 36.135255599700002 ], [ -115.2227106, 36.135258299700006 ], [ -115.2227079, 36.135258299700006 ], [ -115.2227079, 36.1352717997 ], [ -115.2227052, 36.1352717997 ], [ -115.2227052, 36.135274499700003 ], [ -115.2227025, 36.135274499700003 ], [ -115.2227025, 36.135277199700006 ], [ -115.2226917, 36.135277199700006 ], [ -115.2226917, 36.135279899700002 ], [ -115.2226485, 36.135279899700002 ], [ -115.2226485, 36.135277199700006 ], [ -115.2225864, 36.135277199700006 ], [ -115.2225864, 36.135279899700002 ], [ -115.222554, 36.135279899700002 ], [ -115.222554, 36.135282599700005 ], [ -115.2225324, 36.135282599700005 ], [ -115.2225324, 36.135285299700001 ] ] ] } },
{ "type": "Feature", "properties": { "value": 255.0 }, "geometry": { "type": "Polygon", "coordinates": [ [ [ -115.2224919, 36.134699399700004 ], [ -115.2224811, 36.134699399700004 ], [ -115.2224811, 36.134696699700001 ], [ -115.2224703, 36.134696699700001 ], [ -115.2224703, 36.134699399700004 ], [ -115.2224622, 36.134699399700004 ], [ -115.2224622, 36.134696699700001 ], [ -115.2224568, 36.134696699700001 ], [ -115.2224568, 36.134691299700002 ], [ -115.2224541, 36.134691299700002 ], [ -115.2224541, 36.134653499700001 ], [ -115.2224568, 36.134653499700001 ], [ -115.2224568, 36.134645399700005 ], [ -115.2224595, 36.134645399700005 ], [ -115.2224595, 36.134642699700002 ], [ -115.2224892, 36.134642699700002 ], [ -115.2224892, 36.134645399700005 ], [ -115.2224919, 36.134645399700005 ], [ -115.2224919, 36.134648099700001 ], [ -115.2224946, 36.134648099700001 ], [ -115.2224946, 36.134696699700001 ], [ -115.2224919, 36.134696699700001 ], [ -115.2224919, 36.134699399700004 ] ] ] } },
{ "type": "Feature", "properties": { "value": 255.0 }, "geometry": { "type": "Polygon", "coordinates": [ [ [ -115.2223137, 36.134807399700001 ], [ -115.2222651, 36.134807399700001 ], [ -115.2222651, 36.134804699700005 ], [ -115.2222624, 36.134804699700005 ], [ -115.2222624, 36.1347506997 ], [ -115.2222597, 36.1347506997 ], [ -115.2222597, 36.134747999700004 ], [ -115.2222543, 36.134747999700004 ], [ -115.2222543, 36.1347452997 ], [ -115.2222435, 36.1347452997 ], [ -115.2222435, 36.134747999700004 ], [ -115.2221598, 36.134747999700004 ], [ -115.2221598, 36.1347452997 ], [ -115.2221571, 36.1347452997 ], [ -115.2221571, 36.1347263997 ], [ -115.2221544, 36.1347263997 ], [ -115.2221544, 36.134704799700003 ], [ -115.2221517, 36.134704799700003 ], [ -115.2221517, 36.134688599700006 ], [ -115.222149, 36.134688599700006 ], [ -115.222149, 36.134685899700003 ], [ -115.2221517, 36.134685899700003 ], [ -115.2221517, 36.134656199700004 ], [ -115.222149, 36.134656199700004 ], [ -115.222149, 36.134653499700001 ], [ -115.2221517, 36.134653499700001 ], [ -115.2221517, 36.134623799700002 ], [ -115.222149, 36.134623799700002 ], [ -115.222149, 36.134621099700006 ], [ -115.2221517, 36.134621099700006 ], [ -115.2221517, 36.134618399700003 ], [ -115.2221544, 36.134618399700003 ], [ -115.2221544, 36.134615699699999 ], [ -115.2221733, 36.134615699699999 ], [ -115.2221733, 36.134612999700003 ], [ -115.2222381, 36.134612999700003 ], [ -115.2222381, 36.134615699699999 ], [ -115.2222867, 36.134615699699999 ], [ -115.2222867, 36.134618399700003 ], [ -115.2222894, 36.134618399700003 ], [ -115.2222894, 36.134621099700006 ], [ -115.2223218, 36.134621099700006 ], [ -115.2223218, 36.134618399700003 ], [ -115.2223299, 36.134618399700003 ], [ -115.2223299, 36.134615699699999 ], [ -115.222338, 36.134615699699999 ], [ -115.222338, 36.134612999700003 ], [ -115.2223731, 36.134612999700003 ], [ -115.2223731, 36.134615699699999 ], [ -115.2223785, 36.134615699699999 ], [ -115.2223785, 36.134612999700003 ], [ -115.2223839, 36.134612999700003 ], [ -115.2223839, 36.134615699699999 ], [ -115.2223866, 36.134615699699999 ], [ -115.2223866, 36.134621099700006 ], [ -115.2223893, 36.134621099700006 ], [ -115.2223893, 36.134623799700002 ], [ -115.2223866, 36.134623799700002 ], [ -115.2223866, 36.134631899700004 ], [ -115.2223893, 36.134631899700004 ], [ -115.2223893, 36.134675099700004 ], [ -115.222392, 36.134675099700004 ], [ -115.222392, 36.1347452997 ], [ -115.2223947, 36.1347452997 ], [ -115.2223947, 36.134785799700005 ], [ -115.2223974, 36.134785799700005 ], [ -115.2223974, 36.134799299699999 ], [ -115.2223947, 36.134799299699999 ], [ -115.2223947, 36.134801999700002 ], [ -115.2223731, 36.134801999700002 ], [ -115.2223731, 36.134804699700005 ], [ -115.2223137, 36.134804699700005 ], [ -115.2223137, 36.134807399700001 ] ] ] } },
{ "type": "Feature", "properties": { "value": 255.0 }, "geometry": { "type": "Polygon", "coordinates": [ [ [ -115.2215577, 36.134704799700003 ], [ -115.2215523, 36.134704799700003 ], [ -115.2215523, 36.1347020997 ], [ -115.2215226, 36.1347020997 ], [ -115.2215226, 36.134564399700004 ], [ -115.2215253, 36.134564399700004 ], [ -115.2215253, 36.134561699700001 ], [ -115.2215766, 36.134561699700001 ], [ -115.2215766, 36.134564399700004 ], [ -115.2215955, 36.134564399700004 ], [ -115.2215955, 36.134561699700001 ], [ -115.2216036, 36.134561699700001 ], [ -115.2216036, 36.134550899700002 ], [ -115.2216063, 36.134550899700002 ], [ -115.2216063, 36.134521199700004 ], [ -115.2216117, 36.134521199700004 ], [ -115.2216117, 36.1345184997 ], [ -115.2216171, 36.1345184997 ], [ -115.2216171, 36.134515799700004 ], [ -115.2216198, 36.134515799700004 ], [ -115.2216198, 36.134513099700001 ], [ -115.2216387, 36.134513099700001 ], [ -115.2216387, 36.134515799700004 ], [ -115.2216414, 36.134515799700004 ], [ -115.2216414, 36.134513099700001 ], [ -115.221663, 36.134513099700001 ], [ -115.221663, 36.134510399700005 ], [ -115.2216927, 36.134510399700005 ], [ -115.2216927, 36.134507699700002 ], [ -115.2217143, 36.134507699700002 ], [ -115.2217143, 36.134504999699999 ], [ -115.2217629, 36.134504999699999 ], [ -115.2217629, 36.134510399700005 ], [ -115.2217656, 36.134510399700005 ], [ -115.2217656, 36.134515799700004 ], [ -115.2217683, 36.134515799700004 ], [ -115.2217683, 36.134521199700004 ], [ -115.2217737, 36.134521199700004 ], [ -115.2217737, 36.1345238997 ], [ -115.221798, 36.1345238997 ], [ -115.221798, 36.134526599700003 ], [ -115.2218682, 36.134526599700003 ], [ -115.2218682, 36.134529299699999 ], [ -115.2218709, 36.134529299699999 ], [ -115.2218709, 36.134545499700003 ], [ -115.2218736, 36.134545499700003 ], [ -115.2218736, 36.134569799700003 ], [ -115.2218763, 36.134569799700003 ], [ -115.2218763, 36.134594099700003 ], [ -115.2218736, 36.134594099700003 ], [ -115.2218736, 36.134596799699999 ], [ -115.2218709, 36.134596799699999 ], [ -115.2218709, 36.134599499700002 ], [ -115.2218412, 36.134599499700002 ], [ -115.2218412, 36.134602199700005 ], [ -115.2217845, 36.134602199700005 ], [ -115.2217845, 36.134604899700001 ], [ -115.2217818, 36.134604899700001 ], [ -115.2217818, 36.1346102997 ], [ -115.2217791, 36.1346102997 ], [ -115.2217791, 36.1346777997 ], [ -115.2217764, 36.1346777997 ], [ -115.2217764, 36.1346831997 ], [ -115.2217737, 36.1346831997 ], [ -115.2217737, 36.134685899700003 ], [ -115.2217548, 36.134685899700003 ], [ -115.2217548, 36.134688599700006 ], [ -115.2217359, 36.134688599700006 ], [ -115.2217359, 36.134691299700002 ], [ -115.2217251, 36.134691299700002 ], [ -115.2217251, 36.134693999700005 ], [ -115.221717, 36.134693999700005 ], [ -115.221717, 36.134696699700001 ], [ -115.2217062, 36.134696699700001 ], [ -115.2217062, 36.134699399700004 ], [ -115.2217035, 36.134699399700004 ], [ -115.2217035, 36.134696699700001 ], [ -115.2217008, 36.134696699700001 ], [ -115.2217008, 36.134699399700004 ], [ -115.221663, 36.134699399700004 ], [ -115.221663, 36.134696699700001 ], [ -115.2216576, 36.134696699700001 ], [ -115.2216576, 36.134693999700005 ], [ -115.2216522, 36.134693999700005 ], [ -115.2216522, 36.134691299700002 ], [ -115.2216495, 36.134691299700002 ], [ -115.2216495, 36.134675099700004 ], [ -115.2216468, 36.134675099700004 ], [ -115.2216468, 36.134672399700001 ], [ -115.2216279, 36.134672399700001 ], [ -115.2216279, 36.134675099700004 ], [ -115.2216252, 36.134675099700004 ], [ -115.2216252, 36.134691299700002 ], [ -115.2216225, 36.134691299700002 ], [ -115.2216225, 36.1347020997 ], [ -115.2216117, 36.1347020997 ], [ -115.2216117, 36.134699399700004 ], [ -115.2216009, 36.134699399700004 ], [ -115.2216009, 36.1347020997 ], [ -115.2215577, 36.1347020997 ], [ -115.2215577, 36.134704799700003 ] ] ] } },
{ "type": "Feature", "properties": { "value": 255.0 }, "geometry": { "type": "Polygon", "coordinates": [ [ [ -115.2223785, 36.134553599700006 ], [ -115.2223677, 36.134553599700006 ], [ -115.2223677, 36.134550899700002 ], [ -115.2223596, 36.134550899700002 ], [ -115.2223596, 36.134548199699999 ], [ -115.2223488, 36.134548199699999 ], [ -115.2223488, 36.134545499700003 ], [ -115.2223353, 36.134545499700003 ], [ -115.2223353, 36.134540099700004 ], [ -115.2223299, 36.134540099700004 ], [ -115.2223299, 36.134537399700001 ], [ -115.2223272, 36.134537399700001 ], [ -115.2223272, 36.134534699700005 ], [ -115.2223245, 36.134534699700005 ], [ -115.2223245, 36.134531999700002 ], [ -115.2223218, 36.134531999700002 ], [ -115.2223218, 36.134526599700003 ], [ -115.2223191, 36.134526599700003 ], [ -115.2223191, 36.134515799700004 ], [ -115.2223218, 36.134515799700004 ], [ -115.2223218, 36.134502299700003 ], [ -115.2223191, 36.134502299700003 ], [ -115.2223191, 36.134496899700004 ], [ -115.2223218, 36.134496899700004 ], [ -115.2223218, 36.134494199700001 ], [ -115.2223272, 36.134494199700001 ], [ -115.2223272, 36.134496899700004 ], [ -115.2223299, 36.134496899700004 ], [ -115.2223299, 36.134491499700005 ], [ -115.2223353, 36.134491499700005 ], [ -115.2223353, 36.134488799700001 ], [ -115.2223407, 36.134488799700001 ], [ -115.2223407, 36.134486099700005 ], [ -115.2223488, 36.134486099700005 ], [ -115.2223488, 36.134483399700002 ], [ -115.2223515, 36.134483399700002 ], [ -115.2223515, 36.134480699699999 ], [ -115.2223569, 36.134480699699999 ], [ -115.2223569, 36.134477999700003 ], [ -115.2223542, 36.134477999700003 ], [ -115.2223542, 36.134472599700004 ], [ -115.2223623, 36.134472599700004 ], [ -115.2223623, 36.134469899700001 ], [ -115.2223704, 36.134469899700001 ], [ -115.2223704, 36.134472599700004 ], [ -115.2223731, 36.134472599700004 ], [ -115.2223731, 36.1344752997 ], [ -115.2223704, 36.1344752997 ], [ -115.2223704, 36.134477999700003 ], [ -115.2223731, 36.134477999700003 ], [ -115.2223731, 36.134480699699999 ], [ -115.2223785, 36.134480699699999 ], [ -115.2223785, 36.134491499700005 ], [ -115.2223812, 36.134491499700005 ], [ -115.2223812, 36.134494199700001 ], [ -115.2223785, 36.134494199700001 ], [ -115.2223785, 36.1344995997 ], [ -115.2223812, 36.1344995997 ], [ -115.2223812, 36.134507699700002 ], [ -115.2223785, 36.134507699700002 ], [ -115.2223785, 36.134513099700001 ], [ -115.2223758, 36.134513099700001 ], [ -115.2223758, 36.134515799700004 ], [ -115.2223947, 36.134515799700004 ], [ -115.2223947, 36.1345184997 ], [ -115.2223974, 36.1345184997 ], [ -115.2223974, 36.1345238997 ], [ -115.2223893, 36.1345238997 ], [ -115.2223893, 36.134526599700003 ], [ -115.2223812, 36.134526599700003 ], [ -115.2223812, 36.134529299699999 ], [ -115.2223758, 36.134529299699999 ], [ -115.2223758, 36.134531999700002 ], [ -115.2223677, 36.134531999700002 ], [ -115.2223677, 36.134534699700005 ], [ -115.222365, 36.134534699700005 ], [ -115.222365, 36.134537399700001 ], [ -115.2223569, 36.134537399700001 ], [ -115.2223569, 36.1345427997 ], [ -115.2223623, 36.1345427997 ], [ -115.2223623, 36.134540099700004 ], [ -115.2223731, 36.134540099700004 ], [ -115.2223731, 36.134537399700001 ], [ -115.2223839, 36.134537399700001 ], [ -115.2223839, 36.134540099700004 ], [ -115.2223893, 36.134540099700004 ], [ -115.2223893, 36.134537399700001 ], [ -115.2223974, 36.134537399700001 ], [ -115.2223974, 36.134534699700005 ], [ -115.2224001, 36.134534699700005 ], [ -115.2224001, 36.134531999700002 ], [ -115.2224028, 36.134531999700002 ], [ -115.2224028, 36.1345238997 ], [ -115.2224001, 36.1345238997 ], [ -115.2224001, 36.134521199700004 ], [ -115.2224028, 36.134521199700004 ], [ -115.2224028, 36.1345184997 ], [ -115.2224001, 36.1345184997 ], [ -115.2224001, 36.134513099700001 ], [ -115.2224028, 36.134513099700001 ], [ -115.2224028, 36.134510399700005 ], [ -115.2224082, 36.134510399700005 ], [ -115.2224082, 36.134507699700002 ], [ -115.2224109, 36.134507699700002 ], [ -115.2224109, 36.134502299700003 ], [ -115.2224136, 36.134502299700003 ], [ -115.2224136, 36.134494199700001 ], [ -115.2224163, 36.134494199700001 ], [ -115.2224163, 36.134483399700002 ], [ -115.2224271, 36.134483399700002 ], [ -115.2224271, 36.134486099700005 ], [ -115.2224298, 36.134486099700005 ], [ -115.2224298, 36.134483399700002 ], [ -115.2224325, 36.134483399700002 ], [ -115.2224325, 36.134480699699999 ], [ -115.2224352, 36.134480699699999 ], [ -115.2224352, 36.134483399700002 ], [ -115.2224379, 36.134483399700002 ], [ -115.2224379, 36.134486099700005 ], [ -115.2224406, 36.134486099700005 ], [ -115.2224406, 36.134488799700001 ], [ -115.2224433, 36.134488799700001 ], [ -115.2224433, 36.134496899700004 ], [ -115.2224406, 36.134496899700004 ], [ -115.2224406, 36.1344995997 ], [ -115.2224352, 36.1344995997 ], [ -115.2224352, 36.134504999699999 ], [ -115.2224379, 36.134504999699999 ], [ -115.2224379, 36.134510399700005 ], [ -115.2224406, 36.134510399700005 ], [ -115.2224406, 36.134513099700001 ], [ -115.2224433, 36.134513099700001 ], [ -115.2224433, 36.1345184997 ], [ -115.2224352, 36.1345184997 ], [ -115.2224352, 36.1345238997 ], [ -115.2224325, 36.1345238997 ], [ -115.2224325, 36.134526599700003 ], [ -115.2224298, 36.134526599700003 ], [ -115.2224298, 36.134529299699999 ], [ -115.2224271, 36.134529299699999 ], [ -115.2224271, 36.134531999700002 ], [ -115.2224217, 36.134531999700002 ], [ -115.2224217, 36.134534699700005 ], [ -115.222419, 36.134534699700005 ], [ -115.222419, 36.134537399700001 ], [ -115.2224136, 36.134537399700001 ], [ -115.2224136, 36.134540099700004 ], [ -115.2224055, 36.134540099700004 ], [ -115.2224055, 36.1345427997 ], [ -115.2224001, 36.1345427997 ], [ -115.2224001, 36.134545499700003 ], [ -115.2223974, 36.134545499700003 ], [ -115.2223974, 36.134548199699999 ], [ -115.2223866, 36.134548199699999 ], [ -115.2223866, 36.134550899700002 ], [ -115.2223785, 36.134550899700002 ], [ -115.2223785, 36.134553599700006 ] ] ] } },
{ "type": "Feature", "properties": { "value": 255.0 }, "geometry": { "type": "Polygon", "coordinates": [ [ [ -115.2218871, 36.1344752997 ], [ -115.2218628, 36.1344752997 ], [ -115.2218628, 36.134456399699999 ], [ -115.2218844, 36.134456399699999 ], [ -115.2218844, 36.134459099700003 ], [ -115.2218871, 36.134459099700003 ], [ -115.2218871, 36.134461799699999 ], [ -115.2218898, 36.134461799699999 ], [ -115.2218898, 36.134469899700001 ], [ -115.2218871, 36.134469899700001 ], [ -115.2218871, 36.1344752997 ] ] ] } },
{ "type": "Feature", "properties": { "value": 255.0 }, "geometry": { "type": "Polygon", "coordinates": [ [ [ -115.2222975, 36.134461799699999 ], [ -115.2222705, 36.134461799699999 ], [ -115.2222705, 36.134459099700003 ], [ -115.2222651, 36.134459099700003 ], [ -115.2222651, 36.134456399699999 ], [ -115.2222678, 36.134456399699999 ], [ -115.2222678, 36.1344509997 ], [ -115.2222705, 36.1344509997 ], [ -115.2222705, 36.134448299700004 ], [ -115.2222732, 36.134448299700004 ], [ -115.2222732, 36.134445599700001 ], [ -115.2223002, 36.134445599700001 ], [ -115.2223002, 36.1344509997 ], [ -115.2223029, 36.1344509997 ], [ -115.2223029, 36.134456399699999 ], [ -115.2223002, 36.134456399699999 ], [ -115.2223002, 36.134459099700003 ], [ -115.2222975, 36.134459099700003 ], [ -115.2222975, 36.134461799699999 ] ] ] } },
{ "type": "Feature", "properties": { "value": 255.0 }, "geometry": { "type": "Polygon", "coordinates": [ [ [ -115.2223758, 36.1344509997 ], [ -115.222365, 36.1344509997 ], [ -115.222365, 36.134445599700001 ], [ -115.2223623, 36.134445599700001 ], [ -115.2223623, 36.134442899700005 ], [ -115.2223596, 36.134442899700005 ], [ -115.2223596, 36.134440199700002 ], [ -115.2223677, 36.134440199700002 ], [ -115.2223677, 36.134437499699999 ], [ -115.2223731, 36.134437499699999 ], [ -115.2223731, 36.134440199700002 ], [ -115.2223785, 36.134440199700002 ], [ -115.2223785, 36.134442899700005 ], [ -115.2223758, 36.134442899700005 ], [ -115.2223758, 36.1344509997 ] ] ] } },
{ "type": "Feature", "properties": { "value": 255.0 }, "geometry": { "type": "Polygon", "coordinates": [ [ [ -115.2225405, 36.134353799700001 ], [ -115.2225216, 36.134353799700001 ], [ -115.2225216, 36.134342999700003 ], [ -115.2225189, 36.134342999700003 ], [ -115.2225189, 36.134337599700004 ], [ -115.2225216, 36.134337599700004 ], [ -115.2225216, 36.134334899700001 ], [ -115.2225243, 36.134334899700001 ], [ -115.2225243, 36.134332199700005 ], [ -115.222527, 36.134332199700005 ], [ -115.222527, 36.134305199700002 ], [ -115.2225243, 36.134305199700002 ], [ -115.2225243, 36.134280899700002 ], [ -115.2225216, 36.134280899700002 ], [ -115.2225216, 36.134245799700004 ], [ -115.2225189, 36.134245799700004 ], [ -115.2225189, 36.134229599699999 ], [ -115.2225216, 36.134229599699999 ], [ -115.2225216, 36.134153999700004 ], [ -115.2225243, 36.134153999700004 ], [ -115.2225243, 36.134148599700005 ], [ -115.2225648, 36.134148599700005 ], [ -115.2225648, 36.134145899700002 ], [ -115.2225864, 36.134145899700002 ], [ -115.2225864, 36.134148599700005 ], [ -115.2225945, 36.134148599700005 ], [ -115.2225945, 36.134153999700004 ], [ -115.2225972, 36.134153999700004 ], [ -115.2225972, 36.1341809997 ], [ -115.2225999, 36.1341809997 ], [ -115.2225999, 36.134183699700003 ], [ -115.2226053, 36.134183699700003 ], [ -115.2226053, 36.134186399699999 ], [ -115.2226215, 36.134186399699999 ], [ -115.2226215, 36.134191799699998 ], [ -115.2226242, 36.134191799699998 ], [ -115.2226242, 36.134286299700001 ], [ -115.2226215, 36.134286299700001 ], [ -115.2226215, 36.134288999700004 ], [ -115.2226242, 36.134288999700004 ], [ -115.2226242, 36.1342916997 ], [ -115.2226215, 36.1342916997 ], [ -115.2226215, 36.134297099699999 ], [ -115.2226188, 36.134297099699999 ], [ -115.2226188, 36.134299799700003 ], [ -115.2226053, 36.134299799700003 ], [ -115.2226053, 36.134302499699999 ], [ -115.2225999, 36.134302499699999 ], [ -115.2225999, 36.134305199700002 ], [ -115.2225972, 36.134305199700002 ], [ -115.2225972, 36.1343159997 ], [ -115.2225945, 36.1343159997 ], [ -115.2225945, 36.134321399699999 ], [ -115.2225918, 36.134321399699999 ], [ -115.2225918, 36.134324099700002 ], [ -115.2225837, 36.134324099700002 ], [ -115.2225837, 36.134321399699999 ], [ -115.2225783, 36.134321399699999 ], [ -115.2225783, 36.134324099700002 ], [ -115.2225756, 36.134324099700002 ], [ -115.2225756, 36.134326799699998 ], [ -115.2225675, 36.134326799699998 ], [ -115.2225675, 36.134324099700002 ], [ -115.2225486, 36.134324099700002 ], [ -115.2225486, 36.134326799699998 ], [ -115.2225432, 36.134326799699998 ], [ -115.2225432, 36.134329499700002 ], [ -115.2225405, 36.134329499700002 ], [ -115.2225405, 36.134334899700001 ], [ -115.2225432, 36.134334899700001 ], [ -115.2225432, 36.134337599700004 ], [ -115.2225459, 36.134337599700004 ], [ -115.2225459, 36.1343402997 ], [ -115.2225486, 36.1343402997 ], [ -115.2225486, 36.134342999700003 ], [ -115.2225459, 36.134342999700003 ], [ -115.2225459, 36.134351099700005 ], [ -115.2225405, 36.134351099700005 ], [ -115.2225405, 36.134353799700001 ] ] ] } },
{ "type": "Feature", "properties": { "value": 255.0 }, "geometry": { "type": "Polygon", "coordinates": [ [ [ -115.2216171, 36.134332199700005 ], [ -115.2216036, 36.134332199700005 ], [ -115.2216036, 36.134329499700002 ], [ -115.2216009, 36.134329499700002 ], [ -115.2216009, 36.134326799699998 ], [ -115.2215982, 36.134326799699998 ], [ -115.2215982, 36.134324099700002 ], [ -115.2215955, 36.134324099700002 ], [ -115.2215955, 36.134321399699999 ], [ -115.2215928, 36.134321399699999 ], [ -115.2215928, 36.1343159997 ], [ -115.2215901, 36.1343159997 ], [ -115.2215901, 36.134310599700001 ], [ -115.2215874, 36.134310599700001 ], [ -115.2215874, 36.134307899700005 ], [ -115.2215847, 36.134307899700005 ], [ -115.2215847, 36.134305199700002 ], [ -115.221582, 36.134305199700002 ], [ -115.221582, 36.134302499699999 ], [ -115.2215793, 36.134302499699999 ], [ -115.2215793, 36.134299799700003 ], [ -115.2215766, 36.134299799700003 ], [ -115.2215766, 36.134297099699999 ], [ -115.2215739, 36.134297099699999 ], [ -115.2215739, 36.1342916997 ], [ -115.2215712, 36.1342916997 ], [ -115.2215712, 36.134286299700001 ], [ -115.2215685, 36.134286299700001 ], [ -115.2215685, 36.134278199699999 ], [ -115.2215712, 36.134278199699999 ], [ -115.2215712, 36.134275499700003 ], [ -115.2215739, 36.134275499700003 ], [ -115.2215739, 36.1342727997 ], [ -115.2215766, 36.1342727997 ], [ -115.2215766, 36.134270099700004 ], [ -115.221582, 36.134270099700004 ], [ -115.221582, 36.134267399700001 ], [ -115.2215874, 36.134267399700001 ], [ -115.2215874, 36.134264699700005 ], [ -115.2215901, 36.134264699700005 ], [ -115.2215901, 36.134261999700001 ], [ -115.2215955, 36.134261999700001 ], [ -115.2215955, 36.134259299699998 ], [ -115.2216009, 36.134259299699998 ], [ -115.2216009, 36.134256599700002 ], [ -115.2216036, 36.134256599700002 ], [ -115.2216036, 36.134253899699999 ], [ -115.221609, 36.134253899699999 ], [ -115.221609, 36.134251199700003 ], [ -115.2216117, 36.134251199700003 ], [ -115.2216117, 36.1342484997 ], [ -115.2216171, 36.1342484997 ], [ -115.2216171, 36.134245799700004 ], [ -115.2216198, 36.134245799700004 ], [ -115.2216198, 36.134243099700001 ], [ -115.2216225, 36.134243099700001 ], [ -115.2216225, 36.134240399700005 ], [ -115.2216252, 36.134240399700005 ], [ -115.2216252, 36.134237699700002 ], [ -115.2216279, 36.134237699700002 ], [ -115.2216279, 36.134229599699999 ], [ -115.2216252, 36.134229599699999 ], [ -115.2216252, 36.134226899700003 ], [ -115.2216225, 36.134226899700003 ], [ -115.2216225, 36.134218799700001 ], [ -115.2216198, 36.134218799700001 ], [ -115.2216198, 36.134216099700005 ], [ -115.2216225, 36.134216099700005 ], [ -115.2216225, 36.134207999700003 ], [ -115.2216252, 36.134207999700003 ], [ -115.2216252, 36.1342052997 ], [ -115.2216279, 36.1342052997 ], [ -115.2216279, 36.134202599700004 ], [ -115.2216306, 36.134202599700004 ], [ -115.2216306, 36.1341998997 ], [ -115.2216333, 36.1341998997 ], [ -115.2216333, 36.134191799699998 ], [ -115.221636, 36.134191799699998 ], [ -115.221636, 36.134186399699999 ], [ -115.2216387, 36.134186399699999 ], [ -115.2216387, 36.134178299700004 ], [ -115.2216414, 36.134178299700004 ], [ -115.2216414, 36.134170199700002 ], [ -115.2216441, 36.134170199700002 ], [ -115.2216441, 36.134167499699998 ], [ -115.2216495, 36.134167499699998 ], [ -115.2216495, 36.134164799700002 ], [ -115.2216549, 36.134164799700002 ], [ -115.2216549, 36.134162099699999 ], [ -115.2216576, 36.134162099699999 ], [ -115.2216576, 36.134159399700003 ], [ -115.2216603, 36.134159399700003 ], [ -115.2216603, 36.1341566997 ], [ -115.2216576, 36.1341566997 ], [ -115.2216576, 36.134151299700001 ], [ -115.2216549, 36.134151299700001 ], [ -115.2216549, 36.134148599700005 ], [ -115.221663, 36.134148599700005 ], [ -115.221663, 36.134145899700002 ], [ -115.2216684, 36.134145899700002 ], [ -115.2216684, 36.1341377997 ], [ -115.2216711, 36.1341377997 ], [ -115.2216711, 36.134135099700003 ], [ -115.2216738, 36.134135099700003 ], [ -115.2216738, 36.1341377997 ], [ -115.2216765, 36.1341377997 ], [ -115.2216765, 36.134143199699999 ], [ -115.2216792, 36.134143199699999 ], [ -115.2216792, 36.134145899700002 ], [ -115.2216846, 36.134145899700002 ], [ -115.2216846, 36.134143199699999 ], [ -115.2216873, 36.134143199699999 ], [ -115.2216873, 36.134140499700003 ], [ -115.22169, 36.134140499700003 ], [ -115.22169, 36.134143199699999 ], [ -115.2216927, 36.134143199699999 ], [ -115.2216927, 36.134145899700002 ], [ -115.2217008, 36.134145899700002 ], [ -115.2217008, 36.134148599700005 ], [ -115.2217035, 36.134148599700005 ], [ -115.2217035, 36.134151299700001 ], [ -115.2217062, 36.134151299700001 ], [ -115.2217062, 36.134153999700004 ], [ -115.2217089, 36.134153999700004 ], [ -115.2217089, 36.1341566997 ], [ -115.2217305, 36.1341566997 ], [ -115.2217305, 36.134153999700004 ], [ -115.2217359, 36.134153999700004 ], [ -115.2217359, 36.134151299700001 ], [ -115.221744, 36.134151299700001 ], [ -115.221744, 36.134148599700005 ], [ -115.2217602, 36.134148599700005 ], [ -115.2217602, 36.134145899700002 ], [ -115.2218061, 36.134145899700002 ], [ -115.2218061, 36.134148599700005 ], [ -115.2218088, 36.134148599700005 ], [ -115.2218088, 36.134151299700001 ], [ -115.2218169, 36.134151299700001 ], [ -115.2218169, 36.134153999700004 ], [ -115.221825, 36.134153999700004 ], [ -115.221825, 36.1341566997 ], [ -115.2218277, 36.1341566997 ], [ -115.2218277, 36.134159399700003 ], [ -115.2218304, 36.134159399700003 ], [ -115.2218304, 36.134164799700002 ], [ -115.2218331, 36.134164799700002 ], [ -115.2218331, 36.134167499699998 ], [ -115.2218358, 36.134167499699998 ], [ -115.2218358, 36.134170199700002 ], [ -115.2218385, 36.134170199700002 ], [ -115.2218385, 36.134172899700005 ], [ -115.2218412, 36.134172899700005 ], [ -115.2218412, 36.134175599700001 ], [ -115.2218439, 36.134175599700001 ], [ -115.2218439, 36.134178299700004 ], [ -115.2218466, 36.134178299700004 ], [ -115.2218466, 36.1341809997 ], [ -115.2218493, 36.1341809997 ], [ -115.2218493, 36.134186399699999 ], [ -115.221852, 36.134186399699999 ], [ -115.221852, 36.134189099700002 ], [ -115.2218547, 36.134189099700002 ], [ -115.2218547, 36.134191799699998 ], [ -115.2218574, 36.134191799699998 ], [ -115.2218574, 36.134197199700004 ], [ -115.2218601, 36.134197199700004 ], [ -115.2218601, 36.1341998997 ], [ -115.2218628, 36.1341998997 ], [ -115.2218628, 36.1342052997 ], [ -115.2218655, 36.1342052997 ], [ -115.2218655, 36.134210699699999 ], [ -115.2218628, 36.134210699699999 ], [ -115.2218628, 36.134213399700002 ], [ -115.2218574, 36.134213399700002 ], [ -115.2218574, 36.134216099700005 ], [ -115.221852, 36.134216099700005 ], [ -115.221852, 36.134218799700001 ], [ -115.2218466, 36.134218799700001 ], [ -115.2218466, 36.134221499700004 ], [ -115.2218439, 36.134221499700004 ], [ -115.2218439, 36.1342241997 ], [ -115.2218412, 36.1342241997 ], [ -115.2218412, 36.134226899700003 ], [ -115.2218385, 36.134226899700003 ], [ -115.2218385, 36.134229599699999 ], [ -115.2218331, 36.134229599699999 ], [ -115.2218331, 36.134232299700002 ], [ -115.221825, 36.134232299700002 ], [ -115.221825, 36.134234999699999 ], [ -115.2218169, 36.134234999699999 ], [ -115.2218169, 36.134237699700002 ], [ -115.2218115, 36.134237699700002 ], [ -115.2218115, 36.134240399700005 ], [ -115.2218088, 36.134240399700005 ], [ -115.2218088, 36.134243099700001 ], [ -115.2218034, 36.134243099700001 ], [ -115.2218034, 36.134245799700004 ], [ -115.2218007, 36.134245799700004 ], [ -115.2218007, 36.134259299699998 ], [ -115.2218034, 36.134259299699998 ], [ -115.2218034, 36.134261999700001 ], [ -115.2218061, 36.134261999700001 ], [ -115.2218061, 36.134270099700004 ], [ -115.2218034, 36.134270099700004 ], [ -115.2218034, 36.1342727997 ], [ -115.2217953, 36.1342727997 ], [ -115.2217953, 36.134275499700003 ], [ -115.2217899, 36.134275499700003 ], [ -115.2217899, 36.134278199699999 ], [ -115.2217845, 36.134278199699999 ], [ -115.2217845, 36.134280899700002 ], [ -115.2217791, 36.134280899700002 ], [ -115.2217791, 36.134283599700005 ], [ -115.2217764, 36.134283599700005 ], [ -115.2217764, 36.134286299700001 ], [ -115.221771, 36.134286299700001 ], [ -115.221771, 36.134288999700004 ], [ -115.2217656, 36.134288999700004 ], [ -115.2217656, 36.1342916997 ], [ -115.2217629, 36.1342916997 ], [ -115.2217629, 36.134294399700003 ], [ -115.2217575, 36.134294399700003 ], [ -115.2217575, 36.134297099699999 ], [ -115.2217521, 36.134297099699999 ], [ -115.2217521, 36.134299799700003 ], [ -115.2217467, 36.134299799700003 ], [ -115.2217467, 36.134302499699999 ], [ -115.2217413, 36.134302499699999 ], [ -115.2217413, 36.134305199700002 ], [ -115.2217386, 36.134305199700002 ], [ -115.2217386, 36.134307899700005 ], [ -115.2217332, 36.134307899700005 ], [ -115.2217332, 36.134310599700001 ], [ -115.2217251, 36.134310599700001 ], [ -115.2217251, 36.134313299700004 ], [ -115.2217197, 36.134313299700004 ], [ -115.2217197, 36.1343159997 ], [ -115.2217143, 36.1343159997 ], [ -115.2217143, 36.134318699700003 ], [ -115.2216981, 36.134318699700003 ], [ -115.2216981, 36.1343159997 ], [ -115.2216954, 36.1343159997 ], [ -115.2216954, 36.134313299700004 ], [ -115.2216927, 36.134313299700004 ], [ -115.2216927, 36.134310599700001 ], [ -115.22169, 36.134310599700001 ], [ -115.22169, 36.134307899700005 ], [ -115.2216873, 36.134307899700005 ], [ -115.2216873, 36.134305199700002 ], [ -115.2216846, 36.134305199700002 ], [ -115.2216846, 36.134302499699999 ], [ -115.2216792, 36.134302499699999 ], [ -115.2216792, 36.134299799700003 ], [ -115.2216765, 36.134299799700003 ], [ -115.2216765, 36.134302499699999 ], [ -115.2216711, 36.134302499699999 ], [ -115.2216711, 36.134305199700002 ], [ -115.2216657, 36.134305199700002 ], [ -115.2216657, 36.134307899700005 ], [ -115.2216576, 36.134307899700005 ], [ -115.2216576, 36.134310599700001 ], [ -115.2216549, 36.134310599700001 ], [ -115.2216549, 36.134313299700004 ], [ -115.2216468, 36.134313299700004 ], [ -115.2216468, 36.1343159997 ], [ -115.2216414, 36.1343159997 ], [ -115.2216414, 36.134318699700003 ], [ -115.221636, 36.134318699700003 ], [ -115.221636, 36.134321399699999 ], [ -115.2216306, 36.134321399699999 ], [ -115.2216306, 36.134324099700002 ], [ -115.2216279, 36.134324099700002 ], [ -115.2216279, 36.134326799699998 ], [ -115.2216225, 36.134326799699998 ], [ -115.2216225, 36.134329499700002 ], [ -115.2216171, 36.134329499700002 ], [ -115.2216171, 36.134332199700005 ] ] ] } },
{ "type": "Feature", "properties": { "value": 255.0 }, "geometry": { "type": "Polygon", "coordinates": [ [ [ -115.2218709, 36.134072999700003 ], [ -115.2218574, 36.134072999700003 ], [ -115.2218574, 36.134070299699999 ], [ -115.221852, 36.134070299699999 ], [ -115.221852, 36.134062199700004 ], [ -115.2218493, 36.134062199700004 ], [ -115.2218493, 36.134056799699998 ], [ -115.2218682, 36.134056799699998 ], [ -115.2218682, 36.134059499700001 ], [ -115.2218709, 36.134059499700001 ], [ -115.2218709, 36.134062199700004 ], [ -115.2218736, 36.134062199700004 ], [ -115.2218736, 36.1340648997 ], [ -115.2218709, 36.1340648997 ], [ -115.2218709, 36.134072999700003 ] ] ] } },
{ "type": "Feature", "properties": { "value": 255.0 }, "geometry": { "type": "Polygon", "coordinates": [ [ [ -115.2218655, 36.134043299700004 ], [ -115.2218412, 36.134043299700004 ], [ -115.2218412, 36.1340405997 ], [ -115.2218331, 36.1340405997 ], [ -115.2218331, 36.134037899700004 ], [ -115.2218304, 36.134037899700004 ], [ -115.2218304, 36.134035199700001 ], [ -115.2218277, 36.134035199700001 ], [ -115.2218277, 36.133994699700004 ], [ -115.2218358, 36.133994699700004 ], [ -115.2218358, 36.133991999700001 ], [ -115.2218844, 36.133991999700001 ], [ -115.2218844, 36.133994699700004 ], [ -115.2218871, 36.133994699700004 ], [ -115.2218871, 36.134027099699999 ], [ -115.2218898, 36.134027099699999 ], [ -115.2218898, 36.134035199700001 ], [ -115.2218871, 36.134035199700001 ], [ -115.2218871, 36.1340405997 ], [ -115.2218655, 36.1340405997 ], [ -115.2218655, 36.134043299700004 ] ] ] } },
{ "type": "Feature", "properties": { "value": 255.0 }, "geometry": { "type": "Polygon", "coordinates": [ [ [ -115.2218709, 36.133940699699998 ], [ -115.2218493, 36.133940699699998 ], [ -115.2218493, 36.133937999700002 ], [ -115.2218466, 36.133937999700002 ], [ -115.2218466, 36.133932599700003 ], [ -115.2218439, 36.133932599700003 ], [ -115.2218439, 36.133881299700001 ], [ -115.221852, 36.133881299700001 ], [ -115.221852, 36.133883999700004 ], [ -115.2218547, 36.133883999700004 ], [ -115.2218547, 36.133875899700001 ], [ -115.2218601, 36.133875899700001 ], [ -115.2218601, 36.133883999700004 ], [ -115.2218682, 36.133883999700004 ], [ -115.2218682, 36.133889399700003 ], [ -115.2218709, 36.133889399700003 ], [ -115.2218709, 36.133940699699998 ] ] ] } },
{ "type": "Feature", "properties": { "value": 255.0 }, "geometry": { "type": "Polygon", "coordinates": [ [ [ -115.2232776, 36.133762499699998 ], [ -115.2232668, 36.133762499699998 ], [ -115.2232668, 36.133759799700002 ], [ -115.2232587, 36.133759799700002 ], [ -115.2232587, 36.133757099699999 ], [ -115.223256, 36.133757099699999 ], [ -115.223256, 36.133754399700003 ], [ -115.2232533, 36.133754399700003 ], [ -115.2232533, 36.133751699699999 ], [ -115.2232506, 36.133751699699999 ], [ -115.2232506, 36.133748999700003 ], [ -115.2232479, 36.133748999700003 ], [ -115.2232479, 36.1337462997 ], [ -115.2232452, 36.1337462997 ], [ -115.2232452, 36.133743599700004 ], [ -115.2232425, 36.133743599700004 ], [ -115.2232425, 36.133738199699998 ], [ -115.2232398, 36.133738199699998 ], [ -115.2232398, 36.133732799699999 ], [ -115.2232371, 36.133732799699999 ], [ -115.2232371, 36.1337273997 ], [ -115.22323440000001, 36.1337273997 ], [ -115.22323440000001, 36.133724699700004 ], [ -115.2232263, 36.133724699700004 ], [ -115.2232263, 36.133721999700001 ], [ -115.2232101, 36.133721999700001 ], [ -115.2232101, 36.133719299699997 ], [ -115.2232047, 36.133719299699997 ], [ -115.2232047, 36.133716599700001 ], [ -115.223202, 36.133716599700001 ], [ -115.223202, 36.133713899699998 ], [ -115.2231993, 36.133713899699998 ], [ -115.2231993, 36.133692299700002 ], [ -115.223202, 36.133692299700002 ], [ -115.223202, 36.133686899700002 ], [ -115.2232047, 36.133686899700002 ], [ -115.2232047, 36.133670699699998 ], [ -115.223202, 36.133670699699998 ], [ -115.223202, 36.133667999700002 ], [ -115.2231993, 36.133667999700002 ], [ -115.2231993, 36.133665299699999 ], [ -115.2231966, 36.133665299699999 ], [ -115.2231966, 36.133662599700003 ], [ -115.2231939, 36.133662599700003 ], [ -115.2231939, 36.1336598997 ], [ -115.2231912, 36.1336598997 ], [ -115.2231912, 36.133657199700004 ], [ -115.2231885, 36.133657199700004 ], [ -115.2231885, 36.1336544997 ], [ -115.2231831, 36.1336544997 ], [ -115.2231831, 36.133651799699997 ], [ -115.2231804, 36.133651799699997 ], [ -115.2231804, 36.133649099700001 ], [ -115.2231777, 36.133649099700001 ], [ -115.2231777, 36.133646399699998 ], [ -115.223175, 36.133646399699998 ], [ -115.223175, 36.133643699700002 ], [ -115.2231723, 36.133643699700002 ], [ -115.2231723, 36.133640999699999 ], [ -115.2231696, 36.133640999699999 ], [ -115.2231696, 36.133638299700003 ], [ -115.22316690000001, 36.133638299700003 ], [ -115.22316690000001, 36.1336355997 ], [ -115.2231642, 36.1336355997 ], [ -115.2231642, 36.133632899700004 ], [ -115.2231615, 36.133632899700004 ], [ -115.2231615, 36.133630199700001 ], [ -115.2231588, 36.133630199700001 ], [ -115.2231588, 36.133627499699998 ], [ -115.2231561, 36.133627499699998 ], [ -115.2231561, 36.133624799700002 ], [ -115.2231534, 36.133624799700002 ], [ -115.2231534, 36.133622099699998 ], [ -115.2231507, 36.133622099699998 ], [ -115.2231507, 36.1336112997 ], [ -115.2231534, 36.1336112997 ], [ -115.2231534, 36.133608599700004 ], [ -115.2231561, 36.133608599700004 ], [ -115.2231561, 36.133605899700001 ], [ -115.2231588, 36.133605899700001 ], [ -115.2231588, 36.133603199699998 ], [ -115.2231642, 36.133603199699998 ], [ -115.2231642, 36.133600499700002 ], [ -115.22316690000001, 36.133600499700002 ], [ -115.22316690000001, 36.133597799699999 ], [ -115.2231696, 36.133597799699999 ], [ -115.2231696, 36.133595099700003 ], [ -115.223175, 36.133595099700003 ], [ -115.223175, 36.133592399699999 ], [ -115.2231777, 36.133592399699999 ], [ -115.2231777, 36.133589699700003 ], [ -115.2231804, 36.133589699700003 ], [ -115.2231804, 36.1335869997 ], [ -115.2231831, 36.1335869997 ], [ -115.2231831, 36.133584299699997 ], [ -115.2231885, 36.133584299699997 ], [ -115.2231885, 36.133581599700001 ], [ -115.2231912, 36.133581599700001 ], [ -115.2231912, 36.133578899699998 ], [ -115.2231939, 36.133578899699998 ], [ -115.2231939, 36.133576199700002 ], [ -115.2231993, 36.133576199700002 ], [ -115.2231993, 36.133573499699999 ], [ -115.223202, 36.133573499699999 ], [ -115.223202, 36.133570799700003 ], [ -115.2232047, 36.133570799700003 ], [ -115.2232047, 36.1335680997 ], [ -115.2232101, 36.1335680997 ], [ -115.2232101, 36.133562699700001 ], [ -115.22323440000001, 36.133562699700001 ], [ -115.22323440000001, 36.133565399700004 ], [ -115.2232371, 36.133565399700004 ], [ -115.2232371, 36.1335680997 ], [ -115.2232398, 36.1335680997 ], [ -115.2232398, 36.133565399700004 ], [ -115.2232479, 36.133565399700004 ], [ -115.2232479, 36.1335680997 ], [ -115.2232587, 36.1335680997 ], [ -115.2232587, 36.133570799700003 ], [ -115.2232614, 36.133570799700003 ], [ -115.2232614, 36.133573499699999 ], [ -115.2232668, 36.133573499699999 ], [ -115.2232668, 36.133578899699998 ], [ -115.2232776, 36.133578899699998 ], [ -115.2232776, 36.133762499699998 ] ] ] } },
{ "type": "Feature", "properties": { "value": 255.0 }, "geometry": { "type": "Polygon", "coordinates": [ [ [ -115.221609, 36.1336355997 ], [ -115.2215982, 36.1336355997 ], [ -115.2215982, 36.133632899700004 ], [ -115.2215901, 36.133632899700004 ], [ -115.2215901, 36.133630199700001 ], [ -115.2215847, 36.133630199700001 ], [ -115.2215847, 36.133627499699998 ], [ -115.2215766, 36.133627499699998 ], [ -115.2215766, 36.133624799700002 ], [ -115.2215658, 36.133624799700002 ], [ -115.2215658, 36.133622099699998 ], [ -115.2215631, 36.133622099699998 ], [ -115.2215631, 36.133619399700002 ], [ -115.2215604, 36.133619399700002 ], [ -115.2215604, 36.133613999700003 ], [ -115.2215577, 36.133613999700003 ], [ -115.2215577, 36.133608599700004 ], [ -115.221555, 36.133608599700004 ], [ -115.221555, 36.133600499700002 ], [ -115.2215577, 36.133600499700002 ], [ -115.2215577, 36.133595099700003 ], [ -115.221555, 36.133595099700003 ], [ -115.221555, 36.133578899699998 ], [ -115.2215523, 36.133578899699998 ], [ -115.2215523, 36.133573499699999 ], [ -115.2215496, 36.133573499699999 ], [ -115.2215496, 36.133562699700001 ], [ -115.2216522, 36.133562699700001 ], [ -115.2216522, 36.133565399700004 ], [ -115.2216576, 36.133565399700004 ], [ -115.2216576, 36.1335680997 ], [ -115.2216657, 36.1335680997 ], [ -115.2216657, 36.133570799700003 ], [ -115.2216684, 36.133570799700003 ], [ -115.2216684, 36.1335680997 ], [ -115.2216981, 36.1335680997 ], [ -115.2216981, 36.133565399700004 ], [ -115.2217035, 36.133565399700004 ], [ -115.2217035, 36.133562699700001 ], [ -115.221744, 36.133562699700001 ], [ -115.221744, 36.133565399700004 ], [ -115.2217467, 36.133565399700004 ], [ -115.2217467, 36.1335680997 ], [ -115.221744, 36.1335680997 ], [ -115.221744, 36.133581599700001 ], [ -115.2217467, 36.133581599700001 ], [ -115.2217467, 36.133630199700001 ], [ -115.2217413, 36.133630199700001 ], [ -115.2217413, 36.133632899700004 ], [ -115.221609, 36.133632899700004 ], [ -115.221609, 36.1336355997 ] ] ] } }
]
}
