{
"type": "FeatureCollection",
"crs": { "type": "name", "properties": { "name": "urn:ogc:def:crs:OGC:1.3:CRS84" } },
"features": [
{ "type": "Feature", "properties": { "value": 255.0 }, "geometry": { "type": "Polygon", "coordinates": [ [ [ -115.1846676, 36.152867699799998 ], [ -115.1846217, 36.152867699799998 ], [ -115.1846217, 36.1528325998 ], [ -115.1846244, 36.1528325998 ], [ -115.1846244, 36.152829899799997 ], [ -115.184646, 36.152829899799997 ], [ -115.184646, 36.152827199800001 ], [ -115.1846649, 36.152827199800001 ], [ -115.1846649, 36.152829899799997 ], [ -115.1846676, 36.152829899799997 ], [ -115.1846676, 36.152867699799998 ] ] ] } },
{ "type": "Feature", "properties": { "value": 255.0 }, "geometry": { "type": "Polygon", "coordinates": [ [ [ -115.1838387, 36.152867699799998 ], [ -115.1837064, 36.152867699799998 ], [ -115.1837064, 36.152848799799997 ], [ -115.1837037, 36.152848799799997 ], [ -115.1837037, 36.152843399799998 ], [ -115.1837064, 36.152843399799998 ], [ -115.1837064, 36.152819099799999 ], [ -115.1837037, 36.152819099799999 ], [ -115.1837037, 36.152810999799996 ], [ -115.1837064, 36.152810999799996 ], [ -115.1837064, 36.1528082998 ], [ -115.1837037, 36.1528082998 ], [ -115.1837037, 36.152805599799997 ], [ -115.183701, 36.152805599799997 ], [ -115.183701, 36.152802899800001 ], [ -115.1836632, 36.152802899800001 ], [ -115.1836632, 36.152805599799997 ], [ -115.1836443, 36.152805599799997 ], [ -115.1836443, 36.152802899800001 ], [ -115.1836416, 36.152802899800001 ], [ -115.1836416, 36.152800199799998 ], [ -115.1836389, 36.152800199799998 ], [ -115.1836389, 36.152767799799996 ], [ -115.1836416, 36.152767799799996 ], [ -115.1836416, 36.152756999799998 ], [ -115.1836443, 36.152756999799998 ], [ -115.1836443, 36.152746199799999 ], [ -115.183647, 36.152746199799999 ], [ -115.183647, 36.1527407998 ], [ -115.183649699999989, 36.1527407998 ], [ -115.183649699999989, 36.152732699799998 ], [ -115.1836524, 36.152732699799998 ], [ -115.1836524, 36.152727299799999 ], [ -115.1836551, 36.152727299799999 ], [ -115.1836551, 36.152724599799996 ], [ -115.1836578, 36.152724599799996 ], [ -115.1836578, 36.152719199799996 ], [ -115.1836605, 36.152719199799996 ], [ -115.1836605, 36.1527164998 ], [ -115.1836713, 36.1527164998 ], [ -115.1836713, 36.152713799799997 ], [ -115.1836767, 36.152713799799997 ], [ -115.1836767, 36.152711099800001 ], [ -115.1836929, 36.152711099800001 ], [ -115.1836929, 36.152708399799998 ], [ -115.1836956, 36.152708399799998 ], [ -115.1836956, 36.152705699799995 ], [ -115.1837091, 36.152705699799995 ], [ -115.1837091, 36.152702999799999 ], [ -115.183782, 36.152702999799999 ], [ -115.183782, 36.152705699799995 ], [ -115.1838009, 36.152705699799995 ], [ -115.1838009, 36.152708399799998 ], [ -115.183833299999989, 36.152708399799998 ], [ -115.183833299999989, 36.152711099800001 ], [ -115.1838387, 36.152711099800001 ], [ -115.1838387, 36.1527164998 ], [ -115.1838414, 36.1527164998 ], [ -115.1838414, 36.1527218998 ], [ -115.1838441, 36.1527218998 ], [ -115.1838441, 36.152735399800001 ], [ -115.1838468, 36.152735399800001 ], [ -115.1838468, 36.152786699799996 ], [ -115.1838441, 36.152786699799996 ], [ -115.1838441, 36.152821799800002 ], [ -115.1838414, 36.152821799800002 ], [ -115.1838414, 36.152829899799997 ], [ -115.1838387, 36.152829899799997 ], [ -115.1838387, 36.152851499800001 ], [ -115.1838414, 36.152851499800001 ], [ -115.1838414, 36.152854199799997 ], [ -115.1838387, 36.152854199799997 ], [ -115.1838387, 36.152867699799998 ] ] ] } },
{ "type": "Feature", "properties": { "value": 255.0 }, "geometry": { "type": "Polygon", "coordinates": [ [ [ -115.1833257, 36.1527839998 ], [ -115.1832879, 36.1527839998 ], [ -115.1832879, 36.152781299799997 ], [ -115.1832852, 36.152781299799997 ], [ -115.1832852, 36.152778599800001 ], [ -115.1832825, 36.152778599800001 ], [ -115.1832825, 36.152775899799998 ], [ -115.1832717, 36.152775899799998 ], [ -115.1832717, 36.152773199799995 ], [ -115.183263599999989, 36.152773199799995 ], [ -115.183263599999989, 36.152775899799998 ], [ -115.1832501, 36.152775899799998 ], [ -115.1832501, 36.152778599800001 ], [ -115.1832366, 36.152778599800001 ], [ -115.1832366, 36.152781299799997 ], [ -115.1832096, 36.152781299799997 ], [ -115.1832096, 36.152770499799999 ], [ -115.1832069, 36.152770499799999 ], [ -115.1832069, 36.152762399799997 ], [ -115.1831988, 36.152762399799997 ], [ -115.1831988, 36.152759699800001 ], [ -115.183188, 36.152759699800001 ], [ -115.183188, 36.152762399799997 ], [ -115.1831637, 36.152762399799997 ], [ -115.1831637, 36.152759699800001 ], [ -115.1831367, 36.152759699800001 ], [ -115.1831367, 36.152762399799997 ], [ -115.1831259, 36.152762399799997 ], [ -115.1831259, 36.152759699800001 ], [ -115.1831205, 36.152759699800001 ], [ -115.1831205, 36.152762399799997 ], [ -115.1831178, 36.152762399799997 ], [ -115.1831178, 36.152759699800001 ], [ -115.1831124, 36.152759699800001 ], [ -115.1831124, 36.152756999799998 ], [ -115.183109699999989, 36.152756999799998 ], [ -115.183109699999989, 36.1527164998 ], [ -115.183107, 36.1527164998 ], [ -115.183107, 36.152713799799997 ], [ -115.1831043, 36.152713799799997 ], [ -115.1831043, 36.152711099800001 ], [ -115.1830962, 36.152711099800001 ], [ -115.1830962, 36.152708399799998 ], [ -115.1830854, 36.152708399799998 ], [ -115.1830854, 36.152711099800001 ], [ -115.1830827, 36.152711099800001 ], [ -115.1830827, 36.152713799799997 ], [ -115.1830854, 36.152713799799997 ], [ -115.1830854, 36.152719199799996 ], [ -115.1830827, 36.152719199799996 ], [ -115.1830827, 36.152756999799998 ], [ -115.18308, 36.152756999799998 ], [ -115.18308, 36.152759699800001 ], [ -115.1830773, 36.152759699800001 ], [ -115.1830773, 36.152762399799997 ], [ -115.1830719, 36.152762399799997 ], [ -115.1830719, 36.1527650998 ], [ -115.1829585, 36.1527650998 ], [ -115.1829585, 36.1527407998 ], [ -115.182955799999988, 36.1527407998 ], [ -115.182955799999988, 36.152738099799997 ], [ -115.1829126, 36.152738099799997 ], [ -115.1829126, 36.152635499799999 ], [ -115.1829207, 36.152635499799999 ], [ -115.1829207, 36.152632799799996 ], [ -115.1829288, 36.152632799799996 ], [ -115.1829288, 36.1526300998 ], [ -115.1829315, 36.1526300998 ], [ -115.1829315, 36.152627399799997 ], [ -115.1829369, 36.152627399799997 ], [ -115.1829369, 36.1526246998 ], [ -115.1829423, 36.1526246998 ], [ -115.1829423, 36.152621999799997 ], [ -115.1829504, 36.152621999799997 ], [ -115.1829504, 36.152619299800001 ], [ -115.1829585, 36.152619299800001 ], [ -115.1829585, 36.152616599799998 ], [ -115.1829666, 36.152616599799998 ], [ -115.1829666, 36.152613899800002 ], [ -115.182974699999988, 36.152613899800002 ], [ -115.182974699999988, 36.152611199799999 ], [ -115.1829801, 36.152611199799999 ], [ -115.1829801, 36.152608499799996 ], [ -115.183023299999988, 36.152608499799996 ], [ -115.183023299999988, 36.1526057998 ], [ -115.1830314, 36.1526057998 ], [ -115.1830314, 36.152608499799996 ], [ -115.1830503, 36.152608499799996 ], [ -115.1830503, 36.1526057998 ], [ -115.1830584, 36.1526057998 ], [ -115.1830584, 36.152608499799996 ], [ -115.1830773, 36.152608499799996 ], [ -115.1830773, 36.152613899800002 ], [ -115.18308, 36.152613899800002 ], [ -115.18308, 36.1526246998 ], [ -115.1830773, 36.1526246998 ], [ -115.1830773, 36.152684099799998 ], [ -115.1830854, 36.152684099799998 ], [ -115.1830854, 36.152681399799995 ], [ -115.1830881, 36.152681399799995 ], [ -115.1830881, 36.152678699799999 ], [ -115.183090799999988, 36.152678699799999 ], [ -115.183090799999988, 36.152665199799998 ], [ -115.1830935, 36.152665199799998 ], [ -115.1830935, 36.152662499800002 ], [ -115.1830962, 36.152662499800002 ], [ -115.1830962, 36.152651699799996 ], [ -115.1830935, 36.152651699799996 ], [ -115.1830935, 36.152613899800002 ], [ -115.1830962, 36.152613899800002 ], [ -115.1830962, 36.1526057998 ], [ -115.1831934, 36.1526057998 ], [ -115.1831934, 36.152603099799997 ], [ -115.1832231, 36.152603099799997 ], [ -115.1832231, 36.1526057998 ], [ -115.1832582, 36.1526057998 ], [ -115.1832582, 36.152603099799997 ], [ -115.1832852, 36.152603099799997 ], [ -115.1832852, 36.1526057998 ], [ -115.183323, 36.1526057998 ], [ -115.183323, 36.152608499799996 ], [ -115.1833284, 36.152608499799996 ], [ -115.1833284, 36.152613899800002 ], [ -115.1833311, 36.152613899800002 ], [ -115.1833311, 36.152748899799995 ], [ -115.1833284, 36.152748899799995 ], [ -115.1833284, 36.152781299799997 ], [ -115.1833257, 36.152781299799997 ], [ -115.1833257, 36.1527839998 ] ] ] } },
{ "type": "Feature", "properties": { "value": 255.0 }, "geometry": { "type": "Polygon", "coordinates": [ [ [ -115.1837307, 36.152684099799998 ], [ -115.183701, 36.152684099799998 ], [ -115.183701, 36.152681399799995 ], [ -115.1836929, 36.152681399799995 ], [ -115.1836929, 36.152684099799998 ], [ -115.1836848, 36.152684099799998 ], [ -115.1836848, 36.152681399799995 ], [ -115.1836767, 36.152681399799995 ], [ -115.1836767, 36.152678699799999 ], [ -115.183674, 36.152678699799999 ], [ -115.183674, 36.152675999799996 ], [ -115.1836713, 36.152675999799996 ], [ -115.1836713, 36.152662499800002 ], [ -115.183674, 36.152662499800002 ], [ -115.183674, 36.152657099799995 ], [ -115.1836767, 36.152657099799995 ], [ -115.1836767, 36.152643599800001 ], [ -115.1836794, 36.152643599800001 ], [ -115.1836794, 36.152635499799999 ], [ -115.1836821, 36.152635499799999 ], [ -115.1836821, 36.152627399799997 ], [ -115.1836794, 36.152627399799997 ], [ -115.1836794, 36.1526246998 ], [ -115.1836821, 36.1526246998 ], [ -115.1836821, 36.152613899800002 ], [ -115.1836848, 36.152613899800002 ], [ -115.1836848, 36.1526057998 ], [ -115.1836875, 36.1526057998 ], [ -115.1836875, 36.152603099799997 ], [ -115.1836902, 36.152603099799997 ], [ -115.1836902, 36.152594999800002 ], [ -115.1836875, 36.152594999800002 ], [ -115.1836875, 36.152592299799998 ], [ -115.1836605, 36.152592299799998 ], [ -115.1836605, 36.152594999800002 ], [ -115.183647, 36.152594999800002 ], [ -115.183647, 36.152592299799998 ], [ -115.1836443, 36.152592299799998 ], [ -115.1836443, 36.152589599799995 ], [ -115.1836416, 36.152589599799995 ], [ -115.1836416, 36.152586899799999 ], [ -115.1836389, 36.152586899799999 ], [ -115.1836389, 36.152532899800001 ], [ -115.1836416, 36.152532899800001 ], [ -115.1836416, 36.152530199799997 ], [ -115.183649699999989, 36.152530199799997 ], [ -115.183649699999989, 36.152527499800001 ], [ -115.183674, 36.152527499800001 ], [ -115.183674, 36.152530199799997 ], [ -115.183701, 36.152530199799997 ], [ -115.183701, 36.152527499800001 ], [ -115.1837604, 36.152527499800001 ], [ -115.1837604, 36.152524799799998 ], [ -115.1837766, 36.152524799799998 ], [ -115.1837766, 36.152527499800001 ], [ -115.1838468, 36.152527499800001 ], [ -115.1838468, 36.152530199799997 ], [ -115.1838495, 36.152530199799997 ], [ -115.1838495, 36.152584199799996 ], [ -115.1838468, 36.152584199799996 ], [ -115.1838468, 36.152600399800001 ], [ -115.1838441, 36.152600399800001 ], [ -115.1838441, 36.1526057998 ], [ -115.1838414, 36.1526057998 ], [ -115.1838414, 36.152611199799999 ], [ -115.183833299999989, 36.152611199799999 ], [ -115.183833299999989, 36.152613899800002 ], [ -115.1838252, 36.152613899800002 ], [ -115.1838252, 36.152619299800001 ], [ -115.1838225, 36.152619299800001 ], [ -115.1838225, 36.152621999799997 ], [ -115.1838198, 36.152621999799997 ], [ -115.1838198, 36.1526300998 ], [ -115.1838171, 36.1526300998 ], [ -115.1838171, 36.152662499800002 ], [ -115.1838144, 36.152662499800002 ], [ -115.1838144, 36.152675999799996 ], [ -115.1838117, 36.152675999799996 ], [ -115.1838117, 36.152678699799999 ], [ -115.183809, 36.152678699799999 ], [ -115.183809, 36.152681399799995 ], [ -115.1837766, 36.152681399799995 ], [ -115.1837766, 36.152678699799999 ], [ -115.1837469, 36.152678699799999 ], [ -115.1837469, 36.152681399799995 ], [ -115.1837307, 36.152681399799995 ], [ -115.1837307, 36.152684099799998 ] ] ] } },
{ "type": "Feature", "properties": { "value": 255.0 }, "geometry": { "type": "Polygon", "coordinates": [ [ [ -115.1842815, 36.152867699799998 ], [ -115.1840763, 36.152867699799998 ], [ -115.1840763, 36.152773199799995 ], [ -115.184079, 36.152773199799995 ], [ -115.184079, 36.152743499799996 ], [ -115.1840763, 36.152743499799996 ], [ -115.1840763, 36.152735399800001 ], [ -115.184079, 36.152735399800001 ], [ -115.184079, 36.1527164998 ], [ -115.1840817, 36.1527164998 ], [ -115.1840817, 36.152711099800001 ], [ -115.1840844, 36.152711099800001 ], [ -115.1840844, 36.152705699799995 ], [ -115.1840871, 36.152705699799995 ], [ -115.1840871, 36.152700299799996 ], [ -115.1840898, 36.152700299799996 ], [ -115.1840898, 36.152694899799997 ], [ -115.1840871, 36.152694899799997 ], [ -115.1840871, 36.152692199800001 ], [ -115.1840844, 36.152692199800001 ], [ -115.1840844, 36.152689499799997 ], [ -115.1840817, 36.152689499799997 ], [ -115.1840817, 36.1526057998 ], [ -115.1840844, 36.1526057998 ], [ -115.1840844, 36.152603099799997 ], [ -115.1840871, 36.152603099799997 ], [ -115.1840871, 36.152600399800001 ], [ -115.1840979, 36.152600399800001 ], [ -115.1840979, 36.152597699799998 ], [ -115.1841141, 36.152597699799998 ], [ -115.1841141, 36.152594999800002 ], [ -115.1841195, 36.152594999800002 ], [ -115.1841195, 36.152592299799998 ], [ -115.1841222, 36.152592299799998 ], [ -115.1841222, 36.152578799799997 ], [ -115.1841249, 36.152578799799997 ], [ -115.1841249, 36.152519399799999 ], [ -115.1841222, 36.152519399799999 ], [ -115.1841222, 36.152516699799996 ], [ -115.1841249, 36.152516699799996 ], [ -115.1841249, 36.152511299799997 ], [ -115.1841276, 36.152511299799997 ], [ -115.1841276, 36.152508599800001 ], [ -115.1841465, 36.152508599800001 ], [ -115.1841465, 36.152505899799998 ], [ -115.1841519, 36.152505899799998 ], [ -115.1841519, 36.152508599800001 ], [ -115.1842626, 36.152508599800001 ], [ -115.1842626, 36.152505899799998 ], [ -115.1842896, 36.152505899799998 ], [ -115.1842896, 36.152508599800001 ], [ -115.184295, 36.152508599800001 ], [ -115.184295, 36.152567999799999 ], [ -115.1842977, 36.152567999799999 ], [ -115.1842977, 36.152578799799997 ], [ -115.184295, 36.152578799799997 ], [ -115.184295, 36.152681399799995 ], [ -115.1842923, 36.152681399799995 ], [ -115.1842923, 36.152689499799997 ], [ -115.1842896, 36.152689499799997 ], [ -115.1842896, 36.152692199800001 ], [ -115.1842761, 36.152692199800001 ], [ -115.1842761, 36.152694899799997 ], [ -115.1842626, 36.152694899799997 ], [ -115.1842626, 36.152692199800001 ], [ -115.1842599, 36.152692199800001 ], [ -115.1842599, 36.152694899799997 ], [ -115.1841843, 36.152694899799997 ], [ -115.1841843, 36.152692199800001 ], [ -115.1841141, 36.152692199800001 ], [ -115.1841141, 36.152694899799997 ], [ -115.1841114, 36.152694899799997 ], [ -115.1841114, 36.1526975998 ], [ -115.184106, 36.1526975998 ], [ -115.184106, 36.152700299799996 ], [ -115.1841087, 36.152700299799996 ], [ -115.1841087, 36.152702999799999 ], [ -115.1841276, 36.152702999799999 ], [ -115.1841276, 36.152705699799995 ], [ -115.1841438, 36.152705699799995 ], [ -115.1841438, 36.152708399799998 ], [ -115.1841897, 36.152708399799998 ], [ -115.1841897, 36.152711099800001 ], [ -115.1842329, 36.152711099800001 ], [ -115.1842329, 36.152713799799997 ], [ -115.1842356, 36.152713799799997 ], [ -115.1842356, 36.152719199799996 ], [ -115.1842383, 36.152719199799996 ], [ -115.1842383, 36.1527218998 ], [ -115.1842356, 36.1527218998 ], [ -115.1842356, 36.152743499799996 ], [ -115.1842383, 36.152743499799996 ], [ -115.1842383, 36.152746199799999 ], [ -115.1842356, 36.152746199799999 ], [ -115.1842356, 36.152756999799998 ], [ -115.1842383, 36.152756999799998 ], [ -115.1842383, 36.152816399799995 ], [ -115.184241, 36.152816399799995 ], [ -115.184241, 36.152819099799999 ], [ -115.1842437, 36.152819099799999 ], [ -115.1842437, 36.152821799800002 ], [ -115.1842815, 36.152821799800002 ], [ -115.1842815, 36.152824499799998 ], [ -115.1842869, 36.152824499799998 ], [ -115.1842869, 36.152827199800001 ], [ -115.1842896, 36.152827199800001 ], [ -115.1842896, 36.152829899799997 ], [ -115.1842923, 36.152829899799997 ], [ -115.1842923, 36.152859599799996 ], [ -115.1842896, 36.152859599799996 ], [ -115.1842896, 36.152864999799995 ], [ -115.1842815, 36.152864999799995 ], [ -115.1842815, 36.152867699799998 ] ] ] } },
{ "type": "Feature", "properties": { "value": 255.0 }, "geometry": { "type": "Polygon", "coordinates": [ [ [ -115.1837739, 36.152478899800002 ], [ -115.1837361, 36.152478899800002 ], [ -115.1837361, 36.152476199799999 ], [ -115.1837091, 36.152476199799999 ], [ -115.1837091, 36.152473499799996 ], [ -115.1837064, 36.152473499799996 ], [ -115.1837064, 36.1524707998 ], [ -115.183701, 36.1524707998 ], [ -115.183701, 36.152468099799997 ], [ -115.183698299999989, 36.152468099799997 ], [ -115.183698299999989, 36.152462699799997 ], [ -115.1836956, 36.152462699799997 ], [ -115.1836956, 36.152454599800002 ], [ -115.1836929, 36.152454599800002 ], [ -115.1836929, 36.152443799799997 ], [ -115.1836902, 36.152443799799997 ], [ -115.1836902, 36.152432999799998 ], [ -115.1836875, 36.152432999799998 ], [ -115.1836875, 36.152408699799999 ], [ -115.1836902, 36.152408699799999 ], [ -115.1836902, 36.152400599799996 ], [ -115.1836929, 36.152400599799996 ], [ -115.1836929, 36.152392499800001 ], [ -115.1836956, 36.152392499800001 ], [ -115.1836956, 36.152384399799999 ], [ -115.183698299999989, 36.152384399799999 ], [ -115.183698299999989, 36.1523789998 ], [ -115.183701, 36.1523789998 ], [ -115.183701, 36.152368199800001 ], [ -115.1837037, 36.152368199800001 ], [ -115.1837037, 36.152297999799998 ], [ -115.1837064, 36.152297999799998 ], [ -115.1837064, 36.152292599799999 ], [ -115.1837091, 36.152292599799999 ], [ -115.1837091, 36.152289899799996 ], [ -115.1837172, 36.152289899799996 ], [ -115.1837172, 36.1522871998 ], [ -115.1837226, 36.1522871998 ], [ -115.1837226, 36.152289899799996 ], [ -115.1837928, 36.152289899799996 ], [ -115.1837928, 36.152292599799999 ], [ -115.1838414, 36.152292599799999 ], [ -115.1838414, 36.152295299800002 ], [ -115.1838441, 36.152295299800002 ], [ -115.1838441, 36.152300699800001 ], [ -115.1838468, 36.152300699800001 ], [ -115.1838468, 36.152303399799997 ], [ -115.1838495, 36.152303399799997 ], [ -115.1838495, 36.1523546998 ], [ -115.1838522, 36.1523546998 ], [ -115.1838522, 36.152357399799996 ], [ -115.183863, 36.152357399799996 ], [ -115.183863, 36.152360099799999 ], [ -115.1838819, 36.152360099799999 ], [ -115.1838819, 36.152405999800003 ], [ -115.1838846, 36.152405999800003 ], [ -115.1838846, 36.152416799800001 ], [ -115.1838819, 36.152416799800001 ], [ -115.1838819, 36.152424899799996 ], [ -115.1838846, 36.152424899799996 ], [ -115.1838846, 36.152435699800002 ], [ -115.1838819, 36.152435699800002 ], [ -115.1838819, 36.152465399800001 ], [ -115.1838792, 36.152465399800001 ], [ -115.1838792, 36.152468099799997 ], [ -115.1838765, 36.152468099799997 ], [ -115.1838765, 36.1524707998 ], [ -115.1838738, 36.1524707998 ], [ -115.1838738, 36.152473499799996 ], [ -115.1837847, 36.152473499799996 ], [ -115.1837847, 36.152476199799999 ], [ -115.1837739, 36.152476199799999 ], [ -115.1837739, 36.152478899800002 ] ] ] } },
{ "type": "Feature", "properties": { "value": 255.0 }, "geometry": { "type": "Polygon", "coordinates": [ [ [ -115.1840709, 36.1524707998 ], [ -115.1840655, 36.1524707998 ], [ -115.1840655, 36.152468099799997 ], [ -115.1840601, 36.152468099799997 ], [ -115.1840601, 36.152462699799997 ], [ -115.1840574, 36.152462699799997 ], [ -115.1840574, 36.152405999800003 ], [ -115.1840547, 36.152405999800003 ], [ -115.1840547, 36.152370899799998 ], [ -115.1840574, 36.152370899799998 ], [ -115.1840574, 36.152349299800001 ], [ -115.1840547, 36.152349299800001 ], [ -115.1840547, 36.152346599799998 ], [ -115.1840493, 36.152346599799998 ], [ -115.1840493, 36.152343899800002 ], [ -115.1840412, 36.152343899800002 ], [ -115.1840412, 36.152341199799999 ], [ -115.1840385, 36.152341199799999 ], [ -115.1840385, 36.152297999799998 ], [ -115.1840412, 36.152297999799998 ], [ -115.1840412, 36.152292599799999 ], [ -115.1840439, 36.152292599799999 ], [ -115.1840439, 36.152289899799996 ], [ -115.1840493, 36.152289899799996 ], [ -115.1840493, 36.1522871998 ], [ -115.1840628, 36.1522871998 ], [ -115.1840628, 36.152289899799996 ], [ -115.1841033, 36.152289899799996 ], [ -115.1841033, 36.1522871998 ], [ -115.1841384, 36.1522871998 ], [ -115.1841384, 36.152284499799997 ], [ -115.1841492, 36.152284499799997 ], [ -115.1841492, 36.152281799800001 ], [ -115.184241, 36.152281799800001 ], [ -115.184241, 36.152284499799997 ], [ -115.184295, 36.152284499799997 ], [ -115.184295, 36.1522871998 ], [ -115.1842977, 36.1522871998 ], [ -115.1842977, 36.152289899799996 ], [ -115.1843004, 36.152289899799996 ], [ -115.1843004, 36.152373599800001 ], [ -115.1842977, 36.152373599800001 ], [ -115.1842977, 36.152381699799996 ], [ -115.1842356, 36.152381699799996 ], [ -115.1842356, 36.152384399799999 ], [ -115.1842302, 36.152384399799999 ], [ -115.1842302, 36.152462699799997 ], [ -115.1842275, 36.152462699799997 ], [ -115.1842275, 36.152465399800001 ], [ -115.1842248, 36.152465399800001 ], [ -115.1842248, 36.152468099799997 ], [ -115.1840709, 36.152468099799997 ], [ -115.1840709, 36.1524707998 ] ] ] } },
{ "type": "Feature", "properties": { "value": 255.0 }, "geometry": { "type": "Polygon", "coordinates": [ [ [ -115.1846676, 36.152451899799999 ], [ -115.1846298, 36.152451899799999 ], [ -115.1846298, 36.152449199799996 ], [ -115.1846271, 36.152449199799996 ], [ -115.1846271, 36.1524464998 ], [ -115.1846244, 36.1524464998 ], [ -115.1846244, 36.152370899799998 ], [ -115.1846271, 36.152370899799998 ], [ -115.1846271, 36.152360099799999 ], [ -115.1846298, 36.152360099799999 ], [ -115.1846298, 36.152346599799998 ], [ -115.1846325, 36.152346599799998 ], [ -115.1846325, 36.152338499800003 ], [ -115.1846352, 36.152338499800003 ], [ -115.1846352, 36.152316899799999 ], [ -115.1846325, 36.152316899799999 ], [ -115.1846325, 36.152314199800003 ], [ -115.1846244, 36.152314199800003 ], [ -115.1846244, 36.152308799799997 ], [ -115.1846217, 36.152308799799997 ], [ -115.1846217, 36.152303399799997 ], [ -115.1846244, 36.152303399799997 ], [ -115.1846244, 36.1522628998 ], [ -115.1846271, 36.1522628998 ], [ -115.1846271, 36.152260199799997 ], [ -115.1846352, 36.152260199799997 ], [ -115.1846352, 36.152257499800001 ], [ -115.1846379, 36.152257499800001 ], [ -115.1846379, 36.152254799799998 ], [ -115.1846433, 36.152254799799998 ], [ -115.1846433, 36.152252099800002 ], [ -115.1846487, 36.152252099800002 ], [ -115.1846487, 36.152254799799998 ], [ -115.1846514, 36.152254799799998 ], [ -115.1846514, 36.152257499800001 ], [ -115.1846595, 36.152257499800001 ], [ -115.1846595, 36.152265599799996 ], [ -115.1846622, 36.152265599799996 ], [ -115.1846622, 36.1522628998 ], [ -115.1846676, 36.1522628998 ], [ -115.1846676, 36.152451899799999 ] ] ] } },
{ "type": "Feature", "properties": { "value": 255.0 }, "geometry": { "type": "Polygon", "coordinates": [ [ [ -115.1830638, 36.152338499800003 ], [ -115.1830206, 36.152338499800003 ], [ -115.1830206, 36.152335799799999 ], [ -115.1830125, 36.152335799799999 ], [ -115.1830125, 36.152338499800003 ], [ -115.1829126, 36.152338499800003 ], [ -115.1829126, 36.152168399799997 ], [ -115.182955799999988, 36.152168399799997 ], [ -115.182955799999988, 36.1521710998 ], [ -115.1829585, 36.1521710998 ], [ -115.1829585, 36.152181899799999 ], [ -115.1829612, 36.152181899799999 ], [ -115.1829612, 36.152192699799997 ], [ -115.1829639, 36.152192699799997 ], [ -115.1829639, 36.1521953998 ], [ -115.1829882, 36.1521953998 ], [ -115.1829882, 36.152198099800003 ], [ -115.1830368, 36.152198099800003 ], [ -115.1830368, 36.1521953998 ], [ -115.1830395, 36.1521953998 ], [ -115.1830395, 36.152198099800003 ], [ -115.1830638, 36.152198099800003 ], [ -115.1830638, 36.152211599799998 ], [ -115.1830665, 36.152211599799998 ], [ -115.1830665, 36.152335799799999 ], [ -115.1830638, 36.152335799799999 ], [ -115.1830638, 36.152338499800003 ] ] ] } },
{ "type": "Feature", "properties": { "value": 255.0 }, "geometry": { "type": "Polygon", "coordinates": [ [ [ -115.1846676, 36.152222399800003 ], [ -115.1846298, 36.152222399800003 ], [ -115.1846298, 36.1522196998 ], [ -115.1846271, 36.1522196998 ], [ -115.1846271, 36.152154899800003 ], [ -115.1846298, 36.152154899800003 ], [ -115.1846298, 36.1521521998 ], [ -115.1846325, 36.1521521998 ], [ -115.1846325, 36.152149499799997 ], [ -115.1846352, 36.152149499799997 ], [ -115.1846352, 36.1521521998 ], [ -115.1846379, 36.1521521998 ], [ -115.1846379, 36.152149499799997 ], [ -115.1846433, 36.152149499799997 ], [ -115.1846433, 36.152146799800001 ], [ -115.1846487, 36.152146799800001 ], [ -115.1846487, 36.152149499799997 ], [ -115.1846649, 36.152149499799997 ], [ -115.1846649, 36.1521521998 ], [ -115.1846676, 36.1521521998 ], [ -115.1846676, 36.152222399800003 ] ] ] } },
{ "type": "Feature", "properties": { "value": 255.0 }, "geometry": { "type": "Polygon", "coordinates": [ [ [ -115.1833311, 36.152335799799999 ], [ -115.1832906, 36.152335799799999 ], [ -115.1832906, 36.152333099799996 ], [ -115.1832879, 36.152333099799996 ], [ -115.1832879, 36.152335799799999 ], [ -115.1832852, 36.152335799799999 ], [ -115.1832852, 36.152333099799996 ], [ -115.183244699999989, 36.152333099799996 ], [ -115.183244699999989, 36.1523303998 ], [ -115.183242, 36.1523303998 ], [ -115.183242, 36.152319599800002 ], [ -115.1832393, 36.152319599800002 ], [ -115.1832393, 36.152316899799999 ], [ -115.1832366, 36.152316899799999 ], [ -115.1832366, 36.152314199800003 ], [ -115.183196099999989, 36.152314199800003 ], [ -115.183196099999989, 36.152316899799999 ], [ -115.1831934, 36.152316899799999 ], [ -115.1831934, 36.152324999800001 ], [ -115.1831907, 36.152324999800001 ], [ -115.1831907, 36.152335799799999 ], [ -115.1831043, 36.152335799799999 ], [ -115.1831043, 36.152333099799996 ], [ -115.1831016, 36.152333099799996 ], [ -115.1831016, 36.1522439998 ], [ -115.1831043, 36.1522439998 ], [ -115.1831043, 36.152235899799997 ], [ -115.1831016, 36.152235899799997 ], [ -115.1831016, 36.152203499800002 ], [ -115.1831043, 36.152203499800002 ], [ -115.1831043, 36.152200799799999 ], [ -115.1831313, 36.152200799799999 ], [ -115.1831313, 36.152203499800002 ], [ -115.1831691, 36.152203499800002 ], [ -115.1831691, 36.152200799799999 ], [ -115.183177199999989, 36.152200799799999 ], [ -115.183177199999989, 36.152179199800003 ], [ -115.1831799, 36.152179199800003 ], [ -115.1831799, 36.1521710998 ], [ -115.183188, 36.1521710998 ], [ -115.183188, 36.152168399799997 ], [ -115.1832366, 36.152168399799997 ], [ -115.1832366, 36.152165699800001 ], [ -115.183242, 36.152165699800001 ], [ -115.183242, 36.152162999799998 ], [ -115.183244699999989, 36.152162999799998 ], [ -115.183244699999989, 36.152154899800003 ], [ -115.1832474, 36.152154899800003 ], [ -115.1832474, 36.1521521998 ], [ -115.183244699999989, 36.1521521998 ], [ -115.183244699999989, 36.152141399800001 ], [ -115.1832474, 36.152141399800001 ], [ -115.1832474, 36.152133299799999 ], [ -115.183244699999989, 36.152133299799999 ], [ -115.183244699999989, 36.1521278998 ], [ -115.1832474, 36.1521278998 ], [ -115.1832474, 36.152125199799997 ], [ -115.1832987, 36.152125199799997 ], [ -115.1832987, 36.1521278998 ], [ -115.1833311, 36.1521278998 ], [ -115.1833311, 36.152130599800003 ], [ -115.1833338, 36.152130599800003 ], [ -115.1833338, 36.1521953998 ], [ -115.1833311, 36.1521953998 ], [ -115.1833311, 36.152235899799997 ], [ -115.1833338, 36.152235899799997 ], [ -115.1833338, 36.1522628998 ], [ -115.1833311, 36.1522628998 ], [ -115.1833311, 36.152335799799999 ] ] ] } },
{ "type": "Feature", "properties": { "value": 255.0 }, "geometry": { "type": "Polygon", "coordinates": [ [ [ -115.1840844, 36.152273699799998 ], [ -115.1840655, 36.152273699799998 ], [ -115.1840655, 36.152270999800002 ], [ -115.1840439, 36.152270999800002 ], [ -115.1840439, 36.1522628998 ], [ -115.1840412, 36.1522628998 ], [ -115.1840412, 36.152254799799998 ], [ -115.1840385, 36.152254799799998 ], [ -115.1840385, 36.1522385998 ], [ -115.1840358, 36.1522385998 ], [ -115.1840358, 36.152230499799998 ], [ -115.1840385, 36.152230499799998 ], [ -115.1840385, 36.152216999799997 ], [ -115.1840412, 36.152216999799997 ], [ -115.1840412, 36.152214299800001 ], [ -115.1840439, 36.152214299800001 ], [ -115.1840439, 36.152211599799998 ], [ -115.1840628, 36.152211599799998 ], [ -115.1840628, 36.152208899800002 ], [ -115.1840871, 36.152208899800002 ], [ -115.1840871, 36.152206199799998 ], [ -115.1840925, 36.152206199799998 ], [ -115.1840925, 36.152203499800002 ], [ -115.1840952, 36.152203499800002 ], [ -115.1840952, 36.152200799799999 ], [ -115.1841006, 36.152200799799999 ], [ -115.1841006, 36.152198099800003 ], [ -115.1841033, 36.152198099800003 ], [ -115.1841033, 36.1521953998 ], [ -115.184106, 36.1521953998 ], [ -115.184106, 36.152181899799999 ], [ -115.1841087, 36.152181899799999 ], [ -115.1841087, 36.1521710998 ], [ -115.184106, 36.1521710998 ], [ -115.184106, 36.152168399799997 ], [ -115.1841033, 36.152168399799997 ], [ -115.1841033, 36.152162999799998 ], [ -115.1841006, 36.152162999799998 ], [ -115.1841006, 36.1521521998 ], [ -115.1840979, 36.1521521998 ], [ -115.1840979, 36.152146799800001 ], [ -115.1840952, 36.152146799800001 ], [ -115.1840952, 36.152144099799997 ], [ -115.1840979, 36.152144099799997 ], [ -115.1840979, 36.152133299799999 ], [ -115.1841006, 36.152133299799999 ], [ -115.1841006, 36.152130599800003 ], [ -115.1841033, 36.152130599800003 ], [ -115.1841033, 36.1521278998 ], [ -115.184106, 36.1521278998 ], [ -115.184106, 36.152125199799997 ], [ -115.1841114, 36.152125199799997 ], [ -115.1841114, 36.152122499800001 ], [ -115.1841168, 36.152122499800001 ], [ -115.1841168, 36.152119799799998 ], [ -115.1841222, 36.152119799799998 ], [ -115.1841222, 36.152117099800002 ], [ -115.1841276, 36.152117099800002 ], [ -115.1841276, 36.152114399799999 ], [ -115.1841357, 36.152114399799999 ], [ -115.1841357, 36.152111699800002 ], [ -115.1841411, 36.152111699800002 ], [ -115.1841411, 36.152108999799999 ], [ -115.1841465, 36.152108999799999 ], [ -115.1841465, 36.152106299800003 ], [ -115.1841546, 36.152106299800003 ], [ -115.1841546, 36.1521035998 ], [ -115.1841654, 36.1521035998 ], [ -115.1841654, 36.152100899799997 ], [ -115.1842167, 36.152100899799997 ], [ -115.1842167, 36.1521035998 ], [ -115.184241, 36.1521035998 ], [ -115.184241, 36.152106299800003 ], [ -115.1842437, 36.152106299800003 ], [ -115.1842437, 36.152111699800002 ], [ -115.1842464, 36.152111699800002 ], [ -115.1842464, 36.1521278998 ], [ -115.1842491, 36.1521278998 ], [ -115.1842491, 36.152141399800001 ], [ -115.1842518, 36.152141399800001 ], [ -115.1842518, 36.152144099799997 ], [ -115.1842572, 36.152144099799997 ], [ -115.1842572, 36.152146799800001 ], [ -115.1842599, 36.152146799800001 ], [ -115.1842599, 36.152144099799997 ], [ -115.1842788, 36.152144099799997 ], [ -115.1842788, 36.152149499799997 ], [ -115.1842815, 36.152149499799997 ], [ -115.1842815, 36.152154899800003 ], [ -115.1842842, 36.152154899800003 ], [ -115.1842842, 36.1521710998 ], [ -115.1842869, 36.1521710998 ], [ -115.1842869, 36.152179199800003 ], [ -115.1842842, 36.152179199800003 ], [ -115.1842842, 36.1521953998 ], [ -115.1842869, 36.1521953998 ], [ -115.1842869, 36.152198099800003 ], [ -115.1842923, 36.152198099800003 ], [ -115.1842923, 36.152200799799999 ], [ -115.1843031, 36.152200799799999 ], [ -115.1843031, 36.152252099800002 ], [ -115.1843004, 36.152252099800002 ], [ -115.1843004, 36.1522628998 ], [ -115.1842977, 36.1522628998 ], [ -115.1842977, 36.152268299799999 ], [ -115.184241, 36.152268299799999 ], [ -115.184241, 36.152265599799996 ], [ -115.1841249, 36.152265599799996 ], [ -115.1841249, 36.152268299799999 ], [ -115.1840898, 36.152268299799999 ], [ -115.1840898, 36.152270999800002 ], [ -115.1840844, 36.152270999800002 ], [ -115.1840844, 36.152273699799998 ] ] ] } },
{ "type": "Feature", "properties": { "value": 255.0 }, "geometry": { "type": "Polygon", "coordinates": [ [ [ -115.183728, 36.152260199799997 ], [ -115.1836794, 36.152260199799997 ], [ -115.1836794, 36.152249399799999 ], [ -115.1836767, 36.152249399799999 ], [ -115.1836767, 36.1522385998 ], [ -115.1836794, 36.1522385998 ], [ -115.1836794, 36.152173799799996 ], [ -115.1836767, 36.152173799799996 ], [ -115.1836767, 36.1521710998 ], [ -115.1836794, 36.1521710998 ], [ -115.1836794, 36.152160299800002 ], [ -115.1836767, 36.152160299800002 ], [ -115.1836767, 36.152157599799999 ], [ -115.1836713, 36.152157599799999 ], [ -115.1836713, 36.152154899800003 ], [ -115.1836578, 36.152154899800003 ], [ -115.1836578, 36.152157599799999 ], [ -115.1836443, 36.152157599799999 ], [ -115.1836443, 36.152154899800003 ], [ -115.1836389, 36.152154899800003 ], [ -115.1836389, 36.152090099799999 ], [ -115.1836416, 36.152090099799999 ], [ -115.1836416, 36.152087399800003 ], [ -115.1836524, 36.152087399800003 ], [ -115.1836524, 36.1520846998 ], [ -115.1837334, 36.1520846998 ], [ -115.1837334, 36.152087399800003 ], [ -115.1837739, 36.152087399800003 ], [ -115.1837739, 36.152090099799999 ], [ -115.1838009, 36.152090099799999 ], [ -115.1838009, 36.152087399800003 ], [ -115.1838441, 36.152087399800003 ], [ -115.1838441, 36.152090099799999 ], [ -115.1838468, 36.152090099799999 ], [ -115.1838468, 36.152146799800001 ], [ -115.1838495, 36.152146799800001 ], [ -115.1838495, 36.152246699800003 ], [ -115.1838468, 36.152246699800003 ], [ -115.1838468, 36.152252099800002 ], [ -115.1838144, 36.152252099800002 ], [ -115.1838144, 36.152254799799998 ], [ -115.183782, 36.152254799799998 ], [ -115.183782, 36.152257499800001 ], [ -115.183728, 36.152257499800001 ], [ -115.183728, 36.152260199799997 ] ] ] } },
{ "type": "Feature", "properties": { "value": 255.0 }, "geometry": { "type": "Polygon", "coordinates": [ [ [ -115.1839521, 36.152111699800002 ], [ -115.183917, 36.152111699800002 ], [ -115.183917, 36.152108999799999 ], [ -115.1839062, 36.152108999799999 ], [ -115.1839062, 36.152111699800002 ], [ -115.1838927, 36.152111699800002 ], [ -115.1838927, 36.152108999799999 ], [ -115.18389, 36.152108999799999 ], [ -115.18389, 36.152095499799998 ], [ -115.1838927, 36.152095499799998 ], [ -115.1838927, 36.152092799800002 ], [ -115.1838981, 36.152092799800002 ], [ -115.1838981, 36.152095499799998 ], [ -115.1839143, 36.152095499799998 ], [ -115.1839143, 36.152092799800002 ], [ -115.1839197, 36.152092799800002 ], [ -115.1839197, 36.152090099799999 ], [ -115.1839278, 36.152090099799999 ], [ -115.1839278, 36.152087399800003 ], [ -115.1839359, 36.152087399800003 ], [ -115.1839359, 36.1520846998 ], [ -115.1839413, 36.1520846998 ], [ -115.1839413, 36.152087399800003 ], [ -115.183944, 36.152087399800003 ], [ -115.183944, 36.1520846998 ], [ -115.1839548, 36.1520846998 ], [ -115.1839548, 36.152087399800003 ], [ -115.1839575, 36.152087399800003 ], [ -115.1839575, 36.152106299800003 ], [ -115.1839548, 36.152106299800003 ], [ -115.1839548, 36.152108999799999 ], [ -115.1839521, 36.152108999799999 ], [ -115.1839521, 36.152111699800002 ] ] ] } },
{ "type": "Feature", "properties": { "value": 255.0 }, "geometry": { "type": "Polygon", "coordinates": [ [ [ -115.1842302, 36.152081999799996 ], [ -115.1842275, 36.152081999799996 ], [ -115.1842275, 36.1520792998 ], [ -115.1842221, 36.1520792998 ], [ -115.1842221, 36.152076599799997 ], [ -115.1842194, 36.152076599799997 ], [ -115.1842194, 36.1520792998 ], [ -115.184214, 36.1520792998 ], [ -115.184214, 36.152076599799997 ], [ -115.1842113, 36.152076599799997 ], [ -115.1842113, 36.152073899800001 ], [ -115.184214, 36.152073899800001 ], [ -115.184214, 36.152071199799998 ], [ -115.1842221, 36.152071199799998 ], [ -115.1842221, 36.152063099800003 ], [ -115.1842329, 36.152063099800003 ], [ -115.1842329, 36.1520792998 ], [ -115.1842302, 36.1520792998 ], [ -115.1842302, 36.152081999799996 ] ] ] } },
{ "type": "Feature", "properties": { "value": 255.0 }, "geometry": { "type": "Polygon", "coordinates": [ [ [ -115.1840007, 36.152076599799997 ], [ -115.1839791, 36.152076599799997 ], [ -115.1839791, 36.152071199799998 ], [ -115.1839764, 36.152071199799998 ], [ -115.1839764, 36.152063099800003 ], [ -115.1839791, 36.152063099800003 ], [ -115.1839791, 36.1520603998 ], [ -115.1839845, 36.1520603998 ], [ -115.1839845, 36.152057699799997 ], [ -115.1839953, 36.152057699799997 ], [ -115.1839953, 36.152054999800001 ], [ -115.1840007, 36.152054999800001 ], [ -115.1840007, 36.1520603998 ], [ -115.1840034, 36.1520603998 ], [ -115.1840034, 36.152073899800001 ], [ -115.1840007, 36.152073899800001 ], [ -115.1840007, 36.152076599799997 ] ] ] } },
{ "type": "Feature", "properties": { "value": 255.0 }, "geometry": { "type": "Polygon", "coordinates": [ [ [ -115.1846676, 36.151884899800002 ], [ -115.1846622, 36.151884899800002 ], [ -115.1846622, 36.151882199799999 ], [ -115.1846595, 36.151882199799999 ], [ -115.1846595, 36.151879499800003 ], [ -115.1846568, 36.151879499800003 ], [ -115.1846568, 36.151849799799997 ], [ -115.1846595, 36.151849799799997 ], [ -115.1846595, 36.151847099800001 ], [ -115.1846649, 36.151847099800001 ], [ -115.1846649, 36.151844399799998 ], [ -115.1846676, 36.151844399799998 ], [ -115.1846676, 36.151884899800002 ] ] ] } },
{ "type": "Feature", "properties": { "value": 255.0 }, "geometry": { "type": "Polygon", "coordinates": [ [ [ -115.1841411, 36.1520846998 ], [ -115.1841087, 36.1520846998 ], [ -115.1841087, 36.152081999799996 ], [ -115.1840412, 36.152081999799996 ], [ -115.1840412, 36.1520792998 ], [ -115.1840358, 36.1520792998 ], [ -115.1840358, 36.152076599799997 ], [ -115.1840277, 36.152076599799997 ], [ -115.1840277, 36.152073899800001 ], [ -115.184025, 36.152073899800001 ], [ -115.184025, 36.152065799799999 ], [ -115.1840223, 36.152065799799999 ], [ -115.1840223, 36.152063099800003 ], [ -115.184025, 36.152063099800003 ], [ -115.184025, 36.152057699799997 ], [ -115.1840223, 36.152057699799997 ], [ -115.1840223, 36.152041499799999 ], [ -115.1840196, 36.152041499799999 ], [ -115.1840196, 36.1520360998 ], [ -115.1840169, 36.1520360998 ], [ -115.1840169, 36.151998299799999 ], [ -115.1840142, 36.151998299799999 ], [ -115.1840142, 36.151976699800002 ], [ -115.1840169, 36.151976699800002 ], [ -115.1840169, 36.151955099799999 ], [ -115.1840142, 36.151955099799999 ], [ -115.1840142, 36.151946999800003 ], [ -115.1840169, 36.151946999800003 ], [ -115.1840169, 36.151892999799998 ], [ -115.1840196, 36.151892999799998 ], [ -115.1840196, 36.151887599799998 ], [ -115.1840223, 36.151887599799998 ], [ -115.1840223, 36.151884899800002 ], [ -115.184025, 36.151884899800002 ], [ -115.184025, 36.151882199799999 ], [ -115.1840277, 36.151882199799999 ], [ -115.1840277, 36.1518767998 ], [ -115.1840304, 36.1518767998 ], [ -115.1840304, 36.151871399800001 ], [ -115.1840331, 36.151871399800001 ], [ -115.1840331, 36.151868699799998 ], [ -115.1840358, 36.151868699799998 ], [ -115.1840358, 36.151863299799999 ], [ -115.1840385, 36.151863299799999 ], [ -115.1840385, 36.151860599800003 ], [ -115.1840412, 36.151860599800003 ], [ -115.1840412, 36.1518578998 ], [ -115.1840466, 36.1518578998 ], [ -115.1840466, 36.151855199800004 ], [ -115.1840655, 36.151855199800004 ], [ -115.1840655, 36.1518524998 ], [ -115.1840682, 36.1518524998 ], [ -115.1840682, 36.151849799799997 ], [ -115.1840709, 36.151849799799997 ], [ -115.1840709, 36.151847099800001 ], [ -115.1840763, 36.151847099800001 ], [ -115.1840763, 36.151844399799998 ], [ -115.1840817, 36.151844399799998 ], [ -115.1840817, 36.151841699800002 ], [ -115.1840898, 36.151841699800002 ], [ -115.1840898, 36.151838999799999 ], [ -115.1841114, 36.151838999799999 ], [ -115.1841114, 36.151836299800003 ], [ -115.1841195, 36.151836299800003 ], [ -115.1841195, 36.151838999799999 ], [ -115.1841222, 36.151838999799999 ], [ -115.1841222, 36.151836299800003 ], [ -115.1841357, 36.151836299800003 ], [ -115.1841357, 36.1518335998 ], [ -115.18416, 36.1518335998 ], [ -115.18416, 36.151836299800003 ], [ -115.1841816, 36.151836299800003 ], [ -115.1841816, 36.1518335998 ], [ -115.1842464, 36.1518335998 ], [ -115.1842464, 36.151836299800003 ], [ -115.1842518, 36.151836299800003 ], [ -115.1842518, 36.151874099799997 ], [ -115.1842545, 36.151874099799997 ], [ -115.1842545, 36.151892999799998 ], [ -115.1842518, 36.151892999799998 ], [ -115.1842518, 36.151917299799997 ], [ -115.1842491, 36.151917299799997 ], [ -115.1842491, 36.1519199998 ], [ -115.1842464, 36.1519199998 ], [ -115.1842464, 36.1519253998 ], [ -115.1842437, 36.1519253998 ], [ -115.1842437, 36.151949699799999 ], [ -115.1842464, 36.151949699799999 ], [ -115.1842464, 36.151955099799999 ], [ -115.1842491, 36.151955099799999 ], [ -115.1842491, 36.151965899799997 ], [ -115.1842518, 36.151965899799997 ], [ -115.1842518, 36.1520117998 ], [ -115.1842491, 36.1520117998 ], [ -115.1842491, 36.152033399799997 ], [ -115.1842464, 36.152033399799997 ], [ -115.1842464, 36.1520360998 ], [ -115.1841627, 36.1520360998 ], [ -115.1841627, 36.152033399799997 ], [ -115.1841573, 36.152033399799997 ], [ -115.1841573, 36.1520360998 ], [ -115.1841546, 36.1520360998 ], [ -115.1841546, 36.152038799800003 ], [ -115.1841519, 36.152038799800003 ], [ -115.1841519, 36.152081999799996 ], [ -115.1841411, 36.152081999799996 ], [ -115.1841411, 36.1520846998 ] ] ] } },
{ "type": "Feature", "properties": { "value": 255.0 }, "geometry": { "type": "Polygon", "coordinates": [ [ [ -115.1839143, 36.151982099800001 ], [ -115.1838846, 36.151982099800001 ], [ -115.1838846, 36.151979399799998 ], [ -115.1838711, 36.151979399799998 ], [ -115.1838711, 36.151976699800002 ], [ -115.1838495, 36.151976699800002 ], [ -115.1838495, 36.151979399799998 ], [ -115.1836686, 36.151979399799998 ], [ -115.1836686, 36.151976699800002 ], [ -115.1836659, 36.151976699800002 ], [ -115.1836659, 36.1519685998 ], [ -115.1836686, 36.1519685998 ], [ -115.1836686, 36.151941599799997 ], [ -115.1836713, 36.151941599799997 ], [ -115.1836713, 36.151936199799998 ], [ -115.1836686, 36.151936199799998 ], [ -115.1836686, 36.151906499799999 ], [ -115.1836713, 36.151906499799999 ], [ -115.1836713, 36.1519010998 ], [ -115.1836767, 36.1519010998 ], [ -115.1836767, 36.151898399800004 ], [ -115.1836794, 36.151898399800004 ], [ -115.1836794, 36.151865999800002 ], [ -115.1836821, 36.151865999800002 ], [ -115.1836821, 36.151863299799999 ], [ -115.1836848, 36.151863299799999 ], [ -115.1836848, 36.151860599800003 ], [ -115.1837955, 36.151860599800003 ], [ -115.1837955, 36.1518578998 ], [ -115.1837982, 36.1518578998 ], [ -115.1837982, 36.1518524998 ], [ -115.1838009, 36.1518524998 ], [ -115.1838009, 36.151847099800001 ], [ -115.1838036, 36.151847099800001 ], [ -115.1838036, 36.151836299800003 ], [ -115.1838063, 36.151836299800003 ], [ -115.1838063, 36.151830899800004 ], [ -115.183809, 36.151830899800004 ], [ -115.183809, 36.151828199800001 ], [ -115.1838198, 36.151828199800001 ], [ -115.1838198, 36.151825499799997 ], [ -115.1838225, 36.151825499799997 ], [ -115.1838225, 36.151828199800001 ], [ -115.1838279, 36.151828199800001 ], [ -115.1838279, 36.151825499799997 ], [ -115.1838387, 36.151825499799997 ], [ -115.1838387, 36.151828199800001 ], [ -115.1839197, 36.151828199800001 ], [ -115.1839197, 36.151879499800003 ], [ -115.183917, 36.151879499800003 ], [ -115.183917, 36.151890299800002 ], [ -115.1839143, 36.151890299800002 ], [ -115.1839143, 36.151909199800002 ], [ -115.1839116, 36.151909199800002 ], [ -115.1839116, 36.151936199799998 ], [ -115.1839143, 36.151936199799998 ], [ -115.1839143, 36.151955099799999 ], [ -115.183917, 36.151955099799999 ], [ -115.183917, 36.151976699800002 ], [ -115.1839143, 36.151976699800002 ], [ -115.1839143, 36.151982099800001 ] ] ] } },
{ "type": "Feature", "properties": { "value": 255.0 }, "geometry": { "type": "Polygon", "coordinates": [ [ [ -115.1832123, 36.151976699800002 ], [ -115.1832015, 36.151976699800002 ], [ -115.1832015, 36.151973999799999 ], [ -115.1831853, 36.151973999799999 ], [ -115.1831853, 36.151971299800003 ], [ -115.1831826, 36.151971299800003 ], [ -115.1831826, 36.151963199800001 ], [ -115.1831799, 36.151963199800001 ], [ -115.1831799, 36.151957799800002 ], [ -115.1831718, 36.151957799800002 ], [ -115.1831718, 36.151955099799999 ], [ -115.183134, 36.151955099799999 ], [ -115.183134, 36.151949699799999 ], [ -115.1831313, 36.151949699799999 ], [ -115.1831313, 36.151936199799998 ], [ -115.183134, 36.151936199799998 ], [ -115.183134, 36.151930799799999 ], [ -115.1831367, 36.151930799799999 ], [ -115.1831367, 36.1519199998 ], [ -115.183134, 36.1519199998 ], [ -115.183134, 36.151903799800003 ], [ -115.1831313, 36.151903799800003 ], [ -115.1831313, 36.151898399800004 ], [ -115.183128599999989, 36.151898399800004 ], [ -115.183128599999989, 36.151892999799998 ], [ -115.1831313, 36.151892999799998 ], [ -115.1831313, 36.151871399800001 ], [ -115.183128599999989, 36.151871399800001 ], [ -115.183128599999989, 36.151860599800003 ], [ -115.1831313, 36.151860599800003 ], [ -115.1831313, 36.151841699800002 ], [ -115.183128599999989, 36.151841699800002 ], [ -115.183128599999989, 36.151828199800001 ], [ -115.1831259, 36.151828199800001 ], [ -115.1831259, 36.151822799800001 ], [ -115.183128599999989, 36.151822799800001 ], [ -115.183128599999989, 36.1518092998 ], [ -115.1831313, 36.1518092998 ], [ -115.1831313, 36.151806599800004 ], [ -115.1831421, 36.151806599800004 ], [ -115.1831421, 36.151803899800001 ], [ -115.1832231, 36.151803899800001 ], [ -115.1832231, 36.151806599800004 ], [ -115.1832312, 36.151806599800004 ], [ -115.1832312, 36.1518092998 ], [ -115.1832339, 36.1518092998 ], [ -115.1832339, 36.151811999800003 ], [ -115.1832366, 36.151811999800003 ], [ -115.1832366, 36.151817399800002 ], [ -115.1832393, 36.151817399800002 ], [ -115.1832393, 36.151820099799998 ], [ -115.1832798, 36.151820099799998 ], [ -115.1832798, 36.151822799800001 ], [ -115.1833149, 36.151822799800001 ], [ -115.1833149, 36.151825499799997 ], [ -115.1833176, 36.151825499799997 ], [ -115.1833176, 36.151836299800003 ], [ -115.1833203, 36.151836299800003 ], [ -115.1833203, 36.151841699800002 ], [ -115.1833176, 36.151841699800002 ], [ -115.1833176, 36.1518524998 ], [ -115.1833149, 36.1518524998 ], [ -115.1833149, 36.151865999800002 ], [ -115.183312199999989, 36.151865999800002 ], [ -115.183312199999989, 36.151909199800002 ], [ -115.1833095, 36.151909199800002 ], [ -115.1833095, 36.151938899800001 ], [ -115.1833068, 36.151938899800001 ], [ -115.1833068, 36.151949699799999 ], [ -115.1833041, 36.151949699799999 ], [ -115.1833041, 36.151960499799998 ], [ -115.1833014, 36.151960499799998 ], [ -115.1833014, 36.151965899799997 ], [ -115.1832555, 36.151965899799997 ], [ -115.1832555, 36.1519685998 ], [ -115.1832474, 36.1519685998 ], [ -115.1832474, 36.151971299800003 ], [ -115.183244699999989, 36.151971299800003 ], [ -115.183244699999989, 36.151973999799999 ], [ -115.1832123, 36.151973999799999 ], [ -115.1832123, 36.151976699800002 ] ] ] } },
{ "type": "Feature", "properties": { "value": 255.0 }, "geometry": { "type": "Polygon", "coordinates": [ [ [ -115.1829855, 36.1519442998 ], [ -115.182926099999989, 36.1519442998 ], [ -115.182926099999989, 36.151933499800002 ], [ -115.1829234, 36.151933499800002 ], [ -115.1829234, 36.1519253998 ], [ -115.1829207, 36.1519253998 ], [ -115.1829207, 36.151922699800004 ], [ -115.1829126, 36.151922699800004 ], [ -115.1829126, 36.151836299800003 ], [ -115.1829153, 36.151836299800003 ], [ -115.1829153, 36.151838999799999 ], [ -115.182918, 36.151838999799999 ], [ -115.182918, 36.151836299800003 ], [ -115.1829882, 36.151836299800003 ], [ -115.1829882, 36.151830899800004 ], [ -115.1829909, 36.151830899800004 ], [ -115.1829909, 36.151820099799998 ], [ -115.182993599999989, 36.151820099799998 ], [ -115.182993599999989, 36.151817399800002 ], [ -115.1830557, 36.151817399800002 ], [ -115.1830557, 36.151814699799999 ], [ -115.1830746, 36.151814699799999 ], [ -115.1830746, 36.151817399800002 ], [ -115.18308, 36.151817399800002 ], [ -115.18308, 36.151838999799999 ], [ -115.1830773, 36.151838999799999 ], [ -115.1830773, 36.151847099800001 ], [ -115.18308, 36.151847099800001 ], [ -115.18308, 36.151863299799999 ], [ -115.1830827, 36.151863299799999 ], [ -115.1830827, 36.1518767998 ], [ -115.1830854, 36.1518767998 ], [ -115.1830854, 36.151936199799998 ], [ -115.1830827, 36.151936199799998 ], [ -115.1830827, 36.151938899800001 ], [ -115.183053, 36.151938899800001 ], [ -115.183053, 36.151941599799997 ], [ -115.1829963, 36.151941599799997 ], [ -115.1829963, 36.151938899800001 ], [ -115.1829909, 36.151938899800001 ], [ -115.1829909, 36.151941599799997 ], [ -115.1829855, 36.151941599799997 ], [ -115.1829855, 36.1519442998 ] ] ] } },
{ "type": "Feature", "properties": { "value": 255.0 }, "geometry": { "type": "Polygon", "coordinates": [ [ [ -115.182918, 36.151471799799999 ], [ -115.1829126, 36.151471799799999 ], [ -115.1829126, 36.151409699799999 ], [ -115.1829153, 36.151409699799999 ], [ -115.1829153, 36.151412399800002 ], [ -115.1829207, 36.151412399800002 ], [ -115.1829207, 36.151425899800003 ], [ -115.1829234, 36.151425899800003 ], [ -115.1829234, 36.1514663998 ], [ -115.1829207, 36.1514663998 ], [ -115.1829207, 36.151469099800003 ], [ -115.182918, 36.151469099800003 ], [ -115.182918, 36.151471799799999 ] ] ] } },
{ "type": "Feature", "properties": { "value": 255.0 }, "geometry": { "type": "Polygon", "coordinates": [ [ [ -115.1839332, 36.1514906998 ], [ -115.183900799999989, 36.1514906998 ], [ -115.183900799999989, 36.151487999800004 ], [ -115.1838873, 36.151487999800004 ], [ -115.1838873, 36.1514906998 ], [ -115.1838792, 36.1514906998 ], [ -115.1838792, 36.151487999800004 ], [ -115.1838603, 36.151487999800004 ], [ -115.1838603, 36.151482599800005 ], [ -115.1838576, 36.151482599800005 ], [ -115.1838576, 36.151477199799999 ], [ -115.1838603, 36.151477199799999 ], [ -115.1838603, 36.151471799799999 ], [ -115.1838576, 36.151471799799999 ], [ -115.1838576, 36.151420499800004 ], [ -115.1838603, 36.151420499800004 ], [ -115.1838603, 36.151406999800002 ], [ -115.183863, 36.151406999800002 ], [ -115.183863, 36.151401599800003 ], [ -115.1838603, 36.151401599800003 ], [ -115.1838603, 36.151396199800004 ], [ -115.1838576, 36.151396199800004 ], [ -115.1838576, 36.151393499800001 ], [ -115.1838549, 36.151393499800001 ], [ -115.1838549, 36.151385399799999 ], [ -115.1838522, 36.151385399799999 ], [ -115.1838522, 36.151382699800003 ], [ -115.1838495, 36.151382699800003 ], [ -115.1838495, 36.151371899800004 ], [ -115.1838522, 36.151371899800004 ], [ -115.1838522, 36.151336799799999 ], [ -115.1838495, 36.151336799799999 ], [ -115.1838495, 36.151323299800005 ], [ -115.1838522, 36.151323299800005 ], [ -115.1838522, 36.1513124998 ], [ -115.1838549, 36.1513124998 ], [ -115.1838549, 36.151309799800003 ], [ -115.1838576, 36.151309799800003 ], [ -115.1838576, 36.1513070998 ], [ -115.1838711, 36.1513070998 ], [ -115.1838711, 36.151304399800004 ], [ -115.1839359, 36.151304399800004 ], [ -115.1839359, 36.1513070998 ], [ -115.183944, 36.1513070998 ], [ -115.183944, 36.151309799800003 ], [ -115.1839845, 36.151309799800003 ], [ -115.1839845, 36.1513070998 ], [ -115.1840061, 36.1513070998 ], [ -115.1840061, 36.151309799800003 ], [ -115.1840412, 36.151309799800003 ], [ -115.1840412, 36.1513124998 ], [ -115.1840466, 36.1513124998 ], [ -115.1840466, 36.151342199799998 ], [ -115.1840439, 36.151342199799998 ], [ -115.1840439, 36.151344899800002 ], [ -115.1840466, 36.151344899800002 ], [ -115.1840466, 36.151358399800003 ], [ -115.1840439, 36.151358399800003 ], [ -115.1840439, 36.1513745998 ], [ -115.1840466, 36.1513745998 ], [ -115.1840466, 36.151385399799999 ], [ -115.1840439, 36.151385399799999 ], [ -115.1840439, 36.151401599800003 ], [ -115.1840466, 36.151401599800003 ], [ -115.1840466, 36.151409699799999 ], [ -115.1840439, 36.151409699799999 ], [ -115.1840439, 36.1514231998 ], [ -115.1840466, 36.1514231998 ], [ -115.1840466, 36.151436699800001 ], [ -115.1840439, 36.151436699800001 ], [ -115.1840439, 36.151471799799999 ], [ -115.1840385, 36.151471799799999 ], [ -115.1840385, 36.151474499800003 ], [ -115.1840331, 36.151474499800003 ], [ -115.1840331, 36.151471799799999 ], [ -115.1840088, 36.151471799799999 ], [ -115.1840088, 36.151474499800003 ], [ -115.1840034, 36.151474499800003 ], [ -115.1840034, 36.151471799799999 ], [ -115.1839791, 36.151471799799999 ], [ -115.1839791, 36.151469099800003 ], [ -115.183971, 36.151469099800003 ], [ -115.183971, 36.151460999800001 ], [ -115.183968299999989, 36.151460999800001 ], [ -115.183968299999989, 36.151450199800003 ], [ -115.1839656, 36.151450199800003 ], [ -115.1839656, 36.151444799800004 ], [ -115.183968299999989, 36.151444799800004 ], [ -115.183968299999989, 36.151442099800001 ], [ -115.1839548, 36.151442099800001 ], [ -115.1839548, 36.151444799800004 ], [ -115.1839602, 36.151444799800004 ], [ -115.1839602, 36.151450199800003 ], [ -115.1839548, 36.151450199800003 ], [ -115.1839548, 36.151455599800002 ], [ -115.1839575, 36.151455599800002 ], [ -115.1839575, 36.151458299799998 ], [ -115.1839629, 36.151458299799998 ], [ -115.1839629, 36.151460999800001 ], [ -115.1839602, 36.151460999800001 ], [ -115.1839602, 36.151463699800004 ], [ -115.1839575, 36.151463699800004 ], [ -115.1839575, 36.1514663998 ], [ -115.1839548, 36.1514663998 ], [ -115.1839548, 36.151469099800003 ], [ -115.1839521, 36.151469099800003 ], [ -115.1839521, 36.151485299800001 ], [ -115.1839494, 36.151485299800001 ], [ -115.1839494, 36.151487999800004 ], [ -115.1839332, 36.151487999800004 ], [ -115.1839332, 36.1514906998 ] ] ] } },
{ "type": "Feature", "properties": { "value": 255.0 }, "geometry": { "type": "Polygon", "coordinates": [ [ [ -115.1846676, 36.151496099799999 ], [ -115.1846136, 36.151496099799999 ], [ -115.1846136, 36.151493399800003 ], [ -115.1846082, 36.151493399800003 ], [ -115.1846082, 36.151452899799999 ], [ -115.1846055, 36.151452899799999 ], [ -115.1846055, 36.151450199800003 ], [ -115.1846028, 36.151450199800003 ], [ -115.1846028, 36.1514474998 ], [ -115.1845272, 36.1514474998 ], [ -115.1845272, 36.151444799800004 ], [ -115.1845218, 36.151444799800004 ], [ -115.1845218, 36.151425899800003 ], [ -115.1845191, 36.151425899800003 ], [ -115.1845191, 36.151420499800004 ], [ -115.1845218, 36.151420499800004 ], [ -115.1845218, 36.151409699799999 ], [ -115.1845191, 36.151409699799999 ], [ -115.1845191, 36.151390799800005 ], [ -115.1845218, 36.151390799800005 ], [ -115.1845218, 36.151388099800002 ], [ -115.1845191, 36.151388099800002 ], [ -115.1845191, 36.1513745998 ], [ -115.1845218, 36.1513745998 ], [ -115.1845218, 36.151339499800002 ], [ -115.1845245, 36.151339499800002 ], [ -115.1845245, 36.151334099800003 ], [ -115.1845272, 36.151334099800003 ], [ -115.1845272, 36.151323299800005 ], [ -115.1845299, 36.151323299800005 ], [ -115.1845299, 36.151320599800002 ], [ -115.1845326, 36.151320599800002 ], [ -115.1845326, 36.151317899799999 ], [ -115.1845353, 36.151317899799999 ], [ -115.1845353, 36.151315199800003 ], [ -115.1845434, 36.151315199800003 ], [ -115.1845434, 36.1513124998 ], [ -115.1845569, 36.1513124998 ], [ -115.1845569, 36.151309799800003 ], [ -115.1845785, 36.151309799800003 ], [ -115.1845785, 36.1513070998 ], [ -115.1845866, 36.1513070998 ], [ -115.1845866, 36.151304399800004 ], [ -115.1846001, 36.151304399800004 ], [ -115.1846001, 36.151301699800001 ], [ -115.1846028, 36.151301699800001 ], [ -115.1846028, 36.151298999800005 ], [ -115.1846055, 36.151298999800005 ], [ -115.1846055, 36.151296299800002 ], [ -115.1846109, 36.151296299800002 ], [ -115.1846109, 36.151293599799999 ], [ -115.1846136, 36.151293599799999 ], [ -115.1846136, 36.1512881998 ], [ -115.1846406, 36.1512881998 ], [ -115.1846406, 36.151290899800003 ], [ -115.1846676, 36.151290899800003 ], [ -115.1846676, 36.151496099799999 ] ] ] } },
{ "type": "Feature", "properties": { "value": 255.0 }, "geometry": { "type": "Polygon", "coordinates": [ [ [ -115.1838009, 36.151485299800001 ], [ -115.1837253, 36.151485299800001 ], [ -115.1837253, 36.151482599800005 ], [ -115.1837226, 36.151482599800005 ], [ -115.1837226, 36.151479899800002 ], [ -115.1837199, 36.151479899800002 ], [ -115.1837199, 36.151439399800005 ], [ -115.1837172, 36.151439399800005 ], [ -115.1837172, 36.151436699800001 ], [ -115.1836929, 36.151436699800001 ], [ -115.1836929, 36.151433999799998 ], [ -115.183674, 36.151433999799998 ], [ -115.183674, 36.151436699800001 ], [ -115.1836713, 36.151436699800001 ], [ -115.1836713, 36.151433999799998 ], [ -115.1836524, 36.151433999799998 ], [ -115.1836524, 36.151436699800001 ], [ -115.1836389, 36.151436699800001 ], [ -115.1836389, 36.151433999799998 ], [ -115.1836335, 36.151433999799998 ], [ -115.1836335, 36.151431299800002 ], [ -115.183630799999989, 36.151431299800002 ], [ -115.183630799999989, 36.151396199800004 ], [ -115.1836335, 36.151396199800004 ], [ -115.1836335, 36.151390799800005 ], [ -115.183630799999989, 36.151390799800005 ], [ -115.183630799999989, 36.151363799800002 ], [ -115.1836335, 36.151363799800002 ], [ -115.1836335, 36.151347599800005 ], [ -115.183630799999989, 36.151347599800005 ], [ -115.183630799999989, 36.1513070998 ], [ -115.1836335, 36.1513070998 ], [ -115.1836335, 36.151304399800004 ], [ -115.1836389, 36.151304399800004 ], [ -115.1836389, 36.151301699800001 ], [ -115.1836686, 36.151301699800001 ], [ -115.1836686, 36.151298999800005 ], [ -115.1836767, 36.151298999800005 ], [ -115.1836767, 36.151290899800003 ], [ -115.1836794, 36.151290899800003 ], [ -115.1836794, 36.151285499800004 ], [ -115.1836821, 36.151285499800004 ], [ -115.1836821, 36.151282799800001 ], [ -115.1836956, 36.151282799800001 ], [ -115.1836956, 36.151280099800005 ], [ -115.183701, 36.151280099800005 ], [ -115.183701, 36.151282799800001 ], [ -115.1837172, 36.151282799800001 ], [ -115.1837172, 36.151280099800005 ], [ -115.1837496, 36.151280099800005 ], [ -115.1837496, 36.151282799800001 ], [ -115.183755, 36.151282799800001 ], [ -115.183755, 36.151285499800004 ], [ -115.1837577, 36.151285499800004 ], [ -115.1837577, 36.151290899800003 ], [ -115.1837604, 36.151290899800003 ], [ -115.1837604, 36.151293599799999 ], [ -115.1837631, 36.151293599799999 ], [ -115.1837631, 36.151296299800002 ], [ -115.183765799999989, 36.151296299800002 ], [ -115.183765799999989, 36.151298999800005 ], [ -115.1837739, 36.151298999800005 ], [ -115.1837739, 36.151301699800001 ], [ -115.1837928, 36.151301699800001 ], [ -115.1837928, 36.151304399800004 ], [ -115.183809, 36.151304399800004 ], [ -115.183809, 36.1513070998 ], [ -115.1838117, 36.1513070998 ], [ -115.1838117, 36.151482599800005 ], [ -115.1838009, 36.151482599800005 ], [ -115.1838009, 36.151485299800001 ] ] ] } },
{ "type": "Feature", "properties": { "value": 255.0 }, "geometry": { "type": "Polygon", "coordinates": [ [ [ -115.1844219, 36.151496099799999 ], [ -115.1844138, 36.151496099799999 ], [ -115.1844138, 36.151493399800003 ], [ -115.1843949, 36.151493399800003 ], [ -115.1843949, 36.151496099799999 ], [ -115.1843598, 36.151496099799999 ], [ -115.1843598, 36.151493399800003 ], [ -115.1843571, 36.151493399800003 ], [ -115.1843571, 36.151450199800003 ], [ -115.1843544, 36.151450199800003 ], [ -115.1843544, 36.151436699800001 ], [ -115.1843517, 36.151436699800001 ], [ -115.1843517, 36.151433999799998 ], [ -115.1843058, 36.151433999799998 ], [ -115.1843058, 36.151431299800002 ], [ -115.1843031, 36.151431299800002 ], [ -115.1843031, 36.151339499800002 ], [ -115.1843004, 36.151339499800002 ], [ -115.1843004, 36.151315199800003 ], [ -115.1842977, 36.151315199800003 ], [ -115.1842977, 36.151301699800001 ], [ -115.1843004, 36.151301699800001 ], [ -115.1843004, 36.151290899800003 ], [ -115.1843193, 36.151290899800003 ], [ -115.1843193, 36.1512881998 ], [ -115.1843463, 36.1512881998 ], [ -115.1843463, 36.151285499800004 ], [ -115.184349, 36.151285499800004 ], [ -115.184349, 36.151282799800001 ], [ -115.1843625, 36.151282799800001 ], [ -115.1843625, 36.151285499800004 ], [ -115.1843679, 36.151285499800004 ], [ -115.1843679, 36.151280099800005 ], [ -115.1843733, 36.151280099800005 ], [ -115.1843733, 36.1512881998 ], [ -115.184376, 36.1512881998 ], [ -115.184376, 36.151290899800003 ], [ -115.1843787, 36.151290899800003 ], [ -115.1843787, 36.151293599799999 ], [ -115.1843868, 36.151293599799999 ], [ -115.1843868, 36.151296299800002 ], [ -115.1844003, 36.151296299800002 ], [ -115.1844003, 36.151293599799999 ], [ -115.184403, 36.151293599799999 ], [ -115.184403, 36.151296299800002 ], [ -115.1844084, 36.151296299800002 ], [ -115.1844084, 36.151293599799999 ], [ -115.1844138, 36.151293599799999 ], [ -115.1844138, 36.151298999800005 ], [ -115.1844246, 36.151298999800005 ], [ -115.1844246, 36.151301699800001 ], [ -115.1844273, 36.151301699800001 ], [ -115.1844273, 36.151304399800004 ], [ -115.1844354, 36.151304399800004 ], [ -115.1844354, 36.1513070998 ], [ -115.1844381, 36.1513070998 ], [ -115.1844381, 36.151304399800004 ], [ -115.1844435, 36.151304399800004 ], [ -115.1844435, 36.151293599799999 ], [ -115.1844489, 36.151293599799999 ], [ -115.1844489, 36.151301699800001 ], [ -115.1844678, 36.151301699800001 ], [ -115.1844678, 36.151298999800005 ], [ -115.1844705, 36.151298999800005 ], [ -115.1844705, 36.151296299800002 ], [ -115.1844759, 36.151296299800002 ], [ -115.1844759, 36.151301699800001 ], [ -115.1844786, 36.151301699800001 ], [ -115.1844786, 36.151304399800004 ], [ -115.1844813, 36.151304399800004 ], [ -115.1844813, 36.151325999800001 ], [ -115.184484, 36.151325999800001 ], [ -115.184484, 36.151428599799999 ], [ -115.1844813, 36.151428599799999 ], [ -115.1844813, 36.151431299800002 ], [ -115.1844786, 36.151431299800002 ], [ -115.1844786, 36.151433999799998 ], [ -115.18443, 36.151433999799998 ], [ -115.18443, 36.151452899799999 ], [ -115.1844273, 36.151452899799999 ], [ -115.1844273, 36.151493399800003 ], [ -115.1844219, 36.151493399800003 ], [ -115.1844219, 36.151496099799999 ] ] ] } },
{ "type": "Feature", "properties": { "value": 255.0 }, "geometry": { "type": "Polygon", "coordinates": [ [ [ -115.1831799, 36.151469099800003 ], [ -115.1831475, 36.151469099800003 ], [ -115.1831475, 36.1514663998 ], [ -115.1831448, 36.1514663998 ], [ -115.1831448, 36.151463699800004 ], [ -115.1831421, 36.151463699800004 ], [ -115.1831421, 36.151460999800001 ], [ -115.1831394, 36.151460999800001 ], [ -115.1831394, 36.151458299799998 ], [ -115.1831367, 36.151458299799998 ], [ -115.1831367, 36.151452899799999 ], [ -115.183134, 36.151452899799999 ], [ -115.183134, 36.151444799800004 ], [ -115.183128599999989, 36.151444799800004 ], [ -115.183128599999989, 36.151442099800001 ], [ -115.183107, 36.151442099800001 ], [ -115.183107, 36.151444799800004 ], [ -115.1831043, 36.151444799800004 ], [ -115.1831043, 36.1514474998 ], [ -115.1830989, 36.1514474998 ], [ -115.1830989, 36.151450199800003 ], [ -115.1830962, 36.151450199800003 ], [ -115.1830962, 36.151452899799999 ], [ -115.1830692, 36.151452899799999 ], [ -115.1830692, 36.151450199800003 ], [ -115.1830584, 36.151450199800003 ], [ -115.1830584, 36.1514474998 ], [ -115.183053, 36.1514474998 ], [ -115.183053, 36.151444799800004 ], [ -115.1830503, 36.151444799800004 ], [ -115.1830503, 36.151442099800001 ], [ -115.1830476, 36.151442099800001 ], [ -115.1830476, 36.151436699800001 ], [ -115.1830449, 36.151436699800001 ], [ -115.1830449, 36.151406999800002 ], [ -115.1830476, 36.151406999800002 ], [ -115.1830476, 36.151358399800003 ], [ -115.183023299999988, 36.151358399800003 ], [ -115.183023299999988, 36.1513556998 ], [ -115.1830206, 36.1513556998 ], [ -115.1830206, 36.151336799799999 ], [ -115.183023299999988, 36.151336799799999 ], [ -115.183023299999988, 36.151334099800003 ], [ -115.183042199999988, 36.151334099800003 ], [ -115.183042199999988, 36.1513313998 ], [ -115.1830449, 36.1513313998 ], [ -115.1830449, 36.151334099800003 ], [ -115.1830476, 36.151334099800003 ], [ -115.1830476, 36.1513313998 ], [ -115.1830503, 36.1513313998 ], [ -115.1830503, 36.151317899799999 ], [ -115.1830476, 36.151317899799999 ], [ -115.1830476, 36.151315199800003 ], [ -115.1830503, 36.151315199800003 ], [ -115.1830503, 36.151298999800005 ], [ -115.1830557, 36.151298999800005 ], [ -115.1830557, 36.151296299800002 ], [ -115.1831124, 36.151296299800002 ], [ -115.1831124, 36.151298999800005 ], [ -115.1831178, 36.151298999800005 ], [ -115.1831178, 36.151301699800001 ], [ -115.1831475, 36.151301699800001 ], [ -115.1831475, 36.151304399800004 ], [ -115.1831799, 36.151304399800004 ], [ -115.1831799, 36.151301699800001 ], [ -115.183196099999989, 36.151301699800001 ], [ -115.183196099999989, 36.151298999800005 ], [ -115.1832015, 36.151298999800005 ], [ -115.1832015, 36.151296299800002 ], [ -115.1832204, 36.151296299800002 ], [ -115.1832204, 36.151298999800005 ], [ -115.1832231, 36.151298999800005 ], [ -115.1832231, 36.151301699800001 ], [ -115.1832285, 36.151301699800001 ], [ -115.1832285, 36.151298999800005 ], [ -115.183244699999989, 36.151298999800005 ], [ -115.183244699999989, 36.151296299800002 ], [ -115.1832474, 36.151296299800002 ], [ -115.1832474, 36.151293599799999 ], [ -115.1832528, 36.151293599799999 ], [ -115.1832528, 36.151290899800003 ], [ -115.1832555, 36.151290899800003 ], [ -115.1832555, 36.1512881998 ], [ -115.1832582, 36.1512881998 ], [ -115.1832582, 36.151285499800004 ], [ -115.183263599999989, 36.151285499800004 ], [ -115.183263599999989, 36.151282799800001 ], [ -115.1832825, 36.151282799800001 ], [ -115.1832825, 36.151285499800004 ], [ -115.1832879, 36.151285499800004 ], [ -115.1832879, 36.1512881998 ], [ -115.1833041, 36.1512881998 ], [ -115.1833041, 36.151285499800004 ], [ -115.183312199999989, 36.151285499800004 ], [ -115.183312199999989, 36.1512881998 ], [ -115.1833176, 36.1512881998 ], [ -115.1833176, 36.151290899800003 ], [ -115.1833284, 36.151290899800003 ], [ -115.1833284, 36.151293599799999 ], [ -115.1833311, 36.151293599799999 ], [ -115.1833311, 36.151296299800002 ], [ -115.1833338, 36.151296299800002 ], [ -115.1833338, 36.151304399800004 ], [ -115.1833365, 36.151304399800004 ], [ -115.1833365, 36.151325999800001 ], [ -115.1833392, 36.151325999800001 ], [ -115.1833392, 36.151328699800004 ], [ -115.1833419, 36.151328699800004 ], [ -115.1833419, 36.151336799799999 ], [ -115.1833392, 36.151336799799999 ], [ -115.1833392, 36.151344899800002 ], [ -115.1833365, 36.151344899800002 ], [ -115.1833365, 36.151352999800004 ], [ -115.1833338, 36.151352999800004 ], [ -115.1833338, 36.151412399800002 ], [ -115.1833365, 36.151412399800002 ], [ -115.1833365, 36.151428599799999 ], [ -115.1833338, 36.151428599799999 ], [ -115.1833338, 36.151452899799999 ], [ -115.1833311, 36.151452899799999 ], [ -115.1833311, 36.151460999800001 ], [ -115.1833284, 36.151460999800001 ], [ -115.1833284, 36.151463699800004 ], [ -115.183269, 36.151463699800004 ], [ -115.183269, 36.151460999800001 ], [ -115.1832609, 36.151460999800001 ], [ -115.1832609, 36.151458299799998 ], [ -115.1831934, 36.151458299799998 ], [ -115.1831934, 36.151460999800001 ], [ -115.183188, 36.151460999800001 ], [ -115.183188, 36.151463699800004 ], [ -115.1831826, 36.151463699800004 ], [ -115.1831826, 36.1514663998 ], [ -115.1831799, 36.1514663998 ], [ -115.1831799, 36.151469099800003 ] ] ] } },
{ "type": "Feature", "properties": { "value": 255.0 }, "geometry": { "type": "Polygon", "coordinates": [ [ [ -115.1841681, 36.1514906998 ], [ -115.1840871, 36.1514906998 ], [ -115.1840871, 36.151487999800004 ], [ -115.1840817, 36.151487999800004 ], [ -115.1840817, 36.151469099800003 ], [ -115.184079, 36.151469099800003 ], [ -115.184079, 36.151460999800001 ], [ -115.1840817, 36.151460999800001 ], [ -115.1840817, 36.151450199800003 ], [ -115.184079, 36.151450199800003 ], [ -115.184079, 36.151420499800004 ], [ -115.1840817, 36.151420499800004 ], [ -115.1840817, 36.151409699799999 ], [ -115.1840844, 36.151409699799999 ], [ -115.1840844, 36.151406999800002 ], [ -115.1840817, 36.151406999800002 ], [ -115.1840817, 36.151393499800001 ], [ -115.1840844, 36.151393499800001 ], [ -115.1840844, 36.151358399800003 ], [ -115.1840817, 36.151358399800003 ], [ -115.1840817, 36.151350299800001 ], [ -115.1840844, 36.151350299800001 ], [ -115.1840844, 36.151344899800002 ], [ -115.1840817, 36.151344899800002 ], [ -115.1840817, 36.151323299800005 ], [ -115.184079, 36.151323299800005 ], [ -115.184079, 36.151304399800004 ], [ -115.1840817, 36.151304399800004 ], [ -115.1840817, 36.151293599799999 ], [ -115.1840844, 36.151293599799999 ], [ -115.1840844, 36.151290899800003 ], [ -115.1840871, 36.151290899800003 ], [ -115.1840871, 36.1512881998 ], [ -115.1841222, 36.1512881998 ], [ -115.1841222, 36.151285499800004 ], [ -115.1841276, 36.151285499800004 ], [ -115.1841276, 36.1512881998 ], [ -115.1841951, 36.1512881998 ], [ -115.1841951, 36.151290899800003 ], [ -115.184214, 36.151290899800003 ], [ -115.184214, 36.151293599799999 ], [ -115.1842167, 36.151293599799999 ], [ -115.1842167, 36.151296299800002 ], [ -115.1842194, 36.151296299800002 ], [ -115.1842194, 36.1513070998 ], [ -115.1842221, 36.1513070998 ], [ -115.1842221, 36.151309799800003 ], [ -115.1842275, 36.151309799800003 ], [ -115.1842275, 36.1513124998 ], [ -115.1842653, 36.1513124998 ], [ -115.1842653, 36.151315199800003 ], [ -115.184268, 36.151315199800003 ], [ -115.184268, 36.151317899799999 ], [ -115.1842707, 36.151317899799999 ], [ -115.1842707, 36.151325999800001 ], [ -115.184268, 36.151325999800001 ], [ -115.184268, 36.1514663998 ], [ -115.1842626, 36.1514663998 ], [ -115.1842626, 36.151469099800003 ], [ -115.1842194, 36.151469099800003 ], [ -115.1842194, 36.151471799799999 ], [ -115.1841978, 36.151471799799999 ], [ -115.1841978, 36.151469099800003 ], [ -115.1841951, 36.151469099800003 ], [ -115.1841951, 36.1514663998 ], [ -115.1841924, 36.1514663998 ], [ -115.1841924, 36.151444799800004 ], [ -115.184187, 36.151444799800004 ], [ -115.184187, 36.151442099800001 ], [ -115.1841789, 36.151442099800001 ], [ -115.1841789, 36.151444799800004 ], [ -115.1841762, 36.151444799800004 ], [ -115.1841762, 36.151458299799998 ], [ -115.1841789, 36.151458299799998 ], [ -115.1841789, 36.1514663998 ], [ -115.1841762, 36.1514663998 ], [ -115.1841762, 36.151471799799999 ], [ -115.1841735, 36.151471799799999 ], [ -115.1841735, 36.151485299800001 ], [ -115.1841708, 36.151485299800001 ], [ -115.1841708, 36.151487999800004 ], [ -115.1841681, 36.151487999800004 ], [ -115.1841681, 36.1514906998 ] ] ] } },
{ "type": "Feature", "properties": { "value": 255.0 }, "geometry": { "type": "Polygon", "coordinates": [ [ [ -115.1843895, 36.1512206998 ], [ -115.1843841, 36.1512206998 ], [ -115.1843841, 36.151217999800004 ], [ -115.184322, 36.151217999800004 ], [ -115.184322, 36.1512206998 ], [ -115.1843193, 36.1512206998 ], [ -115.1843193, 36.151217999800004 ], [ -115.1843166, 36.151217999800004 ], [ -115.1843166, 36.1512206998 ], [ -115.1843031, 36.1512206998 ], [ -115.1843031, 36.151217999800004 ], [ -115.1843004, 36.151217999800004 ], [ -115.1843004, 36.151204499800002 ], [ -115.1843031, 36.151204499800002 ], [ -115.1843031, 36.1511477998 ], [ -115.1843058, 36.1511477998 ], [ -115.1843058, 36.151112699800002 ], [ -115.1846676, 36.151112699800002 ], [ -115.1846676, 36.1511720998 ], [ -115.184619, 36.1511720998 ], [ -115.184619, 36.151169399800004 ], [ -115.1846109, 36.151169399800004 ], [ -115.1846109, 36.1511720998 ], [ -115.1845191, 36.1511720998 ], [ -115.1845191, 36.151169399800004 ], [ -115.184511, 36.151169399800004 ], [ -115.184511, 36.151163999800005 ], [ -115.1845137, 36.151163999800005 ], [ -115.1845137, 36.151158599799999 ], [ -115.184511, 36.151158599799999 ], [ -115.184511, 36.1511531998 ], [ -115.1845083, 36.1511531998 ], [ -115.1845083, 36.1511477998 ], [ -115.184511, 36.1511477998 ], [ -115.184511, 36.151145099800004 ], [ -115.1845083, 36.151145099800004 ], [ -115.1845083, 36.151142399800001 ], [ -115.1844948, 36.151142399800001 ], [ -115.1844948, 36.1511531998 ], [ -115.1844921, 36.1511531998 ], [ -115.1844921, 36.151155899800003 ], [ -115.1844894, 36.151155899800003 ], [ -115.1844894, 36.1511720998 ], [ -115.1844867, 36.1511720998 ], [ -115.1844867, 36.151177499799999 ], [ -115.184484, 36.151177499799999 ], [ -115.184484, 36.151182899800006 ], [ -115.1844813, 36.151182899800006 ], [ -115.1844813, 36.151185599800002 ], [ -115.1844003, 36.151185599800002 ], [ -115.1844003, 36.151188299800005 ], [ -115.1843976, 36.151188299800005 ], [ -115.1843976, 36.151193699800004 ], [ -115.1843949, 36.151193699800004 ], [ -115.1843949, 36.151217999800004 ], [ -115.1843895, 36.151217999800004 ], [ -115.1843895, 36.1512206998 ] ] ] } },
{ "type": "Feature", "properties": { "value": 255.0 }, "geometry": { "type": "Polygon", "coordinates": [ [ [ -115.1840331, 36.151169399800004 ], [ -115.1838576, 36.151169399800004 ], [ -115.1838576, 36.151163999800005 ], [ -115.1838549, 36.151163999800005 ], [ -115.1838549, 36.151150499800004 ], [ -115.1838576, 36.151150499800004 ], [ -115.1838576, 36.151131599800003 ], [ -115.1838549, 36.151131599800003 ], [ -115.1838549, 36.151126199800004 ], [ -115.1838576, 36.151126199800004 ], [ -115.1838576, 36.151112699800002 ], [ -115.1840358, 36.151112699800002 ], [ -115.1840358, 36.151166699800001 ], [ -115.1840331, 36.151166699800001 ], [ -115.1840331, 36.151169399800004 ] ] ] } },
{ "type": "Feature", "properties": { "value": 255.0 }, "geometry": { "type": "Polygon", "coordinates": [ [ [ -115.183701, 36.151207199800005 ], [ -115.1836416, 36.151207199800005 ], [ -115.1836416, 36.151204499800002 ], [ -115.1836389, 36.151204499800002 ], [ -115.1836389, 36.151201799799999 ], [ -115.1836362, 36.151201799799999 ], [ -115.1836362, 36.151199099800003 ], [ -115.1836335, 36.151199099800003 ], [ -115.1836335, 36.1511963998 ], [ -115.1836362, 36.1511963998 ], [ -115.1836362, 36.151190999800001 ], [ -115.1836335, 36.151190999800001 ], [ -115.1836335, 36.151182899800006 ], [ -115.1836362, 36.151182899800006 ], [ -115.1836362, 36.151174799800003 ], [ -115.1836335, 36.151174799800003 ], [ -115.1836335, 36.1511720998 ], [ -115.1836362, 36.1511720998 ], [ -115.1836362, 36.151142399800001 ], [ -115.1836335, 36.151142399800001 ], [ -115.1836335, 36.151112699800002 ], [ -115.1838117, 36.151112699800002 ], [ -115.1838117, 36.151166699800001 ], [ -115.183809, 36.151166699800001 ], [ -115.183809, 36.151174799800003 ], [ -115.1838063, 36.151174799800003 ], [ -115.1838063, 36.151177499799999 ], [ -115.1837685, 36.151177499799999 ], [ -115.1837685, 36.151180199800002 ], [ -115.1837226, 36.151180199800002 ], [ -115.1837226, 36.151177499799999 ], [ -115.1837064, 36.151177499799999 ], [ -115.1837064, 36.151180199800002 ], [ -115.1837037, 36.151180199800002 ], [ -115.1837037, 36.151182899800006 ], [ -115.183701, 36.151182899800006 ], [ -115.183701, 36.151207199800005 ] ] ] } },
{ "type": "Feature", "properties": { "value": 255.0 }, "geometry": { "type": "Polygon", "coordinates": [ [ [ -115.1842356, 36.151174799800003 ], [ -115.1842059, 36.151174799800003 ], [ -115.1842059, 36.1511720998 ], [ -115.18416, 36.1511720998 ], [ -115.18416, 36.151174799800003 ], [ -115.1840898, 36.151174799800003 ], [ -115.1840898, 36.1511720998 ], [ -115.1840871, 36.1511720998 ], [ -115.1840871, 36.151161299800002 ], [ -115.1840898, 36.151161299800002 ], [ -115.1840898, 36.151158599799999 ], [ -115.1840871, 36.151158599799999 ], [ -115.1840871, 36.1511531998 ], [ -115.1840898, 36.1511531998 ], [ -115.1840898, 36.151112699800002 ], [ -115.1842707, 36.151112699800002 ], [ -115.1842707, 36.151120799800005 ], [ -115.184268, 36.151120799800005 ], [ -115.184268, 36.151136999800002 ], [ -115.1842707, 36.151136999800002 ], [ -115.1842707, 36.1511477998 ], [ -115.184268, 36.1511477998 ], [ -115.184268, 36.151150499800004 ], [ -115.1842707, 36.151150499800004 ], [ -115.1842707, 36.151163999800005 ], [ -115.184268, 36.151163999800005 ], [ -115.184268, 36.1511720998 ], [ -115.1842356, 36.1511720998 ], [ -115.1842356, 36.151174799800003 ] ] ] } },
{ "type": "Feature", "properties": { "value": 255.0 }, "geometry": { "type": "Polygon", "coordinates": [ [ [ -115.1830989, 36.151226099799999 ], [ -115.1830854, 36.151226099799999 ], [ -115.1830854, 36.151223399800003 ], [ -115.1830638, 36.151223399800003 ], [ -115.1830638, 36.1512206998 ], [ -115.1830449, 36.1512206998 ], [ -115.1830449, 36.151217999800004 ], [ -115.1830476, 36.151217999800004 ], [ -115.1830476, 36.1512152998 ], [ -115.1830449, 36.1512152998 ], [ -115.1830449, 36.151212599800004 ], [ -115.1830368, 36.151212599800004 ], [ -115.1830368, 36.1512152998 ], [ -115.1830395, 36.1512152998 ], [ -115.1830395, 36.1512206998 ], [ -115.1830314, 36.1512206998 ], [ -115.1830314, 36.151217999800004 ], [ -115.1830287, 36.151217999800004 ], [ -115.1830287, 36.1512152998 ], [ -115.183023299999988, 36.1512152998 ], [ -115.183023299999988, 36.151212599800004 ], [ -115.1830179, 36.151212599800004 ], [ -115.1830179, 36.151209899800001 ], [ -115.1830152, 36.151209899800001 ], [ -115.1830152, 36.151207199800005 ], [ -115.1830179, 36.151207199800005 ], [ -115.1830179, 36.151201799799999 ], [ -115.1830152, 36.151201799799999 ], [ -115.1830152, 36.151188299800005 ], [ -115.1830125, 36.151188299800005 ], [ -115.1830125, 36.151174799800003 ], [ -115.1830152, 36.151174799800003 ], [ -115.1830152, 36.151163999800005 ], [ -115.1830179, 36.151163999800005 ], [ -115.1830179, 36.151161299800002 ], [ -115.1830206, 36.151161299800002 ], [ -115.1830206, 36.151158599799999 ], [ -115.183023299999988, 36.151158599799999 ], [ -115.183023299999988, 36.151155899800003 ], [ -115.1830287, 36.151155899800003 ], [ -115.1830287, 36.1511531998 ], [ -115.1830368, 36.1511531998 ], [ -115.1830368, 36.151150499800004 ], [ -115.183042199999988, 36.151150499800004 ], [ -115.183042199999988, 36.1511531998 ], [ -115.1830476, 36.1511531998 ], [ -115.1830476, 36.151155899800003 ], [ -115.183061099999989, 36.151155899800003 ], [ -115.183061099999989, 36.151158599799999 ], [ -115.1830746, 36.151158599799999 ], [ -115.1830746, 36.151155899800003 ], [ -115.1830773, 36.151155899800003 ], [ -115.1830773, 36.151145099800004 ], [ -115.18308, 36.151145099800004 ], [ -115.18308, 36.151142399800001 ], [ -115.1830773, 36.151142399800001 ], [ -115.1830773, 36.151139699800005 ], [ -115.1830746, 36.151139699800005 ], [ -115.1830746, 36.1511288998 ], [ -115.1830719, 36.1511288998 ], [ -115.1830719, 36.151126199800004 ], [ -115.183061099999989, 36.151126199800004 ], [ -115.183061099999989, 36.151123499800001 ], [ -115.1830584, 36.151123499800001 ], [ -115.1830584, 36.151120799800005 ], [ -115.1830665, 36.151120799800005 ], [ -115.1830665, 36.151118099800001 ], [ -115.1830692, 36.151118099800001 ], [ -115.1830692, 36.151115399800005 ], [ -115.1830746, 36.151115399800005 ], [ -115.1830746, 36.151112699800002 ], [ -115.1833473, 36.151112699800002 ], [ -115.1833473, 36.151120799800005 ], [ -115.1833446, 36.151120799800005 ], [ -115.1833446, 36.1511288998 ], [ -115.1833419, 36.1511288998 ], [ -115.1833419, 36.151134299799999 ], [ -115.1833392, 36.151134299799999 ], [ -115.1833392, 36.151145099800004 ], [ -115.1833365, 36.151145099800004 ], [ -115.1833365, 36.1511477998 ], [ -115.1833257, 36.1511477998 ], [ -115.1833257, 36.151150499800004 ], [ -115.1833014, 36.151150499800004 ], [ -115.1833014, 36.1511477998 ], [ -115.1832528, 36.1511477998 ], [ -115.1832528, 36.151150499800004 ], [ -115.183244699999989, 36.151150499800004 ], [ -115.183244699999989, 36.1511531998 ], [ -115.183242, 36.1511531998 ], [ -115.183242, 36.151155899800003 ], [ -115.1832393, 36.151155899800003 ], [ -115.1832393, 36.151158599799999 ], [ -115.1832366, 36.151158599799999 ], [ -115.1832366, 36.151161299800002 ], [ -115.1832393, 36.151161299800002 ], [ -115.1832393, 36.151166699800001 ], [ -115.1832366, 36.151166699800001 ], [ -115.1832366, 36.151174799800003 ], [ -115.1832339, 36.151174799800003 ], [ -115.1832339, 36.151177499799999 ], [ -115.1832312, 36.151177499799999 ], [ -115.1832312, 36.151199099800003 ], [ -115.1832285, 36.151199099800003 ], [ -115.1832285, 36.151209899800001 ], [ -115.183225799999988, 36.151209899800001 ], [ -115.183225799999988, 36.151212599800004 ], [ -115.1831988, 36.151212599800004 ], [ -115.1831988, 36.1512152998 ], [ -115.1831826, 36.1512152998 ], [ -115.1831826, 36.151217999800004 ], [ -115.1831745, 36.151217999800004 ], [ -115.1831745, 36.1512206998 ], [ -115.183107, 36.1512206998 ], [ -115.183107, 36.151223399800003 ], [ -115.1830989, 36.151223399800003 ], [ -115.1830989, 36.151226099799999 ] ] ] } }
]
}
