{
"type": "FeatureCollection",
"crs": { "type": "name", "properties": { "name": "urn:ogc:def:crs:OGC:1.3:CRS84" } },
"features": [
{ "type": "Feature", "properties": { "value": 255.0 }, "geometry": { "type": "Polygon", "coordinates": [ [ [ -115.2820053, 36.226488599900001 ], [ -115.2819918, 36.226488599900001 ], [ -115.2819918, 36.226485899899998 ], [ -115.2819891, 36.226485899899998 ], [ -115.2819891, 36.226483199899995 ], [ -115.2819918, 36.226483199899995 ], [ -115.2819918, 36.226480499899999 ], [ -115.2820026, 36.226480499899999 ], [ -115.2820026, 36.226483199899995 ], [ -115.2820053, 36.226483199899995 ], [ -115.2820053, 36.226488599900001 ] ] ] } },
{ "type": "Feature", "properties": { "value": 255.0 }, "geometry": { "type": "Polygon", "coordinates": [ [ [ -115.2817704, 36.226502099899996 ], [ -115.2817677, 36.226502099899996 ], [ -115.2817677, 36.2264993999 ], [ -115.2817461, 36.2264993999 ], [ -115.2817461, 36.226491299899998 ], [ -115.2817434, 36.226491299899998 ], [ -115.2817434, 36.226391399899995 ], [ -115.2817461, 36.226391399899995 ], [ -115.2817461, 36.226388699899999 ], [ -115.2817488, 36.226388699899999 ], [ -115.2817488, 36.226385999899996 ], [ -115.281792, 36.226385999899996 ], [ -115.281792, 36.2263832999 ], [ -115.2818001, 36.2263832999 ], [ -115.2818001, 36.226380599899997 ], [ -115.2818109, 36.226380599899997 ], [ -115.2818109, 36.226377899900001 ], [ -115.2818568, 36.226377899900001 ], [ -115.2818568, 36.226380599899997 ], [ -115.2818784, 36.226380599899997 ], [ -115.2818784, 36.2263832999 ], [ -115.2818973, 36.2263832999 ], [ -115.2818973, 36.226385999899996 ], [ -115.2819, 36.226385999899996 ], [ -115.2819, 36.226388699899999 ], [ -115.2819027, 36.226388699899999 ], [ -115.2819027, 36.226396799900002 ], [ -115.2819054, 36.226396799900002 ], [ -115.2819054, 36.226493999900001 ], [ -115.2819027, 36.226493999900001 ], [ -115.2819027, 36.226496699899997 ], [ -115.2818784, 36.226496699899997 ], [ -115.2818784, 36.226493999900001 ], [ -115.2818028, 36.226493999900001 ], [ -115.2818028, 36.226496699899997 ], [ -115.281792, 36.226496699899997 ], [ -115.281792, 36.2264993999 ], [ -115.2817704, 36.2264993999 ], [ -115.2817704, 36.226502099899996 ] ] ] } },
{ "type": "Feature", "properties": { "value": 255.0 }, "geometry": { "type": "Polygon", "coordinates": [ [ [ -115.2821511, 36.226496699899997 ], [ -115.2821403, 36.226496699899997 ], [ -115.2821403, 36.226493999900001 ], [ -115.282116, 36.226493999900001 ], [ -115.282116, 36.226491299899998 ], [ -115.2821133, 36.226491299899998 ], [ -115.2821133, 36.226477799899996 ], [ -115.2821106, 36.226477799899996 ], [ -115.2821106, 36.2264507999 ], [ -115.2821079, 36.2264507999 ], [ -115.2821079, 36.226439999900002 ], [ -115.2821106, 36.226439999900002 ], [ -115.2821106, 36.226377899900001 ], [ -115.2821133, 36.226377899900001 ], [ -115.2821133, 36.226375199899998 ], [ -115.2822483, 36.226375199899998 ], [ -115.2822483, 36.226372499900002 ], [ -115.282251, 36.226372499900002 ], [ -115.282251, 36.226375199899998 ], [ -115.2822591, 36.226375199899998 ], [ -115.2822591, 36.226437299899999 ], [ -115.2822618, 36.226437299899999 ], [ -115.2822618, 36.226456199899999 ], [ -115.2822591, 36.226456199899999 ], [ -115.2822591, 36.226464299900002 ], [ -115.2822618, 36.226464299900002 ], [ -115.2822618, 36.226483199899995 ], [ -115.2822591, 36.226483199899995 ], [ -115.2822591, 36.226485899899998 ], [ -115.2822564, 36.226485899899998 ], [ -115.2822564, 36.226488599900001 ], [ -115.2822132, 36.226488599900001 ], [ -115.2822132, 36.226491299899998 ], [ -115.282197, 36.226491299899998 ], [ -115.282197, 36.226493999900001 ], [ -115.2821511, 36.226493999900001 ], [ -115.2821511, 36.226496699899997 ] ] ] } },
{ "type": "Feature", "properties": { "value": 255.0 }, "geometry": { "type": "Polygon", "coordinates": [ [ [ -115.2829017, 36.226480499899999 ], [ -115.2828936, 36.226480499899999 ], [ -115.2828936, 36.226477799899996 ], [ -115.2828855, 36.226477799899996 ], [ -115.2828855, 36.226480499899999 ], [ -115.2828828, 36.226480499899999 ], [ -115.2828828, 36.226477799899996 ], [ -115.282872, 36.226477799899996 ], [ -115.282872, 36.2264750999 ], [ -115.2828666, 36.2264750999 ], [ -115.2828666, 36.226472399899997 ], [ -115.2828639, 36.226472399899997 ], [ -115.2828639, 36.226466999899998 ], [ -115.2828612, 36.226466999899998 ], [ -115.2828612, 36.226434599899996 ], [ -115.2828585, 36.226434599899996 ], [ -115.2828585, 36.226369799899999 ], [ -115.2828612, 36.226369799899999 ], [ -115.2828612, 36.2263643999 ], [ -115.2828909, 36.2263643999 ], [ -115.2828909, 36.226361699899996 ], [ -115.2829206, 36.226361699899996 ], [ -115.2829206, 36.2263589999 ], [ -115.2829476, 36.2263589999 ], [ -115.2829476, 36.2264750999 ], [ -115.2829125, 36.2264750999 ], [ -115.2829125, 36.226477799899996 ], [ -115.2829017, 36.226477799899996 ], [ -115.2829017, 36.226480499899999 ] ] ] } },
{ "type": "Feature", "properties": { "value": 255.0 }, "geometry": { "type": "Polygon", "coordinates": [ [ [ -115.2813087, 36.226504799899999 ], [ -115.2811926, 36.226504799899999 ], [ -115.2811926, 36.226361699899996 ], [ -115.2812412, 36.226361699899996 ], [ -115.2812412, 36.2263589999 ], [ -115.2812763, 36.2263589999 ], [ -115.2812763, 36.226356299899997 ], [ -115.2813033, 36.226356299899997 ], [ -115.2813033, 36.2263589999 ], [ -115.2813222, 36.2263589999 ], [ -115.2813222, 36.226361699899996 ], [ -115.2813276, 36.226361699899996 ], [ -115.2813276, 36.2263643999 ], [ -115.2813303, 36.2263643999 ], [ -115.2813303, 36.226380599899997 ], [ -115.281333, 36.226380599899997 ], [ -115.281333, 36.226466999899998 ], [ -115.2813357, 36.226466999899998 ], [ -115.2813357, 36.226472399899997 ], [ -115.281333, 36.226472399899997 ], [ -115.281333, 36.226477799899996 ], [ -115.2813357, 36.226477799899996 ], [ -115.2813357, 36.226485899899998 ], [ -115.281333, 36.226485899899998 ], [ -115.281333, 36.2264993999 ], [ -115.2813303, 36.2264993999 ], [ -115.2813303, 36.226502099899996 ], [ -115.2813087, 36.226502099899996 ], [ -115.2813087, 36.226504799899999 ] ] ] } },
{ "type": "Feature", "properties": { "value": 255.0 }, "geometry": { "type": "Polygon", "coordinates": [ [ [ -115.2813897, 36.226504799899999 ], [ -115.2813843, 36.226504799899999 ], [ -115.2813843, 36.226502099899996 ], [ -115.2813816, 36.226502099899996 ], [ -115.2813816, 36.2264993999 ], [ -115.2813789, 36.2264993999 ], [ -115.2813789, 36.226491299899998 ], [ -115.2813762, 36.226491299899998 ], [ -115.2813762, 36.226429199899997 ], [ -115.2813735, 36.226429199899997 ], [ -115.2813735, 36.2264075999 ], [ -115.2813762, 36.2264075999 ], [ -115.2813762, 36.226375199899998 ], [ -115.2813789, 36.226375199899998 ], [ -115.2813789, 36.226372499900002 ], [ -115.281387, 36.226372499900002 ], [ -115.281387, 36.226369799899999 ], [ -115.2813924, 36.226369799899999 ], [ -115.2813924, 36.226367099899996 ], [ -115.2813978, 36.226367099899996 ], [ -115.2813978, 36.226369799899999 ], [ -115.281414, 36.226369799899999 ], [ -115.281414, 36.226367099899996 ], [ -115.2814194, 36.226367099899996 ], [ -115.2814194, 36.226361699899996 ], [ -115.2814302, 36.226361699899996 ], [ -115.2814302, 36.2263589999 ], [ -115.2814491, 36.2263589999 ], [ -115.2814491, 36.226356299899997 ], [ -115.281468, 36.226356299899997 ], [ -115.281468, 36.2263589999 ], [ -115.2814707, 36.2263589999 ], [ -115.2814707, 36.226356299899997 ], [ -115.2814734, 36.226356299899997 ], [ -115.2814734, 36.2263589999 ], [ -115.2814788, 36.2263589999 ], [ -115.2814788, 36.2263643999 ], [ -115.2814815, 36.2263643999 ], [ -115.2814815, 36.226367099899996 ], [ -115.2814842, 36.226367099899996 ], [ -115.2814842, 36.226369799899999 ], [ -115.2814869, 36.226369799899999 ], [ -115.2814869, 36.226372499900002 ], [ -115.2815031, 36.226372499900002 ], [ -115.2815031, 36.226375199899998 ], [ -115.2815085, 36.226375199899998 ], [ -115.2815085, 36.226372499900002 ], [ -115.2815193, 36.226372499900002 ], [ -115.2815193, 36.226375199899998 ], [ -115.281522, 36.226375199899998 ], [ -115.281522, 36.226377899900001 ], [ -115.2815247, 36.226377899900001 ], [ -115.2815247, 36.226391399899995 ], [ -115.2815274, 36.226391399899995 ], [ -115.2815274, 36.2264075999 ], [ -115.2815247, 36.2264075999 ], [ -115.2815247, 36.2264318999 ], [ -115.2815274, 36.2264318999 ], [ -115.2815274, 36.226485899899998 ], [ -115.2815247, 36.226485899899998 ], [ -115.2815247, 36.226488599900001 ], [ -115.2815193, 36.226488599900001 ], [ -115.2815193, 36.226491299899998 ], [ -115.2814896, 36.226491299899998 ], [ -115.2814896, 36.226493999900001 ], [ -115.2814707, 36.226493999900001 ], [ -115.2814707, 36.226496699899997 ], [ -115.2814302, 36.226496699899997 ], [ -115.2814302, 36.2264993999 ], [ -115.281414, 36.2264993999 ], [ -115.281414, 36.226502099899996 ], [ -115.2813897, 36.226502099899996 ], [ -115.2813897, 36.226504799899999 ] ] ] } },
{ "type": "Feature", "properties": { "value": 255.0 }, "geometry": { "type": "Polygon", "coordinates": [ [ [ -115.2827208, 36.226496699899997 ], [ -115.2826992, 36.226496699899997 ], [ -115.2826992, 36.226493999900001 ], [ -115.2826965, 36.226493999900001 ], [ -115.2826965, 36.226496699899997 ], [ -115.2826884, 36.226496699899997 ], [ -115.2826884, 36.226493999900001 ], [ -115.282683, 36.226493999900001 ], [ -115.282683, 36.226483199899995 ], [ -115.2826803, 36.226483199899995 ], [ -115.2826803, 36.226448099899997 ], [ -115.2826776, 36.226448099899997 ], [ -115.2826776, 36.226350899899998 ], [ -115.2826803, 36.226350899899998 ], [ -115.2826803, 36.226331999899998 ], [ -115.282683, 36.226331999899998 ], [ -115.282683, 36.226329299900002 ], [ -115.2826857, 36.226329299900002 ], [ -115.2826857, 36.226326599899998 ], [ -115.2826911, 36.226326599899998 ], [ -115.2826911, 36.226329299900002 ], [ -115.2826965, 36.226329299900002 ], [ -115.2826965, 36.226326599899998 ], [ -115.2827586, 36.226326599899998 ], [ -115.2827586, 36.226329299900002 ], [ -115.282818, 36.226329299900002 ], [ -115.282818, 36.226342799899996 ], [ -115.2828207, 36.226342799899996 ], [ -115.2828207, 36.226353599900001 ], [ -115.2828234, 36.226353599900001 ], [ -115.2828234, 36.226369799899999 ], [ -115.2828261, 36.226369799899999 ], [ -115.2828261, 36.226372499900002 ], [ -115.2828315, 36.226372499900002 ], [ -115.2828315, 36.226448099899997 ], [ -115.2828342, 36.226448099899997 ], [ -115.2828342, 36.226477799899996 ], [ -115.2828315, 36.226477799899996 ], [ -115.2828315, 36.226483199899995 ], [ -115.2828342, 36.226483199899995 ], [ -115.2828342, 36.226488599900001 ], [ -115.2828315, 36.226488599900001 ], [ -115.2828315, 36.226491299899998 ], [ -115.2828261, 36.226491299899998 ], [ -115.2828261, 36.226493999900001 ], [ -115.2827208, 36.226493999900001 ], [ -115.2827208, 36.226496699899997 ] ] ] } },
{ "type": "Feature", "properties": { "value": 255.0 }, "geometry": { "type": "Polygon", "coordinates": [ [ [ -115.2825588, 36.226483199899995 ], [ -115.2825507, 36.226483199899995 ], [ -115.2825507, 36.226480499899999 ], [ -115.2825534, 36.226480499899999 ], [ -115.2825534, 36.226477799899996 ], [ -115.2825561, 36.226477799899996 ], [ -115.2825561, 36.2264750999 ], [ -115.2825507, 36.2264750999 ], [ -115.2825507, 36.226472399899997 ], [ -115.2824886, 36.226472399899997 ], [ -115.2824886, 36.226469699900001 ], [ -115.2824859, 36.226469699900001 ], [ -115.2824859, 36.226448099899997 ], [ -115.2824886, 36.226448099899997 ], [ -115.2824886, 36.226361699899996 ], [ -115.2824913, 36.226361699899996 ], [ -115.2824913, 36.226356299899997 ], [ -115.2825021, 36.226356299899997 ], [ -115.2825021, 36.226353599900001 ], [ -115.2825291, 36.226353599900001 ], [ -115.2825291, 36.226356299899997 ], [ -115.2825453, 36.226356299899997 ], [ -115.2825453, 36.226353599900001 ], [ -115.2825534, 36.226353599900001 ], [ -115.2825534, 36.226350899899998 ], [ -115.2825561, 36.226350899899998 ], [ -115.2825561, 36.226348199900002 ], [ -115.2825588, 36.226348199900002 ], [ -115.2825588, 36.226345499899999 ], [ -115.2825642, 36.226345499899999 ], [ -115.2825642, 36.226342799899996 ], [ -115.2825669, 36.226342799899996 ], [ -115.2825669, 36.2263400999 ], [ -115.2825723, 36.2263400999 ], [ -115.2825723, 36.226337399899997 ], [ -115.282575, 36.226337399899997 ], [ -115.282575, 36.226329299900002 ], [ -115.2825777, 36.226329299900002 ], [ -115.2825777, 36.226326599899998 ], [ -115.2825993, 36.226326599899998 ], [ -115.2825993, 36.226329299900002 ], [ -115.2826074, 36.226329299900002 ], [ -115.2826074, 36.226331999899998 ], [ -115.2826317, 36.226331999899998 ], [ -115.2826317, 36.226334699900001 ], [ -115.2826398, 36.226334699900001 ], [ -115.2826398, 36.226337399899997 ], [ -115.2826425, 36.226337399899997 ], [ -115.2826425, 36.226342799899996 ], [ -115.2826452, 36.226342799899996 ], [ -115.2826452, 36.226350899899998 ], [ -115.2826479, 36.226350899899998 ], [ -115.2826479, 36.226353599900001 ], [ -115.2826506, 36.226353599900001 ], [ -115.2826506, 36.226356299899997 ], [ -115.2826533, 36.226356299899997 ], [ -115.2826533, 36.226367099899996 ], [ -115.2826506, 36.226367099899996 ], [ -115.2826506, 36.226439999900002 ], [ -115.2826479, 36.226439999900002 ], [ -115.2826479, 36.2264507999 ], [ -115.2826452, 36.2264507999 ], [ -115.2826452, 36.226453499899996 ], [ -115.282575, 36.226453499899996 ], [ -115.282575, 36.226464299900002 ], [ -115.2825723, 36.226464299900002 ], [ -115.2825723, 36.226477799899996 ], [ -115.2825642, 36.226477799899996 ], [ -115.2825642, 36.226472399899997 ], [ -115.2825615, 36.226472399899997 ], [ -115.2825615, 36.226477799899996 ], [ -115.2825588, 36.226477799899996 ], [ -115.2825588, 36.226483199899995 ] ] ] } },
{ "type": "Feature", "properties": { "value": 255.0 }, "geometry": { "type": "Polygon", "coordinates": [ [ [ -115.2817164, 36.2264993999 ], [ -115.2816759, 36.2264993999 ], [ -115.2816759, 36.226496699899997 ], [ -115.2816624, 36.226496699899997 ], [ -115.2816624, 36.226493999900001 ], [ -115.2816246, 36.226493999900001 ], [ -115.2816246, 36.226496699899997 ], [ -115.2816165, 36.226496699899997 ], [ -115.2816165, 36.226493999900001 ], [ -115.2816003, 36.226493999900001 ], [ -115.2816003, 36.226496699899997 ], [ -115.2815814, 36.226496699899997 ], [ -115.2815814, 36.226493999900001 ], [ -115.2815706, 36.226493999900001 ], [ -115.2815706, 36.226491299899998 ], [ -115.2815652, 36.226491299899998 ], [ -115.2815652, 36.226488599900001 ], [ -115.2815598, 36.226488599900001 ], [ -115.2815598, 36.226485899899998 ], [ -115.2815571, 36.226485899899998 ], [ -115.2815571, 36.226480499899999 ], [ -115.2815544, 36.226480499899999 ], [ -115.2815544, 36.2264750999 ], [ -115.2815517, 36.2264750999 ], [ -115.2815517, 36.226421099900001 ], [ -115.2815544, 36.226421099900001 ], [ -115.2815544, 36.226388699899999 ], [ -115.2815571, 36.226388699899999 ], [ -115.2815571, 36.2263832999 ], [ -115.2815733, 36.2263832999 ], [ -115.2815733, 36.226380599899997 ], [ -115.2815841, 36.226380599899997 ], [ -115.2815841, 36.226377899900001 ], [ -115.2815868, 36.226377899900001 ], [ -115.2815868, 36.226375199899998 ], [ -115.2815895, 36.226375199899998 ], [ -115.2815895, 36.226361699899996 ], [ -115.2815922, 36.226361699899996 ], [ -115.2815922, 36.226348199900002 ], [ -115.2815895, 36.226348199900002 ], [ -115.2815895, 36.226345499899999 ], [ -115.2815922, 36.226345499899999 ], [ -115.2815922, 36.226342799899996 ], [ -115.2816003, 36.226342799899996 ], [ -115.2816003, 36.2263400999 ], [ -115.281603, 36.2263400999 ], [ -115.281603, 36.226342799899996 ], [ -115.2816543, 36.226342799899996 ], [ -115.2816543, 36.226345499899999 ], [ -115.2816597, 36.226345499899999 ], [ -115.2816597, 36.226350899899998 ], [ -115.2816624, 36.226350899899998 ], [ -115.2816624, 36.226361699899996 ], [ -115.2816597, 36.226361699899996 ], [ -115.2816597, 36.226367099899996 ], [ -115.2816624, 36.226367099899996 ], [ -115.2816624, 36.226372499900002 ], [ -115.2816759, 36.226372499900002 ], [ -115.2816759, 36.226375199899998 ], [ -115.2816813, 36.226375199899998 ], [ -115.2816813, 36.226377899900001 ], [ -115.2816921, 36.226377899900001 ], [ -115.2816921, 36.226380599899997 ], [ -115.2817029, 36.226380599899997 ], [ -115.2817029, 36.2263832999 ], [ -115.2817083, 36.2263832999 ], [ -115.2817083, 36.226385999899996 ], [ -115.281711, 36.226385999899996 ], [ -115.281711, 36.226388699899999 ], [ -115.2817137, 36.226388699899999 ], [ -115.2817137, 36.226399499899998 ], [ -115.2817164, 36.226399499899998 ], [ -115.2817164, 36.2264075999 ], [ -115.2817191, 36.2264075999 ], [ -115.2817191, 36.226469699900001 ], [ -115.2817164, 36.226469699900001 ], [ -115.2817164, 36.226472399899997 ], [ -115.2817191, 36.226472399899997 ], [ -115.2817191, 36.226493999900001 ], [ -115.2817164, 36.226493999900001 ], [ -115.2817164, 36.2264993999 ] ] ] } },
{ "type": "Feature", "properties": { "value": 255.0 }, "geometry": { "type": "Polygon", "coordinates": [ [ [ -115.2820377, 36.226485899899998 ], [ -115.2820323, 36.226485899899998 ], [ -115.2820323, 36.226483199899995 ], [ -115.2820242, 36.226483199899995 ], [ -115.2820242, 36.226480499899999 ], [ -115.2820107, 36.226480499899999 ], [ -115.2820107, 36.226477799899996 ], [ -115.2820053, 36.226477799899996 ], [ -115.2820053, 36.2264750999 ], [ -115.2820026, 36.2264750999 ], [ -115.2820026, 36.226472399899997 ], [ -115.2820053, 36.226472399899997 ], [ -115.2820053, 36.226464299900002 ], [ -115.2820026, 36.226464299900002 ], [ -115.2820026, 36.226461599899999 ], [ -115.2819999, 36.226461599899999 ], [ -115.2819999, 36.226458899899995 ], [ -115.2819891, 36.226458899899995 ], [ -115.2819891, 36.226456199899999 ], [ -115.2819432, 36.226456199899999 ], [ -115.2819432, 36.226453499899996 ], [ -115.2819405, 36.226453499899996 ], [ -115.2819405, 36.226456199899999 ], [ -115.2819351, 36.226456199899999 ], [ -115.2819351, 36.226453499899996 ], [ -115.2819324, 36.226453499899996 ], [ -115.2819324, 36.226448099899997 ], [ -115.2819297, 36.226448099899997 ], [ -115.2819297, 36.226426499900001 ], [ -115.281927, 36.226426499900001 ], [ -115.281927, 36.226421099900001 ], [ -115.2819297, 36.226421099900001 ], [ -115.2819297, 36.226353599900001 ], [ -115.2819459, 36.226353599900001 ], [ -115.2819459, 36.226350899899998 ], [ -115.2819594, 36.226350899899998 ], [ -115.2819594, 36.226345499899999 ], [ -115.2819621, 36.226345499899999 ], [ -115.2819621, 36.2263400999 ], [ -115.2819594, 36.2263400999 ], [ -115.2819594, 36.226334699900001 ], [ -115.2819621, 36.226334699900001 ], [ -115.2819621, 36.226329299900002 ], [ -115.2819648, 36.226329299900002 ], [ -115.2819648, 36.226326599899998 ], [ -115.2819675, 36.226326599899998 ], [ -115.2819675, 36.226323899900002 ], [ -115.2819783, 36.226323899900002 ], [ -115.2819783, 36.226321199899999 ], [ -115.2819837, 36.226321199899999 ], [ -115.2819837, 36.226323899900002 ], [ -115.2819891, 36.226323899900002 ], [ -115.2819891, 36.226329299900002 ], [ -115.2819918, 36.226329299900002 ], [ -115.2819918, 36.226337399899997 ], [ -115.2819945, 36.226337399899997 ], [ -115.2819945, 36.2263400999 ], [ -115.2819972, 36.2263400999 ], [ -115.2819972, 36.226342799899996 ], [ -115.2820026, 36.226342799899996 ], [ -115.2820026, 36.226345499899999 ], [ -115.2820053, 36.226345499899999 ], [ -115.2820053, 36.226350899899998 ], [ -115.282008, 36.226350899899998 ], [ -115.282008, 36.226353599900001 ], [ -115.2820863, 36.226353599900001 ], [ -115.2820863, 36.226356299899997 ], [ -115.282089, 36.226356299899997 ], [ -115.282089, 36.226388699899999 ], [ -115.2820917, 36.226388699899999 ], [ -115.2820917, 36.226394099899998 ], [ -115.282089, 36.226394099899998 ], [ -115.282089, 36.2264075999 ], [ -115.2820917, 36.2264075999 ], [ -115.2820917, 36.226423799899997 ], [ -115.282089, 36.226423799899997 ], [ -115.282089, 36.226464299900002 ], [ -115.2820863, 36.226464299900002 ], [ -115.2820863, 36.226466999899998 ], [ -115.2820836, 36.226466999899998 ], [ -115.2820836, 36.226469699900001 ], [ -115.2820593, 36.226469699900001 ], [ -115.2820593, 36.226477799899996 ], [ -115.2820485, 36.226477799899996 ], [ -115.2820485, 36.226483199899995 ], [ -115.2820377, 36.226483199899995 ], [ -115.2820377, 36.226485899899998 ] ] ] } },
{ "type": "Feature", "properties": { "value": 255.0 }, "geometry": { "type": "Polygon", "coordinates": [ [ [ -115.2824292, 36.2264750999 ], [ -115.2824238, 36.2264750999 ], [ -115.2824238, 36.226472399899997 ], [ -115.2824103, 36.226472399899997 ], [ -115.2824103, 36.226469699900001 ], [ -115.2823968, 36.226469699900001 ], [ -115.2823968, 36.226466999899998 ], [ -115.2823887, 36.226466999899998 ], [ -115.2823887, 36.226464299900002 ], [ -115.282386, 36.226464299900002 ], [ -115.282386, 36.226458899899995 ], [ -115.2823806, 36.226458899899995 ], [ -115.2823806, 36.226456199899999 ], [ -115.2823401, 36.226456199899999 ], [ -115.2823401, 36.226458899899995 ], [ -115.2823239, 36.226458899899995 ], [ -115.2823239, 36.226456199899999 ], [ -115.2823131, 36.226456199899999 ], [ -115.2823131, 36.226458899899995 ], [ -115.2823104, 36.226458899899995 ], [ -115.2823104, 36.226456199899999 ], [ -115.2823023, 36.226456199899999 ], [ -115.2823023, 36.226453499899996 ], [ -115.2822996, 36.226453499899996 ], [ -115.2822996, 36.226437299899999 ], [ -115.2822969, 36.226437299899999 ], [ -115.2822969, 36.226385999899996 ], [ -115.2822996, 36.226385999899996 ], [ -115.2822996, 36.2263832999 ], [ -115.2822969, 36.2263832999 ], [ -115.2822969, 36.226369799899999 ], [ -115.2822996, 36.226369799899999 ], [ -115.2822996, 36.226350899899998 ], [ -115.2823104, 36.226350899899998 ], [ -115.2823104, 36.226348199900002 ], [ -115.2823239, 36.226348199900002 ], [ -115.2823239, 36.226345499899999 ], [ -115.2823266, 36.226345499899999 ], [ -115.2823266, 36.226337399899997 ], [ -115.2823293, 36.226337399899997 ], [ -115.2823293, 36.226334699900001 ], [ -115.282332, 36.226334699900001 ], [ -115.282332, 36.226331999899998 ], [ -115.2823347, 36.226331999899998 ], [ -115.2823347, 36.226326599899998 ], [ -115.2823374, 36.226326599899998 ], [ -115.2823374, 36.226321199899999 ], [ -115.2823266, 36.226321199899999 ], [ -115.2823266, 36.226313099899997 ], [ -115.2823293, 36.226313099899997 ], [ -115.2823293, 36.226310399900001 ], [ -115.282332, 36.226310399900001 ], [ -115.282332, 36.226307699899998 ], [ -115.2823374, 36.226307699899998 ], [ -115.2823374, 36.226304999900002 ], [ -115.2823509, 36.226304999900002 ], [ -115.2823509, 36.226302299899999 ], [ -115.2823536, 36.226302299899999 ], [ -115.2823536, 36.226299599899995 ], [ -115.2823644, 36.226299599899995 ], [ -115.2823644, 36.226302299899999 ], [ -115.2823671, 36.226302299899999 ], [ -115.2823671, 36.226304999900002 ], [ -115.2823725, 36.226304999900002 ], [ -115.2823725, 36.226307699899998 ], [ -115.2823752, 36.226307699899998 ], [ -115.2823752, 36.226310399900001 ], [ -115.2823644, 36.226310399900001 ], [ -115.2823644, 36.2263157999 ], [ -115.2823833, 36.2263157999 ], [ -115.2823833, 36.226318499899996 ], [ -115.282386, 36.226318499899996 ], [ -115.282386, 36.226321199899999 ], [ -115.2823968, 36.226321199899999 ], [ -115.2823968, 36.226323899900002 ], [ -115.2824265, 36.226323899900002 ], [ -115.2824265, 36.226321199899999 ], [ -115.2824373, 36.226321199899999 ], [ -115.2824373, 36.226318499899996 ], [ -115.2824427, 36.226318499899996 ], [ -115.2824427, 36.226321199899999 ], [ -115.2824481, 36.226321199899999 ], [ -115.2824481, 36.226323899900002 ], [ -115.2824508, 36.226323899900002 ], [ -115.2824508, 36.226326599899998 ], [ -115.2824535, 36.226326599899998 ], [ -115.2824535, 36.226329299900002 ], [ -115.2824562, 36.226329299900002 ], [ -115.2824562, 36.226334699900001 ], [ -115.2824589, 36.226334699900001 ], [ -115.2824589, 36.226337399899997 ], [ -115.2824616, 36.226337399899997 ], [ -115.2824616, 36.226345499899999 ], [ -115.2824643, 36.226345499899999 ], [ -115.2824643, 36.226350899899998 ], [ -115.282467, 36.226350899899998 ], [ -115.282467, 36.226388699899999 ], [ -115.2824643, 36.226388699899999 ], [ -115.2824643, 36.226466999899998 ], [ -115.2824616, 36.226466999899998 ], [ -115.2824616, 36.226469699900001 ], [ -115.2824589, 36.226469699900001 ], [ -115.2824589, 36.226472399899997 ], [ -115.2824292, 36.226472399899997 ], [ -115.2824292, 36.2264750999 ] ], [ [ -115.2823509, 36.226326599899998 ], [ -115.2823509, 36.226323899900002 ], [ -115.2823536, 36.226323899900002 ], [ -115.2823536, 36.226321199899999 ], [ -115.2823428, 36.226321199899999 ], [ -115.2823428, 36.226326599899998 ], [ -115.2823509, 36.226326599899998 ] ] ] } }
]
}
