{
"type": "FeatureCollection",
"crs": { "type": "name", "properties": { "name": "urn:ogc:def:crs:OGC:1.3:CRS84" } },
"features": [
{ "type": "Feature", "properties": { "value": 255.0 }, "geometry": { "type": "Polygon", "coordinates": [ [ [ -115.2291447, 36.131807699699998 ], [ -115.2291042, 36.131807699699998 ], [ -115.2291042, 36.131802299699999 ], [ -115.2291096, 36.131802299699999 ], [ -115.2291096, 36.131804999699995 ], [ -115.2291177, 36.131804999699995 ], [ -115.2291177, 36.131802299699999 ], [ -115.2291204, 36.131802299699999 ], [ -115.2291204, 36.131796899699999 ], [ -115.2291231, 36.131796899699999 ], [ -115.2291231, 36.131794199699996 ], [ -115.2291312, 36.131794199699996 ], [ -115.2291312, 36.1317914997 ], [ -115.2291393, 36.1317914997 ], [ -115.2291393, 36.131788799699997 ], [ -115.2291717, 36.131788799699997 ], [ -115.2291717, 36.131794199699996 ], [ -115.229142, 36.131794199699996 ], [ -115.229142, 36.131796899699999 ], [ -115.2291474, 36.131796899699999 ], [ -115.2291474, 36.131799599699995 ], [ -115.2291717, 36.131799599699995 ], [ -115.2291717, 36.131802299699999 ], [ -115.2291636, 36.131802299699999 ], [ -115.2291636, 36.131804999699995 ], [ -115.2291447, 36.131804999699995 ], [ -115.2291447, 36.131807699699998 ] ] ] } },
{ "type": "Feature", "properties": { "value": 255.0 }, "geometry": { "type": "Polygon", "coordinates": [ [ [ -115.2289287, 36.131794199699996 ], [ -115.2289179, 36.131794199699996 ], [ -115.2289179, 36.1317914997 ], [ -115.2288828, 36.1317914997 ], [ -115.2288828, 36.131794199699996 ], [ -115.2288666, 36.131794199699996 ], [ -115.2288666, 36.1317914997 ], [ -115.2288639, 36.1317914997 ], [ -115.2288639, 36.131788799699997 ], [ -115.2288612, 36.131788799699997 ], [ -115.2288612, 36.131761799700001 ], [ -115.2288639, 36.131761799700001 ], [ -115.2288639, 36.131756399699995 ], [ -115.2288612, 36.131756399699995 ], [ -115.2288612, 36.131715899699998 ], [ -115.2288639, 36.131715899699998 ], [ -115.2288639, 36.131713199699995 ], [ -115.2288666, 36.131713199699995 ], [ -115.2288666, 36.131710499699999 ], [ -115.2289179, 36.131710499699999 ], [ -115.2289179, 36.131707799699996 ], [ -115.2289638, 36.131707799699996 ], [ -115.2289638, 36.131710499699999 ], [ -115.2289665, 36.131710499699999 ], [ -115.2289665, 36.131713199699995 ], [ -115.2289692, 36.131713199699995 ], [ -115.2289692, 36.131715899699998 ], [ -115.2289719, 36.131715899699998 ], [ -115.2289719, 36.131721299699997 ], [ -115.2289746, 36.131721299699997 ], [ -115.2289746, 36.131732099699995 ], [ -115.2289773, 36.131732099699995 ], [ -115.2289773, 36.131742899700001 ], [ -115.2289746, 36.131742899700001 ], [ -115.2289746, 36.131745599699997 ], [ -115.2289773, 36.131745599699997 ], [ -115.2289773, 36.131786099700001 ], [ -115.2289746, 36.131786099700001 ], [ -115.2289746, 36.131788799699997 ], [ -115.2289719, 36.131788799699997 ], [ -115.2289719, 36.1317914997 ], [ -115.2289287, 36.1317914997 ], [ -115.2289287, 36.131794199699996 ] ] ] } },
{ "type": "Feature", "properties": { "value": 255.0 }, "geometry": { "type": "Polygon", "coordinates": [ [ [ -115.2299655, 36.131769899699997 ], [ -115.2298386, 36.131769899699997 ], [ -115.2298386, 36.131767199700001 ], [ -115.2298359, 36.131767199700001 ], [ -115.2298359, 36.131729399699999 ], [ -115.2298332, 36.131729399699999 ], [ -115.2298332, 36.131710499699999 ], [ -115.2298359, 36.131710499699999 ], [ -115.2298359, 36.131688899699995 ], [ -115.2298332, 36.131688899699995 ], [ -115.2298332, 36.131675399700001 ], [ -115.2298494, 36.131675399700001 ], [ -115.2298494, 36.131672699699998 ], [ -115.2298575, 36.131672699699998 ], [ -115.2298575, 36.131669999700001 ], [ -115.2298602, 36.131669999700001 ], [ -115.2298602, 36.131651099700001 ], [ -115.2298575, 36.131651099700001 ], [ -115.2298575, 36.131648399699998 ], [ -115.2298413, 36.131648399699998 ], [ -115.2298413, 36.131645699699995 ], [ -115.2298386, 36.131645699699995 ], [ -115.2298386, 36.131648399699998 ], [ -115.2297576, 36.131648399699998 ], [ -115.2297576, 36.131645699699995 ], [ -115.2297549, 36.131645699699995 ], [ -115.2297549, 36.131591699699996 ], [ -115.2297576, 36.131591699699996 ], [ -115.2297576, 36.131580899699998 ], [ -115.2297603, 36.131580899699998 ], [ -115.2297603, 36.131578199700002 ], [ -115.2297711, 36.131578199700002 ], [ -115.2297711, 36.131575499699998 ], [ -115.2298305, 36.131575499699998 ], [ -115.2298305, 36.131578199700002 ], [ -115.2298332, 36.131578199700002 ], [ -115.2298332, 36.131575499699998 ], [ -115.2298818, 36.131575499699998 ], [ -115.2298818, 36.131578199700002 ], [ -115.2299439, 36.131578199700002 ], [ -115.2299439, 36.131575499699998 ], [ -115.2300411, 36.131575499699998 ], [ -115.2300411, 36.131578199700002 ], [ -115.2300465, 36.131578199700002 ], [ -115.2300465, 36.131583599700001 ], [ -115.2300492, 36.131583599700001 ], [ -115.2300492, 36.131586299699997 ], [ -115.2300465, 36.131586299699997 ], [ -115.2300465, 36.131597099699995 ], [ -115.2300492, 36.131597099699995 ], [ -115.2300492, 36.131688899699995 ], [ -115.2300465, 36.131688899699995 ], [ -115.2300465, 36.131756399699995 ], [ -115.2300438, 36.131756399699995 ], [ -115.2300438, 36.131767199700001 ], [ -115.2299655, 36.131767199700001 ], [ -115.2299655, 36.131769899699997 ] ] ] } },
{ "type": "Feature", "properties": { "value": 255.0 }, "geometry": { "type": "Polygon", "coordinates": [ [ [ -115.229196, 36.131750999699996 ], [ -115.2291663, 36.131750999699996 ], [ -115.2291663, 36.1317482997 ], [ -115.2291447, 36.1317482997 ], [ -115.2291447, 36.131745599699997 ], [ -115.2290826, 36.131745599699997 ], [ -115.2290826, 36.1317482997 ], [ -115.2290529, 36.1317482997 ], [ -115.2290529, 36.131745599699997 ], [ -115.229034, 36.131745599699997 ], [ -115.229034, 36.1317482997 ], [ -115.2290313, 36.1317482997 ], [ -115.2290313, 36.131745599699997 ], [ -115.2290286, 36.131745599699997 ], [ -115.2290286, 36.1317482997 ], [ -115.2290232, 36.1317482997 ], [ -115.2290232, 36.131745599699997 ], [ -115.2290151, 36.131745599699997 ], [ -115.2290151, 36.131740199699998 ], [ -115.2290124, 36.131740199699998 ], [ -115.2290124, 36.131726699699996 ], [ -115.2290151, 36.131726699699996 ], [ -115.2290151, 36.131710499699999 ], [ -115.2290124, 36.131710499699999 ], [ -115.2290124, 36.1317050997 ], [ -115.2290097, 36.1317050997 ], [ -115.2290097, 36.131702399699996 ], [ -115.229007, 36.131702399699996 ], [ -115.229007, 36.131678099699997 ], [ -115.2290043, 36.131678099699997 ], [ -115.2290043, 36.1316132997 ], [ -115.2290016, 36.1316132997 ], [ -115.2290016, 36.131610599699997 ], [ -115.2289395, 36.131610599699997 ], [ -115.2289395, 36.1316132997 ], [ -115.2288315, 36.1316132997 ], [ -115.2288315, 36.131615999699996 ], [ -115.2288288, 36.131615999699996 ], [ -115.2288288, 36.1316132997 ], [ -115.2288234, 36.1316132997 ], [ -115.2288234, 36.131607899700001 ], [ -115.2288207, 36.131607899700001 ], [ -115.2288207, 36.131551199699999 ], [ -115.228818, 36.131551199699999 ], [ -115.228818, 36.1315457997 ], [ -115.2288207, 36.1315457997 ], [ -115.2288207, 36.131537699699997 ], [ -115.228818, 36.131537699699997 ], [ -115.228818, 36.131534999700001 ], [ -115.2288207, 36.131534999700001 ], [ -115.2288207, 36.131526899699999 ], [ -115.2288963, 36.131526899699999 ], [ -115.2288963, 36.131524199699996 ], [ -115.2289071, 36.131524199699996 ], [ -115.2289071, 36.131526899699999 ], [ -115.228926, 36.131526899699999 ], [ -115.228926, 36.131524199699996 ], [ -115.2289935, 36.131524199699996 ], [ -115.2289935, 36.1315214997 ], [ -115.2290961, 36.1315214997 ], [ -115.2290961, 36.131524199699996 ], [ -115.2290988, 36.131524199699996 ], [ -115.2290988, 36.131526899699999 ], [ -115.2291015, 36.131526899699999 ], [ -115.2291015, 36.131567399699996 ], [ -115.2291042, 36.131567399699996 ], [ -115.2291042, 36.131594399699999 ], [ -115.2291069, 36.131594399699999 ], [ -115.2291069, 36.131591699699996 ], [ -115.2291177, 36.131591699699996 ], [ -115.2291177, 36.1315889997 ], [ -115.2291204, 36.1315889997 ], [ -115.2291204, 36.131583599700001 ], [ -115.2291231, 36.131583599700001 ], [ -115.2291231, 36.131580899699998 ], [ -115.2291312, 36.131580899699998 ], [ -115.2291312, 36.131578199700002 ], [ -115.2292014, 36.131578199700002 ], [ -115.2292014, 36.131580899699998 ], [ -115.2292095, 36.131580899699998 ], [ -115.2292095, 36.131586299699997 ], [ -115.2292122, 36.131586299699997 ], [ -115.2292122, 36.131599799699998 ], [ -115.2292095, 36.131599799699998 ], [ -115.2292095, 36.131651099700001 ], [ -115.2292068, 36.131651099700001 ], [ -115.2292068, 36.131653799699997 ], [ -115.2291555, 36.131653799699997 ], [ -115.2291555, 36.131691599699998 ], [ -115.2291825, 36.131691599699998 ], [ -115.2291825, 36.131694299700001 ], [ -115.2291879, 36.131694299700001 ], [ -115.2291879, 36.131691599699998 ], [ -115.229196, 36.131691599699998 ], [ -115.229196, 36.131694299700001 ], [ -115.2292068, 36.131694299700001 ], [ -115.2292068, 36.131696999699997 ], [ -115.2292095, 36.131696999699997 ], [ -115.2292095, 36.131702399699996 ], [ -115.2292122, 36.131702399699996 ], [ -115.2292122, 36.131721299699997 ], [ -115.2292149, 36.131721299699997 ], [ -115.2292149, 36.131734799699998 ], [ -115.2292122, 36.131734799699998 ], [ -115.2292122, 36.131742899700001 ], [ -115.2292095, 36.131742899700001 ], [ -115.2292095, 36.131745599699997 ], [ -115.2292041, 36.131745599699997 ], [ -115.2292041, 36.1317482997 ], [ -115.229196, 36.1317482997 ], [ -115.229196, 36.131750999699996 ] ] ] } },
{ "type": "Feature", "properties": { "value": 255.0 }, "geometry": { "type": "Polygon", "coordinates": [ [ [ -115.2286317, 36.131537699699997 ], [ -115.228629, 36.131537699699997 ], [ -115.228629, 36.131534999700001 ], [ -115.2285939, 36.131534999700001 ], [ -115.2285939, 36.131532299699998 ], [ -115.2285912, 36.131532299699998 ], [ -115.2285912, 36.131529599699995 ], [ -115.2285885, 36.131529599699995 ], [ -115.2285885, 36.131505299699995 ], [ -115.2285912, 36.131505299699995 ], [ -115.2285912, 36.131502599699999 ], [ -115.2285939, 36.131502599699999 ], [ -115.2285939, 36.131499899699996 ], [ -115.2286317, 36.131499899699996 ], [ -115.2286317, 36.131502599699999 ], [ -115.2286344, 36.131502599699999 ], [ -115.2286344, 36.131505299699995 ], [ -115.2286371, 36.131505299699995 ], [ -115.2286371, 36.131529599699995 ], [ -115.2286344, 36.131529599699995 ], [ -115.2286344, 36.131534999700001 ], [ -115.2286317, 36.131534999700001 ], [ -115.2286317, 36.131537699699997 ] ] ] } },
{ "type": "Feature", "properties": { "value": 255.0 }, "geometry": { "type": "Polygon", "coordinates": [ [ [ -115.2300789, 36.1314971997 ], [ -115.2300492, 36.1314971997 ], [ -115.2300492, 36.131494499699997 ], [ -115.2300465, 36.131494499699997 ], [ -115.2300465, 36.131478299699999 ], [ -115.2300438, 36.131478299699999 ], [ -115.2300438, 36.131462099700002 ], [ -115.2300465, 36.131462099700002 ], [ -115.2300465, 36.131456699699996 ], [ -115.2300519, 36.131456699699996 ], [ -115.2300519, 36.1314539997 ], [ -115.2300708, 36.1314539997 ], [ -115.2300708, 36.131456699699996 ], [ -115.2300735, 36.131456699699996 ], [ -115.2300735, 36.131459399699999 ], [ -115.2300762, 36.131459399699999 ], [ -115.2300762, 36.131462099700002 ], [ -115.2300789, 36.131462099700002 ], [ -115.2300789, 36.131467499700001 ], [ -115.2300816, 36.131467499700001 ], [ -115.2300816, 36.131494499699997 ], [ -115.2300789, 36.131494499699997 ], [ -115.2300789, 36.1314971997 ] ] ] } },
{ "type": "Feature", "properties": { "value": 255.0 }, "geometry": { "type": "Polygon", "coordinates": [ [ [ -115.2298818, 36.1314539997 ], [ -115.22979, 36.1314539997 ], [ -115.22979, 36.131451299699997 ], [ -115.2297873, 36.131451299699997 ], [ -115.2297873, 36.131426999699997 ], [ -115.2297846, 36.131426999699997 ], [ -115.2297846, 36.131421599699998 ], [ -115.2297819, 36.131421599699998 ], [ -115.2297819, 36.131418899700002 ], [ -115.2297765, 36.131418899700002 ], [ -115.2297765, 36.131416199699999 ], [ -115.2297603, 36.131416199699999 ], [ -115.2297603, 36.131418899700002 ], [ -115.2296469, 36.131418899700002 ], [ -115.2296469, 36.131416199699999 ], [ -115.2296415, 36.131416199699999 ], [ -115.2296415, 36.131375699700001 ], [ -115.2296442, 36.131375699700001 ], [ -115.2296442, 36.131332499700001 ], [ -115.2296469, 36.131332499700001 ], [ -115.2296469, 36.131327099700002 ], [ -115.2296442, 36.131327099700002 ], [ -115.2296442, 36.131308199700001 ], [ -115.2296469, 36.131308199700001 ], [ -115.2296469, 36.131305499699998 ], [ -115.2296496, 36.131305499699998 ], [ -115.2296496, 36.131302799700002 ], [ -115.2296928, 36.131302799700002 ], [ -115.2296928, 36.131300099699999 ], [ -115.2297306, 36.131300099699999 ], [ -115.2297306, 36.131297399699996 ], [ -115.2297414, 36.131297399699996 ], [ -115.2297414, 36.1312946997 ], [ -115.2297468, 36.1312946997 ], [ -115.2297468, 36.131291999699997 ], [ -115.2297846, 36.131291999699997 ], [ -115.2297846, 36.131289299700001 ], [ -115.2298035, 36.131289299700001 ], [ -115.2298035, 36.131291999699997 ], [ -115.2298089, 36.131291999699997 ], [ -115.2298089, 36.131289299700001 ], [ -115.2298467, 36.131289299700001 ], [ -115.2298467, 36.131286599699997 ], [ -115.2298521, 36.131286599699997 ], [ -115.2298521, 36.131283899700001 ], [ -115.2298683, 36.131283899700001 ], [ -115.2298683, 36.131281199699998 ], [ -115.2298818, 36.131281199699998 ], [ -115.2298818, 36.131283899700001 ], [ -115.2298872, 36.131283899700001 ], [ -115.2298872, 36.131281199699998 ], [ -115.2298899, 36.131281199699998 ], [ -115.2298899, 36.131283899700001 ], [ -115.229898, 36.131283899700001 ], [ -115.229898, 36.131286599699997 ], [ -115.2299061, 36.131286599699997 ], [ -115.2299061, 36.131289299700001 ], [ -115.2299169, 36.131289299700001 ], [ -115.2299169, 36.131291999699997 ], [ -115.229925, 36.131291999699997 ], [ -115.229925, 36.1312946997 ], [ -115.2299277, 36.1312946997 ], [ -115.2299277, 36.131297399699996 ], [ -115.2299331, 36.131297399699996 ], [ -115.2299331, 36.131300099699999 ], [ -115.229952, 36.131300099699999 ], [ -115.229952, 36.131302799700002 ], [ -115.2299574, 36.131302799700002 ], [ -115.2299574, 36.131300099699999 ], [ -115.2299628, 36.131300099699999 ], [ -115.2299628, 36.131302799700002 ], [ -115.2299952, 36.131302799700002 ], [ -115.2299952, 36.131300099699999 ], [ -115.2300033, 36.131300099699999 ], [ -115.2300033, 36.131302799700002 ], [ -115.2300168, 36.131302799700002 ], [ -115.2300168, 36.131300099699999 ], [ -115.2300357, 36.131300099699999 ], [ -115.2300357, 36.131302799700002 ], [ -115.2300411, 36.131302799700002 ], [ -115.2300411, 36.131305499699998 ], [ -115.2300465, 36.131305499699998 ], [ -115.2300465, 36.131308199700001 ], [ -115.2300492, 36.131308199700001 ], [ -115.2300492, 36.131310899699997 ], [ -115.2300519, 36.131310899699997 ], [ -115.2300519, 36.131318999699999 ], [ -115.2300546, 36.131318999699999 ], [ -115.2300546, 36.131418899700002 ], [ -115.2300519, 36.131418899700002 ], [ -115.2300519, 36.131421599699998 ], [ -115.2300492, 36.131421599699998 ], [ -115.2300492, 36.131424299700001 ], [ -115.2299817, 36.131424299700001 ], [ -115.2299817, 36.131421599699998 ], [ -115.2299331, 36.131421599699998 ], [ -115.2299331, 36.131424299700001 ], [ -115.2299277, 36.131424299700001 ], [ -115.2299277, 36.131448599700001 ], [ -115.229925, 36.131448599700001 ], [ -115.229925, 36.131451299699997 ], [ -115.2298818, 36.131451299699997 ], [ -115.2298818, 36.1314539997 ] ] ] } },
{ "type": "Feature", "properties": { "value": 255.0 }, "geometry": { "type": "Polygon", "coordinates": [ [ [ -115.2287991, 36.131410799699999 ], [ -115.2287046, 36.131410799699999 ], [ -115.2287046, 36.131408099699996 ], [ -115.228683, 36.131408099699996 ], [ -115.228683, 36.131410799699999 ], [ -115.2286668, 36.131410799699999 ], [ -115.2286668, 36.131408099699996 ], [ -115.2286371, 36.131408099699996 ], [ -115.2286371, 36.1314053997 ], [ -115.2286317, 36.1314053997 ], [ -115.2286317, 36.131402699699997 ], [ -115.2285426, 36.131402699699997 ], [ -115.2285426, 36.131251499699999 ], [ -115.2285561, 36.131251499699999 ], [ -115.2285561, 36.131254199700003 ], [ -115.2285642, 36.131254199700003 ], [ -115.2285642, 36.131256899699999 ], [ -115.2285885, 36.131256899699999 ], [ -115.2285885, 36.131259599700002 ], [ -115.2285993, 36.131259599700002 ], [ -115.2285993, 36.131262299699998 ], [ -115.2286101, 36.131262299699998 ], [ -115.2286101, 36.131264999700001 ], [ -115.2286533, 36.131264999700001 ], [ -115.2286533, 36.131267699699997 ], [ -115.2287532, 36.131267699699997 ], [ -115.2287532, 36.1312703997 ], [ -115.2288018, 36.1312703997 ], [ -115.2288018, 36.131273099699996 ], [ -115.2288045, 36.131273099699996 ], [ -115.2288045, 36.131283899700001 ], [ -115.2288018, 36.131283899700001 ], [ -115.2288018, 36.131310899699997 ], [ -115.2288045, 36.131310899699997 ], [ -115.2288045, 36.131321699699996 ], [ -115.2288018, 36.131321699699996 ], [ -115.2288018, 36.131329799699998 ], [ -115.2288045, 36.131329799699998 ], [ -115.2288045, 36.1313621997 ], [ -115.2288018, 36.1313621997 ], [ -115.2288018, 36.131372999699998 ], [ -115.2288045, 36.131372999699998 ], [ -115.2288045, 36.131402699699997 ], [ -115.2288018, 36.131402699699997 ], [ -115.2288018, 36.131408099699996 ], [ -115.2287991, 36.131408099699996 ], [ -115.2287991, 36.131410799699999 ] ] ] } },
{ "type": "Feature", "properties": { "value": 255.0 }, "geometry": { "type": "Polygon", "coordinates": [ [ [ -115.2292149, 36.131456699699996 ], [ -115.2292068, 36.131456699699996 ], [ -115.2292068, 36.1314539997 ], [ -115.2292014, 36.1314539997 ], [ -115.2292014, 36.131456699699996 ], [ -115.2291879, 36.131456699699996 ], [ -115.2291879, 36.1314539997 ], [ -115.2291528, 36.1314539997 ], [ -115.2291528, 36.131456699699996 ], [ -115.2291258, 36.131456699699996 ], [ -115.2291258, 36.1314539997 ], [ -115.2291231, 36.1314539997 ], [ -115.2291231, 36.131451299699997 ], [ -115.2291204, 36.131451299699997 ], [ -115.2291204, 36.131437799699995 ], [ -115.2291177, 36.131437799699995 ], [ -115.2291177, 36.131426999699997 ], [ -115.229115, 36.131426999699997 ], [ -115.229115, 36.131424299700001 ], [ -115.2291123, 36.131424299700001 ], [ -115.2291123, 36.131421599699998 ], [ -115.2290826, 36.131421599699998 ], [ -115.2290826, 36.131418899700002 ], [ -115.2290799, 36.131418899700002 ], [ -115.2290799, 36.131375699700001 ], [ -115.2290772, 36.131375699700001 ], [ -115.2290772, 36.131345999700002 ], [ -115.2290799, 36.131345999700002 ], [ -115.2290799, 36.1313378997 ], [ -115.2290826, 36.1313378997 ], [ -115.2290826, 36.131332499700001 ], [ -115.2290853, 36.131332499700001 ], [ -115.2290853, 36.131316299699996 ], [ -115.229088, 36.131316299699996 ], [ -115.229088, 36.131310899699997 ], [ -115.2290907, 36.131310899699997 ], [ -115.2290907, 36.131308199700001 ], [ -115.2290934, 36.131308199700001 ], [ -115.2290934, 36.131305499699998 ], [ -115.2291015, 36.131305499699998 ], [ -115.2291015, 36.131302799700002 ], [ -115.2291042, 36.131302799700002 ], [ -115.2291042, 36.131300099699999 ], [ -115.2291069, 36.131300099699999 ], [ -115.2291069, 36.131291999699997 ], [ -115.2291096, 36.131291999699997 ], [ -115.2291096, 36.131289299700001 ], [ -115.2291123, 36.131289299700001 ], [ -115.2291123, 36.131283899700001 ], [ -115.229115, 36.131283899700001 ], [ -115.229115, 36.131281199699998 ], [ -115.2291123, 36.131281199699998 ], [ -115.2291123, 36.131275799699999 ], [ -115.229115, 36.131275799699999 ], [ -115.229115, 36.131267699699997 ], [ -115.2291123, 36.131267699699997 ], [ -115.2291123, 36.131264999700001 ], [ -115.229115, 36.131264999700001 ], [ -115.229115, 36.131251499699999 ], [ -115.2291123, 36.131251499699999 ], [ -115.2291123, 36.1312271997 ], [ -115.2291096, 36.1312271997 ], [ -115.2291096, 36.1312217997 ], [ -115.2291123, 36.1312217997 ], [ -115.2291123, 36.131219099699997 ], [ -115.229115, 36.131219099699997 ], [ -115.229115, 36.131216399700001 ], [ -115.2291501, 36.131216399700001 ], [ -115.2291501, 36.131219099699997 ], [ -115.2292149, 36.131219099699997 ], [ -115.2292149, 36.1312217997 ], [ -115.2292176, 36.1312217997 ], [ -115.2292176, 36.1312271997 ], [ -115.2292203, 36.1312271997 ], [ -115.2292203, 36.131256899699999 ], [ -115.229223, 36.131256899699999 ], [ -115.229223, 36.131267699699997 ], [ -115.2292257, 36.131267699699997 ], [ -115.2292257, 36.131286599699997 ], [ -115.2292284, 36.131286599699997 ], [ -115.2292284, 36.131364899699996 ], [ -115.2292257, 36.131364899699996 ], [ -115.2292257, 36.1314539997 ], [ -115.2292149, 36.1314539997 ], [ -115.2292149, 36.131456699699996 ] ] ] } },
{ "type": "Feature", "properties": { "value": 255.0 }, "geometry": { "type": "Polygon", "coordinates": [ [ [ -115.2289584, 36.130962599699998 ], [ -115.2289476, 36.130962599699998 ], [ -115.2289476, 36.130959899700002 ], [ -115.2289449, 36.130959899700002 ], [ -115.2289449, 36.130957199699999 ], [ -115.2289422, 36.130957199699999 ], [ -115.2289422, 36.1309517997 ], [ -115.2289395, 36.1309517997 ], [ -115.2289395, 36.130949099699997 ], [ -115.2289422, 36.130949099699997 ], [ -115.2289422, 36.130900499699997 ], [ -115.2289449, 36.130900499699997 ], [ -115.2289449, 36.130892399700002 ], [ -115.2289476, 36.130892399700002 ], [ -115.2289476, 36.130889699699999 ], [ -115.2289557, 36.130889699699999 ], [ -115.2289557, 36.130892399700002 ], [ -115.2289584, 36.130892399700002 ], [ -115.2289584, 36.130889699699999 ], [ -115.2289611, 36.130889699699999 ], [ -115.2289611, 36.130892399700002 ], [ -115.2289719, 36.130892399700002 ], [ -115.2289719, 36.130895099699998 ], [ -115.2290178, 36.130895099699998 ], [ -115.2290178, 36.130892399700002 ], [ -115.2290232, 36.130892399700002 ], [ -115.2290232, 36.130889699699999 ], [ -115.229034, 36.130889699699999 ], [ -115.229034, 36.130886999700003 ], [ -115.2290475, 36.130886999700003 ], [ -115.2290475, 36.130889699699999 ], [ -115.2290502, 36.130889699699999 ], [ -115.2290502, 36.130892399700002 ], [ -115.2290529, 36.130892399700002 ], [ -115.2290529, 36.130913999699999 ], [ -115.2290556, 36.130913999699999 ], [ -115.2290556, 36.130957199699999 ], [ -115.2290529, 36.130957199699999 ], [ -115.2290529, 36.130959899700002 ], [ -115.2289584, 36.130959899700002 ], [ -115.2289584, 36.130962599699998 ] ] ] } },
{ "type": "Feature", "properties": { "value": 255.0 }, "geometry": { "type": "Polygon", "coordinates": [ [ [ -115.2287316, 36.130922099700001 ], [ -115.2286263, 36.130922099700001 ], [ -115.2286263, 36.130916699700002 ], [ -115.2286236, 36.130916699700002 ], [ -115.2286236, 36.1309085997 ], [ -115.2286209, 36.1309085997 ], [ -115.2286209, 36.130905899699997 ], [ -115.2286182, 36.130905899699997 ], [ -115.2286182, 36.130903199700001 ], [ -115.2286155, 36.130903199700001 ], [ -115.2286155, 36.130897799700001 ], [ -115.2286047, 36.130897799700001 ], [ -115.2286047, 36.130900499699997 ], [ -115.2285939, 36.130900499699997 ], [ -115.2285939, 36.130897799700001 ], [ -115.2285912, 36.130897799700001 ], [ -115.2285912, 36.130895099699998 ], [ -115.2285885, 36.130895099699998 ], [ -115.2285885, 36.1308842997 ], [ -115.2285858, 36.1308842997 ], [ -115.2285858, 36.130865399699999 ], [ -115.2285885, 36.130865399699999 ], [ -115.2285885, 36.130857299699997 ], [ -115.2285912, 36.130857299699997 ], [ -115.2285912, 36.130854599700001 ], [ -115.2285939, 36.130854599700001 ], [ -115.2285939, 36.130851899699998 ], [ -115.2286209, 36.130851899699998 ], [ -115.2286209, 36.1308410997 ], [ -115.2286236, 36.1308410997 ], [ -115.2286236, 36.130827599699998 ], [ -115.2286209, 36.130827599699998 ], [ -115.2286209, 36.1308167997 ], [ -115.2286182, 36.1308167997 ], [ -115.2286182, 36.130754699699999 ], [ -115.2286209, 36.130754699699999 ], [ -115.2286209, 36.130751999700003 ], [ -115.2287019, 36.130751999700003 ], [ -115.2287019, 36.1307492997 ], [ -115.2287073, 36.1307492997 ], [ -115.2287073, 36.130751999700003 ], [ -115.2287802, 36.130751999700003 ], [ -115.2287802, 36.130754699699999 ], [ -115.2287829, 36.130754699699999 ], [ -115.2287829, 36.130760099699998 ], [ -115.2287856, 36.130760099699998 ], [ -115.2287856, 36.1307924997 ], [ -115.2287883, 36.1307924997 ], [ -115.2287883, 36.130819499700003 ], [ -115.228791, 36.130819499700003 ], [ -115.228791, 36.130832999699997 ], [ -115.2287883, 36.130832999699997 ], [ -115.2287883, 36.130846499699999 ], [ -115.2287802, 36.130846499699999 ], [ -115.2287802, 36.130849199700002 ], [ -115.2287775, 36.130849199700002 ], [ -115.2287775, 36.130846499699999 ], [ -115.2287559, 36.130846499699999 ], [ -115.2287559, 36.130849199700002 ], [ -115.228737, 36.130849199700002 ], [ -115.228737, 36.130851899699998 ], [ -115.2287343, 36.130851899699998 ], [ -115.2287343, 36.130919399699998 ], [ -115.2287316, 36.130919399699998 ], [ -115.2287316, 36.130922099700001 ] ], [ [ -115.2286128, 36.130881599699997 ], [ -115.2286128, 36.130878899700001 ], [ -115.2286101, 36.130878899700001 ], [ -115.2286101, 36.130881599699997 ], [ -115.2286128, 36.130881599699997 ] ] ] } },
{ "type": "Feature", "properties": { "value": 255.0 }, "geometry": { "type": "Polygon", "coordinates": [ [ [ -115.2302976, 36.130868099700002 ], [ -115.2302301, 36.130868099700002 ], [ -115.2302301, 36.130865399699999 ], [ -115.2302274, 36.130865399699999 ], [ -115.2302274, 36.130846499699999 ], [ -115.2302247, 36.130846499699999 ], [ -115.2302247, 36.130827599699998 ], [ -115.2302274, 36.130827599699998 ], [ -115.2302274, 36.130808699699998 ], [ -115.2302247, 36.130808699699998 ], [ -115.2302247, 36.130797899699999 ], [ -115.230222, 36.130797899699999 ], [ -115.230222, 36.130773599699999 ], [ -115.2302247, 36.130773599699999 ], [ -115.2302247, 36.130751999700003 ], [ -115.2302274, 36.130751999700003 ], [ -115.2302274, 36.130738499700001 ], [ -115.2302247, 36.130738499700001 ], [ -115.2302247, 36.130716899699998 ], [ -115.2302274, 36.130716899699998 ], [ -115.2302274, 36.130708799700002 ], [ -115.2302328, 36.130708799700002 ], [ -115.2302328, 36.130706099699999 ], [ -115.2302355, 36.130706099699999 ], [ -115.2302355, 36.130703399700003 ], [ -115.2302382, 36.130703399700003 ], [ -115.2302382, 36.1307006997 ], [ -115.2302409, 36.1307006997 ], [ -115.2302409, 36.130697999699997 ], [ -115.2302436, 36.130697999699997 ], [ -115.2302436, 36.130695299700001 ], [ -115.2302463, 36.130695299700001 ], [ -115.2302463, 36.130692599699998 ], [ -115.230249, 36.130692599699998 ], [ -115.230249, 36.130689899700002 ], [ -115.2302517, 36.130689899700002 ], [ -115.2302517, 36.130687199699999 ], [ -115.2302571, 36.130687199699999 ], [ -115.2302571, 36.130684499700003 ], [ -115.2302706, 36.130684499700003 ], [ -115.2302706, 36.130687199699999 ], [ -115.2302787, 36.130687199699999 ], [ -115.2302787, 36.130689899700002 ], [ -115.2302814, 36.130689899700002 ], [ -115.2302814, 36.130692599699998 ], [ -115.2302841, 36.130692599699998 ], [ -115.2302841, 36.130695299700001 ], [ -115.2302868, 36.130695299700001 ], [ -115.2302868, 36.130697999699997 ], [ -115.2302922, 36.130697999699997 ], [ -115.2302922, 36.130695299700001 ], [ -115.2302949, 36.130695299700001 ], [ -115.2302949, 36.130692599699998 ], [ -115.2302976, 36.130692599699998 ], [ -115.2302976, 36.130868099700002 ] ] ] } },
{ "type": "Feature", "properties": { "value": 255.0 }, "geometry": { "type": "Polygon", "coordinates": [ [ [ -115.2297846, 36.130870799699998 ], [ -115.2297792, 36.130870799699998 ], [ -115.2297792, 36.130868099700002 ], [ -115.2297657, 36.130868099700002 ], [ -115.2297657, 36.130865399699999 ], [ -115.2297414, 36.130865399699999 ], [ -115.2297414, 36.130868099700002 ], [ -115.2297333, 36.130868099700002 ], [ -115.2297333, 36.130865399699999 ], [ -115.2297306, 36.130865399699999 ], [ -115.2297306, 36.130868099700002 ], [ -115.2297279, 36.130868099700002 ], [ -115.2297279, 36.130865399699999 ], [ -115.2297198, 36.130865399699999 ], [ -115.2297198, 36.1308599997 ], [ -115.2297171, 36.1308599997 ], [ -115.2297171, 36.1308410997 ], [ -115.2297144, 36.1308410997 ], [ -115.2297144, 36.130795199700003 ], [ -115.2297171, 36.130795199700003 ], [ -115.2297171, 36.130789799699997 ], [ -115.2297144, 36.130789799699997 ], [ -115.2297144, 36.130784399699998 ], [ -115.2297171, 36.130784399699998 ], [ -115.2297171, 36.130776299700003 ], [ -115.2297144, 36.130776299700003 ], [ -115.2297144, 36.130689899700002 ], [ -115.2297171, 36.130689899700002 ], [ -115.2297171, 36.130684499700003 ], [ -115.2297198, 36.130684499700003 ], [ -115.2297198, 36.1306817997 ], [ -115.2297306, 36.1306817997 ], [ -115.2297306, 36.130679099700004 ], [ -115.2297387, 36.130679099700004 ], [ -115.2297387, 36.1306817997 ], [ -115.2297603, 36.1306817997 ], [ -115.2297603, 36.130679099700004 ], [ -115.2297657, 36.130679099700004 ], [ -115.2297657, 36.1306817997 ], [ -115.2297738, 36.1306817997 ], [ -115.2297738, 36.130679099700004 ], [ -115.2298035, 36.130679099700004 ], [ -115.2298035, 36.1306817997 ], [ -115.2298251, 36.1306817997 ], [ -115.2298251, 36.130684499700003 ], [ -115.2298359, 36.130684499700003 ], [ -115.2298359, 36.1306817997 ], [ -115.2298548, 36.1306817997 ], [ -115.2298548, 36.130684499700003 ], [ -115.2299034, 36.130684499700003 ], [ -115.2299034, 36.1306817997 ], [ -115.2299115, 36.1306817997 ], [ -115.2299115, 36.130684499700003 ], [ -115.2299142, 36.130684499700003 ], [ -115.2299142, 36.1306817997 ], [ -115.229925, 36.1306817997 ], [ -115.229925, 36.130679099700004 ], [ -115.2299385, 36.130679099700004 ], [ -115.2299385, 36.1306817997 ], [ -115.230006, 36.1306817997 ], [ -115.230006, 36.130684499700003 ], [ -115.2300249, 36.130684499700003 ], [ -115.2300249, 36.130687199699999 ], [ -115.2300276, 36.130687199699999 ], [ -115.2300276, 36.1307249997 ], [ -115.2300303, 36.1307249997 ], [ -115.2300303, 36.130795199700003 ], [ -115.230033, 36.130795199700003 ], [ -115.230033, 36.130832999699997 ], [ -115.2300303, 36.130832999699997 ], [ -115.2300303, 36.1308356997 ], [ -115.2300276, 36.1308356997 ], [ -115.2300276, 36.130838399700004 ], [ -115.2299682, 36.130838399700004 ], [ -115.2299682, 36.1308410997 ], [ -115.2299574, 36.1308410997 ], [ -115.2299574, 36.130843799700003 ], [ -115.2299493, 36.130843799700003 ], [ -115.2299493, 36.1308410997 ], [ -115.2299358, 36.1308410997 ], [ -115.2299358, 36.130843799700003 ], [ -115.2299277, 36.130843799700003 ], [ -115.2299277, 36.130846499699999 ], [ -115.229925, 36.130846499699999 ], [ -115.229925, 36.130849199700002 ], [ -115.2299196, 36.130849199700002 ], [ -115.2299196, 36.130851899699998 ], [ -115.2299061, 36.130851899699998 ], [ -115.2299061, 36.130849199700002 ], [ -115.2298845, 36.130849199700002 ], [ -115.2298845, 36.130846499699999 ], [ -115.2298764, 36.130846499699999 ], [ -115.2298764, 36.130843799700003 ], [ -115.2298602, 36.130843799700003 ], [ -115.2298602, 36.1308410997 ], [ -115.2298494, 36.1308410997 ], [ -115.2298494, 36.130838399700004 ], [ -115.2298089, 36.130838399700004 ], [ -115.2298089, 36.1308410997 ], [ -115.2298062, 36.1308410997 ], [ -115.2298062, 36.130846499699999 ], [ -115.2298035, 36.130846499699999 ], [ -115.2298035, 36.130865399699999 ], [ -115.2297954, 36.130865399699999 ], [ -115.2297954, 36.130868099700002 ], [ -115.2297846, 36.130868099700002 ], [ -115.2297846, 36.130870799699998 ] ] ] } },
{ "type": "Feature", "properties": { "value": 255.0 }, "geometry": { "type": "Polygon", "coordinates": [ [ [ -115.2285615, 36.1307006997 ], [ -115.2285561, 36.1307006997 ], [ -115.2285561, 36.130697999699997 ], [ -115.2285507, 36.130697999699997 ], [ -115.2285507, 36.1307006997 ], [ -115.2285426, 36.1307006997 ], [ -115.2285426, 36.130660199700003 ], [ -115.2285561, 36.130660199700003 ], [ -115.2285561, 36.130662899699999 ], [ -115.2285642, 36.130662899699999 ], [ -115.2285642, 36.130673699699997 ], [ -115.2285669, 36.130673699699997 ], [ -115.2285669, 36.130695299700001 ], [ -115.2285642, 36.130695299700001 ], [ -115.2285642, 36.130697999699997 ], [ -115.2285615, 36.130697999699997 ], [ -115.2285615, 36.1307006997 ] ] ] } },
{ "type": "Feature", "properties": { "value": 255.0 }, "geometry": { "type": "Polygon", "coordinates": [ [ [ -115.2301815, 36.130787099700001 ], [ -115.230114, 36.130787099700001 ], [ -115.230114, 36.130784399699998 ], [ -115.2301113, 36.130784399699998 ], [ -115.2301113, 36.130781699700002 ], [ -115.2301086, 36.130781699700002 ], [ -115.2301086, 36.130770899700003 ], [ -115.2301113, 36.130770899700003 ], [ -115.2301113, 36.1307681997 ], [ -115.2301086, 36.1307681997 ], [ -115.2301086, 36.130697999699997 ], [ -115.2301059, 36.130697999699997 ], [ -115.2301059, 36.130684499700003 ], [ -115.2301086, 36.130684499700003 ], [ -115.2301086, 36.130679099700004 ], [ -115.2301059, 36.130679099700004 ], [ -115.2301059, 36.130622399700002 ], [ -115.2301086, 36.130622399700002 ], [ -115.2301086, 36.130614299699999 ], [ -115.2301113, 36.130614299699999 ], [ -115.2301113, 36.130611599700003 ], [ -115.2301869, 36.130611599700003 ], [ -115.2301869, 36.130614299699999 ], [ -115.2301896, 36.130614299699999 ], [ -115.2301896, 36.1306574997 ], [ -115.2301923, 36.1306574997 ], [ -115.2301923, 36.130684499700003 ], [ -115.2301896, 36.130684499700003 ], [ -115.2301896, 36.130781699700002 ], [ -115.2301869, 36.130781699700002 ], [ -115.2301869, 36.130784399699998 ], [ -115.2301815, 36.130784399699998 ], [ -115.2301815, 36.130787099700001 ] ] ] } },
{ "type": "Feature", "properties": { "value": 255.0 }, "geometry": { "type": "Polygon", "coordinates": [ [ [ -115.2292041, 36.1308599997 ], [ -115.2290772, 36.1308599997 ], [ -115.2290772, 36.130854599700001 ], [ -115.2290745, 36.130854599700001 ], [ -115.2290745, 36.130824899700002 ], [ -115.2290691, 36.130824899700002 ], [ -115.2290691, 36.130822199699999 ], [ -115.2290394, 36.130822199699999 ], [ -115.2290394, 36.130819499700003 ], [ -115.2290367, 36.130819499700003 ], [ -115.2290367, 36.1308167997 ], [ -115.229034, 36.1308167997 ], [ -115.229034, 36.130811399700001 ], [ -115.2290313, 36.130811399700001 ], [ -115.2290313, 36.130789799699997 ], [ -115.229034, 36.130789799699997 ], [ -115.229034, 36.130781699700002 ], [ -115.2290313, 36.130781699700002 ], [ -115.2290313, 36.130778999699999 ], [ -115.229034, 36.130778999699999 ], [ -115.229034, 36.130760099699998 ], [ -115.2290367, 36.130760099699998 ], [ -115.2290367, 36.130741199699997 ], [ -115.2290016, 36.130741199699997 ], [ -115.2290016, 36.130738499700001 ], [ -115.2289989, 36.130738499700001 ], [ -115.2289989, 36.130735799699998 ], [ -115.2289962, 36.130735799699998 ], [ -115.2289962, 36.130679099700004 ], [ -115.2289989, 36.130679099700004 ], [ -115.2289989, 36.130670999700001 ], [ -115.2290016, 36.130670999700001 ], [ -115.2290016, 36.130668299699998 ], [ -115.2290043, 36.130668299699998 ], [ -115.2290043, 36.130665599700002 ], [ -115.229007, 36.130665599700002 ], [ -115.229007, 36.130662899699999 ], [ -115.2290097, 36.130662899699999 ], [ -115.2290097, 36.130660199700003 ], [ -115.2290151, 36.130660199700003 ], [ -115.2290151, 36.1306574997 ], [ -115.2290205, 36.1306574997 ], [ -115.2290205, 36.130654799700004 ], [ -115.2290259, 36.130654799700004 ], [ -115.2290259, 36.130652099700001 ], [ -115.2290286, 36.130652099700001 ], [ -115.2290286, 36.130649399699998 ], [ -115.2290313, 36.130649399699998 ], [ -115.2290313, 36.130643999699998 ], [ -115.229034, 36.130643999699998 ], [ -115.229034, 36.130641299700002 ], [ -115.2290367, 36.130641299700002 ], [ -115.2290367, 36.130638599699999 ], [ -115.2290394, 36.130638599699999 ], [ -115.2290394, 36.1306331997 ], [ -115.2290421, 36.1306331997 ], [ -115.2290421, 36.130592699700003 ], [ -115.2290448, 36.130592699700003 ], [ -115.2290448, 36.1305899997 ], [ -115.2290502, 36.1305899997 ], [ -115.2290502, 36.130587299700004 ], [ -115.2290934, 36.130587299700004 ], [ -115.2290934, 36.130584599700001 ], [ -115.2291015, 36.130584599700001 ], [ -115.2291015, 36.130587299700004 ], [ -115.2291393, 36.130587299700004 ], [ -115.2291393, 36.130584599700001 ], [ -115.229142, 36.130584599700001 ], [ -115.229142, 36.130587299700004 ], [ -115.2291501, 36.130587299700004 ], [ -115.2291501, 36.1305899997 ], [ -115.2291582, 36.1305899997 ], [ -115.2291582, 36.130587299700004 ], [ -115.229169, 36.130587299700004 ], [ -115.229169, 36.1305899997 ], [ -115.2291717, 36.1305899997 ], [ -115.2291717, 36.130592699700003 ], [ -115.2291744, 36.130592699700003 ], [ -115.2291744, 36.130595399699999 ], [ -115.2291771, 36.130595399699999 ], [ -115.2291771, 36.130600799699998 ], [ -115.2291798, 36.130600799699998 ], [ -115.2291798, 36.1306331997 ], [ -115.2291825, 36.1306331997 ], [ -115.2291825, 36.130638599699999 ], [ -115.2291852, 36.130638599699999 ], [ -115.2291852, 36.130643999699998 ], [ -115.2291906, 36.130643999699998 ], [ -115.2291906, 36.130646699700002 ], [ -115.229196, 36.130646699700002 ], [ -115.229196, 36.130649399699998 ], [ -115.2291987, 36.130649399699998 ], [ -115.2291987, 36.130652099700001 ], [ -115.2292014, 36.130652099700001 ], [ -115.2292014, 36.1307492997 ], [ -115.2292041, 36.1307492997 ], [ -115.2292041, 36.130762799700001 ], [ -115.2292068, 36.130762799700001 ], [ -115.2292068, 36.130857299699997 ], [ -115.2292041, 36.130857299699997 ], [ -115.2292041, 36.1308599997 ] ] ] } },
{ "type": "Feature", "properties": { "value": 255.0 }, "geometry": { "type": "Polygon", "coordinates": [ [ [ -115.2289098, 36.130668299699998 ], [ -115.2288477, 36.130668299699998 ], [ -115.2288477, 36.130665599700002 ], [ -115.228845, 36.130665599700002 ], [ -115.228845, 36.130595399699999 ], [ -115.2288477, 36.130595399699999 ], [ -115.2288477, 36.130587299700004 ], [ -115.2288531, 36.130587299700004 ], [ -115.2288531, 36.130584599700001 ], [ -115.2288585, 36.130584599700001 ], [ -115.2288585, 36.130587299700004 ], [ -115.2289071, 36.130587299700004 ], [ -115.2289071, 36.1305899997 ], [ -115.2289098, 36.1305899997 ], [ -115.2289098, 36.130600799699998 ], [ -115.2289125, 36.130600799699998 ], [ -115.2289125, 36.130665599700002 ], [ -115.2289098, 36.130665599700002 ], [ -115.2289098, 36.130668299699998 ] ] ] } },
{ "type": "Feature", "properties": { "value": 255.0 }, "geometry": { "type": "Polygon", "coordinates": [ [ [ -115.2291798, 36.130525199700003 ], [ -115.2291528, 36.130525199700003 ], [ -115.2291528, 36.1305224997 ], [ -115.2291501, 36.1305224997 ], [ -115.2291501, 36.130506299700002 ], [ -115.2291528, 36.130506299700002 ], [ -115.2291528, 36.130503599699999 ], [ -115.2291852, 36.130503599699999 ], [ -115.2291852, 36.130511699700001 ], [ -115.2291825, 36.130511699700001 ], [ -115.2291825, 36.130514399699997 ], [ -115.2291852, 36.130514399699997 ], [ -115.2291852, 36.1305170997 ], [ -115.2291825, 36.1305170997 ], [ -115.2291825, 36.1305224997 ], [ -115.2291798, 36.1305224997 ], [ -115.2291798, 36.130525199700003 ] ] ] } },
{ "type": "Feature", "properties": { "value": 255.0 }, "geometry": { "type": "Polygon", "coordinates": [ [ [ -115.2302976, 36.1304738997 ], [ -115.2302895, 36.1304738997 ], [ -115.2302895, 36.130471199700004 ], [ -115.2302868, 36.130471199700004 ], [ -115.2302868, 36.130468499700001 ], [ -115.2302814, 36.130468499700001 ], [ -115.2302814, 36.130465799699998 ], [ -115.2302787, 36.130465799699998 ], [ -115.2302787, 36.130463099700002 ], [ -115.2302733, 36.130463099700002 ], [ -115.2302733, 36.130460399699999 ], [ -115.2302679, 36.130460399699999 ], [ -115.2302679, 36.130457699700003 ], [ -115.2302652, 36.130457699700003 ], [ -115.2302652, 36.1304549997 ], [ -115.2302625, 36.1304549997 ], [ -115.2302625, 36.130452299700003 ], [ -115.2302571, 36.130452299700003 ], [ -115.2302571, 36.1304495997 ], [ -115.2302544, 36.1304495997 ], [ -115.2302544, 36.130446899700004 ], [ -115.230249, 36.130446899700004 ], [ -115.230249, 36.130444199700001 ], [ -115.2302463, 36.130444199700001 ], [ -115.2302463, 36.130441499699998 ], [ -115.2302409, 36.130441499699998 ], [ -115.2302409, 36.130438799700002 ], [ -115.2302382, 36.130438799700002 ], [ -115.2302382, 36.130436099699999 ], [ -115.2302328, 36.130436099699999 ], [ -115.2302328, 36.130433399700003 ], [ -115.2302274, 36.130433399700003 ], [ -115.2302274, 36.1304306997 ], [ -115.2302247, 36.1304306997 ], [ -115.2302247, 36.130427999700004 ], [ -115.2302193, 36.130427999700004 ], [ -115.2302193, 36.130425299700001 ], [ -115.2302166, 36.130425299700001 ], [ -115.2302166, 36.130422599700005 ], [ -115.2302112, 36.130422599700005 ], [ -115.2302112, 36.130419899700001 ], [ -115.2302085, 36.130419899700001 ], [ -115.2302085, 36.130417199699998 ], [ -115.2302058, 36.130417199699998 ], [ -115.2302058, 36.130414499700002 ], [ -115.2302004, 36.130414499700002 ], [ -115.2302004, 36.130411799699999 ], [ -115.2301977, 36.130411799699999 ], [ -115.2301977, 36.130409099700003 ], [ -115.230195, 36.130409099700003 ], [ -115.230195, 36.1304063997 ], [ -115.2301923, 36.1304063997 ], [ -115.2301923, 36.130403699700004 ], [ -115.2301869, 36.130403699700004 ], [ -115.2301869, 36.130400999700001 ], [ -115.2301842, 36.130400999700001 ], [ -115.2301842, 36.130398299699998 ], [ -115.2301815, 36.130398299699998 ], [ -115.2301815, 36.130395599700002 ], [ -115.2301788, 36.130395599700002 ], [ -115.2301788, 36.130387499699999 ], [ -115.2301815, 36.130387499699999 ], [ -115.2301815, 36.130384799700003 ], [ -115.2301842, 36.130384799700003 ], [ -115.2301842, 36.1303820997 ], [ -115.2301896, 36.1303820997 ], [ -115.2301896, 36.130379399700004 ], [ -115.2301923, 36.130379399700004 ], [ -115.2301923, 36.130376699700001 ], [ -115.230195, 36.130376699700001 ], [ -115.230195, 36.130373999699998 ], [ -115.2301977, 36.130373999699998 ], [ -115.2301977, 36.130371299700002 ], [ -115.2302031, 36.130371299700002 ], [ -115.2302031, 36.130368599699999 ], [ -115.2302058, 36.130368599699999 ], [ -115.2302058, 36.130365899700003 ], [ -115.2302085, 36.130365899700003 ], [ -115.2302085, 36.1303631997 ], [ -115.2302112, 36.1303631997 ], [ -115.2302112, 36.130360499700004 ], [ -115.2302139, 36.130360499700004 ], [ -115.2302139, 36.1303577997 ], [ -115.2302166, 36.1303577997 ], [ -115.2302166, 36.130355099700004 ], [ -115.230222, 36.130355099700004 ], [ -115.230222, 36.130352399700001 ], [ -115.2302247, 36.130352399700001 ], [ -115.2302247, 36.130349699699998 ], [ -115.2302274, 36.130349699699998 ], [ -115.2302274, 36.130346999700002 ], [ -115.2302301, 36.130346999700002 ], [ -115.2302301, 36.130344299699999 ], [ -115.2302328, 36.130344299699999 ], [ -115.2302328, 36.130341599700003 ], [ -115.2302355, 36.130341599700003 ], [ -115.2302355, 36.1303388997 ], [ -115.2302382, 36.1303388997 ], [ -115.2302382, 36.130336199700004 ], [ -115.2302409, 36.130336199700004 ], [ -115.2302409, 36.130333499700001 ], [ -115.2302436, 36.130333499700001 ], [ -115.2302436, 36.130330799700005 ], [ -115.2302463, 36.130330799700005 ], [ -115.2302463, 36.130328099700002 ], [ -115.2302571, 36.130328099700002 ], [ -115.2302571, 36.130330799700005 ], [ -115.2302652, 36.130330799700005 ], [ -115.2302652, 36.130333499700001 ], [ -115.2302841, 36.130333499700001 ], [ -115.2302841, 36.130330799700005 ], [ -115.2302868, 36.130330799700005 ], [ -115.2302868, 36.130328099700002 ], [ -115.2302895, 36.130328099700002 ], [ -115.2302895, 36.130325399699998 ], [ -115.2302922, 36.130325399699998 ], [ -115.2302922, 36.130322699700002 ], [ -115.2302949, 36.130322699700002 ], [ -115.2302949, 36.130317299700003 ], [ -115.2302976, 36.130317299700003 ], [ -115.2302976, 36.1304738997 ] ] ] } },
{ "type": "Feature", "properties": { "value": 255.0 }, "geometry": { "type": "Polygon", "coordinates": [ [ [ -115.2298791, 36.130506299700002 ], [ -115.229871, 36.130506299700002 ], [ -115.229871, 36.130503599699999 ], [ -115.2298332, 36.130503599699999 ], [ -115.2298332, 36.130500899700003 ], [ -115.2298278, 36.130500899700003 ], [ -115.2298278, 36.1304981997 ], [ -115.2298251, 36.1304981997 ], [ -115.2298251, 36.130495499700004 ], [ -115.2298224, 36.130495499700004 ], [ -115.2298224, 36.130492799700001 ], [ -115.229817, 36.130492799700001 ], [ -115.229817, 36.130490099699998 ], [ -115.2298143, 36.130490099699998 ], [ -115.2298143, 36.130487399700002 ], [ -115.2298116, 36.130487399700002 ], [ -115.2298116, 36.130484699699998 ], [ -115.2298089, 36.130484699699998 ], [ -115.2298089, 36.130481999700002 ], [ -115.2298035, 36.130481999700002 ], [ -115.2298035, 36.130479299699999 ], [ -115.2298008, 36.130479299699999 ], [ -115.2298008, 36.130476599700003 ], [ -115.2297954, 36.130476599700003 ], [ -115.2297954, 36.1304738997 ], [ -115.2297927, 36.1304738997 ], [ -115.2297927, 36.130471199700004 ], [ -115.2297873, 36.130471199700004 ], [ -115.2297873, 36.130468499700001 ], [ -115.2297306, 36.130468499700001 ], [ -115.2297306, 36.130465799699998 ], [ -115.2297252, 36.130465799699998 ], [ -115.2297252, 36.130463099700002 ], [ -115.2297225, 36.130463099700002 ], [ -115.2297225, 36.130425299700001 ], [ -115.2297333, 36.130425299700001 ], [ -115.2297333, 36.130417199699998 ], [ -115.229736, 36.130417199699998 ], [ -115.229736, 36.130409099700003 ], [ -115.2297333, 36.130409099700003 ], [ -115.2297333, 36.130403699700004 ], [ -115.2297306, 36.130403699700004 ], [ -115.2297306, 36.130400999700001 ], [ -115.2297252, 36.130400999700001 ], [ -115.2297252, 36.130398299699998 ], [ -115.2297198, 36.130398299699998 ], [ -115.2297198, 36.130400999700001 ], [ -115.2297144, 36.130400999700001 ], [ -115.2297144, 36.130398299699998 ], [ -115.2297036, 36.130398299699998 ], [ -115.2297036, 36.130395599700002 ], [ -115.2296955, 36.130395599700002 ], [ -115.2296955, 36.130392899699999 ], [ -115.2296793, 36.130392899699999 ], [ -115.2296793, 36.130390199700003 ], [ -115.2296712, 36.130390199700003 ], [ -115.2296712, 36.130387499699999 ], [ -115.2296685, 36.130387499699999 ], [ -115.2296685, 36.1303577997 ], [ -115.2296658, 36.1303577997 ], [ -115.2296658, 36.130330799700005 ], [ -115.2296685, 36.130330799700005 ], [ -115.2296685, 36.130328099700002 ], [ -115.2296712, 36.130328099700002 ], [ -115.2296712, 36.130325399699998 ], [ -115.2296847, 36.130325399699998 ], [ -115.2296847, 36.130319999699999 ], [ -115.2297144, 36.130319999699999 ], [ -115.2297144, 36.130317299700003 ], [ -115.2297171, 36.130317299700003 ], [ -115.2297171, 36.130319999699999 ], [ -115.2297198, 36.130319999699999 ], [ -115.2297198, 36.130322699700002 ], [ -115.2297414, 36.130322699700002 ], [ -115.2297414, 36.130309199700001 ], [ -115.2297441, 36.130309199700001 ], [ -115.2297441, 36.130306499699998 ], [ -115.2297468, 36.130306499699998 ], [ -115.2297468, 36.130303799700002 ], [ -115.2297495, 36.130303799700002 ], [ -115.2297495, 36.130301099699999 ], [ -115.229817, 36.130301099699999 ], [ -115.229817, 36.130303799700002 ], [ -115.2298224, 36.130303799700002 ], [ -115.2298224, 36.130306499699998 ], [ -115.2298278, 36.130306499699998 ], [ -115.2298278, 36.130309199700001 ], [ -115.2298305, 36.130309199700001 ], [ -115.2298305, 36.130311899700004 ], [ -115.2298575, 36.130311899700004 ], [ -115.2298575, 36.1303145997 ], [ -115.2298791, 36.1303145997 ], [ -115.2298791, 36.130317299700003 ], [ -115.2298953, 36.130317299700003 ], [ -115.2298953, 36.130319999699999 ], [ -115.2299061, 36.130319999699999 ], [ -115.2299061, 36.130322699700002 ], [ -115.2299088, 36.130322699700002 ], [ -115.2299088, 36.130319999699999 ], [ -115.2299142, 36.130319999699999 ], [ -115.2299142, 36.130322699700002 ], [ -115.2299169, 36.130322699700002 ], [ -115.2299169, 36.130319999699999 ], [ -115.2299223, 36.130319999699999 ], [ -115.2299223, 36.130322699700002 ], [ -115.229925, 36.130322699700002 ], [ -115.229925, 36.130319999699999 ], [ -115.2299304, 36.130319999699999 ], [ -115.2299304, 36.130330799700005 ], [ -115.229925, 36.130330799700005 ], [ -115.229925, 36.130333499700001 ], [ -115.2299277, 36.130333499700001 ], [ -115.2299277, 36.130336199700004 ], [ -115.2299304, 36.130336199700004 ], [ -115.2299304, 36.130346999700002 ], [ -115.2299331, 36.130346999700002 ], [ -115.2299331, 36.130352399700001 ], [ -115.2299358, 36.130352399700001 ], [ -115.2299358, 36.1304495997 ], [ -115.2299331, 36.1304495997 ], [ -115.2299331, 36.130457699700003 ], [ -115.2299358, 36.130457699700003 ], [ -115.2299358, 36.130465799699998 ], [ -115.2299331, 36.130465799699998 ], [ -115.2299331, 36.130471199700004 ], [ -115.2299358, 36.130471199700004 ], [ -115.2299358, 36.130484699699998 ], [ -115.2299331, 36.130484699699998 ], [ -115.2299331, 36.130503599699999 ], [ -115.2298791, 36.130503599699999 ], [ -115.2298791, 36.130506299700002 ] ] ] } },
{ "type": "Feature", "properties": { "value": 255.0 }, "geometry": { "type": "Polygon", "coordinates": [ [ [ -115.2286398, 36.130479299699999 ], [ -115.2286236, 36.130479299699999 ], [ -115.2286236, 36.130476599700003 ], [ -115.2286209, 36.130476599700003 ], [ -115.2286209, 36.1304738997 ], [ -115.2286182, 36.1304738997 ], [ -115.2286182, 36.130471199700004 ], [ -115.2286155, 36.130471199700004 ], [ -115.2286155, 36.130468499700001 ], [ -115.2286128, 36.130468499700001 ], [ -115.2286128, 36.130465799699998 ], [ -115.2286101, 36.130465799699998 ], [ -115.2286101, 36.130460399699999 ], [ -115.2286074, 36.130460399699999 ], [ -115.2286074, 36.130457699700003 ], [ -115.2286047, 36.130457699700003 ], [ -115.2286047, 36.1304549997 ], [ -115.228602, 36.1304549997 ], [ -115.228602, 36.1304495997 ], [ -115.2285993, 36.1304495997 ], [ -115.2285993, 36.130446899700004 ], [ -115.2285966, 36.130446899700004 ], [ -115.2285966, 36.130444199700001 ], [ -115.2285939, 36.130444199700001 ], [ -115.2285939, 36.130438799700002 ], [ -115.2285912, 36.130438799700002 ], [ -115.2285912, 36.130433399700003 ], [ -115.2285885, 36.130433399700003 ], [ -115.2285885, 36.130427999700004 ], [ -115.2285858, 36.130427999700004 ], [ -115.2285858, 36.130425299700001 ], [ -115.2285831, 36.130425299700001 ], [ -115.2285831, 36.130422599700005 ], [ -115.2285804, 36.130422599700005 ], [ -115.2285804, 36.130419899700001 ], [ -115.2285777, 36.130419899700001 ], [ -115.2285777, 36.130417199699998 ], [ -115.228575, 36.130417199699998 ], [ -115.228575, 36.130414499700002 ], [ -115.2285723, 36.130414499700002 ], [ -115.2285723, 36.130411799699999 ], [ -115.2285696, 36.130411799699999 ], [ -115.2285696, 36.130409099700003 ], [ -115.2285669, 36.130409099700003 ], [ -115.2285669, 36.1304063997 ], [ -115.2285642, 36.1304063997 ], [ -115.2285642, 36.130400999700001 ], [ -115.2285615, 36.130400999700001 ], [ -115.2285615, 36.130398299699998 ], [ -115.2285588, 36.130398299699998 ], [ -115.2285588, 36.130395599700002 ], [ -115.2285561, 36.130395599700002 ], [ -115.2285561, 36.130390199700003 ], [ -115.2285534, 36.130390199700003 ], [ -115.2285534, 36.130387499699999 ], [ -115.2285507, 36.130387499699999 ], [ -115.2285507, 36.1303820997 ], [ -115.228548, 36.1303820997 ], [ -115.228548, 36.130379399700004 ], [ -115.2285453, 36.130379399700004 ], [ -115.2285453, 36.130376699700001 ], [ -115.2285426, 36.130376699700001 ], [ -115.2285426, 36.130274099700003 ], [ -115.2285453, 36.130274099700003 ], [ -115.2285453, 36.1302713997 ], [ -115.228548, 36.1302713997 ], [ -115.228548, 36.130268699700004 ], [ -115.2285507, 36.130268699700004 ], [ -115.2285507, 36.130265999700001 ], [ -115.2285534, 36.130265999700001 ], [ -115.2285534, 36.130263299700005 ], [ -115.2285561, 36.130263299700005 ], [ -115.2285561, 36.130257899699998 ], [ -115.2285588, 36.130257899699998 ], [ -115.2285588, 36.130255199700002 ], [ -115.2285615, 36.130255199700002 ], [ -115.2285615, 36.130252499699999 ], [ -115.2285642, 36.130252499699999 ], [ -115.2285642, 36.130249799700003 ], [ -115.2285777, 36.130249799700003 ], [ -115.2285777, 36.130252499699999 ], [ -115.2285831, 36.130252499699999 ], [ -115.2285831, 36.130255199700002 ], [ -115.2285858, 36.130255199700002 ], [ -115.2285858, 36.130257899699998 ], [ -115.2285885, 36.130257899699998 ], [ -115.2285885, 36.130260599700001 ], [ -115.2285912, 36.130260599700001 ], [ -115.2285912, 36.130263299700005 ], [ -115.2285966, 36.130263299700005 ], [ -115.2285966, 36.130265999700001 ], [ -115.2285993, 36.130265999700001 ], [ -115.2285993, 36.130268699700004 ], [ -115.228602, 36.130268699700004 ], [ -115.228602, 36.1302713997 ], [ -115.2286047, 36.1302713997 ], [ -115.2286047, 36.130274099700003 ], [ -115.2286074, 36.130274099700003 ], [ -115.2286074, 36.130276799699999 ], [ -115.2286101, 36.130276799699999 ], [ -115.2286101, 36.130279499700002 ], [ -115.2286128, 36.130279499700002 ], [ -115.2286128, 36.130282199699998 ], [ -115.2286155, 36.130282199699998 ], [ -115.2286155, 36.130287599700004 ], [ -115.2286182, 36.130287599700004 ], [ -115.2286182, 36.1302902997 ], [ -115.2286209, 36.1302902997 ], [ -115.2286209, 36.130292999700004 ], [ -115.2286236, 36.130292999700004 ], [ -115.2286236, 36.1302956997 ], [ -115.2286263, 36.1302956997 ], [ -115.2286263, 36.130298399700003 ], [ -115.228629, 36.130298399700003 ], [ -115.228629, 36.130301099699999 ], [ -115.2286344, 36.130301099699999 ], [ -115.2286344, 36.130303799700002 ], [ -115.2286398, 36.130303799700002 ], [ -115.2286398, 36.130306499699998 ], [ -115.2286452, 36.130306499699998 ], [ -115.2286452, 36.130309199700001 ], [ -115.2286479, 36.130309199700001 ], [ -115.2286479, 36.1303145997 ], [ -115.2286506, 36.1303145997 ], [ -115.2286506, 36.130317299700003 ], [ -115.2286533, 36.130317299700003 ], [ -115.2286533, 36.130319999699999 ], [ -115.228656, 36.130319999699999 ], [ -115.228656, 36.130322699700002 ], [ -115.2286587, 36.130322699700002 ], [ -115.2286587, 36.130328099700002 ], [ -115.2286614, 36.130328099700002 ], [ -115.2286614, 36.130330799700005 ], [ -115.2286641, 36.130330799700005 ], [ -115.2286641, 36.130336199700004 ], [ -115.2286668, 36.130336199700004 ], [ -115.2286668, 36.130344299699999 ], [ -115.2286695, 36.130344299699999 ], [ -115.2286695, 36.130349699699998 ], [ -115.2286722, 36.130349699699998 ], [ -115.2286722, 36.130355099700004 ], [ -115.2286749, 36.130355099700004 ], [ -115.2286749, 36.130360499700004 ], [ -115.2286776, 36.130360499700004 ], [ -115.2286776, 36.130365899700003 ], [ -115.2286803, 36.130365899700003 ], [ -115.2286803, 36.130368599699999 ], [ -115.228683, 36.130368599699999 ], [ -115.228683, 36.130371299700002 ], [ -115.2286857, 36.130371299700002 ], [ -115.2286857, 36.130373999699998 ], [ -115.2286884, 36.130373999699998 ], [ -115.2286884, 36.130376699700001 ], [ -115.2286911, 36.130376699700001 ], [ -115.2286911, 36.1303820997 ], [ -115.2286938, 36.1303820997 ], [ -115.2286938, 36.130387499699999 ], [ -115.2286992, 36.130387499699999 ], [ -115.2286992, 36.130390199700003 ], [ -115.2287019, 36.130390199700003 ], [ -115.2287019, 36.130392899699999 ], [ -115.2287046, 36.130392899699999 ], [ -115.2287046, 36.130395599700002 ], [ -115.2287073, 36.130395599700002 ], [ -115.2287073, 36.130403699700004 ], [ -115.22871, 36.130403699700004 ], [ -115.22871, 36.130411799699999 ], [ -115.2287127, 36.130411799699999 ], [ -115.2287127, 36.130417199699998 ], [ -115.2287154, 36.130417199699998 ], [ -115.2287154, 36.130422599700005 ], [ -115.2287181, 36.130422599700005 ], [ -115.2287181, 36.130425299700001 ], [ -115.2287208, 36.130425299700001 ], [ -115.2287208, 36.130436099699999 ], [ -115.2287154, 36.130436099699999 ], [ -115.2287154, 36.130438799700002 ], [ -115.22871, 36.130438799700002 ], [ -115.22871, 36.130441499699998 ], [ -115.2287046, 36.130441499699998 ], [ -115.2287046, 36.130444199700001 ], [ -115.2286992, 36.130444199700001 ], [ -115.2286992, 36.130446899700004 ], [ -115.2286965, 36.130446899700004 ], [ -115.2286965, 36.1304495997 ], [ -115.2286938, 36.1304495997 ], [ -115.2286938, 36.130452299700003 ], [ -115.2286911, 36.130452299700003 ], [ -115.2286911, 36.1304549997 ], [ -115.2286857, 36.1304549997 ], [ -115.2286857, 36.130457699700003 ], [ -115.228683, 36.130457699700003 ], [ -115.228683, 36.130460399699999 ], [ -115.2286722, 36.130460399699999 ], [ -115.2286722, 36.130463099700002 ], [ -115.2286668, 36.130463099700002 ], [ -115.2286668, 36.130465799699998 ], [ -115.228656, 36.130465799699998 ], [ -115.228656, 36.130468499700001 ], [ -115.2286506, 36.130468499700001 ], [ -115.2286506, 36.130471199700004 ], [ -115.2286452, 36.130471199700004 ], [ -115.2286452, 36.1304738997 ], [ -115.2286425, 36.1304738997 ], [ -115.2286425, 36.130476599700003 ], [ -115.2286398, 36.130476599700003 ], [ -115.2286398, 36.130479299699999 ] ] ] } },
{ "type": "Feature", "properties": { "value": 255.0 }, "geometry": { "type": "Polygon", "coordinates": [ [ [ -115.2291906, 36.130490099699998 ], [ -115.2291015, 36.130490099699998 ], [ -115.2291015, 36.130487399700002 ], [ -115.2290934, 36.130487399700002 ], [ -115.2290934, 36.130479299699999 ], [ -115.2290853, 36.130479299699999 ], [ -115.2290853, 36.130476599700003 ], [ -115.2290826, 36.130476599700003 ], [ -115.2290826, 36.1304738997 ], [ -115.2290772, 36.1304738997 ], [ -115.2290772, 36.130471199700004 ], [ -115.2290718, 36.130471199700004 ], [ -115.2290718, 36.130468499700001 ], [ -115.2290664, 36.130468499700001 ], [ -115.2290664, 36.130463099700002 ], [ -115.2290637, 36.130463099700002 ], [ -115.2290637, 36.130387499699999 ], [ -115.229061, 36.130387499699999 ], [ -115.229061, 36.130379399700004 ], [ -115.2290583, 36.130379399700004 ], [ -115.2290583, 36.130333499700001 ], [ -115.2290556, 36.130333499700001 ], [ -115.2290556, 36.130317299700003 ], [ -115.2290583, 36.130317299700003 ], [ -115.2290583, 36.130311899700004 ], [ -115.229061, 36.130311899700004 ], [ -115.229061, 36.130309199700001 ], [ -115.2290664, 36.130309199700001 ], [ -115.2290664, 36.130303799700002 ], [ -115.2290691, 36.130303799700002 ], [ -115.2290691, 36.130292999700004 ], [ -115.2290718, 36.130292999700004 ], [ -115.2290718, 36.130282199699998 ], [ -115.2290745, 36.130282199699998 ], [ -115.2290745, 36.130249799700003 ], [ -115.2290772, 36.130249799700003 ], [ -115.2290772, 36.1302470997 ], [ -115.2290988, 36.1302470997 ], [ -115.2290988, 36.130244399700004 ], [ -115.2291663, 36.130244399700004 ], [ -115.2291663, 36.1302470997 ], [ -115.2291852, 36.1302470997 ], [ -115.2291852, 36.130249799700003 ], [ -115.2291906, 36.130249799700003 ], [ -115.2291906, 36.130252499699999 ], [ -115.229196, 36.130252499699999 ], [ -115.229196, 36.1302713997 ], [ -115.2291987, 36.1302713997 ], [ -115.2291987, 36.130292999700004 ], [ -115.2292014, 36.130292999700004 ], [ -115.2292014, 36.130317299700003 ], [ -115.2291987, 36.130317299700003 ], [ -115.2291987, 36.130341599700003 ], [ -115.2292014, 36.130341599700003 ], [ -115.2292014, 36.130344299699999 ], [ -115.2292068, 36.130344299699999 ], [ -115.2292068, 36.130349699699998 ], [ -115.2292095, 36.130349699699998 ], [ -115.2292095, 36.130368599699999 ], [ -115.2292068, 36.130368599699999 ], [ -115.2292068, 36.130371299700002 ], [ -115.2292014, 36.130371299700002 ], [ -115.2292014, 36.130373999699998 ], [ -115.229196, 36.130373999699998 ], [ -115.229196, 36.130379399700004 ], [ -115.2291933, 36.130379399700004 ], [ -115.2291933, 36.130468499700001 ], [ -115.229196, 36.130468499700001 ], [ -115.229196, 36.130484699699998 ], [ -115.2291933, 36.130484699699998 ], [ -115.2291933, 36.130487399700002 ], [ -115.2291906, 36.130487399700002 ], [ -115.2291906, 36.130490099699998 ] ] ] } },
{ "type": "Feature", "properties": { "value": 255.0 }, "geometry": { "type": "Polygon", "coordinates": [ [ [ -115.2285777, 36.130184999699999 ], [ -115.2285723, 36.130184999699999 ], [ -115.2285723, 36.130182299700003 ], [ -115.2285561, 36.130182299700003 ], [ -115.2285561, 36.1301795997 ], [ -115.2285534, 36.1301795997 ], [ -115.2285534, 36.130176899700004 ], [ -115.2285561, 36.130176899700004 ], [ -115.2285561, 36.130171499700005 ], [ -115.2285534, 36.130171499700005 ], [ -115.2285534, 36.1301552997 ], [ -115.2285777, 36.1301552997 ], [ -115.2285777, 36.130157999700003 ], [ -115.2285804, 36.130157999700003 ], [ -115.2285804, 36.130182299700003 ], [ -115.2285777, 36.130182299700003 ], [ -115.2285777, 36.130184999699999 ] ] ] } },
{ "type": "Feature", "properties": { "value": 255.0 }, "geometry": { "type": "Polygon", "coordinates": [ [ [ -115.2287991, 36.130133699700004 ], [ -115.2287775, 36.130133699700004 ], [ -115.2287775, 36.1301309997 ], [ -115.2287748, 36.1301309997 ], [ -115.2287748, 36.1301120997 ], [ -115.2287856, 36.1301120997 ], [ -115.2287856, 36.130109399700004 ], [ -115.2287964, 36.130109399700004 ], [ -115.2287964, 36.1301120997 ], [ -115.2288045, 36.1301120997 ], [ -115.2288045, 36.130114799700003 ], [ -115.2288126, 36.130114799700003 ], [ -115.2288126, 36.1301120997 ], [ -115.228818, 36.1301120997 ], [ -115.228818, 36.130109399700004 ], [ -115.2288342, 36.130109399700004 ], [ -115.2288342, 36.1301120997 ], [ -115.2288585, 36.1301120997 ], [ -115.2288585, 36.130109399700004 ], [ -115.2288612, 36.130109399700004 ], [ -115.2288612, 36.1301120997 ], [ -115.2288693, 36.1301120997 ], [ -115.2288693, 36.130114799700003 ], [ -115.228872, 36.130114799700003 ], [ -115.228872, 36.1301309997 ], [ -115.2288288, 36.1301309997 ], [ -115.2288288, 36.130128299700004 ], [ -115.228818, 36.130128299700004 ], [ -115.228818, 36.130122899700005 ], [ -115.2288153, 36.130122899700005 ], [ -115.2288153, 36.130120199700002 ], [ -115.2288099, 36.130120199700002 ], [ -115.2288099, 36.130125599700001 ], [ -115.2288126, 36.130125599700001 ], [ -115.2288126, 36.130128299700004 ], [ -115.2288018, 36.130128299700004 ], [ -115.2288018, 36.1301309997 ], [ -115.2287991, 36.1301309997 ], [ -115.2287991, 36.130133699700004 ] ] ] } },
{ "type": "Feature", "properties": { "value": 255.0 }, "geometry": { "type": "Polygon", "coordinates": [ [ [ -115.2292068, 36.130093199699999 ], [ -115.229169, 36.130093199699999 ], [ -115.229169, 36.130090499700003 ], [ -115.2290799, 36.130090499700003 ], [ -115.2290799, 36.1300877997 ], [ -115.2290772, 36.1300877997 ], [ -115.2290772, 36.130052699700002 ], [ -115.2292068, 36.130052699700002 ], [ -115.2292068, 36.130055399700005 ], [ -115.2292095, 36.130055399700005 ], [ -115.2292095, 36.130060799700004 ], [ -115.2292068, 36.130060799700004 ], [ -115.2292068, 36.130093199699999 ] ] ] } }
]
}
