{
"type": "FeatureCollection",
"crs": { "type": "name", "properties": { "name": "urn:ogc:def:crs:OGC:1.3:CRS84" } },
"features": [
{ "type": "Feature", "properties": { "value": 255.0 }, "geometry": { "type": "Polygon", "coordinates": [ [ [ -115.1839764, 36.163397699800001 ], [ -115.183765799999989, 36.163397699800001 ], [ -115.183765799999989, 36.163394999799998 ], [ -115.1837604, 36.163394999799998 ], [ -115.1837604, 36.163386899800003 ], [ -115.1837577, 36.163386899800003 ], [ -115.1837577, 36.163384199799999 ], [ -115.183755, 36.163384199799999 ], [ -115.183755, 36.163381499800003 ], [ -115.1837577, 36.163381499800003 ], [ -115.1837577, 36.163376099800004 ], [ -115.1837604, 36.163376099800004 ], [ -115.1837604, 36.163362599800003 ], [ -115.1837631, 36.163362599800003 ], [ -115.1837631, 36.163357199800004 ], [ -115.183765799999989, 36.163357199800004 ], [ -115.183765799999989, 36.163351799799997 ], [ -115.1837685, 36.163351799799997 ], [ -115.1837685, 36.163349099800001 ], [ -115.1837712, 36.163349099800001 ], [ -115.1837712, 36.163346399799998 ], [ -115.1837847, 36.163346399799998 ], [ -115.1837847, 36.163343699800002 ], [ -115.1837928, 36.163343699800002 ], [ -115.1837928, 36.163340999799999 ], [ -115.1838036, 36.163340999799999 ], [ -115.1838036, 36.163343699800002 ], [ -115.1838063, 36.163343699800002 ], [ -115.1838063, 36.163346399799998 ], [ -115.1838171, 36.163346399799998 ], [ -115.1838171, 36.163349099800001 ], [ -115.1838225, 36.163349099800001 ], [ -115.1838225, 36.163351799799997 ], [ -115.1838441, 36.163351799799997 ], [ -115.1838441, 36.163349099800001 ], [ -115.1838495, 36.163349099800001 ], [ -115.1838495, 36.163351799799997 ], [ -115.183863, 36.163351799799997 ], [ -115.183863, 36.163349099800001 ], [ -115.1838684, 36.163349099800001 ], [ -115.1838684, 36.163346399799998 ], [ -115.1838738, 36.163346399799998 ], [ -115.1838738, 36.163343699800002 ], [ -115.1838792, 36.163343699800002 ], [ -115.1838792, 36.163340999799999 ], [ -115.1838954, 36.163340999799999 ], [ -115.1838954, 36.163343699800002 ], [ -115.183900799999989, 36.163343699800002 ], [ -115.183900799999989, 36.163346399799998 ], [ -115.1839035, 36.163346399799998 ], [ -115.1839035, 36.163349099800001 ], [ -115.1839089, 36.163349099800001 ], [ -115.1839089, 36.163351799799997 ], [ -115.1839116, 36.163351799799997 ], [ -115.1839116, 36.1633544998 ], [ -115.183917, 36.1633544998 ], [ -115.183917, 36.163357199800004 ], [ -115.1839197, 36.163357199800004 ], [ -115.1839197, 36.1633598998 ], [ -115.1839224, 36.1633598998 ], [ -115.1839224, 36.163362599800003 ], [ -115.1839278, 36.163362599800003 ], [ -115.1839278, 36.163365299799999 ], [ -115.1839305, 36.163365299799999 ], [ -115.1839305, 36.163367999800002 ], [ -115.1839332, 36.163367999800002 ], [ -115.1839332, 36.163370699799998 ], [ -115.1839359, 36.163370699799998 ], [ -115.1839359, 36.163373399800001 ], [ -115.1839413, 36.163373399800001 ], [ -115.1839413, 36.163376099800004 ], [ -115.183944, 36.163376099800004 ], [ -115.183944, 36.1633787998 ], [ -115.1839494, 36.1633787998 ], [ -115.1839494, 36.163381499800003 ], [ -115.1839548, 36.163381499800003 ], [ -115.1839548, 36.163384199799999 ], [ -115.1839656, 36.163384199799999 ], [ -115.1839656, 36.163386899800003 ], [ -115.183968299999989, 36.163386899800003 ], [ -115.183968299999989, 36.163389599799999 ], [ -115.1839737, 36.163389599799999 ], [ -115.1839737, 36.163392299800002 ], [ -115.1839764, 36.163392299800002 ], [ -115.1839764, 36.163397699800001 ] ] ] } },
{ "type": "Feature", "properties": { "value": 255.0 }, "geometry": { "type": "Polygon", "coordinates": [ [ [ -115.1829369, 36.163386899800003 ], [ -115.1829126, 36.163386899800003 ], [ -115.1829126, 36.163338299800003 ], [ -115.1829369, 36.163338299800003 ], [ -115.1829369, 36.163340999799999 ], [ -115.1829666, 36.163340999799999 ], [ -115.1829666, 36.163338299800003 ], [ -115.182999, 36.163338299800003 ], [ -115.182999, 36.163340999799999 ], [ -115.1830017, 36.163340999799999 ], [ -115.1830017, 36.1633787998 ], [ -115.182999, 36.1633787998 ], [ -115.182999, 36.163381499800003 ], [ -115.1829801, 36.163381499800003 ], [ -115.1829801, 36.163384199799999 ], [ -115.1829369, 36.163384199799999 ], [ -115.1829369, 36.163386899800003 ] ] ] } },
{ "type": "Feature", "properties": { "value": 255.0 }, "geometry": { "type": "Polygon", "coordinates": [ [ [ -115.1844381, 36.1632923998 ], [ -115.1844057, 36.1632923998 ], [ -115.1844057, 36.163289699800004 ], [ -115.1844003, 36.163289699800004 ], [ -115.1844003, 36.1632869998 ], [ -115.1843976, 36.1632869998 ], [ -115.1843976, 36.1632437998 ], [ -115.1844003, 36.1632437998 ], [ -115.1844003, 36.163238399800001 ], [ -115.1844246, 36.163238399800001 ], [ -115.1844246, 36.163241099800004 ], [ -115.1844408, 36.163241099800004 ], [ -115.1844408, 36.1632437998 ], [ -115.1844435, 36.1632437998 ], [ -115.1844435, 36.163289699800004 ], [ -115.1844381, 36.163289699800004 ], [ -115.1844381, 36.1632923998 ] ] ] } },
{ "type": "Feature", "properties": { "value": 255.0 }, "geometry": { "type": "Polygon", "coordinates": [ [ [ -115.1846001, 36.163297799799999 ], [ -115.184592, 36.163297799799999 ], [ -115.184592, 36.163295099800003 ], [ -115.1845893, 36.163295099800003 ], [ -115.1845893, 36.163297799799999 ], [ -115.1845731, 36.163297799799999 ], [ -115.1845731, 36.163295099800003 ], [ -115.1845569, 36.163295099800003 ], [ -115.1845569, 36.1632923998 ], [ -115.1845515, 36.1632923998 ], [ -115.1845515, 36.163295099800003 ], [ -115.1845434, 36.163295099800003 ], [ -115.1845434, 36.1632923998 ], [ -115.1845272, 36.1632923998 ], [ -115.1845272, 36.163289699800004 ], [ -115.1845245, 36.163289699800004 ], [ -115.1845245, 36.1632869998 ], [ -115.1845218, 36.1632869998 ], [ -115.1845218, 36.163284299799997 ], [ -115.1845191, 36.163284299799997 ], [ -115.1845191, 36.163281599800001 ], [ -115.1844975, 36.163281599800001 ], [ -115.1844975, 36.163278899799998 ], [ -115.1844678, 36.163278899799998 ], [ -115.1844678, 36.163270799800003 ], [ -115.1844651, 36.163270799800003 ], [ -115.1844651, 36.163254599799998 ], [ -115.1844678, 36.163254599799998 ], [ -115.1844678, 36.163246499800003 ], [ -115.1844705, 36.163246499800003 ], [ -115.1844705, 36.1632437998 ], [ -115.1844786, 36.1632437998 ], [ -115.1844786, 36.163241099800004 ], [ -115.1844894, 36.163241099800004 ], [ -115.1844894, 36.163238399800001 ], [ -115.1845056, 36.163238399800001 ], [ -115.1845056, 36.163235699799998 ], [ -115.1845191, 36.163235699799998 ], [ -115.1845191, 36.163238399800001 ], [ -115.1845245, 36.163238399800001 ], [ -115.1845245, 36.163235699799998 ], [ -115.1845488, 36.163235699799998 ], [ -115.1845488, 36.163238399800001 ], [ -115.1845623, 36.163238399800001 ], [ -115.1845623, 36.163241099800004 ], [ -115.1845677, 36.163241099800004 ], [ -115.1845677, 36.1632437998 ], [ -115.1845704, 36.1632437998 ], [ -115.1845704, 36.163246499800003 ], [ -115.1845758, 36.163246499800003 ], [ -115.1845758, 36.163249199799999 ], [ -115.1845947, 36.163249199799999 ], [ -115.1845947, 36.163251899800002 ], [ -115.1846001, 36.163251899800002 ], [ -115.1846001, 36.163254599799998 ], [ -115.1846055, 36.163254599799998 ], [ -115.1846055, 36.163251899800002 ], [ -115.1846082, 36.163251899800002 ], [ -115.1846082, 36.163249199799999 ], [ -115.1846163, 36.163249199799999 ], [ -115.1846163, 36.163270799800003 ], [ -115.1846217, 36.163270799800003 ], [ -115.1846217, 36.163273499799999 ], [ -115.1846244, 36.163273499799999 ], [ -115.1846244, 36.163276199800002 ], [ -115.1846217, 36.163276199800002 ], [ -115.1846217, 36.163278899799998 ], [ -115.184619, 36.163278899799998 ], [ -115.184619, 36.163281599800001 ], [ -115.1846163, 36.163281599800001 ], [ -115.1846163, 36.163284299799997 ], [ -115.1846136, 36.163284299799997 ], [ -115.1846136, 36.163289699800004 ], [ -115.1846163, 36.163289699800004 ], [ -115.1846163, 36.1632923998 ], [ -115.1846136, 36.1632923998 ], [ -115.1846136, 36.163295099800003 ], [ -115.1846001, 36.163295099800003 ], [ -115.1846001, 36.163297799799999 ] ] ] } },
{ "type": "Feature", "properties": { "value": 255.0 }, "geometry": { "type": "Polygon", "coordinates": [ [ [ -115.1841924, 36.163222199800003 ], [ -115.1841897, 36.163222199800003 ], [ -115.1841897, 36.1632194998 ], [ -115.1841843, 36.1632194998 ], [ -115.1841843, 36.163222199800003 ], [ -115.1841789, 36.163222199800003 ], [ -115.1841789, 36.1632194998 ], [ -115.1841762, 36.1632194998 ], [ -115.1841762, 36.163216799799997 ], [ -115.1841735, 36.163216799799997 ], [ -115.1841735, 36.163192499799997 ], [ -115.1841789, 36.163192499799997 ], [ -115.1841789, 36.163203299800003 ], [ -115.1841816, 36.163203299800003 ], [ -115.1841816, 36.163205999799999 ], [ -115.1841843, 36.163205999799999 ], [ -115.1841843, 36.163195199800001 ], [ -115.1841816, 36.163195199800001 ], [ -115.1841816, 36.163192499799997 ], [ -115.1841843, 36.163192499799997 ], [ -115.1841843, 36.163189799800001 ], [ -115.1841897, 36.163189799800001 ], [ -115.1841897, 36.163192499799997 ], [ -115.1841924, 36.163192499799997 ], [ -115.1841924, 36.1632005998 ], [ -115.1841951, 36.1632005998 ], [ -115.1841951, 36.1632194998 ], [ -115.1841924, 36.1632194998 ], [ -115.1841924, 36.163222199800003 ] ] ] } },
{ "type": "Feature", "properties": { "value": 255.0 }, "geometry": { "type": "Polygon", "coordinates": [ [ [ -115.1838549, 36.163178999800003 ], [ -115.1838117, 36.163178999800003 ], [ -115.1838117, 36.1631762998 ], [ -115.1838036, 36.1631762998 ], [ -115.1838036, 36.163173599800004 ], [ -115.1837955, 36.163173599800004 ], [ -115.1837955, 36.1631762998 ], [ -115.1837901, 36.1631762998 ], [ -115.1837901, 36.163178999800003 ], [ -115.1837793, 36.163178999800003 ], [ -115.1837793, 36.1631762998 ], [ -115.1837766, 36.1631762998 ], [ -115.1837766, 36.163178999800003 ], [ -115.1837523, 36.163178999800003 ], [ -115.1837523, 36.1631762998 ], [ -115.1837469, 36.1631762998 ], [ -115.1837469, 36.163119599799998 ], [ -115.1837496, 36.163119599799998 ], [ -115.1837496, 36.163070999799999 ], [ -115.1837523, 36.163070999799999 ], [ -115.1837523, 36.1630601998 ], [ -115.183755, 36.1630601998 ], [ -115.183755, 36.163054799800001 ], [ -115.1837577, 36.163054799800001 ], [ -115.1837577, 36.163025099800002 ], [ -115.1837631, 36.163025099800002 ], [ -115.1837631, 36.163019699800003 ], [ -115.183765799999989, 36.163019699800003 ], [ -115.183765799999989, 36.163011599800001 ], [ -115.1837631, 36.163011599800001 ], [ -115.1837631, 36.163003499799999 ], [ -115.183765799999989, 36.163003499799999 ], [ -115.183765799999989, 36.163000799800002 ], [ -115.1837685, 36.163000799800002 ], [ -115.1837685, 36.162995399800003 ], [ -115.1837712, 36.162995399800003 ], [ -115.1837712, 36.1629926998 ], [ -115.1837685, 36.1629926998 ], [ -115.1837685, 36.162989999799997 ], [ -115.1837631, 36.162989999799997 ], [ -115.1837631, 36.162987299800001 ], [ -115.1837604, 36.162987299800001 ], [ -115.1837604, 36.162979199799999 ], [ -115.1837631, 36.162979199799999 ], [ -115.1837631, 36.162971099800004 ], [ -115.183765799999989, 36.162971099800004 ], [ -115.183765799999989, 36.162960299799998 ], [ -115.1837685, 36.162960299799998 ], [ -115.1837685, 36.162957599800002 ], [ -115.1837712, 36.162957599800002 ], [ -115.1837712, 36.162954899799999 ], [ -115.1837766, 36.162954899799999 ], [ -115.1837766, 36.162952199800003 ], [ -115.1837874, 36.162952199800003 ], [ -115.1837874, 36.162954899799999 ], [ -115.1838414, 36.162954899799999 ], [ -115.1838414, 36.162952199800003 ], [ -115.1838441, 36.162952199800003 ], [ -115.1838441, 36.162954899799999 ], [ -115.1838549, 36.162954899799999 ], [ -115.1838549, 36.162952199800003 ], [ -115.1838576, 36.162952199800003 ], [ -115.1838576, 36.162954899799999 ], [ -115.18389, 36.162954899799999 ], [ -115.18389, 36.162957599800002 ], [ -115.1839062, 36.162957599800002 ], [ -115.1839062, 36.162960299799998 ], [ -115.1839089, 36.162960299799998 ], [ -115.1839089, 36.1629683998 ], [ -115.1839116, 36.1629683998 ], [ -115.1839116, 36.162979199799999 ], [ -115.1839143, 36.162979199799999 ], [ -115.1839143, 36.1630412998 ], [ -115.1839116, 36.1630412998 ], [ -115.1839116, 36.163049399800002 ], [ -115.1839143, 36.163049399800002 ], [ -115.1839143, 36.163073699800002 ], [ -115.1839116, 36.163073699800002 ], [ -115.1839116, 36.1631087998 ], [ -115.1839089, 36.1631087998 ], [ -115.1839089, 36.163111499800003 ], [ -115.1839062, 36.163111499800003 ], [ -115.1839062, 36.163114199799999 ], [ -115.1839035, 36.163114199799999 ], [ -115.1839035, 36.163116899800002 ], [ -115.183900799999989, 36.163116899800002 ], [ -115.183900799999989, 36.163124999799997 ], [ -115.1838981, 36.163124999799997 ], [ -115.1838981, 36.163130399800004 ], [ -115.1838603, 36.163130399800004 ], [ -115.1838603, 36.1631330998 ], [ -115.1838576, 36.1631330998 ], [ -115.1838576, 36.1631762998 ], [ -115.1838549, 36.1631762998 ], [ -115.1838549, 36.163178999800003 ] ] ] } },
{ "type": "Feature", "properties": { "value": 255.0 }, "geometry": { "type": "Polygon", "coordinates": [ [ [ -115.1840142, 36.162919799800001 ], [ -115.1839899, 36.162919799800001 ], [ -115.1839899, 36.162917099799998 ], [ -115.1839872, 36.162917099799998 ], [ -115.1839872, 36.162898199799997 ], [ -115.1839845, 36.162898199799997 ], [ -115.1839845, 36.162887399799999 ], [ -115.1839872, 36.162887399799999 ], [ -115.1839872, 36.1628819998 ], [ -115.1839953, 36.1628819998 ], [ -115.1839953, 36.162879299799997 ], [ -115.1840115, 36.162879299799997 ], [ -115.1840115, 36.1628819998 ], [ -115.1840142, 36.1628819998 ], [ -115.1840142, 36.162884699800003 ], [ -115.1840169, 36.162884699800003 ], [ -115.1840169, 36.162892799799998 ], [ -115.1840196, 36.162892799799998 ], [ -115.1840196, 36.162908999800003 ], [ -115.1840169, 36.162908999800003 ], [ -115.1840169, 36.162917099799998 ], [ -115.1840142, 36.162917099799998 ], [ -115.1840142, 36.162919799800001 ] ] ] } },
{ "type": "Feature", "properties": { "value": 255.0 }, "geometry": { "type": "Polygon", "coordinates": [ [ [ -115.1829963, 36.163154699800003 ], [ -115.1829693, 36.163154699800003 ], [ -115.1829693, 36.1631519998 ], [ -115.1829612, 36.1631519998 ], [ -115.1829612, 36.163149299799997 ], [ -115.1829423, 36.163149299799997 ], [ -115.1829423, 36.163146599800001 ], [ -115.1829369, 36.163146599800001 ], [ -115.1829369, 36.163149299799997 ], [ -115.182926099999989, 36.163149299799997 ], [ -115.182926099999989, 36.163135799800003 ], [ -115.1829234, 36.163135799800003 ], [ -115.1829234, 36.163124999799997 ], [ -115.182918, 36.163124999799997 ], [ -115.182918, 36.163122299800001 ], [ -115.1829153, 36.163122299800001 ], [ -115.1829153, 36.163135799800003 ], [ -115.1829126, 36.163135799800003 ], [ -115.1829126, 36.163097999800002 ], [ -115.1829153, 36.163097999800002 ], [ -115.1829153, 36.163116899800002 ], [ -115.182918, 36.163116899800002 ], [ -115.182918, 36.163106099800004 ], [ -115.1829207, 36.163106099800004 ], [ -115.1829207, 36.163103399800001 ], [ -115.182918, 36.163103399800001 ], [ -115.182918, 36.163097999800002 ], [ -115.1829207, 36.163097999800002 ], [ -115.1829207, 36.163092599800002 ], [ -115.182926099999989, 36.163092599800002 ], [ -115.182926099999989, 36.163100699799998 ], [ -115.1829234, 36.163100699799998 ], [ -115.1829234, 36.163111499800003 ], [ -115.1829207, 36.163111499800003 ], [ -115.1829207, 36.163114199799999 ], [ -115.1829234, 36.163114199799999 ], [ -115.1829234, 36.163116899800002 ], [ -115.182926099999989, 36.163116899800002 ], [ -115.182926099999989, 36.163119599799998 ], [ -115.1829288, 36.163119599799998 ], [ -115.1829288, 36.163116899800002 ], [ -115.1829315, 36.163116899800002 ], [ -115.1829315, 36.163114199799999 ], [ -115.1829585, 36.163114199799999 ], [ -115.1829585, 36.163124999799997 ], [ -115.182955799999988, 36.163124999799997 ], [ -115.182955799999988, 36.163130399800004 ], [ -115.1829585, 36.163130399800004 ], [ -115.1829585, 36.163135799800003 ], [ -115.1829639, 36.163135799800003 ], [ -115.1829639, 36.1631330998 ], [ -115.1829666, 36.1631330998 ], [ -115.1829666, 36.163124999799997 ], [ -115.182972, 36.163124999799997 ], [ -115.182972, 36.1631276998 ], [ -115.182974699999988, 36.1631276998 ], [ -115.182974699999988, 36.163130399800004 ], [ -115.1829801, 36.163130399800004 ], [ -115.1829801, 36.163124999799997 ], [ -115.1829828, 36.163124999799997 ], [ -115.1829828, 36.163111499800003 ], [ -115.1829855, 36.163111499800003 ], [ -115.1829855, 36.163106099800004 ], [ -115.1829828, 36.163106099800004 ], [ -115.1829828, 36.163103399800001 ], [ -115.1829801, 36.163103399800001 ], [ -115.1829801, 36.163100699799998 ], [ -115.1829774, 36.163100699799998 ], [ -115.1829774, 36.163095299799998 ], [ -115.182974699999988, 36.163095299799998 ], [ -115.182974699999988, 36.163089899799999 ], [ -115.182972, 36.163089899799999 ], [ -115.182972, 36.163087199800003 ], [ -115.182974699999988, 36.163087199800003 ], [ -115.182974699999988, 36.163081799799997 ], [ -115.1829801, 36.163081799799997 ], [ -115.1829801, 36.163079099800001 ], [ -115.1829963, 36.163079099800001 ], [ -115.1829963, 36.163076399799998 ], [ -115.182999, 36.163076399799998 ], [ -115.182999, 36.163073699800002 ], [ -115.1830098, 36.163073699800002 ], [ -115.1830098, 36.163076399799998 ], [ -115.183023299999988, 36.163076399799998 ], [ -115.183023299999988, 36.163073699800002 ], [ -115.1830341, 36.163073699800002 ], [ -115.1830341, 36.163070999799999 ], [ -115.1830692, 36.163070999799999 ], [ -115.1830692, 36.163068299800003 ], [ -115.1830719, 36.163068299800003 ], [ -115.1830719, 36.1630601998 ], [ -115.1830746, 36.1630601998 ], [ -115.1830746, 36.163049399800002 ], [ -115.1830692, 36.163049399800002 ], [ -115.1830692, 36.163043999800003 ], [ -115.1830746, 36.163043999800003 ], [ -115.1830746, 36.1630412998 ], [ -115.1830773, 36.1630412998 ], [ -115.1830773, 36.163038599800004 ], [ -115.18308, 36.163038599800004 ], [ -115.18308, 36.163035899800001 ], [ -115.1830773, 36.163035899800001 ], [ -115.1830773, 36.163030499800001 ], [ -115.1830746, 36.163030499800001 ], [ -115.1830746, 36.163027799799998 ], [ -115.1830692, 36.163027799799998 ], [ -115.1830692, 36.163025099800002 ], [ -115.1830827, 36.163025099800002 ], [ -115.1830827, 36.163000799800002 ], [ -115.18308, 36.163000799800002 ], [ -115.18308, 36.162998099799999 ], [ -115.1830773, 36.162998099799999 ], [ -115.1830773, 36.162995399800003 ], [ -115.1830746, 36.162995399800003 ], [ -115.1830746, 36.162989999799997 ], [ -115.1830719, 36.162989999799997 ], [ -115.1830719, 36.162979199799999 ], [ -115.1830692, 36.162979199799999 ], [ -115.1830692, 36.162941399799998 ], [ -115.1830665, 36.162941399799998 ], [ -115.1830665, 36.162938699800002 ], [ -115.1830692, 36.162938699800002 ], [ -115.1830692, 36.162933299800002 ], [ -115.1830665, 36.162933299800002 ], [ -115.1830665, 36.162930599799999 ], [ -115.1830692, 36.162930599799999 ], [ -115.1830692, 36.162922499799997 ], [ -115.1830719, 36.162922499799997 ], [ -115.1830719, 36.162917099799998 ], [ -115.1830746, 36.162917099799998 ], [ -115.1830746, 36.162906299799999 ], [ -115.1830773, 36.162906299799999 ], [ -115.1830773, 36.162854999799997 ], [ -115.1830746, 36.162854999799997 ], [ -115.1830746, 36.1628333998 ], [ -115.1830773, 36.1628333998 ], [ -115.1830773, 36.162803699800001 ], [ -115.18308, 36.162803699800001 ], [ -115.18308, 36.162798299800002 ], [ -115.1830827, 36.162798299800002 ], [ -115.1830827, 36.162795599799999 ], [ -115.1831232, 36.162795599799999 ], [ -115.1831232, 36.162798299800002 ], [ -115.183158299999988, 36.162798299800002 ], [ -115.183158299999988, 36.162800999799998 ], [ -115.1831637, 36.162800999799998 ], [ -115.1831637, 36.162798299800002 ], [ -115.1831691, 36.162798299800002 ], [ -115.1831691, 36.162803699800001 ], [ -115.1831718, 36.162803699800001 ], [ -115.1831718, 36.1628333998 ], [ -115.1831745, 36.1628333998 ], [ -115.1831745, 36.162844199799999 ], [ -115.183177199999989, 36.162844199799999 ], [ -115.183177199999989, 36.1628576998 ], [ -115.1831826, 36.1628576998 ], [ -115.1831826, 36.162860399800003 ], [ -115.183188, 36.162860399800003 ], [ -115.183188, 36.162865799800002 ], [ -115.1831907, 36.162865799800002 ], [ -115.1831907, 36.162868499799998 ], [ -115.1831934, 36.162868499799998 ], [ -115.1831934, 36.162871199800001 ], [ -115.183196099999989, 36.162871199800001 ], [ -115.183196099999989, 36.162873899799997 ], [ -115.1831988, 36.162873899799997 ], [ -115.1831988, 36.162876599800001 ], [ -115.183196099999989, 36.162876599800001 ], [ -115.183196099999989, 36.1628819998 ], [ -115.1831934, 36.1628819998 ], [ -115.1831934, 36.1629008998 ], [ -115.183196099999989, 36.1629008998 ], [ -115.183196099999989, 36.162908999800003 ], [ -115.1831988, 36.162908999800003 ], [ -115.1831988, 36.162933299800002 ], [ -115.1832015, 36.162933299800002 ], [ -115.1832015, 36.162989999799997 ], [ -115.1831988, 36.162989999799997 ], [ -115.1831988, 36.162998099799999 ], [ -115.1832015, 36.162998099799999 ], [ -115.1832015, 36.163025099800002 ], [ -115.1832042, 36.163025099800002 ], [ -115.1832042, 36.163027799799998 ], [ -115.1832069, 36.163027799799998 ], [ -115.1832069, 36.163049399800002 ], [ -115.1832096, 36.163049399800002 ], [ -115.1832096, 36.163052099799998 ], [ -115.1832123, 36.163052099799998 ], [ -115.1832123, 36.1630601998 ], [ -115.183215, 36.1630601998 ], [ -115.183215, 36.163070999799999 ], [ -115.1832123, 36.163070999799999 ], [ -115.1832123, 36.163073699800002 ], [ -115.183215, 36.163073699800002 ], [ -115.183215, 36.163081799799997 ], [ -115.1832096, 36.163081799799997 ], [ -115.1832096, 36.1630844998 ], [ -115.1832042, 36.1630844998 ], [ -115.1832042, 36.163087199800003 ], [ -115.1831988, 36.163087199800003 ], [ -115.1831988, 36.163089899799999 ], [ -115.183128599999989, 36.163089899799999 ], [ -115.183128599999989, 36.163087199800003 ], [ -115.1831259, 36.163087199800003 ], [ -115.1831259, 36.1630844998 ], [ -115.1831232, 36.1630844998 ], [ -115.1831232, 36.163079099800001 ], [ -115.1831205, 36.163079099800001 ], [ -115.1831205, 36.163076399799998 ], [ -115.1831178, 36.163076399799998 ], [ -115.1831178, 36.163073699800002 ], [ -115.1830989, 36.163073699800002 ], [ -115.1830989, 36.163076399799998 ], [ -115.1830962, 36.163076399799998 ], [ -115.1830962, 36.163081799799997 ], [ -115.1830935, 36.163081799799997 ], [ -115.1830935, 36.1630844998 ], [ -115.183090799999988, 36.1630844998 ], [ -115.183090799999988, 36.163087199800003 ], [ -115.1830827, 36.163087199800003 ], [ -115.1830827, 36.163089899799999 ], [ -115.18308, 36.163089899799999 ], [ -115.18308, 36.163095299799998 ], [ -115.1830773, 36.163095299799998 ], [ -115.1830773, 36.163097999800002 ], [ -115.1830719, 36.163097999800002 ], [ -115.1830719, 36.163095299799998 ], [ -115.1830665, 36.163095299799998 ], [ -115.1830665, 36.163106099800004 ], [ -115.1830692, 36.163106099800004 ], [ -115.1830692, 36.1631087998 ], [ -115.1830719, 36.1631087998 ], [ -115.1830719, 36.163114199799999 ], [ -115.1830692, 36.163114199799999 ], [ -115.1830692, 36.163116899800002 ], [ -115.1830665, 36.163116899800002 ], [ -115.1830665, 36.163119599799998 ], [ -115.1830638, 36.163119599799998 ], [ -115.1830638, 36.163124999799997 ], [ -115.183061099999989, 36.163124999799997 ], [ -115.183061099999989, 36.1631276998 ], [ -115.1830584, 36.1631276998 ], [ -115.1830584, 36.1631330998 ], [ -115.1830557, 36.1631330998 ], [ -115.1830557, 36.163135799800003 ], [ -115.183042199999988, 36.163135799800003 ], [ -115.183042199999988, 36.163138499799999 ], [ -115.1830314, 36.163138499799999 ], [ -115.1830314, 36.163135799800003 ], [ -115.183026, 36.163135799800003 ], [ -115.183026, 36.163138499799999 ], [ -115.1830206, 36.163138499799999 ], [ -115.1830206, 36.163141199800002 ], [ -115.1830125, 36.163141199800002 ], [ -115.1830125, 36.163138499799999 ], [ -115.1830098, 36.163138499799999 ], [ -115.1830098, 36.163146599800001 ], [ -115.1830044, 36.163146599800001 ], [ -115.1830044, 36.163149299799997 ], [ -115.1830017, 36.163149299799997 ], [ -115.1830017, 36.1631519998 ], [ -115.1829963, 36.1631519998 ], [ -115.1829963, 36.163154699800003 ] ], [ [ -115.1829396, 36.163135799800003 ], [ -115.1829396, 36.1631330998 ], [ -115.1829423, 36.1631330998 ], [ -115.1829423, 36.163130399800004 ], [ -115.1829342, 36.163130399800004 ], [ -115.1829342, 36.1631330998 ], [ -115.1829315, 36.1631330998 ], [ -115.1829315, 36.163135799800003 ], [ -115.1829396, 36.163135799800003 ] ] ] } },
{ "type": "Feature", "properties": { "value": 255.0 }, "geometry": { "type": "Polygon", "coordinates": [ [ [ -115.1837604, 36.162876599800001 ], [ -115.1837253, 36.162876599800001 ], [ -115.1837253, 36.162873899799997 ], [ -115.1837118, 36.162873899799997 ], [ -115.1837118, 36.162871199800001 ], [ -115.1837064, 36.162871199800001 ], [ -115.1837064, 36.162868499799998 ], [ -115.183701, 36.162868499799998 ], [ -115.183701, 36.162863099799999 ], [ -115.183698299999989, 36.162863099799999 ], [ -115.183698299999989, 36.162836099800003 ], [ -115.1836956, 36.162836099800003 ], [ -115.1836956, 36.162827999800001 ], [ -115.1836929, 36.162827999800001 ], [ -115.1836929, 36.162803699800001 ], [ -115.1836956, 36.162803699800001 ], [ -115.1836956, 36.162798299800002 ], [ -115.183698299999989, 36.162798299800002 ], [ -115.183698299999989, 36.162795599799999 ], [ -115.183701, 36.162795599799999 ], [ -115.183701, 36.162792899800003 ], [ -115.1837064, 36.162792899800003 ], [ -115.1837064, 36.1627901998 ], [ -115.1837226, 36.1627901998 ], [ -115.1837226, 36.162787499799997 ], [ -115.1837253, 36.162787499799997 ], [ -115.1837253, 36.162749699800003 ], [ -115.183728, 36.162749699800003 ], [ -115.183728, 36.162733499799998 ], [ -115.1837307, 36.162733499799998 ], [ -115.1837307, 36.162730799800002 ], [ -115.1837847, 36.162730799800002 ], [ -115.1837847, 36.162733499799998 ], [ -115.1838522, 36.162733499799998 ], [ -115.1838522, 36.162736199800001 ], [ -115.1838603, 36.162736199800001 ], [ -115.1838603, 36.162738899799997 ], [ -115.183863, 36.162738899799997 ], [ -115.183863, 36.162744299799996 ], [ -115.1838657, 36.162744299799996 ], [ -115.1838657, 36.162755099800002 ], [ -115.1838765, 36.162755099800002 ], [ -115.1838765, 36.162757799799998 ], [ -115.1838981, 36.162757799799998 ], [ -115.1838981, 36.162760499800001 ], [ -115.1839116, 36.162760499800001 ], [ -115.1839116, 36.162763199799997 ], [ -115.1839143, 36.162763199799997 ], [ -115.1839143, 36.162854999799997 ], [ -115.1839116, 36.162854999799997 ], [ -115.1839116, 36.162863099799999 ], [ -115.1839089, 36.162863099799999 ], [ -115.1839089, 36.162868499799998 ], [ -115.1839062, 36.162868499799998 ], [ -115.1839062, 36.162871199800001 ], [ -115.1838657, 36.162871199800001 ], [ -115.1838657, 36.162868499799998 ], [ -115.1837793, 36.162868499799998 ], [ -115.1837793, 36.162871199800001 ], [ -115.1837739, 36.162871199800001 ], [ -115.1837739, 36.162873899799997 ], [ -115.1837604, 36.162873899799997 ], [ -115.1837604, 36.162876599800001 ] ] ] } },
{ "type": "Feature", "properties": { "value": 255.0 }, "geometry": { "type": "Polygon", "coordinates": [ [ [ -115.1842653, 36.162474299799996 ], [ -115.1841708, 36.162474299799996 ], [ -115.1841708, 36.1624715998 ], [ -115.1841681, 36.1624715998 ], [ -115.1841681, 36.162468899799997 ], [ -115.1841654, 36.162468899799997 ], [ -115.1841654, 36.162436499800002 ], [ -115.1841627, 36.162436499800002 ], [ -115.1841627, 36.162401399799997 ], [ -115.1841654, 36.162401399799997 ], [ -115.1841654, 36.162398699800001 ], [ -115.1841681, 36.162398699800001 ], [ -115.1841681, 36.162395999799998 ], [ -115.1841816, 36.162395999799998 ], [ -115.1841816, 36.162393299800002 ], [ -115.1842113, 36.162393299800002 ], [ -115.1842113, 36.162390599799998 ], [ -115.1842221, 36.162390599799998 ], [ -115.1842221, 36.162393299800002 ], [ -115.1842356, 36.162393299800002 ], [ -115.1842356, 36.162390599799998 ], [ -115.1842599, 36.162390599799998 ], [ -115.1842599, 36.162393299800002 ], [ -115.1842653, 36.162393299800002 ], [ -115.1842653, 36.162398699800001 ], [ -115.184268, 36.162398699800001 ], [ -115.184268, 36.162401399799997 ], [ -115.1842653, 36.162401399799997 ], [ -115.1842653, 36.162436499800002 ], [ -115.184268, 36.162436499800002 ], [ -115.184268, 36.1624472998 ], [ -115.1842707, 36.1624472998 ], [ -115.1842707, 36.162468899799997 ], [ -115.184268, 36.162468899799997 ], [ -115.184268, 36.1624715998 ], [ -115.1842653, 36.1624715998 ], [ -115.1842653, 36.162474299799996 ] ] ] } },
{ "type": "Feature", "properties": { "value": 255.0 }, "geometry": { "type": "Polygon", "coordinates": [ [ [ -115.1846676, 36.162452699799999 ], [ -115.1846541, 36.162452699799999 ], [ -115.1846541, 36.162449999799996 ], [ -115.1846487, 36.162449999799996 ], [ -115.1846487, 36.1624472998 ], [ -115.1846433, 36.1624472998 ], [ -115.1846433, 36.162439199799998 ], [ -115.1846379, 36.162439199799998 ], [ -115.1846379, 36.162433799799999 ], [ -115.184646, 36.162433799799999 ], [ -115.184646, 36.1624229998 ], [ -115.1846433, 36.1624229998 ], [ -115.1846433, 36.162420299799997 ], [ -115.184646, 36.162420299799997 ], [ -115.184646, 36.162417599800001 ], [ -115.1846487, 36.162417599800001 ], [ -115.1846487, 36.162414899799998 ], [ -115.1846514, 36.162414899799998 ], [ -115.1846514, 36.162412199800002 ], [ -115.1846541, 36.162412199800002 ], [ -115.1846541, 36.162409499799999 ], [ -115.1846568, 36.162409499799999 ], [ -115.1846568, 36.1624040998 ], [ -115.1846514, 36.1624040998 ], [ -115.1846514, 36.162401399799997 ], [ -115.1846487, 36.162401399799997 ], [ -115.1846487, 36.162393299800002 ], [ -115.1846514, 36.162393299800002 ], [ -115.1846514, 36.162390599799998 ], [ -115.1846541, 36.162390599799998 ], [ -115.1846541, 36.1623797998 ], [ -115.1846514, 36.1623797998 ], [ -115.1846514, 36.162371699799998 ], [ -115.1846541, 36.162371699799998 ], [ -115.1846541, 36.162368999800002 ], [ -115.1846568, 36.162368999800002 ], [ -115.1846568, 36.162366299799999 ], [ -115.1846595, 36.162366299799999 ], [ -115.1846595, 36.162368999800002 ], [ -115.1846622, 36.162368999800002 ], [ -115.1846622, 36.162363599800003 ], [ -115.1846649, 36.162363599800003 ], [ -115.1846649, 36.162352799799997 ], [ -115.1846676, 36.162352799799997 ], [ -115.1846676, 36.162452699799999 ] ] ] } },
{ "type": "Feature", "properties": { "value": 255.0 }, "geometry": { "type": "Polygon", "coordinates": [ [ [ -115.183863, 36.162323099799998 ], [ -115.1838576, 36.162323099799998 ], [ -115.1838576, 36.162320399800002 ], [ -115.1838495, 36.162320399800002 ], [ -115.1838495, 36.1623122998 ], [ -115.1838522, 36.1623122998 ], [ -115.1838522, 36.162309599799997 ], [ -115.1838549, 36.162309599799997 ], [ -115.1838549, 36.162306899800001 ], [ -115.1838576, 36.162306899800001 ], [ -115.1838576, 36.162304199799998 ], [ -115.183863, 36.162304199799998 ], [ -115.183863, 36.162306899800001 ], [ -115.1838657, 36.162306899800001 ], [ -115.1838657, 36.162317699799999 ], [ -115.183863, 36.162317699799999 ], [ -115.183863, 36.162323099799998 ] ] ] } },
{ "type": "Feature", "properties": { "value": 255.0 }, "geometry": { "type": "Polygon", "coordinates": [ [ [ -115.1839575, 36.162306899800001 ], [ -115.1839467, 36.162306899800001 ], [ -115.1839467, 36.162293399799999 ], [ -115.1839332, 36.162293399799999 ], [ -115.1839332, 36.162290699799996 ], [ -115.1839359, 36.162290699799996 ], [ -115.1839359, 36.1622879998 ], [ -115.1839548, 36.1622879998 ], [ -115.1839548, 36.162290699799996 ], [ -115.1839575, 36.162290699799996 ], [ -115.1839575, 36.162298799799999 ], [ -115.1839602, 36.162298799799999 ], [ -115.1839602, 36.162304199799998 ], [ -115.1839575, 36.162304199799998 ], [ -115.1839575, 36.162306899800001 ] ] ] } },
{ "type": "Feature", "properties": { "value": 255.0 }, "geometry": { "type": "Polygon", "coordinates": [ [ [ -115.184025, 36.162474299799996 ], [ -115.183998, 36.162474299799996 ], [ -115.183998, 36.1624715998 ], [ -115.1839791, 36.1624715998 ], [ -115.1839791, 36.162474299799996 ], [ -115.1839764, 36.162474299799996 ], [ -115.1839764, 36.1624715998 ], [ -115.1839035, 36.1624715998 ], [ -115.1839035, 36.162468899799997 ], [ -115.183900799999989, 36.162468899799997 ], [ -115.183900799999989, 36.162466199800001 ], [ -115.1838981, 36.162466199800001 ], [ -115.1838981, 36.162463499799998 ], [ -115.1838954, 36.162463499799998 ], [ -115.1838954, 36.162460799800002 ], [ -115.18389, 36.162460799800002 ], [ -115.18389, 36.162458099799998 ], [ -115.1838846, 36.162458099799998 ], [ -115.1838846, 36.162455399800002 ], [ -115.1838711, 36.162455399800002 ], [ -115.1838711, 36.162452699799999 ], [ -115.1838225, 36.162452699799999 ], [ -115.1838225, 36.162455399800002 ], [ -115.1838063, 36.162455399800002 ], [ -115.1838063, 36.162452699799999 ], [ -115.1837847, 36.162452699799999 ], [ -115.1837847, 36.162449999799996 ], [ -115.1837685, 36.162449999799996 ], [ -115.1837685, 36.162452699799999 ], [ -115.1837388, 36.162452699799999 ], [ -115.1837388, 36.162449999799996 ], [ -115.1837334, 36.162449999799996 ], [ -115.1837334, 36.1624472998 ], [ -115.1837307, 36.1624472998 ], [ -115.1837307, 36.162444599799997 ], [ -115.1837226, 36.162444599799997 ], [ -115.1837226, 36.162441899800001 ], [ -115.1837199, 36.162441899800001 ], [ -115.1837199, 36.162439199799998 ], [ -115.1837172, 36.162439199799998 ], [ -115.1837172, 36.162436499800002 ], [ -115.1837145, 36.162436499800002 ], [ -115.1837145, 36.162433799799999 ], [ -115.1837118, 36.162433799799999 ], [ -115.1837118, 36.162431099800003 ], [ -115.1837037, 36.162431099800003 ], [ -115.1837037, 36.1624283998 ], [ -115.183698299999989, 36.1624283998 ], [ -115.183698299999989, 36.162425699799996 ], [ -115.1836956, 36.162425699799996 ], [ -115.1836956, 36.1624229998 ], [ -115.1836929, 36.1624229998 ], [ -115.1836929, 36.162398699800001 ], [ -115.1836956, 36.162398699800001 ], [ -115.1836956, 36.162393299800002 ], [ -115.183698299999989, 36.162393299800002 ], [ -115.183698299999989, 36.1623797998 ], [ -115.1836956, 36.1623797998 ], [ -115.1836956, 36.162363599800003 ], [ -115.1836929, 36.162363599800003 ], [ -115.1836929, 36.162358199799996 ], [ -115.1836956, 36.162358199799996 ], [ -115.1836956, 36.162350099800001 ], [ -115.1836929, 36.162350099800001 ], [ -115.1836929, 36.162341999799999 ], [ -115.1836902, 36.162341999799999 ], [ -115.1836902, 36.162333899799997 ], [ -115.1836875, 36.162333899799997 ], [ -115.1836875, 36.162304199799998 ], [ -115.1836848, 36.162304199799998 ], [ -115.1836848, 36.1622879998 ], [ -115.1836875, 36.1622879998 ], [ -115.1836875, 36.162282599800001 ], [ -115.1836929, 36.162282599800001 ], [ -115.1836929, 36.162279899799998 ], [ -115.1837037, 36.162279899799998 ], [ -115.1837037, 36.162277199800002 ], [ -115.1837334, 36.162277199800002 ], [ -115.1837334, 36.162274499799999 ], [ -115.1837577, 36.162274499799999 ], [ -115.1837577, 36.162277199800002 ], [ -115.1837604, 36.162277199800002 ], [ -115.1837604, 36.162274499799999 ], [ -115.1837739, 36.162274499799999 ], [ -115.1837739, 36.162277199800002 ], [ -115.1837901, 36.162277199800002 ], [ -115.1837901, 36.162279899799998 ], [ -115.1838036, 36.162279899799998 ], [ -115.1838036, 36.162282599800001 ], [ -115.1838063, 36.162282599800001 ], [ -115.1838063, 36.162304199799998 ], [ -115.183809, 36.162304199799998 ], [ -115.183809, 36.162333899799997 ], [ -115.1838117, 36.162333899799997 ], [ -115.1838117, 36.162339299799996 ], [ -115.1838738, 36.162339299799996 ], [ -115.1838738, 36.1623365998 ], [ -115.1838846, 36.1623365998 ], [ -115.1838846, 36.162333899799997 ], [ -115.1838873, 36.162333899799997 ], [ -115.1838873, 36.162331199800001 ], [ -115.18389, 36.162331199800001 ], [ -115.18389, 36.162333899799997 ], [ -115.1838981, 36.162333899799997 ], [ -115.1838981, 36.162328499799997 ], [ -115.183900799999989, 36.162328499799997 ], [ -115.183900799999989, 36.1623365998 ], [ -115.1839035, 36.1623365998 ], [ -115.1839035, 36.162339299799996 ], [ -115.1839089, 36.162339299799996 ], [ -115.1839089, 36.1623365998 ], [ -115.1839116, 36.1623365998 ], [ -115.1839116, 36.162331199800001 ], [ -115.1839089, 36.162331199800001 ], [ -115.1839089, 36.162328499799997 ], [ -115.1839143, 36.162328499799997 ], [ -115.1839143, 36.162331199800001 ], [ -115.183917, 36.162331199800001 ], [ -115.183917, 36.162333899799997 ], [ -115.1839197, 36.162333899799997 ], [ -115.1839197, 36.1623365998 ], [ -115.1839251, 36.1623365998 ], [ -115.1839251, 36.162339299799996 ], [ -115.1839521, 36.162339299799996 ], [ -115.1839521, 36.1623365998 ], [ -115.1839791, 36.1623365998 ], [ -115.1839791, 36.162339299799996 ], [ -115.1839872, 36.162339299799996 ], [ -115.1839872, 36.162341999799999 ], [ -115.1839926, 36.162341999799999 ], [ -115.1839926, 36.162344699800002 ], [ -115.183998, 36.162344699800002 ], [ -115.183998, 36.162347399799998 ], [ -115.1840034, 36.162347399799998 ], [ -115.1840034, 36.162350099800001 ], [ -115.1840088, 36.162350099800001 ], [ -115.1840088, 36.162352799799997 ], [ -115.1840061, 36.162352799799997 ], [ -115.1840061, 36.1623554998 ], [ -115.1840034, 36.1623554998 ], [ -115.1840034, 36.162363599800003 ], [ -115.1840061, 36.162363599800003 ], [ -115.1840061, 36.162366299799999 ], [ -115.1840088, 36.162366299799999 ], [ -115.1840088, 36.162368999800002 ], [ -115.1840115, 36.162368999800002 ], [ -115.1840115, 36.162371699799998 ], [ -115.1840142, 36.162371699799998 ], [ -115.1840142, 36.162374399800001 ], [ -115.1840169, 36.162374399800001 ], [ -115.1840169, 36.162377099799997 ], [ -115.1840196, 36.162377099799997 ], [ -115.1840196, 36.162382499799996 ], [ -115.184025, 36.162382499799996 ], [ -115.184025, 36.162385199799999 ], [ -115.1840331, 36.162385199799999 ], [ -115.1840331, 36.162387899800002 ], [ -115.1840412, 36.162387899800002 ], [ -115.1840412, 36.162390599799998 ], [ -115.1840898, 36.162390599799998 ], [ -115.1840898, 36.162393299800002 ], [ -115.1840952, 36.162393299800002 ], [ -115.1840952, 36.162395999799998 ], [ -115.1840979, 36.162395999799998 ], [ -115.1840979, 36.162406799799996 ], [ -115.1841006, 36.162406799799996 ], [ -115.1841006, 36.162439199799998 ], [ -115.1840979, 36.162439199799998 ], [ -115.1840979, 36.162466199800001 ], [ -115.1840952, 36.162466199800001 ], [ -115.1840952, 36.162468899799997 ], [ -115.1840925, 36.162468899799997 ], [ -115.1840925, 36.1624715998 ], [ -115.184025, 36.1624715998 ], [ -115.184025, 36.162474299799996 ] ] ] } },
{ "type": "Feature", "properties": { "value": 255.0 }, "geometry": { "type": "Polygon", "coordinates": [ [ [ -115.1844057, 36.1622690998 ], [ -115.1844003, 36.1622690998 ], [ -115.1844003, 36.162266399799996 ], [ -115.1843922, 36.162266399799996 ], [ -115.1843922, 36.1622690998 ], [ -115.1843895, 36.1622690998 ], [ -115.1843895, 36.162266399799996 ], [ -115.1843814, 36.162266399799996 ], [ -115.1843814, 36.1622636998 ], [ -115.1843787, 36.1622636998 ], [ -115.1843787, 36.162233999800002 ], [ -115.1843814, 36.162233999800002 ], [ -115.1843814, 36.162231299799998 ], [ -115.1844084, 36.162231299799998 ], [ -115.1844084, 36.162247499799996 ], [ -115.1844111, 36.162247499799996 ], [ -115.1844111, 36.1622636998 ], [ -115.1844084, 36.1622636998 ], [ -115.1844084, 36.162266399799996 ], [ -115.1844057, 36.162266399799996 ], [ -115.1844057, 36.1622690998 ] ] ] } },
{ "type": "Feature", "properties": { "value": 255.0 }, "geometry": { "type": "Polygon", "coordinates": [ [ [ -115.183128599999989, 36.162377099799997 ], [ -115.183109699999989, 36.162377099799997 ], [ -115.183109699999989, 36.162374399800001 ], [ -115.1830503, 36.162374399800001 ], [ -115.1830503, 36.162377099799997 ], [ -115.1830341, 36.162377099799997 ], [ -115.1830341, 36.162374399800001 ], [ -115.1830152, 36.162374399800001 ], [ -115.1830152, 36.162296099800002 ], [ -115.1830179, 36.162296099800002 ], [ -115.1830179, 36.162293399799999 ], [ -115.183023299999988, 36.162293399799999 ], [ -115.183023299999988, 36.162290699799996 ], [ -115.1830557, 36.162290699799996 ], [ -115.1830557, 36.1622879998 ], [ -115.1830584, 36.1622879998 ], [ -115.1830584, 36.162285299799997 ], [ -115.1830638, 36.162285299799997 ], [ -115.1830638, 36.162282599800001 ], [ -115.1830665, 36.162282599800001 ], [ -115.1830665, 36.162271799799996 ], [ -115.1830638, 36.162271799799996 ], [ -115.1830638, 36.1622690998 ], [ -115.1830665, 36.1622690998 ], [ -115.1830665, 36.162239399800001 ], [ -115.1830638, 36.162239399800001 ], [ -115.1830638, 36.162236699799998 ], [ -115.1830557, 36.162236699799998 ], [ -115.1830557, 36.162239399800001 ], [ -115.1829585, 36.162239399800001 ], [ -115.1829585, 36.162233999800002 ], [ -115.182955799999988, 36.162233999800002 ], [ -115.182955799999988, 36.162171899800001 ], [ -115.1829585, 36.162171899800001 ], [ -115.1829585, 36.1621529998 ], [ -115.1829612, 36.1621529998 ], [ -115.1829612, 36.162139499799999 ], [ -115.1829666, 36.162139499799999 ], [ -115.1829666, 36.162142199800002 ], [ -115.182972, 36.162142199800002 ], [ -115.182972, 36.162139499799999 ], [ -115.1829855, 36.162139499799999 ], [ -115.1829855, 36.162142199800002 ], [ -115.1829909, 36.162142199800002 ], [ -115.1829909, 36.162147599800001 ], [ -115.182993599999989, 36.162147599800001 ], [ -115.182993599999989, 36.162150299799997 ], [ -115.1829963, 36.162150299799997 ], [ -115.1829963, 36.162155699799996 ], [ -115.182999, 36.162155699799996 ], [ -115.182999, 36.162158399799999 ], [ -115.183026, 36.162158399799999 ], [ -115.183026, 36.162161099800002 ], [ -115.1830368, 36.162161099800002 ], [ -115.1830368, 36.162158399799999 ], [ -115.183053, 36.162158399799999 ], [ -115.183053, 36.162161099800002 ], [ -115.183061099999989, 36.162161099800002 ], [ -115.183061099999989, 36.162163799799998 ], [ -115.1830638, 36.162163799799998 ], [ -115.1830638, 36.162185399800002 ], [ -115.1830665, 36.162185399800002 ], [ -115.1830665, 36.162188099799998 ], [ -115.1830746, 36.162188099799998 ], [ -115.1830746, 36.162190799800001 ], [ -115.1830827, 36.162190799800001 ], [ -115.1830827, 36.162188099799998 ], [ -115.1831448, 36.162188099799998 ], [ -115.1831448, 36.162190799800001 ], [ -115.1831529, 36.162190799800001 ], [ -115.1831529, 36.162193499799997 ], [ -115.1831637, 36.162193499799997 ], [ -115.1831637, 36.1621961998 ], [ -115.1831691, 36.1621961998 ], [ -115.1831691, 36.162193499799997 ], [ -115.1831745, 36.162193499799997 ], [ -115.1831745, 36.162190799800001 ], [ -115.1831853, 36.162190799800001 ], [ -115.1831853, 36.162193499799997 ], [ -115.1832015, 36.162193499799997 ], [ -115.1832015, 36.162190799800001 ], [ -115.1832204, 36.162190799800001 ], [ -115.1832204, 36.162188099799998 ], [ -115.1832285, 36.162188099799998 ], [ -115.1832285, 36.162190799800001 ], [ -115.1832393, 36.162190799800001 ], [ -115.1832393, 36.162188099799998 ], [ -115.183242, 36.162188099799998 ], [ -115.183242, 36.162190799800001 ], [ -115.1832474, 36.162190799800001 ], [ -115.1832474, 36.162193499799997 ], [ -115.1832663, 36.162193499799997 ], [ -115.1832663, 36.1621961998 ], [ -115.183269, 36.1621961998 ], [ -115.183269, 36.162206999799999 ], [ -115.1832717, 36.162206999799999 ], [ -115.1832717, 36.162250199799999 ], [ -115.1832744, 36.162250199799999 ], [ -115.1832744, 36.162360899799999 ], [ -115.1832717, 36.162360899799999 ], [ -115.1832717, 36.162363599800003 ], [ -115.1832474, 36.162363599800003 ], [ -115.1832474, 36.162360899799999 ], [ -115.183244699999989, 36.162360899799999 ], [ -115.183244699999989, 36.162363599800003 ], [ -115.1832393, 36.162363599800003 ], [ -115.1832393, 36.162360899799999 ], [ -115.1832366, 36.162360899799999 ], [ -115.1832366, 36.162363599800003 ], [ -115.1831745, 36.162363599800003 ], [ -115.1831745, 36.162360899799999 ], [ -115.1831718, 36.162360899799999 ], [ -115.1831718, 36.162347399799998 ], [ -115.1831691, 36.162347399799998 ], [ -115.1831691, 36.162341999799999 ], [ -115.1831664, 36.162341999799999 ], [ -115.1831664, 36.162339299799996 ], [ -115.1831367, 36.162339299799996 ], [ -115.1831367, 36.162344699800002 ], [ -115.183134, 36.162344699800002 ], [ -115.183134, 36.162371699799998 ], [ -115.1831313, 36.162371699799998 ], [ -115.1831313, 36.162374399800001 ], [ -115.183128599999989, 36.162374399800001 ], [ -115.183128599999989, 36.162377099799997 ] ] ] } },
{ "type": "Feature", "properties": { "value": 255.0 }, "geometry": { "type": "Polygon", "coordinates": [ [ [ -115.1845407, 36.162217799799997 ], [ -115.1845191, 36.162217799799997 ], [ -115.1845191, 36.162215099800001 ], [ -115.1844543, 36.162215099800001 ], [ -115.1844543, 36.162212399799998 ], [ -115.1844516, 36.162212399799998 ], [ -115.1844516, 36.162101699799997 ], [ -115.1844435, 36.162101699799997 ], [ -115.1844435, 36.162098999800001 ], [ -115.1844354, 36.162098999800001 ], [ -115.1844354, 36.162101699799997 ], [ -115.1843868, 36.162101699799997 ], [ -115.1843868, 36.162098999800001 ], [ -115.1843841, 36.162098999800001 ], [ -115.1843841, 36.162096299799998 ], [ -115.1843814, 36.162096299799998 ], [ -115.1843814, 36.162082799799997 ], [ -115.1843787, 36.162082799799997 ], [ -115.1843787, 36.1620611998 ], [ -115.1843814, 36.1620611998 ], [ -115.1843814, 36.162058499799997 ], [ -115.1843841, 36.162058499799997 ], [ -115.1843841, 36.162055799800001 ], [ -115.1843922, 36.162055799800001 ], [ -115.1843922, 36.162058499799997 ], [ -115.1844003, 36.162058499799997 ], [ -115.1844003, 36.162055799800001 ], [ -115.184403, 36.162055799800001 ], [ -115.184403, 36.162053099799998 ], [ -115.1844084, 36.162053099799998 ], [ -115.1844084, 36.162050399800002 ], [ -115.1844219, 36.162050399800002 ], [ -115.1844219, 36.162047699799999 ], [ -115.1844354, 36.162047699799999 ], [ -115.1844354, 36.162050399800002 ], [ -115.1844462, 36.162050399800002 ], [ -115.1844462, 36.162047699799999 ], [ -115.1844489, 36.162047699799999 ], [ -115.1844489, 36.162044999799996 ], [ -115.1844543, 36.162044999799996 ], [ -115.1844543, 36.1620422998 ], [ -115.1845218, 36.1620422998 ], [ -115.1845218, 36.162044999799996 ], [ -115.1845434, 36.162044999799996 ], [ -115.1845434, 36.1620422998 ], [ -115.1845596, 36.1620422998 ], [ -115.1845596, 36.162044999799996 ], [ -115.1845758, 36.162044999799996 ], [ -115.1845758, 36.162047699799999 ], [ -115.1845866, 36.162047699799999 ], [ -115.1845866, 36.162050399800002 ], [ -115.1845893, 36.162050399800002 ], [ -115.1845893, 36.162053099799998 ], [ -115.184592, 36.162053099799998 ], [ -115.184592, 36.162071999799998 ], [ -115.1845947, 36.162071999799998 ], [ -115.1845947, 36.162096299799998 ], [ -115.1845974, 36.162096299799998 ], [ -115.1845974, 36.162117899800002 ], [ -115.1845947, 36.162117899800002 ], [ -115.1845947, 36.162212399799998 ], [ -115.184592, 36.162212399799998 ], [ -115.184592, 36.162215099800001 ], [ -115.1845407, 36.162215099800001 ], [ -115.1845407, 36.162217799799997 ] ] ] } },
{ "type": "Feature", "properties": { "value": 255.0 }, "geometry": { "type": "Polygon", "coordinates": [ [ [ -115.1839494, 36.162239399800001 ], [ -115.1839035, 36.162239399800001 ], [ -115.1839035, 36.162236699799998 ], [ -115.18389, 36.162236699799998 ], [ -115.18389, 36.162239399800001 ], [ -115.1838873, 36.162239399800001 ], [ -115.1838873, 36.162236699799998 ], [ -115.1838765, 36.162236699799998 ], [ -115.1838765, 36.162233999800002 ], [ -115.1838657, 36.162233999800002 ], [ -115.1838657, 36.162231299799998 ], [ -115.183863, 36.162231299799998 ], [ -115.183863, 36.162228599800002 ], [ -115.1838576, 36.162228599800002 ], [ -115.1838576, 36.162225899799999 ], [ -115.1838522, 36.162225899799999 ], [ -115.1838522, 36.1622204998 ], [ -115.1838495, 36.1622204998 ], [ -115.1838495, 36.162217799799997 ], [ -115.1838468, 36.162217799799997 ], [ -115.1838468, 36.162215099800001 ], [ -115.1838414, 36.162215099800001 ], [ -115.1838414, 36.162212399799998 ], [ -115.1838252, 36.162212399799998 ], [ -115.1838252, 36.162209699800002 ], [ -115.1838198, 36.162209699800002 ], [ -115.1838198, 36.162206999799999 ], [ -115.183809, 36.162206999799999 ], [ -115.183809, 36.162204299799996 ], [ -115.1838063, 36.162204299799996 ], [ -115.1838063, 36.162206999799999 ], [ -115.1837847, 36.162206999799999 ], [ -115.1837847, 36.162209699800002 ], [ -115.1837766, 36.162209699800002 ], [ -115.1837766, 36.162212399799998 ], [ -115.183765799999989, 36.162212399799998 ], [ -115.183765799999989, 36.162209699800002 ], [ -115.1837199, 36.162209699800002 ], [ -115.1837199, 36.162212399799998 ], [ -115.1837037, 36.162212399799998 ], [ -115.1837037, 36.162209699800002 ], [ -115.183701, 36.162209699800002 ], [ -115.183701, 36.162206999799999 ], [ -115.183698299999989, 36.162206999799999 ], [ -115.183698299999989, 36.162139499799999 ], [ -115.183701, 36.162139499799999 ], [ -115.183701, 36.162134099799999 ], [ -115.1837037, 36.162134099799999 ], [ -115.1837037, 36.162131399799996 ], [ -115.1837064, 36.162131399799996 ], [ -115.1837064, 36.1621286998 ], [ -115.1837118, 36.1621286998 ], [ -115.1837118, 36.162125999799997 ], [ -115.1837226, 36.162125999799997 ], [ -115.1837226, 36.1621286998 ], [ -115.1837361, 36.1621286998 ], [ -115.1837361, 36.162125999799997 ], [ -115.1837415, 36.162125999799997 ], [ -115.1837415, 36.162123299800001 ], [ -115.1837442, 36.162123299800001 ], [ -115.1837442, 36.162112499799996 ], [ -115.1837415, 36.162112499799996 ], [ -115.1837415, 36.1621097998 ], [ -115.1837388, 36.1621097998 ], [ -115.1837388, 36.1621043998 ], [ -115.1837361, 36.1621043998 ], [ -115.1837361, 36.162098999800001 ], [ -115.1837334, 36.162098999800001 ], [ -115.1837334, 36.162096299799998 ], [ -115.1837307, 36.162096299799998 ], [ -115.1837307, 36.162090899799999 ], [ -115.183728, 36.162090899799999 ], [ -115.183728, 36.162082799799997 ], [ -115.1837253, 36.162082799799997 ], [ -115.1837253, 36.162077399799998 ], [ -115.1837226, 36.162077399799998 ], [ -115.1837226, 36.162066599799999 ], [ -115.1837199, 36.162066599799999 ], [ -115.1837199, 36.162055799800001 ], [ -115.1837172, 36.162055799800001 ], [ -115.1837172, 36.162047699799999 ], [ -115.1837145, 36.162047699799999 ], [ -115.1837145, 36.1620422998 ], [ -115.1837118, 36.1620422998 ], [ -115.1837118, 36.1620368998 ], [ -115.1837145, 36.1620368998 ], [ -115.1837145, 36.162028799799998 ], [ -115.1837172, 36.162028799799998 ], [ -115.1837172, 36.162026099800002 ], [ -115.1837199, 36.162026099800002 ], [ -115.1837199, 36.162023399799999 ], [ -115.1837523, 36.162023399799999 ], [ -115.1837523, 36.162026099800002 ], [ -115.183755, 36.162026099800002 ], [ -115.183755, 36.162028799799998 ], [ -115.1837712, 36.162028799799998 ], [ -115.1837712, 36.162031499800001 ], [ -115.1838063, 36.162031499800001 ], [ -115.1838063, 36.162034199799997 ], [ -115.1838171, 36.162034199799997 ], [ -115.1838171, 36.162031499800001 ], [ -115.1838198, 36.162031499800001 ], [ -115.1838198, 36.162034199799997 ], [ -115.1838792, 36.162034199799997 ], [ -115.1838792, 36.1620368998 ], [ -115.1839332, 36.1620368998 ], [ -115.1839332, 36.162039599799996 ], [ -115.1839386, 36.162039599799996 ], [ -115.1839386, 36.1620422998 ], [ -115.1839467, 36.1620422998 ], [ -115.1839467, 36.162044999799996 ], [ -115.1839494, 36.162044999799996 ], [ -115.1839494, 36.162047699799999 ], [ -115.1839521, 36.162047699799999 ], [ -115.1839521, 36.162058499799997 ], [ -115.1839494, 36.162058499799997 ], [ -115.1839494, 36.162063899799996 ], [ -115.1839521, 36.162063899799996 ], [ -115.1839521, 36.162077399799998 ], [ -115.1839494, 36.162077399799998 ], [ -115.1839494, 36.162080099800001 ], [ -115.1839467, 36.162080099800001 ], [ -115.1839467, 36.162088199799996 ], [ -115.1839494, 36.162088199799996 ], [ -115.1839494, 36.162098999800001 ], [ -115.1839521, 36.162098999800001 ], [ -115.1839521, 36.162117899800002 ], [ -115.1839548, 36.162117899800002 ], [ -115.1839548, 36.1621961998 ], [ -115.1839575, 36.1621961998 ], [ -115.1839575, 36.162204299799996 ], [ -115.1839548, 36.162204299799996 ], [ -115.1839548, 36.162231299799998 ], [ -115.1839521, 36.162231299799998 ], [ -115.1839521, 36.162236699799998 ], [ -115.1839494, 36.162236699799998 ], [ -115.1839494, 36.162239399800001 ] ] ] } },
{ "type": "Feature", "properties": { "value": 255.0 }, "geometry": { "type": "Polygon", "coordinates": [ [ [ -115.1846244, 36.162026099800002 ], [ -115.184619, 36.162026099800002 ], [ -115.184619, 36.162023399799999 ], [ -115.1846082, 36.162023399799999 ], [ -115.1846082, 36.162020699799996 ], [ -115.1846055, 36.162020699799996 ], [ -115.1846055, 36.1620179998 ], [ -115.184592, 36.1620179998 ], [ -115.184592, 36.162020699799996 ], [ -115.1845839, 36.162020699799996 ], [ -115.1845839, 36.1620179998 ], [ -115.1845812, 36.1620179998 ], [ -115.1845812, 36.162015299799997 ], [ -115.1845758, 36.162015299799997 ], [ -115.1845758, 36.162009899799997 ], [ -115.1845785, 36.162009899799997 ], [ -115.1845785, 36.162004499799998 ], [ -115.1845839, 36.162004499799998 ], [ -115.1845839, 36.162001799799995 ], [ -115.184592, 36.162001799799995 ], [ -115.184592, 36.162004499799998 ], [ -115.1845947, 36.162004499799998 ], [ -115.1845947, 36.162001799799995 ], [ -115.1845974, 36.162001799799995 ], [ -115.1845974, 36.161999099799999 ], [ -115.1846001, 36.161999099799999 ], [ -115.1846001, 36.161996399799996 ], [ -115.1846028, 36.161996399799996 ], [ -115.1846028, 36.161999099799999 ], [ -115.1846055, 36.161999099799999 ], [ -115.1846055, 36.1619936998 ], [ -115.1846082, 36.1619936998 ], [ -115.1846082, 36.161988299800001 ], [ -115.1846109, 36.161988299800001 ], [ -115.1846109, 36.161985599799998 ], [ -115.1846163, 36.161985599799998 ], [ -115.1846163, 36.161982899800002 ], [ -115.1846487, 36.161982899800002 ], [ -115.1846487, 36.161980199799999 ], [ -115.1846541, 36.161980199799999 ], [ -115.1846541, 36.161977499799995 ], [ -115.1846568, 36.161977499799995 ], [ -115.1846568, 36.161963999800001 ], [ -115.1846595, 36.161963999800001 ], [ -115.1846595, 36.161958599800002 ], [ -115.1846676, 36.161958599800002 ], [ -115.1846676, 36.162015299799997 ], [ -115.1846568, 36.162015299799997 ], [ -115.1846568, 36.1620179998 ], [ -115.1846541, 36.1620179998 ], [ -115.1846541, 36.162020699799996 ], [ -115.1846514, 36.162020699799996 ], [ -115.1846514, 36.162023399799999 ], [ -115.1846244, 36.162023399799999 ], [ -115.1846244, 36.162026099800002 ] ] ] } },
{ "type": "Feature", "properties": { "value": 255.0 }, "geometry": { "type": "Polygon", "coordinates": [ [ [ -115.184538, 36.162026099800002 ], [ -115.1844732, 36.162026099800002 ], [ -115.1844732, 36.162023399799999 ], [ -115.1844678, 36.162023399799999 ], [ -115.1844678, 36.162020699799996 ], [ -115.1844651, 36.162020699799996 ], [ -115.1844651, 36.1620179998 ], [ -115.1844624, 36.1620179998 ], [ -115.1844624, 36.162015299799997 ], [ -115.1844246, 36.162015299799997 ], [ -115.1844246, 36.162009899799997 ], [ -115.1844138, 36.162009899799997 ], [ -115.1844138, 36.162012599800001 ], [ -115.1844084, 36.162012599800001 ], [ -115.1844084, 36.162015299799997 ], [ -115.1843841, 36.162015299799997 ], [ -115.1843841, 36.162007199800001 ], [ -115.1843814, 36.162007199800001 ], [ -115.1843814, 36.162001799799995 ], [ -115.1843895, 36.162001799799995 ], [ -115.1843895, 36.161999099799999 ], [ -115.1843976, 36.161999099799999 ], [ -115.1843976, 36.162001799799995 ], [ -115.1844003, 36.162001799799995 ], [ -115.1844003, 36.162004499799998 ], [ -115.1844138, 36.162004499799998 ], [ -115.1844138, 36.162001799799995 ], [ -115.1844192, 36.162001799799995 ], [ -115.1844192, 36.161996399799996 ], [ -115.1844219, 36.161996399799996 ], [ -115.1844219, 36.1619936998 ], [ -115.1844273, 36.1619936998 ], [ -115.1844273, 36.161990999799997 ], [ -115.1844327, 36.161990999799997 ], [ -115.1844327, 36.161988299800001 ], [ -115.1844408, 36.161988299800001 ], [ -115.1844408, 36.161990999799997 ], [ -115.1844435, 36.161990999799997 ], [ -115.1844435, 36.1619936998 ], [ -115.1844462, 36.1619936998 ], [ -115.1844462, 36.161996399799996 ], [ -115.1844516, 36.161996399799996 ], [ -115.1844516, 36.1619936998 ], [ -115.1844543, 36.1619936998 ], [ -115.1844543, 36.161990999799997 ], [ -115.1844597, 36.161990999799997 ], [ -115.1844597, 36.1619936998 ], [ -115.1844651, 36.1619936998 ], [ -115.1844651, 36.161988299800001 ], [ -115.1844678, 36.161988299800001 ], [ -115.1844678, 36.161982899800002 ], [ -115.1844705, 36.161982899800002 ], [ -115.1844705, 36.161980199799999 ], [ -115.1844759, 36.161980199799999 ], [ -115.1844759, 36.161977499799995 ], [ -115.1845245, 36.161977499799995 ], [ -115.1845245, 36.161980199799999 ], [ -115.1845407, 36.161980199799999 ], [ -115.1845407, 36.161982899800002 ], [ -115.1845461, 36.161982899800002 ], [ -115.1845461, 36.161985599799998 ], [ -115.1845488, 36.161985599799998 ], [ -115.1845488, 36.161988299800001 ], [ -115.1845515, 36.161988299800001 ], [ -115.1845515, 36.1619936998 ], [ -115.1845542, 36.1619936998 ], [ -115.1845542, 36.161996399799996 ], [ -115.1845569, 36.161996399799996 ], [ -115.1845569, 36.161999099799999 ], [ -115.1845596, 36.161999099799999 ], [ -115.1845596, 36.162001799799995 ], [ -115.1845623, 36.162001799799995 ], [ -115.1845623, 36.162007199800001 ], [ -115.1845596, 36.162007199800001 ], [ -115.1845596, 36.162020699799996 ], [ -115.1845461, 36.162020699799996 ], [ -115.1845461, 36.162023399799999 ], [ -115.184538, 36.162023399799999 ], [ -115.184538, 36.162026099800002 ] ] ] } },
{ "type": "Feature", "properties": { "value": 255.0 }, "geometry": { "type": "Polygon", "coordinates": [ [ [ -115.1842464, 36.161953199799996 ], [ -115.1842248, 36.161953199799996 ], [ -115.1842248, 36.1619504998 ], [ -115.1842221, 36.1619504998 ], [ -115.1842221, 36.161947799799997 ], [ -115.1842194, 36.161947799799997 ], [ -115.1842194, 36.161942399799997 ], [ -115.1842167, 36.161942399799997 ], [ -115.1842167, 36.161939699800001 ], [ -115.1842194, 36.161939699800001 ], [ -115.1842194, 36.161920799800001 ], [ -115.1842221, 36.161920799800001 ], [ -115.1842221, 36.161918099799998 ], [ -115.1842248, 36.161918099799998 ], [ -115.1842248, 36.161915399800002 ], [ -115.1842302, 36.161915399800002 ], [ -115.1842302, 36.161918099799998 ], [ -115.1842491, 36.161918099799998 ], [ -115.1842491, 36.161920799800001 ], [ -115.1842518, 36.161920799800001 ], [ -115.1842518, 36.161923499799997 ], [ -115.1842545, 36.161923499799997 ], [ -115.1842545, 36.1619261998 ], [ -115.1842572, 36.1619261998 ], [ -115.1842572, 36.161931599799999 ], [ -115.1842599, 36.161931599799999 ], [ -115.1842599, 36.161939699800001 ], [ -115.1842572, 36.161939699800001 ], [ -115.1842572, 36.161947799799997 ], [ -115.1842545, 36.161947799799997 ], [ -115.1842545, 36.1619504998 ], [ -115.1842464, 36.1619504998 ], [ -115.1842464, 36.161953199799996 ] ] ] } },
{ "type": "Feature", "properties": { "value": 255.0 }, "geometry": { "type": "Polygon", "coordinates": [ [ [ -115.1846568, 36.1619450998 ], [ -115.1846433, 36.1619450998 ], [ -115.1846433, 36.161942399799997 ], [ -115.1846244, 36.161942399799997 ], [ -115.1846244, 36.1619450998 ], [ -115.1846163, 36.1619450998 ], [ -115.1846163, 36.161942399799997 ], [ -115.1846136, 36.161942399799997 ], [ -115.1846136, 36.161939699800001 ], [ -115.1846109, 36.161939699800001 ], [ -115.1846109, 36.161923499799997 ], [ -115.1846082, 36.161923499799997 ], [ -115.1846082, 36.161869499799998 ], [ -115.1846109, 36.161869499799998 ], [ -115.1846109, 36.161855999799997 ], [ -115.1846136, 36.161855999799997 ], [ -115.1846136, 36.161853299800001 ], [ -115.1846676, 36.161853299800001 ], [ -115.1846676, 36.161942399799997 ], [ -115.1846568, 36.161942399799997 ], [ -115.1846568, 36.1619450998 ] ] ] } },
{ "type": "Feature", "properties": { "value": 255.0 }, "geometry": { "type": "Polygon", "coordinates": [ [ [ -115.1844813, 36.161845199799998 ], [ -115.1844786, 36.161845199799998 ], [ -115.1844786, 36.161842499799995 ], [ -115.1844597, 36.161842499799995 ], [ -115.1844597, 36.161839799799999 ], [ -115.1844516, 36.161839799799999 ], [ -115.1844516, 36.161837099799996 ], [ -115.1844489, 36.161837099799996 ], [ -115.1844489, 36.1618343998 ], [ -115.1844516, 36.1618343998 ], [ -115.1844516, 36.161823599800002 ], [ -115.1844435, 36.161823599800002 ], [ -115.1844435, 36.161820899799999 ], [ -115.1844381, 36.161820899799999 ], [ -115.1844381, 36.161823599800002 ], [ -115.1844327, 36.161823599800002 ], [ -115.1844327, 36.161818199799995 ], [ -115.1844354, 36.161818199799995 ], [ -115.1844354, 36.161815499799999 ], [ -115.1844381, 36.161815499799999 ], [ -115.1844381, 36.1618100998 ], [ -115.1844408, 36.1618100998 ], [ -115.1844408, 36.161812799799996 ], [ -115.1844462, 36.161812799799996 ], [ -115.1844462, 36.161807399799997 ], [ -115.1844408, 36.161807399799997 ], [ -115.1844408, 36.161804699800001 ], [ -115.1844462, 36.161804699800001 ], [ -115.1844462, 36.161801999799998 ], [ -115.1844489, 36.161801999799998 ], [ -115.1844489, 36.161799299799995 ], [ -115.1844516, 36.161799299799995 ], [ -115.1844516, 36.161796599799999 ], [ -115.184457, 36.161796599799999 ], [ -115.184457, 36.161793899799996 ], [ -115.1844732, 36.161793899799996 ], [ -115.1844732, 36.161796599799999 ], [ -115.1844678, 36.161796599799999 ], [ -115.1844678, 36.161799299799995 ], [ -115.1844651, 36.161799299799995 ], [ -115.1844651, 36.161801999799998 ], [ -115.1844678, 36.161801999799998 ], [ -115.1844678, 36.161804699800001 ], [ -115.1844732, 36.161804699800001 ], [ -115.1844732, 36.161807399799997 ], [ -115.1844786, 36.161807399799997 ], [ -115.1844786, 36.161812799799996 ], [ -115.1844759, 36.161812799799996 ], [ -115.1844759, 36.161818199799995 ], [ -115.1844867, 36.161818199799995 ], [ -115.1844867, 36.161815499799999 ], [ -115.184484, 36.161815499799999 ], [ -115.184484, 36.161807399799997 ], [ -115.1844867, 36.161807399799997 ], [ -115.1844867, 36.161801999799998 ], [ -115.1844894, 36.161801999799998 ], [ -115.1844894, 36.161796599799999 ], [ -115.1844786, 36.161796599799999 ], [ -115.1844786, 36.161788499799997 ], [ -115.184484, 36.161788499799997 ], [ -115.184484, 36.161785799800001 ], [ -115.1844894, 36.161785799800001 ], [ -115.1844894, 36.161783099799997 ], [ -115.1845002, 36.161783099799997 ], [ -115.1845002, 36.161780399800001 ], [ -115.1845191, 36.161780399800001 ], [ -115.1845191, 36.161783099799997 ], [ -115.1845218, 36.161783099799997 ], [ -115.1845218, 36.161796599799999 ], [ -115.1845245, 36.161796599799999 ], [ -115.1845245, 36.161812799799996 ], [ -115.1845218, 36.161812799799996 ], [ -115.1845218, 36.161828999800001 ], [ -115.1845191, 36.161828999800001 ], [ -115.1845191, 36.161837099799996 ], [ -115.1845083, 36.161837099799996 ], [ -115.1845083, 36.161839799799999 ], [ -115.1844921, 36.161839799799999 ], [ -115.1844921, 36.161842499799995 ], [ -115.1844813, 36.161842499799995 ], [ -115.1844813, 36.161845199799998 ] ] ] } },
{ "type": "Feature", "properties": { "value": 255.0 }, "geometry": { "type": "Polygon", "coordinates": [ [ [ -115.183836, 36.162001799799995 ], [ -115.1837388, 36.162001799799995 ], [ -115.1837388, 36.161999099799999 ], [ -115.1837334, 36.161999099799999 ], [ -115.1837334, 36.161996399799996 ], [ -115.1837307, 36.161996399799996 ], [ -115.1837307, 36.161990999799997 ], [ -115.183728, 36.161990999799997 ], [ -115.183728, 36.161988299800001 ], [ -115.1837253, 36.161988299800001 ], [ -115.1837253, 36.161947799799997 ], [ -115.183728, 36.161947799799997 ], [ -115.183728, 36.161936999799998 ], [ -115.1837307, 36.161936999799998 ], [ -115.1837307, 36.161934299799995 ], [ -115.1837334, 36.161934299799995 ], [ -115.1837334, 36.161931599799999 ], [ -115.1837361, 36.161931599799999 ], [ -115.1837361, 36.161928899799996 ], [ -115.1837388, 36.161928899799996 ], [ -115.1837388, 36.1619261998 ], [ -115.1837442, 36.1619261998 ], [ -115.1837442, 36.161923499799997 ], [ -115.1837523, 36.161923499799997 ], [ -115.1837523, 36.161920799800001 ], [ -115.183755, 36.161920799800001 ], [ -115.183755, 36.161918099799998 ], [ -115.1837604, 36.161918099799998 ], [ -115.1837604, 36.161915399800002 ], [ -115.1837631, 36.161915399800002 ], [ -115.1837631, 36.161912699799998 ], [ -115.183765799999989, 36.161912699799998 ], [ -115.183765799999989, 36.161909999799995 ], [ -115.1837685, 36.161909999799995 ], [ -115.1837685, 36.161891099800002 ], [ -115.183765799999989, 36.161891099800002 ], [ -115.183765799999989, 36.1618775998 ], [ -115.1837631, 36.1618775998 ], [ -115.1837631, 36.161866799799995 ], [ -115.183765799999989, 36.161866799799995 ], [ -115.183765799999989, 36.1618586998 ], [ -115.1837631, 36.1618586998 ], [ -115.1837631, 36.161842499799995 ], [ -115.1837604, 36.161842499799995 ], [ -115.1837604, 36.161823599800002 ], [ -115.1837631, 36.161823599800002 ], [ -115.1837631, 36.161815499799999 ], [ -115.183765799999989, 36.161815499799999 ], [ -115.183765799999989, 36.161812799799996 ], [ -115.1837685, 36.161812799799996 ], [ -115.1837685, 36.161801999799998 ], [ -115.1837712, 36.161801999799998 ], [ -115.1837712, 36.161796599799999 ], [ -115.1837685, 36.161796599799999 ], [ -115.1837685, 36.161788499799997 ], [ -115.1837712, 36.161788499799997 ], [ -115.1837712, 36.161780399800001 ], [ -115.1837766, 36.161780399800001 ], [ -115.1837766, 36.161777699799998 ], [ -115.1838036, 36.161777699799998 ], [ -115.1838036, 36.161774999799995 ], [ -115.18389, 36.161774999799995 ], [ -115.18389, 36.161777699799998 ], [ -115.1838927, 36.161777699799998 ], [ -115.1838927, 36.161796599799999 ], [ -115.18389, 36.161796599799999 ], [ -115.18389, 36.161804699800001 ], [ -115.1838927, 36.161804699800001 ], [ -115.1838927, 36.1618100998 ], [ -115.1838954, 36.1618100998 ], [ -115.1838954, 36.161815499799999 ], [ -115.1838981, 36.161815499799999 ], [ -115.1838981, 36.161818199799995 ], [ -115.183900799999989, 36.161818199799995 ], [ -115.183900799999989, 36.161820899799999 ], [ -115.1839116, 36.161820899799999 ], [ -115.1839116, 36.161818199799995 ], [ -115.183917, 36.161818199799995 ], [ -115.183917, 36.161820899799999 ], [ -115.1839359, 36.161820899799999 ], [ -115.1839359, 36.161823599800002 ], [ -115.1839521, 36.161823599800002 ], [ -115.1839521, 36.161820899799999 ], [ -115.1840034, 36.161820899799999 ], [ -115.1840034, 36.161823599800002 ], [ -115.1840088, 36.161823599800002 ], [ -115.1840088, 36.161826299799998 ], [ -115.1840115, 36.161826299799998 ], [ -115.1840115, 36.161828999800001 ], [ -115.1840142, 36.161828999800001 ], [ -115.1840142, 36.161831699799997 ], [ -115.1840169, 36.161831699799997 ], [ -115.1840169, 36.161837099799996 ], [ -115.1840142, 36.161837099799996 ], [ -115.1840142, 36.161839799799999 ], [ -115.1840169, 36.161839799799999 ], [ -115.1840169, 36.161847899800001 ], [ -115.1840142, 36.161847899800001 ], [ -115.1840142, 36.161893799799998 ], [ -115.1840115, 36.161893799799998 ], [ -115.1840115, 36.161904599799996 ], [ -115.1840088, 36.161904599799996 ], [ -115.1840088, 36.161907299799999 ], [ -115.1840061, 36.161907299799999 ], [ -115.1840061, 36.161909999799995 ], [ -115.183998, 36.161909999799995 ], [ -115.183998, 36.161912699799998 ], [ -115.1839926, 36.161912699799998 ], [ -115.1839926, 36.161915399800002 ], [ -115.1839602, 36.161915399800002 ], [ -115.1839602, 36.161912699799998 ], [ -115.1839413, 36.161912699799998 ], [ -115.1839413, 36.161915399800002 ], [ -115.1839386, 36.161915399800002 ], [ -115.1839386, 36.161918099799998 ], [ -115.1839359, 36.161918099799998 ], [ -115.1839359, 36.161928899799996 ], [ -115.1839332, 36.161928899799996 ], [ -115.1839332, 36.161996399799996 ], [ -115.1839305, 36.161996399799996 ], [ -115.1839305, 36.161999099799999 ], [ -115.1838981, 36.161999099799999 ], [ -115.1838981, 36.161996399799996 ], [ -115.18389, 36.161996399799996 ], [ -115.18389, 36.161999099799999 ], [ -115.1838846, 36.161999099799999 ], [ -115.1838846, 36.161996399799996 ], [ -115.1838711, 36.161996399799996 ], [ -115.1838711, 36.161999099799999 ], [ -115.183836, 36.161999099799999 ], [ -115.183836, 36.162001799799995 ] ] ] } },
{ "type": "Feature", "properties": { "value": 255.0 }, "geometry": { "type": "Polygon", "coordinates": [ [ [ -115.1838765, 36.161747999799999 ], [ -115.1837739, 36.161747999799999 ], [ -115.1837739, 36.161745299799996 ], [ -115.1837442, 36.161745299799996 ], [ -115.1837442, 36.161747999799999 ], [ -115.1836902, 36.161747999799999 ], [ -115.1836902, 36.161745299799996 ], [ -115.1836848, 36.161745299799996 ], [ -115.1836848, 36.161739899799997 ], [ -115.1836821, 36.161739899799997 ], [ -115.1836821, 36.161737199800001 ], [ -115.1836848, 36.161737199800001 ], [ -115.1836848, 36.161731799799995 ], [ -115.1836821, 36.161731799799995 ], [ -115.1836821, 36.161726399799996 ], [ -115.1836848, 36.161726399799996 ], [ -115.1836848, 36.161707499799995 ], [ -115.1836875, 36.161707499799995 ], [ -115.1836875, 36.161702099799996 ], [ -115.1836902, 36.161702099799996 ], [ -115.1836902, 36.1616993998 ], [ -115.1837064, 36.1616993998 ], [ -115.1837064, 36.161696699799997 ], [ -115.1837253, 36.161696699799997 ], [ -115.1837253, 36.161693999800001 ], [ -115.1837334, 36.161693999800001 ], [ -115.1837334, 36.161691299799998 ], [ -115.1837361, 36.161691299799998 ], [ -115.1837361, 36.161688599800001 ], [ -115.1837415, 36.161688599800001 ], [ -115.1837415, 36.161685899799998 ], [ -115.1837442, 36.161685899799998 ], [ -115.1837442, 36.161683199799995 ], [ -115.1837469, 36.161683199799995 ], [ -115.1837469, 36.161677799799996 ], [ -115.1837496, 36.161677799799996 ], [ -115.1837496, 36.1616750998 ], [ -115.1837523, 36.1616750998 ], [ -115.1837523, 36.161666999799998 ], [ -115.183755, 36.161666999799998 ], [ -115.183755, 36.161642699799998 ], [ -115.1839386, 36.161642699799998 ], [ -115.1839386, 36.1616507998 ], [ -115.1839359, 36.1616507998 ], [ -115.1839359, 36.161664299799995 ], [ -115.1839386, 36.161664299799995 ], [ -115.1839386, 36.161672399799997 ], [ -115.1839359, 36.161672399799997 ], [ -115.1839359, 36.161696699799997 ], [ -115.1839332, 36.161696699799997 ], [ -115.1839332, 36.1616993998 ], [ -115.1838792, 36.1616993998 ], [ -115.1838792, 36.1617425998 ], [ -115.1838765, 36.1617425998 ], [ -115.1838765, 36.161747999799999 ] ] ] } }
]
}
