{
"type": "FeatureCollection",
"crs": { "type": "name", "properties": { "name": "urn:ogc:def:crs:OGC:1.3:CRS84" } },
"features": [
{ "type": "Feature", "properties": { "value": 255.0 }, "geometry": { "type": "Polygon", "coordinates": [ [ [ -115.1583291, 36.191477699899998 ], [ -115.1582022, 36.191477699899998 ], [ -115.1582022, 36.191458799899998 ], [ -115.1581995, 36.191458799899998 ], [ -115.1581995, 36.191456099900002 ], [ -115.1582022, 36.191456099900002 ], [ -115.1582022, 36.191453399899999 ], [ -115.1582076, 36.191453399899999 ], [ -115.1582076, 36.191447999899999 ], [ -115.1582049, 36.191447999899999 ], [ -115.1582049, 36.1914425999 ], [ -115.1582076, 36.1914425999 ], [ -115.1582076, 36.191437199900001 ], [ -115.1582103, 36.191437199900001 ], [ -115.1582103, 36.191434499899998 ], [ -115.158213, 36.191434499899998 ], [ -115.158213, 36.191431799900002 ], [ -115.1582157, 36.191431799900002 ], [ -115.1582157, 36.191429099899999 ], [ -115.1582184, 36.191429099899999 ], [ -115.1582184, 36.191426399899996 ], [ -115.1582238, 36.191426399899996 ], [ -115.1582238, 36.1914236999 ], [ -115.15824, 36.1914236999 ], [ -115.15824, 36.191426399899996 ], [ -115.1582508, 36.191426399899996 ], [ -115.1582508, 36.191420999899997 ], [ -115.1582535, 36.191420999899997 ], [ -115.1582535, 36.1914182999 ], [ -115.1582562, 36.1914182999 ], [ -115.1582562, 36.191415599899997 ], [ -115.1582589, 36.191415599899997 ], [ -115.1582589, 36.191412899900001 ], [ -115.158267, 36.191412899900001 ], [ -115.158267, 36.191410199899998 ], [ -115.1582697, 36.191410199899998 ], [ -115.1582697, 36.1913993999 ], [ -115.1582724, 36.1913993999 ], [ -115.1582724, 36.191393999900001 ], [ -115.1582697, 36.191393999900001 ], [ -115.1582697, 36.191385899899998 ], [ -115.1582724, 36.191385899899998 ], [ -115.1582724, 36.191377799899996 ], [ -115.1582751, 36.191377799899996 ], [ -115.1582751, 36.1913750999 ], [ -115.1582778, 36.1913750999 ], [ -115.1582778, 36.191372399899997 ], [ -115.1582859, 36.191372399899997 ], [ -115.1582859, 36.191369699900001 ], [ -115.1582967, 36.191369699900001 ], [ -115.1582967, 36.191366999899998 ], [ -115.1583075, 36.191366999899998 ], [ -115.1583075, 36.191364299900002 ], [ -115.1583183, 36.191364299900002 ], [ -115.1583183, 36.191361599899999 ], [ -115.1583237, 36.191361599899999 ], [ -115.1583237, 36.191358899899996 ], [ -115.1583291, 36.191358899899996 ], [ -115.1583291, 36.1913561999 ], [ -115.1583345, 36.1913561999 ], [ -115.1583345, 36.191353499899996 ], [ -115.1583426, 36.191353499899996 ], [ -115.1583426, 36.191461499900001 ], [ -115.1583399, 36.191461499900001 ], [ -115.1583399, 36.191464199899997 ], [ -115.1583372, 36.191464199899997 ], [ -115.1583372, 36.1914668999 ], [ -115.1583345, 36.1914668999 ], [ -115.1583345, 36.191469599899996 ], [ -115.1583318, 36.191469599899996 ], [ -115.1583318, 36.191472299899999 ], [ -115.1583291, 36.191472299899999 ], [ -115.1583291, 36.191477699899998 ] ] ] } },
{ "type": "Feature", "properties": { "value": 255.0 }, "geometry": { "type": "Polygon", "coordinates": [ [ [ -115.1580753, 36.191477699899998 ], [ -115.1579565, 36.191477699899998 ], [ -115.1579565, 36.1914668999 ], [ -115.1579538, 36.1914668999 ], [ -115.1579538, 36.191445299899996 ], [ -115.1579511, 36.191445299899996 ], [ -115.1579511, 36.1914425999 ], [ -115.1578971, 36.1914425999 ], [ -115.1578971, 36.191415599899997 ], [ -115.1578998, 36.191415599899997 ], [ -115.1578998, 36.191407499899995 ], [ -115.1579295, 36.191407499899995 ], [ -115.1579295, 36.191410199899998 ], [ -115.1579538, 36.191410199899998 ], [ -115.1579538, 36.191407499899995 ], [ -115.15797, 36.191407499899995 ], [ -115.15797, 36.191402099899996 ], [ -115.1579889, 36.191402099899996 ], [ -115.1579889, 36.1913993999 ], [ -115.1579916, 36.1913993999 ], [ -115.1579916, 36.191396699899997 ], [ -115.1579943, 36.191396699899997 ], [ -115.1579943, 36.191383199899995 ], [ -115.157997, 36.191383199899995 ], [ -115.157997, 36.1913750999 ], [ -115.1579943, 36.1913750999 ], [ -115.1579943, 36.191353499899996 ], [ -115.157997, 36.191353499899996 ], [ -115.157997, 36.1913507999 ], [ -115.1580321, 36.1913507999 ], [ -115.1580321, 36.191348099899997 ], [ -115.1580537, 36.191348099899997 ], [ -115.1580537, 36.191345399900001 ], [ -115.1580672, 36.191345399900001 ], [ -115.1580672, 36.191348099899997 ], [ -115.1580699, 36.191348099899997 ], [ -115.1580699, 36.191404799899999 ], [ -115.1580969, 36.191404799899999 ], [ -115.1580969, 36.191407499899995 ], [ -115.1580996, 36.191407499899995 ], [ -115.1580996, 36.191410199899998 ], [ -115.1581023, 36.191410199899998 ], [ -115.1581023, 36.191458799899998 ], [ -115.1580996, 36.191458799899998 ], [ -115.1580996, 36.191461499900001 ], [ -115.1580915, 36.191461499900001 ], [ -115.1580915, 36.191464199899997 ], [ -115.1580753, 36.191464199899997 ], [ -115.1580753, 36.191469599899996 ], [ -115.1580726, 36.191469599899996 ], [ -115.1580726, 36.191472299899999 ], [ -115.1580753, 36.191472299899999 ], [ -115.1580753, 36.191477699899998 ] ] ] } },
{ "type": "Feature", "properties": { "value": 255.0 }, "geometry": { "type": "Polygon", "coordinates": [ [ [ -115.1567523, 36.191358899899996 ], [ -115.1567496, 36.191358899899996 ], [ -115.1567496, 36.1913561999 ], [ -115.1567469, 36.1913561999 ], [ -115.1567469, 36.191348099899997 ], [ -115.1567496, 36.191348099899997 ], [ -115.1567496, 36.191342699899998 ], [ -115.156755, 36.191342699899998 ], [ -115.156755, 36.191339999900002 ], [ -115.1567577, 36.191339999900002 ], [ -115.1567577, 36.191337299899999 ], [ -115.1567631, 36.191337299899999 ], [ -115.1567631, 36.191334599899996 ], [ -115.1567766, 36.191334599899996 ], [ -115.1567766, 36.191337299899999 ], [ -115.156782, 36.191337299899999 ], [ -115.156782, 36.191339999900002 ], [ -115.156784699999989, 36.191339999900002 ], [ -115.156784699999989, 36.191345399900001 ], [ -115.156782, 36.191345399900001 ], [ -115.156782, 36.191348099899997 ], [ -115.1567793, 36.191348099899997 ], [ -115.1567793, 36.191353499899996 ], [ -115.1567685, 36.191353499899996 ], [ -115.1567685, 36.1913561999 ], [ -115.1567523, 36.1913561999 ], [ -115.1567523, 36.191358899899996 ] ] ] } },
{ "type": "Feature", "properties": { "value": 255.0 }, "geometry": { "type": "Polygon", "coordinates": [ [ [ -115.1581239, 36.191337299899999 ], [ -115.158105, 36.191337299899999 ], [ -115.158105, 36.1913318999 ], [ -115.1581104, 36.1913318999 ], [ -115.1581104, 36.191329199899997 ], [ -115.1581077, 36.191329199899997 ], [ -115.1581077, 36.191326499900001 ], [ -115.1581104, 36.191326499900001 ], [ -115.1581104, 36.191321099900001 ], [ -115.1581239, 36.191321099900001 ], [ -115.1581239, 36.191337299899999 ] ] ] } },
{ "type": "Feature", "properties": { "value": 255.0 }, "geometry": { "type": "Polygon", "coordinates": [ [ [ -115.1579889, 36.191345399900001 ], [ -115.1579862, 36.191345399900001 ], [ -115.1579862, 36.191342699899998 ], [ -115.1579673, 36.191342699899998 ], [ -115.1579673, 36.191339999900002 ], [ -115.1579646, 36.191339999900002 ], [ -115.1579646, 36.191304899899997 ], [ -115.15797, 36.191304899899997 ], [ -115.15797, 36.191302199900001 ], [ -115.1579916, 36.191302199900001 ], [ -115.1579916, 36.191304899899997 ], [ -115.1579943, 36.191304899899997 ], [ -115.1579943, 36.1913075999 ], [ -115.157997, 36.1913075999 ], [ -115.157997, 36.191337299899999 ], [ -115.1579943, 36.191337299899999 ], [ -115.1579943, 36.191342699899998 ], [ -115.1579889, 36.191342699899998 ], [ -115.1579889, 36.191345399900001 ] ] ] } },
{ "type": "Feature", "properties": { "value": 255.0 }, "geometry": { "type": "Polygon", "coordinates": [ [ [ -115.1581995, 36.191326499900001 ], [ -115.1581509, 36.191326499900001 ], [ -115.1581509, 36.191323799899997 ], [ -115.1581482, 36.191323799899997 ], [ -115.1581482, 36.191321099900001 ], [ -115.1581455, 36.191321099900001 ], [ -115.1581455, 36.191302199900001 ], [ -115.1581482, 36.191302199900001 ], [ -115.1581482, 36.191296799900002 ], [ -115.1581995, 36.191296799900002 ], [ -115.1581995, 36.191299499899998 ], [ -115.1582022, 36.191299499899998 ], [ -115.1582022, 36.191318399899998 ], [ -115.1581995, 36.191318399899998 ], [ -115.1581995, 36.191326499900001 ] ] ] } },
{ "type": "Feature", "properties": { "value": 255.0 }, "geometry": { "type": "Polygon", "coordinates": [ [ [ -115.1568252, 36.191294099899999 ], [ -115.1568171, 36.191294099899999 ], [ -115.1568171, 36.191291399899995 ], [ -115.1568063, 36.191291399899995 ], [ -115.1568063, 36.191288699899999 ], [ -115.1568171, 36.191288699899999 ], [ -115.1568171, 36.191285999899996 ], [ -115.1568225, 36.191285999899996 ], [ -115.1568225, 36.191288699899999 ], [ -115.1568387, 36.191288699899999 ], [ -115.1568387, 36.191291399899995 ], [ -115.1568252, 36.191291399899995 ], [ -115.1568252, 36.191294099899999 ] ] ] } },
{ "type": "Feature", "properties": { "value": 255.0 }, "geometry": { "type": "Polygon", "coordinates": [ [ [ -115.1568549, 36.191477699899998 ], [ -115.1565903, 36.191477699899998 ], [ -115.1565903, 36.191469599899996 ], [ -115.1565876, 36.191469599899996 ], [ -115.1565876, 36.191458799899998 ], [ -115.1565903, 36.191458799899998 ], [ -115.1565903, 36.191453399899999 ], [ -115.156593, 36.191453399899999 ], [ -115.156593, 36.191450699899995 ], [ -115.1565903, 36.191450699899995 ], [ -115.1565903, 36.1914182999 ], [ -115.1565876, 36.1914182999 ], [ -115.1565876, 36.191407499899995 ], [ -115.1565903, 36.191407499899995 ], [ -115.1565903, 36.1913993999 ], [ -115.1565876, 36.1913993999 ], [ -115.1565876, 36.191294099899999 ], [ -115.1565903, 36.191294099899999 ], [ -115.1565903, 36.191285999899996 ], [ -115.156593, 36.191285999899996 ], [ -115.156593, 36.191280599899997 ], [ -115.1565957, 36.191280599899997 ], [ -115.1565957, 36.191277899900001 ], [ -115.1565984, 36.191277899900001 ], [ -115.1565984, 36.191275199899998 ], [ -115.1566038, 36.191275199899998 ], [ -115.1566038, 36.191272499900002 ], [ -115.1566065, 36.191272499900002 ], [ -115.1566065, 36.191269799899999 ], [ -115.1566281, 36.191269799899999 ], [ -115.1566281, 36.191267099899996 ], [ -115.1566389, 36.191267099899996 ], [ -115.1566389, 36.191269799899999 ], [ -115.1566443, 36.191269799899999 ], [ -115.1566443, 36.191272499900002 ], [ -115.1566578, 36.191272499900002 ], [ -115.1566578, 36.191275199899998 ], [ -115.1566659, 36.191275199899998 ], [ -115.1566659, 36.191277899900001 ], [ -115.1566713, 36.191277899900001 ], [ -115.1566713, 36.191280599899997 ], [ -115.1566794, 36.191280599899997 ], [ -115.1566794, 36.1912832999 ], [ -115.1566902, 36.1912832999 ], [ -115.1566902, 36.191280599899997 ], [ -115.156701, 36.191280599899997 ], [ -115.156701, 36.1912832999 ], [ -115.1567145, 36.1912832999 ], [ -115.1567145, 36.191285999899996 ], [ -115.156717199999989, 36.191285999899996 ], [ -115.156717199999989, 36.1912832999 ], [ -115.1567388, 36.1912832999 ], [ -115.1567388, 36.191285999899996 ], [ -115.156765799999988, 36.191285999899996 ], [ -115.156765799999988, 36.191288699899999 ], [ -115.1567955, 36.191288699899999 ], [ -115.1567955, 36.191291399899995 ], [ -115.156765799999988, 36.191291399899995 ], [ -115.156765799999988, 36.191294099899999 ], [ -115.1567631, 36.191294099899999 ], [ -115.1567631, 36.191296799900002 ], [ -115.156765799999988, 36.191296799900002 ], [ -115.156765799999988, 36.191299499899998 ], [ -115.1567631, 36.191299499899998 ], [ -115.1567631, 36.191302199900001 ], [ -115.1567604, 36.191302199900001 ], [ -115.1567604, 36.191304899899997 ], [ -115.1567523, 36.191304899899997 ], [ -115.1567523, 36.1913075999 ], [ -115.1567442, 36.1913075999 ], [ -115.1567442, 36.191310299899996 ], [ -115.1567388, 36.191310299899996 ], [ -115.1567388, 36.191312999899999 ], [ -115.156728, 36.191312999899999 ], [ -115.156728, 36.191315699899995 ], [ -115.1567253, 36.191315699899995 ], [ -115.1567253, 36.191318399899998 ], [ -115.1567226, 36.191318399899998 ], [ -115.1567226, 36.191321099900001 ], [ -115.156717199999989, 36.191321099900001 ], [ -115.156717199999989, 36.191323799899997 ], [ -115.1567118, 36.191323799899997 ], [ -115.1567118, 36.191326499900001 ], [ -115.1567091, 36.191326499900001 ], [ -115.1567091, 36.191361599899999 ], [ -115.1567118, 36.191361599899999 ], [ -115.1567118, 36.191369699900001 ], [ -115.1567145, 36.191369699900001 ], [ -115.1567145, 36.191372399899997 ], [ -115.156728, 36.191372399899997 ], [ -115.156728, 36.1913750999 ], [ -115.1567388, 36.1913750999 ], [ -115.1567388, 36.191377799899996 ], [ -115.1567415, 36.191377799899996 ], [ -115.1567415, 36.191380499899999 ], [ -115.1567496, 36.191380499899999 ], [ -115.1567496, 36.191383199899995 ], [ -115.1567577, 36.191383199899995 ], [ -115.1567577, 36.191385899899998 ], [ -115.156765799999988, 36.191385899899998 ], [ -115.156765799999988, 36.191383199899995 ], [ -115.1567712, 36.191383199899995 ], [ -115.1567712, 36.191385899899998 ], [ -115.1567793, 36.191385899899998 ], [ -115.1567793, 36.191383199899995 ], [ -115.156784699999989, 36.191383199899995 ], [ -115.156784699999989, 36.191380499899999 ], [ -115.1567901, 36.191380499899999 ], [ -115.1567901, 36.191377799899996 ], [ -115.1568009, 36.191377799899996 ], [ -115.1568009, 36.191380499899999 ], [ -115.156809, 36.191380499899999 ], [ -115.156809, 36.191383199899995 ], [ -115.1568171, 36.191383199899995 ], [ -115.1568171, 36.191385899899998 ], [ -115.156836, 36.191385899899998 ], [ -115.156836, 36.191388599900002 ], [ -115.1568495, 36.191388599900002 ], [ -115.1568495, 36.191391299899998 ], [ -115.1568549, 36.191391299899998 ], [ -115.1568549, 36.191396699899997 ], [ -115.1568576, 36.191396699899997 ], [ -115.1568576, 36.191420999899997 ], [ -115.1568549, 36.191420999899997 ], [ -115.1568549, 36.1914425999 ], [ -115.156852199999989, 36.1914425999 ], [ -115.156852199999989, 36.191456099900002 ], [ -115.1568549, 36.191456099900002 ], [ -115.1568549, 36.191477699899998 ] ] ] } },
{ "type": "Feature", "properties": { "value": 255.0 }, "geometry": { "type": "Polygon", "coordinates": [ [ [ -115.157835, 36.191372399899997 ], [ -115.1577648, 36.191372399899997 ], [ -115.1577648, 36.191366999899998 ], [ -115.1577621, 36.191366999899998 ], [ -115.1577621, 36.191358899899996 ], [ -115.1577648, 36.191358899899996 ], [ -115.1577648, 36.191323799899997 ], [ -115.1577621, 36.191323799899997 ], [ -115.1577621, 36.191318399899998 ], [ -115.1577243, 36.191318399899998 ], [ -115.1577243, 36.191315699899995 ], [ -115.1577, 36.191315699899995 ], [ -115.1577, 36.191312999899999 ], [ -115.1576973, 36.191312999899999 ], [ -115.1576973, 36.191250899899998 ], [ -115.1577, 36.191250899899998 ], [ -115.1577, 36.1912400999 ], [ -115.1577054, 36.1912400999 ], [ -115.1577054, 36.191237399899997 ], [ -115.1577594, 36.191237399899997 ], [ -115.1577594, 36.1912400999 ], [ -115.1577783, 36.1912400999 ], [ -115.1577783, 36.191237399899997 ], [ -115.1577837, 36.191237399899997 ], [ -115.1577837, 36.1912400999 ], [ -115.1577945, 36.1912400999 ], [ -115.1577945, 36.191237399899997 ], [ -115.1578134, 36.191237399899997 ], [ -115.1578134, 36.1912400999 ], [ -115.1578269, 36.1912400999 ], [ -115.1578269, 36.191242799899996 ], [ -115.1578296, 36.191242799899996 ], [ -115.1578296, 36.191245499899999 ], [ -115.1578323, 36.191245499899999 ], [ -115.1578323, 36.191250899899998 ], [ -115.157835, 36.191250899899998 ], [ -115.157835, 36.191329199899997 ], [ -115.1578377, 36.191329199899997 ], [ -115.1578377, 36.191339999900002 ], [ -115.157835, 36.191339999900002 ], [ -115.157835, 36.191372399899997 ] ] ] } },
{ "type": "Feature", "properties": { "value": 255.0 }, "geometry": { "type": "Polygon", "coordinates": [ [ [ -115.1582724, 36.191345399900001 ], [ -115.1582697, 36.191345399900001 ], [ -115.1582697, 36.191342699899998 ], [ -115.1582643, 36.191342699899998 ], [ -115.1582643, 36.191345399900001 ], [ -115.1582616, 36.191345399900001 ], [ -115.1582616, 36.191342699899998 ], [ -115.1582562, 36.191342699899998 ], [ -115.1582562, 36.191339999900002 ], [ -115.1582535, 36.191339999900002 ], [ -115.1582535, 36.191334599899996 ], [ -115.1582508, 36.191334599899996 ], [ -115.1582508, 36.191312999899999 ], [ -115.1582535, 36.191312999899999 ], [ -115.1582535, 36.191302199900001 ], [ -115.1582508, 36.191302199900001 ], [ -115.1582508, 36.191242799899996 ], [ -115.1582535, 36.191242799899996 ], [ -115.1582535, 36.191204999900002 ], [ -115.1582589, 36.191204999900002 ], [ -115.1582589, 36.191202299899999 ], [ -115.1583021, 36.191202299899999 ], [ -115.1583021, 36.191199599899996 ], [ -115.1583075, 36.191199599899996 ], [ -115.1583075, 36.191202299899999 ], [ -115.158321, 36.191202299899999 ], [ -115.158321, 36.191199599899996 ], [ -115.1583345, 36.191199599899996 ], [ -115.1583345, 36.191202299899999 ], [ -115.1583426, 36.191202299899999 ], [ -115.1583426, 36.1912832999 ], [ -115.1583237, 36.1912832999 ], [ -115.1583237, 36.191285999899996 ], [ -115.158321, 36.191285999899996 ], [ -115.158321, 36.191323799899997 ], [ -115.1583237, 36.191323799899997 ], [ -115.1583237, 36.191326499900001 ], [ -115.158321, 36.191326499900001 ], [ -115.158321, 36.191337299899999 ], [ -115.1583183, 36.191337299899999 ], [ -115.1583183, 36.191339999900002 ], [ -115.1583156, 36.191339999900002 ], [ -115.1583156, 36.191342699899998 ], [ -115.1582724, 36.191342699899998 ], [ -115.1582724, 36.191345399900001 ] ] ] } },
{ "type": "Feature", "properties": { "value": 255.0 }, "geometry": { "type": "Polygon", "coordinates": [ [ [ -115.1574705, 36.191377799899996 ], [ -115.1574624, 36.191377799899996 ], [ -115.1574624, 36.1913750999 ], [ -115.1574516, 36.1913750999 ], [ -115.1574516, 36.191372399899997 ], [ -115.1574462, 36.191372399899997 ], [ -115.1574462, 36.191369699900001 ], [ -115.1574435, 36.191369699900001 ], [ -115.1574435, 36.191342699899998 ], [ -115.1574462, 36.191342699899998 ], [ -115.1574462, 36.191329199899997 ], [ -115.1574489, 36.191329199899997 ], [ -115.1574489, 36.191321099900001 ], [ -115.1574516, 36.191321099900001 ], [ -115.1574516, 36.191315699899995 ], [ -115.1574543, 36.191315699899995 ], [ -115.1574543, 36.191310299899996 ], [ -115.157457, 36.191310299899996 ], [ -115.157457, 36.191302199900001 ], [ -115.1574597, 36.191302199900001 ], [ -115.1574597, 36.191291399899995 ], [ -115.157457, 36.191291399899995 ], [ -115.157457, 36.191285999899996 ], [ -115.1574597, 36.191285999899996 ], [ -115.1574597, 36.1912832999 ], [ -115.157457, 36.1912832999 ], [ -115.157457, 36.191250899899998 ], [ -115.1574597, 36.191250899899998 ], [ -115.1574597, 36.191248199900002 ], [ -115.1574624, 36.191248199900002 ], [ -115.1574624, 36.191237399899997 ], [ -115.1574651, 36.191237399899997 ], [ -115.1574651, 36.191234699900001 ], [ -115.1574705, 36.191234699900001 ], [ -115.1574705, 36.191229299900002 ], [ -115.1574732, 36.191229299900002 ], [ -115.1574732, 36.191226599899998 ], [ -115.1574759, 36.191226599899998 ], [ -115.1574759, 36.191223899900002 ], [ -115.1574786, 36.191223899900002 ], [ -115.1574786, 36.191221199899999 ], [ -115.1574813, 36.191221199899999 ], [ -115.1574813, 36.191218499899996 ], [ -115.1574867, 36.191218499899996 ], [ -115.1574867, 36.191221199899999 ], [ -115.1574921, 36.191221199899999 ], [ -115.1574921, 36.191218499899996 ], [ -115.1574894, 36.191218499899996 ], [ -115.1574894, 36.1912157999 ], [ -115.1574813, 36.1912157999 ], [ -115.1574813, 36.191213099899997 ], [ -115.1574786, 36.191213099899997 ], [ -115.1574786, 36.191210399900001 ], [ -115.1574759, 36.191210399900001 ], [ -115.1574759, 36.191202299899999 ], [ -115.1574732, 36.191202299899999 ], [ -115.1574732, 36.191199599899996 ], [ -115.1574705, 36.191199599899996 ], [ -115.1574705, 36.1911968999 ], [ -115.1574678, 36.1911968999 ], [ -115.1574678, 36.1911914999 ], [ -115.1574651, 36.1911914999 ], [ -115.1574651, 36.191183399899998 ], [ -115.1574624, 36.191183399899998 ], [ -115.1574624, 36.191180699900002 ], [ -115.1574597, 36.191180699900002 ], [ -115.1574597, 36.191177999899999 ], [ -115.157457, 36.191177999899999 ], [ -115.157457, 36.1911725999 ], [ -115.1574597, 36.1911725999 ], [ -115.1574597, 36.191169899899997 ], [ -115.1574651, 36.191169899899997 ], [ -115.1574651, 36.191167199900001 ], [ -115.1574705, 36.191167199900001 ], [ -115.1574705, 36.191164499899998 ], [ -115.1574759, 36.191164499899998 ], [ -115.1574759, 36.191161799900001 ], [ -115.1575137, 36.191161799900001 ], [ -115.1575137, 36.191167199900001 ], [ -115.1575164, 36.191167199900001 ], [ -115.1575164, 36.191213099899997 ], [ -115.1575137, 36.191213099899997 ], [ -115.1575137, 36.1912157999 ], [ -115.157511, 36.1912157999 ], [ -115.157511, 36.191218499899996 ], [ -115.1575164, 36.191218499899996 ], [ -115.1575164, 36.191221199899999 ], [ -115.157538, 36.191221199899999 ], [ -115.157538, 36.191226599899998 ], [ -115.1575407, 36.191226599899998 ], [ -115.1575407, 36.1912400999 ], [ -115.1575461, 36.1912400999 ], [ -115.1575461, 36.191242799899996 ], [ -115.1575542, 36.191242799899996 ], [ -115.1575542, 36.1912400999 ], [ -115.1576055, 36.1912400999 ], [ -115.1576055, 36.191242799899996 ], [ -115.1576244, 36.191242799899996 ], [ -115.1576244, 36.1913075999 ], [ -115.1576271, 36.1913075999 ], [ -115.1576271, 36.191312999899999 ], [ -115.1576244, 36.191312999899999 ], [ -115.1576244, 36.191326499900001 ], [ -115.1576217, 36.191326499900001 ], [ -115.1576217, 36.191329199899997 ], [ -115.1576028, 36.191329199899997 ], [ -115.1576028, 36.191326499900001 ], [ -115.1575596, 36.191326499900001 ], [ -115.1575596, 36.191323799899997 ], [ -115.1575218, 36.191323799899997 ], [ -115.1575218, 36.191326499900001 ], [ -115.1575137, 36.191326499900001 ], [ -115.1575137, 36.191372399899997 ], [ -115.157511, 36.191372399899997 ], [ -115.157511, 36.1913750999 ], [ -115.1574705, 36.1913750999 ], [ -115.1574705, 36.191377799899996 ] ], [ [ -115.157508299999989, 36.191218499899996 ], [ -115.157508299999989, 36.1912157999 ], [ -115.1574975, 36.1912157999 ], [ -115.1574975, 36.191218499899996 ], [ -115.157508299999989, 36.191218499899996 ] ] ] } },
{ "type": "Feature", "properties": { "value": 255.0 }, "geometry": { "type": "Polygon", "coordinates": [ [ [ -115.156987199999989, 36.191207699899998 ], [ -115.1569629, 36.191207699899998 ], [ -115.1569629, 36.191204999900002 ], [ -115.1569602, 36.191204999900002 ], [ -115.1569602, 36.191207699899998 ], [ -115.1569467, 36.191207699899998 ], [ -115.1569467, 36.191204999900002 ], [ -115.156944, 36.191204999900002 ], [ -115.156944, 36.1911914999 ], [ -115.1569413, 36.1911914999 ], [ -115.1569413, 36.1911725999 ], [ -115.156944, 36.1911725999 ], [ -115.156944, 36.191164499899998 ], [ -115.156987199999989, 36.191164499899998 ], [ -115.156987199999989, 36.191167199900001 ], [ -115.1569899, 36.191167199900001 ], [ -115.1569899, 36.191204999900002 ], [ -115.156987199999989, 36.191204999900002 ], [ -115.156987199999989, 36.191207699899998 ] ] ] } },
{ "type": "Feature", "properties": { "value": 255.0 }, "geometry": { "type": "Polygon", "coordinates": [ [ [ -115.1574381, 36.191153699899999 ], [ -115.1574057, 36.191153699899999 ], [ -115.1574057, 36.191150999899996 ], [ -115.157403, 36.191150999899996 ], [ -115.157403, 36.191126699899996 ], [ -115.1574057, 36.191126699899996 ], [ -115.1574057, 36.1911239999 ], [ -115.1574111, 36.1911239999 ], [ -115.1574111, 36.191121299899997 ], [ -115.1574219, 36.191121299899997 ], [ -115.1574219, 36.1911239999 ], [ -115.1574354, 36.1911239999 ], [ -115.1574354, 36.191126699899996 ], [ -115.1574381, 36.191126699899996 ], [ -115.1574381, 36.191129399899999 ], [ -115.157440799999989, 36.191129399899999 ], [ -115.157440799999989, 36.191150999899996 ], [ -115.1574381, 36.191150999899996 ], [ -115.1574381, 36.191153699899999 ] ] ] } },
{ "type": "Feature", "properties": { "value": 255.0 }, "geometry": { "type": "Polygon", "coordinates": [ [ [ -115.1568063, 36.191142899900001 ], [ -115.1567712, 36.191142899900001 ], [ -115.1567712, 36.191140199899998 ], [ -115.156765799999988, 36.191140199899998 ], [ -115.156765799999988, 36.191137499900002 ], [ -115.1567631, 36.191137499900002 ], [ -115.1567631, 36.191132099900003 ], [ -115.156765799999988, 36.191132099900003 ], [ -115.156765799999988, 36.1911239999 ], [ -115.1567685, 36.1911239999 ], [ -115.1567685, 36.191121299899997 ], [ -115.1567712, 36.191121299899997 ], [ -115.1567712, 36.191118599900001 ], [ -115.1567793, 36.191118599900001 ], [ -115.1567793, 36.191121299899997 ], [ -115.1567982, 36.191121299899997 ], [ -115.1567982, 36.191118599900001 ], [ -115.156809, 36.191118599900001 ], [ -115.156809, 36.191129399899999 ], [ -115.1568117, 36.191129399899999 ], [ -115.1568117, 36.191134799899999 ], [ -115.156809, 36.191134799899999 ], [ -115.156809, 36.191140199899998 ], [ -115.1568063, 36.191140199899998 ], [ -115.1568063, 36.191142899900001 ] ] ] } },
{ "type": "Feature", "properties": { "value": 255.0 }, "geometry": { "type": "Polygon", "coordinates": [ [ [ -115.1573679, 36.191140199899998 ], [ -115.1573571, 36.191140199899998 ], [ -115.1573571, 36.191132099900003 ], [ -115.1573598, 36.191132099900003 ], [ -115.1573598, 36.191129399899999 ], [ -115.1573814, 36.191129399899999 ], [ -115.1573814, 36.191132099900003 ], [ -115.1573787, 36.191132099900003 ], [ -115.1573787, 36.191134799899999 ], [ -115.157376, 36.191134799899999 ], [ -115.157376, 36.191137499900002 ], [ -115.157373299999989, 36.191137499900002 ], [ -115.157373299999989, 36.191134799899999 ], [ -115.1573706, 36.191134799899999 ], [ -115.1573706, 36.191137499900002 ], [ -115.1573679, 36.191137499900002 ], [ -115.1573679, 36.191140199899998 ] ] ] } },
{ "type": "Feature", "properties": { "value": 255.0 }, "geometry": { "type": "Polygon", "coordinates": [ [ [ -115.1580402, 36.191164499899998 ], [ -115.158024, 36.191164499899998 ], [ -115.158024, 36.191161799900001 ], [ -115.1580105, 36.191161799900001 ], [ -115.1580105, 36.191153699899999 ], [ -115.1580078, 36.191153699899999 ], [ -115.1580078, 36.191115899899998 ], [ -115.1580105, 36.191115899899998 ], [ -115.1580105, 36.191113199900002 ], [ -115.1580186, 36.191113199900002 ], [ -115.1580186, 36.191115899899998 ], [ -115.1580213, 36.191115899899998 ], [ -115.1580213, 36.191113199900002 ], [ -115.1580348, 36.191113199900002 ], [ -115.1580348, 36.191115899899998 ], [ -115.1580429, 36.191115899899998 ], [ -115.1580429, 36.191113199900002 ], [ -115.1580456, 36.191113199900002 ], [ -115.1580456, 36.191115899899998 ], [ -115.158051, 36.191115899899998 ], [ -115.158051, 36.191121299899997 ], [ -115.1580537, 36.191121299899997 ], [ -115.1580537, 36.191161799900001 ], [ -115.1580402, 36.191161799900001 ], [ -115.1580402, 36.191164499899998 ] ] ] } },
{ "type": "Feature", "properties": { "value": 255.0 }, "geometry": { "type": "Polygon", "coordinates": [ [ [ -115.1582346, 36.191067299899998 ], [ -115.158213, 36.191067299899998 ], [ -115.158213, 36.1910564999 ], [ -115.1582103, 36.1910564999 ], [ -115.1582103, 36.191053799899997 ], [ -115.158213, 36.191053799899997 ], [ -115.158213, 36.191048399899998 ], [ -115.1582157, 36.191048399899998 ], [ -115.1582157, 36.191045699900002 ], [ -115.1582211, 36.191045699900002 ], [ -115.1582211, 36.191048399899998 ], [ -115.1582319, 36.191048399899998 ], [ -115.1582319, 36.191051099900001 ], [ -115.1582346, 36.191051099900001 ], [ -115.1582346, 36.1910564999 ], [ -115.1582373, 36.1910564999 ], [ -115.1582373, 36.191064599900002 ], [ -115.1582346, 36.191064599900002 ], [ -115.1582346, 36.191067299899998 ] ] ] } },
{ "type": "Feature", "properties": { "value": 255.0 }, "geometry": { "type": "Polygon", "coordinates": [ [ [ -115.1566362, 36.191145599899997 ], [ -115.1566281, 36.191145599899997 ], [ -115.1566281, 36.191142899900001 ], [ -115.156593, 36.191142899900001 ], [ -115.156593, 36.191145599899997 ], [ -115.1565876, 36.191145599899997 ], [ -115.1565876, 36.191005199899998 ], [ -115.1566632, 36.191005199899998 ], [ -115.1566632, 36.191002499900002 ], [ -115.1566659, 36.191002499900002 ], [ -115.1566659, 36.191005199899998 ], [ -115.1566956, 36.191005199899998 ], [ -115.1566956, 36.191007899900001 ], [ -115.156698299999988, 36.191007899900001 ], [ -115.156698299999988, 36.191018699899999 ], [ -115.1566956, 36.191018699899999 ], [ -115.1566956, 36.191042999899999 ], [ -115.1566929, 36.191042999899999 ], [ -115.1566929, 36.191048399899998 ], [ -115.1566902, 36.191048399899998 ], [ -115.1566902, 36.191051099900001 ], [ -115.1566929, 36.191051099900001 ], [ -115.1566929, 36.191099699900001 ], [ -115.1566902, 36.191099699900001 ], [ -115.1566902, 36.1911050999 ], [ -115.1566929, 36.1911050999 ], [ -115.1566929, 36.191134799899999 ], [ -115.1566902, 36.191134799899999 ], [ -115.1566902, 36.191140199899998 ], [ -115.1566524, 36.191140199899998 ], [ -115.1566524, 36.191142899900001 ], [ -115.1566362, 36.191142899900001 ], [ -115.1566362, 36.191145599899997 ] ] ] } },
{ "type": "Feature", "properties": { "value": 255.0 }, "geometry": { "type": "Polygon", "coordinates": [ [ [ -115.1583426, 36.191024099899998 ], [ -115.1583156, 36.191024099899998 ], [ -115.1583156, 36.191021399900002 ], [ -115.1583048, 36.191021399900002 ], [ -115.1583048, 36.191018699899999 ], [ -115.1583021, 36.191018699899999 ], [ -115.1583021, 36.190986299899997 ], [ -115.1582994, 36.190986299899997 ], [ -115.1582994, 36.190951199899999 ], [ -115.1583048, 36.190951199899999 ], [ -115.1583048, 36.190948499900003 ], [ -115.1583183, 36.190948499900003 ], [ -115.1583183, 36.190951199899999 ], [ -115.1583426, 36.190951199899999 ], [ -115.1583426, 36.191024099899998 ] ] ] } },
{ "type": "Feature", "properties": { "value": 255.0 }, "geometry": { "type": "Polygon", "coordinates": [ [ [ -115.1572113, 36.1910321999 ], [ -115.1572086, 36.1910321999 ], [ -115.1572086, 36.191029499899997 ], [ -115.157189699999989, 36.191029499899997 ], [ -115.157189699999989, 36.1910321999 ], [ -115.1571816, 36.1910321999 ], [ -115.1571816, 36.191029499899997 ], [ -115.1571546, 36.191029499899997 ], [ -115.1571546, 36.1910321999 ], [ -115.1571519, 36.1910321999 ], [ -115.1571519, 36.191029499899997 ], [ -115.1571303, 36.191029499899997 ], [ -115.1571303, 36.191024099899998 ], [ -115.1571276, 36.191024099899998 ], [ -115.1571276, 36.191018699899999 ], [ -115.1571249, 36.191018699899999 ], [ -115.1571249, 36.191015999900003 ], [ -115.1571114, 36.191015999900003 ], [ -115.1571114, 36.1910132999 ], [ -115.157052, 36.1910132999 ], [ -115.157052, 36.191010599899997 ], [ -115.1570493, 36.191010599899997 ], [ -115.1570493, 36.190929599900002 ], [ -115.157052, 36.190929599900002 ], [ -115.157052, 36.190926899899999 ], [ -115.1571438, 36.190926899899999 ], [ -115.1571438, 36.190929599900002 ], [ -115.1571816, 36.190929599900002 ], [ -115.1571816, 36.190932299899998 ], [ -115.1572167, 36.190932299899998 ], [ -115.1572167, 36.190934999900001 ], [ -115.1572194, 36.190934999900001 ], [ -115.1572194, 36.191029499899997 ], [ -115.1572113, 36.191029499899997 ], [ -115.1572113, 36.1910321999 ] ] ] } },
{ "type": "Feature", "properties": { "value": 255.0 }, "geometry": { "type": "Polygon", "coordinates": [ [ [ -115.1581536, 36.191024099899998 ], [ -115.158132, 36.191024099899998 ], [ -115.158132, 36.191021399900002 ], [ -115.1580861, 36.191021399900002 ], [ -115.1580861, 36.191018699899999 ], [ -115.1580834, 36.191018699899999 ], [ -115.1580834, 36.191005199899998 ], [ -115.1580807, 36.191005199899998 ], [ -115.1580807, 36.190994399899999 ], [ -115.1580834, 36.190994399899999 ], [ -115.1580834, 36.190975499899999 ], [ -115.1580807, 36.190975499899999 ], [ -115.1580807, 36.190956599899998 ], [ -115.1580834, 36.190956599899998 ], [ -115.1580834, 36.1909457999 ], [ -115.1580807, 36.1909457999 ], [ -115.1580807, 36.190943099899997 ], [ -115.1580834, 36.190943099899997 ], [ -115.1580834, 36.190937699899997 ], [ -115.1581887, 36.190937699899997 ], [ -115.1581887, 36.190940399900001 ], [ -115.1582319, 36.190940399900001 ], [ -115.1582319, 36.190937699899997 ], [ -115.15824, 36.190937699899997 ], [ -115.15824, 36.190940399900001 ], [ -115.1582481, 36.190940399900001 ], [ -115.1582481, 36.190943099899997 ], [ -115.1582508, 36.190943099899997 ], [ -115.1582508, 36.1909457999 ], [ -115.1582535, 36.1909457999 ], [ -115.1582535, 36.191021399900002 ], [ -115.1581536, 36.191021399900002 ], [ -115.1581536, 36.191024099899998 ] ] ] } },
{ "type": "Feature", "properties": { "value": 255.0 }, "geometry": { "type": "Polygon", "coordinates": [ [ [ -115.1575191, 36.191048399899998 ], [ -115.1574651, 36.191048399899998 ], [ -115.1574651, 36.191045699900002 ], [ -115.1574624, 36.191045699900002 ], [ -115.1574624, 36.190997099900002 ], [ -115.1574651, 36.190997099900002 ], [ -115.1574651, 36.190991699899996 ], [ -115.1574624, 36.190991699899996 ], [ -115.1574624, 36.190948499900003 ], [ -115.1574651, 36.190948499900003 ], [ -115.1574651, 36.190934999900001 ], [ -115.1574678, 36.190934999900001 ], [ -115.1574678, 36.190929599900002 ], [ -115.1574921, 36.190929599900002 ], [ -115.1574921, 36.190932299899998 ], [ -115.1575407, 36.190932299899998 ], [ -115.1575407, 36.190929599900002 ], [ -115.1575542, 36.190929599900002 ], [ -115.1575542, 36.190926899899999 ], [ -115.157565, 36.190926899899999 ], [ -115.157565, 36.190929599900002 ], [ -115.1576217, 36.190929599900002 ], [ -115.1576217, 36.190932299899998 ], [ -115.1576271, 36.190932299899998 ], [ -115.1576271, 36.190934999900001 ], [ -115.1576298, 36.190934999900001 ], [ -115.1576298, 36.190937699899997 ], [ -115.1576325, 36.190937699899997 ], [ -115.1576325, 36.191015999900003 ], [ -115.1576271, 36.191015999900003 ], [ -115.1576271, 36.191018699899999 ], [ -115.1576217, 36.191018699899999 ], [ -115.1576217, 36.191015999900003 ], [ -115.1576136, 36.191015999900003 ], [ -115.1576136, 36.191018699899999 ], [ -115.1575866, 36.191018699899999 ], [ -115.1575866, 36.191015999900003 ], [ -115.1575839, 36.191015999900003 ], [ -115.1575839, 36.191018699899999 ], [ -115.1575299, 36.191018699899999 ], [ -115.1575299, 36.191021399900002 ], [ -115.1575245, 36.191021399900002 ], [ -115.1575245, 36.191026799900001 ], [ -115.1575218, 36.191026799900001 ], [ -115.1575218, 36.191045699900002 ], [ -115.1575191, 36.191045699900002 ], [ -115.1575191, 36.191048399899998 ] ] ] } },
{ "type": "Feature", "properties": { "value": 255.0 }, "geometry": { "type": "Polygon", "coordinates": [ [ [ -115.1568009, 36.190980899899998 ], [ -115.1567766, 36.190980899899998 ], [ -115.1567766, 36.190978199900002 ], [ -115.1567496, 36.190978199900002 ], [ -115.1567496, 36.190975499899999 ], [ -115.1567442, 36.190975499899999 ], [ -115.1567442, 36.190972799900003 ], [ -115.1567415, 36.190972799900003 ], [ -115.1567415, 36.190967399899996 ], [ -115.1567442, 36.190967399899996 ], [ -115.1567442, 36.190953899900002 ], [ -115.1567469, 36.190953899900002 ], [ -115.1567469, 36.190948499900003 ], [ -115.1567496, 36.190948499900003 ], [ -115.1567496, 36.190943099899997 ], [ -115.1567523, 36.190943099899997 ], [ -115.1567523, 36.190937699899997 ], [ -115.156755, 36.190937699899997 ], [ -115.156755, 36.190934999900001 ], [ -115.1567739, 36.190934999900001 ], [ -115.1567739, 36.190937699899997 ], [ -115.1567766, 36.190937699899997 ], [ -115.1567766, 36.190943099899997 ], [ -115.1567793, 36.190943099899997 ], [ -115.1567793, 36.1909457999 ], [ -115.1567874, 36.1909457999 ], [ -115.1567874, 36.190948499900003 ], [ -115.1567928, 36.190948499900003 ], [ -115.1567928, 36.190951199899999 ], [ -115.1567982, 36.190951199899999 ], [ -115.1567982, 36.190953899900002 ], [ -115.1568009, 36.190953899900002 ], [ -115.1568009, 36.190956599899998 ], [ -115.156803599999989, 36.190956599899998 ], [ -115.156803599999989, 36.190975499899999 ], [ -115.1568009, 36.190975499899999 ], [ -115.1568009, 36.190980899899998 ] ] ] } },
{ "type": "Feature", "properties": { "value": 255.0 }, "geometry": { "type": "Polygon", "coordinates": [ [ [ -115.1578377, 36.191024099899998 ], [ -115.157673, 36.191024099899998 ], [ -115.157673, 36.191021399900002 ], [ -115.1576703, 36.191021399900002 ], [ -115.1576703, 36.191018699899999 ], [ -115.1576676, 36.191018699899999 ], [ -115.1576676, 36.190978199900002 ], [ -115.1576703, 36.190978199900002 ], [ -115.1576703, 36.190972799900003 ], [ -115.1576676, 36.190972799900003 ], [ -115.1576676, 36.190943099899997 ], [ -115.1576703, 36.190943099899997 ], [ -115.1576703, 36.190940399900001 ], [ -115.1576811, 36.190940399900001 ], [ -115.1576811, 36.190937699899997 ], [ -115.1577297, 36.190937699899997 ], [ -115.1577297, 36.190940399900001 ], [ -115.1577324, 36.190940399900001 ], [ -115.1577324, 36.190937699899997 ], [ -115.1577405, 36.190937699899997 ], [ -115.1577405, 36.190934999900001 ], [ -115.1577432, 36.190934999900001 ], [ -115.1577432, 36.190924199900003 ], [ -115.1577459, 36.190924199900003 ], [ -115.1577459, 36.1909214999 ], [ -115.1577513, 36.1909214999 ], [ -115.1577513, 36.190918799899997 ], [ -115.1577918, 36.190918799899997 ], [ -115.1577918, 36.1909214999 ], [ -115.1577945, 36.1909214999 ], [ -115.1577945, 36.190932299899998 ], [ -115.1577972, 36.190932299899998 ], [ -115.1577972, 36.190940399900001 ], [ -115.1578053, 36.190940399900001 ], [ -115.1578053, 36.190943099899997 ], [ -115.157808, 36.190943099899997 ], [ -115.157808, 36.190940399900001 ], [ -115.1578269, 36.190940399900001 ], [ -115.1578269, 36.190943099899997 ], [ -115.157835, 36.190943099899997 ], [ -115.157835, 36.1909457999 ], [ -115.1578404, 36.1909457999 ], [ -115.1578404, 36.191021399900002 ], [ -115.1578377, 36.191021399900002 ], [ -115.1578377, 36.191024099899998 ] ] ] } },
{ "type": "Feature", "properties": { "value": 255.0 }, "geometry": { "type": "Polygon", "coordinates": [ [ [ -115.1579997, 36.1911050999 ], [ -115.1578782, 36.1911050999 ], [ -115.1578782, 36.191102399899997 ], [ -115.1578755, 36.191102399899997 ], [ -115.1578755, 36.191099699900001 ], [ -115.1578728, 36.191099699900001 ], [ -115.1578728, 36.191096999899997 ], [ -115.1578701, 36.191096999899997 ], [ -115.1578701, 36.191051099900001 ], [ -115.1578728, 36.191051099900001 ], [ -115.1578728, 36.1910375999 ], [ -115.1578755, 36.1910375999 ], [ -115.1578755, 36.190943099899997 ], [ -115.1578782, 36.190943099899997 ], [ -115.1578782, 36.190940399900001 ], [ -115.1579592, 36.190940399900001 ], [ -115.1579592, 36.190924199900003 ], [ -115.1579619, 36.190924199900003 ], [ -115.1579619, 36.190918799899997 ], [ -115.15797, 36.190918799899997 ], [ -115.15797, 36.190916099900001 ], [ -115.1579916, 36.190916099900001 ], [ -115.1579916, 36.190918799899997 ], [ -115.1580105, 36.190918799899997 ], [ -115.1580105, 36.1909214999 ], [ -115.1580132, 36.1909214999 ], [ -115.1580132, 36.190924199900003 ], [ -115.1580159, 36.190924199900003 ], [ -115.1580159, 36.190940399900001 ], [ -115.158024, 36.190940399900001 ], [ -115.158024, 36.190943099899997 ], [ -115.1580429, 36.190943099899997 ], [ -115.1580429, 36.1909457999 ], [ -115.1580456, 36.1909457999 ], [ -115.1580456, 36.1909646999 ], [ -115.1580483, 36.1909646999 ], [ -115.1580483, 36.190970099899999 ], [ -115.1580456, 36.190970099899999 ], [ -115.1580456, 36.190986299899997 ], [ -115.1580483, 36.190986299899997 ], [ -115.1580483, 36.190991699899996 ], [ -115.1580456, 36.190991699899996 ], [ -115.1580456, 36.1910321999 ], [ -115.1580483, 36.1910321999 ], [ -115.1580483, 36.191040299900003 ], [ -115.1580456, 36.191040299900003 ], [ -115.1580456, 36.191069999900002 ], [ -115.1580429, 36.191069999900002 ], [ -115.1580429, 36.191072699899998 ], [ -115.1580024, 36.191072699899998 ], [ -115.1580024, 36.191075399900001 ], [ -115.1579997, 36.191075399900001 ], [ -115.1579997, 36.191078099899997 ], [ -115.157997, 36.191078099899997 ], [ -115.157997, 36.1910807999 ], [ -115.1579997, 36.1910807999 ], [ -115.1579997, 36.1911050999 ] ] ] } },
{ "type": "Feature", "properties": { "value": 255.0 }, "geometry": { "type": "Polygon", "coordinates": [ [ [ -115.1570115, 36.191018699899999 ], [ -115.1569656, 36.191018699899999 ], [ -115.1569656, 36.191015999900003 ], [ -115.1569629, 36.191015999900003 ], [ -115.1569629, 36.190994399899999 ], [ -115.1569602, 36.190994399899999 ], [ -115.1569602, 36.190986299899997 ], [ -115.1569575, 36.190986299899997 ], [ -115.1569575, 36.190983599900001 ], [ -115.156944, 36.190983599900001 ], [ -115.156944, 36.190980899899998 ], [ -115.1568927, 36.190980899899998 ], [ -115.1568927, 36.190978199900002 ], [ -115.1568441, 36.190978199900002 ], [ -115.1568441, 36.190975499899999 ], [ -115.1568414, 36.190975499899999 ], [ -115.1568414, 36.1908971999 ], [ -115.1568441, 36.1908971999 ], [ -115.1568441, 36.190894499899997 ], [ -115.1569737, 36.190894499899997 ], [ -115.1569737, 36.1908971999 ], [ -115.1570115, 36.1908971999 ], [ -115.1570115, 36.190916099900001 ], [ -115.1570142, 36.190916099900001 ], [ -115.1570142, 36.190924199900003 ], [ -115.1570115, 36.190924199900003 ], [ -115.1570115, 36.191018699899999 ] ] ] } },
{ "type": "Feature", "properties": { "value": 255.0 }, "geometry": { "type": "Polygon", "coordinates": [ [ [ -115.1567955, 36.190918799899997 ], [ -115.1567901, 36.190918799899997 ], [ -115.1567901, 36.190916099900001 ], [ -115.156782, 36.190916099900001 ], [ -115.156782, 36.190910699900002 ], [ -115.1567793, 36.190910699900002 ], [ -115.1567793, 36.190907999899999 ], [ -115.156782, 36.190907999899999 ], [ -115.156782, 36.1908971999 ], [ -115.1567793, 36.1908971999 ], [ -115.1567793, 36.190894499899997 ], [ -115.156782, 36.190894499899997 ], [ -115.156782, 36.190889099899998 ], [ -115.1568063, 36.190889099899998 ], [ -115.1568063, 36.190916099900001 ], [ -115.1567955, 36.190916099900001 ], [ -115.1567955, 36.190918799899997 ] ] ] } },
{ "type": "Feature", "properties": { "value": 255.0 }, "geometry": { "type": "Polygon", "coordinates": [ [ [ -115.1567037, 36.190934999900001 ], [ -115.1566875, 36.190934999900001 ], [ -115.1566875, 36.190932299899998 ], [ -115.1566146, 36.190932299899998 ], [ -115.1566146, 36.190934999900001 ], [ -115.1565984, 36.190934999900001 ], [ -115.1565984, 36.190932299899998 ], [ -115.1565876, 36.190932299899998 ], [ -115.1565876, 36.190883699899999 ], [ -115.156593, 36.190883699899999 ], [ -115.156593, 36.190880999900003 ], [ -115.1565984, 36.190880999900003 ], [ -115.1565984, 36.1908782999 ], [ -115.1566038, 36.1908782999 ], [ -115.1566038, 36.190875599899996 ], [ -115.1566146, 36.190875599899996 ], [ -115.1566146, 36.1908728999 ], [ -115.156630799999988, 36.1908728999 ], [ -115.156630799999988, 36.190870199899997 ], [ -115.1566524, 36.190870199899997 ], [ -115.1566524, 36.190867499900001 ], [ -115.156674, 36.190867499900001 ], [ -115.156674, 36.190864799899998 ], [ -115.1566794, 36.190864799899998 ], [ -115.1566794, 36.190862099900002 ], [ -115.1566875, 36.190862099900002 ], [ -115.1566875, 36.190867499900001 ], [ -115.1566929, 36.190867499900001 ], [ -115.1566929, 36.190864799899998 ], [ -115.156698299999988, 36.190864799899998 ], [ -115.156698299999988, 36.190867499900001 ], [ -115.1567064, 36.190867499900001 ], [ -115.1567064, 36.190870199899997 ], [ -115.1567091, 36.190870199899997 ], [ -115.1567091, 36.190875599899996 ], [ -115.1567118, 36.190875599899996 ], [ -115.1567118, 36.190886399900002 ], [ -115.1567145, 36.190886399900002 ], [ -115.1567145, 36.190932299899998 ], [ -115.1567037, 36.190932299899998 ], [ -115.1567037, 36.190934999900001 ] ] ] } },
{ "type": "Feature", "properties": { "value": 255.0 }, "geometry": { "type": "Polygon", "coordinates": [ [ [ -115.1574165, 36.191075399900001 ], [ -115.157376, 36.191075399900001 ], [ -115.157376, 36.191059199899996 ], [ -115.157373299999989, 36.191059199899996 ], [ -115.157373299999989, 36.191051099900001 ], [ -115.1573706, 36.191051099900001 ], [ -115.1573706, 36.191048399899998 ], [ -115.1573436, 36.191048399899998 ], [ -115.1573436, 36.191045699900002 ], [ -115.1573409, 36.191045699900002 ], [ -115.1573409, 36.191042999899999 ], [ -115.1573382, 36.191042999899999 ], [ -115.1573382, 36.191018699899999 ], [ -115.1573328, 36.191018699899999 ], [ -115.1573328, 36.191015999900003 ], [ -115.157295, 36.191015999900003 ], [ -115.157295, 36.1910132999 ], [ -115.157268, 36.1910132999 ], [ -115.157268, 36.191015999900003 ], [ -115.1572626, 36.191015999900003 ], [ -115.1572626, 36.1910132999 ], [ -115.1572599, 36.1910132999 ], [ -115.1572599, 36.191010599899997 ], [ -115.157257199999989, 36.191010599899997 ], [ -115.157257199999989, 36.190978199900002 ], [ -115.1572545, 36.190978199900002 ], [ -115.1572545, 36.190967399899996 ], [ -115.157257199999989, 36.190967399899996 ], [ -115.157257199999989, 36.190953899900002 ], [ -115.1572545, 36.190953899900002 ], [ -115.1572545, 36.190937699899997 ], [ -115.157257199999989, 36.190937699899997 ], [ -115.157257199999989, 36.190929599900002 ], [ -115.1573247, 36.190929599900002 ], [ -115.1573247, 36.190926899899999 ], [ -115.1573328, 36.190926899899999 ], [ -115.1573328, 36.190929599900002 ], [ -115.1573409, 36.190929599900002 ], [ -115.1573409, 36.190926899899999 ], [ -115.1573517, 36.190926899899999 ], [ -115.1573517, 36.190913399899998 ], [ -115.1573544, 36.190913399899998 ], [ -115.1573544, 36.190902599899999 ], [ -115.1573517, 36.190902599899999 ], [ -115.1573517, 36.190886399900002 ], [ -115.1573544, 36.190886399900002 ], [ -115.1573544, 36.190880999900003 ], [ -115.1573571, 36.190880999900003 ], [ -115.1573571, 36.1908782999 ], [ -115.1574246, 36.1908782999 ], [ -115.1574246, 36.190880999900003 ], [ -115.1574273, 36.190880999900003 ], [ -115.1574273, 36.190883699899999 ], [ -115.15743, 36.190883699899999 ], [ -115.15743, 36.190891799900001 ], [ -115.1574273, 36.190891799900001 ], [ -115.1574273, 36.1909214999 ], [ -115.15743, 36.1909214999 ], [ -115.15743, 36.190937699899997 ], [ -115.1574327, 36.190937699899997 ], [ -115.1574327, 36.190953899900002 ], [ -115.1574354, 36.190953899900002 ], [ -115.1574354, 36.190961999899997 ], [ -115.1574327, 36.190961999899997 ], [ -115.1574327, 36.190967399899996 ], [ -115.1574354, 36.190967399899996 ], [ -115.1574354, 36.190978199900002 ], [ -115.1574327, 36.190978199900002 ], [ -115.1574327, 36.191002499900002 ], [ -115.15743, 36.191002499900002 ], [ -115.15743, 36.1910132999 ], [ -115.1574273, 36.1910132999 ], [ -115.1574273, 36.1910375999 ], [ -115.1574246, 36.1910375999 ], [ -115.1574246, 36.191053799899997 ], [ -115.1574219, 36.191053799899997 ], [ -115.1574219, 36.191072699899998 ], [ -115.1574165, 36.191072699899998 ], [ -115.1574165, 36.191075399900001 ] ] ] } },
{ "type": "Feature", "properties": { "value": 255.0 }, "geometry": { "type": "Polygon", "coordinates": [ [ [ -115.1577297, 36.190643399899997 ], [ -115.1576973, 36.190643399899997 ], [ -115.1576973, 36.190640699900001 ], [ -115.1576865, 36.190640699900001 ], [ -115.1576865, 36.190637999899998 ], [ -115.1576271, 36.190637999899998 ], [ -115.1576271, 36.190635299900002 ], [ -115.1576244, 36.190635299900002 ], [ -115.1576244, 36.190632599899999 ], [ -115.1576217, 36.190632599899999 ], [ -115.1576217, 36.190605599900003 ], [ -115.1576244, 36.190605599900003 ], [ -115.1576244, 36.1905596999 ], [ -115.1576271, 36.1905596999 ], [ -115.1576271, 36.190556999900004 ], [ -115.1576325, 36.190556999900004 ], [ -115.1576325, 36.190554299900001 ], [ -115.157673, 36.190554299900001 ], [ -115.157673, 36.190556999900004 ], [ -115.1576784, 36.190556999900004 ], [ -115.1576784, 36.190554299900001 ], [ -115.1577324, 36.190554299900001 ], [ -115.1577324, 36.190556999900004 ], [ -115.1577594, 36.190556999900004 ], [ -115.1577594, 36.190554299900001 ], [ -115.1577783, 36.190554299900001 ], [ -115.1577783, 36.190556999900004 ], [ -115.1577891, 36.190556999900004 ], [ -115.1577891, 36.1905596999 ], [ -115.1577918, 36.1905596999 ], [ -115.1577918, 36.190562399900003 ], [ -115.1577945, 36.190562399900003 ], [ -115.1577945, 36.190637999899998 ], [ -115.1577405, 36.190637999899998 ], [ -115.1577405, 36.190640699900001 ], [ -115.1577297, 36.190640699900001 ], [ -115.1577297, 36.190643399899997 ] ] ] } },
{ "type": "Feature", "properties": { "value": 255.0 }, "geometry": { "type": "Polygon", "coordinates": [ [ [ -115.1583345, 36.190700099899999 ], [ -115.1582724, 36.190700099899999 ], [ -115.1582724, 36.190697399900003 ], [ -115.1582697, 36.190697399900003 ], [ -115.1582697, 36.190678499900002 ], [ -115.158267, 36.190678499900002 ], [ -115.158267, 36.190664999900001 ], [ -115.1582697, 36.190664999900001 ], [ -115.1582697, 36.190656899899999 ], [ -115.158267, 36.190656899899999 ], [ -115.158267, 36.190648799900003 ], [ -115.1582697, 36.190648799900003 ], [ -115.1582697, 36.190632599899999 ], [ -115.158267, 36.190632599899999 ], [ -115.158267, 36.1906271999 ], [ -115.1582697, 36.1906271999 ], [ -115.1582697, 36.190613699899998 ], [ -115.1582724, 36.190613699899998 ], [ -115.1582724, 36.190589399899999 ], [ -115.1582697, 36.190589399899999 ], [ -115.1582697, 36.190575899899997 ], [ -115.1582724, 36.190575899899997 ], [ -115.1582724, 36.190554299900001 ], [ -115.1582751, 36.190554299900001 ], [ -115.1582751, 36.190540799899999 ], [ -115.1582724, 36.190540799899999 ], [ -115.1582724, 36.190538099900003 ], [ -115.1582751, 36.190538099900003 ], [ -115.1582751, 36.1905353999 ], [ -115.1582724, 36.1905353999 ], [ -115.1582724, 36.190529999900001 ], [ -115.1582751, 36.190529999900001 ], [ -115.1582751, 36.190524599900002 ], [ -115.1582778, 36.190524599900002 ], [ -115.1582778, 36.190521899899998 ], [ -115.1583426, 36.190521899899998 ], [ -115.1583426, 36.190659599900002 ], [ -115.1583399, 36.190659599900002 ], [ -115.1583399, 36.190667699899997 ], [ -115.1583372, 36.190667699899997 ], [ -115.1583372, 36.190697399900003 ], [ -115.1583345, 36.190697399900003 ], [ -115.1583345, 36.190700099899999 ] ] ] } },
{ "type": "Feature", "properties": { "value": 255.0 }, "geometry": { "type": "Polygon", "coordinates": [ [ [ -115.1566524, 36.190608299899999 ], [ -115.156601099999989, 36.190608299899999 ], [ -115.156601099999989, 36.190605599900003 ], [ -115.1565876, 36.190605599900003 ], [ -115.1565876, 36.190519199900002 ], [ -115.156630799999988, 36.190519199900002 ], [ -115.156630799999988, 36.190521899899998 ], [ -115.1566902, 36.190521899899998 ], [ -115.1566902, 36.190519199900002 ], [ -115.1567037, 36.190519199900002 ], [ -115.1567037, 36.190521899899998 ], [ -115.1567118, 36.190521899899998 ], [ -115.1567118, 36.190527299899998 ], [ -115.1567145, 36.190527299899998 ], [ -115.1567145, 36.190605599900003 ], [ -115.1566524, 36.190605599900003 ], [ -115.1566524, 36.190608299899999 ] ] ] } },
{ "type": "Feature", "properties": { "value": 255.0 }, "geometry": { "type": "Polygon", "coordinates": [ [ [ -115.1570331, 36.190608299899999 ], [ -115.1569953, 36.190608299899999 ], [ -115.1569953, 36.190605599900003 ], [ -115.1569278, 36.190605599900003 ], [ -115.1569278, 36.1906028999 ], [ -115.1569251, 36.1906028999 ], [ -115.1569251, 36.190592099900002 ], [ -115.1569278, 36.190592099900002 ], [ -115.1569278, 36.190570499899998 ], [ -115.1569251, 36.190570499899998 ], [ -115.1569251, 36.190521899899998 ], [ -115.1570439, 36.190521899899998 ], [ -115.1570439, 36.190519199900002 ], [ -115.1570601, 36.190519199900002 ], [ -115.1570601, 36.190521899899998 ], [ -115.1570925, 36.190521899899998 ], [ -115.1570925, 36.190524599900002 ], [ -115.1570952, 36.190524599900002 ], [ -115.1570952, 36.190600199900004 ], [ -115.1570925, 36.190600199900004 ], [ -115.1570925, 36.1906028999 ], [ -115.1570871, 36.1906028999 ], [ -115.1570871, 36.190605599900003 ], [ -115.157079, 36.190605599900003 ], [ -115.157079, 36.1906028999 ], [ -115.1570682, 36.1906028999 ], [ -115.1570682, 36.190605599900003 ], [ -115.1570331, 36.190605599900003 ], [ -115.1570331, 36.190608299899999 ] ] ] } },
{ "type": "Feature", "properties": { "value": 255.0 }, "geometry": { "type": "Polygon", "coordinates": [ [ [ -115.1581914, 36.190664999900001 ], [ -115.1581725, 36.190664999900001 ], [ -115.1581725, 36.190662299899998 ], [ -115.1581347, 36.190662299899998 ], [ -115.1581347, 36.190648799900003 ], [ -115.158132, 36.190648799900003 ], [ -115.158132, 36.190643399899997 ], [ -115.1580915, 36.190643399899997 ], [ -115.1580915, 36.1906460999 ], [ -115.1580645, 36.1906460999 ], [ -115.1580645, 36.190643399899997 ], [ -115.1580618, 36.190643399899997 ], [ -115.1580618, 36.190640699900001 ], [ -115.1580591, 36.190640699900001 ], [ -115.1580591, 36.190637999899998 ], [ -115.1580564, 36.190637999899998 ], [ -115.1580564, 36.190589399899999 ], [ -115.1580591, 36.190589399899999 ], [ -115.1580591, 36.190586699900003 ], [ -115.1580564, 36.190586699900003 ], [ -115.1580564, 36.1905596999 ], [ -115.1580591, 36.1905596999 ], [ -115.1580591, 36.190513799900003 ], [ -115.1580564, 36.190513799900003 ], [ -115.1580564, 36.190508399900004 ], [ -115.1580591, 36.190508399900004 ], [ -115.1580591, 36.190505699900001 ], [ -115.1580618, 36.190505699900001 ], [ -115.1580618, 36.190502999899998 ], [ -115.1581293, 36.190502999899998 ], [ -115.1581293, 36.190505699900001 ], [ -115.1581887, 36.190505699900001 ], [ -115.1581887, 36.190502999899998 ], [ -115.1581995, 36.190502999899998 ], [ -115.1581995, 36.190505699900001 ], [ -115.1582211, 36.190505699900001 ], [ -115.1582211, 36.190519199900002 ], [ -115.1582238, 36.190519199900002 ], [ -115.1582238, 36.190600199900004 ], [ -115.1582265, 36.190600199900004 ], [ -115.1582265, 36.1906271999 ], [ -115.1582238, 36.1906271999 ], [ -115.1582238, 36.190662299899998 ], [ -115.1581914, 36.190662299899998 ], [ -115.1581914, 36.190664999900001 ] ] ] } },
{ "type": "Feature", "properties": { "value": 255.0 }, "geometry": { "type": "Polygon", "coordinates": [ [ [ -115.15797, 36.190656899899999 ], [ -115.1578809, 36.190656899899999 ], [ -115.1578809, 36.190654199900003 ], [ -115.1578782, 36.190654199900003 ], [ -115.1578782, 36.1906514999 ], [ -115.1578755, 36.1906514999 ], [ -115.1578755, 36.1906460999 ], [ -115.1578728, 36.1906460999 ], [ -115.1578728, 36.190643399899997 ], [ -115.1578701, 36.190643399899997 ], [ -115.1578701, 36.190640699900001 ], [ -115.1578431, 36.190640699900001 ], [ -115.1578431, 36.190637999899998 ], [ -115.1578377, 36.190637999899998 ], [ -115.1578377, 36.190635299900002 ], [ -115.157835, 36.190635299900002 ], [ -115.157835, 36.190592099900002 ], [ -115.1578323, 36.190592099900002 ], [ -115.1578323, 36.1905785999 ], [ -115.1578296, 36.1905785999 ], [ -115.1578296, 36.1905596999 ], [ -115.1578269, 36.1905596999 ], [ -115.1578269, 36.190551599899997 ], [ -115.1578296, 36.190551599899997 ], [ -115.1578296, 36.190502999899998 ], [ -115.1578323, 36.190502999899998 ], [ -115.1578323, 36.190500299900002 ], [ -115.157835, 36.190500299900002 ], [ -115.157835, 36.190497599899999 ], [ -115.1578404, 36.190497599899999 ], [ -115.1578404, 36.190494899900003 ], [ -115.157889, 36.190494899900003 ], [ -115.157889, 36.190497599899999 ], [ -115.1578917, 36.190497599899999 ], [ -115.1578917, 36.190502999899998 ], [ -115.1578944, 36.190502999899998 ], [ -115.1578944, 36.190513799900003 ], [ -115.1578971, 36.190513799900003 ], [ -115.1578971, 36.190524599900002 ], [ -115.1579079, 36.190524599900002 ], [ -115.1579079, 36.190527299899998 ], [ -115.1579133, 36.190527299899998 ], [ -115.1579133, 36.190524599900002 ], [ -115.1579187, 36.190524599900002 ], [ -115.1579187, 36.190521899899998 ], [ -115.1579214, 36.190521899899998 ], [ -115.1579214, 36.190519199900002 ], [ -115.1579241, 36.190519199900002 ], [ -115.1579241, 36.190516499899999 ], [ -115.1579268, 36.190516499899999 ], [ -115.1579268, 36.190513799900003 ], [ -115.1579943, 36.190513799900003 ], [ -115.1579943, 36.190516499899999 ], [ -115.1580078, 36.190516499899999 ], [ -115.1580078, 36.190613699899998 ], [ -115.1580105, 36.190613699899998 ], [ -115.1580105, 36.190619099899997 ], [ -115.1580078, 36.190619099899997 ], [ -115.1580078, 36.190640699900001 ], [ -115.1579781, 36.190640699900001 ], [ -115.1579781, 36.190643399899997 ], [ -115.1579754, 36.190643399899997 ], [ -115.1579754, 36.190648799900003 ], [ -115.1579727, 36.190648799900003 ], [ -115.1579727, 36.190654199900003 ], [ -115.15797, 36.190654199900003 ], [ -115.15797, 36.190656899899999 ] ] ] } },
{ "type": "Feature", "properties": { "value": 255.0 }, "geometry": { "type": "Polygon", "coordinates": [ [ [ -115.1575218, 36.190637999899998 ], [ -115.1574273, 36.190637999899998 ], [ -115.1574273, 36.190635299900002 ], [ -115.1574246, 36.190635299900002 ], [ -115.1574246, 36.190505699900001 ], [ -115.1574273, 36.190505699900001 ], [ -115.1574273, 36.190500299900002 ], [ -115.15743, 36.190500299900002 ], [ -115.15743, 36.190497599899999 ], [ -115.1575218, 36.190497599899999 ], [ -115.1575218, 36.190500299900002 ], [ -115.1575245, 36.190500299900002 ], [ -115.1575245, 36.190502999899998 ], [ -115.1575272, 36.190502999899998 ], [ -115.1575272, 36.190532699900004 ], [ -115.1575299, 36.190532699900004 ], [ -115.1575299, 36.190556999900004 ], [ -115.1575272, 36.190556999900004 ], [ -115.1575272, 36.190567799900002 ], [ -115.1575299, 36.190567799900002 ], [ -115.1575299, 36.1905785999 ], [ -115.157538, 36.1905785999 ], [ -115.157538, 36.190581299900003 ], [ -115.1575407, 36.190581299900003 ], [ -115.1575407, 36.1905785999 ], [ -115.1575434, 36.1905785999 ], [ -115.1575434, 36.190581299900003 ], [ -115.1575596, 36.190581299900003 ], [ -115.1575596, 36.190583999899999 ], [ -115.1575623, 36.190583999899999 ], [ -115.1575623, 36.190597499900001 ], [ -115.1575596, 36.190597499900001 ], [ -115.1575596, 36.190600199900004 ], [ -115.1575623, 36.190600199900004 ], [ -115.1575623, 36.190605599900003 ], [ -115.1575596, 36.190605599900003 ], [ -115.1575596, 36.190608299899999 ], [ -115.1575623, 36.190608299899999 ], [ -115.1575623, 36.190629899900003 ], [ -115.1575596, 36.190629899900003 ], [ -115.1575596, 36.190632599899999 ], [ -115.1575353, 36.190632599899999 ], [ -115.1575353, 36.190635299900002 ], [ -115.1575218, 36.190635299900002 ], [ -115.1575218, 36.190637999899998 ] ] ] } },
{ "type": "Feature", "properties": { "value": 255.0 }, "geometry": { "type": "Polygon", "coordinates": [ [ [ -115.15689, 36.190527299899998 ], [ -115.1568387, 36.190527299899998 ], [ -115.1568387, 36.190524599900002 ], [ -115.156836, 36.190524599900002 ], [ -115.156836, 36.190521899899998 ], [ -115.156833299999988, 36.190521899899998 ], [ -115.156833299999988, 36.190513799900003 ], [ -115.1568306, 36.190513799900003 ], [ -115.1568306, 36.190478699899998 ], [ -115.156833299999988, 36.190478699899998 ], [ -115.156833299999988, 36.190475999900002 ], [ -115.1568873, 36.190475999900002 ], [ -115.1568873, 36.190478699899998 ], [ -115.15689, 36.190478699899998 ], [ -115.15689, 36.190481399900001 ], [ -115.1568927, 36.190481399900001 ], [ -115.1568927, 36.190524599900002 ], [ -115.15689, 36.190524599900002 ], [ -115.15689, 36.190527299899998 ] ] ] } },
{ "type": "Feature", "properties": { "value": 255.0 }, "geometry": { "type": "Polygon", "coordinates": [ [ [ -115.1583426, 36.1904678999 ], [ -115.158267, 36.1904678999 ], [ -115.158267, 36.190465199900004 ], [ -115.1582616, 36.190465199900004 ], [ -115.1582616, 36.190459799899998 ], [ -115.1582589, 36.190459799899998 ], [ -115.1582589, 36.190430099899999 ], [ -115.1582616, 36.190430099899999 ], [ -115.1582616, 36.190427399900003 ], [ -115.1583426, 36.190427399900003 ], [ -115.1583426, 36.1904678999 ] ] ] } },
{ "type": "Feature", "properties": { "value": 255.0 }, "geometry": { "type": "Polygon", "coordinates": [ [ [ -115.1582265, 36.190462499900001 ], [ -115.1581806, 36.190462499900001 ], [ -115.1581806, 36.190459799899998 ], [ -115.1581752, 36.190459799899998 ], [ -115.1581752, 36.190432799900002 ], [ -115.1582211, 36.190432799900002 ], [ -115.1582211, 36.190430099899999 ], [ -115.1582238, 36.190430099899999 ], [ -115.1582238, 36.190432799900002 ], [ -115.1582265, 36.190432799900002 ], [ -115.1582265, 36.190435499899998 ], [ -115.1582292, 36.190435499899998 ], [ -115.1582292, 36.190457099900001 ], [ -115.1582265, 36.190457099900001 ], [ -115.1582265, 36.190462499900001 ] ] ] } },
{ "type": "Feature", "properties": { "value": 255.0 }, "geometry": { "type": "Polygon", "coordinates": [ [ [ -115.1576919, 36.190451699900002 ], [ -115.1576622, 36.190451699900002 ], [ -115.1576622, 36.190448999899999 ], [ -115.1576595, 36.190448999899999 ], [ -115.1576595, 36.1904435999 ], [ -115.1576568, 36.1904435999 ], [ -115.1576568, 36.190438199900001 ], [ -115.1576595, 36.190438199900001 ], [ -115.1576595, 36.190432799900002 ], [ -115.1576622, 36.190432799900002 ], [ -115.1576622, 36.190427399900003 ], [ -115.1576676, 36.190427399900003 ], [ -115.1576676, 36.190424699899999 ], [ -115.1576919, 36.190424699899999 ], [ -115.1576919, 36.190430099899999 ], [ -115.1576946, 36.190430099899999 ], [ -115.1576946, 36.190448999899999 ], [ -115.1576919, 36.190448999899999 ], [ -115.1576919, 36.190451699900002 ] ] ] } },
{ "type": "Feature", "properties": { "value": 255.0 }, "geometry": { "type": "Polygon", "coordinates": [ [ [ -115.1576568, 36.190408499900002 ], [ -115.1576379, 36.190408499900002 ], [ -115.1576379, 36.190405799899999 ], [ -115.157619, 36.190405799899999 ], [ -115.157619, 36.190389599900001 ], [ -115.1576244, 36.190389599900001 ], [ -115.1576244, 36.190386899899998 ], [ -115.1576595, 36.190386899899998 ], [ -115.1576595, 36.190405799899999 ], [ -115.1576568, 36.190405799899999 ], [ -115.1576568, 36.190408499900002 ] ] ] } },
{ "type": "Feature", "properties": { "value": 255.0 }, "geometry": { "type": "Polygon", "coordinates": [ [ [ -115.1581914, 36.190408499900002 ], [ -115.1581482, 36.190408499900002 ], [ -115.1581482, 36.190403099900003 ], [ -115.1581455, 36.190403099900003 ], [ -115.1581455, 36.190378799900003 ], [ -115.1581563, 36.190378799900003 ], [ -115.1581563, 36.1903760999 ], [ -115.158159, 36.1903760999 ], [ -115.158159, 36.190378799900003 ], [ -115.1581671, 36.190378799900003 ], [ -115.1581671, 36.1903760999 ], [ -115.1581698, 36.1903760999 ], [ -115.1581698, 36.190378799900003 ], [ -115.1581779, 36.190378799900003 ], [ -115.1581779, 36.1903760999 ], [ -115.158186, 36.1903760999 ], [ -115.158186, 36.190378799900003 ], [ -115.1581914, 36.190378799900003 ], [ -115.1581914, 36.190381499899999 ], [ -115.1581941, 36.190381499899999 ], [ -115.1581941, 36.1904003999 ], [ -115.1581914, 36.1904003999 ], [ -115.1581914, 36.190408499900002 ] ] ] } },
{ "type": "Feature", "properties": { "value": 255.0 }, "geometry": { "type": "Polygon", "coordinates": [ [ [ -115.1566524, 36.190448999899999 ], [ -115.1565876, 36.190448999899999 ], [ -115.1565876, 36.190313999899999 ], [ -115.1565903, 36.190313999899999 ], [ -115.1565903, 36.190311299900003 ], [ -115.156647, 36.190311299900003 ], [ -115.156647, 36.190313999899999 ], [ -115.156649699999988, 36.190313999899999 ], [ -115.156649699999988, 36.190319399899998 ], [ -115.1566524, 36.190319399899998 ], [ -115.1566524, 36.190448999899999 ] ] ] } },
{ "type": "Feature", "properties": { "value": 255.0 }, "geometry": { "type": "Polygon", "coordinates": [ [ [ -115.1570871, 36.190448999899999 ], [ -115.1570709, 36.190448999899999 ], [ -115.1570709, 36.190446299900003 ], [ -115.1570196, 36.190446299900003 ], [ -115.1570196, 36.190448999899999 ], [ -115.1569953, 36.190448999899999 ], [ -115.1569953, 36.190446299900003 ], [ -115.1569899, 36.190446299900003 ], [ -115.1569899, 36.190440899900004 ], [ -115.156987199999989, 36.190440899900004 ], [ -115.156987199999989, 36.190362599899998 ], [ -115.1569845, 36.190362599899998 ], [ -115.1569845, 36.190343699899998 ], [ -115.156987199999989, 36.190343699899998 ], [ -115.156987199999989, 36.190338299899999 ], [ -115.1569845, 36.190338299899999 ], [ -115.1569845, 36.190313999899999 ], [ -115.156987199999989, 36.190313999899999 ], [ -115.156987199999989, 36.190311299900003 ], [ -115.1569926, 36.190311299900003 ], [ -115.1569926, 36.1903085999 ], [ -115.1570871, 36.1903085999 ], [ -115.1570871, 36.190311299900003 ], [ -115.1570898, 36.190311299900003 ], [ -115.1570898, 36.190313999899999 ], [ -115.1570925, 36.190313999899999 ], [ -115.1570925, 36.190381499899999 ], [ -115.1570952, 36.190381499899999 ], [ -115.1570952, 36.190386899899998 ], [ -115.1570925, 36.190386899899998 ], [ -115.1570925, 36.1904003999 ], [ -115.1570952, 36.1904003999 ], [ -115.1570952, 36.1904435999 ], [ -115.1570925, 36.1904435999 ], [ -115.1570925, 36.190446299900003 ], [ -115.1570871, 36.190446299900003 ], [ -115.1570871, 36.190448999899999 ] ] ] } },
{ "type": "Feature", "properties": { "value": 255.0 }, "geometry": { "type": "Polygon", "coordinates": [ [ [ -115.1568765, 36.190281599900004 ], [ -115.1568414, 36.190281599900004 ], [ -115.1568414, 36.190278899900001 ], [ -115.156836, 36.190278899900001 ], [ -115.156836, 36.190276199899998 ], [ -115.156833299999988, 36.190276199899998 ], [ -115.156833299999988, 36.190265399899999 ], [ -115.1568306, 36.190265399899999 ], [ -115.1568306, 36.190243799900003 ], [ -115.156833299999988, 36.190243799900003 ], [ -115.156833299999988, 36.1902410999 ], [ -115.156871099999989, 36.1902410999 ], [ -115.156871099999989, 36.190243799900003 ], [ -115.1568765, 36.190243799900003 ], [ -115.1568765, 36.190251899899998 ], [ -115.1568792, 36.190251899899998 ], [ -115.1568792, 36.190278899900001 ], [ -115.1568765, 36.190278899900001 ], [ -115.1568765, 36.190281599900004 ] ] ] } },
{ "type": "Feature", "properties": { "value": 255.0 }, "geometry": { "type": "Polygon", "coordinates": [ [ [ -115.1583426, 36.190286999900003 ], [ -115.1582373, 36.190286999900003 ], [ -115.1582373, 36.1902842999 ], [ -115.1582319, 36.1902842999 ], [ -115.1582319, 36.190281599900004 ], [ -115.1582292, 36.190281599900004 ], [ -115.1582292, 36.190257299900004 ], [ -115.1582319, 36.190257299900004 ], [ -115.1582319, 36.190203299899999 ], [ -115.15824, 36.190203299899999 ], [ -115.15824, 36.190200599900002 ], [ -115.1582886, 36.190200599900002 ], [ -115.1582886, 36.190203299899999 ], [ -115.1582994, 36.190203299899999 ], [ -115.1582994, 36.190200599900002 ], [ -115.1583048, 36.190200599900002 ], [ -115.1583048, 36.190197899899999 ], [ -115.1583075, 36.190197899899999 ], [ -115.1583075, 36.190200599900002 ], [ -115.1583399, 36.190200599900002 ], [ -115.1583399, 36.190203299899999 ], [ -115.1583426, 36.190203299899999 ], [ -115.1583426, 36.190286999900003 ] ] ] } },
{ "type": "Feature", "properties": { "value": 255.0 }, "geometry": { "type": "Polygon", "coordinates": [ [ [ -115.1577891, 36.190276199899998 ], [ -115.1576271, 36.190276199899998 ], [ -115.1576271, 36.190273499900002 ], [ -115.1576244, 36.190273499900002 ], [ -115.1576244, 36.190270799899999 ], [ -115.1576217, 36.190270799899999 ], [ -115.1576217, 36.190254599900001 ], [ -115.1576244, 36.190254599900001 ], [ -115.1576244, 36.190197899899999 ], [ -115.1576271, 36.190197899899999 ], [ -115.1576271, 36.190195199900003 ], [ -115.1576298, 36.190195199900003 ], [ -115.1576298, 36.1901924999 ], [ -115.1576352, 36.1901924999 ], [ -115.1576352, 36.190189799900004 ], [ -115.1577162, 36.190189799900004 ], [ -115.1577162, 36.1901924999 ], [ -115.1577864, 36.1901924999 ], [ -115.1577864, 36.190195199900003 ], [ -115.1577891, 36.190195199900003 ], [ -115.1577891, 36.190200599900002 ], [ -115.1577918, 36.190200599900002 ], [ -115.1577918, 36.190273499900002 ], [ -115.1577891, 36.190273499900002 ], [ -115.1577891, 36.190276199899998 ] ] ] } },
{ "type": "Feature", "properties": { "value": 255.0 }, "geometry": { "type": "Polygon", "coordinates": [ [ [ -115.157889, 36.190281599900004 ], [ -115.1578809, 36.190281599900004 ], [ -115.1578809, 36.190278899900001 ], [ -115.1578701, 36.190278899900001 ], [ -115.1578701, 36.190276199899998 ], [ -115.1578485, 36.190276199899998 ], [ -115.1578485, 36.190278899900001 ], [ -115.1578377, 36.190278899900001 ], [ -115.1578377, 36.190276199899998 ], [ -115.1578242, 36.190276199899998 ], [ -115.1578242, 36.190257299900004 ], [ -115.1578215, 36.190257299900004 ], [ -115.1578215, 36.190254599900001 ], [ -115.1578242, 36.190254599900001 ], [ -115.1578242, 36.190195199900003 ], [ -115.1578269, 36.190195199900003 ], [ -115.1578269, 36.1901924999 ], [ -115.1579592, 36.1901924999 ], [ -115.1579592, 36.190195199900003 ], [ -115.1579889, 36.190195199900003 ], [ -115.1579889, 36.190197899899999 ], [ -115.1579943, 36.190197899899999 ], [ -115.1579943, 36.190224899900002 ], [ -115.1579916, 36.190224899900002 ], [ -115.1579916, 36.190235699900001 ], [ -115.1579943, 36.190235699900001 ], [ -115.1579943, 36.190257299900004 ], [ -115.1579916, 36.190257299900004 ], [ -115.1579916, 36.190276199899998 ], [ -115.1579808, 36.190276199899998 ], [ -115.1579808, 36.190278899900001 ], [ -115.157889, 36.190278899900001 ], [ -115.157889, 36.190281599900004 ] ] ] } },
{ "type": "Feature", "properties": { "value": 255.0 }, "geometry": { "type": "Polygon", "coordinates": [ [ [ -115.1581887, 36.190311299900003 ], [ -115.1580942, 36.190311299900003 ], [ -115.1580942, 36.1903085999 ], [ -115.1580915, 36.1903085999 ], [ -115.1580915, 36.190297799900002 ], [ -115.1580888, 36.190297799900002 ], [ -115.1580888, 36.190295099899998 ], [ -115.1580834, 36.190295099899998 ], [ -115.1580834, 36.190297799900002 ], [ -115.1580807, 36.190297799900002 ], [ -115.1580807, 36.1903085999 ], [ -115.1580321, 36.1903085999 ], [ -115.1580321, 36.190305899900004 ], [ -115.1580294, 36.190305899900004 ], [ -115.1580294, 36.190276199899998 ], [ -115.1580267, 36.190276199899998 ], [ -115.1580267, 36.190205999900002 ], [ -115.158024, 36.190205999900002 ], [ -115.158024, 36.190200599900002 ], [ -115.1580267, 36.190200599900002 ], [ -115.1580267, 36.190178999899999 ], [ -115.1580402, 36.190178999899999 ], [ -115.1580402, 36.190176299900003 ], [ -115.1580591, 36.190176299900003 ], [ -115.1580591, 36.190178999899999 ], [ -115.158078, 36.190178999899999 ], [ -115.158078, 36.190181699900002 ], [ -115.1580888, 36.190181699900002 ], [ -115.1580888, 36.190184399899998 ], [ -115.1581023, 36.190184399899998 ], [ -115.1581023, 36.190187099900001 ], [ -115.1581185, 36.190187099900001 ], [ -115.1581185, 36.190189799900004 ], [ -115.1581266, 36.190189799900004 ], [ -115.1581266, 36.1901924999 ], [ -115.1581293, 36.1901924999 ], [ -115.1581293, 36.190195199900003 ], [ -115.158132, 36.190195199900003 ], [ -115.158132, 36.190197899899999 ], [ -115.1581401, 36.190197899899999 ], [ -115.1581401, 36.190200599900002 ], [ -115.1581887, 36.190200599900002 ], [ -115.1581887, 36.190203299899999 ], [ -115.1581968, 36.190203299899999 ], [ -115.1581968, 36.190208699900005 ], [ -115.1581995, 36.190208699900005 ], [ -115.1581995, 36.190214099900004 ], [ -115.1581968, 36.190214099900004 ], [ -115.1581968, 36.1902842999 ], [ -115.1581941, 36.1902842999 ], [ -115.1581941, 36.190295099899998 ], [ -115.1581914, 36.190295099899998 ], [ -115.1581914, 36.1903085999 ], [ -115.1581887, 36.1903085999 ], [ -115.1581887, 36.190311299900003 ] ] ] } },
{ "type": "Feature", "properties": { "value": 255.0 }, "geometry": { "type": "Polygon", "coordinates": [ [ [ -115.1574435, 36.190330199900004 ], [ -115.1574327, 36.190330199900004 ], [ -115.1574327, 36.1903274999 ], [ -115.1574273, 36.1903274999 ], [ -115.1574273, 36.190324799900004 ], [ -115.1574246, 36.190324799900004 ], [ -115.1574246, 36.190322099900001 ], [ -115.1574219, 36.190322099900001 ], [ -115.1574219, 36.190251899899998 ], [ -115.1574192, 36.190251899899998 ], [ -115.1574192, 36.190235699900001 ], [ -115.1574165, 36.190235699900001 ], [ -115.1574165, 36.190211399900001 ], [ -115.1574138, 36.190211399900001 ], [ -115.1574138, 36.190203299899999 ], [ -115.1574165, 36.190203299899999 ], [ -115.1574165, 36.190200599900002 ], [ -115.1574138, 36.190200599900002 ], [ -115.1574138, 36.190184399899998 ], [ -115.1574219, 36.190184399899998 ], [ -115.1574219, 36.190181699900002 ], [ -115.1574327, 36.190181699900002 ], [ -115.1574327, 36.190178999899999 ], [ -115.1574354, 36.190178999899999 ], [ -115.1574354, 36.190176299900003 ], [ -115.1574381, 36.190176299900003 ], [ -115.1574381, 36.190170899900004 ], [ -115.157440799999989, 36.190170899900004 ], [ -115.157440799999989, 36.190165499900004 ], [ -115.1574489, 36.190165499900004 ], [ -115.1574489, 36.190162799900001 ], [ -115.1575191, 36.190162799900001 ], [ -115.1575191, 36.190165499900004 ], [ -115.1575245, 36.190165499900004 ], [ -115.1575245, 36.1901681999 ], [ -115.1575272, 36.1901681999 ], [ -115.1575272, 36.190187099900001 ], [ -115.1575245, 36.190187099900001 ], [ -115.1575245, 36.1901924999 ], [ -115.1575272, 36.1901924999 ], [ -115.1575272, 36.190222199899999 ], [ -115.1575245, 36.190222199899999 ], [ -115.1575245, 36.190227599899998 ], [ -115.1575272, 36.190227599899998 ], [ -115.1575272, 36.190322099900001 ], [ -115.1575245, 36.190322099900001 ], [ -115.1575245, 36.1903274999 ], [ -115.1574435, 36.1903274999 ], [ -115.1574435, 36.190330199900004 ] ] ] } },
{ "type": "Feature", "properties": { "value": 255.0 }, "geometry": { "type": "Polygon", "coordinates": [ [ [ -115.156649699999988, 36.190281599900004 ], [ -115.1565876, 36.190281599900004 ], [ -115.1565876, 36.190143899900001 ], [ -115.156647, 36.190143899900001 ], [ -115.156647, 36.190146599900004 ], [ -115.156649699999988, 36.190146599900004 ], [ -115.156649699999988, 36.190195199900003 ], [ -115.1566524, 36.190195199900003 ], [ -115.1566524, 36.190278899900001 ], [ -115.156649699999988, 36.190278899900001 ], [ -115.156649699999988, 36.190281599900004 ] ] ] } },
{ "type": "Feature", "properties": { "value": 255.0 }, "geometry": { "type": "Polygon", "coordinates": [ [ [ -115.1571357, 36.190281599900004 ], [ -115.1571087, 36.190281599900004 ], [ -115.1571087, 36.190278899900001 ], [ -115.1570169, 36.190278899900001 ], [ -115.1570169, 36.190281599900004 ], [ -115.1569926, 36.190281599900004 ], [ -115.1569926, 36.190278899900001 ], [ -115.1569899, 36.190278899900001 ], [ -115.1569899, 36.190265399899999 ], [ -115.156987199999989, 36.190265399899999 ], [ -115.156987199999989, 36.190257299900004 ], [ -115.1569845, 36.190257299900004 ], [ -115.1569845, 36.190254599900001 ], [ -115.1569548, 36.190254599900001 ], [ -115.1569548, 36.190251899899998 ], [ -115.1569494, 36.190251899899998 ], [ -115.1569494, 36.190219499900003 ], [ -115.1569467, 36.190219499900003 ], [ -115.1569467, 36.190189799900004 ], [ -115.1569413, 36.190189799900004 ], [ -115.1569413, 36.190187099900001 ], [ -115.1569224, 36.190187099900001 ], [ -115.1569224, 36.190184399899998 ], [ -115.156919699999989, 36.190184399899998 ], [ -115.156919699999989, 36.190181699900002 ], [ -115.156917, 36.190181699900002 ], [ -115.156917, 36.190154699899999 ], [ -115.156919699999989, 36.190154699899999 ], [ -115.156919699999989, 36.190146599900004 ], [ -115.1569224, 36.190146599900004 ], [ -115.1569224, 36.190143899900001 ], [ -115.1569359, 36.190143899900001 ], [ -115.1569359, 36.190141199900005 ], [ -115.1569521, 36.190141199900005 ], [ -115.1569521, 36.190143899900001 ], [ -115.1569926, 36.190143899900001 ], [ -115.1569926, 36.190141199900005 ], [ -115.1570871, 36.190141199900005 ], [ -115.1570871, 36.190143899900001 ], [ -115.1570898, 36.190143899900001 ], [ -115.1570898, 36.1901492999 ], [ -115.1570925, 36.1901492999 ], [ -115.1570925, 36.1902167999 ], [ -115.1570952, 36.1902167999 ], [ -115.1570952, 36.190227599899998 ], [ -115.1570979, 36.190227599899998 ], [ -115.1570979, 36.190230299900001 ], [ -115.157103299999989, 36.190230299900001 ], [ -115.157103299999989, 36.190232999900005 ], [ -115.1571384, 36.190232999900005 ], [ -115.1571384, 36.190235699900001 ], [ -115.1571411, 36.190235699900001 ], [ -115.1571411, 36.190238399900004 ], [ -115.1571438, 36.190238399900004 ], [ -115.1571438, 36.190243799900003 ], [ -115.1571519, 36.190243799900003 ], [ -115.1571519, 36.190246499899999 ], [ -115.1571573, 36.190246499899999 ], [ -115.1571573, 36.190251899899998 ], [ -115.1571546, 36.190251899899998 ], [ -115.1571546, 36.190268099900003 ], [ -115.1571519, 36.190268099900003 ], [ -115.1571519, 36.190273499900002 ], [ -115.1571492, 36.190273499900002 ], [ -115.1571492, 36.190276199899998 ], [ -115.1571465, 36.190276199899998 ], [ -115.1571465, 36.190278899900001 ], [ -115.1571357, 36.190278899900001 ], [ -115.1571357, 36.190281599900004 ] ] ] } },
{ "type": "Feature", "properties": { "value": 255.0 }, "geometry": { "type": "Polygon", "coordinates": [ [ [ -115.1570844, 36.190114199900002 ], [ -115.1569845, 36.190114199900002 ], [ -115.1569845, 36.190111499899999 ], [ -115.1569818, 36.190111499899999 ], [ -115.1569818, 36.190070999900001 ], [ -115.1569791, 36.190070999900001 ], [ -115.1569791, 36.190049399900005 ], [ -115.156917, 36.190049399900005 ], [ -115.156917, 36.190046699900002 ], [ -115.1569143, 36.190046699900002 ], [ -115.1569143, 36.189981899900005 ], [ -115.156917, 36.189981899900005 ], [ -115.156917, 36.189979199900002 ], [ -115.1569278, 36.189979199900002 ], [ -115.1569278, 36.189976499899998 ], [ -115.157079, 36.189976499899998 ], [ -115.157079, 36.189979199900002 ], [ -115.1570817, 36.189979199900002 ], [ -115.1570817, 36.189987299900004 ], [ -115.1570844, 36.189987299900004 ], [ -115.1570844, 36.190030499900004 ], [ -115.1570871, 36.190030499900004 ], [ -115.1570871, 36.190035899900003 ], [ -115.1570979, 36.190035899900003 ], [ -115.1570979, 36.190038599899999 ], [ -115.157103299999989, 36.190038599899999 ], [ -115.157103299999989, 36.190068299899998 ], [ -115.157106, 36.190068299899998 ], [ -115.157106, 36.190076399900001 ], [ -115.157103299999989, 36.190076399900001 ], [ -115.157103299999989, 36.190079099900004 ], [ -115.1570952, 36.190079099900004 ], [ -115.1570952, 36.1900817999 ], [ -115.1570871, 36.1900817999 ], [ -115.1570871, 36.190084499900003 ], [ -115.1570844, 36.190084499900003 ], [ -115.1570844, 36.190095299900001 ], [ -115.1570871, 36.190095299900001 ], [ -115.1570871, 36.190097999900004 ], [ -115.1570844, 36.190097999900004 ], [ -115.1570844, 36.190114199900002 ] ] ] } },
{ "type": "Feature", "properties": { "value": 255.0 }, "geometry": { "type": "Polygon", "coordinates": [ [ [ -115.1566416, 36.190116899900005 ], [ -115.1565876, 36.190116899900005 ], [ -115.1565876, 36.189979199900002 ], [ -115.15662, 36.189979199900002 ], [ -115.15662, 36.189976499899998 ], [ -115.1566227, 36.189976499899998 ], [ -115.1566227, 36.189979199900002 ], [ -115.1566254, 36.189979199900002 ], [ -115.1566254, 36.189976499899998 ], [ -115.1566821, 36.189976499899998 ], [ -115.1566821, 36.189981899900005 ], [ -115.1566848, 36.189981899900005 ], [ -115.1566848, 36.1900331999 ], [ -115.1566821, 36.1900331999 ], [ -115.1566821, 36.190035899900003 ], [ -115.1566632, 36.190035899900003 ], [ -115.1566632, 36.190038599899999 ], [ -115.1566578, 36.190038599899999 ], [ -115.1566578, 36.190065599900002 ], [ -115.1566551, 36.190065599900002 ], [ -115.1566551, 36.190070999900001 ], [ -115.1566524, 36.190070999900001 ], [ -115.1566524, 36.190073699900005 ], [ -115.156649699999988, 36.190073699900005 ], [ -115.156649699999988, 36.190076399900001 ], [ -115.156647, 36.190076399900001 ], [ -115.156647, 36.190079099900004 ], [ -115.1566443, 36.190079099900004 ], [ -115.1566443, 36.190114199900002 ], [ -115.1566416, 36.190114199900002 ], [ -115.1566416, 36.190116899900005 ] ] ] } },
{ "type": "Feature", "properties": { "value": 255.0 }, "geometry": { "type": "Polygon", "coordinates": [ [ [ -115.156809, 36.189998099900002 ], [ -115.1567766, 36.189998099900002 ], [ -115.1567766, 36.189995399899999 ], [ -115.1567739, 36.189995399899999 ], [ -115.1567739, 36.189968399900003 ], [ -115.1567766, 36.189968399900003 ], [ -115.1567766, 36.1899656999 ], [ -115.156809, 36.1899656999 ], [ -115.156809, 36.189971099899999 ], [ -115.1568117, 36.189971099899999 ], [ -115.1568117, 36.189995399899999 ], [ -115.156809, 36.189995399899999 ], [ -115.156809, 36.189998099900002 ] ] ] } },
{ "type": "Feature", "properties": { "value": 255.0 }, "geometry": { "type": "Polygon", "coordinates": [ [ [ -115.1577945, 36.189919799900004 ], [ -115.1576298, 36.189919799900004 ], [ -115.1576298, 36.189917099900001 ], [ -115.1576217, 36.189917099900001 ], [ -115.1576217, 36.189914399900005 ], [ -115.1576001, 36.189914399900005 ], [ -115.1576001, 36.189911699900001 ], [ -115.1575974, 36.189911699900001 ], [ -115.1575974, 36.189865799900005 ], [ -115.1576001, 36.189865799900005 ], [ -115.1576001, 36.189857699900003 ], [ -115.1576028, 36.189857699900003 ], [ -115.1576028, 36.1898549999 ], [ -115.1576055, 36.1898549999 ], [ -115.1576055, 36.1898495999 ], [ -115.1576082, 36.1898495999 ], [ -115.1576082, 36.189846899900004 ], [ -115.1576163, 36.189846899900004 ], [ -115.1576163, 36.189844199900001 ], [ -115.1576217, 36.189844199900001 ], [ -115.1576217, 36.189841499900005 ], [ -115.1576244, 36.189841499900005 ], [ -115.1576244, 36.189838799900002 ], [ -115.1576271, 36.189838799900002 ], [ -115.1576271, 36.189836099899999 ], [ -115.1577243, 36.189836099899999 ], [ -115.1577243, 36.189833399900003 ], [ -115.1577459, 36.189833399900003 ], [ -115.1577459, 36.189836099899999 ], [ -115.1577918, 36.189836099899999 ], [ -115.1577918, 36.189838799900002 ], [ -115.1577945, 36.189838799900002 ], [ -115.1577945, 36.189841499900005 ], [ -115.1577972, 36.189841499900005 ], [ -115.1577972, 36.189908999900005 ], [ -115.1577945, 36.189908999900005 ], [ -115.1577945, 36.189919799900004 ] ] ] } },
{ "type": "Feature", "properties": { "value": 255.0 }, "geometry": { "type": "Polygon", "coordinates": [ [ [ -115.1579268, 36.189927899899999 ], [ -115.1579106, 36.189927899899999 ], [ -115.1579106, 36.189925199900003 ], [ -115.1578323, 36.189925199900003 ], [ -115.1578323, 36.1899224999 ], [ -115.1578296, 36.1899224999 ], [ -115.1578296, 36.189919799900004 ], [ -115.1578269, 36.189919799900004 ], [ -115.1578269, 36.189895499900004 ], [ -115.1578296, 36.189895499900004 ], [ -115.1578296, 36.189841499900005 ], [ -115.157835, 36.189841499900005 ], [ -115.157835, 36.189838799900002 ], [ -115.1579052, 36.189838799900002 ], [ -115.1579052, 36.189841499900005 ], [ -115.1579538, 36.189841499900005 ], [ -115.1579538, 36.189844199900001 ], [ -115.15797, 36.189844199900001 ], [ -115.15797, 36.189841499900005 ], [ -115.1579916, 36.189841499900005 ], [ -115.1579916, 36.189844199900001 ], [ -115.1579943, 36.189844199900001 ], [ -115.1579943, 36.189846899900004 ], [ -115.157997, 36.189846899900004 ], [ -115.157997, 36.189892799900001 ], [ -115.1579997, 36.189892799900001 ], [ -115.1579997, 36.189906299900002 ], [ -115.157997, 36.189906299900002 ], [ -115.157997, 36.189925199900003 ], [ -115.1579268, 36.189925199900003 ], [ -115.1579268, 36.189927899899999 ] ] ] } },
{ "type": "Feature", "properties": { "value": 255.0 }, "geometry": { "type": "Polygon", "coordinates": [ [ [ -115.1570817, 36.189949499900003 ], [ -115.156944, 36.189949499900003 ], [ -115.156944, 36.1899467999 ], [ -115.1569413, 36.1899467999 ], [ -115.1569413, 36.189944099900003 ], [ -115.156938599999989, 36.189944099900003 ], [ -115.156938599999989, 36.189911699900001 ], [ -115.1569359, 36.189911699900001 ], [ -115.1569359, 36.189895499900004 ], [ -115.156938599999989, 36.189895499900004 ], [ -115.156938599999989, 36.189890099900005 ], [ -115.1569413, 36.189890099900005 ], [ -115.1569413, 36.189887399900002 ], [ -115.156944, 36.189887399900002 ], [ -115.156944, 36.189884699900006 ], [ -115.1569575, 36.189884699900006 ], [ -115.1569575, 36.189887399900002 ], [ -115.1569602, 36.189887399900002 ], [ -115.1569602, 36.189871199900004 ], [ -115.1569467, 36.189871199900004 ], [ -115.1569467, 36.1898738999 ], [ -115.1569332, 36.1898738999 ], [ -115.1569332, 36.189871199900004 ], [ -115.1569278, 36.189871199900004 ], [ -115.1569278, 36.189868499900001 ], [ -115.1569224, 36.189868499900001 ], [ -115.1569224, 36.189833399900003 ], [ -115.156919699999989, 36.189833399900003 ], [ -115.156919699999989, 36.189825299900001 ], [ -115.1569224, 36.189825299900001 ], [ -115.1569224, 36.189814499900002 ], [ -115.1569305, 36.189814499900002 ], [ -115.1569305, 36.189811799899999 ], [ -115.157079, 36.189811799899999 ], [ -115.157079, 36.189814499900002 ], [ -115.1570817, 36.189814499900002 ], [ -115.1570817, 36.189819899900002 ], [ -115.1570844, 36.189819899900002 ], [ -115.1570844, 36.189879299899999 ], [ -115.1570871, 36.189879299899999 ], [ -115.1570871, 36.189927899899999 ], [ -115.1570844, 36.189927899899999 ], [ -115.1570844, 36.1899467999 ], [ -115.1570817, 36.1899467999 ], [ -115.1570817, 36.189949499900003 ] ] ] } },
{ "type": "Feature", "properties": { "value": 255.0 }, "geometry": { "type": "Polygon", "coordinates": [ [ [ -115.1581131, 36.189933299900005 ], [ -115.1581023, 36.189933299900005 ], [ -115.1581023, 36.189930599900002 ], [ -115.1580915, 36.189930599900002 ], [ -115.1580915, 36.189927899899999 ], [ -115.1580375, 36.189927899899999 ], [ -115.1580375, 36.189925199900003 ], [ -115.1580348, 36.189925199900003 ], [ -115.1580348, 36.189919799900004 ], [ -115.1580321, 36.189919799900004 ], [ -115.1580321, 36.189903599899999 ], [ -115.1580294, 36.189903599899999 ], [ -115.1580294, 36.1898981999 ], [ -115.1580321, 36.1898981999 ], [ -115.1580321, 36.189841499900005 ], [ -115.1580294, 36.189841499900005 ], [ -115.1580294, 36.1898306999 ], [ -115.1580321, 36.1898306999 ], [ -115.1580321, 36.189822599900005 ], [ -115.1580294, 36.189822599900005 ], [ -115.1580294, 36.189814499900002 ], [ -115.1580321, 36.189814499900002 ], [ -115.1580321, 36.189811799899999 ], [ -115.1581995, 36.189811799899999 ], [ -115.1581995, 36.189814499900002 ], [ -115.1582022, 36.189814499900002 ], [ -115.1582022, 36.189925199900003 ], [ -115.1581995, 36.189925199900003 ], [ -115.1581995, 36.189927899899999 ], [ -115.1581428, 36.189927899899999 ], [ -115.1581428, 36.189930599900002 ], [ -115.1581131, 36.189930599900002 ], [ -115.1581131, 36.189933299900005 ] ] ] } },
{ "type": "Feature", "properties": { "value": 255.0 }, "geometry": { "type": "Polygon", "coordinates": [ [ [ -115.1565984, 36.189952199899999 ], [ -115.1565957, 36.189952199899999 ], [ -115.1565957, 36.189949499900003 ], [ -115.1565903, 36.189949499900003 ], [ -115.1565903, 36.189952199899999 ], [ -115.1565876, 36.189952199899999 ], [ -115.1565876, 36.189809099900003 ], [ -115.1566632, 36.189809099900003 ], [ -115.1566632, 36.189811799899999 ], [ -115.1566956, 36.189811799899999 ], [ -115.1566956, 36.1898738999 ], [ -115.156698299999988, 36.1898738999 ], [ -115.156698299999988, 36.189908999900005 ], [ -115.1566956, 36.189908999900005 ], [ -115.1566956, 36.189919799900004 ], [ -115.1566929, 36.189919799900004 ], [ -115.1566929, 36.1899224999 ], [ -115.156674, 36.1899224999 ], [ -115.156674, 36.189919799900004 ], [ -115.156647, 36.189919799900004 ], [ -115.156647, 36.1899224999 ], [ -115.1566443, 36.1899224999 ], [ -115.1566443, 36.1899467999 ], [ -115.1566416, 36.1899467999 ], [ -115.1566416, 36.189949499900003 ], [ -115.1565984, 36.189949499900003 ], [ -115.1565984, 36.189952199899999 ] ] ] } },
{ "type": "Feature", "properties": { "value": 255.0 }, "geometry": { "type": "Polygon", "coordinates": [ [ [ -115.1568765, 36.189863099900002 ], [ -115.1568738, 36.189863099900002 ], [ -115.1568738, 36.189860399899999 ], [ -115.156836, 36.189860399899999 ], [ -115.156836, 36.189857699900003 ], [ -115.156833299999988, 36.189857699900003 ], [ -115.156833299999988, 36.1898549999 ], [ -115.1568306, 36.1898549999 ], [ -115.1568306, 36.189811799899999 ], [ -115.1568549, 36.189811799899999 ], [ -115.1568549, 36.189809099900003 ], [ -115.156871099999989, 36.189809099900003 ], [ -115.156871099999989, 36.189811799899999 ], [ -115.1568765, 36.189811799899999 ], [ -115.1568765, 36.189814499900002 ], [ -115.1568792, 36.189814499900002 ], [ -115.1568792, 36.189825299900001 ], [ -115.1568819, 36.189825299900001 ], [ -115.1568819, 36.189857699900003 ], [ -115.1568792, 36.189857699900003 ], [ -115.1568792, 36.189860399899999 ], [ -115.1568765, 36.189860399899999 ], [ -115.1568765, 36.189863099900002 ] ] ] } },
{ "type": "Feature", "properties": { "value": 255.0 }, "geometry": { "type": "Polygon", "coordinates": [ [ [ -115.1583426, 36.189930599900002 ], [ -115.1582967, 36.189930599900002 ], [ -115.1582967, 36.189927899899999 ], [ -115.1582778, 36.189927899899999 ], [ -115.1582778, 36.189930599900002 ], [ -115.1582697, 36.189930599900002 ], [ -115.1582697, 36.189927899899999 ], [ -115.1582562, 36.189927899899999 ], [ -115.1582562, 36.189930599900002 ], [ -115.15824, 36.189930599900002 ], [ -115.15824, 36.189927899899999 ], [ -115.1582373, 36.189927899899999 ], [ -115.1582373, 36.189925199900003 ], [ -115.1582346, 36.189925199900003 ], [ -115.1582346, 36.189895499900004 ], [ -115.1582319, 36.189895499900004 ], [ -115.1582319, 36.189857699900003 ], [ -115.1582346, 36.189857699900003 ], [ -115.1582346, 36.189841499900005 ], [ -115.1582535, 36.189841499900005 ], [ -115.1582535, 36.189838799900002 ], [ -115.1582562, 36.189838799900002 ], [ -115.1582562, 36.189836099899999 ], [ -115.1582616, 36.189836099899999 ], [ -115.1582616, 36.189827999900004 ], [ -115.1582643, 36.189827999900004 ], [ -115.1582643, 36.189822599900005 ], [ -115.1582616, 36.189822599900005 ], [ -115.1582616, 36.189819899900002 ], [ -115.1582643, 36.189819899900002 ], [ -115.1582643, 36.189814499900002 ], [ -115.1582913, 36.189814499900002 ], [ -115.1582913, 36.189817199900006 ], [ -115.158294, 36.189817199900006 ], [ -115.158294, 36.189819899900002 ], [ -115.1582994, 36.189819899900002 ], [ -115.1582994, 36.189822599900005 ], [ -115.1583075, 36.189822599900005 ], [ -115.1583075, 36.1898306999 ], [ -115.1583048, 36.1898306999 ], [ -115.1583048, 36.189833399900003 ], [ -115.1582994, 36.189833399900003 ], [ -115.1582994, 36.189836099899999 ], [ -115.1583021, 36.189836099899999 ], [ -115.1583021, 36.189838799900002 ], [ -115.1583075, 36.189838799900002 ], [ -115.1583075, 36.189841499900005 ], [ -115.1583129, 36.189841499900005 ], [ -115.1583129, 36.189844199900001 ], [ -115.1583237, 36.189844199900001 ], [ -115.1583237, 36.189841499900005 ], [ -115.1583291, 36.189841499900005 ], [ -115.1583291, 36.189844199900001 ], [ -115.1583426, 36.189844199900001 ], [ -115.1583426, 36.189930599900002 ] ] ] } },
{ "type": "Feature", "properties": { "value": 255.0 }, "geometry": { "type": "Polygon", "coordinates": [ [ [ -115.1568009, 36.1898306999 ], [ -115.1567928, 36.1898306999 ], [ -115.1567928, 36.189827999900004 ], [ -115.1567739, 36.189827999900004 ], [ -115.1567739, 36.189825299900001 ], [ -115.1567712, 36.189825299900001 ], [ -115.1567712, 36.189814499900002 ], [ -115.1567739, 36.189814499900002 ], [ -115.1567739, 36.189809099900003 ], [ -115.1567766, 36.189809099900003 ], [ -115.1567766, 36.1898063999 ], [ -115.156809, 36.1898063999 ], [ -115.156809, 36.189811799899999 ], [ -115.1568117, 36.189811799899999 ], [ -115.1568117, 36.189822599900005 ], [ -115.156809, 36.189822599900005 ], [ -115.156809, 36.189827999900004 ], [ -115.1568009, 36.189827999900004 ], [ -115.1568009, 36.1898306999 ] ] ] } },
{ "type": "Feature", "properties": { "value": 255.0 }, "geometry": { "type": "Polygon", "coordinates": [ [ [ -115.1574462, 36.189925199900003 ], [ -115.1574246, 36.189925199900003 ], [ -115.1574246, 36.1899224999 ], [ -115.1574219, 36.1899224999 ], [ -115.1574219, 36.189917099900001 ], [ -115.1574192, 36.189917099900001 ], [ -115.1574192, 36.1898981999 ], [ -115.1574219, 36.1898981999 ], [ -115.1574219, 36.189892799900001 ], [ -115.1574192, 36.189892799900001 ], [ -115.1574192, 36.189887399900002 ], [ -115.1574219, 36.189887399900002 ], [ -115.1574219, 36.189884699900006 ], [ -115.1574192, 36.189884699900006 ], [ -115.1574192, 36.189857699900003 ], [ -115.1574165, 36.189857699900003 ], [ -115.1574165, 36.189844199900001 ], [ -115.1574192, 36.189844199900001 ], [ -115.1574192, 36.1897874999 ], [ -115.1574219, 36.1897874999 ], [ -115.1574219, 36.189784799900004 ], [ -115.1575218, 36.189784799900004 ], [ -115.1575218, 36.189790199900003 ], [ -115.1575245, 36.189790199900003 ], [ -115.1575245, 36.1898738999 ], [ -115.1575218, 36.1898738999 ], [ -115.1575218, 36.189881999900003 ], [ -115.1575245, 36.189881999900003 ], [ -115.1575245, 36.189919799900004 ], [ -115.1575218, 36.189919799900004 ], [ -115.1575218, 36.1899224999 ], [ -115.1574462, 36.1899224999 ], [ -115.1574462, 36.189925199900003 ] ] ] } },
{ "type": "Feature", "properties": { "value": 255.0 }, "geometry": { "type": "Polygon", "coordinates": [ [ [ -115.1576352, 36.189814499900002 ], [ -115.1576109, 36.189814499900002 ], [ -115.1576109, 36.189811799899999 ], [ -115.1576082, 36.189811799899999 ], [ -115.1576082, 36.189809099900003 ], [ -115.1576055, 36.189809099900003 ], [ -115.1576055, 36.189792899900006 ], [ -115.1576082, 36.189792899900006 ], [ -115.1576082, 36.1897874999 ], [ -115.1576244, 36.1897874999 ], [ -115.1576244, 36.189784799900004 ], [ -115.1576325, 36.189784799900004 ], [ -115.1576325, 36.1897874999 ], [ -115.1576379, 36.1897874999 ], [ -115.1576379, 36.189790199900003 ], [ -115.1576406, 36.189790199900003 ], [ -115.1576406, 36.189811799899999 ], [ -115.1576352, 36.189811799899999 ], [ -115.1576352, 36.189814499900002 ] ] ] } },
{ "type": "Feature", "properties": { "value": 255.0 }, "geometry": { "type": "Polygon", "coordinates": [ [ [ -115.1569521, 36.189784799900004 ], [ -115.1569143, 36.189784799900004 ], [ -115.1569143, 36.1897820999 ], [ -115.1569116, 36.1897820999 ], [ -115.1569116, 36.189779399900004 ], [ -115.1569089, 36.189779399900004 ], [ -115.1569089, 36.189741599900003 ], [ -115.1569116, 36.189741599900003 ], [ -115.1569116, 36.1897388999 ], [ -115.1569251, 36.1897388999 ], [ -115.1569251, 36.189736199900004 ], [ -115.1569332, 36.189736199900004 ], [ -115.1569332, 36.189733499900001 ], [ -115.156938599999989, 36.189733499900001 ], [ -115.156938599999989, 36.189730799900005 ], [ -115.1569359, 36.189730799900005 ], [ -115.1569359, 36.189725399900006 ], [ -115.156938599999989, 36.189725399900006 ], [ -115.156938599999989, 36.189722699900003 ], [ -115.1570952, 36.189722699900003 ], [ -115.1570952, 36.189725399900006 ], [ -115.1570979, 36.189725399900006 ], [ -115.1570979, 36.189728099900002 ], [ -115.1571006, 36.189728099900002 ], [ -115.1571006, 36.189730799900005 ], [ -115.157103299999989, 36.189730799900005 ], [ -115.157103299999989, 36.189733499900001 ], [ -115.1571573, 36.189733499900001 ], [ -115.1571573, 36.189736199900004 ], [ -115.1571627, 36.189736199900004 ], [ -115.1571627, 36.1897388999 ], [ -115.1571654, 36.1897388999 ], [ -115.1571654, 36.189752399900001 ], [ -115.1571627, 36.189752399900001 ], [ -115.1571627, 36.1897820999 ], [ -115.1569521, 36.1897820999 ], [ -115.1569521, 36.189784799900004 ] ] ] } },
{ "type": "Feature", "properties": { "value": 255.0 }, "geometry": { "type": "Polygon", "coordinates": [ [ [ -115.1575029, 36.189736199900004 ], [ -115.1574894, 36.189736199900004 ], [ -115.1574894, 36.189733499900001 ], [ -115.157484, 36.189733499900001 ], [ -115.157484, 36.189728099900002 ], [ -115.1574813, 36.189728099900002 ], [ -115.1574813, 36.189722699900003 ], [ -115.1575812, 36.189722699900003 ], [ -115.1575812, 36.189725399900006 ], [ -115.1575785, 36.189725399900006 ], [ -115.1575785, 36.189728099900002 ], [ -115.1575704, 36.189728099900002 ], [ -115.1575704, 36.189730799900005 ], [ -115.1575272, 36.189730799900005 ], [ -115.1575272, 36.189733499900001 ], [ -115.1575029, 36.189733499900001 ], [ -115.1575029, 36.189736199900004 ] ] ] } },
{ "type": "Feature", "properties": { "value": 255.0 }, "geometry": { "type": "Polygon", "coordinates": [ [ [ -115.1566416, 36.1897820999 ], [ -115.1565876, 36.1897820999 ], [ -115.1565876, 36.189722699900003 ], [ -115.1566578, 36.189722699900003 ], [ -115.1566578, 36.189725399900006 ], [ -115.156649699999988, 36.189725399900006 ], [ -115.156649699999988, 36.189728099900002 ], [ -115.1566524, 36.189728099900002 ], [ -115.1566524, 36.189730799900005 ], [ -115.156649699999988, 36.189730799900005 ], [ -115.156649699999988, 36.189733499900001 ], [ -115.156647, 36.189733499900001 ], [ -115.156647, 36.1897388999 ], [ -115.1566443, 36.1897388999 ], [ -115.1566443, 36.189779399900004 ], [ -115.1566416, 36.189779399900004 ], [ -115.1566416, 36.1897820999 ] ] ] } }
]
}
