{
"type": "FeatureCollection",
"crs": { "type": "name", "properties": { "name": "urn:ogc:def:crs:OGC:1.3:CRS84" } },
"features": [
{ "type": "Feature", "properties": { "value": 255.0 }, "geometry": { "type": "Polygon", "coordinates": [ [ [ -115.2673362, 36.216047699900002 ], [ -115.2671526, 36.216047699900002 ], [ -115.2671526, 36.216007199900005 ], [ -115.2671553, 36.216007199900005 ], [ -115.2671553, 36.2160152999 ], [ -115.267158, 36.2160152999 ], [ -115.267158, 36.216012599900004 ], [ -115.2671715, 36.216012599900004 ], [ -115.2671715, 36.216009899900001 ], [ -115.2671742, 36.216009899900001 ], [ -115.2671742, 36.216007199900005 ], [ -115.2671823, 36.216007199900005 ], [ -115.2671823, 36.216004499900002 ], [ -115.267185, 36.216004499900002 ], [ -115.267185, 36.216001799899999 ], [ -115.2671877, 36.216001799899999 ], [ -115.2671877, 36.215999099900003 ], [ -115.2671904, 36.215999099900003 ], [ -115.2671904, 36.2159963999 ], [ -115.2671931, 36.2159963999 ], [ -115.2671931, 36.215993699900004 ], [ -115.2671904, 36.215993699900004 ], [ -115.2671904, 36.215990999900001 ], [ -115.267185, 36.215990999900001 ], [ -115.267185, 36.215988299900005 ], [ -115.2671823, 36.215988299900005 ], [ -115.2671823, 36.215985599900002 ], [ -115.2671796, 36.215985599900002 ], [ -115.2671796, 36.215977499899999 ], [ -115.2671823, 36.215977499899999 ], [ -115.2671823, 36.215974799900003 ], [ -115.267185, 36.215974799900003 ], [ -115.267185, 36.215969399900004 ], [ -115.2671877, 36.215969399900004 ], [ -115.2671877, 36.215966699900001 ], [ -115.2671904, 36.215966699900001 ], [ -115.2671904, 36.215963999900005 ], [ -115.2671931, 36.215963999900005 ], [ -115.2671931, 36.2159531999 ], [ -115.2671958, 36.2159531999 ], [ -115.2671958, 36.215950499900003 ], [ -115.2671985, 36.215950499900003 ], [ -115.2671985, 36.215945099900004 ], [ -115.2672012, 36.215945099900004 ], [ -115.2672012, 36.215942399900001 ], [ -115.2672039, 36.215942399900001 ], [ -115.2672039, 36.215939699900005 ], [ -115.2672066, 36.215939699900005 ], [ -115.2672066, 36.215936999900002 ], [ -115.2672093, 36.215936999900002 ], [ -115.2672093, 36.215934299899999 ], [ -115.2672147, 36.215934299899999 ], [ -115.2672147, 36.215931599900003 ], [ -115.2672282, 36.215931599900003 ], [ -115.2672282, 36.215934299899999 ], [ -115.2672336, 36.215934299899999 ], [ -115.2672336, 36.215936999900002 ], [ -115.267239, 36.215936999900002 ], [ -115.267239, 36.215939699900005 ], [ -115.2672417, 36.215939699900005 ], [ -115.2672417, 36.215942399900001 ], [ -115.2672471, 36.215942399900001 ], [ -115.2672471, 36.215945099900004 ], [ -115.2672498, 36.215945099900004 ], [ -115.2672498, 36.2159477999 ], [ -115.2672552, 36.2159477999 ], [ -115.2672552, 36.215950499900003 ], [ -115.2672606, 36.215950499900003 ], [ -115.2672606, 36.2159531999 ], [ -115.267266, 36.2159531999 ], [ -115.267266, 36.215955899900003 ], [ -115.2672714, 36.215955899900003 ], [ -115.2672714, 36.215958599900006 ], [ -115.2672768, 36.215958599900006 ], [ -115.2672768, 36.215961299900002 ], [ -115.2672822, 36.215961299900002 ], [ -115.2672822, 36.215963999900005 ], [ -115.2672849, 36.215963999900005 ], [ -115.2672849, 36.215966699900001 ], [ -115.2672903, 36.215966699900001 ], [ -115.2672903, 36.215969399900004 ], [ -115.267293, 36.215969399900004 ], [ -115.267293, 36.2159720999 ], [ -115.2672957, 36.2159720999 ], [ -115.2672957, 36.215974799900003 ], [ -115.2673011, 36.215974799900003 ], [ -115.2673011, 36.215977499899999 ], [ -115.2673038, 36.215977499899999 ], [ -115.2673038, 36.215980199900002 ], [ -115.2673092, 36.215980199900002 ], [ -115.2673092, 36.215982899900006 ], [ -115.26731190000001, 36.215982899900006 ], [ -115.26731190000001, 36.215985599900002 ], [ -115.2673146, 36.215985599900002 ], [ -115.2673146, 36.2159963999 ], [ -115.26731190000001, 36.2159963999 ], [ -115.26731190000001, 36.216007199900005 ], [ -115.2673092, 36.216007199900005 ], [ -115.2673092, 36.216012599900004 ], [ -115.2673065, 36.216012599900004 ], [ -115.2673065, 36.216017999900004 ], [ -115.26731190000001, 36.216017999900004 ], [ -115.26731190000001, 36.2160206999 ], [ -115.2673146, 36.2160206999 ], [ -115.2673146, 36.216023399900003 ], [ -115.2673173, 36.216023399900003 ], [ -115.2673173, 36.216026099900006 ], [ -115.26732, 36.216026099900006 ], [ -115.26732, 36.216028799900002 ], [ -115.2673227, 36.216028799900002 ], [ -115.2673227, 36.216031499900005 ], [ -115.2673254, 36.216031499900005 ], [ -115.2673254, 36.216034199900001 ], [ -115.2673281, 36.216034199900001 ], [ -115.2673281, 36.216036899900004 ], [ -115.2673308, 36.216036899900004 ], [ -115.2673308, 36.2160395999 ], [ -115.2673362, 36.2160395999 ], [ -115.2673362, 36.216047699900002 ] ] ] } },
{ "type": "Feature", "properties": { "value": 255.0 }, "geometry": { "type": "Polygon", "coordinates": [ [ [ -115.2685836, 36.215977499899999 ], [ -115.2685593, 36.215977499899999 ], [ -115.2685593, 36.215966699900001 ], [ -115.268556600000011, 36.215966699900001 ], [ -115.268556600000011, 36.215963999900005 ], [ -115.2685539, 36.215963999900005 ], [ -115.2685539, 36.215961299900002 ], [ -115.268556600000011, 36.215961299900002 ], [ -115.268556600000011, 36.215958599900006 ], [ -115.268562, 36.215958599900006 ], [ -115.268562, 36.215945099900004 ], [ -115.2685647, 36.215945099900004 ], [ -115.2685647, 36.215942399900001 ], [ -115.2685674, 36.215942399900001 ], [ -115.2685674, 36.215939699900005 ], [ -115.2685701, 36.215939699900005 ], [ -115.2685701, 36.215936999900002 ], [ -115.2685836, 36.215936999900002 ], [ -115.2685836, 36.215939699900005 ], [ -115.26858630000001, 36.215939699900005 ], [ -115.26858630000001, 36.215974799900003 ], [ -115.2685836, 36.215974799900003 ], [ -115.2685836, 36.215977499899999 ] ] ] } },
{ "type": "Feature", "properties": { "value": 255.0 }, "geometry": { "type": "Polygon", "coordinates": [ [ [ -115.2687456, 36.216047699900002 ], [ -115.2686754, 36.216047699900002 ], [ -115.2686754, 36.216034199900001 ], [ -115.26867270000001, 36.216034199900001 ], [ -115.26867270000001, 36.216028799900002 ], [ -115.26867, 36.216028799900002 ], [ -115.26867, 36.216026099900006 ], [ -115.2686592, 36.216026099900006 ], [ -115.2686592, 36.216023399900003 ], [ -115.2686403, 36.216023399900003 ], [ -115.2686403, 36.216017999900004 ], [ -115.2686376, 36.216017999900004 ], [ -115.2686376, 36.215999099900003 ], [ -115.2686403, 36.215999099900003 ], [ -115.2686403, 36.215990999900001 ], [ -115.2686376, 36.215990999900001 ], [ -115.2686376, 36.215985599900002 ], [ -115.268624100000011, 36.215985599900002 ], [ -115.268624100000011, 36.215982899900006 ], [ -115.2686187, 36.215982899900006 ], [ -115.2686187, 36.215980199900002 ], [ -115.268616, 36.215980199900002 ], [ -115.268616, 36.215977499899999 ], [ -115.2686133, 36.215977499899999 ], [ -115.2686133, 36.215958599900006 ], [ -115.2686106, 36.215958599900006 ], [ -115.2686106, 36.2159477999 ], [ -115.2686133, 36.2159477999 ], [ -115.2686133, 36.215936999900002 ], [ -115.268616, 36.215936999900002 ], [ -115.268616, 36.215931599900003 ], [ -115.2686187, 36.215931599900003 ], [ -115.2686187, 36.215920799900005 ], [ -115.2686403, 36.215920799900005 ], [ -115.2686403, 36.215918099900001 ], [ -115.2686592, 36.215918099900001 ], [ -115.2686592, 36.215920799900005 ], [ -115.268661900000012, 36.215920799900005 ], [ -115.268661900000012, 36.215918099900001 ], [ -115.2686673, 36.215918099900001 ], [ -115.2686673, 36.215920799900005 ], [ -115.2686889, 36.215920799900005 ], [ -115.2686889, 36.215918099900001 ], [ -115.268710500000012, 36.215918099900001 ], [ -115.268710500000012, 36.215920799900005 ], [ -115.2687267, 36.215920799900005 ], [ -115.2687267, 36.215918099900001 ], [ -115.2687375, 36.215918099900001 ], [ -115.2687375, 36.215915399900005 ], [ -115.2687429, 36.215915399900005 ], [ -115.2687429, 36.215912699900002 ], [ -115.268751, 36.215912699900002 ], [ -115.268751, 36.215909999899999 ], [ -115.2687645, 36.215909999899999 ], [ -115.2687645, 36.215907299900003 ], [ -115.26878880000001, 36.215907299900003 ], [ -115.26878880000001, 36.2159045999 ], [ -115.268807700000011, 36.2159045999 ], [ -115.268807700000011, 36.215950499900003 ], [ -115.2688104, 36.215950499900003 ], [ -115.2688104, 36.215963999900005 ], [ -115.268807700000011, 36.215963999900005 ], [ -115.268807700000011, 36.2159720999 ], [ -115.268805, 36.2159720999 ], [ -115.268805, 36.215985599900002 ], [ -115.2688023, 36.215985599900002 ], [ -115.2688023, 36.215993699900004 ], [ -115.2687996, 36.215993699900004 ], [ -115.2687996, 36.2159963999 ], [ -115.2687942, 36.2159963999 ], [ -115.2687942, 36.215999099900003 ], [ -115.2687807, 36.215999099900003 ], [ -115.2687807, 36.2159963999 ], [ -115.2687645, 36.2159963999 ], [ -115.2687645, 36.215999099900003 ], [ -115.268751, 36.215999099900003 ], [ -115.268751, 36.216001799899999 ], [ -115.2687483, 36.216001799899999 ], [ -115.2687483, 36.216031499900005 ], [ -115.2687456, 36.216031499900005 ], [ -115.2687456, 36.216047699900002 ] ] ] } },
{ "type": "Feature", "properties": { "value": 255.0 }, "geometry": { "type": "Polygon", "coordinates": [ [ [ -115.2680058, 36.2160152999 ], [ -115.2680031, 36.2160152999 ], [ -115.2680031, 36.216012599900004 ], [ -115.2678951, 36.216012599900004 ], [ -115.2678951, 36.216009899900001 ], [ -115.2678627, 36.216009899900001 ], [ -115.2678627, 36.216007199900005 ], [ -115.2678546, 36.216007199900005 ], [ -115.2678546, 36.215999099900003 ], [ -115.267851900000011, 36.215999099900003 ], [ -115.267851900000011, 36.2159720999 ], [ -115.2678546, 36.2159720999 ], [ -115.2678546, 36.215966699900001 ], [ -115.2678573, 36.215966699900001 ], [ -115.2678573, 36.215963999900005 ], [ -115.2678924, 36.215963999900005 ], [ -115.2678924, 36.215961299900002 ], [ -115.2678951, 36.215961299900002 ], [ -115.2678951, 36.215950499900003 ], [ -115.2678897, 36.215950499900003 ], [ -115.2678897, 36.2159477999 ], [ -115.2678843, 36.2159477999 ], [ -115.2678843, 36.215945099900004 ], [ -115.2678411, 36.215945099900004 ], [ -115.2678411, 36.215942399900001 ], [ -115.267833, 36.215942399900001 ], [ -115.267833, 36.215934299899999 ], [ -115.2678303, 36.215934299899999 ], [ -115.2678303, 36.215931599900003 ], [ -115.267833, 36.215931599900003 ], [ -115.267833, 36.215912699900002 ], [ -115.2678357, 36.215912699900002 ], [ -115.2678357, 36.215882999900003 ], [ -115.2678384, 36.215882999900003 ], [ -115.2678384, 36.2158613999 ], [ -115.2678411, 36.2158613999 ], [ -115.2678411, 36.215858699900004 ], [ -115.2678762, 36.215858699900004 ], [ -115.2678762, 36.2158559999 ], [ -115.267887, 36.2158559999 ], [ -115.267887, 36.215858699900004 ], [ -115.2679113, 36.215858699900004 ], [ -115.2679113, 36.2158613999 ], [ -115.2679437, 36.2158613999 ], [ -115.2679437, 36.215864099900003 ], [ -115.267968, 36.215864099900003 ], [ -115.267968, 36.215866799899999 ], [ -115.2679923, 36.215866799899999 ], [ -115.2679923, 36.215869499900002 ], [ -115.268035500000011, 36.215869499900002 ], [ -115.268035500000011, 36.215872199900005 ], [ -115.2680463, 36.215872199900005 ], [ -115.2680463, 36.215874899900001 ], [ -115.268049, 36.215874899900001 ], [ -115.268049, 36.215872199900005 ], [ -115.2680571, 36.215872199900005 ], [ -115.2680571, 36.2158613999 ], [ -115.2680679, 36.2158613999 ], [ -115.2680679, 36.215866799899999 ], [ -115.2680706, 36.215866799899999 ], [ -115.2680706, 36.215869499900002 ], [ -115.268076, 36.215869499900002 ], [ -115.268076, 36.215866799899999 ], [ -115.2680868, 36.215866799899999 ], [ -115.2680868, 36.215864099900003 ], [ -115.2680976, 36.215864099900003 ], [ -115.2680976, 36.215866799899999 ], [ -115.2681057, 36.215866799899999 ], [ -115.2681057, 36.215874899900001 ], [ -115.2681111, 36.215874899900001 ], [ -115.2681111, 36.215877599900004 ], [ -115.2681138, 36.215877599900004 ], [ -115.2681138, 36.2158802999 ], [ -115.2681111, 36.2158802999 ], [ -115.2681111, 36.215882999900003 ], [ -115.2681084, 36.215882999900003 ], [ -115.2681084, 36.215885699899999 ], [ -115.2680922, 36.215885699899999 ], [ -115.2680922, 36.215882999900003 ], [ -115.2680787, 36.215882999900003 ], [ -115.2680787, 36.2159045999 ], [ -115.268076, 36.2159045999 ], [ -115.268076, 36.215909999899999 ], [ -115.2680733, 36.215909999899999 ], [ -115.2680733, 36.215915399900005 ], [ -115.2680706, 36.215915399900005 ], [ -115.2680706, 36.215923499900001 ], [ -115.2680679, 36.215923499900001 ], [ -115.2680679, 36.2159288999 ], [ -115.2680652, 36.2159288999 ], [ -115.2680652, 36.215945099900004 ], [ -115.2680625, 36.215945099900004 ], [ -115.2680625, 36.215950499900003 ], [ -115.2680598, 36.215950499900003 ], [ -115.2680598, 36.2159531999 ], [ -115.268054400000011, 36.2159531999 ], [ -115.268054400000011, 36.215955899900003 ], [ -115.2680517, 36.215955899900003 ], [ -115.2680517, 36.215999099900003 ], [ -115.268049, 36.215999099900003 ], [ -115.268049, 36.216009899900001 ], [ -115.2680463, 36.216009899900001 ], [ -115.2680463, 36.216012599900004 ], [ -115.2680058, 36.216012599900004 ], [ -115.2680058, 36.2160152999 ] ] ] } },
{ "type": "Feature", "properties": { "value": 255.0 }, "geometry": { "type": "Polygon", "coordinates": [ [ [ -115.268778, 36.215888399900003 ], [ -115.2687753, 36.215888399900003 ], [ -115.2687753, 36.215885699899999 ], [ -115.2686997, 36.215885699899999 ], [ -115.2686997, 36.215882999900003 ], [ -115.2686943, 36.215882999900003 ], [ -115.2686943, 36.2158802999 ], [ -115.268691600000011, 36.2158802999 ], [ -115.268691600000011, 36.215877599900004 ], [ -115.2686835, 36.215877599900004 ], [ -115.2686835, 36.215874899900001 ], [ -115.2686565, 36.215874899900001 ], [ -115.2686565, 36.215872199900005 ], [ -115.26865380000001, 36.215872199900005 ], [ -115.26865380000001, 36.215869499900002 ], [ -115.2686511, 36.215869499900002 ], [ -115.2686511, 36.2158559999 ], [ -115.26865380000001, 36.2158559999 ], [ -115.26865380000001, 36.215845199900002 ], [ -115.2686511, 36.215845199900002 ], [ -115.2686511, 36.215839799900003 ], [ -115.2686484, 36.215839799900003 ], [ -115.2686484, 36.2158370999 ], [ -115.268643, 36.2158370999 ], [ -115.268643, 36.215834399900004 ], [ -115.2686403, 36.215834399900004 ], [ -115.2686403, 36.215831699900001 ], [ -115.2686376, 36.215831699900001 ], [ -115.2686376, 36.215826299900002 ], [ -115.2686349, 36.215826299900002 ], [ -115.2686349, 36.215818199899999 ], [ -115.2686322, 36.215818199899999 ], [ -115.2686322, 36.215774999899999 ], [ -115.2686295, 36.215774999899999 ], [ -115.2686295, 36.215761499900005 ], [ -115.2686268, 36.215761499900005 ], [ -115.2686268, 36.215756099900005 ], [ -115.2686295, 36.215756099900005 ], [ -115.2686295, 36.215753399900002 ], [ -115.2686322, 36.215753399900002 ], [ -115.2686322, 36.215756099900005 ], [ -115.268643, 36.215756099900005 ], [ -115.268643, 36.215753399900002 ], [ -115.2686754, 36.215753399900002 ], [ -115.2686754, 36.215750699899999 ], [ -115.2686862, 36.215750699899999 ], [ -115.2686862, 36.215753399900002 ], [ -115.268729400000012, 36.215753399900002 ], [ -115.268729400000012, 36.215750699899999 ], [ -115.268751, 36.215750699899999 ], [ -115.268751, 36.215747999900003 ], [ -115.2687564, 36.215747999900003 ], [ -115.2687564, 36.215742599900004 ], [ -115.268759100000011, 36.215742599900004 ], [ -115.268759100000011, 36.215739899900001 ], [ -115.2687699, 36.215739899900001 ], [ -115.2687699, 36.215737199900005 ], [ -115.268778, 36.215737199900005 ], [ -115.268778, 36.215739899900001 ], [ -115.2687807, 36.215739899900001 ], [ -115.2687807, 36.215737199900005 ], [ -115.2687861, 36.215737199900005 ], [ -115.2687861, 36.215739899900001 ], [ -115.268832, 36.215739899900001 ], [ -115.268832, 36.215742599900004 ], [ -115.2688347, 36.215742599900004 ], [ -115.2688347, 36.2157695999 ], [ -115.26883740000001, 36.2157695999 ], [ -115.26883740000001, 36.215777699900002 ], [ -115.2688347, 36.215777699900002 ], [ -115.2688347, 36.215780399900005 ], [ -115.26883740000001, 36.215780399900005 ], [ -115.26883740000001, 36.215801999900002 ], [ -115.2688347, 36.215801999900002 ], [ -115.2688347, 36.2158127999 ], [ -115.2688185, 36.2158127999 ], [ -115.2688185, 36.215810099900004 ], [ -115.2687861, 36.215810099900004 ], [ -115.2687861, 36.215815499900003 ], [ -115.2687834, 36.215815499900003 ], [ -115.2687834, 36.215882999900003 ], [ -115.2687807, 36.215882999900003 ], [ -115.2687807, 36.215885699899999 ], [ -115.268778, 36.215885699899999 ], [ -115.268778, 36.215888399900003 ] ] ] } },
{ "type": "Feature", "properties": { "value": 255.0 }, "geometry": { "type": "Polygon", "coordinates": [ [ [ -115.2680328, 36.215847899900005 ], [ -115.267986900000011, 36.215847899900005 ], [ -115.267986900000011, 36.215845199900002 ], [ -115.2679788, 36.215845199900002 ], [ -115.2679788, 36.215842499899999 ], [ -115.2679707, 36.215842499899999 ], [ -115.2679707, 36.215839799900003 ], [ -115.267968, 36.215839799900003 ], [ -115.267968, 36.2158370999 ], [ -115.2679653, 36.2158370999 ], [ -115.2679653, 36.215834399900004 ], [ -115.2679626, 36.215834399900004 ], [ -115.2679626, 36.215831699900001 ], [ -115.2679572, 36.215831699900001 ], [ -115.2679572, 36.215828999900005 ], [ -115.2679383, 36.215828999900005 ], [ -115.2679383, 36.215804699900005 ], [ -115.2679356, 36.215804699900005 ], [ -115.2679356, 36.215799299899999 ], [ -115.2679329, 36.215799299899999 ], [ -115.2679329, 36.215796599900003 ], [ -115.2679221, 36.215796599900003 ], [ -115.2679221, 36.2157938999 ], [ -115.267914, 36.2157938999 ], [ -115.267914, 36.215791199900004 ], [ -115.2679086, 36.215791199900004 ], [ -115.2679086, 36.2157884999 ], [ -115.2678978, 36.2157884999 ], [ -115.2678978, 36.215785799900004 ], [ -115.2678951, 36.215785799900004 ], [ -115.2678951, 36.215783099900001 ], [ -115.2678924, 36.215783099900001 ], [ -115.2678924, 36.215777699900002 ], [ -115.2678897, 36.215777699900002 ], [ -115.2678897, 36.2157695999 ], [ -115.267887, 36.2157695999 ], [ -115.267887, 36.215753399900002 ], [ -115.2678897, 36.215753399900002 ], [ -115.2678897, 36.2157452999 ], [ -115.2678924, 36.2157452999 ], [ -115.2678924, 36.215742599900004 ], [ -115.2678951, 36.215742599900004 ], [ -115.2678951, 36.215739899900001 ], [ -115.2678978, 36.215739899900001 ], [ -115.2678978, 36.215737199900005 ], [ -115.26790050000001, 36.215737199900005 ], [ -115.26790050000001, 36.215696699900001 ], [ -115.2679032, 36.215696699900001 ], [ -115.2679032, 36.215693999900004 ], [ -115.2679113, 36.215693999900004 ], [ -115.2679113, 36.215696699900001 ], [ -115.2679329, 36.215696699900001 ], [ -115.2679329, 36.215699399900004 ], [ -115.2679356, 36.215699399900004 ], [ -115.2679356, 36.2157020999 ], [ -115.2679599, 36.2157020999 ], [ -115.2679599, 36.215704799900003 ], [ -115.2679761, 36.215704799900003 ], [ -115.2679761, 36.2157020999 ], [ -115.2680274, 36.2157020999 ], [ -115.2680274, 36.215699399900004 ], [ -115.2680571, 36.215699399900004 ], [ -115.2680571, 36.2157020999 ], [ -115.2680652, 36.2157020999 ], [ -115.2680652, 36.215704799900003 ], [ -115.268076, 36.215704799900003 ], [ -115.268076, 36.215707499899999 ], [ -115.2680814, 36.215707499899999 ], [ -115.2680814, 36.215710199900002 ], [ -115.26808410000001, 36.215710199900002 ], [ -115.26808410000001, 36.215718299900004 ], [ -115.2680868, 36.215718299900004 ], [ -115.2680868, 36.215796599900003 ], [ -115.26808410000001, 36.215796599900003 ], [ -115.26808410000001, 36.215828999900005 ], [ -115.2680814, 36.215828999900005 ], [ -115.2680814, 36.215831699900001 ], [ -115.268054400000011, 36.215831699900001 ], [ -115.268054400000011, 36.215834399900004 ], [ -115.268049, 36.215834399900004 ], [ -115.268049, 36.215839799900003 ], [ -115.2680463, 36.215839799900003 ], [ -115.2680463, 36.215842499899999 ], [ -115.2680436, 36.215842499899999 ], [ -115.2680436, 36.215845199900002 ], [ -115.2680328, 36.215845199900002 ], [ -115.2680328, 36.215847899900005 ] ] ] } },
{ "type": "Feature", "properties": { "value": 255.0 }, "geometry": { "type": "Polygon", "coordinates": [ [ [ -115.26883740000001, 36.215715599900001 ], [ -115.2686025, 36.215715599900001 ], [ -115.2686025, 36.215712899900005 ], [ -115.268594400000012, 36.215712899900005 ], [ -115.268594400000012, 36.215704799900003 ], [ -115.2685917, 36.215704799900003 ], [ -115.2685917, 36.215680499900003 ], [ -115.268589, 36.215680499900003 ], [ -115.268589, 36.2156777999 ], [ -115.2685917, 36.2156777999 ], [ -115.2685917, 36.215675099900004 ], [ -115.2685998, 36.215675099900004 ], [ -115.2685998, 36.215672399900001 ], [ -115.26860520000001, 36.215672399900001 ], [ -115.26860520000001, 36.215669699900005 ], [ -115.2686106, 36.215669699900005 ], [ -115.2686106, 36.215666999900002 ], [ -115.2686214, 36.215666999900002 ], [ -115.2686214, 36.215664299899998 ], [ -115.268624100000011, 36.215664299899998 ], [ -115.268624100000011, 36.215645399900005 ], [ -115.2686268, 36.215645399900005 ], [ -115.2686268, 36.215637299900003 ], [ -115.2686295, 36.215637299900003 ], [ -115.2686295, 36.215612999900003 ], [ -115.2686268, 36.215612999900003 ], [ -115.2686268, 36.2156102999 ], [ -115.2686295, 36.2156102999 ], [ -115.2686295, 36.215607599900004 ], [ -115.2686322, 36.215607599900004 ], [ -115.2686322, 36.215604899900001 ], [ -115.2686349, 36.215604899900001 ], [ -115.2686349, 36.215599499900001 ], [ -115.2686376, 36.215599499900001 ], [ -115.2686376, 36.215596799899998 ], [ -115.2686403, 36.215596799899998 ], [ -115.2686403, 36.215594099900002 ], [ -115.268643, 36.215594099900002 ], [ -115.268643, 36.215591399899999 ], [ -115.2686457, 36.215591399899999 ], [ -115.2686457, 36.215594099900002 ], [ -115.2686484, 36.215594099900002 ], [ -115.2686484, 36.215596799899998 ], [ -115.26865380000001, 36.215596799899998 ], [ -115.26865380000001, 36.215594099900002 ], [ -115.2686565, 36.215594099900002 ], [ -115.2686565, 36.215591399899999 ], [ -115.26867, 36.215591399899999 ], [ -115.26867, 36.215588699900003 ], [ -115.26867270000001, 36.215588699900003 ], [ -115.26867270000001, 36.2155859999 ], [ -115.2686808, 36.2155859999 ], [ -115.2686808, 36.215588699900003 ], [ -115.2686835, 36.215588699900003 ], [ -115.2686835, 36.2155859999 ], [ -115.2686862, 36.2155859999 ], [ -115.2686862, 36.215588699900003 ], [ -115.2686943, 36.215588699900003 ], [ -115.2686943, 36.2155859999 ], [ -115.268697, 36.2155859999 ], [ -115.268697, 36.215583299900004 ], [ -115.2687024, 36.215583299900004 ], [ -115.2687024, 36.215580599900001 ], [ -115.2687159, 36.215580599900001 ], [ -115.2687159, 36.215583299900004 ], [ -115.268724, 36.215583299900004 ], [ -115.268724, 36.2155859999 ], [ -115.2687807, 36.2155859999 ], [ -115.2687807, 36.215588699900003 ], [ -115.2687834, 36.215588699900003 ], [ -115.2687834, 36.215599499900001 ], [ -115.2687807, 36.215599499900001 ], [ -115.2687807, 36.215607599900004 ], [ -115.268778, 36.215607599900004 ], [ -115.268778, 36.215621099900005 ], [ -115.2687861, 36.215621099900005 ], [ -115.2687861, 36.215623799900001 ], [ -115.2688212, 36.215623799900001 ], [ -115.2688212, 36.215626499900004 ], [ -115.2688239, 36.215626499900004 ], [ -115.2688239, 36.2156291999 ], [ -115.268826600000011, 36.2156291999 ], [ -115.268826600000011, 36.215631899900004 ], [ -115.2688293, 36.215631899900004 ], [ -115.2688293, 36.2156345999 ], [ -115.268832, 36.2156345999 ], [ -115.268832, 36.215637299900003 ], [ -115.2688347, 36.215637299900003 ], [ -115.2688347, 36.215642699900002 ], [ -115.26883740000001, 36.215642699900002 ], [ -115.26883740000001, 36.215650799900004 ], [ -115.2688401, 36.215650799900004 ], [ -115.2688401, 36.215672399900001 ], [ -115.2688428, 36.215672399900001 ], [ -115.2688428, 36.215675099900004 ], [ -115.2688401, 36.215675099900004 ], [ -115.2688401, 36.215712899900005 ], [ -115.26883740000001, 36.215712899900005 ], [ -115.26883740000001, 36.215715599900001 ] ] ] } },
{ "type": "Feature", "properties": { "value": 255.0 }, "geometry": { "type": "Polygon", "coordinates": [ [ [ -115.2673686, 36.215723699900003 ], [ -115.2673551, 36.215723699900003 ], [ -115.2673551, 36.2157209999 ], [ -115.2673497, 36.2157209999 ], [ -115.2673497, 36.215718299900004 ], [ -115.2673443, 36.215718299900004 ], [ -115.2673443, 36.215715599900001 ], [ -115.2673389, 36.215715599900001 ], [ -115.2673389, 36.215712899900005 ], [ -115.2673308, 36.215712899900005 ], [ -115.2673308, 36.215710199900002 ], [ -115.2673227, 36.215710199900002 ], [ -115.2673227, 36.215707499899999 ], [ -115.2673173, 36.215707499899999 ], [ -115.2673173, 36.215704799900003 ], [ -115.26731190000001, 36.215704799900003 ], [ -115.26731190000001, 36.2157020999 ], [ -115.2673065, 36.2157020999 ], [ -115.2673065, 36.215699399900004 ], [ -115.2673038, 36.215699399900004 ], [ -115.2673038, 36.215696699900001 ], [ -115.2673011, 36.215696699900001 ], [ -115.2673011, 36.215691299900001 ], [ -115.2672984, 36.215691299900001 ], [ -115.2672984, 36.215688599900005 ], [ -115.2672957, 36.215688599900005 ], [ -115.2672957, 36.215685899900002 ], [ -115.267293, 36.215685899900002 ], [ -115.267293, 36.215680499900003 ], [ -115.2672903, 36.215680499900003 ], [ -115.2672903, 36.2156777999 ], [ -115.2672876, 36.2156777999 ], [ -115.2672876, 36.215675099900004 ], [ -115.2672822, 36.215675099900004 ], [ -115.2672822, 36.215672399900001 ], [ -115.2672795, 36.215672399900001 ], [ -115.2672795, 36.215669699900005 ], [ -115.2672768, 36.215669699900005 ], [ -115.2672768, 36.215666999900002 ], [ -115.2672741, 36.215666999900002 ], [ -115.2672741, 36.215664299899998 ], [ -115.2672714, 36.215664299899998 ], [ -115.2672714, 36.215658899899999 ], [ -115.2672687, 36.215658899899999 ], [ -115.2672687, 36.2156534999 ], [ -115.267266, 36.2156534999 ], [ -115.267266, 36.215645399900005 ], [ -115.2672687, 36.215645399900005 ], [ -115.2672687, 36.215642699900002 ], [ -115.2672714, 36.215642699900002 ], [ -115.2672714, 36.215631899900004 ], [ -115.2672687, 36.215631899900004 ], [ -115.2672687, 36.215626499900004 ], [ -115.267266, 36.215626499900004 ], [ -115.267266, 36.215623799900001 ], [ -115.2672606, 36.215623799900001 ], [ -115.2672606, 36.215621099900005 ], [ -115.2672579, 36.215621099900005 ], [ -115.2672579, 36.215618399900002 ], [ -115.2672525, 36.215618399900002 ], [ -115.2672525, 36.215615699899999 ], [ -115.2672498, 36.215615699899999 ], [ -115.2672498, 36.215612999900003 ], [ -115.2672471, 36.215612999900003 ], [ -115.2672471, 36.2156102999 ], [ -115.267239, 36.2156102999 ], [ -115.267239, 36.215607599900004 ], [ -115.2672336, 36.215607599900004 ], [ -115.2672336, 36.215604899900001 ], [ -115.2672309, 36.215604899900001 ], [ -115.2672309, 36.215594099900002 ], [ -115.2672336, 36.215594099900002 ], [ -115.2672336, 36.215591399899999 ], [ -115.2672363, 36.215591399899999 ], [ -115.2672363, 36.2155859999 ], [ -115.267239, 36.2155859999 ], [ -115.267239, 36.215580599900001 ], [ -115.2672417, 36.215580599900001 ], [ -115.2672417, 36.215577899900005 ], [ -115.26724440000001, 36.215577899900005 ], [ -115.26724440000001, 36.215572499899999 ], [ -115.2672525, 36.215572499899999 ], [ -115.2672525, 36.215569799900003 ], [ -115.2672552, 36.215569799900003 ], [ -115.2672552, 36.215572499899999 ], [ -115.2672741, 36.215572499899999 ], [ -115.2672741, 36.215569799900003 ], [ -115.2672849, 36.215569799900003 ], [ -115.2672849, 36.215567099899999 ], [ -115.267293, 36.215567099899999 ], [ -115.267293, 36.215569799900003 ], [ -115.2672984, 36.215569799900003 ], [ -115.2672984, 36.215567099899999 ], [ -115.2673038, 36.215567099899999 ], [ -115.2673038, 36.215569799900003 ], [ -115.2673227, 36.215569799900003 ], [ -115.2673227, 36.215567099899999 ], [ -115.2673362, 36.215567099899999 ], [ -115.2673362, 36.215564399900003 ], [ -115.267347, 36.215564399900003 ], [ -115.267347, 36.215567099899999 ], [ -115.2673551, 36.215567099899999 ], [ -115.2673551, 36.215569799900003 ], [ -115.2673659, 36.215569799900003 ], [ -115.2673659, 36.215572499899999 ], [ -115.267374, 36.215572499899999 ], [ -115.267374, 36.215575199900002 ], [ -115.26737940000001, 36.215575199900002 ], [ -115.26737940000001, 36.215577899900005 ], [ -115.2673821, 36.215577899900005 ], [ -115.2673821, 36.215580599900001 ], [ -115.2673848, 36.215580599900001 ], [ -115.2673848, 36.215583299900004 ], [ -115.2673902, 36.215583299900004 ], [ -115.2673902, 36.215588699900003 ], [ -115.2673929, 36.215588699900003 ], [ -115.2673929, 36.215596799899998 ], [ -115.2673983, 36.215596799899998 ], [ -115.2673983, 36.215599499900001 ], [ -115.2674037, 36.215599499900001 ], [ -115.2674037, 36.215602199900005 ], [ -115.2674172, 36.215602199900005 ], [ -115.2674172, 36.215604899900001 ], [ -115.267428, 36.215604899900001 ], [ -115.267428, 36.215602199900005 ], [ -115.2674307, 36.215602199900005 ], [ -115.2674307, 36.215604899900001 ], [ -115.26744690000001, 36.215604899900001 ], [ -115.26744690000001, 36.215607599900004 ], [ -115.2674523, 36.215607599900004 ], [ -115.2674523, 36.2156102999 ], [ -115.2674604, 36.2156102999 ], [ -115.2674604, 36.215612999900003 ], [ -115.2674658, 36.215612999900003 ], [ -115.2674658, 36.215615699899999 ], [ -115.2674739, 36.215615699899999 ], [ -115.2674739, 36.215618399900002 ], [ -115.2674793, 36.215618399900002 ], [ -115.2674793, 36.215621099900005 ], [ -115.267482, 36.215621099900005 ], [ -115.267482, 36.215639999899999 ], [ -115.2674793, 36.215639999899999 ], [ -115.2674793, 36.215642699900002 ], [ -115.2674766, 36.215642699900002 ], [ -115.2674766, 36.215645399900005 ], [ -115.2674739, 36.215645399900005 ], [ -115.2674739, 36.215648099900001 ], [ -115.2674712, 36.215648099900001 ], [ -115.2674712, 36.2156534999 ], [ -115.2674685, 36.2156534999 ], [ -115.2674685, 36.215656199900003 ], [ -115.2674658, 36.215656199900003 ], [ -115.2674658, 36.215658899899999 ], [ -115.2674631, 36.215658899899999 ], [ -115.2674631, 36.215661599900002 ], [ -115.2674604, 36.215661599900002 ], [ -115.2674604, 36.215666999900002 ], [ -115.2674577, 36.215666999900002 ], [ -115.2674577, 36.215675099900004 ], [ -115.267455, 36.215675099900004 ], [ -115.267455, 36.2156777999 ], [ -115.2674523, 36.2156777999 ], [ -115.2674523, 36.215683199899999 ], [ -115.2674496, 36.215683199899999 ], [ -115.2674496, 36.215685899900002 ], [ -115.26744690000001, 36.215685899900002 ], [ -115.26744690000001, 36.215693999900004 ], [ -115.2674442, 36.215693999900004 ], [ -115.2674442, 36.215699399900004 ], [ -115.2674415, 36.215699399900004 ], [ -115.2674415, 36.2157020999 ], [ -115.267428, 36.2157020999 ], [ -115.267428, 36.215699399900004 ], [ -115.2674199, 36.215699399900004 ], [ -115.2674199, 36.2157020999 ], [ -115.2674172, 36.2157020999 ], [ -115.2674172, 36.215704799900003 ], [ -115.2674145, 36.215704799900003 ], [ -115.2674145, 36.215707499899999 ], [ -115.2674118, 36.215707499899999 ], [ -115.2674118, 36.215710199900002 ], [ -115.2674091, 36.215710199900002 ], [ -115.2674091, 36.215712899900005 ], [ -115.2674064, 36.215712899900005 ], [ -115.2674064, 36.215718299900004 ], [ -115.2674037, 36.215718299900004 ], [ -115.2674037, 36.2157209999 ], [ -115.2673875, 36.2157209999 ], [ -115.2673875, 36.215718299900004 ], [ -115.2673767, 36.215718299900004 ], [ -115.2673767, 36.2157209999 ], [ -115.2673686, 36.2157209999 ], [ -115.2673686, 36.215723699900003 ] ] ] } },
{ "type": "Feature", "properties": { "value": 255.0 }, "geometry": { "type": "Polygon", "coordinates": [ [ [ -115.267851900000011, 36.215661599900002 ], [ -115.2678411, 36.215661599900002 ], [ -115.2678411, 36.215658899899999 ], [ -115.2678357, 36.215658899899999 ], [ -115.2678357, 36.215656199900003 ], [ -115.267833, 36.215656199900003 ], [ -115.267833, 36.2156534999 ], [ -115.2678303, 36.2156534999 ], [ -115.2678303, 36.215650799900004 ], [ -115.2678195, 36.215650799900004 ], [ -115.2678195, 36.215648099900001 ], [ -115.26781410000001, 36.215648099900001 ], [ -115.26781410000001, 36.215645399900005 ], [ -115.2678114, 36.215645399900005 ], [ -115.2678114, 36.215642699900002 ], [ -115.2678087, 36.215642699900002 ], [ -115.2678087, 36.215639999899999 ], [ -115.2678033, 36.215639999899999 ], [ -115.2678033, 36.215637299900003 ], [ -115.2678006, 36.215637299900003 ], [ -115.2678006, 36.2156345999 ], [ -115.2677979, 36.2156345999 ], [ -115.2677979, 36.215631899900004 ], [ -115.2677952, 36.215631899900004 ], [ -115.2677952, 36.2156291999 ], [ -115.2677925, 36.2156291999 ], [ -115.2677925, 36.215626499900004 ], [ -115.2677898, 36.215626499900004 ], [ -115.2677898, 36.215623799900001 ], [ -115.2677871, 36.215623799900001 ], [ -115.2677871, 36.215621099900005 ], [ -115.267784400000011, 36.215621099900005 ], [ -115.267784400000011, 36.215618399900002 ], [ -115.2677817, 36.215618399900002 ], [ -115.2677817, 36.215615699899999 ], [ -115.2677763, 36.215615699899999 ], [ -115.2677763, 36.2156102999 ], [ -115.2677736, 36.2156102999 ], [ -115.2677736, 36.215602199900005 ], [ -115.2677763, 36.215602199900005 ], [ -115.2677763, 36.215599499900001 ], [ -115.267779, 36.215599499900001 ], [ -115.267779, 36.215596799899998 ], [ -115.2677817, 36.215596799899998 ], [ -115.2677817, 36.215594099900002 ], [ -115.267784400000011, 36.215594099900002 ], [ -115.267784400000011, 36.215588699900003 ], [ -115.2677871, 36.215588699900003 ], [ -115.2677871, 36.2155859999 ], [ -115.2677898, 36.2155859999 ], [ -115.2677898, 36.215583299900004 ], [ -115.2677952, 36.215583299900004 ], [ -115.2677952, 36.215580599900001 ], [ -115.2677979, 36.215580599900001 ], [ -115.2677979, 36.215577899900005 ], [ -115.2678033, 36.215577899900005 ], [ -115.2678033, 36.215575199900002 ], [ -115.2678087, 36.215575199900002 ], [ -115.2678087, 36.215572499899999 ], [ -115.2678114, 36.215572499899999 ], [ -115.2678114, 36.215567099899999 ], [ -115.26781410000001, 36.215567099899999 ], [ -115.26781410000001, 36.215564399900003 ], [ -115.2678114, 36.215564399900003 ], [ -115.2678114, 36.2155616999 ], [ -115.2678087, 36.2155616999 ], [ -115.2678087, 36.215558999900004 ], [ -115.2678033, 36.215558999900004 ], [ -115.2678033, 36.215556299900001 ], [ -115.2678006, 36.215556299900001 ], [ -115.2678006, 36.215558999900004 ], [ -115.2677952, 36.215558999900004 ], [ -115.2677952, 36.2155616999 ], [ -115.2677925, 36.2155616999 ], [ -115.2677925, 36.215564399900003 ], [ -115.267784400000011, 36.215564399900003 ], [ -115.267784400000011, 36.215567099899999 ], [ -115.2677709, 36.215567099899999 ], [ -115.2677709, 36.215564399900003 ], [ -115.2677682, 36.215564399900003 ], [ -115.2677682, 36.2155616999 ], [ -115.2677628, 36.2155616999 ], [ -115.2677628, 36.215558999900004 ], [ -115.2677601, 36.215558999900004 ], [ -115.2677601, 36.215556299900001 ], [ -115.2677574, 36.215556299900001 ], [ -115.2677574, 36.215553599900005 ], [ -115.2677547, 36.215553599900005 ], [ -115.2677547, 36.215550899900002 ], [ -115.267752, 36.215550899900002 ], [ -115.267752, 36.215545499900003 ], [ -115.2677493, 36.215545499900003 ], [ -115.2677493, 36.215540099900004 ], [ -115.267752, 36.215540099900004 ], [ -115.267752, 36.215534699900005 ], [ -115.2677547, 36.215534699900005 ], [ -115.2677547, 36.215529299899998 ], [ -115.2677574, 36.215529299899998 ], [ -115.2677574, 36.215526599900002 ], [ -115.2677601, 36.215526599900002 ], [ -115.2677601, 36.215523899899999 ], [ -115.26776550000001, 36.215523899899999 ], [ -115.26776550000001, 36.215521199900003 ], [ -115.2677709, 36.215521199900003 ], [ -115.2677709, 36.2155184999 ], [ -115.2677736, 36.2155184999 ], [ -115.2677736, 36.215515799900004 ], [ -115.267779, 36.215515799900004 ], [ -115.267779, 36.215513099900001 ], [ -115.2677817, 36.215513099900001 ], [ -115.2677817, 36.215510399900005 ], [ -115.2677871, 36.215510399900005 ], [ -115.2677871, 36.215507699900002 ], [ -115.2677898, 36.215507699900002 ], [ -115.2677898, 36.215504999899998 ], [ -115.2677952, 36.215504999899998 ], [ -115.2677952, 36.215502299900002 ], [ -115.2677979, 36.215502299900002 ], [ -115.2677979, 36.215499599899999 ], [ -115.2678006, 36.215499599899999 ], [ -115.2678006, 36.215496899900003 ], [ -115.267806, 36.215496899900003 ], [ -115.267806, 36.2154941999 ], [ -115.2678114, 36.2154941999 ], [ -115.2678114, 36.215491499900004 ], [ -115.26781410000001, 36.215491499900004 ], [ -115.26781410000001, 36.215488799900001 ], [ -115.2678195, 36.215488799900001 ], [ -115.2678195, 36.215486099900005 ], [ -115.2678249, 36.215486099900005 ], [ -115.2678249, 36.215483399900002 ], [ -115.2678276, 36.215483399900002 ], [ -115.2678276, 36.215480699899999 ], [ -115.267833, 36.215480699899999 ], [ -115.267833, 36.215477999900003 ], [ -115.2678357, 36.215477999900003 ], [ -115.2678357, 36.2154752999 ], [ -115.2678384, 36.2154752999 ], [ -115.2678384, 36.215472599900004 ], [ -115.2678411, 36.215472599900004 ], [ -115.2678411, 36.2154698999 ], [ -115.2678465, 36.2154698999 ], [ -115.2678465, 36.215467199900004 ], [ -115.2678492, 36.215467199900004 ], [ -115.2678492, 36.215464499900001 ], [ -115.267851900000011, 36.215464499900001 ], [ -115.267851900000011, 36.215461799899998 ], [ -115.2678546, 36.215461799899998 ], [ -115.2678546, 36.215459099900002 ], [ -115.26786, 36.215459099900002 ], [ -115.26786, 36.215456399899999 ], [ -115.2678627, 36.215456399899999 ], [ -115.2678627, 36.215453699900003 ], [ -115.2678681, 36.215453699900003 ], [ -115.2678681, 36.2154509999 ], [ -115.2678735, 36.2154509999 ], [ -115.2678735, 36.215448299900004 ], [ -115.2678762, 36.215448299900004 ], [ -115.2678762, 36.215445599900001 ], [ -115.2678789, 36.215445599900001 ], [ -115.2678789, 36.215442899900005 ], [ -115.2678843, 36.215442899900005 ], [ -115.2678843, 36.215440199900002 ], [ -115.2678897, 36.215440199900002 ], [ -115.2678897, 36.215437499899998 ], [ -115.2678978, 36.215437499899998 ], [ -115.2678978, 36.215434799900002 ], [ -115.26790050000001, 36.215434799900002 ], [ -115.26790050000001, 36.215437499899998 ], [ -115.267914, 36.215437499899998 ], [ -115.267914, 36.215440199900002 ], [ -115.2679167, 36.215440199900002 ], [ -115.2679167, 36.215442899900005 ], [ -115.267919400000011, 36.215442899900005 ], [ -115.267919400000011, 36.215445599900001 ], [ -115.2679221, 36.215445599900001 ], [ -115.2679221, 36.215448299900004 ], [ -115.2679248, 36.215448299900004 ], [ -115.2679248, 36.2154509999 ], [ -115.2679275, 36.2154509999 ], [ -115.2679275, 36.215453699900003 ], [ -115.2679302, 36.215453699900003 ], [ -115.2679302, 36.215456399899999 ], [ -115.2679329, 36.215456399899999 ], [ -115.2679329, 36.215459099900002 ], [ -115.2679356, 36.215459099900002 ], [ -115.2679356, 36.215461799899998 ], [ -115.267941, 36.215461799899998 ], [ -115.267941, 36.215477999900003 ], [ -115.2679437, 36.215477999900003 ], [ -115.2679437, 36.215480699899999 ], [ -115.26794910000001, 36.215480699899999 ], [ -115.26794910000001, 36.215483399900002 ], [ -115.2679518, 36.215483399900002 ], [ -115.2679518, 36.215486099900005 ], [ -115.2679545, 36.215486099900005 ], [ -115.2679545, 36.215488799900001 ], [ -115.2679572, 36.215488799900001 ], [ -115.2679572, 36.215491499900004 ], [ -115.2679599, 36.215491499900004 ], [ -115.2679599, 36.2154941999 ], [ -115.2679653, 36.2154941999 ], [ -115.2679653, 36.215496899900003 ], [ -115.267968, 36.215496899900003 ], [ -115.267968, 36.215499599899999 ], [ -115.2679734, 36.215499599899999 ], [ -115.2679734, 36.215502299900002 ], [ -115.2679788, 36.215502299900002 ], [ -115.2679788, 36.215504999899998 ], [ -115.2679815, 36.215504999899998 ], [ -115.2679815, 36.215507699900002 ], [ -115.267986900000011, 36.215507699900002 ], [ -115.267986900000011, 36.215510399900005 ], [ -115.2679923, 36.215510399900005 ], [ -115.2679923, 36.215513099900001 ], [ -115.267995, 36.215513099900001 ], [ -115.267995, 36.215515799900004 ], [ -115.2679977, 36.215515799900004 ], [ -115.2679977, 36.2155184999 ], [ -115.2680004, 36.2155184999 ], [ -115.2680004, 36.215521199900003 ], [ -115.2680031, 36.215521199900003 ], [ -115.2680031, 36.215523899899999 ], [ -115.2680058, 36.215523899899999 ], [ -115.2680058, 36.215526599900002 ], [ -115.2680085, 36.215526599900002 ], [ -115.2680085, 36.215537399900001 ], [ -115.2680031, 36.215537399900001 ], [ -115.2680031, 36.215540099900004 ], [ -115.2680004, 36.215540099900004 ], [ -115.2680004, 36.2155427999 ], [ -115.2679977, 36.2155427999 ], [ -115.2679977, 36.215545499900003 ], [ -115.267995, 36.215545499900003 ], [ -115.267995, 36.215548199899999 ], [ -115.2679923, 36.215548199899999 ], [ -115.2679923, 36.215550899900002 ], [ -115.2679896, 36.215550899900002 ], [ -115.2679896, 36.215558999900004 ], [ -115.267986900000011, 36.215558999900004 ], [ -115.267986900000011, 36.215572499899999 ], [ -115.2679842, 36.215572499899999 ], [ -115.2679842, 36.215577899900005 ], [ -115.2679815, 36.215577899900005 ], [ -115.2679815, 36.215580599900001 ], [ -115.2679761, 36.215580599900001 ], [ -115.2679761, 36.215583299900004 ], [ -115.2679734, 36.215583299900004 ], [ -115.2679734, 36.2155859999 ], [ -115.2679707, 36.2155859999 ], [ -115.2679707, 36.215588699900003 ], [ -115.267968, 36.215588699900003 ], [ -115.267968, 36.215591399899999 ], [ -115.2679653, 36.215591399899999 ], [ -115.2679653, 36.215594099900002 ], [ -115.2679626, 36.215594099900002 ], [ -115.2679626, 36.215596799899998 ], [ -115.2679599, 36.215596799899998 ], [ -115.2679599, 36.215599499900001 ], [ -115.2679572, 36.215599499900001 ], [ -115.2679572, 36.215602199900005 ], [ -115.2679518, 36.215602199900005 ], [ -115.2679518, 36.215604899900001 ], [ -115.26794910000001, 36.215604899900001 ], [ -115.26794910000001, 36.215607599900004 ], [ -115.2679464, 36.215607599900004 ], [ -115.2679464, 36.2156102999 ], [ -115.267941, 36.2156102999 ], [ -115.267941, 36.215612999900003 ], [ -115.2679329, 36.215612999900003 ], [ -115.2679329, 36.215615699899999 ], [ -115.2679248, 36.215615699899999 ], [ -115.2679248, 36.215618399900002 ], [ -115.267919400000011, 36.215618399900002 ], [ -115.267919400000011, 36.215621099900005 ], [ -115.2679167, 36.215621099900005 ], [ -115.2679167, 36.215623799900001 ], [ -115.2679113, 36.215623799900001 ], [ -115.2679113, 36.215626499900004 ], [ -115.2679059, 36.215626499900004 ], [ -115.2679059, 36.2156291999 ], [ -115.26790050000001, 36.2156291999 ], [ -115.26790050000001, 36.215631899900004 ], [ -115.2678951, 36.215631899900004 ], [ -115.2678951, 36.2156345999 ], [ -115.2678897, 36.2156345999 ], [ -115.2678897, 36.215637299900003 ], [ -115.2678843, 36.215637299900003 ], [ -115.2678843, 36.215639999899999 ], [ -115.26788160000001, 36.215639999899999 ], [ -115.26788160000001, 36.215642699900002 ], [ -115.2678789, 36.215642699900002 ], [ -115.2678789, 36.215645399900005 ], [ -115.2678735, 36.215645399900005 ], [ -115.2678735, 36.215648099900001 ], [ -115.2678708, 36.215648099900001 ], [ -115.2678708, 36.215650799900004 ], [ -115.2678654, 36.215650799900004 ], [ -115.2678654, 36.2156534999 ], [ -115.26786, 36.2156534999 ], [ -115.26786, 36.215656199900003 ], [ -115.2678573, 36.215656199900003 ], [ -115.2678573, 36.215658899899999 ], [ -115.267851900000011, 36.215658899899999 ], [ -115.267851900000011, 36.215661599900002 ] ] ] } },
{ "type": "Feature", "properties": { "value": 255.0 }, "geometry": { "type": "Polygon", "coordinates": [ [ [ -115.2676764, 36.215588699900003 ], [ -115.2676359, 36.215588699900003 ], [ -115.2676359, 36.2155859999 ], [ -115.26763050000001, 36.2155859999 ], [ -115.26763050000001, 36.215583299900004 ], [ -115.2676278, 36.215583299900004 ], [ -115.2676278, 36.215580599900001 ], [ -115.2675792, 36.215580599900001 ], [ -115.2675792, 36.215577899900005 ], [ -115.2675765, 36.215577899900005 ], [ -115.2675765, 36.215569799900003 ], [ -115.2675738, 36.215569799900003 ], [ -115.2675738, 36.215567099899999 ], [ -115.2675441, 36.215567099899999 ], [ -115.2675441, 36.215564399900003 ], [ -115.2675387, 36.215564399900003 ], [ -115.2675387, 36.215556299900001 ], [ -115.267536, 36.215556299900001 ], [ -115.267536, 36.215545499900003 ], [ -115.2675333, 36.215545499900003 ], [ -115.2675333, 36.215504999899998 ], [ -115.267536, 36.215504999899998 ], [ -115.267536, 36.2154941999 ], [ -115.2675387, 36.2154941999 ], [ -115.2675387, 36.215480699899999 ], [ -115.2675414, 36.215480699899999 ], [ -115.2675414, 36.215477999900003 ], [ -115.2675387, 36.215477999900003 ], [ -115.2675387, 36.2154698999 ], [ -115.2675414, 36.2154698999 ], [ -115.2675414, 36.215461799899998 ], [ -115.2675441, 36.215461799899998 ], [ -115.2675441, 36.215456399899999 ], [ -115.2675468, 36.215456399899999 ], [ -115.2675468, 36.2154509999 ], [ -115.2675495, 36.2154509999 ], [ -115.2675495, 36.215445599900001 ], [ -115.2675522, 36.215445599900001 ], [ -115.2675522, 36.215442899900005 ], [ -115.2675549, 36.215442899900005 ], [ -115.2675549, 36.215440199900002 ], [ -115.2675576, 36.215440199900002 ], [ -115.2675576, 36.215432099899999 ], [ -115.2675603, 36.215432099899999 ], [ -115.2675603, 36.215429399900003 ], [ -115.267563, 36.215429399900003 ], [ -115.267563, 36.2154266999 ], [ -115.26759, 36.2154266999 ], [ -115.26759, 36.215429399900003 ], [ -115.2676116, 36.215429399900003 ], [ -115.2676116, 36.215432099899999 ], [ -115.2676521, 36.215432099899999 ], [ -115.2676521, 36.215434799900002 ], [ -115.2676548, 36.215434799900002 ], [ -115.2676548, 36.2154509999 ], [ -115.2676575, 36.2154509999 ], [ -115.2676575, 36.215459099900002 ], [ -115.2676602, 36.215459099900002 ], [ -115.2676602, 36.215467199900004 ], [ -115.2676629, 36.215467199900004 ], [ -115.2676629, 36.2154698999 ], [ -115.2676656, 36.2154698999 ], [ -115.2676656, 36.2154752999 ], [ -115.2676683, 36.2154752999 ], [ -115.2676683, 36.215483399900002 ], [ -115.267671, 36.215483399900002 ], [ -115.267671, 36.215496899900003 ], [ -115.2676737, 36.215496899900003 ], [ -115.2676737, 36.215507699900002 ], [ -115.2676764, 36.215507699900002 ], [ -115.2676764, 36.2155184999 ], [ -115.2676791, 36.2155184999 ], [ -115.2676791, 36.215540099900004 ], [ -115.2676818, 36.215540099900004 ], [ -115.2676818, 36.215567099899999 ], [ -115.2676845, 36.215567099899999 ], [ -115.2676845, 36.215580599900001 ], [ -115.2676818, 36.215580599900001 ], [ -115.2676818, 36.215583299900004 ], [ -115.2676791, 36.215583299900004 ], [ -115.2676791, 36.2155859999 ], [ -115.2676764, 36.2155859999 ], [ -115.2676764, 36.215588699900003 ] ] ] } },
{ "type": "Feature", "properties": { "value": 255.0 }, "geometry": { "type": "Polygon", "coordinates": [ [ [ -115.2687564, 36.215558999900004 ], [ -115.2686943, 36.215558999900004 ], [ -115.2686943, 36.215553599900005 ], [ -115.268691600000011, 36.215553599900005 ], [ -115.268691600000011, 36.215540099900004 ], [ -115.2686889, 36.215540099900004 ], [ -115.2686889, 36.215537399900001 ], [ -115.2686592, 36.215537399900001 ], [ -115.2686592, 36.215540099900004 ], [ -115.26865380000001, 36.215540099900004 ], [ -115.26865380000001, 36.215537399900001 ], [ -115.2686484, 36.215537399900001 ], [ -115.2686484, 36.215534699900005 ], [ -115.2686457, 36.215534699900005 ], [ -115.2686457, 36.215531999900001 ], [ -115.268643, 36.215531999900001 ], [ -115.268643, 36.215526599900002 ], [ -115.2686403, 36.215526599900002 ], [ -115.2686403, 36.215523899899999 ], [ -115.2686376, 36.215523899899999 ], [ -115.2686376, 36.2155184999 ], [ -115.2686349, 36.2155184999 ], [ -115.2686349, 36.215510399900005 ], [ -115.2686322, 36.215510399900005 ], [ -115.2686322, 36.215461799899998 ], [ -115.2686349, 36.215461799899998 ], [ -115.2686349, 36.215434799900002 ], [ -115.2686403, 36.215434799900002 ], [ -115.2686403, 36.215432099899999 ], [ -115.2686511, 36.215432099899999 ], [ -115.2686511, 36.215429399900003 ], [ -115.2686889, 36.215429399900003 ], [ -115.2686889, 36.215432099899999 ], [ -115.2687078, 36.215432099899999 ], [ -115.2687078, 36.215429399900003 ], [ -115.268724, 36.215429399900003 ], [ -115.268724, 36.2154266999 ], [ -115.2687483, 36.2154266999 ], [ -115.2687483, 36.215423999900004 ], [ -115.268751, 36.215423999900004 ], [ -115.268751, 36.215421299900001 ], [ -115.2687537, 36.215421299900001 ], [ -115.2687537, 36.215415899900002 ], [ -115.2687645, 36.215415899900002 ], [ -115.2687645, 36.215413199899999 ], [ -115.268796900000012, 36.215413199899999 ], [ -115.268796900000012, 36.215415899900002 ], [ -115.268807700000011, 36.215415899900002 ], [ -115.268807700000011, 36.2154266999 ], [ -115.2688104, 36.2154266999 ], [ -115.2688104, 36.215434799900002 ], [ -115.2688131, 36.215434799900002 ], [ -115.2688131, 36.215440199900002 ], [ -115.2688158, 36.215440199900002 ], [ -115.2688158, 36.215442899900005 ], [ -115.2688185, 36.215442899900005 ], [ -115.2688185, 36.215448299900004 ], [ -115.2688212, 36.215448299900004 ], [ -115.2688212, 36.215467199900004 ], [ -115.2688239, 36.215467199900004 ], [ -115.2688239, 36.215472599900004 ], [ -115.2688212, 36.215472599900004 ], [ -115.2688212, 36.215491499900004 ], [ -115.2688239, 36.215491499900004 ], [ -115.2688239, 36.2154941999 ], [ -115.2688212, 36.2154941999 ], [ -115.2688212, 36.215502299900002 ], [ -115.2688185, 36.215502299900002 ], [ -115.2688185, 36.215510399900005 ], [ -115.2687672, 36.215510399900005 ], [ -115.2687672, 36.215534699900005 ], [ -115.2687645, 36.215534699900005 ], [ -115.2687645, 36.215540099900004 ], [ -115.2687672, 36.215540099900004 ], [ -115.2687672, 36.215548199899999 ], [ -115.2687645, 36.215548199899999 ], [ -115.2687645, 36.215556299900001 ], [ -115.2687564, 36.215556299900001 ], [ -115.2687564, 36.215558999900004 ] ] ] } },
{ "type": "Feature", "properties": { "value": 255.0 }, "geometry": { "type": "Polygon", "coordinates": [ [ [ -115.267158, 36.215027099899999 ], [ -115.2671526, 36.215027099899999 ], [ -115.2671526, 36.214892099899998 ], [ -115.2671634, 36.214892099899998 ], [ -115.2671634, 36.214894799900001 ], [ -115.2671661, 36.214894799900001 ], [ -115.2671661, 36.214897499899998 ], [ -115.2671688, 36.214897499899998 ], [ -115.2671688, 36.214902899900004 ], [ -115.2671715, 36.214902899900004 ], [ -115.2671715, 36.214927199900004 ], [ -115.2671742, 36.214927199900004 ], [ -115.2671742, 36.214986599900001 ], [ -115.2671715, 36.214986599900001 ], [ -115.2671715, 36.215010899900001 ], [ -115.2671688, 36.215010899900001 ], [ -115.2671688, 36.215018999900003 ], [ -115.2671661, 36.215018999900003 ], [ -115.2671661, 36.215021699899999 ], [ -115.2671634, 36.215021699899999 ], [ -115.2671634, 36.215024399900003 ], [ -115.267158, 36.215024399900003 ], [ -115.267158, 36.215027099899999 ] ] ] } },
{ "type": "Feature", "properties": { "value": 255.0 }, "geometry": { "type": "Polygon", "coordinates": [ [ [ -115.26764940000001, 36.215032499899998 ], [ -115.2676116, 36.215032499899998 ], [ -115.2676116, 36.215029799900002 ], [ -115.26759, 36.215029799900002 ], [ -115.26759, 36.215027099899999 ], [ -115.2675846, 36.215027099899999 ], [ -115.2675846, 36.215024399900003 ], [ -115.26758190000001, 36.215024399900003 ], [ -115.26758190000001, 36.215021699899999 ], [ -115.2675792, 36.215021699899999 ], [ -115.2675792, 36.2150162999 ], [ -115.2675765, 36.2150162999 ], [ -115.2675765, 36.215013599900004 ], [ -115.2675738, 36.215013599900004 ], [ -115.2675738, 36.215010899900001 ], [ -115.2675657, 36.215010899900001 ], [ -115.2675657, 36.215008199899998 ], [ -115.267563, 36.215008199899998 ], [ -115.267563, 36.2149973999 ], [ -115.2675603, 36.2149973999 ], [ -115.2675603, 36.214994699900004 ], [ -115.267563, 36.214994699900004 ], [ -115.267563, 36.214989299899997 ], [ -115.2675576, 36.214989299899997 ], [ -115.2675576, 36.214986599900001 ], [ -115.2675252, 36.214986599900001 ], [ -115.2675252, 36.214983899899998 ], [ -115.2674874, 36.214983899899998 ], [ -115.2674874, 36.214981199900002 ], [ -115.2674847, 36.214981199900002 ], [ -115.2674847, 36.214978499899999 ], [ -115.267482, 36.214978499899999 ], [ -115.267482, 36.214902899900004 ], [ -115.2674847, 36.214902899900004 ], [ -115.2674847, 36.214900199900001 ], [ -115.2675252, 36.214900199900001 ], [ -115.2675252, 36.214902899900004 ], [ -115.2675279, 36.214902899900004 ], [ -115.2675279, 36.214900199900001 ], [ -115.267536, 36.214900199900001 ], [ -115.267536, 36.214902899900004 ], [ -115.2675738, 36.214902899900004 ], [ -115.2675738, 36.2149055999 ], [ -115.26758190000001, 36.2149055999 ], [ -115.26758190000001, 36.214908299900003 ], [ -115.2676467, 36.214908299900003 ], [ -115.2676467, 36.214910999899999 ], [ -115.2677007, 36.214910999899999 ], [ -115.2677007, 36.214913699900002 ], [ -115.2677088, 36.214913699900002 ], [ -115.2677088, 36.214910999899999 ], [ -115.2677277, 36.214910999899999 ], [ -115.2677277, 36.214913699900002 ], [ -115.2677304, 36.214913699900002 ], [ -115.2677304, 36.214919099900001 ], [ -115.2677331, 36.214919099900001 ], [ -115.2677331, 36.214927199900004 ], [ -115.2677304, 36.214927199900004 ], [ -115.2677304, 36.214943399900001 ], [ -115.2677223, 36.214943399900001 ], [ -115.2677223, 36.214946099900004 ], [ -115.2677115, 36.214946099900004 ], [ -115.2677115, 36.2149487999 ], [ -115.2677088, 36.2149487999 ], [ -115.2677088, 36.214962299900002 ], [ -115.2677061, 36.214962299900002 ], [ -115.2677061, 36.214964999899998 ], [ -115.2677088, 36.214964999899998 ], [ -115.2677088, 36.214983899899998 ], [ -115.2677034, 36.214983899899998 ], [ -115.2677034, 36.214986599900001 ], [ -115.2677007, 36.214986599900001 ], [ -115.2677007, 36.214991999900001 ], [ -115.267698, 36.214991999900001 ], [ -115.267698, 36.214994699900004 ], [ -115.2676953, 36.214994699900004 ], [ -115.2676953, 36.2149973999 ], [ -115.2676926, 36.2149973999 ], [ -115.2676926, 36.215000099900003 ], [ -115.2676602, 36.215000099900003 ], [ -115.2676602, 36.215002799899999 ], [ -115.2676575, 36.215002799899999 ], [ -115.2676575, 36.215005499900002 ], [ -115.2676548, 36.215005499900002 ], [ -115.2676548, 36.2150162999 ], [ -115.2676521, 36.2150162999 ], [ -115.2676521, 36.215029799900002 ], [ -115.26764940000001, 36.215029799900002 ], [ -115.26764940000001, 36.215032499899998 ] ] ] } },
{ "type": "Feature", "properties": { "value": 255.0 }, "geometry": { "type": "Polygon", "coordinates": [ [ [ -115.2689076, 36.214875899900001 ], [ -115.2689022, 36.214875899900001 ], [ -115.2689022, 36.214873199899998 ], [ -115.2688995, 36.214873199899998 ], [ -115.2688995, 36.214870499900002 ], [ -115.2688968, 36.214870499900002 ], [ -115.2688968, 36.214862399899999 ], [ -115.2689022, 36.214862399899999 ], [ -115.2689022, 36.214859699900003 ], [ -115.26890490000001, 36.214859699900003 ], [ -115.26890490000001, 36.2148569999 ], [ -115.2689076, 36.2148569999 ], [ -115.2689076, 36.214875899900001 ] ] ] } },
{ "type": "Feature", "properties": { "value": 255.0 }, "geometry": { "type": "Polygon", "coordinates": [ [ [ -115.26890490000001, 36.2148137999 ], [ -115.2689022, 36.2148137999 ], [ -115.2689022, 36.214811099900004 ], [ -115.2688995, 36.214811099900004 ], [ -115.2688995, 36.214808399900001 ], [ -115.268894100000011, 36.214808399900001 ], [ -115.268894100000011, 36.214800299899998 ], [ -115.2688914, 36.214800299899998 ], [ -115.2688914, 36.214773299900003 ], [ -115.268894100000011, 36.214773299900003 ], [ -115.268894100000011, 36.214767899900004 ], [ -115.2689022, 36.214767899900004 ], [ -115.2689022, 36.2147651999 ], [ -115.2689076, 36.2147651999 ], [ -115.2689076, 36.214811099900004 ], [ -115.26890490000001, 36.214811099900004 ], [ -115.26890490000001, 36.2148137999 ] ] ] } },
{ "type": "Feature", "properties": { "value": 255.0 }, "geometry": { "type": "Polygon", "coordinates": [ [ [ -115.267698, 36.214886699899999 ], [ -115.26763050000001, 36.214886699899999 ], [ -115.26763050000001, 36.214883999900003 ], [ -115.2675792, 36.214883999900003 ], [ -115.2675792, 36.2148812999 ], [ -115.2675765, 36.2148812999 ], [ -115.2675765, 36.214878599900004 ], [ -115.2675711, 36.214878599900004 ], [ -115.2675711, 36.214875899900001 ], [ -115.2675522, 36.214875899900001 ], [ -115.2675522, 36.214878599900004 ], [ -115.267536, 36.214878599900004 ], [ -115.267536, 36.214875899900001 ], [ -115.2675333, 36.214875899900001 ], [ -115.2675333, 36.214878599900004 ], [ -115.2675198, 36.214878599900004 ], [ -115.2675198, 36.214875899900001 ], [ -115.26751440000001, 36.214875899900001 ], [ -115.26751440000001, 36.214873199899998 ], [ -115.267509, 36.214873199899998 ], [ -115.267509, 36.214867799899999 ], [ -115.2675063, 36.214867799899999 ], [ -115.2675063, 36.214865099900003 ], [ -115.2675036, 36.214865099900003 ], [ -115.2675036, 36.214843499899999 ], [ -115.2675009, 36.214843499899999 ], [ -115.2675009, 36.214829999899997 ], [ -115.2674982, 36.214829999899997 ], [ -115.2674982, 36.214819199899999 ], [ -115.26749550000001, 36.214819199899999 ], [ -115.26749550000001, 36.214802999900002 ], [ -115.2674928, 36.214802999900002 ], [ -115.2674928, 36.214797599900002 ], [ -115.26749550000001, 36.214797599900002 ], [ -115.26749550000001, 36.214792199900003 ], [ -115.2674982, 36.214792199900003 ], [ -115.2674982, 36.2147894999 ], [ -115.267509, 36.2147894999 ], [ -115.267509, 36.214786799899997 ], [ -115.2675252, 36.214786799899997 ], [ -115.2675252, 36.2147894999 ], [ -115.267536, 36.2147894999 ], [ -115.267536, 36.214786799899997 ], [ -115.2675657, 36.214786799899997 ], [ -115.2675657, 36.214784099900001 ], [ -115.2675684, 36.214784099900001 ], [ -115.2675684, 36.214781399899998 ], [ -115.2675738, 36.214781399899998 ], [ -115.2675738, 36.214778699900002 ], [ -115.2675765, 36.214778699900002 ], [ -115.2675765, 36.214775999899999 ], [ -115.2675792, 36.214775999899999 ], [ -115.2675792, 36.214773299900003 ], [ -115.26758190000001, 36.214773299900003 ], [ -115.26758190000001, 36.214767899900004 ], [ -115.2675846, 36.214767899900004 ], [ -115.2675846, 36.214762499899997 ], [ -115.26759, 36.214762499899997 ], [ -115.26759, 36.214759799900001 ], [ -115.2675927, 36.214759799900001 ], [ -115.2675927, 36.214757099899998 ], [ -115.2675954, 36.214757099899998 ], [ -115.2675954, 36.214754399900002 ], [ -115.2675981, 36.214754399900002 ], [ -115.2675981, 36.214751699899999 ], [ -115.2676008, 36.214751699899999 ], [ -115.2676008, 36.214748999900003 ], [ -115.2676197, 36.214748999900003 ], [ -115.2676197, 36.214751699899999 ], [ -115.2676386, 36.214751699899999 ], [ -115.2676386, 36.214754399900002 ], [ -115.2676467, 36.214754399900002 ], [ -115.2676467, 36.214757099899998 ], [ -115.26764940000001, 36.214757099899998 ], [ -115.26764940000001, 36.214759799900001 ], [ -115.2676521, 36.214759799900001 ], [ -115.2676521, 36.214762499899997 ], [ -115.2676548, 36.214762499899997 ], [ -115.2676548, 36.2147651999 ], [ -115.2676575, 36.2147651999 ], [ -115.2676575, 36.214767899900004 ], [ -115.2676602, 36.214767899900004 ], [ -115.2676602, 36.2147705999 ], [ -115.2676629, 36.2147705999 ], [ -115.2676629, 36.214784099900001 ], [ -115.2676656, 36.214784099900001 ], [ -115.2676656, 36.214792199900003 ], [ -115.2676683, 36.214792199900003 ], [ -115.2676683, 36.214794899899999 ], [ -115.2676818, 36.214794899899999 ], [ -115.2676818, 36.214792199900003 ], [ -115.2676899, 36.214792199900003 ], [ -115.2676899, 36.214794899899999 ], [ -115.2677007, 36.214794899899999 ], [ -115.2677007, 36.214792199900003 ], [ -115.2677115, 36.214792199900003 ], [ -115.2677115, 36.214794899899999 ], [ -115.2677304, 36.214794899899999 ], [ -115.2677304, 36.214797599900002 ], [ -115.2677331, 36.214797599900002 ], [ -115.2677331, 36.2148137999 ], [ -115.2677358, 36.2148137999 ], [ -115.2677358, 36.214859699900003 ], [ -115.2677331, 36.214859699900003 ], [ -115.2677331, 36.214862399899999 ], [ -115.2677304, 36.214862399899999 ], [ -115.2677304, 36.214865099900003 ], [ -115.2677223, 36.214865099900003 ], [ -115.2677223, 36.214862399899999 ], [ -115.2677061, 36.214862399899999 ], [ -115.2677061, 36.214865099900003 ], [ -115.2677034, 36.214865099900003 ], [ -115.2677034, 36.214867799899999 ], [ -115.2677007, 36.214867799899999 ], [ -115.2677007, 36.2148812999 ], [ -115.267698, 36.2148812999 ], [ -115.267698, 36.214886699899999 ] ] ] } },
{ "type": "Feature", "properties": { "value": 255.0 }, "geometry": { "type": "Polygon", "coordinates": [ [ [ -115.2689022, 36.214730099900002 ], [ -115.2688995, 36.214730099900002 ], [ -115.2688995, 36.214727399899999 ], [ -115.2688968, 36.214727399899999 ], [ -115.2688968, 36.214724699900003 ], [ -115.268894100000011, 36.214724699900003 ], [ -115.268894100000011, 36.214716599900001 ], [ -115.2688914, 36.214716599900001 ], [ -115.2688914, 36.214700399900003 ], [ -115.2688887, 36.214700399900003 ], [ -115.2688887, 36.2146976999 ], [ -115.268886, 36.2146976999 ], [ -115.268886, 36.214694999899997 ], [ -115.2688833, 36.214694999899997 ], [ -115.2688833, 36.214689599899998 ], [ -115.2688806, 36.214689599899998 ], [ -115.2688806, 36.214684199899999 ], [ -115.2688698, 36.214684199899999 ], [ -115.2688698, 36.214681499900003 ], [ -115.2688671, 36.214681499900003 ], [ -115.2688671, 36.214667999900001 ], [ -115.2688617, 36.214667999900001 ], [ -115.2688617, 36.214665299899998 ], [ -115.2688536, 36.214665299899998 ], [ -115.2688536, 36.214657199900003 ], [ -115.26885630000001, 36.214657199900003 ], [ -115.26885630000001, 36.214651799899997 ], [ -115.2688536, 36.214651799899997 ], [ -115.2688536, 36.214632899900003 ], [ -115.2688509, 36.214632899900003 ], [ -115.2688509, 36.214627499899997 ], [ -115.2688482, 36.214627499899997 ], [ -115.2688482, 36.214624799900001 ], [ -115.2688428, 36.214624799900001 ], [ -115.2688428, 36.214622099899998 ], [ -115.2688212, 36.214622099899998 ], [ -115.2688212, 36.214619399900002 ], [ -115.2688185, 36.214619399900002 ], [ -115.2688185, 36.214613999900003 ], [ -115.2688158, 36.214613999900003 ], [ -115.2688158, 36.2146058999 ], [ -115.2688131, 36.2146058999 ], [ -115.2688131, 36.214592399899999 ], [ -115.2688158, 36.214592399899999 ], [ -115.2688158, 36.214589699900003 ], [ -115.2688185, 36.214589699900003 ], [ -115.2688185, 36.2145869999 ], [ -115.2688212, 36.2145869999 ], [ -115.2688212, 36.214584299899997 ], [ -115.2688239, 36.214584299899997 ], [ -115.2688239, 36.214581599900001 ], [ -115.2688293, 36.214581599900001 ], [ -115.2688293, 36.214578899899998 ], [ -115.2688347, 36.214578899899998 ], [ -115.2688347, 36.214576199900002 ], [ -115.2688536, 36.214576199900002 ], [ -115.2688536, 36.214573499899998 ], [ -115.2688725, 36.214573499899998 ], [ -115.2688725, 36.214570799900002 ], [ -115.2688887, 36.214570799900002 ], [ -115.2688887, 36.214568099899999 ], [ -115.26890490000001, 36.214568099899999 ], [ -115.26890490000001, 36.214565399900003 ], [ -115.2689076, 36.214565399900003 ], [ -115.2689076, 36.214727399899999 ], [ -115.2689022, 36.214727399899999 ], [ -115.2689022, 36.214730099900002 ] ] ] } },
{ "type": "Feature", "properties": { "value": 255.0 }, "geometry": { "type": "Polygon", "coordinates": [ [ [ -115.2676143, 36.214681499900003 ], [ -115.2675738, 36.214681499900003 ], [ -115.2675738, 36.214676099900004 ], [ -115.2675711, 36.214676099900004 ], [ -115.2675711, 36.214665299899998 ], [ -115.2675684, 36.214665299899998 ], [ -115.2675684, 36.2146544999 ], [ -115.267563, 36.2146544999 ], [ -115.267563, 36.214651799899997 ], [ -115.2675522, 36.214651799899997 ], [ -115.2675522, 36.2146544999 ], [ -115.267536, 36.2146544999 ], [ -115.267536, 36.214651799899997 ], [ -115.2675117, 36.214651799899997 ], [ -115.2675117, 36.2146544999 ], [ -115.2674982, 36.2146544999 ], [ -115.2674982, 36.214651799899997 ], [ -115.2674928, 36.214651799899997 ], [ -115.2674928, 36.214643699900002 ], [ -115.2674901, 36.214643699900002 ], [ -115.2674901, 36.214624799900001 ], [ -115.2674874, 36.214624799900001 ], [ -115.2674874, 36.214622099899998 ], [ -115.2674847, 36.214622099899998 ], [ -115.2674847, 36.214619399900002 ], [ -115.267482, 36.214619399900002 ], [ -115.267482, 36.214613999900003 ], [ -115.2674793, 36.214613999900003 ], [ -115.2674793, 36.214597799899998 ], [ -115.2674766, 36.214597799899998 ], [ -115.2674766, 36.214589699900003 ], [ -115.2674739, 36.214589699900003 ], [ -115.2674739, 36.214581599900001 ], [ -115.2674766, 36.214581599900001 ], [ -115.2674766, 36.214578899899998 ], [ -115.2674793, 36.214578899899998 ], [ -115.2674793, 36.214576199900002 ], [ -115.267482, 36.214576199900002 ], [ -115.267482, 36.214573499899998 ], [ -115.2674928, 36.214573499899998 ], [ -115.2674928, 36.214570799900002 ], [ -115.2675171, 36.214570799900002 ], [ -115.2675171, 36.214568099899999 ], [ -115.2675279, 36.214568099899999 ], [ -115.2675279, 36.214565399900003 ], [ -115.2675333, 36.214565399900003 ], [ -115.2675333, 36.214568099899999 ], [ -115.2675927, 36.214568099899999 ], [ -115.2675927, 36.214565399900003 ], [ -115.2676008, 36.214565399900003 ], [ -115.2676008, 36.2145626999 ], [ -115.2676359, 36.2145626999 ], [ -115.2676359, 36.214559999899997 ], [ -115.26764940000001, 36.214559999899997 ], [ -115.26764940000001, 36.214557299900001 ], [ -115.2676602, 36.214557299900001 ], [ -115.2676602, 36.214554599899998 ], [ -115.267671, 36.214554599899998 ], [ -115.267671, 36.214551899900002 ], [ -115.2676899, 36.214551899900002 ], [ -115.2676899, 36.214549199899999 ], [ -115.2676953, 36.214549199899999 ], [ -115.2676953, 36.214551899900002 ], [ -115.2677061, 36.214551899900002 ], [ -115.2677061, 36.214554599899998 ], [ -115.2677115, 36.214554599899998 ], [ -115.2677115, 36.214559999899997 ], [ -115.2677142, 36.214559999899997 ], [ -115.2677142, 36.2145626999 ], [ -115.267716900000011, 36.2145626999 ], [ -115.267716900000011, 36.214578899899998 ], [ -115.2677196, 36.214578899899998 ], [ -115.2677196, 36.214595099900002 ], [ -115.2677223, 36.214595099900002 ], [ -115.2677223, 36.2146112999 ], [ -115.2677196, 36.2146112999 ], [ -115.2677196, 36.214613999900003 ], [ -115.2677142, 36.214613999900003 ], [ -115.2677142, 36.214616699899999 ], [ -115.2677115, 36.214616699899999 ], [ -115.2677115, 36.214619399900002 ], [ -115.2677088, 36.214619399900002 ], [ -115.2677088, 36.214622099899998 ], [ -115.2677034, 36.214622099899998 ], [ -115.2677034, 36.214624799900001 ], [ -115.2676872, 36.214624799900001 ], [ -115.2676872, 36.214627499899997 ], [ -115.2676791, 36.214627499899997 ], [ -115.2676791, 36.2146301999 ], [ -115.2676764, 36.2146301999 ], [ -115.2676764, 36.214635599899999 ], [ -115.2676737, 36.214635599899999 ], [ -115.2676737, 36.214638299900002 ], [ -115.2676683, 36.214638299900002 ], [ -115.2676683, 36.214640999899999 ], [ -115.2676629, 36.214640999899999 ], [ -115.2676629, 36.214643699900002 ], [ -115.2676602, 36.214643699900002 ], [ -115.2676602, 36.214651799899997 ], [ -115.2676575, 36.214651799899997 ], [ -115.2676575, 36.2146544999 ], [ -115.2676548, 36.2146544999 ], [ -115.2676548, 36.214662599900002 ], [ -115.2676575, 36.214662599900002 ], [ -115.2676575, 36.214665299899998 ], [ -115.2676548, 36.214665299899998 ], [ -115.2676548, 36.214667999900001 ], [ -115.26764940000001, 36.214667999900001 ], [ -115.26764940000001, 36.214670699899997 ], [ -115.2676467, 36.214670699899997 ], [ -115.2676467, 36.214673399900001 ], [ -115.2676386, 36.214673399900001 ], [ -115.2676386, 36.214676099900004 ], [ -115.26763050000001, 36.214676099900004 ], [ -115.26763050000001, 36.2146787999 ], [ -115.2676143, 36.2146787999 ], [ -115.2676143, 36.214681499900003 ] ] ] } },
{ "type": "Feature", "properties": { "value": 255.0 }, "geometry": { "type": "Polygon", "coordinates": [ [ [ -115.2675063, 36.214546499900003 ], [ -115.26749550000001, 36.214546499900003 ], [ -115.26749550000001, 36.214543799899999 ], [ -115.2674874, 36.214543799899999 ], [ -115.2674874, 36.214541099900003 ], [ -115.267482, 36.214541099900003 ], [ -115.267482, 36.2145383999 ], [ -115.2674793, 36.2145383999 ], [ -115.2674793, 36.214532999900001 ], [ -115.2674766, 36.214532999900001 ], [ -115.2674766, 36.214524899899999 ], [ -115.2674739, 36.214524899899999 ], [ -115.2674739, 36.2145194999 ], [ -115.2674712, 36.2145194999 ], [ -115.2674712, 36.214508699900001 ], [ -115.2674685, 36.214508699900001 ], [ -115.2674685, 36.214497899900003 ], [ -115.2674658, 36.214497899900003 ], [ -115.2674658, 36.214487099899998 ], [ -115.2674685, 36.214487099899998 ], [ -115.2674685, 36.214478999900003 ], [ -115.2674712, 36.214478999900003 ], [ -115.2674712, 36.214473599900003 ], [ -115.2674739, 36.214473599900003 ], [ -115.2674739, 36.2144708999 ], [ -115.2674712, 36.2144708999 ], [ -115.2674712, 36.214465499900001 ], [ -115.2674685, 36.214465499900001 ], [ -115.2674685, 36.214449299899997 ], [ -115.2674658, 36.214449299899997 ], [ -115.2674658, 36.214438499899998 ], [ -115.2674685, 36.214438499899998 ], [ -115.2674685, 36.214435799900002 ], [ -115.2674712, 36.214435799900002 ], [ -115.2674712, 36.214433099899999 ], [ -115.2674739, 36.214433099899999 ], [ -115.2674739, 36.214430399900003 ], [ -115.2674766, 36.214430399900003 ], [ -115.2674766, 36.2144276999 ], [ -115.2674793, 36.2144276999 ], [ -115.2674793, 36.214424999899997 ], [ -115.267482, 36.214424999899997 ], [ -115.267482, 36.214422299900001 ], [ -115.2674928, 36.214422299900001 ], [ -115.2674928, 36.214419599899998 ], [ -115.267509, 36.214419599899998 ], [ -115.267509, 36.214416899900002 ], [ -115.267536, 36.214416899900002 ], [ -115.267536, 36.214414199899998 ], [ -115.267563, 36.214414199899998 ], [ -115.267563, 36.214411499900002 ], [ -115.2675792, 36.214411499900002 ], [ -115.2675792, 36.214408799899999 ], [ -115.26759, 36.214408799899999 ], [ -115.26759, 36.214406099900003 ], [ -115.2676035, 36.214406099900003 ], [ -115.2676035, 36.2144033999 ], [ -115.2676251, 36.2144033999 ], [ -115.2676251, 36.214406099900003 ], [ -115.2676332, 36.214406099900003 ], [ -115.2676332, 36.214408799899999 ], [ -115.2676386, 36.214408799899999 ], [ -115.2676386, 36.214411499900002 ], [ -115.267644, 36.214411499900002 ], [ -115.267644, 36.214414199899998 ], [ -115.2676467, 36.214414199899998 ], [ -115.2676467, 36.214416899900002 ], [ -115.26764940000001, 36.214416899900002 ], [ -115.26764940000001, 36.214419599899998 ], [ -115.2676521, 36.214419599899998 ], [ -115.2676521, 36.214422299900001 ], [ -115.2676602, 36.214422299900001 ], [ -115.2676602, 36.214424999899997 ], [ -115.2676629, 36.214424999899997 ], [ -115.2676629, 36.214422299900001 ], [ -115.267671, 36.214422299900001 ], [ -115.267671, 36.214424999899997 ], [ -115.2676737, 36.214424999899997 ], [ -115.2676737, 36.214430399900003 ], [ -115.2676764, 36.214430399900003 ], [ -115.2676764, 36.214435799900002 ], [ -115.2676791, 36.214435799900002 ], [ -115.2676791, 36.214441199900001 ], [ -115.2676872, 36.214441199900001 ], [ -115.2676872, 36.214443899899997 ], [ -115.2676926, 36.214443899899997 ], [ -115.2676926, 36.2144465999 ], [ -115.2676953, 36.2144465999 ], [ -115.2676953, 36.214449299899997 ], [ -115.267698, 36.214449299899997 ], [ -115.267698, 36.2144519999 ], [ -115.2677007, 36.2144519999 ], [ -115.2677007, 36.214457399899999 ], [ -115.2677034, 36.214457399899999 ], [ -115.2677034, 36.2144708999 ], [ -115.2677061, 36.2144708999 ], [ -115.2677061, 36.214487099899998 ], [ -115.2677088, 36.214487099899998 ], [ -115.2677088, 36.214505999899998 ], [ -115.267698, 36.214505999899998 ], [ -115.267698, 36.214508699900001 ], [ -115.2676818, 36.214508699900001 ], [ -115.2676818, 36.214511399899997 ], [ -115.267671, 36.214511399899997 ], [ -115.267671, 36.214514099900001 ], [ -115.2676548, 36.214514099900001 ], [ -115.2676548, 36.214516799899997 ], [ -115.2676413, 36.214516799899997 ], [ -115.2676413, 36.2145194999 ], [ -115.26763050000001, 36.2145194999 ], [ -115.26763050000001, 36.214522199900003 ], [ -115.2676224, 36.214522199900003 ], [ -115.2676224, 36.214524899899999 ], [ -115.2676143, 36.214524899899999 ], [ -115.2676143, 36.214527599900002 ], [ -115.2676062, 36.214527599900002 ], [ -115.2676062, 36.214530299899998 ], [ -115.2675981, 36.214530299899998 ], [ -115.2675981, 36.214532999900001 ], [ -115.2675846, 36.214532999900001 ], [ -115.2675846, 36.214535699899997 ], [ -115.2675603, 36.214535699899997 ], [ -115.2675603, 36.2145383999 ], [ -115.2675333, 36.2145383999 ], [ -115.2675333, 36.214541099900003 ], [ -115.2675171, 36.214541099900003 ], [ -115.2675171, 36.214543799899999 ], [ -115.2675063, 36.214543799899999 ], [ -115.2675063, 36.214546499900003 ] ] ] } },
{ "type": "Feature", "properties": { "value": 255.0 }, "geometry": { "type": "Polygon", "coordinates": [ [ [ -115.26883740000001, 36.2145383999 ], [ -115.2688239, 36.2145383999 ], [ -115.2688239, 36.214535699899997 ], [ -115.2688212, 36.214535699899997 ], [ -115.2688212, 36.214530299899998 ], [ -115.2688185, 36.214530299899998 ], [ -115.2688185, 36.214527599900002 ], [ -115.2688158, 36.214527599900002 ], [ -115.2688158, 36.214522199900003 ], [ -115.2688131, 36.214522199900003 ], [ -115.2688131, 36.2145194999 ], [ -115.2688104, 36.2145194999 ], [ -115.2688104, 36.214514099900001 ], [ -115.268807700000011, 36.214514099900001 ], [ -115.268807700000011, 36.214505999899998 ], [ -115.268805, 36.214505999899998 ], [ -115.268805, 36.214497899900003 ], [ -115.2688023, 36.214497899900003 ], [ -115.2688023, 36.214489799900001 ], [ -115.2687996, 36.214489799900001 ], [ -115.2687996, 36.214481699899999 ], [ -115.268796900000012, 36.214481699899999 ], [ -115.268796900000012, 36.214473599900003 ], [ -115.2687942, 36.214473599900003 ], [ -115.2687942, 36.214468199899997 ], [ -115.2687915, 36.214468199899997 ], [ -115.2687915, 36.214457399899999 ], [ -115.26878880000001, 36.214457399899999 ], [ -115.26878880000001, 36.2144519999 ], [ -115.2687861, 36.2144519999 ], [ -115.2687861, 36.214449299899997 ], [ -115.2687834, 36.214449299899997 ], [ -115.2687834, 36.214430399900003 ], [ -115.2687861, 36.214430399900003 ], [ -115.2687861, 36.214408799899999 ], [ -115.26878880000001, 36.214408799899999 ], [ -115.26878880000001, 36.214406099900003 ], [ -115.2687915, 36.214406099900003 ], [ -115.2687915, 36.2144033999 ], [ -115.2688104, 36.2144033999 ], [ -115.2688104, 36.214400699899997 ], [ -115.2688212, 36.214400699899997 ], [ -115.2688212, 36.214397999900001 ], [ -115.2688293, 36.214397999900001 ], [ -115.2688293, 36.214395299899998 ], [ -115.2688482, 36.214395299899998 ], [ -115.2688482, 36.214397999900001 ], [ -115.26885630000001, 36.214397999900001 ], [ -115.26885630000001, 36.214395299899998 ], [ -115.268864400000012, 36.214395299899998 ], [ -115.268864400000012, 36.214392599900002 ], [ -115.268875200000011, 36.214392599900002 ], [ -115.268875200000011, 36.214389899899999 ], [ -115.2688806, 36.214389899899999 ], [ -115.2688806, 36.214387199900003 ], [ -115.2688968, 36.214387199900003 ], [ -115.2688968, 36.214389899899999 ], [ -115.2688995, 36.214389899899999 ], [ -115.2688995, 36.214387199900003 ], [ -115.2689076, 36.214387199900003 ], [ -115.2689076, 36.214527599900002 ], [ -115.2688995, 36.214527599900002 ], [ -115.2688995, 36.214530299899998 ], [ -115.2688833, 36.214530299899998 ], [ -115.2688833, 36.214532999900001 ], [ -115.268864400000012, 36.214532999900001 ], [ -115.268864400000012, 36.214530299899998 ], [ -115.26885630000001, 36.214530299899998 ], [ -115.26885630000001, 36.214532999900001 ], [ -115.268845500000012, 36.214532999900001 ], [ -115.268845500000012, 36.214535699899997 ], [ -115.26883740000001, 36.214535699899997 ], [ -115.26883740000001, 36.2145383999 ] ] ] } },
{ "type": "Feature", "properties": { "value": 255.0 }, "geometry": { "type": "Polygon", "coordinates": [ [ [ -115.2687726, 36.214346699899998 ], [ -115.2687564, 36.214346699899998 ], [ -115.2687564, 36.214341299899999 ], [ -115.268751, 36.214341299899999 ], [ -115.268751, 36.214338599900003 ], [ -115.2687348, 36.214338599900003 ], [ -115.2687348, 36.214341299899999 ], [ -115.268724, 36.214341299899999 ], [ -115.268724, 36.214343999900002 ], [ -115.268710500000012, 36.214343999900002 ], [ -115.268710500000012, 36.214341299899999 ], [ -115.2687078, 36.214341299899999 ], [ -115.2687078, 36.214338599900003 ], [ -115.2687051, 36.214338599900003 ], [ -115.2687051, 36.2143358999 ], [ -115.2687024, 36.2143358999 ], [ -115.2687024, 36.214333199899997 ], [ -115.2686997, 36.214333199899997 ], [ -115.2686997, 36.214330499900001 ], [ -115.268697, 36.214330499900001 ], [ -115.268697, 36.214327799899998 ], [ -115.2686943, 36.214327799899998 ], [ -115.2686943, 36.214325099900002 ], [ -115.268691600000011, 36.214325099900002 ], [ -115.268691600000011, 36.214322399899999 ], [ -115.2686889, 36.214322399899999 ], [ -115.2686889, 36.214319699900003 ], [ -115.2686862, 36.214319699900003 ], [ -115.2686862, 36.214314299899996 ], [ -115.2686835, 36.214314299899996 ], [ -115.2686835, 36.214306199900001 ], [ -115.2686808, 36.214306199900001 ], [ -115.2686808, 36.214300799900002 ], [ -115.2686781, 36.214300799900002 ], [ -115.2686781, 36.2142926999 ], [ -115.2688698, 36.2142926999 ], [ -115.2688698, 36.214295399900003 ], [ -115.2688671, 36.214295399900003 ], [ -115.2688671, 36.214298099899999 ], [ -115.2688698, 36.214298099899999 ], [ -115.2688698, 36.214306199900001 ], [ -115.2688725, 36.214306199900001 ], [ -115.2688725, 36.214316999899999 ], [ -115.2688698, 36.214316999899999 ], [ -115.2688698, 36.214319699900003 ], [ -115.2688671, 36.214319699900003 ], [ -115.2688671, 36.214322399899999 ], [ -115.268864400000012, 36.214322399899999 ], [ -115.268864400000012, 36.214325099900002 ], [ -115.2688617, 36.214325099900002 ], [ -115.2688617, 36.214327799899998 ], [ -115.26885630000001, 36.214327799899998 ], [ -115.26885630000001, 36.214330499900001 ], [ -115.2688536, 36.214330499900001 ], [ -115.2688536, 36.214333199899997 ], [ -115.2688482, 36.214333199899997 ], [ -115.2688482, 36.2143358999 ], [ -115.2688428, 36.2143358999 ], [ -115.2688428, 36.214338599900003 ], [ -115.268832, 36.214338599900003 ], [ -115.268832, 36.214341299899999 ], [ -115.2688131, 36.214341299899999 ], [ -115.2688131, 36.214338599900003 ], [ -115.268805, 36.214338599900003 ], [ -115.268805, 36.2143358999 ], [ -115.2687942, 36.2143358999 ], [ -115.2687942, 36.214338599900003 ], [ -115.2687861, 36.214338599900003 ], [ -115.2687861, 36.214341299899999 ], [ -115.268778, 36.214341299899999 ], [ -115.268778, 36.214343999900002 ], [ -115.2687726, 36.214343999900002 ], [ -115.2687726, 36.214346699899998 ] ] ] } },
{ "type": "Feature", "properties": { "value": 255.0 }, "geometry": { "type": "Polygon", "coordinates": [ [ [ -115.2674577, 36.214338599900003 ], [ -115.26744690000001, 36.214338599900003 ], [ -115.26744690000001, 36.2143358999 ], [ -115.2674442, 36.2143358999 ], [ -115.2674442, 36.214333199899997 ], [ -115.2674388, 36.214333199899997 ], [ -115.2674388, 36.214330499900001 ], [ -115.2674334, 36.214330499900001 ], [ -115.2674334, 36.214327799899998 ], [ -115.2674307, 36.214327799899998 ], [ -115.2674307, 36.214325099900002 ], [ -115.267428, 36.214325099900002 ], [ -115.267428, 36.214322399899999 ], [ -115.2674172, 36.214322399899999 ], [ -115.2674172, 36.214325099900002 ], [ -115.2674118, 36.214325099900002 ], [ -115.2674118, 36.214327799899998 ], [ -115.2674091, 36.214327799899998 ], [ -115.2674091, 36.214330499900001 ], [ -115.2673983, 36.214330499900001 ], [ -115.2673983, 36.214333199899997 ], [ -115.2673956, 36.214333199899997 ], [ -115.2673956, 36.214330499900001 ], [ -115.2673875, 36.214330499900001 ], [ -115.2673875, 36.214327799899998 ], [ -115.2673767, 36.214327799899998 ], [ -115.2673767, 36.214330499900001 ], [ -115.267374, 36.214330499900001 ], [ -115.267374, 36.214333199899997 ], [ -115.2673632, 36.214333199899997 ], [ -115.2673632, 36.214330499900001 ], [ -115.267347, 36.214330499900001 ], [ -115.267347, 36.214327799899998 ], [ -115.2673416, 36.214327799899998 ], [ -115.2673416, 36.214325099900002 ], [ -115.2673389, 36.214325099900002 ], [ -115.2673389, 36.214322399899999 ], [ -115.2673362, 36.214322399899999 ], [ -115.2673362, 36.214319699900003 ], [ -115.2673335, 36.214319699900003 ], [ -115.2673335, 36.214316999899999 ], [ -115.2673308, 36.214316999899999 ], [ -115.2673308, 36.214314299899996 ], [ -115.2673281, 36.214314299899996 ], [ -115.2673281, 36.2143115999 ], [ -115.2673254, 36.2143115999 ], [ -115.2673254, 36.214308899899997 ], [ -115.2673227, 36.214308899899997 ], [ -115.2673227, 36.214306199900001 ], [ -115.26732, 36.214306199900001 ], [ -115.26732, 36.214303499899998 ], [ -115.2673173, 36.214303499899998 ], [ -115.2673173, 36.214300799900002 ], [ -115.2673146, 36.214300799900002 ], [ -115.2673146, 36.214298099899999 ], [ -115.26731190000001, 36.214298099899999 ], [ -115.26731190000001, 36.214295399900003 ], [ -115.2673092, 36.214295399900003 ], [ -115.2673092, 36.2142926999 ], [ -115.26751440000001, 36.2142926999 ], [ -115.26751440000001, 36.214295399900003 ], [ -115.2675117, 36.214295399900003 ], [ -115.2675117, 36.214300799900002 ], [ -115.26751440000001, 36.214300799900002 ], [ -115.26751440000001, 36.214303499899998 ], [ -115.2675117, 36.214303499899998 ], [ -115.2675117, 36.214306199900001 ], [ -115.267509, 36.214306199900001 ], [ -115.267509, 36.214308899899997 ], [ -115.2675063, 36.214308899899997 ], [ -115.2675063, 36.2143115999 ], [ -115.2675036, 36.2143115999 ], [ -115.2675036, 36.214314299899996 ], [ -115.2675009, 36.214314299899996 ], [ -115.2675009, 36.214316999899999 ], [ -115.2674982, 36.214316999899999 ], [ -115.2674982, 36.214319699900003 ], [ -115.2674928, 36.214319699900003 ], [ -115.2674928, 36.214322399899999 ], [ -115.2674874, 36.214322399899999 ], [ -115.2674874, 36.214325099900002 ], [ -115.267482, 36.214325099900002 ], [ -115.267482, 36.214327799899998 ], [ -115.2674766, 36.214327799899998 ], [ -115.2674766, 36.214330499900001 ], [ -115.2674712, 36.214330499900001 ], [ -115.2674712, 36.214333199899997 ], [ -115.2674631, 36.214333199899997 ], [ -115.2674631, 36.2143358999 ], [ -115.2674577, 36.2143358999 ], [ -115.2674577, 36.214338599900003 ] ] ] } }
]
}
