{
"type": "FeatureCollection",
"crs": { "type": "name", "properties": { "name": "urn:ogc:def:crs:OGC:1.3:CRS84" } },
"features": [
{ "type": "Feature", "properties": { "value": 255.0 }, "geometry": { "type": "Polygon", "coordinates": [ [ [ -115.1866224, 36.198003599900005 ], [ -115.186617, 36.198003599900005 ], [ -115.186617, 36.198000899900002 ], [ -115.1866143, 36.198000899900002 ], [ -115.1866143, 36.197998199899999 ], [ -115.1866116, 36.197998199899999 ], [ -115.1866116, 36.197995499900003 ], [ -115.1866089, 36.197995499900003 ], [ -115.1866089, 36.197990099900004 ], [ -115.1866116, 36.197990099900004 ], [ -115.1866116, 36.197987399900001 ], [ -115.1866224, 36.197987399900001 ], [ -115.1866224, 36.1979927999 ], [ -115.1866305, 36.1979927999 ], [ -115.1866305, 36.197990099900004 ], [ -115.1866359, 36.197990099900004 ], [ -115.1866359, 36.198000899900002 ], [ -115.1866224, 36.198000899900002 ], [ -115.1866224, 36.198003599900005 ] ] ] } },
{ "type": "Feature", "properties": { "value": 255.0 }, "geometry": { "type": "Polygon", "coordinates": [ [ [ -115.1881776, 36.198125099900004 ], [ -115.1881209, 36.198125099900004 ], [ -115.1881209, 36.198122399900001 ], [ -115.1881101, 36.198122399900001 ], [ -115.1881101, 36.198119699900005 ], [ -115.1880993, 36.198119699900005 ], [ -115.1880993, 36.198116999900002 ], [ -115.1880912, 36.198116999900002 ], [ -115.1880912, 36.198114299899999 ], [ -115.1880858, 36.198114299899999 ], [ -115.1880858, 36.198111599900002 ], [ -115.1880831, 36.198111599900002 ], [ -115.1880831, 36.198108899899999 ], [ -115.1880804, 36.198108899899999 ], [ -115.1880804, 36.198100799900004 ], [ -115.1880777, 36.198100799900004 ], [ -115.1880777, 36.198095399900005 ], [ -115.1880804, 36.198095399900005 ], [ -115.1880804, 36.198087299900003 ], [ -115.1880831, 36.198087299900003 ], [ -115.1880831, 36.1980845999 ], [ -115.1880804, 36.1980845999 ], [ -115.1880804, 36.198062999900003 ], [ -115.1880831, 36.198062999900003 ], [ -115.1880831, 36.198046799899998 ], [ -115.1880858, 36.198046799899998 ], [ -115.1880858, 36.198041399899999 ], [ -115.1880885, 36.198041399899999 ], [ -115.1880885, 36.198022499899999 ], [ -115.1880858, 36.198022499899999 ], [ -115.1880858, 36.1980116999 ], [ -115.1880831, 36.1980116999 ], [ -115.1880831, 36.198006299900001 ], [ -115.1880858, 36.198006299900001 ], [ -115.1880858, 36.197979299899998 ], [ -115.1880885, 36.197979299899998 ], [ -115.1880885, 36.197973899899999 ], [ -115.1880912, 36.197973899899999 ], [ -115.1880912, 36.197971199900003 ], [ -115.1880939, 36.197971199900003 ], [ -115.1880939, 36.1979684999 ], [ -115.1880966, 36.1979684999 ], [ -115.1880966, 36.197965799900004 ], [ -115.1880993, 36.197965799900004 ], [ -115.1880993, 36.197963099900001 ], [ -115.188102, 36.197963099900001 ], [ -115.188102, 36.197954999899999 ], [ -115.1881047, 36.197954999899999 ], [ -115.1881047, 36.197936099900005 ], [ -115.1881074, 36.197936099900005 ], [ -115.1881074, 36.197930699899999 ], [ -115.1881047, 36.197930699899999 ], [ -115.1881047, 36.1979198999 ], [ -115.1881074, 36.1979198999 ], [ -115.1881074, 36.197917199900004 ], [ -115.1881155, 36.197917199900004 ], [ -115.1881155, 36.197914499900001 ], [ -115.1881263, 36.197914499900001 ], [ -115.1881263, 36.197917199900004 ], [ -115.1881371, 36.197917199900004 ], [ -115.1881371, 36.1979198999 ], [ -115.1881452, 36.1979198999 ], [ -115.1881452, 36.197922599900004 ], [ -115.1881587, 36.197922599900004 ], [ -115.1881587, 36.1979198999 ], [ -115.1881695, 36.1979198999 ], [ -115.1881695, 36.197922599900004 ], [ -115.1881776, 36.197922599900004 ], [ -115.1881776, 36.198125099900004 ] ] ] } },
{ "type": "Feature", "properties": { "value": 255.0 }, "geometry": { "type": "Polygon", "coordinates": [ [ [ -115.1866926, 36.197161199900002 ], [ -115.1866764, 36.197161199900002 ], [ -115.1866764, 36.197158499899999 ], [ -115.1866656, 36.197158499899999 ], [ -115.1866656, 36.197155799900003 ], [ -115.1866548, 36.197155799900003 ], [ -115.1866548, 36.197158499899999 ], [ -115.1866413, 36.197158499899999 ], [ -115.1866413, 36.197155799900003 ], [ -115.1866305, 36.197155799900003 ], [ -115.1866305, 36.1971530999 ], [ -115.1866278, 36.1971530999 ], [ -115.1866278, 36.197150399900003 ], [ -115.1866251, 36.197150399900003 ], [ -115.1866251, 36.197144999899997 ], [ -115.1866278, 36.197144999899997 ], [ -115.1866278, 36.1971287999 ], [ -115.1866305, 36.1971287999 ], [ -115.1866305, 36.197126099900004 ], [ -115.1866332, 36.197126099900004 ], [ -115.1866332, 36.197123399900001 ], [ -115.1866386, 36.197123399900001 ], [ -115.1866386, 36.197126099900004 ], [ -115.1866899, 36.197126099900004 ], [ -115.1866899, 36.197123399900001 ], [ -115.1866953, 36.197123399900001 ], [ -115.1866953, 36.197126099900004 ], [ -115.186698, 36.197126099900004 ], [ -115.186698, 36.197131499900003 ], [ -115.1867007, 36.197131499900003 ], [ -115.1867007, 36.1971530999 ], [ -115.1866953, 36.1971530999 ], [ -115.1866953, 36.197155799900003 ], [ -115.1866926, 36.197155799900003 ], [ -115.1866926, 36.197161199900002 ] ] ] } },
{ "type": "Feature", "properties": { "value": 255.0 }, "geometry": { "type": "Polygon", "coordinates": [ [ [ -115.1865603, 36.197112599900002 ], [ -115.1865252, 36.197112599900002 ], [ -115.1865252, 36.197109899899999 ], [ -115.1865171, 36.197109899899999 ], [ -115.1865171, 36.197107199900003 ], [ -115.1865144, 36.197107199900003 ], [ -115.1865144, 36.197090999899999 ], [ -115.1865171, 36.197090999899999 ], [ -115.1865171, 36.197085599899999 ], [ -115.1865198, 36.197085599899999 ], [ -115.1865198, 36.197082899900003 ], [ -115.1865306, 36.197082899900003 ], [ -115.1865306, 36.1970801999 ], [ -115.1865657, 36.1970801999 ], [ -115.1865657, 36.197077499899997 ], [ -115.1865765, 36.197077499899997 ], [ -115.1865765, 36.1970801999 ], [ -115.1865819, 36.1970801999 ], [ -115.1865819, 36.197082899900003 ], [ -115.18659, 36.197082899900003 ], [ -115.18659, 36.197085599899999 ], [ -115.1865927, 36.197085599899999 ], [ -115.1865927, 36.197088299900003 ], [ -115.1865954, 36.197088299900003 ], [ -115.1865954, 36.197107199900003 ], [ -115.1865846, 36.197107199900003 ], [ -115.1865846, 36.197109899899999 ], [ -115.1865603, 36.197109899899999 ], [ -115.1865603, 36.197112599900002 ] ] ] } },
{ "type": "Feature", "properties": { "value": 255.0 }, "geometry": { "type": "Polygon", "coordinates": [ [ [ -115.1867034, 36.197112599900002 ], [ -115.1867007, 36.197112599900002 ], [ -115.1867007, 36.197109899899999 ], [ -115.1866791, 36.197109899899999 ], [ -115.1866791, 36.197107199900003 ], [ -115.186671, 36.197107199900003 ], [ -115.186671, 36.1971044999 ], [ -115.1866683, 36.1971044999 ], [ -115.1866683, 36.197082899900003 ], [ -115.186671, 36.197082899900003 ], [ -115.186671, 36.197077499899997 ], [ -115.1866737, 36.197077499899997 ], [ -115.1866737, 36.197074799900001 ], [ -115.1867007, 36.197074799900001 ], [ -115.1867007, 36.197072099899998 ], [ -115.1867034, 36.197072099899998 ], [ -115.1867034, 36.197074799900001 ], [ -115.1867061, 36.197074799900001 ], [ -115.1867061, 36.197077499899997 ], [ -115.1867088, 36.197077499899997 ], [ -115.1867088, 36.197085599899999 ], [ -115.1867061, 36.197085599899999 ], [ -115.1867061, 36.197109899899999 ], [ -115.1867034, 36.197109899899999 ], [ -115.1867034, 36.197112599900002 ] ] ] } },
{ "type": "Feature", "properties": { "value": 255.0 }, "geometry": { "type": "Polygon", "coordinates": [ [ [ -115.1881776, 36.197085599899999 ], [ -115.1881749, 36.197085599899999 ], [ -115.1881749, 36.197082899900003 ], [ -115.1881722, 36.197082899900003 ], [ -115.1881722, 36.1970801999 ], [ -115.1881695, 36.1970801999 ], [ -115.1881695, 36.197082899900003 ], [ -115.1881533, 36.197082899900003 ], [ -115.1881533, 36.197085599899999 ], [ -115.1881479, 36.197085599899999 ], [ -115.1881479, 36.197082899900003 ], [ -115.1881398, 36.197082899900003 ], [ -115.1881398, 36.1970801999 ], [ -115.18813440000001, 36.1970801999 ], [ -115.18813440000001, 36.197069399900002 ], [ -115.1881371, 36.197069399900002 ], [ -115.1881371, 36.197053199899997 ], [ -115.18813440000001, 36.197053199899997 ], [ -115.18813440000001, 36.197050499900001 ], [ -115.1881317, 36.197050499900001 ], [ -115.1881317, 36.197047799899998 ], [ -115.1881263, 36.197047799899998 ], [ -115.1881263, 36.197053199899997 ], [ -115.1881209, 36.197053199899997 ], [ -115.1881209, 36.197047799899998 ], [ -115.1881182, 36.197047799899998 ], [ -115.1881182, 36.197045099900002 ], [ -115.1881128, 36.197045099900002 ], [ -115.1881128, 36.1970369999 ], [ -115.1881101, 36.1970369999 ], [ -115.1881101, 36.197020799900002 ], [ -115.1881128, 36.197020799900002 ], [ -115.1881128, 36.197018099899999 ], [ -115.1881101, 36.197018099899999 ], [ -115.1881101, 36.197009999899997 ], [ -115.1881128, 36.197009999899997 ], [ -115.1881128, 36.1969937999 ], [ -115.1881155, 36.1969937999 ], [ -115.1881155, 36.196991099900004 ], [ -115.1881182, 36.196991099900004 ], [ -115.1881182, 36.1969883999 ], [ -115.1881236, 36.1969883999 ], [ -115.1881236, 36.196985699899997 ], [ -115.188129, 36.196985699899997 ], [ -115.188129, 36.196982999900001 ], [ -115.1881317, 36.196982999900001 ], [ -115.1881317, 36.196980299899998 ], [ -115.188156, 36.196980299899998 ], [ -115.188156, 36.196982999900001 ], [ -115.1881641, 36.196982999900001 ], [ -115.1881641, 36.196985699899997 ], [ -115.1881668, 36.196985699899997 ], [ -115.1881668, 36.196991099900004 ], [ -115.1881722, 36.196991099900004 ], [ -115.1881722, 36.1969937999 ], [ -115.1881695, 36.1969937999 ], [ -115.1881695, 36.196999199899999 ], [ -115.1881722, 36.196999199899999 ], [ -115.1881722, 36.197015399900003 ], [ -115.1881749, 36.197015399900003 ], [ -115.1881749, 36.197023499899998 ], [ -115.1881776, 36.197023499899998 ], [ -115.1881776, 36.197085599899999 ] ] ] } },
{ "type": "Feature", "properties": { "value": 255.0 }, "geometry": { "type": "Polygon", "coordinates": [ [ [ -115.1867088, 36.196923599900003 ], [ -115.1866899, 36.196923599900003 ], [ -115.1866899, 36.1969208999 ], [ -115.1866791, 36.1969208999 ], [ -115.1866791, 36.196915499900001 ], [ -115.1866764, 36.196915499900001 ], [ -115.1866764, 36.1969019999 ], [ -115.1866791, 36.1969019999 ], [ -115.1866791, 36.196893899899997 ], [ -115.1866818, 36.196893899899997 ], [ -115.1866818, 36.196891199900001 ], [ -115.1866845, 36.196891199900001 ], [ -115.1866845, 36.196888499899998 ], [ -115.1867088, 36.196888499899998 ], [ -115.1867088, 36.196891199900001 ], [ -115.1867115, 36.196891199900001 ], [ -115.1867115, 36.1969208999 ], [ -115.1867088, 36.1969208999 ], [ -115.1867088, 36.196923599900003 ] ] ] } },
{ "type": "Feature", "properties": { "value": 255.0 }, "geometry": { "type": "Polygon", "coordinates": [ [ [ -115.1868627, 36.196888499899998 ], [ -115.1868465, 36.196888499899998 ], [ -115.1868465, 36.196885799900002 ], [ -115.1868357, 36.196885799900002 ], [ -115.1868357, 36.196866899900002 ], [ -115.1868411, 36.196866899900002 ], [ -115.1868411, 36.196874999899997 ], [ -115.1868465, 36.196874999899997 ], [ -115.1868465, 36.196872299900001 ], [ -115.1868492, 36.196872299900001 ], [ -115.1868492, 36.1968776999 ], [ -115.1868519, 36.1968776999 ], [ -115.1868519, 36.196880399900003 ], [ -115.1868573, 36.196880399900003 ], [ -115.1868573, 36.196883099899999 ], [ -115.1868654, 36.196883099899999 ], [ -115.1868654, 36.196885799900002 ], [ -115.1868627, 36.196885799900002 ], [ -115.1868627, 36.196888499899998 ] ] ] } },
{ "type": "Feature", "properties": { "value": 255.0 }, "geometry": { "type": "Polygon", "coordinates": [ [ [ -115.1868303, 36.196883099899999 ], [ -115.1868141, 36.196883099899999 ], [ -115.1868141, 36.196869599899998 ], [ -115.1868168, 36.196869599899998 ], [ -115.1868168, 36.196866899900002 ], [ -115.186833, 36.196866899900002 ], [ -115.186833, 36.196869599899998 ], [ -115.1868303, 36.196869599899998 ], [ -115.1868303, 36.196883099899999 ] ] ] } },
{ "type": "Feature", "properties": { "value": 255.0 }, "geometry": { "type": "Polygon", "coordinates": [ [ [ -115.1877483, 36.196756199900001 ], [ -115.187724, 36.196756199900001 ], [ -115.187724, 36.196753499899998 ], [ -115.1877024, 36.196753499899998 ], [ -115.1877024, 36.196750799900002 ], [ -115.1876997, 36.196750799900002 ], [ -115.1876997, 36.196748099899999 ], [ -115.187697, 36.196748099899999 ], [ -115.187697, 36.1967426999 ], [ -115.1877537, 36.1967426999 ], [ -115.1877537, 36.196753499899998 ], [ -115.1877483, 36.196753499899998 ], [ -115.1877483, 36.196756199900001 ] ] ] } }
]
}
