{
"type": "FeatureCollection",
"crs": { "type": "name", "properties": { "name": "urn:ogc:def:crs:OGC:1.3:CRS84" } },
"features": [
{ "type": "Feature", "properties": { "value": 255.0 }, "geometry": { "type": "Polygon", "coordinates": [ [ [ -115.1565795, 36.187616699799996 ], [ -115.1565201, 36.187616699799996 ], [ -115.1565201, 36.1876139998 ], [ -115.1564985, 36.1876139998 ], [ -115.1564985, 36.187611299799997 ], [ -115.1564958, 36.187611299799997 ], [ -115.1564958, 36.187608599800001 ], [ -115.1564931, 36.187608599800001 ], [ -115.1564931, 36.187538399799998 ], [ -115.1564958, 36.187538399799998 ], [ -115.1564958, 36.187535699800002 ], [ -115.1564985, 36.187535699800002 ], [ -115.1564985, 36.187516799800001 ], [ -115.1565012, 36.187516799800001 ], [ -115.1565012, 36.187514099799998 ], [ -115.1565039, 36.187514099799998 ], [ -115.1565039, 36.187511399800002 ], [ -115.1565768, 36.187511399800002 ], [ -115.1565768, 36.187514099799998 ], [ -115.1565876, 36.187514099799998 ], [ -115.1565876, 36.1876139998 ], [ -115.1565795, 36.1876139998 ], [ -115.1565795, 36.187616699799996 ] ] ] } },
{ "type": "Feature", "properties": { "value": 255.0 }, "geometry": { "type": "Polygon", "coordinates": [ [ [ -115.1565876, 36.187284599800002 ], [ -115.1565687, 36.187284599800002 ], [ -115.1565687, 36.187241399800001 ], [ -115.156566, 36.187241399800001 ], [ -115.156566, 36.187238699799998 ], [ -115.156563299999988, 36.187238699799998 ], [ -115.156563299999988, 36.187235999800002 ], [ -115.1564796, 36.187235999800002 ], [ -115.1564796, 36.187233299799999 ], [ -115.1564769, 36.187233299799999 ], [ -115.1564769, 36.1871603998 ], [ -115.1564796, 36.1871603998 ], [ -115.1564796, 36.187141499799999 ], [ -115.1564823, 36.187141499799999 ], [ -115.1564823, 36.187122599799999 ], [ -115.1564796, 36.187122599799999 ], [ -115.1564796, 36.187106399800001 ], [ -115.1565255, 36.187106399800001 ], [ -115.1565255, 36.187109099799997 ], [ -115.1565309, 36.187109099799997 ], [ -115.1565309, 36.187114499800003 ], [ -115.156533599999989, 36.187114499800003 ], [ -115.156533599999989, 36.187133399799997 ], [ -115.1565309, 36.187133399799997 ], [ -115.1565309, 36.187144199800002 ], [ -115.156533599999989, 36.187144199800002 ], [ -115.156533599999989, 36.187152299799997 ], [ -115.1565363, 36.187152299799997 ], [ -115.1565363, 36.187154999800001 ], [ -115.1565552, 36.187154999800001 ], [ -115.1565552, 36.187157699799997 ], [ -115.156563299999988, 36.187157699799997 ], [ -115.156563299999988, 36.187154999800001 ], [ -115.1565768, 36.187154999800001 ], [ -115.1565768, 36.187157699799997 ], [ -115.1565849, 36.187157699799997 ], [ -115.1565849, 36.187154999800001 ], [ -115.1565876, 36.187154999800001 ], [ -115.1565876, 36.187284599800002 ] ] ] } },
{ "type": "Feature", "properties": { "value": 255.0 }, "geometry": { "type": "Polygon", "coordinates": [ [ [ -115.1565876, 36.186901199799998 ], [ -115.1564931, 36.186901199799998 ], [ -115.1564931, 36.186898499800002 ], [ -115.1564904, 36.186898499800002 ], [ -115.1564904, 36.186871499799999 ], [ -115.1564877, 36.186871499799999 ], [ -115.1564877, 36.1868606998 ], [ -115.156485, 36.1868606998 ], [ -115.156485, 36.186828299799998 ], [ -115.1564877, 36.186828299799998 ], [ -115.1564877, 36.186825599800002 ], [ -115.1565768, 36.186825599800002 ], [ -115.1565768, 36.186828299799998 ], [ -115.1565876, 36.186828299799998 ], [ -115.1565876, 36.186901199799998 ] ] ] } },
{ "type": "Feature", "properties": { "value": 255.0 }, "geometry": { "type": "Polygon", "coordinates": [ [ [ -115.1565876, 36.186471899800004 ], [ -115.1565849, 36.186471899800004 ], [ -115.1565849, 36.186469199800001 ], [ -115.1565741, 36.186469199800001 ], [ -115.1565741, 36.186471899800004 ], [ -115.1565714, 36.186471899800004 ], [ -115.1565714, 36.186469199800001 ], [ -115.1565255, 36.186469199800001 ], [ -115.1565255, 36.186471899800004 ], [ -115.156514699999988, 36.186471899800004 ], [ -115.156514699999988, 36.186469199800001 ], [ -115.156512, 36.186469199800001 ], [ -115.156512, 36.186466499799998 ], [ -115.1565093, 36.186466499799998 ], [ -115.1565093, 36.186412499799999 ], [ -115.156512, 36.186412499799999 ], [ -115.156512, 36.1864070998 ], [ -115.1565876, 36.1864070998 ], [ -115.1565876, 36.186471899800004 ] ] ] } },
{ "type": "Feature", "properties": { "value": 255.0 }, "geometry": { "type": "Polygon", "coordinates": [ [ [ -115.1556264, 36.186982199799999 ], [ -115.1556156, 36.186982199799999 ], [ -115.1556156, 36.186979499800003 ], [ -115.1555994, 36.186979499800003 ], [ -115.1555994, 36.1869767998 ], [ -115.1555967, 36.1869767998 ], [ -115.1555967, 36.186974099799997 ], [ -115.155594, 36.186974099799997 ], [ -115.155594, 36.186971399800001 ], [ -115.1555913, 36.186971399800001 ], [ -115.1555913, 36.186968699799998 ], [ -115.1555805, 36.186968699799998 ], [ -115.1555805, 36.186965999800002 ], [ -115.1555697, 36.186965999800002 ], [ -115.1555697, 36.186963299799999 ], [ -115.1555562, 36.186963299799999 ], [ -115.1555562, 36.186965999800002 ], [ -115.1555508, 36.186965999800002 ], [ -115.1555508, 36.186963299799999 ], [ -115.1555427, 36.186963299799999 ], [ -115.1555427, 36.186965999800002 ], [ -115.1552997, 36.186965999800002 ], [ -115.1552997, 36.186963299799999 ], [ -115.1552781, 36.186963299799999 ], [ -115.1552781, 36.186965999800002 ], [ -115.1552727, 36.186965999800002 ], [ -115.1552727, 36.186963299799999 ], [ -115.1552484, 36.186963299799999 ], [ -115.1552484, 36.186960599800003 ], [ -115.1551836, 36.186960599800003 ], [ -115.1551836, 36.186957899799999 ], [ -115.1551782, 36.186957899799999 ], [ -115.1551782, 36.186960599800003 ], [ -115.155162, 36.186960599800003 ], [ -115.155162, 36.186963299799999 ], [ -115.1551566, 36.186963299799999 ], [ -115.1551566, 36.186965999800002 ], [ -115.1551512, 36.186965999800002 ], [ -115.1551512, 36.186968699799998 ], [ -115.15514850000001, 36.186968699799998 ], [ -115.15514850000001, 36.186971399800001 ], [ -115.1551458, 36.186971399800001 ], [ -115.1551458, 36.186974099799997 ], [ -115.1551269, 36.186974099799997 ], [ -115.1551269, 36.1869767998 ], [ -115.1551107, 36.1869767998 ], [ -115.1551107, 36.186979499800003 ], [ -115.1550675, 36.186979499800003 ], [ -115.1550675, 36.1869767998 ], [ -115.1550621, 36.1869767998 ], [ -115.1550621, 36.186971399800001 ], [ -115.1550594, 36.186971399800001 ], [ -115.1550594, 36.186968699799998 ], [ -115.1550567, 36.186968699799998 ], [ -115.1550567, 36.186920099799998 ], [ -115.1550594, 36.186920099799998 ], [ -115.1550594, 36.186914699799999 ], [ -115.1550567, 36.186914699799999 ], [ -115.1550567, 36.186906599800004 ], [ -115.155054, 36.186906599800004 ], [ -115.155054, 36.186901199799998 ], [ -115.1550432, 36.186901199799998 ], [ -115.1550432, 36.186898499800002 ], [ -115.1550297, 36.186898499800002 ], [ -115.1550297, 36.186901199799998 ], [ -115.1549379, 36.186901199799998 ], [ -115.1549379, 36.186903899800001 ], [ -115.154905500000012, 36.186903899800001 ], [ -115.154905500000012, 36.186901199799998 ], [ -115.1548326, 36.186901199799998 ], [ -115.1548326, 36.186717599799998 ], [ -115.1548596, 36.186717599799998 ], [ -115.1548596, 36.186720299800001 ], [ -115.154867700000011, 36.186720299800001 ], [ -115.154867700000011, 36.186717599799998 ], [ -115.1548758, 36.186717599799998 ], [ -115.1548758, 36.186720299800001 ], [ -115.1549946, 36.186720299800001 ], [ -115.1549946, 36.186722999800004 ], [ -115.1550432, 36.186722999800004 ], [ -115.1550432, 36.186720299800001 ], [ -115.1550486, 36.186720299800001 ], [ -115.1550486, 36.186717599799998 ], [ -115.155051300000011, 36.186717599799998 ], [ -115.155051300000011, 36.186677099800001 ], [ -115.155054, 36.186677099800001 ], [ -115.155054, 36.186606899800005 ], [ -115.1550567, 36.186606899800005 ], [ -115.1550567, 36.186593399800003 ], [ -115.155054, 36.186593399800003 ], [ -115.155054, 36.186585299800001 ], [ -115.1550567, 36.186585299800001 ], [ -115.1550567, 36.186577199799999 ], [ -115.1550594, 36.186577199799999 ], [ -115.1550594, 36.186555599800002 ], [ -115.1550621, 36.186555599800002 ], [ -115.1550621, 36.1865231998 ], [ -115.1550594, 36.1865231998 ], [ -115.1550594, 36.186517799800001 ], [ -115.1550567, 36.186517799800001 ], [ -115.1550567, 36.186512399800002 ], [ -115.1550594, 36.186512399800002 ], [ -115.1550594, 36.186506999800002 ], [ -115.1550567, 36.186506999800002 ], [ -115.1550567, 36.186463799800002 ], [ -115.1550594, 36.186463799800002 ], [ -115.1550594, 36.186458399800003 ], [ -115.1550567, 36.186458399800003 ], [ -115.1550567, 36.186417899799999 ], [ -115.1550594, 36.186417899799999 ], [ -115.1550594, 36.186404399800004 ], [ -115.1550567, 36.186404399800004 ], [ -115.1550567, 36.186385499800004 ], [ -115.1550594, 36.186385499800004 ], [ -115.1550594, 36.186377399800001 ], [ -115.1550945, 36.186377399800001 ], [ -115.1550945, 36.186380099800004 ], [ -115.1551107, 36.186380099800004 ], [ -115.1551107, 36.186377399800001 ], [ -115.1551215, 36.186377399800001 ], [ -115.1551215, 36.186380099800004 ], [ -115.1552376, 36.186380099800004 ], [ -115.1552376, 36.1863827998 ], [ -115.1553132, 36.1863827998 ], [ -115.1553132, 36.186380099800004 ], [ -115.1553267, 36.186380099800004 ], [ -115.1553267, 36.186377399800001 ], [ -115.1553294, 36.186377399800001 ], [ -115.1553294, 36.186374699800005 ], [ -115.1553267, 36.186374699800005 ], [ -115.1553267, 36.186371999800002 ], [ -115.155324, 36.186371999800002 ], [ -115.155324, 36.186366599800003 ], [ -115.1553267, 36.186366599800003 ], [ -115.1553267, 36.186361199800004 ], [ -115.1553294, 36.186361199800004 ], [ -115.1553294, 36.186358499800001 ], [ -115.15533210000001, 36.186358499800001 ], [ -115.15533210000001, 36.186344999799999 ], [ -115.1553348, 36.186344999799999 ], [ -115.1553348, 36.1863395998 ], [ -115.1553375, 36.1863395998 ], [ -115.1553375, 36.186336899800004 ], [ -115.1553402, 36.186336899800004 ], [ -115.1553402, 36.186334199800001 ], [ -115.1553429, 36.186334199800001 ], [ -115.1553429, 36.186323399800003 ], [ -115.1553456, 36.186323399800003 ], [ -115.1553456, 36.186317999800004 ], [ -115.1553537, 36.186317999800004 ], [ -115.1553537, 36.1863152998 ], [ -115.1553861, 36.1863152998 ], [ -115.1553861, 36.186312599800004 ], [ -115.1554266, 36.186312599800004 ], [ -115.1554266, 36.1863152998 ], [ -115.1554293, 36.1863152998 ], [ -115.1554293, 36.186326099799999 ], [ -115.155432, 36.186326099799999 ], [ -115.155432, 36.186328799800002 ], [ -115.1554347, 36.186328799800002 ], [ -115.1554347, 36.186331499800005 ], [ -115.1554374, 36.186331499800005 ], [ -115.1554374, 36.186355799800005 ], [ -115.1554401, 36.186355799800005 ], [ -115.1554401, 36.1863638998 ], [ -115.1554428, 36.1863638998 ], [ -115.1554428, 36.1863827998 ], [ -115.1554455, 36.1863827998 ], [ -115.1554455, 36.186385499800004 ], [ -115.1555157, 36.186385499800004 ], [ -115.1555157, 36.1863827998 ], [ -115.1555454, 36.1863827998 ], [ -115.1555454, 36.186385499800004 ], [ -115.1555778, 36.186385499800004 ], [ -115.1555778, 36.1863881998 ], [ -115.1556102, 36.1863881998 ], [ -115.1556102, 36.186385499800004 ], [ -115.1556318, 36.186385499800004 ], [ -115.1556318, 36.1863827998 ], [ -115.1557668, 36.1863827998 ], [ -115.1557668, 36.186385499800004 ], [ -115.1557695, 36.186385499800004 ], [ -115.1557695, 36.1863881998 ], [ -115.1557722, 36.1863881998 ], [ -115.1557722, 36.186393599799999 ], [ -115.1557749, 36.186393599799999 ], [ -115.1557749, 36.186396299800002 ], [ -115.1557776, 36.186396299800002 ], [ -115.1557776, 36.186404399800004 ], [ -115.1557749, 36.186404399800004 ], [ -115.1557749, 36.186458399800003 ], [ -115.1557722, 36.186458399800003 ], [ -115.1557722, 36.1864799998 ], [ -115.1557749, 36.1864799998 ], [ -115.1557749, 36.1864988998 ], [ -115.1557722, 36.1864988998 ], [ -115.1557722, 36.1865420998 ], [ -115.1557695, 36.1865420998 ], [ -115.1557695, 36.186741899799998 ], [ -115.1557668, 36.186741899799998 ], [ -115.1557668, 36.1867742998 ], [ -115.1557695, 36.1867742998 ], [ -115.1557695, 36.186795899800003 ], [ -115.1557668, 36.186795899800003 ], [ -115.1557668, 36.186849899800002 ], [ -115.1557695, 36.186849899800002 ], [ -115.1557695, 36.186898499800002 ], [ -115.1557668, 36.186898499800002 ], [ -115.1557668, 36.186914699799999 ], [ -115.1557641, 36.186914699799999 ], [ -115.1557641, 36.186920099799998 ], [ -115.1557533, 36.186920099799998 ], [ -115.1557533, 36.186922799800001 ], [ -115.155702, 36.186922799800001 ], [ -115.155702, 36.186925499799997 ], [ -115.1556885, 36.186925499799997 ], [ -115.1556885, 36.186930899800004 ], [ -115.1556858, 36.186930899800004 ], [ -115.1556858, 36.186957899799999 ], [ -115.1556831, 36.186957899799999 ], [ -115.1556831, 36.186971399800001 ], [ -115.1556804, 36.186971399800001 ], [ -115.1556804, 36.1869767998 ], [ -115.1556777, 36.1869767998 ], [ -115.1556777, 36.186979499800003 ], [ -115.1556264, 36.186979499800003 ], [ -115.1556264, 36.186982199799999 ] ] ] } },
{ "type": "Feature", "properties": { "value": 255.0 }, "geometry": { "type": "Polygon", "coordinates": [ [ [ -115.1565876, 36.186304499800002 ], [ -115.1565579, 36.186304499800002 ], [ -115.1565579, 36.186301799799999 ], [ -115.1565363, 36.186301799799999 ], [ -115.1565363, 36.186304499800002 ], [ -115.156514699999988, 36.186304499800002 ], [ -115.156514699999988, 36.186299099800003 ], [ -115.156512, 36.186299099800003 ], [ -115.156512, 36.186253199799999 ], [ -115.156514699999988, 36.186253199799999 ], [ -115.156514699999988, 36.186236999800002 ], [ -115.1565606, 36.186236999800002 ], [ -115.1565606, 36.186234299799999 ], [ -115.1565687, 36.186234299799999 ], [ -115.1565687, 36.186236999800002 ], [ -115.1565768, 36.186236999800002 ], [ -115.1565768, 36.186234299799999 ], [ -115.1565876, 36.186234299799999 ], [ -115.1565876, 36.186304499800002 ] ] ] } }
]
}
