{
"type": "FeatureCollection",
"crs": { "type": "name", "properties": { "name": "urn:ogc:def:crs:OGC:1.3:CRS84" } },
"features": [
{ "type": "Feature", "properties": { "value": 255.0 }, "geometry": { "type": "Polygon", "coordinates": [ [ [ -115.17244740000001, 36.2230676999 ], [ -115.1723826, 36.2230676999 ], [ -115.1723826, 36.223064999899997 ], [ -115.172388, 36.223064999899997 ], [ -115.172388, 36.2230622999 ], [ -115.172417700000011, 36.2230622999 ], [ -115.172417700000011, 36.223064999899997 ], [ -115.172436600000012, 36.223064999899997 ], [ -115.172436600000012, 36.2230622999 ], [ -115.1724447, 36.2230622999 ], [ -115.1724447, 36.223064999899997 ], [ -115.17244740000001, 36.223064999899997 ], [ -115.17244740000001, 36.2230676999 ] ] ] } },
{ "type": "Feature", "properties": { "value": 255.0 }, "geometry": { "type": "Polygon", "coordinates": [ [ [ -115.1728659, 36.2230676999 ], [ -115.1727741, 36.2230676999 ], [ -115.1727741, 36.223064999899997 ], [ -115.1727714, 36.223064999899997 ], [ -115.1727714, 36.2230622999 ], [ -115.1727822, 36.2230622999 ], [ -115.1727822, 36.223059599899997 ], [ -115.1727876, 36.223059599899997 ], [ -115.1727876, 36.223056899900001 ], [ -115.17283350000001, 36.223056899900001 ], [ -115.17283350000001, 36.223054199899998 ], [ -115.1728389, 36.223054199899998 ], [ -115.1728389, 36.223051499900002 ], [ -115.1728443, 36.223051499900002 ], [ -115.1728443, 36.223048799899999 ], [ -115.1728578, 36.223048799899999 ], [ -115.1728578, 36.223051499900002 ], [ -115.1728605, 36.223051499900002 ], [ -115.1728605, 36.223054199899998 ], [ -115.1728632, 36.223054199899998 ], [ -115.1728632, 36.223056899900001 ], [ -115.1728659, 36.223056899900001 ], [ -115.1728659, 36.2230676999 ] ] ] } },
{ "type": "Feature", "properties": { "value": 255.0 }, "geometry": { "type": "Polygon", "coordinates": [ [ [ -115.1730387, 36.223029899899998 ], [ -115.1730063, 36.223029899899998 ], [ -115.1730063, 36.223027199900002 ], [ -115.1729469, 36.223027199900002 ], [ -115.1729469, 36.223024499899999 ], [ -115.1729442, 36.223024499899999 ], [ -115.1729442, 36.222973199899997 ], [ -115.1729415, 36.222973199899997 ], [ -115.1729415, 36.222965099900001 ], [ -115.1729442, 36.222965099900001 ], [ -115.1729442, 36.222962399899998 ], [ -115.1729415, 36.222962399899998 ], [ -115.1729415, 36.2229083999 ], [ -115.1729442, 36.2229083999 ], [ -115.1729442, 36.222905699899997 ], [ -115.1729604, 36.222905699899997 ], [ -115.1729604, 36.222902999900001 ], [ -115.1730063, 36.222902999900001 ], [ -115.1730063, 36.222900299899997 ], [ -115.1730387, 36.222900299899997 ], [ -115.1730387, 36.222902999900001 ], [ -115.1730441, 36.222902999900001 ], [ -115.1730441, 36.222905699899997 ], [ -115.1730468, 36.222905699899997 ], [ -115.1730468, 36.222962399899998 ], [ -115.1730495, 36.222962399899998 ], [ -115.1730495, 36.2229758999 ], [ -115.1730468, 36.2229758999 ], [ -115.1730468, 36.222997499899996 ], [ -115.1730495, 36.222997499899996 ], [ -115.1730495, 36.223024499899999 ], [ -115.1730468, 36.223024499899999 ], [ -115.1730468, 36.223027199900002 ], [ -115.1730387, 36.223027199900002 ], [ -115.1730387, 36.223029899899998 ] ] ] } },
{ "type": "Feature", "properties": { "value": 255.0 }, "geometry": { "type": "Polygon", "coordinates": [ [ [ -115.1729982, 36.222781499900002 ], [ -115.172955, 36.222781499900002 ], [ -115.172955, 36.222778799899999 ], [ -115.1729415, 36.222778799899999 ], [ -115.1729415, 36.2227679999 ], [ -115.1729442, 36.2227679999 ], [ -115.1729442, 36.222765299899997 ], [ -115.1729469, 36.222765299899997 ], [ -115.1729469, 36.2227679999 ], [ -115.1729496, 36.2227679999 ], [ -115.1729496, 36.222765299899997 ], [ -115.1729631, 36.222765299899997 ], [ -115.1729631, 36.2227679999 ], [ -115.1729874, 36.2227679999 ], [ -115.1729874, 36.222765299899997 ], [ -115.1729901, 36.222765299899997 ], [ -115.1729901, 36.222759899899998 ], [ -115.1729928, 36.222759899899998 ], [ -115.1729928, 36.222754499899999 ], [ -115.1729982, 36.222754499899999 ], [ -115.1729982, 36.222765299899997 ], [ -115.1730009, 36.222765299899997 ], [ -115.1730009, 36.222778799899999 ], [ -115.1729982, 36.222778799899999 ], [ -115.1729982, 36.222781499900002 ] ] ] } },
{ "type": "Feature", "properties": { "value": 255.0 }, "geometry": { "type": "Polygon", "coordinates": [ [ [ -115.1741376, 36.222938099899999 ], [ -115.1741349, 36.222938099899999 ], [ -115.1741349, 36.222935399900003 ], [ -115.1741241, 36.222935399900003 ], [ -115.1741241, 36.222938099899999 ], [ -115.1740917, 36.222938099899999 ], [ -115.1740917, 36.222935399900003 ], [ -115.1740863, 36.222935399900003 ], [ -115.1740863, 36.222924599899997 ], [ -115.174083599999989, 36.222924599899997 ], [ -115.174083599999989, 36.222902999900001 ], [ -115.1740863, 36.222902999900001 ], [ -115.1740863, 36.222881399899997 ], [ -115.174089, 36.222881399899997 ], [ -115.174089, 36.222875999899998 ], [ -115.1740863, 36.222875999899998 ], [ -115.1740863, 36.222862499899996 ], [ -115.174089, 36.222862499899996 ], [ -115.174089, 36.222851699899998 ], [ -115.1740863, 36.222851699899998 ], [ -115.1740863, 36.2228408999 ], [ -115.174089, 36.2228408999 ], [ -115.174089, 36.2228354999 ], [ -115.1740863, 36.2228354999 ], [ -115.1740863, 36.222821999899999 ], [ -115.174083599999989, 36.222821999899999 ], [ -115.174083599999989, 36.2227922999 ], [ -115.1740863, 36.2227922999 ], [ -115.1740863, 36.222776099900003 ], [ -115.174083599999989, 36.222776099900003 ], [ -115.174083599999989, 36.222762599900001 ], [ -115.1740863, 36.222762599900001 ], [ -115.1740863, 36.222754499899999 ], [ -115.174083599999989, 36.222754499899999 ], [ -115.174083599999989, 36.222751799899996 ], [ -115.1740863, 36.222751799899996 ], [ -115.1740863, 36.2227490999 ], [ -115.1741187, 36.2227490999 ], [ -115.1741187, 36.222751799899996 ], [ -115.1741214, 36.222751799899996 ], [ -115.1741214, 36.222754499899999 ], [ -115.1741268, 36.222754499899999 ], [ -115.1741268, 36.222751799899996 ], [ -115.1741349, 36.222751799899996 ], [ -115.1741349, 36.2227490999 ], [ -115.1741376, 36.2227490999 ], [ -115.1741376, 36.222938099899999 ] ] ] } },
{ "type": "Feature", "properties": { "value": 255.0 }, "geometry": { "type": "Polygon", "coordinates": [ [ [ -115.1730198, 36.222732899900002 ], [ -115.1730063, 36.222732899900002 ], [ -115.1730063, 36.2227247999 ], [ -115.1730036, 36.2227247999 ], [ -115.1730036, 36.222719399900001 ], [ -115.173009, 36.222719399900001 ], [ -115.173009, 36.222716699899998 ], [ -115.1730117, 36.222716699899998 ], [ -115.1730117, 36.222713999900002 ], [ -115.1730225, 36.222713999900002 ], [ -115.1730225, 36.222716699899998 ], [ -115.1730414, 36.222716699899998 ], [ -115.1730414, 36.222713999900002 ], [ -115.1730657, 36.222713999900002 ], [ -115.1730657, 36.222730199899999 ], [ -115.1730198, 36.222730199899999 ], [ -115.1730198, 36.222732899900002 ] ] ] } },
{ "type": "Feature", "properties": { "value": 255.0 }, "geometry": { "type": "Polygon", "coordinates": [ [ [ -115.1730495, 36.222665399900002 ], [ -115.1730414, 36.222665399900002 ], [ -115.1730414, 36.222662699899999 ], [ -115.173036, 36.222662699899999 ], [ -115.173036, 36.2226572999 ], [ -115.1730441, 36.2226572999 ], [ -115.1730441, 36.222654599899997 ], [ -115.1730495, 36.222654599899997 ], [ -115.1730495, 36.2226572999 ], [ -115.1730522, 36.2226572999 ], [ -115.1730522, 36.222662699899999 ], [ -115.1730495, 36.222662699899999 ], [ -115.1730495, 36.222665399900002 ] ] ] } },
{ "type": "Feature", "properties": { "value": 255.0 }, "geometry": { "type": "Polygon", "coordinates": [ [ [ -115.1736975, 36.2226761999 ], [ -115.1736921, 36.2226761999 ], [ -115.1736921, 36.222662699899999 ], [ -115.1736894, 36.222662699899999 ], [ -115.1736894, 36.222643799899998 ], [ -115.1736867, 36.222643799899998 ], [ -115.1736867, 36.222603299900001 ], [ -115.1736894, 36.222603299900001 ], [ -115.1736894, 36.222600599899998 ], [ -115.1736948, 36.222600599899998 ], [ -115.1736948, 36.222603299900001 ], [ -115.1737002, 36.222603299900001 ], [ -115.1737002, 36.222605999899997 ], [ -115.173711, 36.222605999899997 ], [ -115.173711, 36.2226086999 ], [ -115.1737137, 36.2226086999 ], [ -115.1737137, 36.222614099899999 ], [ -115.1737164, 36.222614099899999 ], [ -115.1737164, 36.222616799899995 ], [ -115.1737191, 36.222616799899995 ], [ -115.1737191, 36.222638399899999 ], [ -115.1737164, 36.222638399899999 ], [ -115.1737164, 36.222641099900002 ], [ -115.1737137, 36.222641099900002 ], [ -115.1737137, 36.222646499900002 ], [ -115.173711, 36.222646499900002 ], [ -115.173711, 36.222662699899999 ], [ -115.1737083, 36.222662699899999 ], [ -115.1737083, 36.222668099899998 ], [ -115.1737056, 36.222668099899998 ], [ -115.1737056, 36.222665399900002 ], [ -115.1736975, 36.222665399900002 ], [ -115.1736975, 36.2226761999 ] ] ] } },
{ "type": "Feature", "properties": { "value": 255.0 }, "geometry": { "type": "Polygon", "coordinates": [ [ [ -115.1730738, 36.222635699899996 ], [ -115.1730522, 36.222635699899996 ], [ -115.1730522, 36.2226329999 ], [ -115.1730495, 36.2226329999 ], [ -115.1730495, 36.222630299899997 ], [ -115.1730468, 36.222630299899997 ], [ -115.1730468, 36.222627599900001 ], [ -115.1730441, 36.222627599900001 ], [ -115.1730441, 36.222624899899998 ], [ -115.1730468, 36.222624899899998 ], [ -115.1730468, 36.222622199900002 ], [ -115.1730495, 36.222622199900002 ], [ -115.1730495, 36.222619499899999 ], [ -115.1730468, 36.222619499899999 ], [ -115.1730468, 36.222616799899995 ], [ -115.1730549, 36.222616799899995 ], [ -115.1730549, 36.222614099899999 ], [ -115.1730765, 36.222614099899999 ], [ -115.1730765, 36.222624899899998 ], [ -115.1730792, 36.222624899899998 ], [ -115.1730792, 36.2226329999 ], [ -115.1730738, 36.2226329999 ], [ -115.1730738, 36.222635699899996 ] ] ] } },
{ "type": "Feature", "properties": { "value": 255.0 }, "geometry": { "type": "Polygon", "coordinates": [ [ [ -115.1729577, 36.222530399900002 ], [ -115.1729334, 36.222530399900002 ], [ -115.1729334, 36.222527699899999 ], [ -115.1729307, 36.222527699899999 ], [ -115.1729307, 36.222511499900001 ], [ -115.1729577, 36.222511499900001 ], [ -115.1729577, 36.222514199899997 ], [ -115.1729604, 36.222514199899997 ], [ -115.1729604, 36.2225168999 ], [ -115.1729631, 36.2225168999 ], [ -115.1729631, 36.222524999899996 ], [ -115.1729604, 36.222524999899996 ], [ -115.1729604, 36.222527699899999 ], [ -115.1729577, 36.222527699899999 ], [ -115.1729577, 36.222530399900002 ] ] ] } },
{ "type": "Feature", "properties": { "value": 255.0 }, "geometry": { "type": "Polygon", "coordinates": [ [ [ -115.1731062, 36.222495299899997 ], [ -115.1729307, 36.222495299899997 ], [ -115.1729307, 36.222489899899998 ], [ -115.172928, 36.222489899899998 ], [ -115.172928, 36.222487199900002 ], [ -115.1729307, 36.222487199900002 ], [ -115.1729307, 36.2224736999 ], [ -115.172928, 36.2224736999 ], [ -115.172928, 36.222460199899999 ], [ -115.1729307, 36.222460199899999 ], [ -115.1729307, 36.2224547999 ], [ -115.1729334, 36.2224547999 ], [ -115.1729334, 36.222452099899996 ], [ -115.1729361, 36.222452099899996 ], [ -115.1729361, 36.2224493999 ], [ -115.1729388, 36.2224493999 ], [ -115.1729388, 36.222446699899997 ], [ -115.1729415, 36.222446699899997 ], [ -115.1729415, 36.222443999900001 ], [ -115.1729442, 36.222443999900001 ], [ -115.1729442, 36.222441299899998 ], [ -115.1729469, 36.222441299899998 ], [ -115.1729469, 36.222438599900002 ], [ -115.1729496, 36.222438599900002 ], [ -115.1729496, 36.222435899899999 ], [ -115.1729442, 36.222435899899999 ], [ -115.1729442, 36.2224304999 ], [ -115.1729415, 36.2224304999 ], [ -115.1729415, 36.222427799899997 ], [ -115.1729442, 36.222427799899997 ], [ -115.1729442, 36.222349499899998 ], [ -115.1729469, 36.222349499899998 ], [ -115.1729469, 36.222279299899995 ], [ -115.1729631, 36.222279299899995 ], [ -115.1729631, 36.222276599899999 ], [ -115.1730765, 36.222276599899999 ], [ -115.1730765, 36.222273899899996 ], [ -115.1730981, 36.222273899899996 ], [ -115.1730981, 36.2222711999 ], [ -115.173144, 36.2222711999 ], [ -115.173144, 36.222268499899997 ], [ -115.1731656, 36.222268499899997 ], [ -115.1731656, 36.2222711999 ], [ -115.173198, 36.2222711999 ], [ -115.173198, 36.222268499899997 ], [ -115.1732196, 36.222268499899997 ], [ -115.1732196, 36.222265799900001 ], [ -115.1732898, 36.222265799900001 ], [ -115.1732898, 36.222263099899997 ], [ -115.1732925, 36.222263099899997 ], [ -115.1732925, 36.222265799900001 ], [ -115.1732979, 36.222265799900001 ], [ -115.1732979, 36.222268499899997 ], [ -115.1733033, 36.222268499899997 ], [ -115.1733033, 36.222273899899996 ], [ -115.173306, 36.222273899899996 ], [ -115.173306, 36.222287399899997 ], [ -115.1733087, 36.222287399899997 ], [ -115.1733087, 36.222298199899996 ], [ -115.1733114, 36.222298199899996 ], [ -115.1733114, 36.2223143999 ], [ -115.1733168, 36.2223143999 ], [ -115.1733168, 36.222317099899996 ], [ -115.1733276, 36.222317099899996 ], [ -115.1733276, 36.222319799899999 ], [ -115.1733303, 36.222319799899999 ], [ -115.1733303, 36.222325199899998 ], [ -115.1733276, 36.222325199899998 ], [ -115.1733276, 36.222365699899996 ], [ -115.1733303, 36.222365699899996 ], [ -115.1733303, 36.222373799899998 ], [ -115.1733276, 36.222373799899998 ], [ -115.1733276, 36.2224061999 ], [ -115.1733249, 36.2224061999 ], [ -115.1733249, 36.222416999899998 ], [ -115.1733168, 36.222416999899998 ], [ -115.1733168, 36.222419699900001 ], [ -115.1733141, 36.222419699900001 ], [ -115.1733141, 36.222416999899998 ], [ -115.1733087, 36.222416999899998 ], [ -115.1733087, 36.222419699900001 ], [ -115.1732871, 36.222419699900001 ], [ -115.1732871, 36.222422399899997 ], [ -115.1731305, 36.222422399899997 ], [ -115.1731305, 36.222425099900001 ], [ -115.1730981, 36.222425099900001 ], [ -115.1730981, 36.222427799899997 ], [ -115.1730576, 36.222427799899997 ], [ -115.1730576, 36.2224304999 ], [ -115.1730414, 36.2224304999 ], [ -115.1730414, 36.222433199899996 ], [ -115.1730252, 36.222433199899996 ], [ -115.1730252, 36.222435899899999 ], [ -115.1730171, 36.222435899899999 ], [ -115.1730171, 36.222441299899998 ], [ -115.1730117, 36.222441299899998 ], [ -115.1730117, 36.222443999900001 ], [ -115.1730171, 36.222443999900001 ], [ -115.1730171, 36.222446699899997 ], [ -115.1730252, 36.222446699899997 ], [ -115.1730252, 36.2224493999 ], [ -115.1730279, 36.2224493999 ], [ -115.1730279, 36.2224547999 ], [ -115.1730306, 36.2224547999 ], [ -115.1730306, 36.222457499899996 ], [ -115.1730387, 36.222457499899996 ], [ -115.1730387, 36.222460199899999 ], [ -115.173036, 36.222460199899999 ], [ -115.173036, 36.222462899900002 ], [ -115.1730441, 36.222462899900002 ], [ -115.1730441, 36.222465599899998 ], [ -115.1730576, 36.222465599899998 ], [ -115.1730576, 36.222468299900001 ], [ -115.1730711, 36.222468299900001 ], [ -115.1730711, 36.222470999899997 ], [ -115.1730792, 36.222470999899997 ], [ -115.1730792, 36.222468299900001 ], [ -115.1730846, 36.222468299900001 ], [ -115.1730846, 36.222470999899997 ], [ -115.1731035, 36.222470999899997 ], [ -115.1731035, 36.2224736999 ], [ -115.1731089, 36.2224736999 ], [ -115.1731089, 36.222470999899997 ], [ -115.1731224, 36.222470999899997 ], [ -115.1731224, 36.222484499899998 ], [ -115.1731197, 36.222484499899998 ], [ -115.1731197, 36.222492599900001 ], [ -115.1731062, 36.222492599900001 ], [ -115.1731062, 36.222495299899997 ] ] ] } },
{ "type": "Feature", "properties": { "value": 255.0 }, "geometry": { "type": "Polygon", "coordinates": [ [ [ -115.173684, 36.222133499899996 ], [ -115.1736786, 36.222133499899996 ], [ -115.1736786, 36.2221307999 ], [ -115.1736759, 36.2221307999 ], [ -115.1736759, 36.222114599899996 ], [ -115.1736705, 36.222114599899996 ], [ -115.1736705, 36.222101099900001 ], [ -115.1736678, 36.222101099900001 ], [ -115.1736678, 36.222098399899998 ], [ -115.1736624, 36.222098399899998 ], [ -115.1736624, 36.222095699899995 ], [ -115.1736543, 36.222095699899995 ], [ -115.1736543, 36.222101099900001 ], [ -115.1736489, 36.222101099900001 ], [ -115.1736489, 36.222098399899998 ], [ -115.1736462, 36.222098399899998 ], [ -115.1736462, 36.2220875999 ], [ -115.1736543, 36.2220875999 ], [ -115.1736543, 36.222090299899996 ], [ -115.1736597, 36.222090299899996 ], [ -115.1736597, 36.2220875999 ], [ -115.1736651, 36.2220875999 ], [ -115.1736651, 36.222084899899997 ], [ -115.1736894, 36.222084899899997 ], [ -115.1736894, 36.2220875999 ], [ -115.1736975, 36.2220875999 ], [ -115.1736975, 36.222090299899996 ], [ -115.1737002, 36.222090299899996 ], [ -115.1737002, 36.2220875999 ], [ -115.1737056, 36.2220875999 ], [ -115.1737056, 36.222090299899996 ], [ -115.1737083, 36.222090299899996 ], [ -115.1737083, 36.222095699899995 ], [ -115.173711, 36.222095699899995 ], [ -115.173711, 36.222098399899998 ], [ -115.1737137, 36.222098399899998 ], [ -115.1737137, 36.222103799899998 ], [ -115.1737191, 36.222103799899998 ], [ -115.1737191, 36.222098399899998 ], [ -115.1737218, 36.222098399899998 ], [ -115.1737218, 36.222101099900001 ], [ -115.1737245, 36.222101099900001 ], [ -115.1737245, 36.222109199899997 ], [ -115.1737218, 36.222109199899997 ], [ -115.1737218, 36.2221118999 ], [ -115.1737191, 36.2221118999 ], [ -115.1737191, 36.222109199899997 ], [ -115.1737137, 36.222109199899997 ], [ -115.1737137, 36.222119999899995 ], [ -115.1737191, 36.222119999899995 ], [ -115.1737191, 36.222125399900001 ], [ -115.1737164, 36.222125399900001 ], [ -115.1737164, 36.222122699899998 ], [ -115.1737137, 36.222122699899998 ], [ -115.1737137, 36.222125399900001 ], [ -115.1737083, 36.222125399900001 ], [ -115.1737083, 36.222128099899997 ], [ -115.1737056, 36.222128099899997 ], [ -115.1737056, 36.2221307999 ], [ -115.1737029, 36.2221307999 ], [ -115.1737029, 36.222128099899997 ], [ -115.1737002, 36.222128099899997 ], [ -115.1737002, 36.222119999899995 ], [ -115.1737029, 36.222119999899995 ], [ -115.1737029, 36.222117299899999 ], [ -115.1737056, 36.222117299899999 ], [ -115.1737056, 36.222109199899997 ], [ -115.1737029, 36.222109199899997 ], [ -115.1737029, 36.222106499900001 ], [ -115.1737002, 36.222106499900001 ], [ -115.1737002, 36.222092999899999 ], [ -115.1736921, 36.222092999899999 ], [ -115.1736921, 36.222098399899998 ], [ -115.1736948, 36.222098399899998 ], [ -115.1736948, 36.222103799899998 ], [ -115.1736975, 36.222103799899998 ], [ -115.1736975, 36.222109199899997 ], [ -115.1736948, 36.222109199899997 ], [ -115.1736948, 36.222125399900001 ], [ -115.1736867, 36.222125399900001 ], [ -115.1736867, 36.2221307999 ], [ -115.173684, 36.2221307999 ], [ -115.173684, 36.222133499899996 ] ] ] } },
{ "type": "Feature", "properties": { "value": 255.0 }, "geometry": { "type": "Polygon", "coordinates": [ [ [ -115.1729226, 36.222209099899999 ], [ -115.1729037, 36.222209099899999 ], [ -115.1729037, 36.222206399899996 ], [ -115.172901, 36.222206399899996 ], [ -115.172901, 36.222160499899999 ], [ -115.1729037, 36.222160499899999 ], [ -115.1729037, 36.222157799899996 ], [ -115.1729091, 36.222157799899996 ], [ -115.1729091, 36.2221550999 ], [ -115.1729199, 36.2221550999 ], [ -115.1729199, 36.222152399899997 ], [ -115.172928, 36.222152399899997 ], [ -115.172928, 36.222149699900001 ], [ -115.1729307, 36.222149699900001 ], [ -115.1729307, 36.222144299899995 ], [ -115.1729334, 36.222144299899995 ], [ -115.1729334, 36.222122699899998 ], [ -115.1729361, 36.222122699899998 ], [ -115.1729361, 36.222055199899998 ], [ -115.1729334, 36.222055199899998 ], [ -115.1729334, 36.2220200999 ], [ -115.1729307, 36.2220200999 ], [ -115.1729307, 36.222009299899995 ], [ -115.1729334, 36.222009299899995 ], [ -115.1729334, 36.222003899899995 ], [ -115.1729442, 36.222003899899995 ], [ -115.1729442, 36.222001199899999 ], [ -115.1729739, 36.222001199899999 ], [ -115.1729739, 36.222003899899995 ], [ -115.1729766, 36.222003899899995 ], [ -115.1729766, 36.222001199899999 ], [ -115.1730765, 36.222001199899999 ], [ -115.1730765, 36.221998499899996 ], [ -115.1731656, 36.221998499899996 ], [ -115.1731656, 36.222001199899999 ], [ -115.1731872, 36.222001199899999 ], [ -115.1731872, 36.221998499899996 ], [ -115.1732007, 36.221998499899996 ], [ -115.1732007, 36.2219957999 ], [ -115.1732385, 36.2219957999 ], [ -115.1732385, 36.221993099899997 ], [ -115.173279, 36.221993099899997 ], [ -115.173279, 36.221990399900001 ], [ -115.1732898, 36.221990399900001 ], [ -115.1732898, 36.221993099899997 ], [ -115.1732925, 36.221993099899997 ], [ -115.1732925, 36.2219957999 ], [ -115.1732979, 36.2219957999 ], [ -115.1732979, 36.221998499899996 ], [ -115.1733006, 36.221998499899996 ], [ -115.1733006, 36.222001199899999 ], [ -115.1733033, 36.222001199899999 ], [ -115.1733033, 36.222011999899998 ], [ -115.173306, 36.222011999899998 ], [ -115.173306, 36.222028199899995 ], [ -115.1733087, 36.222028199899995 ], [ -115.1733087, 36.222036299899997 ], [ -115.1733114, 36.222036299899997 ], [ -115.1733114, 36.222041699899997 ], [ -115.1733087, 36.222041699899997 ], [ -115.1733087, 36.2220443999 ], [ -115.1733114, 36.2220443999 ], [ -115.1733114, 36.222138899899996 ], [ -115.1733087, 36.222138899899996 ], [ -115.1733087, 36.222144299899995 ], [ -115.1733033, 36.222144299899995 ], [ -115.1733033, 36.222146999899998 ], [ -115.173279, 36.222146999899998 ], [ -115.173279, 36.222149699900001 ], [ -115.1731872, 36.222149699900001 ], [ -115.1731872, 36.222152399899997 ], [ -115.1730981, 36.222152399899997 ], [ -115.1730981, 36.2221550999 ], [ -115.173036, 36.2221550999 ], [ -115.173036, 36.222157799899996 ], [ -115.1730279, 36.222157799899996 ], [ -115.1730279, 36.222160499899999 ], [ -115.1730225, 36.222160499899999 ], [ -115.1730225, 36.222168599900002 ], [ -115.1730252, 36.222168599900002 ], [ -115.1730252, 36.222171299899998 ], [ -115.1730279, 36.222171299899998 ], [ -115.1730279, 36.222184799899999 ], [ -115.1730171, 36.222184799899999 ], [ -115.1730171, 36.222187499899995 ], [ -115.173009, 36.222187499899995 ], [ -115.173009, 36.222184799899999 ], [ -115.1730117, 36.222184799899999 ], [ -115.1730117, 36.222176699899997 ], [ -115.1730063, 36.222176699899997 ], [ -115.1730063, 36.2221793999 ], [ -115.1730036, 36.2221793999 ], [ -115.1730036, 36.222182099899996 ], [ -115.1729982, 36.222182099899996 ], [ -115.1729982, 36.222184799899999 ], [ -115.1730036, 36.222184799899999 ], [ -115.1730036, 36.222187499899995 ], [ -115.1729955, 36.222187499899995 ], [ -115.1729955, 36.222190199899998 ], [ -115.1729847, 36.222190199899998 ], [ -115.1729847, 36.222192899900001 ], [ -115.172982, 36.222192899900001 ], [ -115.172982, 36.222195599899997 ], [ -115.1729712, 36.222195599899997 ], [ -115.1729712, 36.222198299900001 ], [ -115.1729631, 36.222198299900001 ], [ -115.1729631, 36.222200999899997 ], [ -115.172955, 36.222200999899997 ], [ -115.172955, 36.2222036999 ], [ -115.1729388, 36.2222036999 ], [ -115.1729388, 36.222206399899996 ], [ -115.1729226, 36.222206399899996 ], [ -115.1729226, 36.222209099899999 ] ], [ [ -115.1729685, 36.222190199899998 ], [ -115.1729685, 36.222184799899999 ], [ -115.1729658, 36.222184799899999 ], [ -115.1729658, 36.222190199899998 ], [ -115.1729685, 36.222190199899998 ] ] ] } },
{ "type": "Feature", "properties": { "value": 255.0 }, "geometry": { "type": "Polygon", "coordinates": [ [ [ -115.1729145, 36.221909399899999 ], [ -115.1728875, 36.221909399899999 ], [ -115.1728875, 36.221906699899996 ], [ -115.1728848, 36.221906699899996 ], [ -115.1728848, 36.221901299899997 ], [ -115.17288210000001, 36.221901299899997 ], [ -115.17288210000001, 36.221893199899995 ], [ -115.1728848, 36.221893199899995 ], [ -115.1728848, 36.221882399899997 ], [ -115.17288210000001, 36.221882399899997 ], [ -115.17288210000001, 36.221874299899994 ], [ -115.1728848, 36.221874299899994 ], [ -115.1728848, 36.221871599899998 ], [ -115.1728875, 36.221871599899998 ], [ -115.1728875, 36.221868899899995 ], [ -115.1728902, 36.221868899899995 ], [ -115.1728902, 36.221866199899999 ], [ -115.1728956, 36.221866199899999 ], [ -115.1728956, 36.221868899899995 ], [ -115.1728983, 36.221868899899995 ], [ -115.1728983, 36.221874299899994 ], [ -115.172901, 36.221874299899994 ], [ -115.172901, 36.221876999899997 ], [ -115.1728983, 36.221876999899997 ], [ -115.1728983, 36.221879699900001 ], [ -115.1728956, 36.221879699900001 ], [ -115.1728956, 36.221882399899997 ], [ -115.1728929, 36.221882399899997 ], [ -115.1728929, 36.221887799899996 ], [ -115.1728983, 36.221887799899996 ], [ -115.1728983, 36.2218850999 ], [ -115.1729091, 36.2218850999 ], [ -115.1729091, 36.221887799899996 ], [ -115.1729253, 36.221887799899996 ], [ -115.1729253, 36.221882399899997 ], [ -115.172928, 36.221882399899997 ], [ -115.172928, 36.221871599899998 ], [ -115.1729253, 36.221871599899998 ], [ -115.1729253, 36.2218607999 ], [ -115.1729226, 36.2218607999 ], [ -115.1729226, 36.221855399900001 ], [ -115.1729199, 36.221855399900001 ], [ -115.1729199, 36.221806799899994 ], [ -115.1729172, 36.221806799899994 ], [ -115.1729172, 36.221798699899999 ], [ -115.1729145, 36.221798699899999 ], [ -115.1729145, 36.221782499899994 ], [ -115.1729118, 36.221782499899994 ], [ -115.1729118, 36.221771699899996 ], [ -115.1729145, 36.221771699899996 ], [ -115.1729145, 36.221752799899996 ], [ -115.1729172, 36.221752799899996 ], [ -115.1729172, 36.221736599899998 ], [ -115.1729199, 36.221736599899998 ], [ -115.1729199, 36.221733899899995 ], [ -115.172928, 36.221733899899995 ], [ -115.172928, 36.221731199899999 ], [ -115.1730522, 36.221731199899999 ], [ -115.1730522, 36.221728499899996 ], [ -115.1730927, 36.221728499899996 ], [ -115.1730927, 36.2217257999 ], [ -115.173171, 36.2217257999 ], [ -115.173171, 36.221728499899996 ], [ -115.1731791, 36.221728499899996 ], [ -115.1731791, 36.2217257999 ], [ -115.1732061, 36.2217257999 ], [ -115.1732061, 36.221723099899997 ], [ -115.1732196, 36.221723099899997 ], [ -115.1732196, 36.221720399900001 ], [ -115.1732304, 36.221720399900001 ], [ -115.1732304, 36.221717699899997 ], [ -115.1732331, 36.221717699899997 ], [ -115.1732331, 36.221714999899994 ], [ -115.173279, 36.221714999899994 ], [ -115.173279, 36.221717699899997 ], [ -115.1732817, 36.221717699899997 ], [ -115.1732817, 36.221720399900001 ], [ -115.1732844, 36.221720399900001 ], [ -115.1732844, 36.221723099899997 ], [ -115.1732871, 36.221723099899997 ], [ -115.1732871, 36.221758199899995 ], [ -115.1732898, 36.221758199899995 ], [ -115.1732898, 36.221763599900001 ], [ -115.1732925, 36.221763599900001 ], [ -115.1732925, 36.221766299899997 ], [ -115.1732952, 36.221766299899997 ], [ -115.1732952, 36.221771699899996 ], [ -115.1732979, 36.221771699899996 ], [ -115.1732979, 36.221777099899995 ], [ -115.1733006, 36.221777099899995 ], [ -115.1733006, 36.221863499899996 ], [ -115.1732979, 36.221863499899996 ], [ -115.1732979, 36.221871599899998 ], [ -115.1732898, 36.221871599899998 ], [ -115.1732898, 36.221874299899994 ], [ -115.1732493, 36.221874299899994 ], [ -115.1732493, 36.221876999899997 ], [ -115.1731224, 36.221876999899997 ], [ -115.1731224, 36.221879699900001 ], [ -115.1730846, 36.221879699900001 ], [ -115.1730846, 36.221882399899997 ], [ -115.1730549, 36.221882399899997 ], [ -115.1730549, 36.2218850999 ], [ -115.1730495, 36.2218850999 ], [ -115.1730495, 36.221882399899997 ], [ -115.1730441, 36.221882399899997 ], [ -115.1730441, 36.2218850999 ], [ -115.1730252, 36.2218850999 ], [ -115.1730252, 36.221887799899996 ], [ -115.1729955, 36.221887799899996 ], [ -115.1729955, 36.221890499899999 ], [ -115.1729442, 36.221890499899999 ], [ -115.1729442, 36.221893199899995 ], [ -115.1729334, 36.221893199899995 ], [ -115.1729334, 36.221898599900001 ], [ -115.1729307, 36.221898599900001 ], [ -115.1729307, 36.221906699899996 ], [ -115.1729145, 36.221906699899996 ], [ -115.1729145, 36.221909399899999 ] ] ] } },
{ "type": "Feature", "properties": { "value": 255.0 }, "geometry": { "type": "Polygon", "coordinates": [ [ [ -115.1732547, 36.221685299899995 ], [ -115.1732385, 36.221685299899995 ], [ -115.1732385, 36.221679899899996 ], [ -115.1732412, 36.221679899899996 ], [ -115.1732412, 36.2216771999 ], [ -115.1732466, 36.2216771999 ], [ -115.1732466, 36.221679899899996 ], [ -115.1732547, 36.221679899899996 ], [ -115.1732547, 36.221685299899995 ] ] ] } },
{ "type": "Feature", "properties": { "value": 255.0 }, "geometry": { "type": "Polygon", "coordinates": [ [ [ -115.173765, 36.2223143999 ], [ -115.1737407, 36.2223143999 ], [ -115.1737407, 36.222311699899997 ], [ -115.173738, 36.222311699899997 ], [ -115.173738, 36.222308999900001 ], [ -115.1737353, 36.222308999900001 ], [ -115.1737353, 36.222303599900002 ], [ -115.1737326, 36.222303599900002 ], [ -115.1737326, 36.222292799899996 ], [ -115.1737299, 36.222292799899996 ], [ -115.1737299, 36.222273899899996 ], [ -115.1737272, 36.222273899899996 ], [ -115.1737272, 36.222252299899999 ], [ -115.1737299, 36.222252299899999 ], [ -115.1737299, 36.222200999899997 ], [ -115.1737326, 36.222200999899997 ], [ -115.1737326, 36.222165899899998 ], [ -115.1737353, 36.222165899899998 ], [ -115.1737353, 36.222084899899997 ], [ -115.173738, 36.222084899899997 ], [ -115.173738, 36.222071399899995 ], [ -115.1737407, 36.222071399899995 ], [ -115.1737407, 36.222041699899997 ], [ -115.173738, 36.222041699899997 ], [ -115.173738, 36.222038999900001 ], [ -115.1737407, 36.222038999900001 ], [ -115.1737407, 36.222009299899995 ], [ -115.1737434, 36.222009299899995 ], [ -115.1737434, 36.221982299899999 ], [ -115.1737461, 36.221982299899999 ], [ -115.1737461, 36.221957999899999 ], [ -115.1737488, 36.221957999899999 ], [ -115.1737488, 36.221925599899997 ], [ -115.1737515, 36.221925599899997 ], [ -115.1737515, 36.221914799899999 ], [ -115.1737542, 36.221914799899999 ], [ -115.1737542, 36.221909399899999 ], [ -115.1737569, 36.221909399899999 ], [ -115.1737569, 36.221898599900001 ], [ -115.1737596, 36.221898599900001 ], [ -115.1737596, 36.221890499899999 ], [ -115.1737569, 36.221890499899999 ], [ -115.1737569, 36.221887799899996 ], [ -115.1737515, 36.221887799899996 ], [ -115.1737515, 36.221876999899997 ], [ -115.1737461, 36.221876999899997 ], [ -115.1737461, 36.221874299899994 ], [ -115.1737434, 36.221874299899994 ], [ -115.1737434, 36.221871599899998 ], [ -115.1737407, 36.221871599899998 ], [ -115.1737407, 36.221868899899995 ], [ -115.1737137, 36.221868899899995 ], [ -115.1737137, 36.221866199899999 ], [ -115.173711, 36.221866199899999 ], [ -115.173711, 36.221863499899996 ], [ -115.1737083, 36.221863499899996 ], [ -115.1737083, 36.2217932999 ], [ -115.1737056, 36.2217932999 ], [ -115.1737056, 36.221747399899996 ], [ -115.1737029, 36.221747399899996 ], [ -115.1737029, 36.221709599899995 ], [ -115.1737056, 36.221709599899995 ], [ -115.1737056, 36.2216771999 ], [ -115.1737083, 36.2216771999 ], [ -115.1737083, 36.221674499899997 ], [ -115.173711, 36.221674499899997 ], [ -115.173711, 36.221671799899994 ], [ -115.1737191, 36.221671799899994 ], [ -115.1737191, 36.221669099899998 ], [ -115.173738, 36.221669099899998 ], [ -115.173738, 36.221666399899995 ], [ -115.173765, 36.221666399899995 ], [ -115.173765, 36.221663699899999 ], [ -115.1737839, 36.221663699899999 ], [ -115.1737839, 36.221666399899995 ], [ -115.1738055, 36.221666399899995 ], [ -115.1738055, 36.221663699899999 ], [ -115.1738136, 36.221663699899999 ], [ -115.1738136, 36.221660999899996 ], [ -115.1738163, 36.221660999899996 ], [ -115.1738163, 36.221642099899995 ], [ -115.173819, 36.221642099899995 ], [ -115.173819, 36.221636699899996 ], [ -115.1738217, 36.221636699899996 ], [ -115.1738217, 36.2216339999 ], [ -115.1738676, 36.2216339999 ], [ -115.1738676, 36.221636699899996 ], [ -115.1738703, 36.221636699899996 ], [ -115.1738703, 36.2216582999 ], [ -115.173873, 36.2216582999 ], [ -115.173873, 36.221663699899999 ], [ -115.1738757, 36.221663699899999 ], [ -115.1738757, 36.221666399899995 ], [ -115.1739567, 36.221666399899995 ], [ -115.1739567, 36.221663699899999 ], [ -115.1739891, 36.221663699899999 ], [ -115.1739891, 36.221660999899996 ], [ -115.1740269, 36.221660999899996 ], [ -115.1740269, 36.221663699899999 ], [ -115.174035, 36.221663699899999 ], [ -115.174035, 36.221666399899995 ], [ -115.1740323, 36.221666399899995 ], [ -115.1740323, 36.221669099899998 ], [ -115.174035, 36.221669099899998 ], [ -115.174035, 36.221671799899994 ], [ -115.1740404, 36.221671799899994 ], [ -115.1740404, 36.221685299899995 ], [ -115.1740431, 36.221685299899995 ], [ -115.1740431, 36.221687999899999 ], [ -115.1740458, 36.221687999899999 ], [ -115.1740458, 36.221693399899998 ], [ -115.1740431, 36.221693399899998 ], [ -115.1740431, 36.221696099900001 ], [ -115.1740458, 36.221696099900001 ], [ -115.1740458, 36.221717699899997 ], [ -115.1740431, 36.221717699899997 ], [ -115.1740431, 36.221733899899995 ], [ -115.1740458, 36.221733899899995 ], [ -115.1740458, 36.221739299899994 ], [ -115.1740431, 36.221739299899994 ], [ -115.1740431, 36.221833799899997 ], [ -115.1740458, 36.221833799899997 ], [ -115.1740458, 36.221852699899998 ], [ -115.1740431, 36.221852699899998 ], [ -115.1740431, 36.2218607999 ], [ -115.1740323, 36.2218607999 ], [ -115.1740323, 36.221863499899996 ], [ -115.1740134, 36.221863499899996 ], [ -115.1740134, 36.221866199899999 ], [ -115.174008, 36.221866199899999 ], [ -115.174008, 36.221868899899995 ], [ -115.1740053, 36.221868899899995 ], [ -115.1740053, 36.221871599899998 ], [ -115.1740026, 36.221871599899998 ], [ -115.1740026, 36.221874299899994 ], [ -115.1739999, 36.221874299899994 ], [ -115.1739999, 36.2218850999 ], [ -115.1739972, 36.2218850999 ], [ -115.1739972, 36.221895899899998 ], [ -115.1739945, 36.221895899899998 ], [ -115.1739945, 36.221906699899996 ], [ -115.1739972, 36.221906699899996 ], [ -115.1739972, 36.221949899899997 ], [ -115.1739999, 36.221949899899997 ], [ -115.1739999, 36.221974199899996 ], [ -115.1740026, 36.221974199899996 ], [ -115.1740026, 36.221982299899999 ], [ -115.1740053, 36.221982299899999 ], [ -115.1740053, 36.221987699899998 ], [ -115.174008, 36.221987699899998 ], [ -115.174008, 36.222025499899999 ], [ -115.1740053, 36.222025499899999 ], [ -115.1740053, 36.222033599900001 ], [ -115.1740026, 36.222033599900001 ], [ -115.1740026, 36.222041699899997 ], [ -115.1739999, 36.222041699899997 ], [ -115.1739999, 36.222049799899999 ], [ -115.1739972, 36.222049799899999 ], [ -115.1739972, 36.222122699899998 ], [ -115.1739999, 36.222122699899998 ], [ -115.1739999, 36.222133499899996 ], [ -115.1740026, 36.222133499899996 ], [ -115.1740026, 36.222141599899999 ], [ -115.1740053, 36.222141599899999 ], [ -115.1740053, 36.222146999899998 ], [ -115.174008, 36.222146999899998 ], [ -115.174008, 36.222149699900001 ], [ -115.1740215, 36.222149699900001 ], [ -115.1740215, 36.222144299899995 ], [ -115.1740242, 36.222144299899995 ], [ -115.1740242, 36.222146999899998 ], [ -115.1740323, 36.222146999899998 ], [ -115.1740323, 36.222149699900001 ], [ -115.1740458, 36.222149699900001 ], [ -115.1740458, 36.222152399899997 ], [ -115.1740539, 36.222152399899997 ], [ -115.1740539, 36.2221550999 ], [ -115.1740566, 36.2221550999 ], [ -115.1740566, 36.222160499899999 ], [ -115.1740593, 36.222160499899999 ], [ -115.1740593, 36.222173999900001 ], [ -115.1740566, 36.222173999900001 ], [ -115.1740566, 36.222182099899996 ], [ -115.1740593, 36.222182099899996 ], [ -115.1740593, 36.222184799899999 ], [ -115.1740566, 36.222184799899999 ], [ -115.1740566, 36.2222954999 ], [ -115.1740539, 36.2222954999 ], [ -115.1740539, 36.222303599900002 ], [ -115.1740512, 36.222303599900002 ], [ -115.1740512, 36.222306299899998 ], [ -115.1740485, 36.222306299899998 ], [ -115.1740485, 36.222308999900001 ], [ -115.1740269, 36.222308999900001 ], [ -115.1740269, 36.222311699899997 ], [ -115.1740188, 36.222311699899997 ], [ -115.1740188, 36.222308999900001 ], [ -115.1739891, 36.222308999900001 ], [ -115.1739891, 36.222311699899997 ], [ -115.1739297, 36.222311699899997 ], [ -115.1739297, 36.222308999900001 ], [ -115.1737974, 36.222308999900001 ], [ -115.1737974, 36.222311699899997 ], [ -115.173765, 36.222311699899997 ], [ -115.173765, 36.2223143999 ] ] ] } },
{ "type": "Feature", "properties": { "value": 255.0 }, "geometry": { "type": "Polygon", "coordinates": [ [ [ -115.1728146, 36.221504399899999 ], [ -115.1728092, 36.221504399899999 ], [ -115.1728092, 36.221501699899996 ], [ -115.1728065, 36.221501699899996 ], [ -115.1728065, 36.221496299899997 ], [ -115.1728092, 36.221496299899997 ], [ -115.1728092, 36.221493599900001 ], [ -115.1728065, 36.221493599900001 ], [ -115.1728065, 36.221488199899994 ], [ -115.1728092, 36.221488199899994 ], [ -115.1728092, 36.221485499899998 ], [ -115.1728146, 36.221485499899998 ], [ -115.1728146, 36.221490899899997 ], [ -115.1728173, 36.221490899899997 ], [ -115.1728173, 36.221501699899996 ], [ -115.1728146, 36.221501699899996 ], [ -115.1728146, 36.221504399899999 ] ] ] } },
{ "type": "Feature", "properties": { "value": 255.0 }, "geometry": { "type": "Polygon", "coordinates": [ [ [ -115.1737515, 36.221598899899995 ], [ -115.1737218, 36.221598899899995 ], [ -115.1737218, 36.221596199899999 ], [ -115.1737137, 36.221596199899999 ], [ -115.1737137, 36.221593499899996 ], [ -115.1737083, 36.221593499899996 ], [ -115.1737083, 36.2215907999 ], [ -115.1737056, 36.2215907999 ], [ -115.1737056, 36.221577299899998 ], [ -115.1737029, 36.221577299899998 ], [ -115.1737029, 36.221574599899995 ], [ -115.1737056, 36.221574599899995 ], [ -115.1737056, 36.221569199899996 ], [ -115.1737029, 36.221569199899996 ], [ -115.1737029, 36.221550299899995 ], [ -115.1737002, 36.221550299899995 ], [ -115.1737002, 36.221539499899997 ], [ -115.1736975, 36.221539499899997 ], [ -115.1736975, 36.221531399899995 ], [ -115.1736948, 36.221531399899995 ], [ -115.1736948, 36.221525999899995 ], [ -115.1736921, 36.221525999899995 ], [ -115.1736921, 36.2215178999 ], [ -115.1736948, 36.2215178999 ], [ -115.1736948, 36.221509799899998 ], [ -115.1736921, 36.221509799899998 ], [ -115.1736921, 36.221488199899994 ], [ -115.1736948, 36.221488199899994 ], [ -115.1736948, 36.221471999899997 ], [ -115.1736975, 36.221471999899997 ], [ -115.1736975, 36.221428799899996 ], [ -115.1737002, 36.221428799899996 ], [ -115.1737002, 36.221420699899994 ], [ -115.1737056, 36.221420699899994 ], [ -115.1737056, 36.221417999899998 ], [ -115.1737218, 36.221417999899998 ], [ -115.1737218, 36.221415299899995 ], [ -115.1737758, 36.221415299899995 ], [ -115.1737758, 36.221417999899998 ], [ -115.1737866, 36.221417999899998 ], [ -115.1737866, 36.221420699899994 ], [ -115.1738703, 36.221420699899994 ], [ -115.1738703, 36.221423399899997 ], [ -115.1739108, 36.221423399899997 ], [ -115.1739108, 36.2214260999 ], [ -115.1740026, 36.2214260999 ], [ -115.1740026, 36.221428799899996 ], [ -115.1740134, 36.221428799899996 ], [ -115.1740134, 36.2214314999 ], [ -115.174016099999989, 36.2214314999 ], [ -115.174016099999989, 36.221434199899996 ], [ -115.1740188, 36.221434199899996 ], [ -115.1740188, 36.221466599899998 ], [ -115.174016099999989, 36.221466599899998 ], [ -115.174016099999989, 36.221469299899994 ], [ -115.1740188, 36.221469299899994 ], [ -115.1740188, 36.221477399899996 ], [ -115.174016099999989, 36.221477399899996 ], [ -115.174016099999989, 36.2215421999 ], [ -115.1740188, 36.2215421999 ], [ -115.1740188, 36.221558399899997 ], [ -115.174016099999989, 36.221558399899997 ], [ -115.174016099999989, 36.221577299899998 ], [ -115.1740134, 36.221577299899998 ], [ -115.1740134, 36.221588099899996 ], [ -115.1740107, 36.221588099899996 ], [ -115.1740107, 36.2215907999 ], [ -115.174008, 36.2215907999 ], [ -115.174008, 36.221593499899996 ], [ -115.1739999, 36.221593499899996 ], [ -115.1739999, 36.221596199899999 ], [ -115.1739702, 36.221596199899999 ], [ -115.1739702, 36.221593499899996 ], [ -115.1739513, 36.221593499899996 ], [ -115.1739513, 36.221596199899999 ], [ -115.1739297, 36.221596199899999 ], [ -115.1739297, 36.221593499899996 ], [ -115.173873, 36.221593499899996 ], [ -115.173873, 36.221596199899999 ], [ -115.1738568, 36.221596199899999 ], [ -115.1738568, 36.221593499899996 ], [ -115.1738298, 36.221593499899996 ], [ -115.1738298, 36.221596199899999 ], [ -115.1738271, 36.221596199899999 ], [ -115.1738271, 36.221593499899996 ], [ -115.173765, 36.221593499899996 ], [ -115.173765, 36.221596199899999 ], [ -115.1737515, 36.221596199899999 ], [ -115.1737515, 36.221598899899995 ] ] ] } },
{ "type": "Feature", "properties": { "value": 255.0 }, "geometry": { "type": "Polygon", "coordinates": [ [ [ -115.1725797, 36.2214503999 ], [ -115.17256350000001, 36.2214503999 ], [ -115.17256350000001, 36.221447699899997 ], [ -115.1725581, 36.221447699899997 ], [ -115.1725581, 36.221444999899994 ], [ -115.1725554, 36.221444999899994 ], [ -115.1725554, 36.221442299899998 ], [ -115.1725446, 36.221442299899998 ], [ -115.1725446, 36.221439599899995 ], [ -115.172533800000011, 36.221439599899995 ], [ -115.172533800000011, 36.221436899899999 ], [ -115.1725311, 36.221436899899999 ], [ -115.1725311, 36.2214314999 ], [ -115.172533800000011, 36.2214314999 ], [ -115.172533800000011, 36.221428799899996 ], [ -115.1725473, 36.221428799899996 ], [ -115.1725473, 36.221423399899997 ], [ -115.1725365, 36.221423399899997 ], [ -115.1725365, 36.221420699899994 ], [ -115.1725419, 36.221420699899994 ], [ -115.1725419, 36.221417999899998 ], [ -115.17255, 36.221417999899998 ], [ -115.17255, 36.221415299899995 ], [ -115.172552700000011, 36.221415299899995 ], [ -115.172552700000011, 36.221412599899999 ], [ -115.17256350000001, 36.221412599899999 ], [ -115.17256350000001, 36.221409899899996 ], [ -115.1725878, 36.221409899899996 ], [ -115.1725878, 36.221404499899997 ], [ -115.1726364, 36.221404499899997 ], [ -115.1726364, 36.2214071999 ], [ -115.1726391, 36.2214071999 ], [ -115.1726391, 36.221409899899996 ], [ -115.1726418, 36.221409899899996 ], [ -115.1726418, 36.221412599899999 ], [ -115.1726472, 36.221412599899999 ], [ -115.1726472, 36.221420699899994 ], [ -115.1726526, 36.221420699899994 ], [ -115.1726526, 36.2214260999 ], [ -115.172658, 36.2214260999 ], [ -115.172658, 36.221434199899996 ], [ -115.1726526, 36.221434199899996 ], [ -115.1726526, 36.221436899899999 ], [ -115.17264990000001, 36.221436899899999 ], [ -115.17264990000001, 36.221439599899995 ], [ -115.1726391, 36.221439599899995 ], [ -115.1726391, 36.221442299899998 ], [ -115.1726337, 36.221442299899998 ], [ -115.1726337, 36.221439599899995 ], [ -115.172620200000011, 36.221439599899995 ], [ -115.172620200000011, 36.221442299899998 ], [ -115.1725932, 36.221442299899998 ], [ -115.1725932, 36.221439599899995 ], [ -115.1725878, 36.221439599899995 ], [ -115.1725878, 36.221442299899998 ], [ -115.1725851, 36.221442299899998 ], [ -115.1725851, 36.221444999899994 ], [ -115.17258240000001, 36.221444999899994 ], [ -115.17258240000001, 36.221447699899997 ], [ -115.1725797, 36.221447699899997 ], [ -115.1725797, 36.2214503999 ] ] ] } },
{ "type": "Feature", "properties": { "value": 255.0 }, "geometry": { "type": "Polygon", "coordinates": [ [ [ -115.1727957, 36.221509799899998 ], [ -115.1727822, 36.221509799899998 ], [ -115.1727822, 36.221507099899995 ], [ -115.1727741, 36.221507099899995 ], [ -115.1727741, 36.221504399899999 ], [ -115.1727714, 36.221504399899999 ], [ -115.1727714, 36.2214989999 ], [ -115.172766, 36.2214989999 ], [ -115.172766, 36.221501699899996 ], [ -115.1727579, 36.221501699899996 ], [ -115.1727579, 36.221496299899997 ], [ -115.1727552, 36.221496299899997 ], [ -115.1727552, 36.221490899899997 ], [ -115.1727579, 36.221490899899997 ], [ -115.1727579, 36.221488199899994 ], [ -115.1727552, 36.221488199899994 ], [ -115.1727552, 36.221361299899996 ], [ -115.1727606, 36.221361299899996 ], [ -115.1727606, 36.2213585999 ], [ -115.1727795, 36.2213585999 ], [ -115.1727795, 36.221355899899997 ], [ -115.1728443, 36.221355899899997 ], [ -115.1728443, 36.2213585999 ], [ -115.172847, 36.2213585999 ], [ -115.172847, 36.221372099899995 ], [ -115.1728497, 36.221372099899995 ], [ -115.1728497, 36.2213828999 ], [ -115.172847, 36.2213828999 ], [ -115.172847, 36.221401799899994 ], [ -115.1728443, 36.221401799899994 ], [ -115.1728443, 36.221404499899997 ], [ -115.1728416, 36.221404499899997 ], [ -115.1728416, 36.221420699899994 ], [ -115.1728389, 36.221420699899994 ], [ -115.1728389, 36.221428799899996 ], [ -115.1728416, 36.221428799899996 ], [ -115.1728416, 36.221439599899995 ], [ -115.1728389, 36.221439599899995 ], [ -115.1728389, 36.221444999899994 ], [ -115.1728362, 36.221444999899994 ], [ -115.1728362, 36.2214503999 ], [ -115.17283350000001, 36.2214503999 ], [ -115.17283350000001, 36.221453099899996 ], [ -115.1728308, 36.221453099899996 ], [ -115.1728308, 36.221455799899999 ], [ -115.1728281, 36.221455799899999 ], [ -115.1728281, 36.221458499899995 ], [ -115.1728254, 36.221458499899995 ], [ -115.1728254, 36.221461199899998 ], [ -115.17282, 36.221461199899998 ], [ -115.17282, 36.221463899899994 ], [ -115.1728173, 36.221463899899994 ], [ -115.1728173, 36.221480099899999 ], [ -115.1728146, 36.221480099899999 ], [ -115.1728146, 36.221482799899995 ], [ -115.1727984, 36.221482799899995 ], [ -115.1727984, 36.221488199899994 ], [ -115.1728011, 36.221488199899994 ], [ -115.1728011, 36.221490899899997 ], [ -115.1727984, 36.221490899899997 ], [ -115.1727984, 36.221493599900001 ], [ -115.1727957, 36.221493599900001 ], [ -115.1727957, 36.221509799899998 ] ] ] } },
{ "type": "Feature", "properties": { "value": 255.0 }, "geometry": { "type": "Polygon", "coordinates": [ [ [ -115.1727147, 36.221390999899995 ], [ -115.1727066, 36.221390999899995 ], [ -115.1727066, 36.221388299899999 ], [ -115.17269850000001, 36.221388299899999 ], [ -115.17269850000001, 36.221385599899996 ], [ -115.1726958, 36.221385599899996 ], [ -115.1726958, 36.221380199899997 ], [ -115.1727012, 36.221380199899997 ], [ -115.1727012, 36.221377499899994 ], [ -115.1727093, 36.221377499899994 ], [ -115.1727093, 36.221374799899998 ], [ -115.1727066, 36.221374799899998 ], [ -115.1727066, 36.221369399899999 ], [ -115.17269850000001, 36.221369399899999 ], [ -115.17269850000001, 36.221366699899995 ], [ -115.1727012, 36.221366699899995 ], [ -115.1727012, 36.221363999899999 ], [ -115.1727201, 36.221363999899999 ], [ -115.1727201, 36.221366699899995 ], [ -115.1727255, 36.221366699899995 ], [ -115.1727255, 36.221369399899999 ], [ -115.1727201, 36.221369399899999 ], [ -115.1727201, 36.221372099899995 ], [ -115.17271740000001, 36.221372099899995 ], [ -115.17271740000001, 36.221374799899998 ], [ -115.1727282, 36.221374799899998 ], [ -115.1727282, 36.221380199899997 ], [ -115.1727309, 36.221380199899997 ], [ -115.1727309, 36.221385599899996 ], [ -115.1727201, 36.221385599899996 ], [ -115.1727201, 36.221388299899999 ], [ -115.1727147, 36.221388299899999 ], [ -115.1727147, 36.221390999899995 ] ] ] } },
{ "type": "Feature", "properties": { "value": 255.0 }, "geometry": { "type": "Polygon", "coordinates": [ [ [ -115.1738001, 36.221342399899996 ], [ -115.1737677, 36.221342399899996 ], [ -115.1737677, 36.221336999899997 ], [ -115.173765, 36.221336999899997 ], [ -115.173765, 36.221331599899997 ], [ -115.1737677, 36.221331599899997 ], [ -115.1737677, 36.221328899899994 ], [ -115.1737704, 36.221328899899994 ], [ -115.1737704, 36.221326199899998 ], [ -115.1737731, 36.221326199899998 ], [ -115.1737731, 36.221323499899995 ], [ -115.1737866, 36.221323499899995 ], [ -115.1737866, 36.221326199899998 ], [ -115.1737893, 36.221326199899998 ], [ -115.1737893, 36.221323499899995 ], [ -115.1738001, 36.221323499899995 ], [ -115.1738001, 36.221328899899994 ], [ -115.1738028, 36.221328899899994 ], [ -115.1738028, 36.221331599899997 ], [ -115.1738055, 36.221331599899997 ], [ -115.1738055, 36.221336999899997 ], [ -115.1738028, 36.221336999899997 ], [ -115.1738028, 36.2213396999 ], [ -115.1738001, 36.2213396999 ], [ -115.1738001, 36.221342399899996 ] ] ] } }
]
}
