{
"type": "FeatureCollection",
"crs": { "type": "name", "properties": { "name": "urn:ogc:def:crs:OGC:1.3:CRS84" } },
"features": [
{ "type": "Feature", "properties": { "value": 255.0 }, "geometry": { "type": "Polygon", "coordinates": [ [ [ -115.2373392, 36.217624499899998 ], [ -115.2373365, 36.217624499899998 ], [ -115.2373365, 36.217621799900002 ], [ -115.2373284, 36.217621799900002 ], [ -115.2373284, 36.217624499899998 ], [ -115.2373176, 36.217624499899998 ], [ -115.2373176, 36.2175839999 ], [ -115.2373203, 36.2175839999 ], [ -115.2373203, 36.217586699899996 ], [ -115.2373311, 36.217586699899996 ], [ -115.2373311, 36.2175839999 ], [ -115.2373338, 36.2175839999 ], [ -115.2373338, 36.217581299899997 ], [ -115.2373365, 36.217581299899997 ], [ -115.2373365, 36.2175839999 ], [ -115.2373392, 36.2175839999 ], [ -115.2373392, 36.217592099899996 ], [ -115.2373419, 36.217592099899996 ], [ -115.2373419, 36.217600199899998 ], [ -115.2373446, 36.217600199899998 ], [ -115.2373446, 36.217613699899999 ], [ -115.2373473, 36.217613699899999 ], [ -115.2373473, 36.2176082999 ], [ -115.23735, 36.2176082999 ], [ -115.23735, 36.217619099899999 ], [ -115.2373446, 36.217619099899999 ], [ -115.2373446, 36.217621799900002 ], [ -115.2373392, 36.217621799900002 ], [ -115.2373392, 36.217624499899998 ] ] ] } },
{ "type": "Feature", "properties": { "value": 255.0 }, "geometry": { "type": "Polygon", "coordinates": [ [ [ -115.2388053, 36.217732499899995 ], [ -115.2387891, 36.217732499899995 ], [ -115.2387891, 36.217729799899999 ], [ -115.2387405, 36.217729799899999 ], [ -115.2387405, 36.217662299899999 ], [ -115.2387378, 36.217662299899999 ], [ -115.2387378, 36.217659599899996 ], [ -115.2387135, 36.217659599899996 ], [ -115.2387135, 36.2176568999 ], [ -115.2387108, 36.2176568999 ], [ -115.2387108, 36.217646099900001 ], [ -115.2387081, 36.217646099900001 ], [ -115.2387081, 36.217635299899996 ], [ -115.2387108, 36.217635299899996 ], [ -115.2387108, 36.217621799900002 ], [ -115.2387135, 36.217621799900002 ], [ -115.2387135, 36.217619099899999 ], [ -115.2387162, 36.217619099899999 ], [ -115.2387162, 36.217616399899995 ], [ -115.2387216, 36.217616399899995 ], [ -115.2387216, 36.217613699899999 ], [ -115.238781, 36.217613699899999 ], [ -115.238781, 36.217610999899996 ], [ -115.2387837, 36.217610999899996 ], [ -115.2387837, 36.217600199899998 ], [ -115.2387864, 36.217600199899998 ], [ -115.2387864, 36.217597499900002 ], [ -115.2387945, 36.217597499900002 ], [ -115.2387945, 36.217594799899999 ], [ -115.2388188, 36.217594799899999 ], [ -115.2388188, 36.217592099899996 ], [ -115.2388242, 36.217592099899996 ], [ -115.2388242, 36.2175893999 ], [ -115.2388296, 36.2175893999 ], [ -115.2388296, 36.217586699899996 ], [ -115.2388377, 36.217586699899996 ], [ -115.2388377, 36.2175839999 ], [ -115.2389025, 36.2175839999 ], [ -115.2389025, 36.217586699899996 ], [ -115.2389079, 36.217586699899996 ], [ -115.2389079, 36.2175893999 ], [ -115.2389106, 36.2175893999 ], [ -115.2389106, 36.217605599899997 ], [ -115.2389079, 36.217605599899997 ], [ -115.2389079, 36.217616399899995 ], [ -115.2389106, 36.217616399899995 ], [ -115.2389106, 36.217637999899999 ], [ -115.2389079, 36.217637999899999 ], [ -115.2389079, 36.217640699899995 ], [ -115.2388998, 36.217640699899995 ], [ -115.2388998, 36.217643399899998 ], [ -115.2388431, 36.217643399899998 ], [ -115.2388431, 36.217646099900001 ], [ -115.2388404, 36.217646099900001 ], [ -115.2388404, 36.2176757999 ], [ -115.2388431, 36.2176757999 ], [ -115.2388431, 36.217694699900001 ], [ -115.2388458, 36.217694699900001 ], [ -115.2388458, 36.217697399899997 ], [ -115.2388485, 36.217697399899997 ], [ -115.2388485, 36.217710899899998 ], [ -115.2388512, 36.217710899899998 ], [ -115.2388512, 36.217718999900001 ], [ -115.2388485, 36.217718999900001 ], [ -115.2388485, 36.217721699899997 ], [ -115.2388458, 36.217721699899997 ], [ -115.2388458, 36.2177243999 ], [ -115.2388404, 36.2177243999 ], [ -115.2388404, 36.217727099899996 ], [ -115.2388323, 36.217727099899996 ], [ -115.2388323, 36.217729799899999 ], [ -115.2388053, 36.217729799899999 ], [ -115.2388053, 36.217732499899995 ] ] ] } },
{ "type": "Feature", "properties": { "value": 255.0 }, "geometry": { "type": "Polygon", "coordinates": [ [ [ -115.2373392, 36.217567799899996 ], [ -115.2373338, 36.217567799899996 ], [ -115.2373338, 36.2175650999 ], [ -115.2373311, 36.2175650999 ], [ -115.2373311, 36.217554299900002 ], [ -115.2373338, 36.217554299900002 ], [ -115.2373338, 36.217538099899997 ], [ -115.2373392, 36.217538099899997 ], [ -115.2373392, 36.217556999899998 ], [ -115.2373419, 36.217556999899998 ], [ -115.2373419, 36.217562399899997 ], [ -115.2373392, 36.217562399899997 ], [ -115.2373392, 36.217567799899996 ] ] ] } },
{ "type": "Feature", "properties": { "value": 255.0 }, "geometry": { "type": "Polygon", "coordinates": [ [ [ -115.238673, 36.217567799899996 ], [ -115.238646, 36.217567799899996 ], [ -115.238646, 36.2175650999 ], [ -115.2386406, 36.2175650999 ], [ -115.2386406, 36.217562399899997 ], [ -115.2386379, 36.217562399899997 ], [ -115.2386379, 36.217556999899998 ], [ -115.2386352, 36.217556999899998 ], [ -115.2386352, 36.217529999900002 ], [ -115.2386379, 36.217529999900002 ], [ -115.2386379, 36.217524599899996 ], [ -115.2386406, 36.217524599899996 ], [ -115.2386406, 36.217521899899999 ], [ -115.238646, 36.217521899899999 ], [ -115.238646, 36.217519199899996 ], [ -115.238673, 36.217519199899996 ], [ -115.238673, 36.217521899899999 ], [ -115.2386784, 36.217521899899999 ], [ -115.2386784, 36.217529999900002 ], [ -115.2386811, 36.217529999900002 ], [ -115.2386811, 36.217562399899997 ], [ -115.2386784, 36.217562399899997 ], [ -115.2386784, 36.2175650999 ], [ -115.238673, 36.2175650999 ], [ -115.238673, 36.217567799899996 ] ] ] } },
{ "type": "Feature", "properties": { "value": 255.0 }, "geometry": { "type": "Polygon", "coordinates": [ [ [ -115.2384327, 36.2177000999 ], [ -115.2383949, 36.2177000999 ], [ -115.2383949, 36.217697399899997 ], [ -115.2383922, 36.217697399899997 ], [ -115.2383922, 36.217694699900001 ], [ -115.2383895, 36.217694699900001 ], [ -115.2383895, 36.217691999899998 ], [ -115.2383868, 36.217691999899998 ], [ -115.2383868, 36.217689299900002 ], [ -115.2383517, 36.217689299900002 ], [ -115.2383517, 36.217686599899999 ], [ -115.2383463, 36.217686599899999 ], [ -115.2383463, 36.217681199899999 ], [ -115.2383436, 36.217681199899999 ], [ -115.2383436, 36.217646099900001 ], [ -115.2383409, 36.217646099900001 ], [ -115.2383409, 36.217613699899999 ], [ -115.2383382, 36.217613699899999 ], [ -115.2383382, 36.2176082999 ], [ -115.2383355, 36.2176082999 ], [ -115.2383355, 36.217602899900001 ], [ -115.2383328, 36.217602899900001 ], [ -115.2383328, 36.217597499900002 ], [ -115.2383301, 36.217597499900002 ], [ -115.2383301, 36.217538099899997 ], [ -115.2383274, 36.217538099899997 ], [ -115.2383274, 36.217529999900002 ], [ -115.2383301, 36.217529999900002 ], [ -115.2383301, 36.217524599899996 ], [ -115.2383274, 36.217524599899996 ], [ -115.2383274, 36.217484099899998 ], [ -115.2383301, 36.217484099899998 ], [ -115.2383301, 36.217481399900002 ], [ -115.2384327, 36.217481399900002 ], [ -115.2384327, 36.217494899899997 ], [ -115.2384354, 36.217494899899997 ], [ -115.2384354, 36.217527299899999 ], [ -115.2384381, 36.217527299899999 ], [ -115.2384381, 36.217529999900002 ], [ -115.2384408, 36.217529999900002 ], [ -115.2384408, 36.217532699899998 ], [ -115.2384462, 36.217532699899998 ], [ -115.2384462, 36.217529999900002 ], [ -115.2384813, 36.217529999900002 ], [ -115.2384813, 36.217532699899998 ], [ -115.2384867, 36.217532699899998 ], [ -115.2384867, 36.217535399900001 ], [ -115.2384894, 36.217535399900001 ], [ -115.2384894, 36.217538099899997 ], [ -115.2384921, 36.217538099899997 ], [ -115.2384921, 36.2175839999 ], [ -115.2384948, 36.2175839999 ], [ -115.2384948, 36.2176325999 ], [ -115.2384975, 36.2176325999 ], [ -115.2384975, 36.217637999899999 ], [ -115.2384948, 36.217637999899999 ], [ -115.2384948, 36.217670399900001 ], [ -115.2384921, 36.217670399900001 ], [ -115.2384921, 36.217681199899999 ], [ -115.2384894, 36.217681199899999 ], [ -115.2384894, 36.217683899899995 ], [ -115.2384813, 36.217683899899995 ], [ -115.2384813, 36.217686599899999 ], [ -115.238457, 36.217686599899999 ], [ -115.238457, 36.217689299900002 ], [ -115.2384462, 36.217689299900002 ], [ -115.2384462, 36.217691999899998 ], [ -115.2384408, 36.217691999899998 ], [ -115.2384408, 36.217694699900001 ], [ -115.2384381, 36.217694699900001 ], [ -115.2384381, 36.217697399899997 ], [ -115.2384327, 36.217697399899997 ], [ -115.2384327, 36.2177000999 ] ] ] } },
{ "type": "Feature", "properties": { "value": 255.0 }, "geometry": { "type": "Polygon", "coordinates": [ [ [ -115.2384651, 36.2174732999 ], [ -115.2384543, 36.2174732999 ], [ -115.2384543, 36.217470599899997 ], [ -115.2384516, 36.217470599899997 ], [ -115.2384516, 36.217454399899999 ], [ -115.2384732, 36.217454399899999 ], [ -115.2384732, 36.217451699899996 ], [ -115.2384786, 36.217451699899996 ], [ -115.2384786, 36.217467899900001 ], [ -115.2384759, 36.217467899900001 ], [ -115.2384759, 36.217470599899997 ], [ -115.2384651, 36.217470599899997 ], [ -115.2384651, 36.2174732999 ] ] ] } },
{ "type": "Feature", "properties": { "value": 255.0 }, "geometry": { "type": "Polygon", "coordinates": [ [ [ -115.2388944, 36.217562399899997 ], [ -115.2388215, 36.217562399899997 ], [ -115.2388215, 36.217559699900001 ], [ -115.2388161, 36.217559699900001 ], [ -115.2388161, 36.217556999899998 ], [ -115.2388134, 36.217556999899998 ], [ -115.2388134, 36.217554299900002 ], [ -115.238808, 36.217554299900002 ], [ -115.238808, 36.217551599899998 ], [ -115.2387648, 36.217551599899998 ], [ -115.2387648, 36.217548899900002 ], [ -115.2387594, 36.217548899900002 ], [ -115.2387594, 36.217543499899996 ], [ -115.2387567, 36.217543499899996 ], [ -115.2387567, 36.2175407999 ], [ -115.238754, 36.2175407999 ], [ -115.238754, 36.217538099899997 ], [ -115.2387486, 36.217538099899997 ], [ -115.2387486, 36.217535399900001 ], [ -115.2387432, 36.217535399900001 ], [ -115.2387432, 36.217532699899998 ], [ -115.2387324, 36.217532699899998 ], [ -115.2387324, 36.217529999900002 ], [ -115.2387135, 36.217529999900002 ], [ -115.2387135, 36.217527299899999 ], [ -115.2387108, 36.217527299899999 ], [ -115.2387108, 36.217481399900002 ], [ -115.2387081, 36.217481399900002 ], [ -115.2387081, 36.217435499899999 ], [ -115.2387108, 36.217435499899999 ], [ -115.2387108, 36.2174300999 ], [ -115.2387324, 36.2174300999 ], [ -115.2387324, 36.217427399899996 ], [ -115.2387864, 36.217427399899996 ], [ -115.2387864, 36.2174300999 ], [ -115.2388377, 36.2174300999 ], [ -115.2388377, 36.217432799899996 ], [ -115.2388566, 36.217432799899996 ], [ -115.2388566, 36.217446299899997 ], [ -115.2388593, 36.217446299899997 ], [ -115.2388593, 36.217454399899999 ], [ -115.2388566, 36.217454399899999 ], [ -115.2388566, 36.217484099899998 ], [ -115.2388593, 36.217484099899998 ], [ -115.2388593, 36.217489499899997 ], [ -115.238862, 36.217489499899997 ], [ -115.238862, 36.217492199900001 ], [ -115.2388674, 36.217492199900001 ], [ -115.2388674, 36.217494899899997 ], [ -115.2388701, 36.217494899899997 ], [ -115.2388701, 36.2174975999 ], [ -115.2388782, 36.2174975999 ], [ -115.2388782, 36.217500299899996 ], [ -115.2388998, 36.217500299899996 ], [ -115.2388998, 36.217502999899999 ], [ -115.2389025, 36.217502999899999 ], [ -115.2389025, 36.217535399900001 ], [ -115.2388998, 36.217535399900001 ], [ -115.2388998, 36.217559699900001 ], [ -115.2388944, 36.217559699900001 ], [ -115.2388944, 36.217562399899997 ] ] ] } },
{ "type": "Feature", "properties": { "value": 255.0 }, "geometry": { "type": "Polygon", "coordinates": [ [ [ -115.2374202, 36.217457099900003 ], [ -115.2373905, 36.217457099900003 ], [ -115.2373905, 36.217451699899996 ], [ -115.2373878, 36.217451699899996 ], [ -115.2373878, 36.217435499899999 ], [ -115.2373905, 36.217435499899999 ], [ -115.2373905, 36.2174300999 ], [ -115.2374202, 36.2174300999 ], [ -115.2374202, 36.217443599900001 ], [ -115.2374229, 36.217443599900001 ], [ -115.2374229, 36.2174489999 ], [ -115.2374202, 36.2174489999 ], [ -115.2374202, 36.217457099900003 ] ] ] } },
{ "type": "Feature", "properties": { "value": 255.0 }, "geometry": { "type": "Polygon", "coordinates": [ [ [ -115.2375957, 36.217451699899996 ], [ -115.2375795, 36.217451699899996 ], [ -115.2375795, 36.2174489999 ], [ -115.2375768, 36.2174489999 ], [ -115.2375768, 36.217451699899996 ], [ -115.2375579, 36.217451699899996 ], [ -115.2375579, 36.2174489999 ], [ -115.2375471, 36.2174489999 ], [ -115.2375471, 36.217443599900001 ], [ -115.2375444, 36.217443599900001 ], [ -115.2375444, 36.217435499899999 ], [ -115.2375417, 36.217435499899999 ], [ -115.2375417, 36.2174300999 ], [ -115.2376092, 36.2174300999 ], [ -115.2376092, 36.217443599900001 ], [ -115.2376065, 36.217443599900001 ], [ -115.2376065, 36.217446299899997 ], [ -115.2376038, 36.217446299899997 ], [ -115.2376038, 36.2174489999 ], [ -115.2375957, 36.2174489999 ], [ -115.2375957, 36.217451699899996 ] ] ] } },
{ "type": "Feature", "properties": { "value": 255.0 }, "geometry": { "type": "Polygon", "coordinates": [ [ [ -115.2378954, 36.217624499899998 ], [ -115.2377847, 36.217624499899998 ], [ -115.2377847, 36.217621799900002 ], [ -115.237782, 36.217621799900002 ], [ -115.237782, 36.217597499900002 ], [ -115.2377847, 36.217597499900002 ], [ -115.2377847, 36.217543499899996 ], [ -115.237782, 36.217543499899996 ], [ -115.237782, 36.2175407999 ], [ -115.2377847, 36.2175407999 ], [ -115.2377847, 36.217508399899998 ], [ -115.237782, 36.217508399899998 ], [ -115.237782, 36.217502999899999 ], [ -115.2377793, 36.217502999899999 ], [ -115.2377793, 36.217500299899996 ], [ -115.2377199, 36.217500299899996 ], [ -115.2377199, 36.217502999899999 ], [ -115.2376659, 36.217502999899999 ], [ -115.2376659, 36.217500299899996 ], [ -115.2376632, 36.217500299899996 ], [ -115.2376632, 36.217470599899997 ], [ -115.2376605, 36.217470599899997 ], [ -115.2376605, 36.217467899900001 ], [ -115.2376632, 36.217467899900001 ], [ -115.2376632, 36.217454399899999 ], [ -115.2376605, 36.217454399899999 ], [ -115.2376605, 36.217413899900002 ], [ -115.2376578, 36.217413899900002 ], [ -115.2376578, 36.217408499899996 ], [ -115.2376605, 36.217408499899996 ], [ -115.2376605, 36.2174057999 ], [ -115.2376659, 36.2174057999 ], [ -115.2376659, 36.217403099899997 ], [ -115.2377577, 36.217403099899997 ], [ -115.2377577, 36.217400399900001 ], [ -115.237863, 36.217400399900001 ], [ -115.237863, 36.217403099899997 ], [ -115.2378684, 36.217403099899997 ], [ -115.2378684, 36.217408499899996 ], [ -115.2378711, 36.217408499899996 ], [ -115.2378711, 36.217454399899999 ], [ -115.2378738, 36.217454399899999 ], [ -115.2378738, 36.217459799899999 ], [ -115.2379035, 36.217459799899999 ], [ -115.2379035, 36.217532699899998 ], [ -115.2379008, 36.217532699899998 ], [ -115.2379008, 36.217535399900001 ], [ -115.2378981, 36.217535399900001 ], [ -115.2378981, 36.217538099899997 ], [ -115.2378954, 36.217538099899997 ], [ -115.2378954, 36.217578599900001 ], [ -115.2378981, 36.217578599900001 ], [ -115.2378981, 36.217619099899999 ], [ -115.2378954, 36.217619099899999 ], [ -115.2378954, 36.217624499899998 ] ] ] } },
{ "type": "Feature", "properties": { "value": 255.0 }, "geometry": { "type": "Polygon", "coordinates": [ [ [ -115.2384651, 36.2174300999 ], [ -115.2384381, 36.2174300999 ], [ -115.2384381, 36.217427399899996 ], [ -115.2384327, 36.217427399899996 ], [ -115.2384327, 36.2174300999 ], [ -115.2384219, 36.2174300999 ], [ -115.2384219, 36.217427399899996 ], [ -115.2384192, 36.217427399899996 ], [ -115.2384192, 36.2174246999 ], [ -115.2384246, 36.2174246999 ], [ -115.2384246, 36.217421999899997 ], [ -115.2384462, 36.217421999899997 ], [ -115.2384462, 36.217419299900001 ], [ -115.2384516, 36.217419299900001 ], [ -115.2384516, 36.217416599899998 ], [ -115.2384597, 36.217416599899998 ], [ -115.2384597, 36.217413899900002 ], [ -115.2384624, 36.217413899900002 ], [ -115.2384624, 36.217411199899999 ], [ -115.2384651, 36.217411199899999 ], [ -115.2384651, 36.217408499899996 ], [ -115.2384678, 36.217408499899996 ], [ -115.2384678, 36.2174057999 ], [ -115.2384705, 36.2174057999 ], [ -115.2384705, 36.217411199899999 ], [ -115.2384732, 36.217411199899999 ], [ -115.2384732, 36.217416599899998 ], [ -115.2384759, 36.217416599899998 ], [ -115.2384759, 36.2174246999 ], [ -115.2384732, 36.2174246999 ], [ -115.2384732, 36.217427399899996 ], [ -115.2384651, 36.217427399899996 ], [ -115.2384651, 36.2174300999 ] ] ] } },
{ "type": "Feature", "properties": { "value": 255.0 }, "geometry": { "type": "Polygon", "coordinates": [ [ [ -115.2373608, 36.217411199899999 ], [ -115.2373581, 36.217411199899999 ], [ -115.2373581, 36.217408499899996 ], [ -115.2373554, 36.217408499899996 ], [ -115.2373554, 36.2174057999 ], [ -115.2373527, 36.2174057999 ], [ -115.2373527, 36.217403099899997 ], [ -115.2373473, 36.217403099899997 ], [ -115.2373473, 36.217397699899998 ], [ -115.2373608, 36.217397699899998 ], [ -115.2373608, 36.217400399900001 ], [ -115.2373635, 36.217400399900001 ], [ -115.2373635, 36.217408499899996 ], [ -115.2373608, 36.217408499899996 ], [ -115.2373608, 36.217411199899999 ] ] ] } },
{ "type": "Feature", "properties": { "value": 255.0 }, "geometry": { "type": "Polygon", "coordinates": [ [ [ -115.2374931, 36.217384199899996 ], [ -115.237485, 36.217384199899996 ], [ -115.237485, 36.2173814999 ], [ -115.2374823, 36.2173814999 ], [ -115.2374823, 36.217384199899996 ], [ -115.2374607, 36.217384199899996 ], [ -115.2374607, 36.217378799899997 ], [ -115.237458, 36.217378799899997 ], [ -115.237458, 36.217359899899996 ], [ -115.2374607, 36.217359899899996 ], [ -115.2374607, 36.217351799900001 ], [ -115.2374634, 36.217351799900001 ], [ -115.2374634, 36.217349099899998 ], [ -115.2374715, 36.217349099899998 ], [ -115.2374715, 36.217351799900001 ], [ -115.2374769, 36.217351799900001 ], [ -115.2374769, 36.217349099899998 ], [ -115.2374796, 36.217349099899998 ], [ -115.2374796, 36.217351799900001 ], [ -115.2374931, 36.217351799900001 ], [ -115.2374931, 36.2173571999 ], [ -115.2374958, 36.2173571999 ], [ -115.2374958, 36.2173814999 ], [ -115.2374931, 36.2173814999 ], [ -115.2374931, 36.217384199899996 ] ] ] } },
{ "type": "Feature", "properties": { "value": 255.0 }, "geometry": { "type": "Polygon", "coordinates": [ [ [ -115.237404, 36.217332899900001 ], [ -115.2373986, 36.217332899900001 ], [ -115.2373986, 36.217330199899997 ], [ -115.2373959, 36.217330199899997 ], [ -115.2373959, 36.217319399899999 ], [ -115.2373932, 36.217319399899999 ], [ -115.2373932, 36.217316699899996 ], [ -115.2373959, 36.217316699899996 ], [ -115.2373959, 36.2173139999 ], [ -115.2373986, 36.2173139999 ], [ -115.2373986, 36.217311299899997 ], [ -115.2374013, 36.217311299899997 ], [ -115.2374013, 36.217308599900001 ], [ -115.2374121, 36.217308599900001 ], [ -115.2374121, 36.217305899899998 ], [ -115.2374202, 36.217305899899998 ], [ -115.2374202, 36.217308599900001 ], [ -115.2374229, 36.217308599900001 ], [ -115.2374229, 36.2173139999 ], [ -115.2374256, 36.2173139999 ], [ -115.2374256, 36.217322099900002 ], [ -115.2374229, 36.217322099900002 ], [ -115.2374229, 36.217327499900001 ], [ -115.2374148, 36.217327499900001 ], [ -115.2374148, 36.217330199899997 ], [ -115.237404, 36.217330199899997 ], [ -115.237404, 36.217332899900001 ] ] ] } },
{ "type": "Feature", "properties": { "value": 255.0 }, "geometry": { "type": "Polygon", "coordinates": [ [ [ -115.2375174, 36.217319399899999 ], [ -115.237512, 36.217319399899999 ], [ -115.237512, 36.217316699899996 ], [ -115.2375093, 36.217316699899996 ], [ -115.2375093, 36.2173139999 ], [ -115.237512, 36.2173139999 ], [ -115.237512, 36.217311299899997 ], [ -115.2375093, 36.217311299899997 ], [ -115.2375093, 36.217300499899999 ], [ -115.237512, 36.217300499899999 ], [ -115.237512, 36.217297799900003 ], [ -115.2375201, 36.217297799900003 ], [ -115.2375201, 36.217300499899999 ], [ -115.2375228, 36.217300499899999 ], [ -115.2375228, 36.217303199900002 ], [ -115.2375336, 36.217303199900002 ], [ -115.2375336, 36.217305899899998 ], [ -115.2375363, 36.217305899899998 ], [ -115.2375363, 36.217308599900001 ], [ -115.237539, 36.217308599900001 ], [ -115.237539, 36.217311299899997 ], [ -115.2375363, 36.217311299899997 ], [ -115.2375363, 36.2173139999 ], [ -115.2375282, 36.2173139999 ], [ -115.2375282, 36.217316699899996 ], [ -115.2375174, 36.217316699899996 ], [ -115.2375174, 36.217319399899999 ] ] ] } },
{ "type": "Feature", "properties": { "value": 255.0 }, "geometry": { "type": "Polygon", "coordinates": [ [ [ -115.2388053, 36.217400399900001 ], [ -115.2387162, 36.217400399900001 ], [ -115.2387162, 36.217397699899998 ], [ -115.2387135, 36.217397699899998 ], [ -115.2387135, 36.217300499899999 ], [ -115.2387108, 36.217300499899999 ], [ -115.2387108, 36.2172896999 ], [ -115.2387135, 36.2172896999 ], [ -115.2387135, 36.217286999899997 ], [ -115.2387324, 36.217286999899997 ], [ -115.2387324, 36.217284299900001 ], [ -115.2387513, 36.217284299900001 ], [ -115.2387513, 36.217281599899998 ], [ -115.238754, 36.217281599899998 ], [ -115.238754, 36.217273499900003 ], [ -115.2387567, 36.217273499900003 ], [ -115.2387567, 36.2172707999 ], [ -115.2387621, 36.2172707999 ], [ -115.2387621, 36.217268099899997 ], [ -115.2387891, 36.217268099899997 ], [ -115.2387891, 36.2172653999 ], [ -115.2387999, 36.2172653999 ], [ -115.2387999, 36.217262699899997 ], [ -115.2388053, 36.217262699899997 ], [ -115.2388053, 36.217259999900001 ], [ -115.238808, 36.217259999900001 ], [ -115.238808, 36.217257299899998 ], [ -115.2388242, 36.217257299899998 ], [ -115.2388242, 36.217254599900002 ], [ -115.2388809, 36.217254599900002 ], [ -115.2388809, 36.217257299899998 ], [ -115.2388863, 36.217257299899998 ], [ -115.2388863, 36.217273499900003 ], [ -115.238889, 36.217273499900003 ], [ -115.238889, 36.217281599899998 ], [ -115.2388863, 36.217281599899998 ], [ -115.2388863, 36.217308599900001 ], [ -115.2388836, 36.217308599900001 ], [ -115.2388836, 36.217311299899997 ], [ -115.2388701, 36.217311299899997 ], [ -115.2388701, 36.2173139999 ], [ -115.2388161, 36.2173139999 ], [ -115.2388161, 36.217365299900003 ], [ -115.2388134, 36.217365299900003 ], [ -115.2388134, 36.217394999900002 ], [ -115.2388107, 36.217394999900002 ], [ -115.2388107, 36.217397699899998 ], [ -115.2388053, 36.217397699899998 ], [ -115.2388053, 36.217400399900001 ] ] ] } },
{ "type": "Feature", "properties": { "value": 255.0 }, "geometry": { "type": "Polygon", "coordinates": [ [ [ -115.2383922, 36.217416599899998 ], [ -115.2383085, 36.217416599899998 ], [ -115.2383085, 36.217392299899998 ], [ -115.2383112, 36.217392299899998 ], [ -115.2383112, 36.2173625999 ], [ -115.2383139, 36.2173625999 ], [ -115.2383139, 36.2173571999 ], [ -115.2383166, 36.2173571999 ], [ -115.2383166, 36.217354499899997 ], [ -115.2383193, 36.217354499899997 ], [ -115.2383193, 36.217351799900001 ], [ -115.238322, 36.217351799900001 ], [ -115.238322, 36.217349099899998 ], [ -115.2383274, 36.217349099899998 ], [ -115.2383274, 36.217346399900002 ], [ -115.2383301, 36.217346399900002 ], [ -115.2383301, 36.217343699899999 ], [ -115.2383355, 36.217343699899999 ], [ -115.2383355, 36.217340999900003 ], [ -115.2383409, 36.217340999900003 ], [ -115.2383409, 36.2173382999 ], [ -115.2383436, 36.2173382999 ], [ -115.2383436, 36.217319399899999 ], [ -115.2383409, 36.217319399899999 ], [ -115.2383409, 36.217316699899996 ], [ -115.2383355, 36.217316699899996 ], [ -115.2383355, 36.217303199900002 ], [ -115.2383382, 36.217303199900002 ], [ -115.2383382, 36.217297799900003 ], [ -115.2383355, 36.217297799900003 ], [ -115.2383355, 36.217292399899996 ], [ -115.2383382, 36.217292399899996 ], [ -115.2383382, 36.2172896999 ], [ -115.238349, 36.2172896999 ], [ -115.238349, 36.217295099899999 ], [ -115.2383517, 36.217295099899999 ], [ -115.2383517, 36.217303199900002 ], [ -115.2383544, 36.217303199900002 ], [ -115.2383544, 36.217305899899998 ], [ -115.2383571, 36.217305899899998 ], [ -115.2383571, 36.217308599900001 ], [ -115.2383679, 36.217308599900001 ], [ -115.2383679, 36.217305899899998 ], [ -115.2383706, 36.217305899899998 ], [ -115.2383706, 36.217297799900003 ], [ -115.2383733, 36.217297799900003 ], [ -115.2383733, 36.217295099899999 ], [ -115.238376, 36.217295099899999 ], [ -115.238376, 36.2172896999 ], [ -115.2383733, 36.2172896999 ], [ -115.2383733, 36.217284299900001 ], [ -115.2383679, 36.217284299900001 ], [ -115.2383679, 36.217281599899998 ], [ -115.2383598, 36.217281599899998 ], [ -115.2383598, 36.217278899900002 ], [ -115.238349, 36.217278899900002 ], [ -115.238349, 36.217276199899999 ], [ -115.2383463, 36.217276199899999 ], [ -115.2383463, 36.217268099899997 ], [ -115.2383436, 36.217268099899997 ], [ -115.2383436, 36.2172653999 ], [ -115.2383409, 36.2172653999 ], [ -115.2383409, 36.217257299899998 ], [ -115.2383436, 36.217257299899998 ], [ -115.2383436, 36.217249199900003 ], [ -115.238349, 36.217249199900003 ], [ -115.238349, 36.2172464999 ], [ -115.2383517, 36.2172464999 ], [ -115.2383517, 36.217238399899998 ], [ -115.2383544, 36.217238399899998 ], [ -115.2383544, 36.217235699900002 ], [ -115.2383571, 36.217235699900002 ], [ -115.2383571, 36.217232999899998 ], [ -115.2383598, 36.217232999899998 ], [ -115.2383598, 36.217230299900002 ], [ -115.2383625, 36.217230299900002 ], [ -115.2383625, 36.217227599899999 ], [ -115.2383652, 36.217227599899999 ], [ -115.2383652, 36.217224899899996 ], [ -115.2383706, 36.217224899899996 ], [ -115.2383706, 36.2172221999 ], [ -115.238376, 36.2172221999 ], [ -115.238376, 36.217219499899997 ], [ -115.2383814, 36.217219499899997 ], [ -115.2383814, 36.217216799900001 ], [ -115.2383895, 36.217216799900001 ], [ -115.2383895, 36.217214099899998 ], [ -115.2384435, 36.217214099899998 ], [ -115.2384435, 36.217216799900001 ], [ -115.238484, 36.217216799900001 ], [ -115.238484, 36.217219499899997 ], [ -115.2384867, 36.217219499899997 ], [ -115.2384867, 36.217259999900001 ], [ -115.2384894, 36.217259999900001 ], [ -115.2384894, 36.217268099899997 ], [ -115.2384921, 36.217268099899997 ], [ -115.2384921, 36.2172707999 ], [ -115.238511, 36.2172707999 ], [ -115.238511, 36.217273499900003 ], [ -115.2385137, 36.217273499900003 ], [ -115.2385137, 36.217284299900001 ], [ -115.238511, 36.217284299900001 ], [ -115.238511, 36.217295099899999 ], [ -115.2385056, 36.217295099899999 ], [ -115.2385056, 36.217297799900003 ], [ -115.2385029, 36.217297799900003 ], [ -115.2385029, 36.217305899899998 ], [ -115.2385083, 36.217305899899998 ], [ -115.2385083, 36.217316699899996 ], [ -115.2385056, 36.217316699899996 ], [ -115.2385056, 36.217322099900002 ], [ -115.2385029, 36.217322099900002 ], [ -115.2385029, 36.217324799899998 ], [ -115.2385002, 36.217324799899998 ], [ -115.2385002, 36.217332899900001 ], [ -115.2384975, 36.217332899900001 ], [ -115.2384975, 36.217340999900003 ], [ -115.2384948, 36.217340999900003 ], [ -115.2384948, 36.217346399900002 ], [ -115.2384921, 36.217346399900002 ], [ -115.2384921, 36.217384199899996 ], [ -115.2384894, 36.217384199899996 ], [ -115.2384894, 36.217386899899999 ], [ -115.2384867, 36.217386899899999 ], [ -115.2384867, 36.217389599900002 ], [ -115.2384732, 36.217389599900002 ], [ -115.2384732, 36.217392299899998 ], [ -115.2384651, 36.217392299899998 ], [ -115.2384651, 36.217394999900002 ], [ -115.2384489, 36.217394999900002 ], [ -115.2384489, 36.217392299899998 ], [ -115.2384408, 36.217392299899998 ], [ -115.2384408, 36.217394999900002 ], [ -115.2384327, 36.217394999900002 ], [ -115.2384327, 36.217397699899998 ], [ -115.23843, 36.217397699899998 ], [ -115.23843, 36.217400399900001 ], [ -115.2384273, 36.217400399900001 ], [ -115.2384273, 36.217403099899997 ], [ -115.2384057, 36.217403099899997 ], [ -115.2384057, 36.2174057999 ], [ -115.2384003, 36.2174057999 ], [ -115.2384003, 36.217408499899996 ], [ -115.2383976, 36.217408499899996 ], [ -115.2383976, 36.217411199899999 ], [ -115.2383949, 36.217411199899999 ], [ -115.2383949, 36.217413899900002 ], [ -115.2383922, 36.217413899900002 ], [ -115.2383922, 36.217416599899998 ] ] ] } },
{ "type": "Feature", "properties": { "value": 255.0 }, "geometry": { "type": "Polygon", "coordinates": [ [ [ -115.2377118, 36.217311299899997 ], [ -115.2376929, 36.217311299899997 ], [ -115.2376929, 36.217308599900001 ], [ -115.2376875, 36.217308599900001 ], [ -115.2376875, 36.217305899899998 ], [ -115.2376848, 36.217305899899998 ], [ -115.2376848, 36.217251899899999 ], [ -115.2376875, 36.217251899899999 ], [ -115.2376875, 36.217249199900003 ], [ -115.2376902, 36.217249199900003 ], [ -115.2376902, 36.2172464999 ], [ -115.2377037, 36.2172464999 ], [ -115.2377037, 36.217243799899997 ], [ -115.2377091, 36.217243799899997 ], [ -115.2377091, 36.2172464999 ], [ -115.2377388, 36.2172464999 ], [ -115.2377388, 36.217243799899997 ], [ -115.237755, 36.217243799899997 ], [ -115.237755, 36.217241099900001 ], [ -115.2377577, 36.217241099900001 ], [ -115.2377577, 36.217184399899999 ], [ -115.237755, 36.217184399899999 ], [ -115.237755, 36.217181699900003 ], [ -115.2377523, 36.217181699900003 ], [ -115.2377523, 36.2171789999 ], [ -115.2377469, 36.2171789999 ], [ -115.2377469, 36.217176299899997 ], [ -115.2377388, 36.217176299899997 ], [ -115.2377388, 36.2171789999 ], [ -115.2377199, 36.2171789999 ], [ -115.2377199, 36.217176299899997 ], [ -115.2377172, 36.217176299899997 ], [ -115.2377172, 36.2171789999 ], [ -115.2376902, 36.2171789999 ], [ -115.2376902, 36.217176299899997 ], [ -115.2376875, 36.217176299899997 ], [ -115.2376875, 36.217173599900001 ], [ -115.2376848, 36.217173599900001 ], [ -115.2376848, 36.217170899899997 ], [ -115.2376821, 36.217170899899997 ], [ -115.2376821, 36.217138499900003 ], [ -115.2376794, 36.217138499900003 ], [ -115.2376794, 36.217124999900001 ], [ -115.2376767, 36.217124999900001 ], [ -115.2376767, 36.217106099900001 ], [ -115.237674, 36.217106099900001 ], [ -115.237674, 36.217095299900002 ], [ -115.2376767, 36.217095299900002 ], [ -115.2376767, 36.217092599899999 ], [ -115.2376794, 36.217092599899999 ], [ -115.2376794, 36.217089899900003 ], [ -115.2378198, 36.217089899900003 ], [ -115.2378198, 36.217092599899999 ], [ -115.2378333, 36.217092599899999 ], [ -115.2378333, 36.217095299900002 ], [ -115.2378549, 36.217095299900002 ], [ -115.2378549, 36.217097999899998 ], [ -115.2378711, 36.217097999899998 ], [ -115.2378711, 36.217100699900001 ], [ -115.2378738, 36.217100699900001 ], [ -115.2378738, 36.217138499900003 ], [ -115.2378765, 36.217138499900003 ], [ -115.2378765, 36.217165499899998 ], [ -115.2378792, 36.217165499899998 ], [ -115.2378792, 36.217168199900001 ], [ -115.2378819, 36.217168199900001 ], [ -115.2378819, 36.217170899899997 ], [ -115.2378846, 36.217170899899997 ], [ -115.2378846, 36.217173599900001 ], [ -115.2378873, 36.217173599900001 ], [ -115.2378873, 36.217176299899997 ], [ -115.23789, 36.217176299899997 ], [ -115.23789, 36.2171789999 ], [ -115.2378927, 36.2171789999 ], [ -115.2378927, 36.217181699900003 ], [ -115.2378954, 36.217181699900003 ], [ -115.2378954, 36.217184399899999 ], [ -115.2379008, 36.217184399899999 ], [ -115.2379008, 36.217187099900002 ], [ -115.2379062, 36.217187099900002 ], [ -115.2379062, 36.217189799899998 ], [ -115.2379143, 36.217189799899998 ], [ -115.2379143, 36.217192499900001 ], [ -115.2379197, 36.217192499900001 ], [ -115.2379197, 36.2171978999 ], [ -115.2379224, 36.2171978999 ], [ -115.2379224, 36.217216799900001 ], [ -115.2379197, 36.217216799900001 ], [ -115.2379197, 36.217224899899996 ], [ -115.2379224, 36.217224899899996 ], [ -115.2379224, 36.217232999899998 ], [ -115.2379251, 36.217232999899998 ], [ -115.2379251, 36.217235699900002 ], [ -115.2379332, 36.217235699900002 ], [ -115.2379332, 36.217238399899998 ], [ -115.2379386, 36.217238399899998 ], [ -115.2379386, 36.217235699900002 ], [ -115.2379413, 36.217235699900002 ], [ -115.2379413, 36.217238399899998 ], [ -115.237944, 36.217238399899998 ], [ -115.237944, 36.217235699900002 ], [ -115.2379764, 36.217235699900002 ], [ -115.2379764, 36.217238399899998 ], [ -115.2379791, 36.217238399899998 ], [ -115.2379791, 36.217241099900001 ], [ -115.2379818, 36.217241099900001 ], [ -115.2379818, 36.217254599900002 ], [ -115.2379791, 36.217254599900002 ], [ -115.2379791, 36.217300499899999 ], [ -115.2379764, 36.217300499899999 ], [ -115.2379764, 36.217303199900002 ], [ -115.2379575, 36.217303199900002 ], [ -115.2379575, 36.217305899899998 ], [ -115.2378333, 36.217305899899998 ], [ -115.2378333, 36.217308599900001 ], [ -115.2377118, 36.217308599900001 ], [ -115.2377118, 36.217311299899997 ] ] ] } },
{ "type": "Feature", "properties": { "value": 255.0 }, "geometry": { "type": "Polygon", "coordinates": [ [ [ -115.2387297, 36.217235699900002 ], [ -115.2387243, 36.217235699900002 ], [ -115.2387243, 36.217232999899998 ], [ -115.2387216, 36.217232999899998 ], [ -115.2387216, 36.217230299900002 ], [ -115.2387189, 36.217230299900002 ], [ -115.2387189, 36.217168199900001 ], [ -115.2387216, 36.217168199900001 ], [ -115.2387216, 36.217157399900003 ], [ -115.2387243, 36.217157399900003 ], [ -115.2387243, 36.217133099900003 ], [ -115.2387216, 36.217133099900003 ], [ -115.2387216, 36.217103399899997 ], [ -115.2387243, 36.217103399899997 ], [ -115.2387243, 36.217100699900001 ], [ -115.2387594, 36.217100699900001 ], [ -115.2387594, 36.217097999899998 ], [ -115.2387972, 36.217097999899998 ], [ -115.2387972, 36.217095299900002 ], [ -115.2388107, 36.217095299900002 ], [ -115.2388107, 36.217097999899998 ], [ -115.2388242, 36.217097999899998 ], [ -115.2388242, 36.217095299900002 ], [ -115.2388377, 36.217095299900002 ], [ -115.2388377, 36.217097999899998 ], [ -115.2388836, 36.217097999899998 ], [ -115.2388836, 36.217100699900001 ], [ -115.238889, 36.217100699900001 ], [ -115.238889, 36.217103399899997 ], [ -115.2388917, 36.217103399899997 ], [ -115.2388917, 36.217119599900002 ], [ -115.2388944, 36.217119599900002 ], [ -115.2388944, 36.217127699899997 ], [ -115.2388917, 36.217127699899997 ], [ -115.2388917, 36.217141199899999 ], [ -115.2388944, 36.217141199899999 ], [ -115.2388944, 36.217143899900002 ], [ -115.2388917, 36.217143899900002 ], [ -115.2388917, 36.217149299900001 ], [ -115.238889, 36.217149299900001 ], [ -115.238889, 36.217151999899997 ], [ -115.2388269, 36.217151999899997 ], [ -115.2388269, 36.2171546999 ], [ -115.2388242, 36.2171546999 ], [ -115.2388242, 36.217168199900001 ], [ -115.2388269, 36.217168199900001 ], [ -115.2388269, 36.2171789999 ], [ -115.2388323, 36.2171789999 ], [ -115.2388323, 36.217181699900003 ], [ -115.2388404, 36.217181699900003 ], [ -115.2388404, 36.217184399899999 ], [ -115.2388431, 36.217184399899999 ], [ -115.2388431, 36.217187099900002 ], [ -115.2388458, 36.217187099900002 ], [ -115.2388458, 36.217189799899998 ], [ -115.2388485, 36.217189799899998 ], [ -115.2388485, 36.217192499900001 ], [ -115.2388512, 36.217192499900001 ], [ -115.2388512, 36.2171978999 ], [ -115.2388539, 36.2171978999 ], [ -115.2388539, 36.217230299900002 ], [ -115.238808, 36.217230299900002 ], [ -115.238808, 36.217232999899998 ], [ -115.2387297, 36.217232999899998 ], [ -115.2387297, 36.217235699900002 ] ] ] } },
{ "type": "Feature", "properties": { "value": 255.0 }, "geometry": { "type": "Polygon", "coordinates": [ [ [ -115.2384138, 36.217133099900003 ], [ -115.2383301, 36.217133099900003 ], [ -115.2383301, 36.217124999900001 ], [ -115.2383274, 36.217124999900001 ], [ -115.2383274, 36.217057499900001 ], [ -115.2383247, 36.217057499900001 ], [ -115.2383247, 36.217054799899998 ], [ -115.238322, 36.217054799899998 ], [ -115.238322, 36.217052099900002 ], [ -115.2383058, 36.217052099900002 ], [ -115.2383058, 36.217046699900003 ], [ -115.2383031, 36.217046699900003 ], [ -115.2383031, 36.216960299900002 ], [ -115.2383976, 36.216960299900002 ], [ -115.2383976, 36.216962999899998 ], [ -115.2384084, 36.216962999899998 ], [ -115.2384084, 36.216960299900002 ], [ -115.2384759, 36.216960299900002 ], [ -115.2384759, 36.216957599899999 ], [ -115.2384786, 36.216957599899999 ], [ -115.2384786, 36.216960299900002 ], [ -115.238484, 36.216960299900002 ], [ -115.238484, 36.216962999899998 ], [ -115.2384867, 36.216962999899998 ], [ -115.2384867, 36.216965699900001 ], [ -115.2384894, 36.216965699900001 ], [ -115.2384894, 36.217049399899999 ], [ -115.2384921, 36.217049399899999 ], [ -115.2384921, 36.2170871999 ], [ -115.2384894, 36.2170871999 ], [ -115.2384894, 36.217092599899999 ], [ -115.2384867, 36.217092599899999 ], [ -115.2384867, 36.217095299900002 ], [ -115.2384813, 36.217095299900002 ], [ -115.2384813, 36.217097999899998 ], [ -115.2384786, 36.217097999899998 ], [ -115.2384786, 36.217124999900001 ], [ -115.2384759, 36.217124999900001 ], [ -115.2384759, 36.217127699899997 ], [ -115.2384732, 36.217127699899997 ], [ -115.2384732, 36.2171303999 ], [ -115.2384138, 36.2171303999 ], [ -115.2384138, 36.217133099900003 ] ] ] } },
{ "type": "Feature", "properties": { "value": 255.0 }, "geometry": { "type": "Polygon", "coordinates": [ [ [ -115.2387999, 36.217073699899998 ], [ -115.2387324, 36.217073699899998 ], [ -115.2387324, 36.217070999900002 ], [ -115.2387027, 36.217070999900002 ], [ -115.2387027, 36.217068299899999 ], [ -115.2387, 36.217068299899999 ], [ -115.2387, 36.216976499899999 ], [ -115.2386973, 36.216976499899999 ], [ -115.2386973, 36.216965699900001 ], [ -115.2386946, 36.216965699900001 ], [ -115.2386946, 36.216960299900002 ], [ -115.2386919, 36.216960299900002 ], [ -115.2386919, 36.216957599899999 ], [ -115.2386892, 36.216957599899999 ], [ -115.2386892, 36.216938699899998 ], [ -115.2386865, 36.216938699899998 ], [ -115.2386865, 36.216933299899999 ], [ -115.2386892, 36.216933299899999 ], [ -115.2386892, 36.216930599900003 ], [ -115.2387864, 36.216930599900003 ], [ -115.2387864, 36.2169278999 ], [ -115.2387972, 36.2169278999 ], [ -115.2387972, 36.216925199900004 ], [ -115.238808, 36.216925199900004 ], [ -115.238808, 36.216922499900001 ], [ -115.2388755, 36.216922499900001 ], [ -115.2388755, 36.216925199900004 ], [ -115.2388809, 36.216925199900004 ], [ -115.2388809, 36.2169278999 ], [ -115.2388836, 36.2169278999 ], [ -115.2388836, 36.216973799900003 ], [ -115.2388809, 36.216973799900003 ], [ -115.2388809, 36.216989999900001 ], [ -115.2388242, 36.216989999900001 ], [ -115.2388242, 36.216992699899997 ], [ -115.2388188, 36.216992699899997 ], [ -115.2388188, 36.217033199900001 ], [ -115.2388215, 36.217033199900001 ], [ -115.2388215, 36.2170385999 ], [ -115.2388242, 36.2170385999 ], [ -115.2388242, 36.217065599900003 ], [ -115.2388188, 36.217065599900003 ], [ -115.2388188, 36.217068299899999 ], [ -115.2388107, 36.217068299899999 ], [ -115.2388107, 36.217070999900002 ], [ -115.2387999, 36.217070999900002 ], [ -115.2387999, 36.217073699899998 ] ] ] } },
{ "type": "Feature", "properties": { "value": 255.0 }, "geometry": { "type": "Polygon", "coordinates": [ [ [ -115.2375957, 36.216914399899999 ], [ -115.237539, 36.216914399899999 ], [ -115.237539, 36.216911699900002 ], [ -115.2375336, 36.216911699900002 ], [ -115.2375336, 36.216908999899999 ], [ -115.2375309, 36.216908999899999 ], [ -115.2375309, 36.2169035999 ], [ -115.2375282, 36.2169035999 ], [ -115.2375282, 36.216881999900004 ], [ -115.2375255, 36.216881999900004 ], [ -115.2375255, 36.216871199899998 ], [ -115.2375282, 36.216871199899998 ], [ -115.2375282, 36.216868499900002 ], [ -115.2375309, 36.216868499900002 ], [ -115.2375309, 36.216865799899999 ], [ -115.2375363, 36.216865799899999 ], [ -115.2375363, 36.216863099900003 ], [ -115.2375417, 36.216863099900003 ], [ -115.2375417, 36.2168603999 ], [ -115.2375471, 36.2168603999 ], [ -115.2375471, 36.216857699900004 ], [ -115.2375498, 36.216857699900004 ], [ -115.2375498, 36.216854999900001 ], [ -115.2375552, 36.216854999900001 ], [ -115.2375552, 36.216852299899998 ], [ -115.2375687, 36.216852299899998 ], [ -115.2375687, 36.216849599900002 ], [ -115.2375795, 36.216849599900002 ], [ -115.2375795, 36.216852299899998 ], [ -115.2375822, 36.216852299899998 ], [ -115.2375822, 36.216849599900002 ], [ -115.237593, 36.216849599900002 ], [ -115.237593, 36.216852299899998 ], [ -115.2375957, 36.216852299899998 ], [ -115.2375957, 36.2168792999 ], [ -115.2375984, 36.2168792999 ], [ -115.2375984, 36.216911699900002 ], [ -115.2375957, 36.216911699900002 ], [ -115.2375957, 36.216914399899999 ] ] ] } },
{ "type": "Feature", "properties": { "value": 255.0 }, "geometry": { "type": "Polygon", "coordinates": [ [ [ -115.2378819, 36.217054799899998 ], [ -115.2377766, 36.217054799899998 ], [ -115.2377766, 36.217049399899999 ], [ -115.2377739, 36.217049399899999 ], [ -115.2377739, 36.217035899899997 ], [ -115.2377712, 36.217035899899997 ], [ -115.2377712, 36.217003499900002 ], [ -115.2377685, 36.217003499900002 ], [ -115.2377685, 36.217000799899999 ], [ -115.2377712, 36.217000799899999 ], [ -115.2377712, 36.216998099900003 ], [ -115.2377685, 36.216998099900003 ], [ -115.2377685, 36.216965699900001 ], [ -115.2377712, 36.216965699900001 ], [ -115.2377712, 36.216962999899998 ], [ -115.2377685, 36.216962999899998 ], [ -115.2377685, 36.216960299900002 ], [ -115.2377361, 36.216960299900002 ], [ -115.2377361, 36.216957599899999 ], [ -115.2377307, 36.216957599899999 ], [ -115.2377307, 36.2169521999 ], [ -115.237728, 36.2169521999 ], [ -115.237728, 36.216922499900001 ], [ -115.2377253, 36.216922499900001 ], [ -115.2377253, 36.216892799900002 ], [ -115.2377226, 36.216892799900002 ], [ -115.2377226, 36.216890099899999 ], [ -115.2377199, 36.216890099899999 ], [ -115.2377199, 36.216865799899999 ], [ -115.2377172, 36.216865799899999 ], [ -115.2377172, 36.216854999900001 ], [ -115.2377145, 36.216854999900001 ], [ -115.2377145, 36.216830699900001 ], [ -115.2377226, 36.216830699900001 ], [ -115.2377226, 36.216827999899998 ], [ -115.2377334, 36.216827999899998 ], [ -115.2377334, 36.216825299900002 ], [ -115.2377388, 36.216825299900002 ], [ -115.2377388, 36.216822599899999 ], [ -115.2377523, 36.216822599899999 ], [ -115.2377523, 36.216825299900002 ], [ -115.2378846, 36.216825299900002 ], [ -115.2378846, 36.216822599899999 ], [ -115.2378927, 36.216822599899999 ], [ -115.2378927, 36.216825299900002 ], [ -115.2379575, 36.216825299900002 ], [ -115.2379575, 36.216854999900001 ], [ -115.2379602, 36.216854999900001 ], [ -115.2379602, 36.216881999900004 ], [ -115.2379575, 36.216881999900004 ], [ -115.2379575, 36.2168846999 ], [ -115.2379359, 36.2168846999 ], [ -115.2379359, 36.216887399900003 ], [ -115.2378846, 36.216887399900003 ], [ -115.2378846, 36.216890099899999 ], [ -115.2378819, 36.216890099899999 ], [ -115.2378819, 36.216914399899999 ], [ -115.2378846, 36.216914399899999 ], [ -115.2378846, 36.216925199900004 ], [ -115.2378873, 36.216925199900004 ], [ -115.2378873, 36.2169953999 ], [ -115.2378846, 36.2169953999 ], [ -115.2378846, 36.217027799900002 ], [ -115.2378873, 36.217027799900002 ], [ -115.2378873, 36.217052099900002 ], [ -115.2378819, 36.217052099900002 ], [ -115.2378819, 36.217054799899998 ] ] ] } },
{ "type": "Feature", "properties": { "value": 255.0 }, "geometry": { "type": "Polygon", "coordinates": [ [ [ -115.2385596, 36.216838799900003 ], [ -115.2385434, 36.216838799900003 ], [ -115.2385434, 36.2168360999 ], [ -115.2385407, 36.2168360999 ], [ -115.2385407, 36.216833399900004 ], [ -115.238538, 36.216833399900004 ], [ -115.238538, 36.216814499900003 ], [ -115.2385569, 36.216814499900003 ], [ -115.2385569, 36.216817199899999 ], [ -115.2385596, 36.216817199899999 ], [ -115.2385596, 36.216819899900003 ], [ -115.2385623, 36.216819899900003 ], [ -115.2385623, 36.216822599899999 ], [ -115.238565, 36.216822599899999 ], [ -115.238565, 36.216825299900002 ], [ -115.2385677, 36.216825299900002 ], [ -115.2385677, 36.216827999899998 ], [ -115.238565, 36.216827999899998 ], [ -115.238565, 36.2168360999 ], [ -115.2385596, 36.2168360999 ], [ -115.2385596, 36.216838799900003 ] ] ] } },
{ "type": "Feature", "properties": { "value": 255.0 }, "geometry": { "type": "Polygon", "coordinates": [ [ [ -115.2377739, 36.216819899900003 ], [ -115.2377415, 36.216819899900003 ], [ -115.2377415, 36.216817199899999 ], [ -115.2377361, 36.216817199899999 ], [ -115.2377361, 36.216814499900003 ], [ -115.2377334, 36.216814499900003 ], [ -115.2377334, 36.216800999900002 ], [ -115.2377685, 36.216800999900002 ], [ -115.2377685, 36.216798299899999 ], [ -115.2377766, 36.216798299899999 ], [ -115.2377766, 36.216817199899999 ], [ -115.2377739, 36.216817199899999 ], [ -115.2377739, 36.216819899900003 ] ] ] } },
{ "type": "Feature", "properties": { "value": 255.0 }, "geometry": { "type": "Polygon", "coordinates": [ [ [ -115.2386406, 36.216790199900004 ], [ -115.2386028, 36.216790199900004 ], [ -115.2386028, 36.216784799899997 ], [ -115.2386001, 36.216784799899997 ], [ -115.2386001, 36.216765899900004 ], [ -115.2386028, 36.216765899900004 ], [ -115.2386028, 36.216760499899998 ], [ -115.2386055, 36.216760499899998 ], [ -115.2386055, 36.216757799900002 ], [ -115.2386352, 36.216757799900002 ], [ -115.2386352, 36.216760499899998 ], [ -115.2386406, 36.216760499899998 ], [ -115.2386406, 36.216765899900004 ], [ -115.2386433, 36.216765899900004 ], [ -115.2386433, 36.216787499900001 ], [ -115.2386406, 36.216787499900001 ], [ -115.2386406, 36.216790199900004 ] ] ] } },
{ "type": "Feature", "properties": { "value": 255.0 }, "geometry": { "type": "Polygon", "coordinates": [ [ [ -115.2374472, 36.216787499900001 ], [ -115.2374391, 36.216787499900001 ], [ -115.2374391, 36.216779399899998 ], [ -115.2374364, 36.216779399899998 ], [ -115.2374364, 36.2167685999 ], [ -115.2374391, 36.2167685999 ], [ -115.2374391, 36.216765899900004 ], [ -115.237485, 36.216765899900004 ], [ -115.237485, 36.2167685999 ], [ -115.2374877, 36.2167685999 ], [ -115.2374877, 36.216771299900003 ], [ -115.2375039, 36.216771299900003 ], [ -115.2375039, 36.216773999899999 ], [ -115.237512, 36.216773999899999 ], [ -115.237512, 36.216771299900003 ], [ -115.2375147, 36.216771299900003 ], [ -115.2375147, 36.216765899900004 ], [ -115.2375228, 36.216765899900004 ], [ -115.2375228, 36.216763199900001 ], [ -115.2375363, 36.216763199900001 ], [ -115.2375363, 36.216765899900004 ], [ -115.2375579, 36.216765899900004 ], [ -115.2375579, 36.216771299900003 ], [ -115.2375606, 36.216771299900003 ], [ -115.2375606, 36.216782099900001 ], [ -115.2375579, 36.216782099900001 ], [ -115.2375579, 36.216784799899997 ], [ -115.2375201, 36.216784799899997 ], [ -115.2375201, 36.216782099900001 ], [ -115.2375093, 36.216782099900001 ], [ -115.2375093, 36.216779399899998 ], [ -115.2374904, 36.216779399899998 ], [ -115.2374904, 36.216782099900001 ], [ -115.2374823, 36.216782099900001 ], [ -115.2374823, 36.216784799899997 ], [ -115.2374472, 36.216784799899997 ], [ -115.2374472, 36.216787499900001 ] ] ] } },
{ "type": "Feature", "properties": { "value": 255.0 }, "geometry": { "type": "Polygon", "coordinates": [ [ [ -115.2387702, 36.216908999899999 ], [ -115.2387189, 36.216908999899999 ], [ -115.2387189, 36.216906299900003 ], [ -115.2386919, 36.216906299900003 ], [ -115.2386919, 36.216908999899999 ], [ -115.2386811, 36.216908999899999 ], [ -115.2386811, 36.216906299900003 ], [ -115.2386784, 36.216906299900003 ], [ -115.2386784, 36.2169035999 ], [ -115.2386757, 36.2169035999 ], [ -115.2386757, 36.2168360999 ], [ -115.238673, 36.2168360999 ], [ -115.238673, 36.216822599899999 ], [ -115.2386703, 36.216822599899999 ], [ -115.2386703, 36.216809099899997 ], [ -115.2386676, 36.216809099899997 ], [ -115.2386676, 36.2167685999 ], [ -115.2386703, 36.2167685999 ], [ -115.2386703, 36.216765899900004 ], [ -115.2387729, 36.216765899900004 ], [ -115.2387729, 36.216763199900001 ], [ -115.2387972, 36.216763199900001 ], [ -115.2387972, 36.216760499899998 ], [ -115.2388674, 36.216760499899998 ], [ -115.2388674, 36.216763199900001 ], [ -115.2388701, 36.216763199900001 ], [ -115.2388701, 36.216773999899999 ], [ -115.2388674, 36.216773999899999 ], [ -115.2388674, 36.216822599899999 ], [ -115.2388647, 36.216822599899999 ], [ -115.2388647, 36.216825299900002 ], [ -115.2388377, 36.216825299900002 ], [ -115.2388377, 36.216827999899998 ], [ -115.2388269, 36.216827999899998 ], [ -115.2388269, 36.216830699900001 ], [ -115.2388134, 36.216830699900001 ], [ -115.2388134, 36.216833399900004 ], [ -115.2388107, 36.216833399900004 ], [ -115.2388107, 36.216849599900002 ], [ -115.2388134, 36.216849599900002 ], [ -115.2388134, 36.216852299899998 ], [ -115.2388161, 36.216852299899998 ], [ -115.2388161, 36.216854999900001 ], [ -115.2388134, 36.216854999900001 ], [ -115.2388134, 36.2168603999 ], [ -115.2388107, 36.2168603999 ], [ -115.2388107, 36.216881999900004 ], [ -115.238808, 36.216881999900004 ], [ -115.238808, 36.216892799900002 ], [ -115.2388053, 36.216892799900002 ], [ -115.2388053, 36.216898199900001 ], [ -115.2388026, 36.216898199900001 ], [ -115.2388026, 36.216900899899997 ], [ -115.2387945, 36.216900899899997 ], [ -115.2387945, 36.2169035999 ], [ -115.238781, 36.2169035999 ], [ -115.238781, 36.216906299900003 ], [ -115.2387702, 36.216906299900003 ], [ -115.2387702, 36.216908999899999 ] ] ] } },
{ "type": "Feature", "properties": { "value": 255.0 }, "geometry": { "type": "Polygon", "coordinates": [ [ [ -115.2383733, 36.216887399900003 ], [ -115.2383004, 36.216887399900003 ], [ -115.2383004, 36.2168846999 ], [ -115.2382977, 36.2168846999 ], [ -115.2382977, 36.2168792999 ], [ -115.238295, 36.2168792999 ], [ -115.238295, 36.216830699900001 ], [ -115.2382923, 36.216830699900001 ], [ -115.2382923, 36.216819899900003 ], [ -115.238295, 36.216819899900003 ], [ -115.238295, 36.216809099899997 ], [ -115.2382923, 36.216809099899997 ], [ -115.2382923, 36.216806399900001 ], [ -115.2382896, 36.216806399900001 ], [ -115.2382896, 36.216795599900003 ], [ -115.2382869, 36.216795599900003 ], [ -115.2382869, 36.216782099900001 ], [ -115.2382896, 36.216782099900001 ], [ -115.2382896, 36.216760499899998 ], [ -115.2382923, 36.216760499899998 ], [ -115.2382923, 36.216752399900003 ], [ -115.238295, 36.216752399900003 ], [ -115.238295, 36.2167442999 ], [ -115.2382977, 36.2167442999 ], [ -115.2382977, 36.216711899899998 ], [ -115.2383004, 36.216711899899998 ], [ -115.2383004, 36.2167010999 ], [ -115.2382977, 36.2167010999 ], [ -115.2382977, 36.216682199899999 ], [ -115.2383004, 36.216682199899999 ], [ -115.2383004, 36.216679499900003 ], [ -115.2383031, 36.216679499900003 ], [ -115.2383031, 36.2166767999 ], [ -115.2383058, 36.2166767999 ], [ -115.2383058, 36.216674099900004 ], [ -115.2383328, 36.216674099900004 ], [ -115.2383328, 36.2166767999 ], [ -115.2383706, 36.2166767999 ], [ -115.2383706, 36.216674099900004 ], [ -115.2383841, 36.216674099900004 ], [ -115.2383841, 36.2166767999 ], [ -115.2384354, 36.2166767999 ], [ -115.2384354, 36.216679499900003 ], [ -115.2384408, 36.216679499900003 ], [ -115.2384408, 36.216682199899999 ], [ -115.2384435, 36.216682199899999 ], [ -115.2384435, 36.216684899900002 ], [ -115.2384462, 36.216684899900002 ], [ -115.2384462, 36.216703799900003 ], [ -115.2384489, 36.216703799900003 ], [ -115.2384489, 36.216733499900002 ], [ -115.2384516, 36.216733499900002 ], [ -115.2384516, 36.2167442999 ], [ -115.2384543, 36.2167442999 ], [ -115.2384543, 36.216746999900003 ], [ -115.238484, 36.216746999900003 ], [ -115.238484, 36.216749699899999 ], [ -115.2384894, 36.216749699899999 ], [ -115.2384894, 36.216803699899998 ], [ -115.238457, 36.216803699899998 ], [ -115.238457, 36.216806399900001 ], [ -115.2384543, 36.216806399900001 ], [ -115.2384543, 36.216814499900003 ], [ -115.2384516, 36.216814499900003 ], [ -115.2384516, 36.216825299900002 ], [ -115.2384489, 36.216825299900002 ], [ -115.2384489, 36.216827999899998 ], [ -115.2384462, 36.216827999899998 ], [ -115.2384462, 36.216830699900001 ], [ -115.2384408, 36.216830699900001 ], [ -115.2384408, 36.216833399900004 ], [ -115.2384138, 36.216833399900004 ], [ -115.2384138, 36.2168360999 ], [ -115.2384057, 36.2168360999 ], [ -115.2384057, 36.216849599900002 ], [ -115.238403, 36.216849599900002 ], [ -115.238403, 36.216881999900004 ], [ -115.2384003, 36.216881999900004 ], [ -115.2384003, 36.2168846999 ], [ -115.2383733, 36.2168846999 ], [ -115.2383733, 36.216887399900003 ] ] ] } },
{ "type": "Feature", "properties": { "value": 255.0 }, "geometry": { "type": "Polygon", "coordinates": [ [ [ -115.2374148, 36.216746999900003 ], [ -115.2373851, 36.216746999900003 ], [ -115.2373851, 36.2167442999 ], [ -115.2373824, 36.2167442999 ], [ -115.2373824, 36.216741599900004 ], [ -115.2373797, 36.216741599900004 ], [ -115.2373797, 36.216738899900001 ], [ -115.237377, 36.216738899900001 ], [ -115.237377, 36.216714599900001 ], [ -115.2373743, 36.216714599900001 ], [ -115.2373743, 36.216682199899999 ], [ -115.2373797, 36.216682199899999 ], [ -115.2373797, 36.216679499900003 ], [ -115.2374013, 36.216679499900003 ], [ -115.2374013, 36.216682199899999 ], [ -115.2374175, 36.216682199899999 ], [ -115.2374175, 36.216717299899997 ], [ -115.2374202, 36.216717299899997 ], [ -115.2374202, 36.216741599900004 ], [ -115.2374175, 36.216741599900004 ], [ -115.2374175, 36.2167442999 ], [ -115.2374148, 36.2167442999 ], [ -115.2374148, 36.216746999900003 ] ] ] } },
{ "type": "Feature", "properties": { "value": 255.0 }, "geometry": { "type": "Polygon", "coordinates": [ [ [ -115.2373203, 36.216730799899999 ], [ -115.2373176, 36.216730799899999 ], [ -115.2373176, 36.216647099900001 ], [ -115.2373203, 36.216647099900001 ], [ -115.2373203, 36.216649799900004 ], [ -115.2373257, 36.216649799900004 ], [ -115.2373257, 36.216647099900001 ], [ -115.2373284, 36.216647099900001 ], [ -115.2373284, 36.216663299899999 ], [ -115.2373311, 36.216663299899999 ], [ -115.2373311, 36.2167253999 ], [ -115.2373284, 36.2167253999 ], [ -115.2373284, 36.216728099900003 ], [ -115.2373203, 36.216728099900003 ], [ -115.2373203, 36.216730799899999 ] ] ] } },
{ "type": "Feature", "properties": { "value": 255.0 }, "geometry": { "type": "Polygon", "coordinates": [ [ [ -115.2376443, 36.2167442999 ], [ -115.2376281, 36.2167442999 ], [ -115.2376281, 36.216741599900004 ], [ -115.2376011, 36.216741599900004 ], [ -115.2376011, 36.216738899900001 ], [ -115.2375984, 36.216738899900001 ], [ -115.2375984, 36.216736199899998 ], [ -115.2375957, 36.216736199899998 ], [ -115.2375957, 36.216733499900002 ], [ -115.237593, 36.216733499900002 ], [ -115.237593, 36.216730799899999 ], [ -115.2375903, 36.216730799899999 ], [ -115.2375903, 36.2167199999 ], [ -115.2375849, 36.2167199999 ], [ -115.2375849, 36.216722699900004 ], [ -115.2375795, 36.216722699900004 ], [ -115.2375795, 36.2167253999 ], [ -115.237539, 36.2167253999 ], [ -115.237539, 36.216728099900003 ], [ -115.2374904, 36.216728099900003 ], [ -115.2374904, 36.2167253999 ], [ -115.237485, 36.2167253999 ], [ -115.237485, 36.216714599900001 ], [ -115.2374823, 36.216714599900001 ], [ -115.2374823, 36.216709199900002 ], [ -115.2374796, 36.216709199900002 ], [ -115.2374796, 36.216706499899999 ], [ -115.2374769, 36.216706499899999 ], [ -115.2374769, 36.2167010999 ], [ -115.2374742, 36.2167010999 ], [ -115.2374742, 36.216698399900004 ], [ -115.2374769, 36.216698399900004 ], [ -115.2374769, 36.216682199899999 ], [ -115.2374796, 36.216682199899999 ], [ -115.2374796, 36.216679499900003 ], [ -115.2374904, 36.216679499900003 ], [ -115.2374904, 36.2166767999 ], [ -115.2374931, 36.2166767999 ], [ -115.2374931, 36.216674099900004 ], [ -115.2374958, 36.216674099900004 ], [ -115.2374958, 36.216671399900001 ], [ -115.2374985, 36.216671399900001 ], [ -115.2374985, 36.216668699899998 ], [ -115.2375012, 36.216668699899998 ], [ -115.2375012, 36.216663299899999 ], [ -115.2375066, 36.216663299899999 ], [ -115.2375066, 36.216665999900002 ], [ -115.2375444, 36.216665999900002 ], [ -115.2375444, 36.216671399900001 ], [ -115.2375471, 36.216671399900001 ], [ -115.2375471, 36.216674099900004 ], [ -115.2375498, 36.216674099900004 ], [ -115.2375498, 36.2166767999 ], [ -115.2375525, 36.2166767999 ], [ -115.2375525, 36.216679499900003 ], [ -115.2375552, 36.216679499900003 ], [ -115.2375552, 36.216682199899999 ], [ -115.2375795, 36.216682199899999 ], [ -115.2375795, 36.216684899900002 ], [ -115.2375822, 36.216684899900002 ], [ -115.2375822, 36.216687599899998 ], [ -115.2375876, 36.216687599899998 ], [ -115.2375876, 36.216698399900004 ], [ -115.2375849, 36.216698399900004 ], [ -115.2375849, 36.216714599900001 ], [ -115.2375903, 36.216714599900001 ], [ -115.2375903, 36.216706499899999 ], [ -115.237593, 36.216706499899999 ], [ -115.237593, 36.216698399900004 ], [ -115.2375903, 36.216698399900004 ], [ -115.2375903, 36.216684899900002 ], [ -115.237593, 36.216684899900002 ], [ -115.237593, 36.216682199899999 ], [ -115.2375957, 36.216682199899999 ], [ -115.2375957, 36.216679499900003 ], [ -115.2376389, 36.216679499900003 ], [ -115.2376389, 36.216682199899999 ], [ -115.2376416, 36.216682199899999 ], [ -115.2376416, 36.216684899900002 ], [ -115.2376443, 36.216684899900002 ], [ -115.2376443, 36.216690299900002 ], [ -115.237647, 36.216690299900002 ], [ -115.237647, 36.216698399900004 ], [ -115.2376497, 36.216698399900004 ], [ -115.2376497, 36.216703799900003 ], [ -115.2376524, 36.216703799900003 ], [ -115.2376524, 36.216711899899998 ], [ -115.2376551, 36.216711899899998 ], [ -115.2376551, 36.2167253999 ], [ -115.2376578, 36.2167253999 ], [ -115.2376578, 36.216733499900002 ], [ -115.2376551, 36.216733499900002 ], [ -115.2376551, 36.216736199899998 ], [ -115.2376524, 36.216736199899998 ], [ -115.2376524, 36.216738899900001 ], [ -115.2376497, 36.216738899900001 ], [ -115.2376497, 36.216741599900004 ], [ -115.2376443, 36.216741599900004 ], [ -115.2376443, 36.2167442999 ] ] ] } },
{ "type": "Feature", "properties": { "value": 255.0 }, "geometry": { "type": "Polygon", "coordinates": [ [ [ -115.2387945, 36.216738899900001 ], [ -115.2386703, 36.216738899900001 ], [ -115.2386703, 36.216736199899998 ], [ -115.2386676, 36.216736199899998 ], [ -115.2386676, 36.216682199899999 ], [ -115.238673, 36.216682199899999 ], [ -115.238673, 36.216679499900003 ], [ -115.2386892, 36.216679499900003 ], [ -115.2386892, 36.2166767999 ], [ -115.2386919, 36.2166767999 ], [ -115.2386919, 36.216663299899999 ], [ -115.2386946, 36.216663299899999 ], [ -115.2386946, 36.216660599900003 ], [ -115.2386973, 36.216660599900003 ], [ -115.2386973, 36.2166578999 ], [ -115.2387, 36.2166578999 ], [ -115.2387, 36.216601199899998 ], [ -115.2387945, 36.216601199899998 ], [ -115.2387945, 36.216598499900002 ], [ -115.2388269, 36.216598499900002 ], [ -115.2388269, 36.216603899900001 ], [ -115.2388296, 36.216603899900001 ], [ -115.2388296, 36.216638999899999 ], [ -115.2388269, 36.216638999899999 ], [ -115.2388269, 36.216641699900002 ], [ -115.2388161, 36.216641699900002 ], [ -115.2388161, 36.216644399899998 ], [ -115.2388134, 36.216644399899998 ], [ -115.2388134, 36.216647099900001 ], [ -115.238808, 36.216647099900001 ], [ -115.238808, 36.2166524999 ], [ -115.2388053, 36.2166524999 ], [ -115.2388053, 36.216655199900003 ], [ -115.238808, 36.216655199900003 ], [ -115.238808, 36.216671399900001 ], [ -115.2388107, 36.216671399900001 ], [ -115.2388107, 36.216674099900004 ], [ -115.2388701, 36.216674099900004 ], [ -115.2388701, 36.2166767999 ], [ -115.2388728, 36.2166767999 ], [ -115.2388728, 36.216679499900003 ], [ -115.2388755, 36.216679499900003 ], [ -115.2388755, 36.216733499900002 ], [ -115.2388701, 36.216733499900002 ], [ -115.2388701, 36.216736199899998 ], [ -115.2388539, 36.216736199899998 ], [ -115.2388539, 36.216733499900002 ], [ -115.2388512, 36.216733499900002 ], [ -115.2388512, 36.216736199899998 ], [ -115.2387945, 36.216736199899998 ], [ -115.2387945, 36.216738899900001 ] ] ] } },
{ "type": "Feature", "properties": { "value": 255.0 }, "geometry": { "type": "Polygon", "coordinates": [ [ [ -115.2378522, 36.216752399900003 ], [ -115.2378036, 36.216752399900003 ], [ -115.2378036, 36.216749699899999 ], [ -115.2377064, 36.216749699899999 ], [ -115.2377064, 36.216690299900002 ], [ -115.2377091, 36.216690299900002 ], [ -115.2377091, 36.216687599899998 ], [ -115.2377145, 36.216687599899998 ], [ -115.2377145, 36.216684899900002 ], [ -115.2377307, 36.216684899900002 ], [ -115.2377307, 36.216682199899999 ], [ -115.2377361, 36.216682199899999 ], [ -115.2377361, 36.216638999899999 ], [ -115.2377334, 36.216638999899999 ], [ -115.2377334, 36.216547199899999 ], [ -115.2377361, 36.216547199899999 ], [ -115.2377361, 36.216544499900003 ], [ -115.2378252, 36.216544499900003 ], [ -115.2378252, 36.2165417999 ], [ -115.2378495, 36.2165417999 ], [ -115.2378495, 36.216544499900003 ], [ -115.2378549, 36.216544499900003 ], [ -115.2378549, 36.216614699899999 ], [ -115.2378576, 36.216614699899999 ], [ -115.2378576, 36.216660599900003 ], [ -115.2378603, 36.216660599900003 ], [ -115.2378603, 36.216671399900001 ], [ -115.237863, 36.216671399900001 ], [ -115.237863, 36.216749699899999 ], [ -115.2378522, 36.216749699899999 ], [ -115.2378522, 36.216752399900003 ] ] ] } },
{ "type": "Feature", "properties": { "value": 255.0 }, "geometry": { "type": "Polygon", "coordinates": [ [ [ -115.2375363, 36.216660599900003 ], [ -115.2374931, 36.216660599900003 ], [ -115.2374931, 36.2166578999 ], [ -115.2374904, 36.2166578999 ], [ -115.2374904, 36.216587699900003 ], [ -115.2374931, 36.216587699900003 ], [ -115.2374931, 36.2165660999 ], [ -115.2375039, 36.2165660999 ], [ -115.2375039, 36.216563399900004 ], [ -115.2375309, 36.216563399900004 ], [ -115.2375309, 36.216555299900001 ], [ -115.2375444, 36.216555299900001 ], [ -115.2375444, 36.216552599899998 ], [ -115.2375498, 36.216552599899998 ], [ -115.2375498, 36.216563399900004 ], [ -115.2375552, 36.216563399900004 ], [ -115.2375552, 36.2165660999 ], [ -115.2375579, 36.2165660999 ], [ -115.2375579, 36.2166524999 ], [ -115.2375552, 36.2166524999 ], [ -115.2375552, 36.2166578999 ], [ -115.2375363, 36.2166578999 ], [ -115.2375363, 36.216660599900003 ] ] ] } },
{ "type": "Feature", "properties": { "value": 255.0 }, "geometry": { "type": "Polygon", "coordinates": [ [ [ -115.2373203, 36.216603899900001 ], [ -115.2373176, 36.216603899900001 ], [ -115.2373176, 36.216552599899998 ], [ -115.2373365, 36.216552599899998 ], [ -115.2373365, 36.216555299900001 ], [ -115.2373392, 36.216555299900001 ], [ -115.2373392, 36.2165660999 ], [ -115.2373419, 36.2165660999 ], [ -115.2373419, 36.216571499899999 ], [ -115.2373392, 36.216571499899999 ], [ -115.2373392, 36.216598499900002 ], [ -115.2373365, 36.216598499900002 ], [ -115.2373365, 36.216601199899998 ], [ -115.2373203, 36.216601199899998 ], [ -115.2373203, 36.216603899900001 ] ] ] } },
{ "type": "Feature", "properties": { "value": 255.0 }, "geometry": { "type": "Polygon", "coordinates": [ [ [ -115.237431, 36.216501299900003 ], [ -115.2374256, 36.216501299900003 ], [ -115.2374256, 36.2164985999 ], [ -115.2374175, 36.2164985999 ], [ -115.2374175, 36.216495899900004 ], [ -115.2374148, 36.216495899900004 ], [ -115.2374148, 36.2164931999 ], [ -115.2374094, 36.2164931999 ], [ -115.2374094, 36.216487799900001 ], [ -115.2374121, 36.216487799900001 ], [ -115.2374121, 36.216485099899998 ], [ -115.2374148, 36.216485099899998 ], [ -115.2374148, 36.216479699899999 ], [ -115.2374175, 36.216479699899999 ], [ -115.2374175, 36.216476999900003 ], [ -115.2374364, 36.216476999900003 ], [ -115.2374364, 36.2164931999 ], [ -115.2374337, 36.2164931999 ], [ -115.2374337, 36.2164985999 ], [ -115.237431, 36.2164985999 ], [ -115.237431, 36.216501299900003 ] ] ] } },
{ "type": "Feature", "properties": { "value": 255.0 }, "geometry": { "type": "Polygon", "coordinates": [ [ [ -115.2376794, 36.216514799900004 ], [ -115.2376767, 36.216514799900004 ], [ -115.2376767, 36.216512099900001 ], [ -115.237674, 36.216512099900001 ], [ -115.237674, 36.216514799900004 ], [ -115.2376497, 36.216514799900004 ], [ -115.2376497, 36.216512099900001 ], [ -115.2376065, 36.216512099900001 ], [ -115.2376065, 36.216509399899998 ], [ -115.2376038, 36.216509399899998 ], [ -115.2376038, 36.216503999899999 ], [ -115.2376011, 36.216503999899999 ], [ -115.2376011, 36.216482399900002 ], [ -115.2375984, 36.216482399900002 ], [ -115.2375984, 36.216476999900003 ], [ -115.2376011, 36.216476999900003 ], [ -115.2376011, 36.2164742999 ], [ -115.2376038, 36.2164742999 ], [ -115.2376038, 36.216471599900004 ], [ -115.2376119, 36.216471599900004 ], [ -115.2376119, 36.216468899900001 ], [ -115.2376335, 36.216468899900001 ], [ -115.2376335, 36.216471599900004 ], [ -115.2376497, 36.216471599900004 ], [ -115.2376497, 36.2164742999 ], [ -115.2376578, 36.2164742999 ], [ -115.2376578, 36.216476999900003 ], [ -115.2376713, 36.216476999900003 ], [ -115.2376713, 36.216479699899999 ], [ -115.2376956, 36.216479699899999 ], [ -115.2376956, 36.216476999900003 ], [ -115.237701, 36.216476999900003 ], [ -115.237701, 36.216479699899999 ], [ -115.2377037, 36.216479699899999 ], [ -115.2377037, 36.216506699900002 ], [ -115.237701, 36.216506699900002 ], [ -115.237701, 36.216509399899998 ], [ -115.2376902, 36.216509399899998 ], [ -115.2376902, 36.216512099900001 ], [ -115.2376794, 36.216512099900001 ], [ -115.2376794, 36.216514799900004 ] ] ] } },
{ "type": "Feature", "properties": { "value": 255.0 }, "geometry": { "type": "Polygon", "coordinates": [ [ [ -115.2387972, 36.216576899899998 ], [ -115.238673, 36.216576899899998 ], [ -115.238673, 36.216574199900002 ], [ -115.2386676, 36.216574199900002 ], [ -115.2386676, 36.216571499899999 ], [ -115.2386649, 36.216571499899999 ], [ -115.2386649, 36.2165606999 ], [ -115.2386622, 36.2165606999 ], [ -115.2386622, 36.216547199899999 ], [ -115.2386595, 36.216547199899999 ], [ -115.2386595, 36.216506699900002 ], [ -115.2386568, 36.216506699900002 ], [ -115.2386568, 36.216471599900004 ], [ -115.2386595, 36.216471599900004 ], [ -115.2386595, 36.216468899900001 ], [ -115.2386622, 36.216468899900001 ], [ -115.2386622, 36.216466199900005 ], [ -115.2386649, 36.216466199900005 ], [ -115.2386649, 36.216468899900001 ], [ -115.2386676, 36.216468899900001 ], [ -115.2386676, 36.216466199900005 ], [ -115.2386946, 36.216466199900005 ], [ -115.2386946, 36.216463499900001 ], [ -115.2387, 36.216463499900001 ], [ -115.2387, 36.216466199900005 ], [ -115.2387108, 36.216466199900005 ], [ -115.2387108, 36.216460799899998 ], [ -115.2387135, 36.216460799899998 ], [ -115.2387135, 36.216452699900003 ], [ -115.2387189, 36.216452699900003 ], [ -115.2387189, 36.2164499999 ], [ -115.2387243, 36.2164499999 ], [ -115.2387243, 36.216452699900003 ], [ -115.238727, 36.216452699900003 ], [ -115.238727, 36.2164499999 ], [ -115.2387459, 36.2164499999 ], [ -115.2387459, 36.216452699900003 ], [ -115.2387486, 36.216452699900003 ], [ -115.2387486, 36.2164499999 ], [ -115.2387567, 36.2164499999 ], [ -115.2387567, 36.216447299900004 ], [ -115.2387621, 36.216447299900004 ], [ -115.2387621, 36.216436499899999 ], [ -115.2387675, 36.216436499899999 ], [ -115.2387675, 36.216433799900003 ], [ -115.2387999, 36.216433799900003 ], [ -115.2387999, 36.216431099899999 ], [ -115.2388485, 36.216431099899999 ], [ -115.2388485, 36.216433799900003 ], [ -115.2388566, 36.216433799900003 ], [ -115.2388566, 36.216436499899999 ], [ -115.2388593, 36.216436499899999 ], [ -115.2388593, 36.216447299900004 ], [ -115.2388566, 36.216447299900004 ], [ -115.2388566, 36.216485099899998 ], [ -115.2388539, 36.216485099899998 ], [ -115.2388539, 36.216490499900004 ], [ -115.2388296, 36.216490499900004 ], [ -115.2388296, 36.2164931999 ], [ -115.2388188, 36.2164931999 ], [ -115.2388188, 36.216503999899999 ], [ -115.2388215, 36.216503999899999 ], [ -115.2388215, 36.216522899899999 ], [ -115.2388188, 36.216522899899999 ], [ -115.2388188, 36.216530999900002 ], [ -115.2388215, 36.216530999900002 ], [ -115.2388215, 36.216571499899999 ], [ -115.2388188, 36.216571499899999 ], [ -115.2388188, 36.216574199900002 ], [ -115.2387972, 36.216574199900002 ], [ -115.2387972, 36.216576899899998 ] ] ] } },
{ "type": "Feature", "properties": { "value": 255.0 }, "geometry": { "type": "Polygon", "coordinates": [ [ [ -115.238403, 36.2166092999 ], [ -115.2383706, 36.2166092999 ], [ -115.2383706, 36.216606599900004 ], [ -115.2383652, 36.216606599900004 ], [ -115.2383652, 36.216603899900001 ], [ -115.2383625, 36.216603899900001 ], [ -115.2383625, 36.216593099900003 ], [ -115.2383598, 36.216593099900003 ], [ -115.2383598, 36.216576899899998 ], [ -115.2383571, 36.216576899899998 ], [ -115.2383571, 36.216525599900002 ], [ -115.2383598, 36.216525599900002 ], [ -115.2383598, 36.216506699900002 ], [ -115.2383571, 36.216506699900002 ], [ -115.2383571, 36.216501299900003 ], [ -115.2382923, 36.216501299900003 ], [ -115.2382923, 36.2164985999 ], [ -115.2382896, 36.2164985999 ], [ -115.2382896, 36.216490499900004 ], [ -115.2382869, 36.216490499900004 ], [ -115.2382869, 36.216487799900001 ], [ -115.2382896, 36.216487799900001 ], [ -115.2382896, 36.216482399900002 ], [ -115.2382869, 36.216482399900002 ], [ -115.2382869, 36.216468899900001 ], [ -115.2382896, 36.216468899900001 ], [ -115.2382896, 36.216428399900003 ], [ -115.2382869, 36.216428399900003 ], [ -115.2382869, 36.216417599900005 ], [ -115.2382896, 36.216417599900005 ], [ -115.2382896, 36.216412199899999 ], [ -115.2383004, 36.216412199899999 ], [ -115.2383004, 36.216409499900003 ], [ -115.2383166, 36.216409499900003 ], [ -115.2383166, 36.216412199899999 ], [ -115.2383193, 36.216412199899999 ], [ -115.2383193, 36.216409499900003 ], [ -115.2383598, 36.216409499900003 ], [ -115.2383598, 36.216412199899999 ], [ -115.2383652, 36.216412199899999 ], [ -115.2383652, 36.216414899900002 ], [ -115.2383679, 36.216414899900002 ], [ -115.2383679, 36.216417599900005 ], [ -115.2383706, 36.216417599900005 ], [ -115.2383706, 36.216420299900001 ], [ -115.2383922, 36.216420299900001 ], [ -115.2383922, 36.216422999900004 ], [ -115.2383949, 36.216422999900004 ], [ -115.2383949, 36.2164256999 ], [ -115.2384003, 36.2164256999 ], [ -115.2384003, 36.216428399900003 ], [ -115.238403, 36.216428399900003 ], [ -115.238403, 36.216431099899999 ], [ -115.2384165, 36.216431099899999 ], [ -115.2384165, 36.216433799900003 ], [ -115.2384381, 36.216433799900003 ], [ -115.2384381, 36.216431099899999 ], [ -115.238457, 36.216431099899999 ], [ -115.238457, 36.216433799900003 ], [ -115.2384651, 36.216433799900003 ], [ -115.2384651, 36.216436499899999 ], [ -115.2384705, 36.216436499899999 ], [ -115.2384705, 36.216441899900005 ], [ -115.2384786, 36.216441899900005 ], [ -115.2384786, 36.216444599900001 ], [ -115.2384813, 36.216444599900001 ], [ -115.2384813, 36.216441899900005 ], [ -115.2384867, 36.216441899900005 ], [ -115.2384867, 36.216439199900002 ], [ -115.2384921, 36.216439199900002 ], [ -115.2384921, 36.216441899900005 ], [ -115.2384948, 36.216441899900005 ], [ -115.2384948, 36.216463499900001 ], [ -115.2384975, 36.216463499900001 ], [ -115.2384975, 36.216468899900001 ], [ -115.2385002, 36.216468899900001 ], [ -115.2385002, 36.2165174999 ], [ -115.2385029, 36.2165174999 ], [ -115.2385029, 36.216601199899998 ], [ -115.2384975, 36.216601199899998 ], [ -115.2384975, 36.216603899900001 ], [ -115.2384597, 36.216603899900001 ], [ -115.2384597, 36.216606599900004 ], [ -115.238403, 36.216606599900004 ], [ -115.238403, 36.2166092999 ] ] ] } },
{ "type": "Feature", "properties": { "value": 255.0 }, "geometry": { "type": "Polygon", "coordinates": [ [ [ -115.2377604, 36.2164742999 ], [ -115.2377199, 36.2164742999 ], [ -115.2377199, 36.216471599900004 ], [ -115.2377172, 36.216471599900004 ], [ -115.2377172, 36.216447299900004 ], [ -115.2377145, 36.216447299900004 ], [ -115.2377145, 36.216433799900003 ], [ -115.2377118, 36.216433799900003 ], [ -115.2377118, 36.216347399900002 ], [ -115.2377091, 36.216347399900002 ], [ -115.2377091, 36.216344699899999 ], [ -115.2377064, 36.216344699899999 ], [ -115.2377064, 36.216341999900003 ], [ -115.237701, 36.216341999900003 ], [ -115.237701, 36.2163392999 ], [ -115.2376902, 36.2163392999 ], [ -115.2376902, 36.216336599900004 ], [ -115.2376848, 36.216336599900004 ], [ -115.2376848, 36.2163338999 ], [ -115.237674, 36.2163338999 ], [ -115.237674, 36.216331199900004 ], [ -115.2376659, 36.216331199900004 ], [ -115.2376659, 36.216328499900001 ], [ -115.2376632, 36.216328499900001 ], [ -115.2376632, 36.216325799900005 ], [ -115.2376605, 36.216325799900005 ], [ -115.2376605, 36.216320399899999 ], [ -115.2376578, 36.216320399899999 ], [ -115.2376578, 36.2163149999 ], [ -115.2376551, 36.2163149999 ], [ -115.2376551, 36.216279899900002 ], [ -115.2376578, 36.216279899900002 ], [ -115.2376578, 36.216277199899999 ], [ -115.2376605, 36.216277199899999 ], [ -115.2376605, 36.216274499900003 ], [ -115.2377766, 36.216274499900003 ], [ -115.2377766, 36.216271799899999 ], [ -115.237782, 36.216271799899999 ], [ -115.237782, 36.216274499900003 ], [ -115.2377901, 36.216274499900003 ], [ -115.2377901, 36.216271799899999 ], [ -115.2377928, 36.216271799899999 ], [ -115.2377928, 36.216274499900003 ], [ -115.2377982, 36.216274499900003 ], [ -115.2377982, 36.216271799899999 ], [ -115.2378549, 36.216271799899999 ], [ -115.2378549, 36.216274499900003 ], [ -115.2378576, 36.216274499900003 ], [ -115.2378576, 36.216287999900004 ], [ -115.2378603, 36.216287999900004 ], [ -115.2378603, 36.216379799900004 ], [ -115.237863, 36.216379799900004 ], [ -115.237863, 36.216471599900004 ], [ -115.2378171, 36.216471599900004 ], [ -115.2378171, 36.216468899900001 ], [ -115.2377874, 36.216468899900001 ], [ -115.2377874, 36.216471599900004 ], [ -115.2377604, 36.216471599900004 ], [ -115.2377604, 36.2164742999 ] ] ] } },
{ "type": "Feature", "properties": { "value": 255.0 }, "geometry": { "type": "Polygon", "coordinates": [ [ [ -115.2386838, 36.216412199899999 ], [ -115.2386622, 36.216412199899999 ], [ -115.2386622, 36.216409499900003 ], [ -115.2386568, 36.216409499900003 ], [ -115.2386568, 36.216385199900003 ], [ -115.2386541, 36.216385199900003 ], [ -115.2386541, 36.216379799900004 ], [ -115.2386568, 36.216379799900004 ], [ -115.2386568, 36.216363599899999 ], [ -115.2386649, 36.216363599899999 ], [ -115.2386649, 36.216360899900003 ], [ -115.2386811, 36.216360899900003 ], [ -115.2386811, 36.2163581999 ], [ -115.2386838, 36.2163581999 ], [ -115.2386838, 36.216344699899999 ], [ -115.2386865, 36.216344699899999 ], [ -115.2386865, 36.216287999900004 ], [ -115.2386838, 36.216287999900004 ], [ -115.2386838, 36.216285299900001 ], [ -115.2386865, 36.216285299900001 ], [ -115.2386865, 36.216277199899999 ], [ -115.2386892, 36.216277199899999 ], [ -115.2386892, 36.216274499900003 ], [ -115.2386919, 36.216274499900003 ], [ -115.2386919, 36.216271799899999 ], [ -115.2387, 36.216271799899999 ], [ -115.2387, 36.216274499900003 ], [ -115.2387351, 36.216274499900003 ], [ -115.2387351, 36.216271799899999 ], [ -115.2387405, 36.216271799899999 ], [ -115.2387405, 36.216274499900003 ], [ -115.2387567, 36.216274499900003 ], [ -115.2387567, 36.216271799899999 ], [ -115.2387837, 36.216271799899999 ], [ -115.2387837, 36.216274499900003 ], [ -115.2388107, 36.216274499900003 ], [ -115.2388107, 36.216277199899999 ], [ -115.2388188, 36.216277199899999 ], [ -115.2388188, 36.216312299900004 ], [ -115.2388161, 36.216312299900004 ], [ -115.2388161, 36.2163149999 ], [ -115.2388134, 36.2163149999 ], [ -115.2388134, 36.216328499900001 ], [ -115.2388161, 36.216328499900001 ], [ -115.2388161, 36.216331199900004 ], [ -115.2388215, 36.216331199900004 ], [ -115.2388215, 36.2163338999 ], [ -115.2388296, 36.2163338999 ], [ -115.2388296, 36.216336599900004 ], [ -115.2388377, 36.216336599900004 ], [ -115.2388377, 36.2163338999 ], [ -115.2388404, 36.2163338999 ], [ -115.2388404, 36.216336599900004 ], [ -115.2388566, 36.216336599900004 ], [ -115.2388566, 36.2163392999 ], [ -115.2388593, 36.2163392999 ], [ -115.2388593, 36.216341999900003 ], [ -115.238862, 36.216341999900003 ], [ -115.238862, 36.216363599899999 ], [ -115.2388647, 36.216363599899999 ], [ -115.2388647, 36.216371699900002 ], [ -115.238862, 36.216371699900002 ], [ -115.238862, 36.216385199900003 ], [ -115.2388647, 36.216385199900003 ], [ -115.2388647, 36.216387899899999 ], [ -115.238862, 36.216387899899999 ], [ -115.238862, 36.216404099900004 ], [ -115.2388323, 36.216404099900004 ], [ -115.2388323, 36.2164067999 ], [ -115.2387702, 36.2164067999 ], [ -115.2387702, 36.216409499900003 ], [ -115.2386838, 36.216409499900003 ], [ -115.2386838, 36.216412199899999 ] ] ] } },
{ "type": "Feature", "properties": { "value": 255.0 }, "geometry": { "type": "Polygon", "coordinates": [ [ [ -115.2374121, 36.216236699900001 ], [ -115.2373986, 36.216236699900001 ], [ -115.2373986, 36.216233999900005 ], [ -115.2373878, 36.216233999900005 ], [ -115.2373878, 36.216228599899999 ], [ -115.2373851, 36.216228599899999 ], [ -115.2373851, 36.216217799900001 ], [ -115.2373878, 36.216217799900001 ], [ -115.2373878, 36.216215099900005 ], [ -115.2373932, 36.216215099900005 ], [ -115.2373932, 36.216212399900002 ], [ -115.2374067, 36.216212399900002 ], [ -115.2374067, 36.216215099900005 ], [ -115.2374094, 36.216215099900005 ], [ -115.2374094, 36.216212399900002 ], [ -115.2374229, 36.216212399900002 ], [ -115.2374229, 36.216215099900005 ], [ -115.2374256, 36.216215099900005 ], [ -115.2374256, 36.216228599899999 ], [ -115.2374229, 36.216228599899999 ], [ -115.2374229, 36.216231299900002 ], [ -115.2374202, 36.216231299900002 ], [ -115.2374202, 36.216233999900005 ], [ -115.2374121, 36.216233999900005 ], [ -115.2374121, 36.216236699900001 ] ] ] } },
{ "type": "Feature", "properties": { "value": 255.0 }, "geometry": { "type": "Polygon", "coordinates": [ [ [ -115.2377901, 36.216228599899999 ], [ -115.2377712, 36.216228599899999 ], [ -115.2377712, 36.216225899900003 ], [ -115.2377685, 36.216225899900003 ], [ -115.2377685, 36.216217799900001 ], [ -115.2377874, 36.216217799900001 ], [ -115.2377874, 36.216220499900004 ], [ -115.2377928, 36.216220499900004 ], [ -115.2377928, 36.2162231999 ], [ -115.2377982, 36.2162231999 ], [ -115.2377982, 36.216225899900003 ], [ -115.2377901, 36.216225899900003 ], [ -115.2377901, 36.216228599899999 ] ] ] } },
{ "type": "Feature", "properties": { "value": 255.0 }, "geometry": { "type": "Polygon", "coordinates": [ [ [ -115.2383598, 36.216325799900005 ], [ -115.2383436, 36.216325799900005 ], [ -115.2383436, 36.216323099900002 ], [ -115.2383085, 36.216323099900002 ], [ -115.2383085, 36.216325799900005 ], [ -115.2382788, 36.216325799900005 ], [ -115.2382788, 36.216323099900002 ], [ -115.2382761, 36.216323099900002 ], [ -115.2382761, 36.2163149999 ], [ -115.2382734, 36.2163149999 ], [ -115.2382734, 36.216306899900005 ], [ -115.2382707, 36.216306899900005 ], [ -115.2382707, 36.216298799900002 ], [ -115.238268, 36.216298799900002 ], [ -115.238268, 36.216293399900003 ], [ -115.2382653, 36.216293399900003 ], [ -115.2382653, 36.216282599900005 ], [ -115.2382626, 36.216282599900005 ], [ -115.2382626, 36.216274499900003 ], [ -115.2382599, 36.216274499900003 ], [ -115.2382599, 36.216233999900005 ], [ -115.2382626, 36.216233999900005 ], [ -115.2382626, 36.216228599899999 ], [ -115.2382842, 36.216228599899999 ], [ -115.2382842, 36.216225899900003 ], [ -115.2382869, 36.216225899900003 ], [ -115.2382869, 36.216220499900004 ], [ -115.2382896, 36.216220499900004 ], [ -115.2382896, 36.216217799900001 ], [ -115.2382923, 36.216217799900001 ], [ -115.2382923, 36.216185399899999 ], [ -115.2382896, 36.216185399899999 ], [ -115.2382896, 36.216182699900003 ], [ -115.2382869, 36.216182699900003 ], [ -115.2382869, 36.2161799999 ], [ -115.2382842, 36.2161799999 ], [ -115.2382842, 36.216177299900004 ], [ -115.2382815, 36.216177299900004 ], [ -115.2382815, 36.2161745999 ], [ -115.2382869, 36.2161745999 ], [ -115.2382869, 36.216171899900004 ], [ -115.2382842, 36.216171899900004 ], [ -115.2382842, 36.216169199900001 ], [ -115.2382734, 36.216169199900001 ], [ -115.2382734, 36.216166499900005 ], [ -115.2382707, 36.216166499900005 ], [ -115.2382707, 36.216158399900003 ], [ -115.2382842, 36.216158399900003 ], [ -115.2382842, 36.2161556999 ], [ -115.238295, 36.2161556999 ], [ -115.238295, 36.216152999900004 ], [ -115.2383841, 36.216152999900004 ], [ -115.2383841, 36.216150299900001 ], [ -115.23843, 36.216150299900001 ], [ -115.23843, 36.216152999900004 ], [ -115.2384354, 36.216152999900004 ], [ -115.2384354, 36.216161099899999 ], [ -115.2384381, 36.216161099899999 ], [ -115.2384381, 36.216171899900004 ], [ -115.2384408, 36.216171899900004 ], [ -115.2384408, 36.2161799999 ], [ -115.2384462, 36.2161799999 ], [ -115.2384462, 36.216182699900003 ], [ -115.2384516, 36.216182699900003 ], [ -115.2384516, 36.216185399899999 ], [ -115.2384543, 36.216185399899999 ], [ -115.2384543, 36.216188099900002 ], [ -115.238457, 36.216188099900002 ], [ -115.238457, 36.2161988999 ], [ -115.2384597, 36.2161988999 ], [ -115.2384597, 36.216217799900001 ], [ -115.2384624, 36.216217799900001 ], [ -115.2384624, 36.216258299900005 ], [ -115.2384651, 36.216258299900005 ], [ -115.2384651, 36.216271799899999 ], [ -115.2384624, 36.216271799899999 ], [ -115.2384624, 36.216285299900001 ], [ -115.2384462, 36.216285299900001 ], [ -115.2384462, 36.216287999900004 ], [ -115.2384435, 36.216287999900004 ], [ -115.2384435, 36.216285299900001 ], [ -115.2384408, 36.216285299900001 ], [ -115.2384408, 36.216287999900004 ], [ -115.2384327, 36.216287999900004 ], [ -115.2384327, 36.216301499899998 ], [ -115.2384354, 36.216301499899998 ], [ -115.2384354, 36.216309599900001 ], [ -115.2384327, 36.216309599900001 ], [ -115.2384327, 36.216317699900003 ], [ -115.23843, 36.216317699900003 ], [ -115.23843, 36.216320399899999 ], [ -115.2384057, 36.216320399899999 ], [ -115.2384057, 36.216323099900002 ], [ -115.2383598, 36.216323099900002 ], [ -115.2383598, 36.216325799900005 ] ] ] } },
{ "type": "Feature", "properties": { "value": 255.0 }, "geometry": { "type": "Polygon", "coordinates": [ [ [ -115.2388026, 36.2162474999 ], [ -115.2387945, 36.2162474999 ], [ -115.2387945, 36.216244799900004 ], [ -115.2387729, 36.216244799900004 ], [ -115.2387729, 36.2162474999 ], [ -115.2386919, 36.2162474999 ], [ -115.2386919, 36.216244799900004 ], [ -115.2386892, 36.216244799900004 ], [ -115.2386892, 36.216242099900001 ], [ -115.2386865, 36.216242099900001 ], [ -115.2386865, 36.216239399900005 ], [ -115.2386811, 36.216239399900005 ], [ -115.2386811, 36.216236699900001 ], [ -115.238646, 36.216236699900001 ], [ -115.238646, 36.216233999900005 ], [ -115.2386433, 36.216233999900005 ], [ -115.2386433, 36.2162231999 ], [ -115.2386406, 36.2162231999 ], [ -115.2386406, 36.216161099899999 ], [ -115.2386433, 36.216161099899999 ], [ -115.2386433, 36.216158399900003 ], [ -115.2386514, 36.216158399900003 ], [ -115.2386514, 36.2161556999 ], [ -115.2386811, 36.2161556999 ], [ -115.2386811, 36.216152999900004 ], [ -115.2386838, 36.216152999900004 ], [ -115.2386838, 36.216147599900005 ], [ -115.2386865, 36.216147599900005 ], [ -115.2386865, 36.216142199900005 ], [ -115.2386892, 36.216142199900005 ], [ -115.2386892, 36.216139499900002 ], [ -115.2387, 36.216139499900002 ], [ -115.2387, 36.216134099900003 ], [ -115.2387027, 36.216134099900003 ], [ -115.2387027, 36.216123299900005 ], [ -115.2387054, 36.216123299900005 ], [ -115.2387054, 36.216112499899999 ], [ -115.2387081, 36.216112499899999 ], [ -115.2387081, 36.2161070999 ], [ -115.2387108, 36.2161070999 ], [ -115.2387108, 36.216104399900004 ], [ -115.238727, 36.216104399900004 ], [ -115.238727, 36.2161070999 ], [ -115.2387432, 36.2161070999 ], [ -115.2387432, 36.216104399900004 ], [ -115.2387756, 36.216104399900004 ], [ -115.2387756, 36.216101699900001 ], [ -115.238835, 36.216101699900001 ], [ -115.238835, 36.216104399900004 ], [ -115.2388404, 36.216104399900004 ], [ -115.2388404, 36.216161099899999 ], [ -115.2387918, 36.216161099899999 ], [ -115.2387918, 36.216163799900002 ], [ -115.2387864, 36.216163799900002 ], [ -115.2387864, 36.216166499900005 ], [ -115.2387891, 36.216166499900005 ], [ -115.2387891, 36.2161745999 ], [ -115.2387918, 36.2161745999 ], [ -115.2387918, 36.216177299900004 ], [ -115.2388026, 36.216177299900004 ], [ -115.2388026, 36.2161799999 ], [ -115.238808, 36.2161799999 ], [ -115.238808, 36.216185399899999 ], [ -115.2388107, 36.216185399899999 ], [ -115.2388107, 36.216188099900002 ], [ -115.238808, 36.216188099900002 ], [ -115.238808, 36.216220499900004 ], [ -115.2388107, 36.216220499900004 ], [ -115.2388107, 36.2162231999 ], [ -115.238808, 36.2162231999 ], [ -115.238808, 36.216242099900001 ], [ -115.2388053, 36.216242099900001 ], [ -115.2388053, 36.216244799900004 ], [ -115.2388026, 36.216244799900004 ], [ -115.2388026, 36.2162474999 ] ] ] } },
{ "type": "Feature", "properties": { "value": 255.0 }, "geometry": { "type": "Polygon", "coordinates": [ [ [ -115.2378333, 36.216190799900005 ], [ -115.2378144, 36.216190799900005 ], [ -115.2378144, 36.216188099900002 ], [ -115.2377874, 36.216188099900002 ], [ -115.2377874, 36.216190799900005 ], [ -115.2377523, 36.216190799900005 ], [ -115.2377523, 36.216188099900002 ], [ -115.2377496, 36.216188099900002 ], [ -115.2377496, 36.216185399899999 ], [ -115.2377469, 36.216185399899999 ], [ -115.2377469, 36.216163799900002 ], [ -115.2377496, 36.216163799900002 ], [ -115.2377496, 36.2161556999 ], [ -115.2377469, 36.2161556999 ], [ -115.2377469, 36.216147599900005 ], [ -115.2377442, 36.216147599900005 ], [ -115.2377442, 36.216144899900002 ], [ -115.2377253, 36.216144899900002 ], [ -115.2377253, 36.216142199900005 ], [ -115.2377226, 36.216142199900005 ], [ -115.2377226, 36.216139499900002 ], [ -115.2377199, 36.216139499900002 ], [ -115.2377199, 36.216125999900001 ], [ -115.2377172, 36.216125999900001 ], [ -115.2377172, 36.216123299900005 ], [ -115.2377145, 36.216123299900005 ], [ -115.2377145, 36.216117899900006 ], [ -115.2376875, 36.216117899900006 ], [ -115.2376875, 36.216115199900003 ], [ -115.2376848, 36.216115199900003 ], [ -115.2376848, 36.216077399900001 ], [ -115.2376821, 36.216077399900001 ], [ -115.2376821, 36.216069299899999 ], [ -115.2376848, 36.216069299899999 ], [ -115.2376848, 36.2160638999 ], [ -115.2376902, 36.2160638999 ], [ -115.2376902, 36.216061199900004 ], [ -115.2377037, 36.216061199900004 ], [ -115.2377037, 36.216058499900001 ], [ -115.2377118, 36.216058499900001 ], [ -115.2377118, 36.216053099900002 ], [ -115.2377145, 36.216053099900002 ], [ -115.2377145, 36.216047699900002 ], [ -115.237836, 36.216047699900002 ], [ -115.237836, 36.216055799900005 ], [ -115.2378387, 36.216055799900005 ], [ -115.2378387, 36.216123299900005 ], [ -115.2378414, 36.216123299900005 ], [ -115.2378414, 36.216144899900002 ], [ -115.2378441, 36.216144899900002 ], [ -115.2378441, 36.216147599900005 ], [ -115.2378414, 36.216147599900005 ], [ -115.2378414, 36.216185399899999 ], [ -115.2378387, 36.216185399899999 ], [ -115.2378387, 36.216188099900002 ], [ -115.2378333, 36.216188099900002 ], [ -115.2378333, 36.216190799900005 ] ] ] } },
{ "type": "Feature", "properties": { "value": 255.0 }, "geometry": { "type": "Polygon", "coordinates": [ [ [ -115.2387675, 36.216080099900005 ], [ -115.2386676, 36.216080099900005 ], [ -115.2386676, 36.216077399900001 ], [ -115.2386514, 36.216077399900001 ], [ -115.2386514, 36.216080099900005 ], [ -115.238646, 36.216080099900005 ], [ -115.238646, 36.216077399900001 ], [ -115.2386352, 36.216077399900001 ], [ -115.2386352, 36.216047699900002 ], [ -115.2388458, 36.216047699900002 ], [ -115.2388458, 36.216074699900005 ], [ -115.2388404, 36.216074699900005 ], [ -115.2388404, 36.216077399900001 ], [ -115.2387675, 36.216077399900001 ], [ -115.2387675, 36.216080099900005 ] ] ] } },
{ "type": "Feature", "properties": { "value": 255.0 }, "geometry": { "type": "Polygon", "coordinates": [ [ [ -115.2383814, 36.216080099900005 ], [ -115.2383328, 36.216080099900005 ], [ -115.2383328, 36.216077399900001 ], [ -115.2383274, 36.216077399900001 ], [ -115.2383274, 36.216074699900005 ], [ -115.2383247, 36.216074699900005 ], [ -115.2383247, 36.216071999900002 ], [ -115.238322, 36.216071999900002 ], [ -115.238322, 36.216069299899999 ], [ -115.2383139, 36.216069299899999 ], [ -115.2383139, 36.216066599900003 ], [ -115.2383058, 36.216066599900003 ], [ -115.2383058, 36.2160638999 ], [ -115.2383031, 36.2160638999 ], [ -115.2383031, 36.216061199900004 ], [ -115.2383004, 36.216061199900004 ], [ -115.2383004, 36.216055799900005 ], [ -115.2382977, 36.216055799900005 ], [ -115.2382977, 36.216053099900002 ], [ -115.238295, 36.216053099900002 ], [ -115.238295, 36.216050399900006 ], [ -115.2382923, 36.216050399900006 ], [ -115.2382923, 36.216047699900002 ], [ -115.2384543, 36.216047699900002 ], [ -115.2384543, 36.216050399900006 ], [ -115.2384489, 36.216050399900006 ], [ -115.2384489, 36.216053099900002 ], [ -115.2384435, 36.216053099900002 ], [ -115.2384435, 36.216061199900004 ], [ -115.2384408, 36.216061199900004 ], [ -115.2384408, 36.216074699900005 ], [ -115.2384381, 36.216074699900005 ], [ -115.2384381, 36.216077399900001 ], [ -115.2383814, 36.216077399900001 ], [ -115.2383814, 36.216080099900005 ] ] ] } }
]
}
