{
"type": "FeatureCollection",
"crs": { "type": "name", "properties": { "name": "urn:ogc:def:crs:OGC:1.3:CRS84" } },
"features": [
{ "type": "Feature", "properties": { "value": 255.0 }, "geometry": { "type": "Polygon", "coordinates": [ [ [ -115.1607591, 36.235352699899998 ], [ -115.1605728, 36.235352699899998 ], [ -115.1605728, 36.235306799900002 ], [ -115.1605701, 36.235306799900002 ], [ -115.1605701, 36.235295999899996 ], [ -115.1605728, 36.235295999899996 ], [ -115.1605728, 36.235290599899997 ], [ -115.1605701, 36.235290599899997 ], [ -115.1605701, 36.235279799899999 ], [ -115.1605728, 36.235279799899999 ], [ -115.1605728, 36.2352743999 ], [ -115.1605755, 36.2352743999 ], [ -115.1605755, 36.235271699899997 ], [ -115.1605917, 36.235271699899997 ], [ -115.1605917, 36.235268999900001 ], [ -115.1605998, 36.235268999900001 ], [ -115.1605998, 36.235271699899997 ], [ -115.1606025, 36.235271699899997 ], [ -115.1606025, 36.235268999900001 ], [ -115.1606079, 36.235268999900001 ], [ -115.1606079, 36.235271699899997 ], [ -115.160616, 36.235271699899997 ], [ -115.160616, 36.235268999900001 ], [ -115.1606187, 36.235268999900001 ], [ -115.1606187, 36.235271699899997 ], [ -115.1606403, 36.235271699899997 ], [ -115.1606403, 36.2352743999 ], [ -115.1606484, 36.2352743999 ], [ -115.1606484, 36.235277099899996 ], [ -115.1606511, 36.235277099899996 ], [ -115.1606511, 36.235287899900001 ], [ -115.1606538, 36.235287899900001 ], [ -115.1606538, 36.235304099899999 ], [ -115.1606565, 36.235304099899999 ], [ -115.1606565, 36.235306799900002 ], [ -115.160724, 36.235306799900002 ], [ -115.160724, 36.235309499899998 ], [ -115.1607402, 36.235309499899998 ], [ -115.1607402, 36.235312199900001 ], [ -115.1607456, 36.235312199900001 ], [ -115.1607456, 36.235314899899997 ], [ -115.1607483, 36.235314899899997 ], [ -115.1607483, 36.235312199900001 ], [ -115.1607537, 36.235312199900001 ], [ -115.1607537, 36.235320299899996 ], [ -115.160751, 36.235320299899996 ], [ -115.160751, 36.235331099900002 ], [ -115.1607537, 36.235331099900002 ], [ -115.1607537, 36.235336499900001 ], [ -115.1607564, 36.235336499900001 ], [ -115.1607564, 36.2353418999 ], [ -115.1607591, 36.2353418999 ], [ -115.1607591, 36.235352699899998 ] ] ] } },
{ "type": "Feature", "properties": { "value": 255.0 }, "geometry": { "type": "Polygon", "coordinates": [ [ [ -115.1605863, 36.235247399899997 ], [ -115.1605701, 36.235247399899997 ], [ -115.1605701, 36.235244699900001 ], [ -115.1605674, 36.235244699900001 ], [ -115.1605674, 36.235241999899998 ], [ -115.1605647, 36.235241999899998 ], [ -115.1605647, 36.235239299900002 ], [ -115.160562, 36.235239299900002 ], [ -115.160562, 36.235236599899999 ], [ -115.1605593, 36.235236599899999 ], [ -115.1605593, 36.235233899899995 ], [ -115.1605566, 36.235233899899995 ], [ -115.1605566, 36.235231199899999 ], [ -115.1605512, 36.235231199899999 ], [ -115.1605512, 36.235228499899996 ], [ -115.1605485, 36.235228499899996 ], [ -115.1605485, 36.2352257999 ], [ -115.1605458, 36.2352257999 ], [ -115.1605458, 36.235223099899997 ], [ -115.1605431, 36.235223099899997 ], [ -115.1605431, 36.235220399900001 ], [ -115.1605404, 36.235220399900001 ], [ -115.1605404, 36.235217699899998 ], [ -115.1605377, 36.235217699899998 ], [ -115.1605377, 36.235214999900002 ], [ -115.160535, 36.235214999900002 ], [ -115.160535, 36.235212299899999 ], [ -115.1605323, 36.235212299899999 ], [ -115.1605323, 36.235209599899996 ], [ -115.1605296, 36.235209599899996 ], [ -115.1605296, 36.2352068999 ], [ -115.1605269, 36.2352068999 ], [ -115.1605269, 36.235204199899997 ], [ -115.1605242, 36.235204199899997 ], [ -115.1605242, 36.2352014999 ], [ -115.1605215, 36.2352014999 ], [ -115.1605215, 36.235198799899997 ], [ -115.1605188, 36.235198799899997 ], [ -115.1605188, 36.235196099900001 ], [ -115.1605161, 36.235196099900001 ], [ -115.1605161, 36.235193399899998 ], [ -115.1605134, 36.235193399899998 ], [ -115.1605134, 36.235187999899999 ], [ -115.1605107, 36.235187999899999 ], [ -115.1605107, 36.235177199900001 ], [ -115.1605134, 36.235177199900001 ], [ -115.1605134, 36.235169099899998 ], [ -115.1605161, 36.235169099899998 ], [ -115.1605161, 36.235160999899996 ], [ -115.1605134, 36.235160999899996 ], [ -115.1605134, 36.2351582999 ], [ -115.1605107, 36.2351582999 ], [ -115.1605107, 36.235155599899997 ], [ -115.160508, 36.235155599899997 ], [ -115.160508, 36.235152899900001 ], [ -115.1605026, 36.235152899900001 ], [ -115.1605026, 36.235150199899998 ], [ -115.1604999, 36.235150199899998 ], [ -115.1604999, 36.235147499900002 ], [ -115.1604972, 36.235147499900002 ], [ -115.1604972, 36.235144799899999 ], [ -115.1604945, 36.235144799899999 ], [ -115.1604945, 36.2351393999 ], [ -115.1604918, 36.2351393999 ], [ -115.1604918, 36.235125899899998 ], [ -115.1604945, 36.235125899899998 ], [ -115.1604945, 36.235123199900002 ], [ -115.1604972, 36.235123199900002 ], [ -115.1604972, 36.235120499899999 ], [ -115.1605026, 36.235120499899999 ], [ -115.1605026, 36.235117799899996 ], [ -115.160508, 36.235117799899996 ], [ -115.160508, 36.2351150999 ], [ -115.1605134, 36.2351150999 ], [ -115.1605134, 36.235112399899997 ], [ -115.1605242, 36.235112399899997 ], [ -115.1605242, 36.235109699900001 ], [ -115.1605296, 36.235109699900001 ], [ -115.1605296, 36.235106999899998 ], [ -115.160535, 36.235106999899998 ], [ -115.160535, 36.235104299900001 ], [ -115.1605377, 36.235104299900001 ], [ -115.1605377, 36.235101599899998 ], [ -115.1605404, 36.235101599899998 ], [ -115.1605404, 36.235098899900002 ], [ -115.1605458, 36.235098899900002 ], [ -115.1605458, 36.235096199899999 ], [ -115.1605512, 36.235096199899999 ], [ -115.1605512, 36.235093499899996 ], [ -115.160562, 36.235093499899996 ], [ -115.160562, 36.2350907999 ], [ -115.1605647, 36.2350907999 ], [ -115.1605647, 36.235088099899997 ], [ -115.1605674, 36.235088099899997 ], [ -115.1605674, 36.235085399900001 ], [ -115.1605701, 36.235085399900001 ], [ -115.1605701, 36.235082699899998 ], [ -115.1605728, 36.235082699899998 ], [ -115.1605728, 36.235079999900002 ], [ -115.1605755, 36.235079999900002 ], [ -115.1605755, 36.235077299899999 ], [ -115.1605782, 36.235077299899999 ], [ -115.1605782, 36.235074599899995 ], [ -115.1605809, 36.235074599899995 ], [ -115.1605809, 36.235071899899999 ], [ -115.1605836, 36.235071899899999 ], [ -115.1605836, 36.235069199899996 ], [ -115.160589, 36.235069199899996 ], [ -115.160589, 36.2350664999 ], [ -115.1605917, 36.2350664999 ], [ -115.1605917, 36.235063799899997 ], [ -115.1605971, 36.235063799899997 ], [ -115.1605971, 36.235061099900001 ], [ -115.1606025, 36.235061099900001 ], [ -115.1606025, 36.235058399899998 ], [ -115.1606079, 36.235058399899998 ], [ -115.1606079, 36.235055699900002 ], [ -115.1606133, 36.235055699900002 ], [ -115.1606133, 36.235052999899999 ], [ -115.1606214, 36.235052999899999 ], [ -115.1606214, 36.235055699900002 ], [ -115.1606295, 36.235055699900002 ], [ -115.1606295, 36.235058399899998 ], [ -115.1606349, 36.235058399899998 ], [ -115.1606349, 36.235061099900001 ], [ -115.160643, 36.235061099900001 ], [ -115.160643, 36.235063799899997 ], [ -115.1606457, 36.235063799899997 ], [ -115.1606457, 36.235061099900001 ], [ -115.1606565, 36.235061099900001 ], [ -115.1606565, 36.235058399899998 ], [ -115.1606673, 36.235058399899998 ], [ -115.1606673, 36.235061099900001 ], [ -115.1606727, 36.235061099900001 ], [ -115.1606727, 36.235063799899997 ], [ -115.1606754, 36.235063799899997 ], [ -115.1606754, 36.235069199899996 ], [ -115.1606781, 36.235069199899996 ], [ -115.1606781, 36.235079999900002 ], [ -115.1606808, 36.235079999900002 ], [ -115.1606808, 36.235085399900001 ], [ -115.1606835, 36.235085399900001 ], [ -115.1606835, 36.2350907999 ], [ -115.1606862, 36.2350907999 ], [ -115.1606862, 36.235096199899999 ], [ -115.1606889, 36.235096199899999 ], [ -115.1606889, 36.235101599899998 ], [ -115.1606943, 36.235101599899998 ], [ -115.1606943, 36.235104299900001 ], [ -115.1607024, 36.235104299900001 ], [ -115.1607024, 36.235106999899998 ], [ -115.1607051, 36.235106999899998 ], [ -115.1607051, 36.235109699900001 ], [ -115.1607078, 36.235109699900001 ], [ -115.1607078, 36.235112399899997 ], [ -115.1607105, 36.235112399899997 ], [ -115.1607105, 36.235117799899996 ], [ -115.1607132, 36.235117799899996 ], [ -115.1607132, 36.235120499899999 ], [ -115.1607159, 36.235120499899999 ], [ -115.1607159, 36.235125899899998 ], [ -115.1607186, 36.235125899899998 ], [ -115.1607186, 36.2351393999 ], [ -115.1607159, 36.2351393999 ], [ -115.1607159, 36.235142099899996 ], [ -115.1607132, 36.235142099899996 ], [ -115.1607132, 36.235147499900002 ], [ -115.1607078, 36.235147499900002 ], [ -115.1607078, 36.235150199899998 ], [ -115.1607051, 36.235150199899998 ], [ -115.1607051, 36.235152899900001 ], [ -115.1607024, 36.235152899900001 ], [ -115.1607024, 36.235155599899997 ], [ -115.1606997, 36.235155599899997 ], [ -115.1606997, 36.2351582999 ], [ -115.1606943, 36.2351582999 ], [ -115.1606943, 36.235160999899996 ], [ -115.1606916, 36.235160999899996 ], [ -115.1606916, 36.235163699899999 ], [ -115.1606862, 36.235163699899999 ], [ -115.1606862, 36.235166399899995 ], [ -115.1606808, 36.235166399899995 ], [ -115.1606808, 36.235169099899998 ], [ -115.1606754, 36.235169099899998 ], [ -115.1606754, 36.235171799900002 ], [ -115.16067, 36.235171799900002 ], [ -115.16067, 36.235174499899998 ], [ -115.1606673, 36.235174499899998 ], [ -115.1606673, 36.235177199900001 ], [ -115.1606619, 36.235177199900001 ], [ -115.1606619, 36.235179899899997 ], [ -115.1606565, 36.235179899899997 ], [ -115.1606565, 36.2351825999 ], [ -115.1606511, 36.2351825999 ], [ -115.1606511, 36.235185299899996 ], [ -115.1606457, 36.235185299899996 ], [ -115.1606457, 36.235187999899999 ], [ -115.160643, 36.235187999899999 ], [ -115.160643, 36.235190699899995 ], [ -115.1606376, 36.235190699899995 ], [ -115.1606376, 36.235193399899998 ], [ -115.1606322, 36.235193399899998 ], [ -115.1606322, 36.235196099900001 ], [ -115.1606295, 36.235196099900001 ], [ -115.1606295, 36.235198799899997 ], [ -115.1606241, 36.235198799899997 ], [ -115.1606241, 36.2352014999 ], [ -115.1606214, 36.2352014999 ], [ -115.1606214, 36.235204199899997 ], [ -115.1606187, 36.235204199899997 ], [ -115.1606187, 36.2352068999 ], [ -115.160616, 36.2352068999 ], [ -115.160616, 36.235212299899999 ], [ -115.1606133, 36.235212299899999 ], [ -115.1606133, 36.235217699899998 ], [ -115.1606106, 36.235217699899998 ], [ -115.1606106, 36.235233899899995 ], [ -115.1606079, 36.235233899899995 ], [ -115.1606079, 36.235236599899999 ], [ -115.1606025, 36.235236599899999 ], [ -115.1606025, 36.235239299900002 ], [ -115.1605944, 36.235239299900002 ], [ -115.1605944, 36.235241999899998 ], [ -115.160589, 36.235241999899998 ], [ -115.160589, 36.235244699900001 ], [ -115.1605863, 36.235244699900001 ], [ -115.1605863, 36.235247399899997 ] ] ] } },
{ "type": "Feature", "properties": { "value": 255.0 }, "geometry": { "type": "Polygon", "coordinates": [ [ [ -115.1601597, 36.235131299899997 ], [ -115.1601138, 36.235131299899997 ], [ -115.1601138, 36.235128599900001 ], [ -115.1601111, 36.235128599900001 ], [ -115.1601111, 36.235125899899998 ], [ -115.1601084, 36.235125899899998 ], [ -115.1601084, 36.235123199900002 ], [ -115.1601057, 36.235123199900002 ], [ -115.1601057, 36.235109699900001 ], [ -115.160103, 36.235109699900001 ], [ -115.160103, 36.235101599899998 ], [ -115.1601057, 36.235101599899998 ], [ -115.1601057, 36.235085399900001 ], [ -115.160103, 36.235085399900001 ], [ -115.160103, 36.235082699899998 ], [ -115.1601003, 36.235082699899998 ], [ -115.1601003, 36.235079999900002 ], [ -115.160103, 36.235079999900002 ], [ -115.160103, 36.235007099900002 ], [ -115.1601057, 36.235007099900002 ], [ -115.1601057, 36.2349989999 ], [ -115.1601084, 36.2349989999 ], [ -115.1601084, 36.234996299899997 ], [ -115.1601219, 36.234996299899997 ], [ -115.1601219, 36.234993599900001 ], [ -115.1601381, 36.234993599900001 ], [ -115.1601381, 36.234996299899997 ], [ -115.1601462, 36.234996299899997 ], [ -115.1601462, 36.234993599900001 ], [ -115.1601597, 36.234993599900001 ], [ -115.1601597, 36.234990899899998 ], [ -115.1601624, 36.234990899899998 ], [ -115.1601624, 36.2349989999 ], [ -115.1601651, 36.2349989999 ], [ -115.1601651, 36.235001699899996 ], [ -115.1601678, 36.235001699899996 ], [ -115.1601678, 36.235004399899999 ], [ -115.1601867, 36.235004399899999 ], [ -115.1601867, 36.235001699899996 ], [ -115.1602461, 36.235001699899996 ], [ -115.1602461, 36.235004399899999 ], [ -115.1602488, 36.235004399899999 ], [ -115.1602488, 36.235017899900001 ], [ -115.1602515, 36.235017899900001 ], [ -115.1602515, 36.2350232999 ], [ -115.1602488, 36.2350232999 ], [ -115.1602488, 36.2350475999 ], [ -115.1602461, 36.2350475999 ], [ -115.1602461, 36.235101599899998 ], [ -115.1602434, 36.235101599899998 ], [ -115.1602434, 36.235104299900001 ], [ -115.160238, 36.235104299900001 ], [ -115.160238, 36.235106999899998 ], [ -115.1602272, 36.235106999899998 ], [ -115.1602272, 36.235104299900001 ], [ -115.1601894, 36.235104299900001 ], [ -115.1601894, 36.235106999899998 ], [ -115.160184, 36.235106999899998 ], [ -115.160184, 36.2351150999 ], [ -115.1601813, 36.2351150999 ], [ -115.1601813, 36.235125899899998 ], [ -115.1601786, 36.235125899899998 ], [ -115.1601786, 36.235128599900001 ], [ -115.1601597, 36.235128599900001 ], [ -115.1601597, 36.235131299899997 ] ] ] } },
{ "type": "Feature", "properties": { "value": 255.0 }, "geometry": { "type": "Polygon", "coordinates": [ [ [ -115.1603865, 36.235112399899997 ], [ -115.1603649, 36.235112399899997 ], [ -115.1603649, 36.235109699900001 ], [ -115.1603595, 36.235109699900001 ], [ -115.1603595, 36.235106999899998 ], [ -115.1603568, 36.235106999899998 ], [ -115.1603568, 36.235096199899999 ], [ -115.1603541, 36.235096199899999 ], [ -115.1603541, 36.235093499899996 ], [ -115.1603514, 36.235093499899996 ], [ -115.1603514, 36.2350907999 ], [ -115.160346, 36.2350907999 ], [ -115.160346, 36.235088099899997 ], [ -115.1603244, 36.235088099899997 ], [ -115.1603244, 36.235085399900001 ], [ -115.1603163, 36.235085399900001 ], [ -115.1603163, 36.235082699899998 ], [ -115.1603136, 36.235082699899998 ], [ -115.1603136, 36.235079999900002 ], [ -115.1603082, 36.235079999900002 ], [ -115.1603082, 36.235077299899999 ], [ -115.1602866, 36.235077299899999 ], [ -115.1602866, 36.235074599899995 ], [ -115.1602839, 36.235074599899995 ], [ -115.1602839, 36.235071899899999 ], [ -115.1602812, 36.235071899899999 ], [ -115.1602812, 36.235061099900001 ], [ -115.1602785, 36.235061099900001 ], [ -115.1602785, 36.235034099899998 ], [ -115.1602812, 36.235034099899998 ], [ -115.1602812, 36.234993599900001 ], [ -115.1602839, 36.234993599900001 ], [ -115.1602839, 36.2349800999 ], [ -115.1602866, 36.2349800999 ], [ -115.1602866, 36.234969299900001 ], [ -115.1603001, 36.234969299900001 ], [ -115.1603001, 36.234966599899998 ], [ -115.1603109, 36.234966599899998 ], [ -115.1603109, 36.234969299900001 ], [ -115.1603136, 36.234969299900001 ], [ -115.1603136, 36.234966599899998 ], [ -115.1604216, 36.234966599899998 ], [ -115.1604216, 36.234969299900001 ], [ -115.1604243, 36.234969299900001 ], [ -115.1604243, 36.234971999899997 ], [ -115.160427, 36.234971999899997 ], [ -115.160427, 36.2349800999 ], [ -115.1604297, 36.2349800999 ], [ -115.1604297, 36.235007099900002 ], [ -115.1604324, 36.235007099900002 ], [ -115.1604324, 36.235034099899998 ], [ -115.1604351, 36.235034099899998 ], [ -115.1604351, 36.235036799900001 ], [ -115.1604513, 36.235036799900001 ], [ -115.1604513, 36.235039499899997 ], [ -115.1604567, 36.235039499899997 ], [ -115.1604567, 36.235044899899997 ], [ -115.1604594, 36.235044899899997 ], [ -115.1604594, 36.235082699899998 ], [ -115.1604567, 36.235082699899998 ], [ -115.1604567, 36.235093499899996 ], [ -115.1604594, 36.235093499899996 ], [ -115.1604594, 36.235096199899999 ], [ -115.1604567, 36.235096199899999 ], [ -115.1604567, 36.235101599899998 ], [ -115.1604324, 36.235101599899998 ], [ -115.1604324, 36.235104299900001 ], [ -115.1604297, 36.235104299900001 ], [ -115.1604297, 36.235106999899998 ], [ -115.1604243, 36.235106999899998 ], [ -115.1604243, 36.235109699900001 ], [ -115.1603865, 36.235109699900001 ], [ -115.1603865, 36.235112399899997 ] ] ] } },
{ "type": "Feature", "properties": { "value": 255.0 }, "geometry": { "type": "Polygon", "coordinates": [ [ [ -115.160157, 36.234853199900002 ], [ -115.1601408, 36.234853199900002 ], [ -115.1601408, 36.234850499899999 ], [ -115.1601381, 36.234850499899999 ], [ -115.1601381, 36.234828899900002 ], [ -115.1601354, 36.234828899900002 ], [ -115.1601354, 36.234809999900001 ], [ -115.1601327, 36.234809999900001 ], [ -115.1601327, 36.234788399899998 ], [ -115.1601273, 36.234788399899998 ], [ -115.1601273, 36.234785699900002 ], [ -115.1601219, 36.234785699900002 ], [ -115.1601219, 36.234788399899998 ], [ -115.1600976, 36.234788399899998 ], [ -115.1600976, 36.2347289999 ], [ -115.160103, 36.2347289999 ], [ -115.160103, 36.234726299899997 ], [ -115.1601975, 36.234726299899997 ], [ -115.1601975, 36.2347289999 ], [ -115.1602029, 36.2347289999 ], [ -115.1602029, 36.234731699900003 ], [ -115.1602056, 36.234731699900003 ], [ -115.1602056, 36.234734399899999 ], [ -115.1602083, 36.234734399899999 ], [ -115.1602083, 36.234739799899998 ], [ -115.160211, 36.234739799899998 ], [ -115.160211, 36.234745199899997 ], [ -115.1602137, 36.234745199899997 ], [ -115.1602137, 36.2347478999 ], [ -115.1602704, 36.2347478999 ], [ -115.1602704, 36.234753299899999 ], [ -115.1602731, 36.234753299899999 ], [ -115.1602731, 36.234801899899999 ], [ -115.1602758, 36.234801899899999 ], [ -115.1602758, 36.2348207999 ], [ -115.1602785, 36.2348207999 ], [ -115.1602785, 36.234836999899997 ], [ -115.1602758, 36.234836999899997 ], [ -115.1602758, 36.234845099899999 ], [ -115.1602704, 36.234845099899999 ], [ -115.1602704, 36.234847799900002 ], [ -115.1602164, 36.234847799900002 ], [ -115.1602164, 36.234850499899999 ], [ -115.160157, 36.234850499899999 ], [ -115.160157, 36.234853199900002 ] ] ] } },
{ "type": "Feature", "properties": { "value": 255.0 }, "geometry": { "type": "Polygon", "coordinates": [ [ [ -115.1604108, 36.234858599900001 ], [ -115.1604, 36.234858599900001 ], [ -115.1604, 36.234855899899998 ], [ -115.1603946, 36.234855899899998 ], [ -115.1603946, 36.234853199900002 ], [ -115.1603919, 36.234853199900002 ], [ -115.1603919, 36.234847799900002 ], [ -115.1603892, 36.234847799900002 ], [ -115.1603892, 36.234845099899999 ], [ -115.1603865, 36.234845099899999 ], [ -115.1603865, 36.2348396999 ], [ -115.1603838, 36.2348396999 ], [ -115.1603838, 36.234836999899997 ], [ -115.1603811, 36.234836999899997 ], [ -115.1603811, 36.234834299900001 ], [ -115.1603784, 36.234834299900001 ], [ -115.1603784, 36.234831599899998 ], [ -115.1603757, 36.234831599899998 ], [ -115.1603757, 36.234826199899999 ], [ -115.160373, 36.234826199899999 ], [ -115.160373, 36.234823499900003 ], [ -115.1603703, 36.234823499900003 ], [ -115.1603703, 36.2348207999 ], [ -115.1603676, 36.2348207999 ], [ -115.1603676, 36.2348153999 ], [ -115.1603649, 36.2348153999 ], [ -115.1603649, 36.234812699899997 ], [ -115.1603622, 36.234812699899997 ], [ -115.1603622, 36.234809999900001 ], [ -115.1603595, 36.234809999900001 ], [ -115.1603595, 36.234804599900002 ], [ -115.1603568, 36.234804599900002 ], [ -115.1603568, 36.234801899899999 ], [ -115.1603541, 36.234801899899999 ], [ -115.1603541, 36.234799199900003 ], [ -115.1603514, 36.234799199900003 ], [ -115.1603514, 36.234793799899997 ], [ -115.1603487, 36.234793799899997 ], [ -115.1603487, 36.234791099900001 ], [ -115.160346, 36.234791099900001 ], [ -115.160346, 36.234788399899998 ], [ -115.1603433, 36.234788399899998 ], [ -115.1603433, 36.234785699900002 ], [ -115.1603406, 36.234785699900002 ], [ -115.1603406, 36.234782999899998 ], [ -115.1603379, 36.234782999899998 ], [ -115.1603379, 36.234777599899999 ], [ -115.1603352, 36.234777599899999 ], [ -115.1603352, 36.234774899899996 ], [ -115.1603325, 36.234774899899996 ], [ -115.1603325, 36.2347721999 ], [ -115.1603298, 36.2347721999 ], [ -115.1603298, 36.234769499899997 ], [ -115.1603271, 36.234769499899997 ], [ -115.1603271, 36.234766799900001 ], [ -115.1603244, 36.234766799900001 ], [ -115.1603244, 36.234764099899998 ], [ -115.1603217, 36.234764099899998 ], [ -115.1603217, 36.234761399900002 ], [ -115.160319, 36.234761399900002 ], [ -115.160319, 36.234755999900003 ], [ -115.1603163, 36.234755999900003 ], [ -115.1603163, 36.234739799899998 ], [ -115.160319, 36.234739799899998 ], [ -115.160319, 36.234737099900002 ], [ -115.1603244, 36.234737099900002 ], [ -115.1603244, 36.234734399899999 ], [ -115.1603298, 36.234734399899999 ], [ -115.1603298, 36.234731699900003 ], [ -115.1603352, 36.234731699900003 ], [ -115.1603352, 36.2347289999 ], [ -115.1603379, 36.2347289999 ], [ -115.1603379, 36.234726299899997 ], [ -115.1603406, 36.234726299899997 ], [ -115.1603406, 36.234720899899997 ], [ -115.160346, 36.234720899899997 ], [ -115.160346, 36.234718199900001 ], [ -115.1603487, 36.234718199900001 ], [ -115.1603487, 36.234715499899998 ], [ -115.1603514, 36.234715499899998 ], [ -115.1603514, 36.234712799900002 ], [ -115.1603541, 36.234712799900002 ], [ -115.1603541, 36.234710099899999 ], [ -115.1603568, 36.234710099899999 ], [ -115.1603568, 36.234707399900003 ], [ -115.1603595, 36.234707399900003 ], [ -115.1603595, 36.234701999899997 ], [ -115.1603622, 36.234701999899997 ], [ -115.1603622, 36.234693899900002 ], [ -115.1603676, 36.234693899900002 ], [ -115.1603676, 36.234691199899999 ], [ -115.160373, 36.234691199899999 ], [ -115.160373, 36.234688499900003 ], [ -115.1603784, 36.234688499900003 ], [ -115.1603784, 36.234685799899999 ], [ -115.1603838, 36.234685799899999 ], [ -115.1603838, 36.234683099900003 ], [ -115.1603865, 36.234683099900003 ], [ -115.1603865, 36.2346803999 ], [ -115.1603919, 36.2346803999 ], [ -115.1603919, 36.234677699899997 ], [ -115.1603973, 36.234677699899997 ], [ -115.1603973, 36.234674999900001 ], [ -115.1604027, 36.234674999900001 ], [ -115.1604027, 36.234672299899998 ], [ -115.1604081, 36.234672299899998 ], [ -115.1604081, 36.234669599900002 ], [ -115.1604108, 36.234669599900002 ], [ -115.1604108, 36.234666899899999 ], [ -115.1604297, 36.234666899899999 ], [ -115.1604297, 36.234664199900003 ], [ -115.1604378, 36.234664199900003 ], [ -115.1604378, 36.2346614999 ], [ -115.1604432, 36.2346614999 ], [ -115.1604432, 36.234658799899996 ], [ -115.1604459, 36.234658799899996 ], [ -115.1604459, 36.2346560999 ], [ -115.160454, 36.2346560999 ], [ -115.160454, 36.234658799899996 ], [ -115.1604567, 36.234658799899996 ], [ -115.1604567, 36.234666899899999 ], [ -115.1604594, 36.234666899899999 ], [ -115.1604594, 36.234669599900002 ], [ -115.1604621, 36.234669599900002 ], [ -115.1604621, 36.234672299899998 ], [ -115.1604648, 36.234672299899998 ], [ -115.1604648, 36.234674999900001 ], [ -115.1604675, 36.234674999900001 ], [ -115.1604675, 36.234677699899997 ], [ -115.1604702, 36.234677699899997 ], [ -115.1604702, 36.234715499899998 ], [ -115.1604675, 36.234715499899998 ], [ -115.1604675, 36.234718199900001 ], [ -115.1604648, 36.234718199900001 ], [ -115.1604648, 36.234726299899997 ], [ -115.1604675, 36.234726299899997 ], [ -115.1604675, 36.234731699900003 ], [ -115.1604702, 36.234731699900003 ], [ -115.1604702, 36.234739799899998 ], [ -115.1604729, 36.234739799899998 ], [ -115.1604729, 36.234742499900001 ], [ -115.1604756, 36.234742499900001 ], [ -115.1604756, 36.234745199899997 ], [ -115.1604783, 36.234745199899997 ], [ -115.1604783, 36.2347478999 ], [ -115.160481, 36.2347478999 ], [ -115.160481, 36.234750599899996 ], [ -115.1604864, 36.234750599899996 ], [ -115.1604864, 36.234753299899999 ], [ -115.1604891, 36.234753299899999 ], [ -115.1604891, 36.234758699899999 ], [ -115.1604918, 36.234758699899999 ], [ -115.1604918, 36.234761399900002 ], [ -115.1604945, 36.234761399900002 ], [ -115.1604945, 36.234766799900001 ], [ -115.1604972, 36.234766799900001 ], [ -115.1604972, 36.2347721999 ], [ -115.1604999, 36.2347721999 ], [ -115.1604999, 36.234774899899996 ], [ -115.1605026, 36.234774899899996 ], [ -115.1605026, 36.234780299900002 ], [ -115.1605053, 36.234780299900002 ], [ -115.1605053, 36.234782999899998 ], [ -115.160508, 36.234782999899998 ], [ -115.160508, 36.234788399899998 ], [ -115.1605107, 36.234788399899998 ], [ -115.1605107, 36.234791099900001 ], [ -115.1605134, 36.234791099900001 ], [ -115.1605134, 36.234793799899997 ], [ -115.1605161, 36.234793799899997 ], [ -115.1605161, 36.234799199900003 ], [ -115.1605188, 36.234799199900003 ], [ -115.1605188, 36.234801899899999 ], [ -115.1605215, 36.234801899899999 ], [ -115.1605215, 36.234807299899998 ], [ -115.1605242, 36.234807299899998 ], [ -115.1605242, 36.234809999900001 ], [ -115.1605269, 36.234809999900001 ], [ -115.1605269, 36.2348153999 ], [ -115.1605296, 36.2348153999 ], [ -115.1605296, 36.234823499900003 ], [ -115.1605269, 36.234823499900003 ], [ -115.1605269, 36.234826199899999 ], [ -115.1605242, 36.234826199899999 ], [ -115.1605242, 36.234828899900002 ], [ -115.1605188, 36.234828899900002 ], [ -115.1605188, 36.234831599899998 ], [ -115.1605134, 36.234831599899998 ], [ -115.1605134, 36.234834299900001 ], [ -115.1605053, 36.234834299900001 ], [ -115.1605053, 36.234836999899997 ], [ -115.1604972, 36.234836999899997 ], [ -115.1604972, 36.2348396999 ], [ -115.1604891, 36.2348396999 ], [ -115.1604891, 36.234836999899997 ], [ -115.1604837, 36.234836999899997 ], [ -115.1604837, 36.234834299900001 ], [ -115.1604783, 36.234834299900001 ], [ -115.1604783, 36.234831599899998 ], [ -115.1604702, 36.234831599899998 ], [ -115.1604702, 36.234834299900001 ], [ -115.1604594, 36.234834299900001 ], [ -115.1604594, 36.234836999899997 ], [ -115.1604486, 36.234836999899997 ], [ -115.1604486, 36.2348396999 ], [ -115.1604432, 36.2348396999 ], [ -115.1604432, 36.234842399899996 ], [ -115.1604378, 36.234842399899996 ], [ -115.1604378, 36.234845099899999 ], [ -115.1604324, 36.234845099899999 ], [ -115.1604324, 36.234847799900002 ], [ -115.160427, 36.234847799900002 ], [ -115.160427, 36.234850499899999 ], [ -115.1604216, 36.234850499899999 ], [ -115.1604216, 36.234853199900002 ], [ -115.1604162, 36.234853199900002 ], [ -115.1604162, 36.234855899899998 ], [ -115.1604108, 36.234855899899998 ], [ -115.1604108, 36.234858599900001 ] ] ] } },
{ "type": "Feature", "properties": { "value": 255.0 }, "geometry": { "type": "Polygon", "coordinates": [ [ [ -115.1606592, 36.234642599899999 ], [ -115.1606484, 36.234642599899999 ], [ -115.1606484, 36.234639899900003 ], [ -115.1606376, 36.234639899900003 ], [ -115.1606376, 36.234642599899999 ], [ -115.160535, 36.234642599899999 ], [ -115.160535, 36.234639899900003 ], [ -115.1605323, 36.234639899900003 ], [ -115.1605323, 36.2346371999 ], [ -115.1605296, 36.2346371999 ], [ -115.1605296, 36.234631799900001 ], [ -115.1605269, 36.234631799900001 ], [ -115.1605269, 36.234623699899998 ], [ -115.1605242, 36.234623699899998 ], [ -115.1605242, 36.234620999900002 ], [ -115.1605215, 36.234620999900002 ], [ -115.1605215, 36.234615599900003 ], [ -115.1605188, 36.234615599900003 ], [ -115.1605188, 36.234583199900001 ], [ -115.1605134, 36.234583199900001 ], [ -115.1605134, 36.234580499899998 ], [ -115.160508, 36.234580499899998 ], [ -115.160508, 36.234575099899999 ], [ -115.1605053, 36.234575099899999 ], [ -115.1605053, 36.2345696999 ], [ -115.160508, 36.2345696999 ], [ -115.160508, 36.234566999899997 ], [ -115.1605053, 36.234566999899997 ], [ -115.1605053, 36.234542699899997 ], [ -115.160508, 36.234542699899997 ], [ -115.160508, 36.234529199900003 ], [ -115.1605053, 36.234529199900003 ], [ -115.1605053, 36.234526499899999 ], [ -115.160508, 36.234526499899999 ], [ -115.160508, 36.234507599899999 ], [ -115.1605107, 36.234507599899999 ], [ -115.1605107, 36.234494099899997 ], [ -115.1605863, 36.234494099899997 ], [ -115.1605863, 36.2344967999 ], [ -115.160589, 36.2344967999 ], [ -115.160589, 36.234510299900002 ], [ -115.1605917, 36.234510299900002 ], [ -115.1605917, 36.234518399899997 ], [ -115.1605944, 36.234518399899997 ], [ -115.1605944, 36.2345210999 ], [ -115.160616, 36.2345210999 ], [ -115.160616, 36.234523799900003 ], [ -115.1607159, 36.234523799900003 ], [ -115.1607159, 36.234526499899999 ], [ -115.160724, 36.234526499899999 ], [ -115.160724, 36.234531899899999 ], [ -115.1607267, 36.234531899899999 ], [ -115.1607267, 36.234539999900001 ], [ -115.1607294, 36.234539999900001 ], [ -115.1607294, 36.234556199899998 ], [ -115.1607267, 36.234556199899998 ], [ -115.1607267, 36.234566999899997 ], [ -115.160724, 36.234566999899997 ], [ -115.160724, 36.2345696999 ], [ -115.1607186, 36.2345696999 ], [ -115.1607186, 36.234572399900003 ], [ -115.1607024, 36.234572399900003 ], [ -115.1607024, 36.234575099899999 ], [ -115.1606997, 36.234575099899999 ], [ -115.1606997, 36.234626399900002 ], [ -115.160697, 36.234626399900002 ], [ -115.160697, 36.234634499899997 ], [ -115.1606943, 36.234634499899997 ], [ -115.1606943, 36.2346371999 ], [ -115.1606916, 36.2346371999 ], [ -115.1606916, 36.234639899900003 ], [ -115.1606592, 36.234639899900003 ], [ -115.1606592, 36.234642599899999 ] ] ] } },
{ "type": "Feature", "properties": { "value": 255.0 }, "geometry": { "type": "Polygon", "coordinates": [ [ [ -115.1607834, 36.234523799900003 ], [ -115.1607402, 36.234523799900003 ], [ -115.1607402, 36.2345210999 ], [ -115.1607348, 36.2345210999 ], [ -115.1607348, 36.234518399899997 ], [ -115.1607321, 36.234518399899997 ], [ -115.1607321, 36.234488699899998 ], [ -115.1607348, 36.234488699899998 ], [ -115.1607348, 36.234485999900002 ], [ -115.1607753, 36.234485999900002 ], [ -115.1607753, 36.234483299899999 ], [ -115.1607834, 36.234483299899999 ], [ -115.1607834, 36.234485999900002 ], [ -115.1607861, 36.234485999900002 ], [ -115.1607861, 36.2345021999 ], [ -115.1607888, 36.2345021999 ], [ -115.1607888, 36.234512999899998 ], [ -115.1607861, 36.234512999899998 ], [ -115.1607861, 36.2345210999 ], [ -115.1607834, 36.2345210999 ], [ -115.1607834, 36.234523799900003 ] ] ] } },
{ "type": "Feature", "properties": { "value": 255.0 }, "geometry": { "type": "Polygon", "coordinates": [ [ [ -115.1609022, 36.234666899899999 ], [ -115.1608671, 36.234666899899999 ], [ -115.1608671, 36.234664199900003 ], [ -115.1608482, 36.234664199900003 ], [ -115.1608482, 36.2346614999 ], [ -115.1608455, 36.2346614999 ], [ -115.1608455, 36.234553499900002 ], [ -115.1608428, 36.234553499900002 ], [ -115.1608428, 36.234504899900003 ], [ -115.1608455, 36.234504899900003 ], [ -115.1608455, 36.234467099900002 ], [ -115.1608428, 36.234467099900002 ], [ -115.1608428, 36.234423899900001 ], [ -115.1608455, 36.234423899900001 ], [ -115.1608455, 36.234418499900002 ], [ -115.1608617, 36.234418499900002 ], [ -115.1608617, 36.234415799899999 ], [ -115.1609049, 36.234415799899999 ], [ -115.1609049, 36.234585899899997 ], [ -115.1609076, 36.234585899899997 ], [ -115.1609076, 36.234618299899999 ], [ -115.1609049, 36.234618299899999 ], [ -115.1609049, 36.234664199900003 ], [ -115.1609022, 36.234664199900003 ], [ -115.1609022, 36.234666899899999 ] ] ] } },
{ "type": "Feature", "properties": { "value": 255.0 }, "geometry": { "type": "Polygon", "coordinates": [ [ [ -115.1618526, 36.234494099899997 ], [ -115.1618499, 36.234494099899997 ], [ -115.1618499, 36.234491399900001 ], [ -115.1618472, 36.234491399900001 ], [ -115.1618472, 36.234488699899998 ], [ -115.1618445, 36.234488699899998 ], [ -115.1618445, 36.234437399900003 ], [ -115.1618472, 36.234437399900003 ], [ -115.1618472, 36.234431999900004 ], [ -115.1618499, 36.234431999900004 ], [ -115.1618499, 36.2344292999 ], [ -115.1618526, 36.2344292999 ], [ -115.1618526, 36.234494099899997 ] ] ] } },
{ "type": "Feature", "properties": { "value": 255.0 }, "geometry": { "type": "Polygon", "coordinates": [ [ [ -115.1618526, 36.234413099900003 ], [ -115.1618472, 36.234413099900003 ], [ -115.1618472, 36.234402299899998 ], [ -115.1618445, 36.234402299899998 ], [ -115.1618445, 36.234399599900001 ], [ -115.1618418, 36.234399599900001 ], [ -115.1618418, 36.234391499899999 ], [ -115.1618445, 36.234391499899999 ], [ -115.1618445, 36.234388799900003 ], [ -115.1618472, 36.234388799900003 ], [ -115.1618472, 36.2343860999 ], [ -115.1618499, 36.2343860999 ], [ -115.1618499, 36.234383399900004 ], [ -115.1618526, 36.234383399900004 ], [ -115.1618526, 36.234413099900003 ] ] ] } },
{ "type": "Feature", "properties": { "value": 255.0 }, "geometry": { "type": "Polygon", "coordinates": [ [ [ -115.1614989, 36.234585899899997 ], [ -115.1613072, 36.234585899899997 ], [ -115.1613072, 36.234583199900001 ], [ -115.1613045, 36.234583199900001 ], [ -115.1613045, 36.234577799900002 ], [ -115.1613018, 36.234577799900002 ], [ -115.1613018, 36.234550799899999 ], [ -115.1612991, 36.234550799899999 ], [ -115.1612991, 36.234548099900003 ], [ -115.1612964, 36.234548099900003 ], [ -115.1612964, 36.2345453999 ], [ -115.1612937, 36.2345453999 ], [ -115.1612937, 36.234542699899997 ], [ -115.161291, 36.234542699899997 ], [ -115.161291, 36.234537299899998 ], [ -115.1612856, 36.234537299899998 ], [ -115.1612856, 36.234534599900002 ], [ -115.1612829, 36.234534599900002 ], [ -115.1612829, 36.234499499900004 ], [ -115.1612856, 36.234499499900004 ], [ -115.1612856, 36.2344967999 ], [ -115.1612883, 36.2344967999 ], [ -115.1612883, 36.234494099899997 ], [ -115.1612937, 36.234494099899997 ], [ -115.1612937, 36.234491399900001 ], [ -115.1612991, 36.234491399900001 ], [ -115.1612991, 36.234480599900003 ], [ -115.1612964, 36.234480599900003 ], [ -115.1612964, 36.234464399899998 ], [ -115.1612991, 36.234464399899998 ], [ -115.1612991, 36.234437399900003 ], [ -115.1613018, 36.234437399900003 ], [ -115.1613018, 36.234407699900004 ], [ -115.1613045, 36.234407699900004 ], [ -115.1613045, 36.234399599900001 ], [ -115.1613018, 36.234399599900001 ], [ -115.1613018, 36.234364499900003 ], [ -115.1613045, 36.234364499900003 ], [ -115.1613045, 36.2343617999 ], [ -115.1613153, 36.2343617999 ], [ -115.1613153, 36.234359099899997 ], [ -115.1613801, 36.234359099899997 ], [ -115.1613801, 36.2343617999 ], [ -115.1614692, 36.2343617999 ], [ -115.1614692, 36.234364499900003 ], [ -115.16148, 36.234364499900003 ], [ -115.16148, 36.2343617999 ], [ -115.1615151, 36.2343617999 ], [ -115.1615151, 36.234364499900003 ], [ -115.1615178, 36.234364499900003 ], [ -115.1615178, 36.234367199899999 ], [ -115.1615205, 36.234367199899999 ], [ -115.1615205, 36.2343860999 ], [ -115.1615178, 36.2343860999 ], [ -115.1615178, 36.234399599900001 ], [ -115.1615151, 36.234399599900001 ], [ -115.1615151, 36.2344103999 ], [ -115.1615124, 36.2344103999 ], [ -115.1615124, 36.234421199899998 ], [ -115.1615151, 36.234421199899998 ], [ -115.1615151, 36.2344292999 ], [ -115.1615124, 36.2344292999 ], [ -115.1615124, 36.234437399900003 ], [ -115.1615097, 36.234437399900003 ], [ -115.1615097, 36.234458999899999 ], [ -115.161507, 36.234458999899999 ], [ -115.161507, 36.234480599900003 ], [ -115.1615097, 36.234480599900003 ], [ -115.1615097, 36.234507599899999 ], [ -115.1615124, 36.234507599899999 ], [ -115.1615124, 36.234537299899998 ], [ -115.1615151, 36.234537299899998 ], [ -115.1615151, 36.234548099900003 ], [ -115.1615124, 36.234548099900003 ], [ -115.1615124, 36.234564299900001 ], [ -115.1615097, 36.234564299900001 ], [ -115.1615097, 36.234575099899999 ], [ -115.161507, 36.234575099899999 ], [ -115.161507, 36.234580499899998 ], [ -115.1615043, 36.234580499899998 ], [ -115.1615043, 36.234583199900001 ], [ -115.1614989, 36.234583199900001 ], [ -115.1614989, 36.234585899899997 ] ] ] } },
{ "type": "Feature", "properties": { "value": 255.0 }, "geometry": { "type": "Polygon", "coordinates": [ [ [ -115.1601516, 36.234469799899998 ], [ -115.1600976, 36.234469799899998 ], [ -115.1600976, 36.234329399899998 ], [ -115.160103, 36.234329399899998 ], [ -115.160103, 36.234326699900002 ], [ -115.1601057, 36.234326699900002 ], [ -115.1601057, 36.234329399899998 ], [ -115.1601165, 36.234329399899998 ], [ -115.1601165, 36.234326699900002 ], [ -115.1601435, 36.234326699900002 ], [ -115.1601435, 36.234323999899999 ], [ -115.1601489, 36.234323999899999 ], [ -115.1601489, 36.234326699900002 ], [ -115.1601651, 36.234326699900002 ], [ -115.1601651, 36.234329399899998 ], [ -115.1601678, 36.234329399899998 ], [ -115.1601678, 36.234332099900001 ], [ -115.1601705, 36.234332099900001 ], [ -115.1601705, 36.234359099899997 ], [ -115.1601732, 36.234359099899997 ], [ -115.1601732, 36.234407699900004 ], [ -115.1601651, 36.234407699900004 ], [ -115.1601651, 36.2344103999 ], [ -115.1601624, 36.2344103999 ], [ -115.1601624, 36.234440099899999 ], [ -115.1601597, 36.234440099899999 ], [ -115.1601597, 36.234461699900002 ], [ -115.160157, 36.234461699900002 ], [ -115.160157, 36.234467099900002 ], [ -115.1601516, 36.234467099900002 ], [ -115.1601516, 36.234469799899998 ] ] ] } },
{ "type": "Feature", "properties": { "value": 255.0 }, "geometry": { "type": "Polygon", "coordinates": [ [ [ -115.1612127, 36.2345885999 ], [ -115.1611884, 36.2345885999 ], [ -115.1611884, 36.234585899899997 ], [ -115.1611533, 36.234585899899997 ], [ -115.1611533, 36.2345885999 ], [ -115.1611074, 36.2345885999 ], [ -115.1611074, 36.234585899899997 ], [ -115.1610318, 36.234585899899997 ], [ -115.1610318, 36.234583199900001 ], [ -115.1610291, 36.234583199900001 ], [ -115.1610291, 36.234580499899998 ], [ -115.1610264, 36.234580499899998 ], [ -115.1610264, 36.234553499900002 ], [ -115.1610291, 36.234553499900002 ], [ -115.1610291, 36.234512999899998 ], [ -115.1610264, 36.234512999899998 ], [ -115.1610264, 36.234507599899999 ], [ -115.1610291, 36.234507599899999 ], [ -115.1610291, 36.234472499900001 ], [ -115.1610264, 36.234472499900001 ], [ -115.1610264, 36.234464399899998 ], [ -115.1610291, 36.234464399899998 ], [ -115.1610291, 36.234375299900002 ], [ -115.1610264, 36.234375299900002 ], [ -115.1610264, 36.234364499900003 ], [ -115.1610237, 36.234364499900003 ], [ -115.1610237, 36.234359099899997 ], [ -115.161021, 36.234359099899997 ], [ -115.161021, 36.234310499899998 ], [ -115.1610237, 36.234310499899998 ], [ -115.1610237, 36.234307799900002 ], [ -115.1610345, 36.234307799900002 ], [ -115.1610345, 36.234305099899998 ], [ -115.1610534, 36.234305099899998 ], [ -115.1610534, 36.234307799900002 ], [ -115.1610642, 36.234307799900002 ], [ -115.1610642, 36.234305099899998 ], [ -115.1610966, 36.234305099899998 ], [ -115.1610966, 36.234307799900002 ], [ -115.1611128, 36.234307799900002 ], [ -115.1611128, 36.234310499899998 ], [ -115.1611614, 36.234310499899998 ], [ -115.1611614, 36.234307799900002 ], [ -115.1612127, 36.234307799900002 ], [ -115.1612127, 36.234305099899998 ], [ -115.1612208, 36.234305099899998 ], [ -115.1612208, 36.234307799900002 ], [ -115.1612316, 36.234307799900002 ], [ -115.1612316, 36.234310499899998 ], [ -115.1612343, 36.234310499899998 ], [ -115.1612343, 36.234315899900004 ], [ -115.161237, 36.234315899900004 ], [ -115.161237, 36.234326699900002 ], [ -115.1612343, 36.234326699900002 ], [ -115.1612343, 36.234396899899998 ], [ -115.1612316, 36.234396899899998 ], [ -115.1612316, 36.234467099900002 ], [ -115.1612289, 36.234467099900002 ], [ -115.1612289, 36.2344778999 ], [ -115.1612316, 36.2344778999 ], [ -115.1612316, 36.2345210999 ], [ -115.1612343, 36.2345210999 ], [ -115.1612343, 36.234556199899998 ], [ -115.1612316, 36.234556199899998 ], [ -115.1612316, 36.234580499899998 ], [ -115.1612289, 36.234580499899998 ], [ -115.1612289, 36.234585899899997 ], [ -115.1612127, 36.234585899899997 ], [ -115.1612127, 36.2345885999 ] ] ] } },
{ "type": "Feature", "properties": { "value": 255.0 }, "geometry": { "type": "Polygon", "coordinates": [ [ [ -115.1605323, 36.234423899900001 ], [ -115.1604972, 36.234423899900001 ], [ -115.1604972, 36.234421199899998 ], [ -115.1604945, 36.234421199899998 ], [ -115.1604945, 36.234423899900001 ], [ -115.1604891, 36.234423899900001 ], [ -115.1604891, 36.234421199899998 ], [ -115.1604783, 36.234421199899998 ], [ -115.1604783, 36.234413099900003 ], [ -115.1604864, 36.234413099900003 ], [ -115.1604864, 36.2344103999 ], [ -115.1604891, 36.2344103999 ], [ -115.1604891, 36.234404999900001 ], [ -115.1604918, 36.234404999900001 ], [ -115.1604918, 36.234391499899999 ], [ -115.1604891, 36.234391499899999 ], [ -115.1604891, 36.234388799900003 ], [ -115.1604918, 36.234388799900003 ], [ -115.1604918, 36.234380699900001 ], [ -115.1604891, 36.234380699900001 ], [ -115.1604891, 36.234367199899999 ], [ -115.1604864, 36.234367199899999 ], [ -115.1604864, 36.234359099899997 ], [ -115.1604837, 36.234359099899997 ], [ -115.1604837, 36.234323999899999 ], [ -115.160481, 36.234323999899999 ], [ -115.160481, 36.234310499899998 ], [ -115.1604837, 36.234310499899998 ], [ -115.1604837, 36.234299699899999 ], [ -115.160481, 36.234299699899999 ], [ -115.160481, 36.234278099900003 ], [ -115.1604837, 36.234278099900003 ], [ -115.1604837, 36.234272699900004 ], [ -115.1605053, 36.234272699900004 ], [ -115.1605053, 36.2342699999 ], [ -115.1605485, 36.2342699999 ], [ -115.1605485, 36.234272699900004 ], [ -115.1605539, 36.234272699900004 ], [ -115.1605539, 36.2342753999 ], [ -115.160562, 36.2342753999 ], [ -115.160562, 36.234278099900003 ], [ -115.1605647, 36.234278099900003 ], [ -115.1605647, 36.234283499900002 ], [ -115.1605674, 36.234283499900002 ], [ -115.1605674, 36.234286199899998 ], [ -115.1605701, 36.234286199899998 ], [ -115.1605701, 36.234299699899999 ], [ -115.1605755, 36.234299699899999 ], [ -115.1605755, 36.234302399900002 ], [ -115.16067, 36.234302399900002 ], [ -115.16067, 36.234305099899998 ], [ -115.1606889, 36.234305099899998 ], [ -115.1606889, 36.234302399900002 ], [ -115.1606916, 36.234302399900002 ], [ -115.1606916, 36.234305099899998 ], [ -115.1607159, 36.234305099899998 ], [ -115.1607159, 36.234307799900002 ], [ -115.1607213, 36.234307799900002 ], [ -115.1607213, 36.234310499899998 ], [ -115.160724, 36.234310499899998 ], [ -115.160724, 36.234359099899997 ], [ -115.1607213, 36.234359099899997 ], [ -115.1607213, 36.234372599899999 ], [ -115.160724, 36.234372599899999 ], [ -115.160724, 36.234413099900003 ], [ -115.1607024, 36.234413099900003 ], [ -115.1607024, 36.234415799899999 ], [ -115.1606997, 36.234415799899999 ], [ -115.1606997, 36.234413099900003 ], [ -115.1606808, 36.234413099900003 ], [ -115.1606808, 36.234415799899999 ], [ -115.1606754, 36.234415799899999 ], [ -115.1606754, 36.234418499900002 ], [ -115.1606079, 36.234418499900002 ], [ -115.1606079, 36.234421199899998 ], [ -115.1605323, 36.234421199899998 ], [ -115.1605323, 36.234423899900001 ] ] ] } },
{ "type": "Feature", "properties": { "value": 255.0 }, "geometry": { "type": "Polygon", "coordinates": [ [ [ -115.1601246, 36.234299699899999 ], [ -115.1601111, 36.234299699899999 ], [ -115.1601111, 36.234296999900003 ], [ -115.1601003, 36.234296999900003 ], [ -115.1601003, 36.234299699899999 ], [ -115.1600976, 36.234299699899999 ], [ -115.1600976, 36.234175499900005 ], [ -115.1601003, 36.234175499900005 ], [ -115.1601003, 36.234178199900001 ], [ -115.1601273, 36.234178199900001 ], [ -115.1601273, 36.234175499900005 ], [ -115.1601327, 36.234175499900005 ], [ -115.1601327, 36.234172799900001 ], [ -115.1601273, 36.234172799900001 ], [ -115.1601273, 36.234170099899998 ], [ -115.16013, 36.234170099899998 ], [ -115.16013, 36.2341592999 ], [ -115.1601327, 36.2341592999 ], [ -115.1601327, 36.234156599900004 ], [ -115.1601354, 36.234156599900004 ], [ -115.1601354, 36.234153899900001 ], [ -115.1601381, 36.234153899900001 ], [ -115.1601381, 36.234151199899998 ], [ -115.1601462, 36.234151199899998 ], [ -115.1601462, 36.234148499900002 ], [ -115.1601543, 36.234148499900002 ], [ -115.1601543, 36.234151199899998 ], [ -115.1601624, 36.234151199899998 ], [ -115.1601624, 36.234153899900001 ], [ -115.1601678, 36.234153899900001 ], [ -115.1601678, 36.234151199899998 ], [ -115.1601894, 36.234151199899998 ], [ -115.1601894, 36.234153899900001 ], [ -115.1601921, 36.234153899900001 ], [ -115.1601921, 36.2341592999 ], [ -115.1601948, 36.2341592999 ], [ -115.1601948, 36.234161999900003 ], [ -115.1601894, 36.234161999900003 ], [ -115.1601894, 36.234164699899999 ], [ -115.1601867, 36.234164699899999 ], [ -115.1601867, 36.234175499900005 ], [ -115.1601894, 36.234175499900005 ], [ -115.1601894, 36.234172799900001 ], [ -115.1601921, 36.234172799900001 ], [ -115.1601921, 36.234175499900005 ], [ -115.1601948, 36.234175499900005 ], [ -115.1601948, 36.234178199900001 ], [ -115.1601975, 36.234178199900001 ], [ -115.1601975, 36.2341835999 ], [ -115.1602002, 36.2341835999 ], [ -115.1602002, 36.234186299900003 ], [ -115.1602029, 36.234186299900003 ], [ -115.1602029, 36.234237599899998 ], [ -115.1602002, 36.234237599899998 ], [ -115.1602002, 36.234240299900002 ], [ -115.1601948, 36.234240299900002 ], [ -115.1601948, 36.234242999899998 ], [ -115.1601759, 36.234242999899998 ], [ -115.1601759, 36.234248399900004 ], [ -115.1601732, 36.234248399900004 ], [ -115.1601732, 36.234253799900003 ], [ -115.1601705, 36.234253799900003 ], [ -115.1601705, 36.234264599900001 ], [ -115.1601678, 36.234264599900001 ], [ -115.1601678, 36.234272699900004 ], [ -115.1601651, 36.234272699900004 ], [ -115.1601651, 36.2342753999 ], [ -115.1601624, 36.2342753999 ], [ -115.1601624, 36.234278099900003 ], [ -115.1601597, 36.234278099900003 ], [ -115.1601597, 36.234280799899999 ], [ -115.160157, 36.234280799899999 ], [ -115.160157, 36.234286199899998 ], [ -115.1601543, 36.234286199899998 ], [ -115.1601543, 36.2342942999 ], [ -115.1601489, 36.2342942999 ], [ -115.1601489, 36.234296999900003 ], [ -115.1601246, 36.234296999900003 ], [ -115.1601246, 36.234299699899999 ] ] ] } },
{ "type": "Feature", "properties": { "value": 255.0 }, "geometry": { "type": "Polygon", "coordinates": [ [ [ -115.1606754, 36.234256499899999 ], [ -115.1605539, 36.234256499899999 ], [ -115.1605539, 36.234253799900003 ], [ -115.1605512, 36.234253799900003 ], [ -115.1605512, 36.234248399900004 ], [ -115.1605485, 36.234248399900004 ], [ -115.1605485, 36.234242999899998 ], [ -115.1605458, 36.234242999899998 ], [ -115.1605458, 36.234240299900002 ], [ -115.1605431, 36.234240299900002 ], [ -115.1605431, 36.234237599899998 ], [ -115.1605404, 36.234237599899998 ], [ -115.1605404, 36.234234899900002 ], [ -115.160535, 36.234234899900002 ], [ -115.160535, 36.234232199899999 ], [ -115.1605323, 36.234232199899999 ], [ -115.1605323, 36.234224099900004 ], [ -115.160535, 36.234224099900004 ], [ -115.160535, 36.234215999900002 ], [ -115.1605377, 36.234215999900002 ], [ -115.1605377, 36.234210599900003 ], [ -115.160535, 36.234210599900003 ], [ -115.160535, 36.234205199900003 ], [ -115.1605296, 36.234205199900003 ], [ -115.1605296, 36.2342024999 ], [ -115.160508, 36.2342024999 ], [ -115.160508, 36.234199799900004 ], [ -115.1605053, 36.234199799900004 ], [ -115.1605053, 36.234191699900002 ], [ -115.1605026, 36.234191699900002 ], [ -115.1605026, 36.234129599900001 ], [ -115.1605053, 36.234129599900001 ], [ -115.1605053, 36.2341106999 ], [ -115.1605161, 36.2341106999 ], [ -115.1605161, 36.234107999900004 ], [ -115.1605269, 36.234107999900004 ], [ -115.1605269, 36.2341106999 ], [ -115.1605296, 36.2341106999 ], [ -115.1605296, 36.234107999900004 ], [ -115.1605377, 36.234107999900004 ], [ -115.1605377, 36.2341106999 ], [ -115.1605836, 36.2341106999 ], [ -115.1605836, 36.234113399900004 ], [ -115.1605863, 36.234113399900004 ], [ -115.1605863, 36.234132299900004 ], [ -115.160589, 36.234132299900004 ], [ -115.160589, 36.2341349999 ], [ -115.1605944, 36.2341349999 ], [ -115.1605944, 36.234137699900003 ], [ -115.1606376, 36.234137699900003 ], [ -115.1606376, 36.234140399899999 ], [ -115.1606727, 36.234140399899999 ], [ -115.1606727, 36.234143099900002 ], [ -115.1606808, 36.234143099900002 ], [ -115.1606808, 36.234148499900002 ], [ -115.1606835, 36.234148499900002 ], [ -115.1606835, 36.234164699899999 ], [ -115.1606808, 36.234164699899999 ], [ -115.1606808, 36.234172799900001 ], [ -115.1606835, 36.234172799900001 ], [ -115.1606835, 36.2342024999 ], [ -115.1606862, 36.2342024999 ], [ -115.1606862, 36.234242999899998 ], [ -115.1606835, 36.234242999899998 ], [ -115.1606835, 36.2342510999 ], [ -115.1606808, 36.2342510999 ], [ -115.1606808, 36.234253799900003 ], [ -115.1606754, 36.234253799900003 ], [ -115.1606754, 36.234256499899999 ] ] ] } },
{ "type": "Feature", "properties": { "value": 255.0 }, "geometry": { "type": "Polygon", "coordinates": [ [ [ -115.1610723, 36.234248399900004 ], [ -115.1610399, 36.234248399900004 ], [ -115.1610399, 36.234245699900001 ], [ -115.1610372, 36.234245699900001 ], [ -115.1610372, 36.234248399900004 ], [ -115.1610318, 36.234248399900004 ], [ -115.1610318, 36.234245699900001 ], [ -115.1610264, 36.234245699900001 ], [ -115.1610264, 36.234242999899998 ], [ -115.1610237, 36.234242999899998 ], [ -115.1610237, 36.234240299900002 ], [ -115.161021, 36.234240299900002 ], [ -115.161021, 36.234205199900003 ], [ -115.1610183, 36.234205199900003 ], [ -115.1610183, 36.234180899900004 ], [ -115.161021, 36.234180899900004 ], [ -115.161021, 36.234178199900001 ], [ -115.1610237, 36.234178199900001 ], [ -115.1610237, 36.234167399900002 ], [ -115.1610264, 36.234167399900002 ], [ -115.1610264, 36.234105299900001 ], [ -115.1610237, 36.234105299900001 ], [ -115.1610237, 36.234064799900004 ], [ -115.1610264, 36.234064799900004 ], [ -115.1610264, 36.234026999900003 ], [ -115.1610237, 36.234026999900003 ], [ -115.1610237, 36.234021599900004 ], [ -115.1610264, 36.234021599900004 ], [ -115.1610264, 36.234016199900005 ], [ -115.1610777, 36.234016199900005 ], [ -115.1610777, 36.234013499900001 ], [ -115.1610831, 36.234013499900001 ], [ -115.1610831, 36.234016199900005 ], [ -115.1611749, 36.234016199900005 ], [ -115.1611749, 36.234018899900001 ], [ -115.1612289, 36.234018899900001 ], [ -115.1612289, 36.234021599900004 ], [ -115.1612316, 36.234021599900004 ], [ -115.1612316, 36.234026999900003 ], [ -115.1612343, 36.234026999900003 ], [ -115.1612343, 36.2340431999 ], [ -115.1612316, 36.2340431999 ], [ -115.1612316, 36.234180899900004 ], [ -115.1612289, 36.234180899900004 ], [ -115.1612289, 36.234194399899998 ], [ -115.1612316, 36.234194399899998 ], [ -115.1612316, 36.234205199900003 ], [ -115.1612289, 36.234205199900003 ], [ -115.1612289, 36.234229499900003 ], [ -115.1612262, 36.234229499900003 ], [ -115.1612262, 36.234232199899999 ], [ -115.1612235, 36.234232199899999 ], [ -115.1612235, 36.234234899900002 ], [ -115.1612127, 36.234234899900002 ], [ -115.1612127, 36.234237599899998 ], [ -115.1611398, 36.234237599899998 ], [ -115.1611398, 36.234240299900002 ], [ -115.161102, 36.234240299900002 ], [ -115.161102, 36.234242999899998 ], [ -115.1610939, 36.234242999899998 ], [ -115.1610939, 36.234245699900001 ], [ -115.1610723, 36.234245699900001 ], [ -115.1610723, 36.234248399900004 ] ] ] } },
{ "type": "Feature", "properties": { "value": 255.0 }, "geometry": { "type": "Polygon", "coordinates": [ [ [ -115.161507, 36.234299699899999 ], [ -115.1614611, 36.234299699899999 ], [ -115.1614611, 36.234296999900003 ], [ -115.1614557, 36.234296999900003 ], [ -115.1614557, 36.2342942999 ], [ -115.1614449, 36.2342942999 ], [ -115.1614449, 36.234291599900004 ], [ -115.1614287, 36.234291599900004 ], [ -115.1614287, 36.234288899900001 ], [ -115.1614233, 36.234288899900001 ], [ -115.1614233, 36.234291599900004 ], [ -115.1613072, 36.234291599900004 ], [ -115.1613072, 36.234288899900001 ], [ -115.1613045, 36.234288899900001 ], [ -115.1613045, 36.234286199899998 ], [ -115.1613018, 36.234286199899998 ], [ -115.1613018, 36.234188999899999 ], [ -115.1613045, 36.234188999899999 ], [ -115.1613045, 36.2341835999 ], [ -115.1613018, 36.2341835999 ], [ -115.1613018, 36.234124199900002 ], [ -115.1612991, 36.234124199900002 ], [ -115.1612991, 36.234075599900002 ], [ -115.1612964, 36.234075599900002 ], [ -115.1612964, 36.2340431999 ], [ -115.1612937, 36.2340431999 ], [ -115.1612937, 36.234037799900001 ], [ -115.1612964, 36.234037799900001 ], [ -115.1612964, 36.234021599900004 ], [ -115.1612991, 36.234021599900004 ], [ -115.1612991, 36.234018899900001 ], [ -115.161318, 36.234018899900001 ], [ -115.161318, 36.234016199900005 ], [ -115.161345, 36.234016199900005 ], [ -115.161345, 36.234013499900001 ], [ -115.1613477, 36.234013499900001 ], [ -115.1613477, 36.234016199900005 ], [ -115.1613531, 36.234016199900005 ], [ -115.1613531, 36.234013499900001 ], [ -115.161399, 36.234013499900001 ], [ -115.161399, 36.234016199900005 ], [ -115.1614395, 36.234016199900005 ], [ -115.1614395, 36.234013499900001 ], [ -115.1614584, 36.234013499900001 ], [ -115.1614584, 36.234016199900005 ], [ -115.1615016, 36.234016199900005 ], [ -115.1615016, 36.234018899900001 ], [ -115.1615043, 36.234018899900001 ], [ -115.1615043, 36.234016199900005 ], [ -115.1615124, 36.234016199900005 ], [ -115.1615124, 36.234018899900001 ], [ -115.1615205, 36.234018899900001 ], [ -115.1615205, 36.234021599900004 ], [ -115.1615259, 36.234021599900004 ], [ -115.1615259, 36.234026999900003 ], [ -115.1615205, 36.234026999900003 ], [ -115.1615205, 36.234029699899999 ], [ -115.1615178, 36.234029699899999 ], [ -115.1615178, 36.2340431999 ], [ -115.1615151, 36.2340431999 ], [ -115.1615151, 36.234056699900002 ], [ -115.1615124, 36.234056699900002 ], [ -115.1615124, 36.234064799900004 ], [ -115.1615097, 36.234064799900004 ], [ -115.1615097, 36.2341160999 ], [ -115.161507, 36.2341160999 ], [ -115.161507, 36.234124199900002 ], [ -115.1615097, 36.234124199900002 ], [ -115.1615097, 36.234224099900004 ], [ -115.1615124, 36.234224099900004 ], [ -115.1615124, 36.234229499900003 ], [ -115.1615151, 36.234229499900003 ], [ -115.1615151, 36.234242999899998 ], [ -115.1615178, 36.234242999899998 ], [ -115.1615178, 36.234245699900001 ], [ -115.1615205, 36.234245699900001 ], [ -115.1615205, 36.2342510999 ], [ -115.1615232, 36.2342510999 ], [ -115.1615232, 36.234280799899999 ], [ -115.1615259, 36.234280799899999 ], [ -115.1615259, 36.234283499900002 ], [ -115.1615232, 36.234283499900002 ], [ -115.1615232, 36.234286199899998 ], [ -115.1615205, 36.234286199899998 ], [ -115.1615205, 36.234288899900001 ], [ -115.1615178, 36.234288899900001 ], [ -115.1615178, 36.234291599900004 ], [ -115.1615151, 36.234291599900004 ], [ -115.1615151, 36.2342942999 ], [ -115.1615124, 36.2342942999 ], [ -115.1615124, 36.234296999900003 ], [ -115.161507, 36.234296999900003 ], [ -115.161507, 36.234299699899999 ] ] ] } },
{ "type": "Feature", "properties": { "value": 255.0 }, "geometry": { "type": "Polygon", "coordinates": [ [ [ -115.1602164, 36.234105299900001 ], [ -115.1600976, 36.234105299900001 ], [ -115.1600976, 36.233989199900002 ], [ -115.1601408, 36.233989199900002 ], [ -115.1601408, 36.233991899900005 ], [ -115.160184, 36.233991899900005 ], [ -115.160184, 36.233989199900002 ], [ -115.1601867, 36.233989199900002 ], [ -115.1601867, 36.233991899900005 ], [ -115.1601894, 36.233991899900005 ], [ -115.1601894, 36.233994599900001 ], [ -115.1601921, 36.233994599900001 ], [ -115.1601921, 36.234016199900005 ], [ -115.1601894, 36.234016199900005 ], [ -115.1601894, 36.234032399900002 ], [ -115.1601921, 36.234032399900002 ], [ -115.1601921, 36.234037799900001 ], [ -115.1601948, 36.234037799900001 ], [ -115.1601948, 36.234040499900004 ], [ -115.1602002, 36.234040499900004 ], [ -115.1602002, 36.2340431999 ], [ -115.1602137, 36.2340431999 ], [ -115.1602137, 36.234045899900003 ], [ -115.1602164, 36.234045899900003 ], [ -115.1602164, 36.234053999899999 ], [ -115.1602191, 36.234053999899999 ], [ -115.1602191, 36.234099899900002 ], [ -115.1602164, 36.234099899900002 ], [ -115.1602164, 36.234105299900001 ] ] ] } },
{ "type": "Feature", "properties": { "value": 255.0 }, "geometry": { "type": "Polygon", "coordinates": [ [ [ -115.1609049, 36.234248399900004 ], [ -115.1608536, 36.234248399900004 ], [ -115.1608536, 36.234245699900001 ], [ -115.1608482, 36.234245699900001 ], [ -115.1608482, 36.234210599900003 ], [ -115.1608455, 36.234210599900003 ], [ -115.1608455, 36.234153899900001 ], [ -115.1608482, 36.234153899900001 ], [ -115.1608482, 36.234148499900002 ], [ -115.1608455, 36.234148499900002 ], [ -115.1608455, 36.234145799899999 ], [ -115.1608482, 36.234145799899999 ], [ -115.1608482, 36.234113399900004 ], [ -115.1608455, 36.234113399900004 ], [ -115.1608455, 36.234048599899999 ], [ -115.1608482, 36.234048599899999 ], [ -115.1608482, 36.234045899900003 ], [ -115.1608455, 36.234045899900003 ], [ -115.1608455, 36.234037799900001 ], [ -115.1608482, 36.234037799900001 ], [ -115.1608482, 36.233991899900005 ], [ -115.1608509, 36.233991899900005 ], [ -115.1608509, 36.2339756999 ], [ -115.1608995, 36.2339756999 ], [ -115.1608995, 36.233978399900003 ], [ -115.1609076, 36.233978399900003 ], [ -115.1609076, 36.233983799900003 ], [ -115.1609103, 36.233983799900003 ], [ -115.1609103, 36.2339999999 ], [ -115.1609076, 36.2339999999 ], [ -115.1609076, 36.234242999899998 ], [ -115.1609049, 36.234242999899998 ], [ -115.1609049, 36.234248399900004 ] ] ] } },
{ "type": "Feature", "properties": { "value": 255.0 }, "geometry": { "type": "Polygon", "coordinates": [ [ [ -115.1605647, 36.234086399900001 ], [ -115.1605242, 36.234086399900001 ], [ -115.1605242, 36.234083699900005 ], [ -115.1605188, 36.234083699900005 ], [ -115.1605188, 36.234078299899998 ], [ -115.1605161, 36.234078299899998 ], [ -115.1605161, 36.234056699900002 ], [ -115.1605134, 36.234056699900002 ], [ -115.1605134, 36.234010799899998 ], [ -115.1605107, 36.234010799899998 ], [ -115.1605107, 36.2339999999 ], [ -115.1605134, 36.2339999999 ], [ -115.1605134, 36.233997299900004 ], [ -115.1605188, 36.233997299900004 ], [ -115.1605188, 36.233994599900001 ], [ -115.1605296, 36.233994599900001 ], [ -115.1605296, 36.233991899900005 ], [ -115.1605377, 36.233991899900005 ], [ -115.1605377, 36.233989199900002 ], [ -115.1605431, 36.233989199900002 ], [ -115.1605431, 36.233983799900003 ], [ -115.1605458, 36.233983799900003 ], [ -115.1605458, 36.233978399900003 ], [ -115.1605431, 36.233978399900003 ], [ -115.1605431, 36.233972999900004 ], [ -115.1605404, 36.233972999900004 ], [ -115.1605404, 36.233970299900001 ], [ -115.1605296, 36.233970299900001 ], [ -115.1605296, 36.233967599900005 ], [ -115.1605269, 36.233967599900005 ], [ -115.1605269, 36.233962199899999 ], [ -115.1605296, 36.233962199899999 ], [ -115.1605296, 36.233954099900004 ], [ -115.1605323, 36.233954099900004 ], [ -115.1605323, 36.233945999900001 ], [ -115.1606349, 36.233945999900001 ], [ -115.1606349, 36.233948699900004 ], [ -115.160697, 36.233948699900004 ], [ -115.160697, 36.2339513999 ], [ -115.1607051, 36.2339513999 ], [ -115.1607051, 36.233954099900004 ], [ -115.1607078, 36.233954099900004 ], [ -115.1607078, 36.233959499900003 ], [ -115.1607105, 36.233959499900003 ], [ -115.1607105, 36.233962199899999 ], [ -115.1607078, 36.233962199899999 ], [ -115.1607078, 36.233970299900001 ], [ -115.1607105, 36.233970299900001 ], [ -115.1607105, 36.233978399900003 ], [ -115.1607186, 36.233978399900003 ], [ -115.1607186, 36.233983799900003 ], [ -115.1607213, 36.233983799900003 ], [ -115.1607213, 36.233986499899999 ], [ -115.160724, 36.233986499899999 ], [ -115.160724, 36.233989199900002 ], [ -115.1607186, 36.233989199900002 ], [ -115.1607186, 36.233994599900001 ], [ -115.1607105, 36.233994599900001 ], [ -115.1607105, 36.234005399899999 ], [ -115.1607132, 36.234005399899999 ], [ -115.1607132, 36.234008099900002 ], [ -115.1607159, 36.234008099900002 ], [ -115.1607159, 36.234010799899998 ], [ -115.1607186, 36.234010799899998 ], [ -115.1607186, 36.234013499900001 ], [ -115.1607213, 36.234013499900001 ], [ -115.1607213, 36.234016199900005 ], [ -115.1607267, 36.234016199900005 ], [ -115.1607267, 36.234018899900001 ], [ -115.1607294, 36.234018899900001 ], [ -115.1607294, 36.234021599900004 ], [ -115.1607321, 36.234021599900004 ], [ -115.1607321, 36.234029699899999 ], [ -115.1607348, 36.234029699899999 ], [ -115.1607348, 36.234056699900002 ], [ -115.1607321, 36.234056699900002 ], [ -115.1607321, 36.234062099900001 ], [ -115.1607294, 36.234062099900001 ], [ -115.1607294, 36.234064799900004 ], [ -115.1606052, 36.234064799900004 ], [ -115.1606052, 36.2340674999 ], [ -115.1605863, 36.2340674999 ], [ -115.1605863, 36.234072899899999 ], [ -115.1605836, 36.234072899899999 ], [ -115.1605836, 36.234075599900002 ], [ -115.1605782, 36.234075599900002 ], [ -115.1605782, 36.234080999900002 ], [ -115.1605755, 36.234080999900002 ], [ -115.1605755, 36.234083699900005 ], [ -115.1605647, 36.234083699900005 ], [ -115.1605647, 36.234086399900001 ] ] ] } },
{ "type": "Feature", "properties": { "value": 255.0 }, "geometry": { "type": "Polygon", "coordinates": [ [ [ -115.1601705, 36.2339567999 ], [ -115.1601651, 36.2339567999 ], [ -115.1601651, 36.233954099900004 ], [ -115.1601273, 36.233954099900004 ], [ -115.1601273, 36.2339567999 ], [ -115.1601111, 36.2339567999 ], [ -115.1601111, 36.233954099900004 ], [ -115.1600976, 36.233954099900004 ], [ -115.1600976, 36.233832599900005 ], [ -115.1601084, 36.233832599900005 ], [ -115.1601084, 36.233835299900001 ], [ -115.1601435, 36.233835299900001 ], [ -115.1601435, 36.233829899900002 ], [ -115.1601462, 36.233829899900002 ], [ -115.1601462, 36.233810999900001 ], [ -115.1601489, 36.233810999900001 ], [ -115.1601489, 36.233808299900005 ], [ -115.1601975, 36.233808299900005 ], [ -115.1601975, 36.233805599900002 ], [ -115.1602029, 36.233805599900002 ], [ -115.1602029, 36.233808299900005 ], [ -115.1602218, 36.233808299900005 ], [ -115.1602218, 36.233813699900004 ], [ -115.1602245, 36.233813699900004 ], [ -115.1602245, 36.233835299900001 ], [ -115.1602272, 36.233835299900001 ], [ -115.1602272, 36.2338406999 ], [ -115.1602299, 36.2338406999 ], [ -115.1602299, 36.233891999900003 ], [ -115.1602272, 36.233891999900003 ], [ -115.1602272, 36.233897399900002 ], [ -115.1602218, 36.233897399900002 ], [ -115.1602218, 36.233900099900005 ], [ -115.1602056, 36.233900099900005 ], [ -115.1602056, 36.233902799900001 ], [ -115.1602029, 36.233902799900001 ], [ -115.1602029, 36.233948699900004 ], [ -115.1602002, 36.233948699900004 ], [ -115.1602002, 36.233954099900004 ], [ -115.1601705, 36.233954099900004 ], [ -115.1601705, 36.2339567999 ] ] ] } },
{ "type": "Feature", "properties": { "value": 255.0 }, "geometry": { "type": "Polygon", "coordinates": [ [ [ -115.160535, 36.233894699899999 ], [ -115.1605134, 36.233894699899999 ], [ -115.1605134, 36.233891999900003 ], [ -115.1605053, 36.233891999900003 ], [ -115.1605053, 36.2338892999 ], [ -115.1605026, 36.2338892999 ], [ -115.1605026, 36.233856899900005 ], [ -115.1605053, 36.233856899900005 ], [ -115.1605053, 36.233854199900001 ], [ -115.160508, 36.233854199900001 ], [ -115.160508, 36.233851499899998 ], [ -115.1605107, 36.233851499899998 ], [ -115.1605107, 36.233848799900002 ], [ -115.1605134, 36.233848799900002 ], [ -115.1605134, 36.233837999900004 ], [ -115.1605161, 36.233837999900004 ], [ -115.1605161, 36.233813699900004 ], [ -115.1605134, 36.233813699900004 ], [ -115.1605134, 36.233805599900002 ], [ -115.1605161, 36.233805599900002 ], [ -115.1605161, 36.233786699900001 ], [ -115.1605188, 36.233786699900001 ], [ -115.1605188, 36.233778599899999 ], [ -115.1605431, 36.233778599899999 ], [ -115.1605431, 36.233775899900003 ], [ -115.1607051, 36.233775899900003 ], [ -115.1607051, 36.233778599899999 ], [ -115.1607213, 36.233778599899999 ], [ -115.1607213, 36.233783999900005 ], [ -115.160724, 36.233783999900005 ], [ -115.160724, 36.233789399900004 ], [ -115.1607267, 36.233789399900004 ], [ -115.1607267, 36.233808299900005 ], [ -115.1607294, 36.233808299900005 ], [ -115.1607294, 36.233827199899999 ], [ -115.1607321, 36.233827199899999 ], [ -115.1607321, 36.233829899900002 ], [ -115.1607294, 36.233829899900002 ], [ -115.1607294, 36.233837999900004 ], [ -115.1607321, 36.233837999900004 ], [ -115.1607321, 36.233848799900002 ], [ -115.1607294, 36.233848799900002 ], [ -115.1607294, 36.233875799900005 ], [ -115.1607267, 36.233875799900005 ], [ -115.1607267, 36.2338838999 ], [ -115.160724, 36.2338838999 ], [ -115.160724, 36.2338892999 ], [ -115.1607213, 36.2338892999 ], [ -115.1607213, 36.233891999900003 ], [ -115.160535, 36.233891999900003 ], [ -115.160535, 36.233894699899999 ] ] ] } },
{ "type": "Feature", "properties": { "value": 255.0 }, "geometry": { "type": "Polygon", "coordinates": [ [ [ -115.1602218, 36.233781299900002 ], [ -115.1601894, 36.233781299900002 ], [ -115.1601894, 36.233778599899999 ], [ -115.160184, 36.233778599899999 ], [ -115.160184, 36.233775899900003 ], [ -115.1601786, 36.233775899900003 ], [ -115.1601786, 36.233770499900004 ], [ -115.1601759, 36.233770499900004 ], [ -115.1601759, 36.233767799900001 ], [ -115.1601732, 36.233767799900001 ], [ -115.1601732, 36.233765099900005 ], [ -115.1601705, 36.233765099900005 ], [ -115.1601705, 36.233762399900002 ], [ -115.1600976, 36.233762399900002 ], [ -115.1600976, 36.233643599899999 ], [ -115.1601111, 36.233643599899999 ], [ -115.1601111, 36.233646299900002 ], [ -115.1601138, 36.233646299900002 ], [ -115.1601138, 36.233643599899999 ], [ -115.1602083, 36.233643599899999 ], [ -115.1602083, 36.233646299900002 ], [ -115.160211, 36.233646299900002 ], [ -115.160211, 36.233662499899999 ], [ -115.1602083, 36.233662499899999 ], [ -115.1602083, 36.233667899900006 ], [ -115.1602056, 36.233667899900006 ], [ -115.1602056, 36.233675999900001 ], [ -115.1602029, 36.233675999900001 ], [ -115.1602029, 36.233678699900004 ], [ -115.1602056, 36.233678699900004 ], [ -115.1602056, 36.2336813999 ], [ -115.1602083, 36.2336813999 ], [ -115.1602083, 36.233684099900003 ], [ -115.1602137, 36.233684099900003 ], [ -115.1602137, 36.233686799899999 ], [ -115.1602218, 36.233686799899999 ], [ -115.1602218, 36.233689499900002 ], [ -115.1602245, 36.233689499900002 ], [ -115.1602245, 36.233692199900005 ], [ -115.1602272, 36.233692199900005 ], [ -115.1602272, 36.233694899900001 ], [ -115.1602299, 36.233694899900001 ], [ -115.1602299, 36.2337488999 ], [ -115.1602272, 36.2337488999 ], [ -115.1602272, 36.233762399900002 ], [ -115.1602245, 36.233762399900002 ], [ -115.1602245, 36.2337731999 ], [ -115.1602272, 36.2337731999 ], [ -115.1602272, 36.233775899900003 ], [ -115.1602245, 36.233775899900003 ], [ -115.1602245, 36.233778599899999 ], [ -115.1602218, 36.233778599899999 ], [ -115.1602218, 36.233781299900002 ] ] ] } },
{ "type": "Feature", "properties": { "value": 255.0 }, "geometry": { "type": "Polygon", "coordinates": [ [ [ -115.1605485, 36.233738099900002 ], [ -115.1605431, 36.233738099900002 ], [ -115.1605431, 36.233735399899999 ], [ -115.1605269, 36.233735399899999 ], [ -115.1605269, 36.233732699900003 ], [ -115.1605215, 36.233732699900003 ], [ -115.1605215, 36.233697599900005 ], [ -115.1605188, 36.233697599900005 ], [ -115.1605188, 36.233689499900002 ], [ -115.1605161, 36.233689499900002 ], [ -115.1605161, 36.233678699900004 ], [ -115.1605134, 36.233678699900004 ], [ -115.1605134, 36.233665199900003 ], [ -115.1605107, 36.233665199900003 ], [ -115.1605107, 36.233659799900003 ], [ -115.160508, 36.233659799900003 ], [ -115.160508, 36.233651699900001 ], [ -115.1605053, 36.233651699900001 ], [ -115.1605053, 36.233646299900002 ], [ -115.1605026, 36.233646299900002 ], [ -115.1605026, 36.233640899900003 ], [ -115.1605053, 36.233640899900003 ], [ -115.1605053, 36.233630099900004 ], [ -115.1605026, 36.233630099900004 ], [ -115.1605026, 36.233624699900005 ], [ -115.1605053, 36.233624699900005 ], [ -115.1605053, 36.233621999900002 ], [ -115.1605134, 36.233621999900002 ], [ -115.1605134, 36.233619299899999 ], [ -115.160589, 36.233619299899999 ], [ -115.160589, 36.233616599900003 ], [ -115.1606241, 36.233616599900003 ], [ -115.1606241, 36.233619299899999 ], [ -115.1607159, 36.233619299899999 ], [ -115.1607159, 36.233621999900002 ], [ -115.1607213, 36.233621999900002 ], [ -115.1607213, 36.233646299900002 ], [ -115.160724, 36.233646299900002 ], [ -115.160724, 36.233732699900003 ], [ -115.1607213, 36.233732699900003 ], [ -115.1607213, 36.233735399899999 ], [ -115.1605485, 36.233735399899999 ], [ -115.1605485, 36.233738099900002 ] ] ] } },
{ "type": "Feature", "properties": { "value": 255.0 }, "geometry": { "type": "Polygon", "coordinates": [ [ [ -115.1609022, 36.233800199900003 ], [ -115.1608536, 36.233800199900003 ], [ -115.1608536, 36.2337974999 ], [ -115.1608482, 36.2337974999 ], [ -115.1608482, 36.233659799900003 ], [ -115.1608509, 36.233659799900003 ], [ -115.1608509, 36.233597699900002 ], [ -115.1609076, 36.233597699900002 ], [ -115.1609076, 36.2337974999 ], [ -115.1609022, 36.2337974999 ], [ -115.1609022, 36.233800199900003 ] ] ] } },
{ "type": "Feature", "properties": { "value": 255.0 }, "geometry": { "type": "Polygon", "coordinates": [ [ [ -115.1611587, 36.233789399900004 ], [ -115.1610318, 36.233789399900004 ], [ -115.1610318, 36.233786699900001 ], [ -115.1610291, 36.233786699900001 ], [ -115.1610291, 36.233778599899999 ], [ -115.1610264, 36.233778599899999 ], [ -115.1610264, 36.233727299900004 ], [ -115.1610291, 36.233727299900004 ], [ -115.1610291, 36.2336381999 ], [ -115.1610264, 36.2336381999 ], [ -115.1610264, 36.233621999900002 ], [ -115.1610291, 36.233621999900002 ], [ -115.1610291, 36.233597699900002 ], [ -115.161237, 36.233597699900002 ], [ -115.161237, 36.233616599900003 ], [ -115.1612397, 36.233616599900003 ], [ -115.1612397, 36.233654399900004 ], [ -115.161237, 36.233654399900004 ], [ -115.161237, 36.233678699900004 ], [ -115.1612343, 36.233678699900004 ], [ -115.1612343, 36.233783999900005 ], [ -115.1612235, 36.233783999900005 ], [ -115.1612235, 36.233786699900001 ], [ -115.1611587, 36.233786699900001 ], [ -115.1611587, 36.233789399900004 ] ] ] } },
{ "type": "Feature", "properties": { "value": 255.0 }, "geometry": { "type": "Polygon", "coordinates": [ [ [ -115.1613855, 36.233789399900004 ], [ -115.1613234, 36.233789399900004 ], [ -115.1613234, 36.233786699900001 ], [ -115.1613207, 36.233786699900001 ], [ -115.1613207, 36.233783999900005 ], [ -115.161318, 36.233783999900005 ], [ -115.161318, 36.233775899900003 ], [ -115.1613153, 36.233775899900003 ], [ -115.1613153, 36.233700299900001 ], [ -115.161318, 36.233700299900001 ], [ -115.161318, 36.233692199900005 ], [ -115.1613153, 36.233692199900005 ], [ -115.1613153, 36.233670599900002 ], [ -115.1613126, 36.233670599900002 ], [ -115.1613126, 36.233646299900002 ], [ -115.1613153, 36.233646299900002 ], [ -115.1613153, 36.233608499900001 ], [ -115.1613126, 36.233608499900001 ], [ -115.1613126, 36.233600399900006 ], [ -115.1613153, 36.233600399900006 ], [ -115.1613153, 36.233597699900002 ], [ -115.1615448, 36.233597699900002 ], [ -115.1615448, 36.233608499900001 ], [ -115.1615421, 36.233608499900001 ], [ -115.1615421, 36.2336138999 ], [ -115.1615394, 36.2336138999 ], [ -115.1615394, 36.233619299899999 ], [ -115.1615367, 36.233619299899999 ], [ -115.1615367, 36.233630099900004 ], [ -115.161534, 36.233630099900004 ], [ -115.161534, 36.2336381999 ], [ -115.1615286, 36.2336381999 ], [ -115.1615286, 36.233640899900003 ], [ -115.1615259, 36.233640899900003 ], [ -115.1615259, 36.233643599899999 ], [ -115.1615205, 36.233643599899999 ], [ -115.1615205, 36.233648999900005 ], [ -115.1615313, 36.233648999900005 ], [ -115.1615313, 36.233654399900004 ], [ -115.1615286, 36.233654399900004 ], [ -115.1615286, 36.233659799900003 ], [ -115.1615259, 36.233659799900003 ], [ -115.1615259, 36.233662499899999 ], [ -115.1615232, 36.233662499899999 ], [ -115.1615232, 36.233673299900005 ], [ -115.1615205, 36.233673299900005 ], [ -115.1615205, 36.233697599900005 ], [ -115.1615232, 36.233697599900005 ], [ -115.1615232, 36.233735399899999 ], [ -115.1615205, 36.233735399899999 ], [ -115.1615205, 36.2337731999 ], [ -115.1615178, 36.2337731999 ], [ -115.1615178, 36.233781299900002 ], [ -115.1615151, 36.233781299900002 ], [ -115.1615151, 36.233783999900005 ], [ -115.1615097, 36.233783999900005 ], [ -115.1615097, 36.233786699900001 ], [ -115.1613855, 36.233786699900001 ], [ -115.1613855, 36.233789399900004 ] ] ] } },
{ "type": "Feature", "properties": { "value": 255.0 }, "geometry": { "type": "Polygon", "coordinates": [ [ [ -115.1602002, 36.233605799900005 ], [ -115.1601489, 36.233605799900005 ], [ -115.1601489, 36.233603099900002 ], [ -115.1601354, 36.233603099900002 ], [ -115.1601354, 36.233605799900005 ], [ -115.1600976, 36.233605799900005 ], [ -115.1600976, 36.233597699900002 ], [ -115.1602083, 36.233597699900002 ], [ -115.1602083, 36.233600399900006 ], [ -115.1602056, 36.233600399900006 ], [ -115.1602056, 36.233603099900002 ], [ -115.1602002, 36.233603099900002 ], [ -115.1602002, 36.233605799900005 ] ] ] } }
]
}
