{
"type": "FeatureCollection",
"crs": { "type": "name", "properties": { "name": "urn:ogc:def:crs:OGC:1.3:CRS84" } },
"features": [
{ "type": "Feature", "properties": { "value": 255.0 }, "geometry": { "type": "Polygon", "coordinates": [ [ [ -115.1763516, 36.2409525 ], [ -115.1762868, 36.2409525 ], [ -115.1762868, 36.2409498 ], [ -115.1762814, 36.2409498 ], [ -115.1762814, 36.2409471 ], [ -115.1762787, 36.2409471 ], [ -115.1762787, 36.2409444 ], [ -115.1762733, 36.2409444 ], [ -115.1762733, 36.2409417 ], [ -115.1762706, 36.2409417 ], [ -115.1762706, 36.240939 ], [ -115.1762652, 36.240939 ], [ -115.1762652, 36.2409336 ], [ -115.1762625, 36.2409336 ], [ -115.1762625, 36.2409309 ], [ -115.1762598, 36.2409309 ], [ -115.1762598, 36.2409282 ], [ -115.1762571, 36.2409282 ], [ -115.1762571, 36.2409228 ], [ -115.1762544, 36.2409228 ], [ -115.1762544, 36.2408634 ], [ -115.1762517, 36.2408634 ], [ -115.1762517, 36.2408013 ], [ -115.176249, 36.2408013 ], [ -115.176249, 36.24075 ], [ -115.1762517, 36.24075 ], [ -115.1762517, 36.2407122 ], [ -115.1762544, 36.2407122 ], [ -115.1762544, 36.2406825 ], [ -115.1762571, 36.2406825 ], [ -115.1762571, 36.2406663 ], [ -115.1762598, 36.2406663 ], [ -115.1762598, 36.2406258 ], [ -115.1762571, 36.2406258 ], [ -115.1762571, 36.2406177 ], [ -115.1763813, 36.2406177 ], [ -115.1763813, 36.2406906 ], [ -115.1763786, 36.2406906 ], [ -115.1763786, 36.2408148 ], [ -115.1763759, 36.2408148 ], [ -115.1763759, 36.2408445 ], [ -115.1763732, 36.2408445 ], [ -115.1763732, 36.2408472 ], [ -115.1763705, 36.2408472 ], [ -115.1763705, 36.2408499 ], [ -115.1763678, 36.2408499 ], [ -115.1763678, 36.240858 ], [ -115.1763651, 36.240858 ], [ -115.1763651, 36.2409417 ], [ -115.1763624, 36.2409417 ], [ -115.1763624, 36.2409444 ], [ -115.1763597, 36.2409444 ], [ -115.1763597, 36.2409471 ], [ -115.176357, 36.2409471 ], [ -115.176357, 36.2409498 ], [ -115.1763516, 36.2409498 ], [ -115.1763516, 36.2409525 ] ] ] } },
{ "type": "Feature", "properties": { "value": 255.0 }, "geometry": { "type": "Polygon", "coordinates": [ [ [ -115.1761383, 36.2409579 ], [ -115.1760789, 36.2409579 ], [ -115.1760789, 36.2409552 ], [ -115.1760735, 36.2409552 ], [ -115.1760735, 36.2409579 ], [ -115.1760627, 36.2409579 ], [ -115.1760627, 36.2409552 ], [ -115.1759223, 36.2409552 ], [ -115.1759223, 36.2409579 ], [ -115.1758926, 36.2409579 ], [ -115.1758926, 36.2406177 ], [ -115.1761734, 36.2406177 ], [ -115.1761734, 36.2406798 ], [ -115.1761707, 36.2406798 ], [ -115.1761707, 36.2407311 ], [ -115.176168, 36.2407311 ], [ -115.176168, 36.2409363 ], [ -115.1761653, 36.2409363 ], [ -115.1761653, 36.240939 ], [ -115.1761626, 36.240939 ], [ -115.1761626, 36.2409417 ], [ -115.1761599, 36.2409417 ], [ -115.1761599, 36.2409444 ], [ -115.1761572, 36.2409444 ], [ -115.1761572, 36.2409471 ], [ -115.1761518, 36.2409471 ], [ -115.1761518, 36.2409498 ], [ -115.1761491, 36.2409498 ], [ -115.1761491, 36.2409525 ], [ -115.1761437, 36.2409525 ], [ -115.1761437, 36.2409552 ], [ -115.1761383, 36.2409552 ], [ -115.1761383, 36.2409579 ] ] ] } },
{ "type": "Feature", "properties": { "value": 255.0 }, "geometry": { "type": "Polygon", "coordinates": [ [ [ -115.1765514, 36.2409552 ], [ -115.1765055, 36.2409552 ], [ -115.1765055, 36.2409525 ], [ -115.176492, 36.2409525 ], [ -115.176492, 36.2409498 ], [ -115.1764893, 36.2409498 ], [ -115.1764893, 36.2409471 ], [ -115.1764839, 36.2409471 ], [ -115.1764839, 36.2409444 ], [ -115.1764812, 36.2409444 ], [ -115.1764812, 36.2409417 ], [ -115.1764785, 36.2409417 ], [ -115.1764785, 36.240939 ], [ -115.1764731, 36.240939 ], [ -115.1764731, 36.2409363 ], [ -115.1764704, 36.2409363 ], [ -115.1764704, 36.2409336 ], [ -115.1764677, 36.2409336 ], [ -115.1764677, 36.2409309 ], [ -115.176465, 36.2409309 ], [ -115.176465, 36.2409282 ], [ -115.1764623, 36.2409282 ], [ -115.1764623, 36.2408688 ], [ -115.1764596, 36.2408688 ], [ -115.1764596, 36.2408364 ], [ -115.1764623, 36.2408364 ], [ -115.1764623, 36.2407635 ], [ -115.176465, 36.2407635 ], [ -115.176465, 36.2407311 ], [ -115.1764623, 36.2407311 ], [ -115.1764623, 36.2406474 ], [ -115.1764596, 36.2406474 ], [ -115.1764596, 36.2406177 ], [ -115.1765892, 36.2406177 ], [ -115.1765892, 36.2406717 ], [ -115.1765865, 36.2406717 ], [ -115.1765865, 36.2407581 ], [ -115.1765838, 36.2407581 ], [ -115.1765838, 36.240777 ], [ -115.1765865, 36.240777 ], [ -115.1765865, 36.2408067 ], [ -115.1765838, 36.2408067 ], [ -115.1765838, 36.2408958 ], [ -115.1765811, 36.2408958 ], [ -115.1765811, 36.2409012 ], [ -115.1765838, 36.2409012 ], [ -115.1765838, 36.2409228 ], [ -115.1765811, 36.2409228 ], [ -115.1765811, 36.2409336 ], [ -115.1765784, 36.2409336 ], [ -115.1765784, 36.2409363 ], [ -115.1765757, 36.2409363 ], [ -115.1765757, 36.240939 ], [ -115.176573, 36.240939 ], [ -115.176573, 36.2409417 ], [ -115.1765703, 36.2409417 ], [ -115.1765703, 36.2409444 ], [ -115.1765649, 36.2409444 ], [ -115.1765649, 36.2409471 ], [ -115.1765622, 36.2409471 ], [ -115.1765622, 36.2409498 ], [ -115.1765595, 36.2409498 ], [ -115.1765595, 36.2409525 ], [ -115.1765514, 36.2409525 ], [ -115.1765514, 36.2409552 ] ] ] } },
{ "type": "Feature", "properties": { "value": 255.0 }, "geometry": { "type": "Polygon", "coordinates": [ [ [ -115.1758953, 36.2411199 ], [ -115.1758926, 36.2411199 ], [ -115.1758926, 36.2410308 ], [ -115.1759007, 36.2410308 ], [ -115.1759007, 36.2410335 ], [ -115.1759196, 36.2410335 ], [ -115.1759196, 36.2410308 ], [ -115.1759277, 36.2410308 ], [ -115.1759277, 36.2410335 ], [ -115.1759763, 36.2410335 ], [ -115.1759763, 36.2410308 ], [ -115.1759898, 36.2410308 ], [ -115.1759898, 36.2410335 ], [ -115.1761383, 36.2410335 ], [ -115.1761383, 36.2410308 ], [ -115.1761734, 36.2410308 ], [ -115.1761734, 36.2410281 ], [ -115.1762652, 36.2410281 ], [ -115.1762652, 36.2410308 ], [ -115.1763489, 36.2410308 ], [ -115.1763489, 36.2410281 ], [ -115.1763786, 36.2410281 ], [ -115.1763786, 36.2410308 ], [ -115.1765028, 36.2410308 ], [ -115.1765028, 36.2410281 ], [ -115.1765244, 36.2410281 ], [ -115.1765244, 36.2410254 ], [ -115.1765703, 36.2410254 ], [ -115.1765703, 36.2410227 ], [ -115.1766054, 36.2410227 ], [ -115.1766054, 36.2410254 ], [ -115.1766162, 36.2410254 ], [ -115.1766162, 36.2410281 ], [ -115.1766405, 36.2410281 ], [ -115.1766405, 36.2410254 ], [ -115.176654, 36.2410254 ], [ -115.176654, 36.2410227 ], [ -115.1766594, 36.2410227 ], [ -115.1766594, 36.2410173 ], [ -115.1766621, 36.2410173 ], [ -115.1766621, 36.2410065 ], [ -115.1766648, 36.2410065 ], [ -115.1766648, 36.2409903 ], [ -115.1766702, 36.2409903 ], [ -115.1766702, 36.2409741 ], [ -115.1766675, 36.2409741 ], [ -115.1766675, 36.2409444 ], [ -115.1766648, 36.2409444 ], [ -115.1766648, 36.2409012 ], [ -115.1766675, 36.2409012 ], [ -115.1766675, 36.2408769 ], [ -115.1766702, 36.2408769 ], [ -115.1766702, 36.2408634 ], [ -115.1766729, 36.2408634 ], [ -115.1766729, 36.2408445 ], [ -115.1766702, 36.2408445 ], [ -115.1766702, 36.2408283 ], [ -115.1766729, 36.2408283 ], [ -115.1766729, 36.2407689 ], [ -115.1766702, 36.2407689 ], [ -115.1766702, 36.2407527 ], [ -115.1766729, 36.2407527 ], [ -115.1766729, 36.2407338 ], [ -115.1766756, 36.2407338 ], [ -115.1766756, 36.2407149 ], [ -115.1766729, 36.2407149 ], [ -115.1766729, 36.2407014 ], [ -115.1766702, 36.2407014 ], [ -115.1766702, 36.2406879 ], [ -115.1766729, 36.2406879 ], [ -115.1766729, 36.2406582 ], [ -115.1766756, 36.2406582 ], [ -115.1766756, 36.240642 ], [ -115.1766729, 36.240642 ], [ -115.1766729, 36.2406366 ], [ -115.1766702, 36.2406366 ], [ -115.1766702, 36.2406177 ], [ -115.1767485, 36.2406177 ], [ -115.1767485, 36.2406285 ], [ -115.1767458, 36.2406285 ], [ -115.1767458, 36.2407338 ], [ -115.1767431, 36.2407338 ], [ -115.1767431, 36.2407473 ], [ -115.1767458, 36.2407473 ], [ -115.1767458, 36.2408067 ], [ -115.1767431, 36.2408067 ], [ -115.1767431, 36.2408418 ], [ -115.1767404, 36.2408418 ], [ -115.1767404, 36.2408472 ], [ -115.1767431, 36.2408472 ], [ -115.1767431, 36.2409714 ], [ -115.1767404, 36.2409714 ], [ -115.1767404, 36.2410146 ], [ -115.1767431, 36.2410146 ], [ -115.1767431, 36.2410254 ], [ -115.1767458, 36.2410254 ], [ -115.1767458, 36.2410443 ], [ -115.1767431, 36.2410443 ], [ -115.1767431, 36.2410551 ], [ -115.1767404, 36.2410551 ], [ -115.1767404, 36.2410956 ], [ -115.1767377, 36.2410956 ], [ -115.1767377, 36.2411091 ], [ -115.176735, 36.2411091 ], [ -115.176735, 36.2411118 ], [ -115.1767323, 36.2411118 ], [ -115.1767323, 36.2411145 ], [ -115.1766864, 36.2411145 ], [ -115.1766864, 36.2411118 ], [ -115.176519, 36.2411118 ], [ -115.176519, 36.2411145 ], [ -115.1762787, 36.2411145 ], [ -115.1762787, 36.2411172 ], [ -115.1762652, 36.2411172 ], [ -115.1762652, 36.2411145 ], [ -115.1761383, 36.2411145 ], [ -115.1761383, 36.2411118 ], [ -115.1761221, 36.2411118 ], [ -115.1761221, 36.2411145 ], [ -115.1760627, 36.2411145 ], [ -115.1760627, 36.2411118 ], [ -115.1760492, 36.2411118 ], [ -115.1760492, 36.2411145 ], [ -115.1759871, 36.2411145 ], [ -115.1759871, 36.2411118 ], [ -115.1759628, 36.2411118 ], [ -115.1759628, 36.2411145 ], [ -115.1759142, 36.2411145 ], [ -115.1759142, 36.2411172 ], [ -115.1758953, 36.2411172 ], [ -115.1758953, 36.2411199 ] ] ] } }
]
}
