{
"type": "FeatureCollection",
"crs": { "type": "name", "properties": { "name": "urn:ogc:def:crs:OGC:1.3:CRS84" } },
"features": [
{ "type": "Feature", "properties": { "value": 255.0 }, "geometry": { "type": "Polygon", "coordinates": [ [ [ -115.252281, 36.145612799799999 ], [ -115.2522675, 36.145612799799999 ], [ -115.2522675, 36.145607399799999 ], [ -115.2522648, 36.145607399799999 ], [ -115.2522648, 36.145512899800003 ], [ -115.2522621, 36.145512899800003 ], [ -115.2522621, 36.1455101998 ], [ -115.2522594, 36.1455101998 ], [ -115.2522594, 36.145461599800001 ], [ -115.2522567, 36.145461599800001 ], [ -115.2522567, 36.145456199800002 ], [ -115.252254, 36.145456199800002 ], [ -115.252254, 36.145450799800003 ], [ -115.2522513, 36.145450799800003 ], [ -115.2522513, 36.145448099799999 ], [ -115.2522486, 36.145448099799999 ], [ -115.2522486, 36.145445399800003 ], [ -115.2522459, 36.145445399800003 ], [ -115.2522459, 36.145439999799997 ], [ -115.2522432, 36.145439999799997 ], [ -115.2522432, 36.1454237998 ], [ -115.2522405, 36.1454237998 ], [ -115.2522405, 36.145421099800004 ], [ -115.2522378, 36.145421099800004 ], [ -115.2522378, 36.1454183998 ], [ -115.2522351, 36.1454183998 ], [ -115.2522351, 36.145415699799997 ], [ -115.2522297, 36.145415699799997 ], [ -115.2522297, 36.145412999800001 ], [ -115.252227, 36.145412999800001 ], [ -115.252227, 36.145410299799998 ], [ -115.2522243, 36.145410299799998 ], [ -115.2522243, 36.145404899799999 ], [ -115.2522216, 36.145404899799999 ], [ -115.2522216, 36.145380599799999 ], [ -115.2522189, 36.145380599799999 ], [ -115.2522189, 36.1453562998 ], [ -115.2522216, 36.1453562998 ], [ -115.2522216, 36.145345499800001 ], [ -115.2522243, 36.145345499800001 ], [ -115.2522243, 36.145337399799999 ], [ -115.252227, 36.145337399799999 ], [ -115.252227, 36.1453319998 ], [ -115.2522297, 36.1453319998 ], [ -115.2522297, 36.145323899799997 ], [ -115.2522324, 36.145323899799997 ], [ -115.2522324, 36.1453076998 ], [ -115.2522297, 36.1453076998 ], [ -115.2522297, 36.145304999799997 ], [ -115.252227, 36.145304999799997 ], [ -115.252227, 36.145302299800001 ], [ -115.2522243, 36.145302299800001 ], [ -115.2522243, 36.145299599799998 ], [ -115.2522216, 36.145299599799998 ], [ -115.2522216, 36.145296899800002 ], [ -115.2522189, 36.145296899800002 ], [ -115.2522189, 36.145294199799999 ], [ -115.2522162, 36.145294199799999 ], [ -115.2522162, 36.145286099800003 ], [ -115.2522135, 36.145286099800003 ], [ -115.2522135, 36.145234799800001 ], [ -115.2522108, 36.145234799800001 ], [ -115.2522108, 36.145226699799998 ], [ -115.2522135, 36.145226699799998 ], [ -115.2522135, 36.1452158998 ], [ -115.2522162, 36.1452158998 ], [ -115.2522162, 36.145210499800001 ], [ -115.2522189, 36.145210499800001 ], [ -115.2522189, 36.145207799799998 ], [ -115.2522243, 36.145207799799998 ], [ -115.2522243, 36.145205099800002 ], [ -115.252227, 36.145205099800002 ], [ -115.252227, 36.145202399799999 ], [ -115.2522351, 36.145202399799999 ], [ -115.2522351, 36.145199699800003 ], [ -115.2522405, 36.145199699800003 ], [ -115.2522405, 36.1451969998 ], [ -115.2522486, 36.1451969998 ], [ -115.2522486, 36.145194299799996 ], [ -115.252254, 36.145194299799996 ], [ -115.252254, 36.1451915998 ], [ -115.2522594, 36.1451915998 ], [ -115.2522594, 36.145188899799997 ], [ -115.2522621, 36.145188899799997 ], [ -115.2522621, 36.145186199800001 ], [ -115.2522675, 36.145186199800001 ], [ -115.2522675, 36.145183499799998 ], [ -115.2522918, 36.145183499799998 ], [ -115.2522918, 36.145186199800001 ], [ -115.2522945, 36.145186199800001 ], [ -115.2522945, 36.145188899799997 ], [ -115.2522972, 36.145188899799997 ], [ -115.2522972, 36.145202399799999 ], [ -115.2522999, 36.145202399799999 ], [ -115.2522999, 36.145205099800002 ], [ -115.2523593, 36.145205099800002 ], [ -115.2523593, 36.145207799799998 ], [ -115.2523728, 36.145207799799998 ], [ -115.2523728, 36.145210499800001 ], [ -115.2523782, 36.145210499800001 ], [ -115.2523782, 36.145213199799997 ], [ -115.2523836, 36.145213199799997 ], [ -115.2523836, 36.1452158998 ], [ -115.2523863, 36.1452158998 ], [ -115.2523863, 36.145221299799999 ], [ -115.252389, 36.145221299799999 ], [ -115.252389, 36.145234799800001 ], [ -115.2523863, 36.145234799800001 ], [ -115.2523863, 36.1453076998 ], [ -115.252389, 36.1453076998 ], [ -115.252389, 36.145318499799998 ], [ -115.2523917, 36.145318499799998 ], [ -115.2523917, 36.145337399799999 ], [ -115.2523944, 36.145337399799999 ], [ -115.2523944, 36.145342799799998 ], [ -115.2523998, 36.145342799799998 ], [ -115.2523998, 36.145345499800001 ], [ -115.2524133, 36.145345499800001 ], [ -115.2524133, 36.145342799799998 ], [ -115.252443, 36.145342799799998 ], [ -115.252443, 36.145345499800001 ], [ -115.2524484, 36.145345499800001 ], [ -115.2524484, 36.145348199799997 ], [ -115.2524511, 36.145348199799997 ], [ -115.2524511, 36.145358999800003 ], [ -115.2524538, 36.145358999800003 ], [ -115.2524538, 36.145372499799997 ], [ -115.2524565, 36.145372499799997 ], [ -115.2524565, 36.145377899800003 ], [ -115.2524592, 36.145377899800003 ], [ -115.2524592, 36.145383299800002 ], [ -115.2524619, 36.145383299800002 ], [ -115.2524619, 36.145391399799998 ], [ -115.2524646, 36.145391399799998 ], [ -115.2524646, 36.1453994998 ], [ -115.2524673, 36.1453994998 ], [ -115.2524673, 36.1454183998 ], [ -115.2524646, 36.1454183998 ], [ -115.2524646, 36.145434599799998 ], [ -115.2524673, 36.145434599799998 ], [ -115.2524673, 36.145475099800002 ], [ -115.25247, 36.145475099800002 ], [ -115.25247, 36.145477799799998 ], [ -115.2524673, 36.145477799799998 ], [ -115.2524673, 36.145480499800001 ], [ -115.2524592, 36.145480499800001 ], [ -115.2524592, 36.145483199799997 ], [ -115.2524565, 36.145483199799997 ], [ -115.2524565, 36.145488599800004 ], [ -115.2524538, 36.145488599800004 ], [ -115.2524538, 36.1454912998 ], [ -115.2524511, 36.1454912998 ], [ -115.2524511, 36.1455101998 ], [ -115.2524484, 36.1455101998 ], [ -115.2524484, 36.145542599800002 ], [ -115.2524079, 36.145542599800002 ], [ -115.2524079, 36.145539899799999 ], [ -115.2524025, 36.145539899799999 ], [ -115.2524025, 36.1455344998 ], [ -115.2523998, 36.1455344998 ], [ -115.2523998, 36.145531799799997 ], [ -115.2523917, 36.145531799799997 ], [ -115.2523917, 36.145526399799998 ], [ -115.2523863, 36.145526399799998 ], [ -115.2523863, 36.145531799799997 ], [ -115.2523836, 36.145531799799997 ], [ -115.2523836, 36.1455344998 ], [ -115.2523809, 36.1455344998 ], [ -115.2523809, 36.145537199800003 ], [ -115.2523782, 36.145537199800003 ], [ -115.2523782, 36.145539899799999 ], [ -115.2523755, 36.145539899799999 ], [ -115.2523755, 36.145542599800002 ], [ -115.2523701, 36.145542599800002 ], [ -115.2523701, 36.145545299799998 ], [ -115.2523674, 36.145545299799998 ], [ -115.2523674, 36.145547999800002 ], [ -115.2523647, 36.145547999800002 ], [ -115.2523647, 36.145550699799998 ], [ -115.2523593, 36.145550699799998 ], [ -115.2523593, 36.145553399800001 ], [ -115.2523512, 36.145553399800001 ], [ -115.2523512, 36.145556099800004 ], [ -115.2523431, 36.145556099800004 ], [ -115.2523431, 36.145553399800001 ], [ -115.2523404, 36.145553399800001 ], [ -115.2523404, 36.145550699799998 ], [ -115.2523377, 36.145550699799998 ], [ -115.2523377, 36.145537199800003 ], [ -115.2523404, 36.145537199800003 ], [ -115.2523404, 36.145531799799997 ], [ -115.2523431, 36.145531799799997 ], [ -115.2523431, 36.145529099800001 ], [ -115.2523458, 36.145529099800001 ], [ -115.2523458, 36.145526399799998 ], [ -115.2523485, 36.145526399799998 ], [ -115.2523485, 36.145529099800001 ], [ -115.2523539, 36.145529099800001 ], [ -115.2523539, 36.145531799799997 ], [ -115.252362, 36.145531799799997 ], [ -115.252362, 36.145529099800001 ], [ -115.2523674, 36.145529099800001 ], [ -115.2523674, 36.145526399799998 ], [ -115.2523701, 36.145526399799998 ], [ -115.2523701, 36.1455101998 ], [ -115.2523566, 36.1455101998 ], [ -115.2523566, 36.145507499799997 ], [ -115.252335, 36.145507499799997 ], [ -115.252335, 36.1455101998 ], [ -115.2523188, 36.1455101998 ], [ -115.2523188, 36.1455155998 ], [ -115.2523215, 36.1455155998 ], [ -115.2523215, 36.145518299800003 ], [ -115.2523188, 36.145518299800003 ], [ -115.2523188, 36.1455344998 ], [ -115.2523215, 36.1455344998 ], [ -115.2523215, 36.145550699799998 ], [ -115.2523188, 36.145550699799998 ], [ -115.2523188, 36.145556099800004 ], [ -115.2523161, 36.145556099800004 ], [ -115.2523161, 36.145591199800002 ], [ -115.2523188, 36.145591199800002 ], [ -115.2523188, 36.145604699800003 ], [ -115.2523161, 36.145604699800003 ], [ -115.2523161, 36.145610099800003 ], [ -115.252281, 36.145610099800003 ], [ -115.252281, 36.145612799799999 ] ] ] } },
{ "type": "Feature", "properties": { "value": 255.0 }, "geometry": { "type": "Polygon", "coordinates": [ [ [ -115.2514143, 36.1450808998 ], [ -115.25139, 36.1450808998 ], [ -115.25139, 36.145078199799997 ], [ -115.2513576, 36.145078199799997 ], [ -115.2513576, 36.144924299799996 ], [ -115.2513603, 36.144924299799996 ], [ -115.2513603, 36.1449215998 ], [ -115.2513576, 36.1449215998 ], [ -115.2513576, 36.144775799800001 ], [ -115.251363, 36.144775799800001 ], [ -115.251363, 36.144773099799998 ], [ -115.25137380000001, 36.144773099799998 ], [ -115.25137380000001, 36.144770399800002 ], [ -115.2514089, 36.144770399800002 ], [ -115.2514089, 36.144773099799998 ], [ -115.2514629, 36.144773099799998 ], [ -115.2514629, 36.144775799800001 ], [ -115.2514656, 36.144775799800001 ], [ -115.2514656, 36.144781199800001 ], [ -115.2514683, 36.144781199800001 ], [ -115.2514683, 36.144791999799999 ], [ -115.251471, 36.144791999799999 ], [ -115.251471, 36.144832499799996 ], [ -115.2514737, 36.144832499799996 ], [ -115.2514737, 36.1448783998 ], [ -115.2514764, 36.1448783998 ], [ -115.2514764, 36.144905399800002 ], [ -115.251479100000012, 36.144905399800002 ], [ -115.251479100000012, 36.144956699799998 ], [ -115.2514818, 36.144956699799998 ], [ -115.2514818, 36.144991799799996 ], [ -115.2514845, 36.144991799799996 ], [ -115.2514845, 36.145007999800001 ], [ -115.2514818, 36.145007999800001 ], [ -115.2514818, 36.145018799799999 ], [ -115.251479100000012, 36.145018799799999 ], [ -115.251479100000012, 36.145021499800002 ], [ -115.2514764, 36.145021499800002 ], [ -115.2514764, 36.145024199799998 ], [ -115.251471, 36.145024199799998 ], [ -115.251471, 36.145026899800001 ], [ -115.2514656, 36.145026899800001 ], [ -115.2514656, 36.145034999799996 ], [ -115.2514629, 36.145034999799996 ], [ -115.2514629, 36.145040399800003 ], [ -115.251460200000011, 36.145040399800003 ], [ -115.251460200000011, 36.145045799800002 ], [ -115.2514575, 36.145045799800002 ], [ -115.2514575, 36.145059299799996 ], [ -115.2514548, 36.145059299799996 ], [ -115.2514548, 36.145067399799998 ], [ -115.2514521, 36.145067399799998 ], [ -115.2514521, 36.145075499800001 ], [ -115.2514467, 36.145075499800001 ], [ -115.2514467, 36.145078199799997 ], [ -115.2514143, 36.145078199799997 ], [ -115.2514143, 36.1450808998 ] ] ] } },
{ "type": "Feature", "properties": { "value": 255.0 }, "geometry": { "type": "Polygon", "coordinates": [ [ [ -115.2525861, 36.144570599799998 ], [ -115.2525807, 36.144570599799998 ], [ -115.2525807, 36.144567899800002 ], [ -115.2525753, 36.144567899800002 ], [ -115.2525753, 36.144565199799999 ], [ -115.2525699, 36.144565199799999 ], [ -115.2525699, 36.144562499799996 ], [ -115.2525672, 36.144562499799996 ], [ -115.2525672, 36.1445597998 ], [ -115.2525645, 36.1445597998 ], [ -115.2525645, 36.144554399800001 ], [ -115.2525618, 36.144554399800001 ], [ -115.2525618, 36.144551699799997 ], [ -115.2525591, 36.144551699799997 ], [ -115.2525591, 36.144548999800001 ], [ -115.2525618, 36.144548999800001 ], [ -115.2525618, 36.144546299799998 ], [ -115.2525672, 36.144546299799998 ], [ -115.2525672, 36.144548999800001 ], [ -115.2525726, 36.144548999800001 ], [ -115.2525726, 36.144551699799997 ], [ -115.252578, 36.144551699799997 ], [ -115.252578, 36.144554399800001 ], [ -115.2525834, 36.144554399800001 ], [ -115.2525834, 36.144557099799997 ], [ -115.2525861, 36.144557099799997 ], [ -115.2525861, 36.144570599799998 ] ] ] } },
{ "type": "Feature", "properties": { "value": 255.0 }, "geometry": { "type": "Polygon", "coordinates": [ [ [ -115.252524, 36.144530099800001 ], [ -115.2525213, 36.144530099800001 ], [ -115.2525213, 36.144527399799998 ], [ -115.2525159, 36.144527399799998 ], [ -115.2525159, 36.144524699800002 ], [ -115.2525132, 36.144524699800002 ], [ -115.2525132, 36.144521999799998 ], [ -115.2525105, 36.144521999799998 ], [ -115.2525105, 36.144524699800002 ], [ -115.2525051, 36.144524699800002 ], [ -115.2525051, 36.144527399799998 ], [ -115.2525024, 36.144527399799998 ], [ -115.2525024, 36.144530099800001 ], [ -115.252497, 36.144530099800001 ], [ -115.252497, 36.144527399799998 ], [ -115.2524943, 36.144527399799998 ], [ -115.2524943, 36.144524699800002 ], [ -115.2524916, 36.144524699800002 ], [ -115.2524916, 36.144519299799995 ], [ -115.252497, 36.144519299799995 ], [ -115.252497, 36.144516599799999 ], [ -115.2524997, 36.144516599799999 ], [ -115.2524997, 36.144505799800001 ], [ -115.2525024, 36.144505799800001 ], [ -115.2525024, 36.144503099799998 ], [ -115.2525051, 36.144503099799998 ], [ -115.2525051, 36.144494999799996 ], [ -115.2525078, 36.144494999799996 ], [ -115.2525078, 36.1444868998 ], [ -115.2525105, 36.1444868998 ], [ -115.2525105, 36.144481499800001 ], [ -115.2525132, 36.144481499800001 ], [ -115.2525132, 36.144478799799998 ], [ -115.2525213, 36.144478799799998 ], [ -115.2525213, 36.144476099800002 ], [ -115.2525429, 36.144476099800002 ], [ -115.2525429, 36.144473399799999 ], [ -115.2525645, 36.144473399799999 ], [ -115.2525645, 36.144476099800002 ], [ -115.2525672, 36.144476099800002 ], [ -115.2525672, 36.144478799799998 ], [ -115.2525753, 36.144478799799998 ], [ -115.2525753, 36.144476099800002 ], [ -115.252578, 36.144476099800002 ], [ -115.252578, 36.144478799799998 ], [ -115.2525807, 36.144478799799998 ], [ -115.2525807, 36.144484199799997 ], [ -115.2525834, 36.144484199799997 ], [ -115.2525834, 36.1444922998 ], [ -115.252578, 36.1444922998 ], [ -115.252578, 36.144494999799996 ], [ -115.2525753, 36.144494999799996 ], [ -115.2525753, 36.144497699799999 ], [ -115.2525726, 36.144497699799999 ], [ -115.2525726, 36.144500399800002 ], [ -115.2525699, 36.144500399800002 ], [ -115.2525699, 36.144503099799998 ], [ -115.2525672, 36.144503099799998 ], [ -115.2525672, 36.144505799800001 ], [ -115.2525645, 36.144505799800001 ], [ -115.2525645, 36.144508499799997 ], [ -115.2525591, 36.144508499799997 ], [ -115.2525591, 36.1445111998 ], [ -115.2525564, 36.1445111998 ], [ -115.2525564, 36.144513899799996 ], [ -115.252551, 36.144513899799996 ], [ -115.252551, 36.144516599799999 ], [ -115.2525348, 36.144516599799999 ], [ -115.2525348, 36.144513899799996 ], [ -115.2525321, 36.144513899799996 ], [ -115.2525321, 36.144516599799999 ], [ -115.2525294, 36.144516599799999 ], [ -115.2525294, 36.144527399799998 ], [ -115.252524, 36.144527399799998 ], [ -115.252524, 36.144530099800001 ] ] ] } },
{ "type": "Feature", "properties": { "value": 255.0 }, "geometry": { "type": "Polygon", "coordinates": [ [ [ -115.2530856, 36.145353599800004 ], [ -115.253077499999989, 36.145353599800004 ], [ -115.253077499999989, 36.1453508998 ], [ -115.2530505, 36.1453508998 ], [ -115.2530505, 36.145348199799997 ], [ -115.2530451, 36.145348199799997 ], [ -115.2530451, 36.1453508998 ], [ -115.2529992, 36.1453508998 ], [ -115.2529992, 36.145353599800004 ], [ -115.2529938, 36.145353599800004 ], [ -115.2529938, 36.1453508998 ], [ -115.2529857, 36.1453508998 ], [ -115.2529857, 36.145348199799997 ], [ -115.252983, 36.145348199799997 ], [ -115.252983, 36.145345499800001 ], [ -115.2529803, 36.145345499800001 ], [ -115.2529803, 36.1453319998 ], [ -115.2529776, 36.1453319998 ], [ -115.2529776, 36.145304999799997 ], [ -115.2529749, 36.145304999799997 ], [ -115.2529749, 36.145299599799998 ], [ -115.2529722, 36.145299599799998 ], [ -115.2529722, 36.145294199799999 ], [ -115.2529668, 36.145294199799999 ], [ -115.2529668, 36.145291499800003 ], [ -115.2529587, 36.145291499800003 ], [ -115.2529587, 36.145288799799999 ], [ -115.252902, 36.145288799799999 ], [ -115.252902, 36.145291499800003 ], [ -115.2528399, 36.145291499800003 ], [ -115.2528399, 36.145294199799999 ], [ -115.2527751, 36.145294199799999 ], [ -115.2527751, 36.145296899800002 ], [ -115.2527454, 36.145296899800002 ], [ -115.2527454, 36.145294199799999 ], [ -115.2527427, 36.145294199799999 ], [ -115.2527427, 36.145291499800003 ], [ -115.25274, 36.145291499800003 ], [ -115.25274, 36.145245599799999 ], [ -115.2527373, 36.145245599799999 ], [ -115.2527373, 36.145210499800001 ], [ -115.2527346, 36.145210499800001 ], [ -115.2527346, 36.145140299799998 ], [ -115.2527373, 36.145140299799998 ], [ -115.2527373, 36.145137599800002 ], [ -115.25274, 36.145137599800002 ], [ -115.25274, 36.145110599799999 ], [ -115.2527427, 36.145110599799999 ], [ -115.2527427, 36.145107899800003 ], [ -115.2527481, 36.145107899800003 ], [ -115.2527481, 36.1451051998 ], [ -115.2527535, 36.1451051998 ], [ -115.2527535, 36.145102499799997 ], [ -115.2527562, 36.145102499799997 ], [ -115.2527562, 36.145099799800001 ], [ -115.2527643, 36.145099799800001 ], [ -115.2527643, 36.145097099799997 ], [ -115.2527751, 36.145097099799997 ], [ -115.2527751, 36.145094399800001 ], [ -115.252794, 36.145094399800001 ], [ -115.252794, 36.145091699799998 ], [ -115.2528129, 36.145091699799998 ], [ -115.2528129, 36.145088999800002 ], [ -115.252821, 36.145088999800002 ], [ -115.252821, 36.145086299799999 ], [ -115.2527454, 36.145086299799999 ], [ -115.2527454, 36.145083599800003 ], [ -115.25274, 36.145083599800003 ], [ -115.25274, 36.145086299799999 ], [ -115.2527319, 36.145086299799999 ], [ -115.2527319, 36.145083599800003 ], [ -115.2527292, 36.145083599800003 ], [ -115.2527292, 36.145086299799999 ], [ -115.2526941, 36.145086299799999 ], [ -115.2526941, 36.145088999800002 ], [ -115.2526725, 36.145088999800002 ], [ -115.2526725, 36.145086299799999 ], [ -115.2526671, 36.145086299799999 ], [ -115.2526671, 36.145083599800003 ], [ -115.2526644, 36.145083599800003 ], [ -115.2526644, 36.1450808998 ], [ -115.2526617, 36.1450808998 ], [ -115.2526617, 36.145075499800001 ], [ -115.252659, 36.145075499800001 ], [ -115.252659, 36.145072799799998 ], [ -115.2526536, 36.145072799799998 ], [ -115.2526536, 36.145070099800002 ], [ -115.2526374, 36.145070099800002 ], [ -115.2526374, 36.145067399799998 ], [ -115.252578, 36.145067399799998 ], [ -115.252578, 36.145064699800002 ], [ -115.2525726, 36.145064699800002 ], [ -115.2525726, 36.145061999799999 ], [ -115.2525699, 36.145061999799999 ], [ -115.2525699, 36.1450565998 ], [ -115.2525672, 36.1450565998 ], [ -115.2525672, 36.145048499799998 ], [ -115.2525645, 36.145048499799998 ], [ -115.2525645, 36.145040399800003 ], [ -115.2525618, 36.145040399800003 ], [ -115.2525618, 36.145016099800003 ], [ -115.2525591, 36.145016099800003 ], [ -115.2525591, 36.144994499799999 ], [ -115.2525564, 36.144994499799999 ], [ -115.2525564, 36.144970199799999 ], [ -115.2525537, 36.144970199799999 ], [ -115.2525537, 36.1449458998 ], [ -115.252551, 36.1449458998 ], [ -115.252551, 36.144935099800001 ], [ -115.2525483, 36.144935099800001 ], [ -115.2525483, 36.144924299799996 ], [ -115.252551, 36.144924299799996 ], [ -115.252551, 36.144905399800002 ], [ -115.2525537, 36.144905399800002 ], [ -115.2525537, 36.144886499800002 ], [ -115.252551, 36.144886499800002 ], [ -115.252551, 36.144818999800002 ], [ -115.2525483, 36.144818999800002 ], [ -115.2525483, 36.1448054998 ], [ -115.2525456, 36.1448054998 ], [ -115.2525456, 36.144773099799998 ], [ -115.2525483, 36.144773099799998 ], [ -115.2525483, 36.144770399800002 ], [ -115.252551, 36.144770399800002 ], [ -115.252551, 36.144767699799999 ], [ -115.2525537, 36.144767699799999 ], [ -115.2525537, 36.144764999799996 ], [ -115.2525564, 36.144764999799996 ], [ -115.2525564, 36.144759599799997 ], [ -115.2525591, 36.144759599799997 ], [ -115.2525591, 36.144751499800002 ], [ -115.2525618, 36.144751499800002 ], [ -115.2525618, 36.144743399799999 ], [ -115.2525591, 36.144743399799999 ], [ -115.2525591, 36.144732599800001 ], [ -115.2525564, 36.144732599800001 ], [ -115.2525564, 36.1447136998 ], [ -115.2525537, 36.1447136998 ], [ -115.2525537, 36.144700199799999 ], [ -115.252551, 36.144700199799999 ], [ -115.252551, 36.144697499799996 ], [ -115.2525483, 36.144697499799996 ], [ -115.2525483, 36.144683999800002 ], [ -115.2525456, 36.144683999800002 ], [ -115.2525456, 36.144681299799998 ], [ -115.2525429, 36.144681299799998 ], [ -115.2525429, 36.144678599800002 ], [ -115.2525294, 36.144678599800002 ], [ -115.2525294, 36.144681299799998 ], [ -115.2525267, 36.144681299799998 ], [ -115.2525267, 36.144683999800002 ], [ -115.252524, 36.144683999800002 ], [ -115.252524, 36.144692099799997 ], [ -115.2525213, 36.144692099799997 ], [ -115.2525213, 36.144700199799999 ], [ -115.2525186, 36.144700199799999 ], [ -115.2525186, 36.144702899800002 ], [ -115.2525159, 36.144702899800002 ], [ -115.2525159, 36.144705599799998 ], [ -115.2525132, 36.144705599799998 ], [ -115.2525132, 36.144708299800001 ], [ -115.2525159, 36.144708299800001 ], [ -115.2525159, 36.144710999799997 ], [ -115.2525213, 36.144710999799997 ], [ -115.2525213, 36.144716399799997 ], [ -115.252524, 36.144716399799997 ], [ -115.252524, 36.144721799799996 ], [ -115.2525213, 36.144721799799996 ], [ -115.2525213, 36.144724499799999 ], [ -115.2525186, 36.144724499799999 ], [ -115.2525186, 36.144727199800002 ], [ -115.2525132, 36.144727199800002 ], [ -115.2525132, 36.144729899799998 ], [ -115.2525051, 36.144729899799998 ], [ -115.2525051, 36.144732599800001 ], [ -115.2525024, 36.144732599800001 ], [ -115.2525024, 36.144746099800003 ], [ -115.2524997, 36.144746099800003 ], [ -115.2524997, 36.144748799799999 ], [ -115.252497, 36.144748799799999 ], [ -115.252497, 36.144759599799997 ], [ -115.2524862, 36.144759599799997 ], [ -115.2524862, 36.144756899800001 ], [ -115.2524808, 36.144756899800001 ], [ -115.2524808, 36.144748799799999 ], [ -115.2524781, 36.144748799799999 ], [ -115.2524781, 36.144746099800003 ], [ -115.2524754, 36.144746099800003 ], [ -115.2524754, 36.144743399799999 ], [ -115.2524727, 36.144743399799999 ], [ -115.2524727, 36.144740699799996 ], [ -115.2524673, 36.144740699799996 ], [ -115.2524673, 36.1447379998 ], [ -115.2524646, 36.1447379998 ], [ -115.2524646, 36.144732599800001 ], [ -115.2524619, 36.144732599800001 ], [ -115.2524619, 36.144721799799996 ], [ -115.2524592, 36.144721799799996 ], [ -115.2524592, 36.144710999799997 ], [ -115.2524619, 36.144710999799997 ], [ -115.2524619, 36.144705599799998 ], [ -115.2524646, 36.144705599799998 ], [ -115.2524646, 36.144702899800002 ], [ -115.25247, 36.144702899800002 ], [ -115.25247, 36.144700199799999 ], [ -115.2524808, 36.144700199799999 ], [ -115.2524808, 36.144702899800002 ], [ -115.2524889, 36.144702899800002 ], [ -115.2524889, 36.144700199799999 ], [ -115.2524916, 36.144700199799999 ], [ -115.2524916, 36.144697499799996 ], [ -115.2524943, 36.144697499799996 ], [ -115.2524943, 36.1446947998 ], [ -115.252497, 36.1446947998 ], [ -115.252497, 36.144683999800002 ], [ -115.2524889, 36.144683999800002 ], [ -115.2524889, 36.144686699799998 ], [ -115.2524808, 36.144686699799998 ], [ -115.2524808, 36.144683999800002 ], [ -115.2524835, 36.144683999800002 ], [ -115.2524835, 36.144681299799998 ], [ -115.2524862, 36.144681299799998 ], [ -115.2524862, 36.144678599800002 ], [ -115.252497, 36.144678599800002 ], [ -115.252497, 36.144675899799999 ], [ -115.2524997, 36.144675899799999 ], [ -115.2524997, 36.144673199799996 ], [ -115.2525024, 36.144673199799996 ], [ -115.2525024, 36.144659699800002 ], [ -115.2524997, 36.144659699800002 ], [ -115.2524997, 36.144648899799996 ], [ -115.252497, 36.144648899799996 ], [ -115.252497, 36.1446461998 ], [ -115.2524943, 36.1446461998 ], [ -115.2524943, 36.144640799800001 ], [ -115.2524916, 36.144640799800001 ], [ -115.2524916, 36.1446272998 ], [ -115.2524889, 36.1446272998 ], [ -115.2524889, 36.144605699799996 ], [ -115.2524916, 36.144605699799996 ], [ -115.2524916, 36.1446029998 ], [ -115.2524943, 36.1446029998 ], [ -115.2524943, 36.144600299799997 ], [ -115.252497, 36.144600299799997 ], [ -115.252497, 36.144594899799998 ], [ -115.2524997, 36.144594899799998 ], [ -115.2524997, 36.144586799799995 ], [ -115.2525024, 36.144586799799995 ], [ -115.2525024, 36.144584099799999 ], [ -115.2525051, 36.144584099799999 ], [ -115.2525051, 36.144562499799996 ], [ -115.2525024, 36.144562499799996 ], [ -115.2525024, 36.1445597998 ], [ -115.2525051, 36.1445597998 ], [ -115.2525051, 36.144551699799997 ], [ -115.2525078, 36.144551699799997 ], [ -115.2525078, 36.144543599800002 ], [ -115.2525105, 36.144543599800002 ], [ -115.2525105, 36.144540899799999 ], [ -115.2525159, 36.144540899799999 ], [ -115.2525159, 36.144543599800002 ], [ -115.2525186, 36.144543599800002 ], [ -115.2525186, 36.144546299799998 ], [ -115.252524, 36.144546299799998 ], [ -115.252524, 36.144548999800001 ], [ -115.2525267, 36.144548999800001 ], [ -115.2525267, 36.144551699799997 ], [ -115.2525321, 36.144551699799997 ], [ -115.2525321, 36.144570599799998 ], [ -115.2525348, 36.144570599799998 ], [ -115.2525348, 36.144573299800001 ], [ -115.2525564, 36.144573299800001 ], [ -115.2525564, 36.144575999799997 ], [ -115.2525591, 36.144575999799997 ], [ -115.2525591, 36.1445786998 ], [ -115.2525645, 36.1445786998 ], [ -115.2525645, 36.144581399799996 ], [ -115.2525672, 36.144581399799996 ], [ -115.2525672, 36.144584099799999 ], [ -115.2525645, 36.144584099799999 ], [ -115.2525645, 36.144589499799999 ], [ -115.2525672, 36.144589499799999 ], [ -115.2525672, 36.144592199800002 ], [ -115.2525699, 36.144592199800002 ], [ -115.2525699, 36.144594899799998 ], [ -115.2525726, 36.144594899799998 ], [ -115.2525726, 36.144597599800001 ], [ -115.2525753, 36.144597599800001 ], [ -115.2525753, 36.144600299799997 ], [ -115.252578, 36.144600299799997 ], [ -115.252578, 36.1446029998 ], [ -115.2525807, 36.1446029998 ], [ -115.2525807, 36.144605699799996 ], [ -115.2525834, 36.144605699799996 ], [ -115.2525834, 36.144611099800002 ], [ -115.2525861, 36.144611099800002 ], [ -115.2525861, 36.144616499800001 ], [ -115.2525915, 36.144616499800001 ], [ -115.2525915, 36.144619199799997 ], [ -115.2526023, 36.144619199799997 ], [ -115.2526023, 36.144616499800001 ], [ -115.2526185, 36.144616499800001 ], [ -115.2526185, 36.144619199799997 ], [ -115.2526212, 36.144619199799997 ], [ -115.2526212, 36.144616499800001 ], [ -115.2526293, 36.144616499800001 ], [ -115.2526293, 36.144613799799998 ], [ -115.2526374, 36.144613799799998 ], [ -115.2526374, 36.144611099800002 ], [ -115.2526455, 36.144611099800002 ], [ -115.2526455, 36.144608399799999 ], [ -115.2526536, 36.144608399799999 ], [ -115.2526536, 36.144605699799996 ], [ -115.252659, 36.144605699799996 ], [ -115.252659, 36.1446029998 ], [ -115.2526617, 36.1446029998 ], [ -115.2526617, 36.144600299799997 ], [ -115.2526644, 36.144600299799997 ], [ -115.2526644, 36.144597599800001 ], [ -115.2526671, 36.144597599800001 ], [ -115.2526671, 36.144594899799998 ], [ -115.2526725, 36.144594899799998 ], [ -115.2526725, 36.144592199800002 ], [ -115.2526752, 36.144592199800002 ], [ -115.2526752, 36.144586799799995 ], [ -115.2526779, 36.144586799799995 ], [ -115.2526779, 36.1445597998 ], [ -115.2526806, 36.1445597998 ], [ -115.2526806, 36.144554399800001 ], [ -115.2526833, 36.144554399800001 ], [ -115.2526833, 36.144551699799997 ], [ -115.252686, 36.144551699799997 ], [ -115.252686, 36.144548999800001 ], [ -115.2526887, 36.144548999800001 ], [ -115.2526887, 36.144546299799998 ], [ -115.2526968, 36.144546299799998 ], [ -115.2526968, 36.144543599800002 ], [ -115.252713, 36.144543599800002 ], [ -115.252713, 36.144546299799998 ], [ -115.2527184, 36.144546299799998 ], [ -115.2527184, 36.144548999800001 ], [ -115.2527346, 36.144548999800001 ], [ -115.2527346, 36.144546299799998 ], [ -115.2527373, 36.144546299799998 ], [ -115.2527373, 36.144543599800002 ], [ -115.25274, 36.144543599800002 ], [ -115.25274, 36.144538199799996 ], [ -115.2527427, 36.144538199799996 ], [ -115.2527427, 36.1445354998 ], [ -115.2527481, 36.1445354998 ], [ -115.2527481, 36.144532799799997 ], [ -115.2527535, 36.144532799799997 ], [ -115.2527535, 36.144530099800001 ], [ -115.2527589, 36.144530099800001 ], [ -115.2527589, 36.144527399799998 ], [ -115.2527643, 36.144527399799998 ], [ -115.2527643, 36.144524699800002 ], [ -115.2527697, 36.144524699800002 ], [ -115.2527697, 36.144521999799998 ], [ -115.2527778, 36.144521999799998 ], [ -115.2527778, 36.144519299799995 ], [ -115.2527832, 36.144519299799995 ], [ -115.2527832, 36.144516599799999 ], [ -115.2527886, 36.144516599799999 ], [ -115.2527886, 36.144513899799996 ], [ -115.252794, 36.144513899799996 ], [ -115.252794, 36.1445111998 ], [ -115.2527994, 36.1445111998 ], [ -115.2527994, 36.144508499799997 ], [ -115.2528021, 36.144508499799997 ], [ -115.2528021, 36.144505799800001 ], [ -115.2528048, 36.144505799800001 ], [ -115.2528048, 36.144503099799998 ], [ -115.2528075, 36.144503099799998 ], [ -115.2528075, 36.144494999799996 ], [ -115.2528102, 36.144494999799996 ], [ -115.2528102, 36.1444922998 ], [ -115.2528129, 36.1444922998 ], [ -115.2528129, 36.144489599799996 ], [ -115.2528183, 36.144489599799996 ], [ -115.2528183, 36.1444868998 ], [ -115.2528291, 36.1444868998 ], [ -115.2528291, 36.144484199799997 ], [ -115.2528507, 36.144484199799997 ], [ -115.2528507, 36.1444868998 ], [ -115.252875, 36.1444868998 ], [ -115.252875, 36.144484199799997 ], [ -115.2528885, 36.144484199799997 ], [ -115.2528885, 36.144481499800001 ], [ -115.2528993, 36.144481499800001 ], [ -115.2528993, 36.144478799799998 ], [ -115.2529047, 36.144478799799998 ], [ -115.2529047, 36.144476099800002 ], [ -115.2529209, 36.144476099800002 ], [ -115.2529209, 36.144473399799999 ], [ -115.2529398, 36.144473399799999 ], [ -115.2529398, 36.144470699799996 ], [ -115.2529857, 36.144470699799996 ], [ -115.2529857, 36.1444679998 ], [ -115.2529884, 36.1444679998 ], [ -115.2529884, 36.144465299799997 ], [ -115.25301, 36.144465299799997 ], [ -115.25301, 36.1444679998 ], [ -115.2530154, 36.1444679998 ], [ -115.2530154, 36.144470699799996 ], [ -115.2530208, 36.144470699799996 ], [ -115.2530208, 36.144473399799999 ], [ -115.2530235, 36.144473399799999 ], [ -115.2530235, 36.144478799799998 ], [ -115.2530262, 36.144478799799998 ], [ -115.2530262, 36.144494999799996 ], [ -115.2530289, 36.144494999799996 ], [ -115.2530289, 36.144497699799999 ], [ -115.2530316, 36.144497699799999 ], [ -115.2530316, 36.144500399800002 ], [ -115.2530694, 36.144500399800002 ], [ -115.2530694, 36.144497699799999 ], [ -115.253107199999988, 36.144497699799999 ], [ -115.253107199999988, 36.144494999799996 ], [ -115.2531126, 36.144494999799996 ], [ -115.2531126, 36.145348199799997 ], [ -115.2531045, 36.145348199799997 ], [ -115.2531045, 36.1453508998 ], [ -115.2530856, 36.1453508998 ], [ -115.2530856, 36.145353599800004 ] ] ] } },
{ "type": "Feature", "properties": { "value": 255.0 }, "geometry": { "type": "Polygon", "coordinates": [ [ [ -115.2526239, 36.144484199799997 ], [ -115.2526185, 36.144484199799997 ], [ -115.2526185, 36.144481499800001 ], [ -115.2526158, 36.144481499800001 ], [ -115.2526158, 36.144478799799998 ], [ -115.2526131, 36.144478799799998 ], [ -115.2526131, 36.144476099800002 ], [ -115.2526104, 36.144476099800002 ], [ -115.2526104, 36.144473399799999 ], [ -115.252605, 36.144473399799999 ], [ -115.252605, 36.1444679998 ], [ -115.2526293, 36.1444679998 ], [ -115.2526293, 36.144470699799996 ], [ -115.2526374, 36.144470699799996 ], [ -115.2526374, 36.1444679998 ], [ -115.2526833, 36.1444679998 ], [ -115.2526833, 36.144473399799999 ], [ -115.2526752, 36.144473399799999 ], [ -115.2526752, 36.144476099800002 ], [ -115.2526698, 36.144476099800002 ], [ -115.2526698, 36.144473399799999 ], [ -115.2526266, 36.144473399799999 ], [ -115.2526266, 36.144478799799998 ], [ -115.2526239, 36.144478799799998 ], [ -115.2526239, 36.144484199799997 ] ] ] } },
{ "type": "Feature", "properties": { "value": 255.0 }, "geometry": { "type": "Polygon", "coordinates": [ [ [ -115.2515358, 36.145091699799998 ], [ -115.2515304, 36.145091699799998 ], [ -115.2515304, 36.145088999800002 ], [ -115.251525, 36.145088999800002 ], [ -115.251525, 36.1450808998 ], [ -115.2515223, 36.1450808998 ], [ -115.2515223, 36.145078199799997 ], [ -115.251525, 36.145078199799997 ], [ -115.251525, 36.1450565998 ], [ -115.251527700000011, 36.1450565998 ], [ -115.251527700000011, 36.145040399800003 ], [ -115.2515304, 36.145040399800003 ], [ -115.2515304, 36.1450376998 ], [ -115.2515331, 36.1450376998 ], [ -115.2515331, 36.145034999799996 ], [ -115.2515304, 36.145034999799996 ], [ -115.2515304, 36.1450322998 ], [ -115.251527700000011, 36.1450322998 ], [ -115.251527700000011, 36.145024199799998 ], [ -115.251525, 36.145024199799998 ], [ -115.251525, 36.145010699799997 ], [ -115.2515223, 36.145010699799997 ], [ -115.2515223, 36.144999899799998 ], [ -115.2515196, 36.144999899799998 ], [ -115.2515196, 36.144994499799999 ], [ -115.2515169, 36.144994499799999 ], [ -115.2515169, 36.144983699800001 ], [ -115.2515142, 36.144983699800001 ], [ -115.2515142, 36.144972899800003 ], [ -115.2515115, 36.144972899800003 ], [ -115.2515115, 36.144962099799997 ], [ -115.251508800000011, 36.144962099799997 ], [ -115.251508800000011, 36.1448972998 ], [ -115.2515115, 36.1448972998 ], [ -115.2515115, 36.144875699799996 ], [ -115.2515142, 36.144875699799996 ], [ -115.2515142, 36.144808199799996 ], [ -115.2515115, 36.144808199799996 ], [ -115.2515115, 36.144800099800001 ], [ -115.251508800000011, 36.144800099800001 ], [ -115.251508800000011, 36.144789299799996 ], [ -115.2515061, 36.144789299799996 ], [ -115.2515061, 36.144778499799997 ], [ -115.251508800000011, 36.144778499799997 ], [ -115.251508800000011, 36.144770399800002 ], [ -115.2515115, 36.144770399800002 ], [ -115.2515115, 36.144767699799999 ], [ -115.2515142, 36.144767699799999 ], [ -115.2515142, 36.144764999799996 ], [ -115.2515196, 36.144764999799996 ], [ -115.2515196, 36.1447622998 ], [ -115.251525, 36.1447622998 ], [ -115.251525, 36.144759599799997 ], [ -115.2515709, 36.144759599799997 ], [ -115.2515709, 36.144756899800001 ], [ -115.251579, 36.144756899800001 ], [ -115.251579, 36.144754199799998 ], [ -115.2515817, 36.144754199799998 ], [ -115.2515817, 36.144751499800002 ], [ -115.2515844, 36.144751499800002 ], [ -115.2515844, 36.144746099800003 ], [ -115.2515871, 36.144746099800003 ], [ -115.2515871, 36.144732599800001 ], [ -115.2515844, 36.144732599800001 ], [ -115.2515844, 36.144729899799998 ], [ -115.2515871, 36.144729899799998 ], [ -115.2515871, 36.144727199800002 ], [ -115.2515898, 36.144727199800002 ], [ -115.2515898, 36.144724499799999 ], [ -115.2516492, 36.144724499799999 ], [ -115.2516492, 36.144727199800002 ], [ -115.2516546, 36.144727199800002 ], [ -115.2516546, 36.144729899799998 ], [ -115.2516573, 36.144729899799998 ], [ -115.2516573, 36.144732599800001 ], [ -115.2516627, 36.144732599800001 ], [ -115.2516627, 36.144735299799997 ], [ -115.251687, 36.144735299799997 ], [ -115.251687, 36.144732599800001 ], [ -115.2516951, 36.144732599800001 ], [ -115.2516951, 36.144727199800002 ], [ -115.2517005, 36.144727199800002 ], [ -115.2517005, 36.144724499799999 ], [ -115.2517032, 36.144724499799999 ], [ -115.2517032, 36.1447190998 ], [ -115.2517059, 36.1447190998 ], [ -115.2517059, 36.144700199799999 ], [ -115.2517086, 36.144700199799999 ], [ -115.2517086, 36.144686699799998 ], [ -115.2517113, 36.144686699799998 ], [ -115.2517113, 36.144683999800002 ], [ -115.2517086, 36.144683999800002 ], [ -115.2517086, 36.144638099799998 ], [ -115.2517059, 36.144638099799998 ], [ -115.2517059, 36.144594899799998 ], [ -115.2517032, 36.144594899799998 ], [ -115.2517032, 36.144575999799997 ], [ -115.2516978, 36.144575999799997 ], [ -115.2516978, 36.144573299800001 ], [ -115.2516843, 36.144573299800001 ], [ -115.2516843, 36.144575999799997 ], [ -115.2516411, 36.144575999799997 ], [ -115.2516411, 36.1445786998 ], [ -115.251606, 36.1445786998 ], [ -115.251606, 36.144581399799996 ], [ -115.2516033, 36.144581399799996 ], [ -115.2516033, 36.144584099799999 ], [ -115.2516006, 36.144584099799999 ], [ -115.2516006, 36.144594899799998 ], [ -115.2515979, 36.144594899799998 ], [ -115.2515979, 36.144597599800001 ], [ -115.251595200000011, 36.144597599800001 ], [ -115.251595200000011, 36.144600299799997 ], [ -115.2515169, 36.144600299799997 ], [ -115.2515169, 36.1446029998 ], [ -115.2514845, 36.1446029998 ], [ -115.2514845, 36.144600299799997 ], [ -115.2514764, 36.144600299799997 ], [ -115.2514764, 36.144597599800001 ], [ -115.2514737, 36.144597599800001 ], [ -115.2514737, 36.144594899799998 ], [ -115.2514683, 36.144594899799998 ], [ -115.2514683, 36.144592199800002 ], [ -115.2514629, 36.144592199800002 ], [ -115.2514629, 36.144589499799999 ], [ -115.2514494, 36.144589499799999 ], [ -115.2514494, 36.144592199800002 ], [ -115.2514278, 36.144592199800002 ], [ -115.2514278, 36.144594899799998 ], [ -115.2513846, 36.144594899799998 ], [ -115.2513846, 36.144592199800002 ], [ -115.2513765, 36.144592199800002 ], [ -115.2513765, 36.144589499799999 ], [ -115.2513711, 36.144589499799999 ], [ -115.2513711, 36.144586799799995 ], [ -115.2513576, 36.144586799799995 ], [ -115.2513576, 36.144200699799995 ], [ -115.2513846, 36.144200699799995 ], [ -115.2513846, 36.144197999799999 ], [ -115.25139, 36.144197999799999 ], [ -115.25139, 36.144200699799995 ], [ -115.2513981, 36.144200699799995 ], [ -115.2513981, 36.144197999799999 ], [ -115.2514278, 36.144197999799999 ], [ -115.2514278, 36.144195299799996 ], [ -115.2514386, 36.144195299799996 ], [ -115.2514386, 36.144197999799999 ], [ -115.251444, 36.144197999799999 ], [ -115.251444, 36.144195299799996 ], [ -115.2514494, 36.144195299799996 ], [ -115.2514494, 36.144197999799999 ], [ -115.2514548, 36.144197999799999 ], [ -115.2514548, 36.144195299799996 ], [ -115.2514764, 36.144195299799996 ], [ -115.2514764, 36.1441925998 ], [ -115.2514818, 36.1441925998 ], [ -115.2514818, 36.144195299799996 ], [ -115.2514926, 36.144195299799996 ], [ -115.2514926, 36.144197999799999 ], [ -115.2515034, 36.144197999799999 ], [ -115.2515034, 36.144200699799995 ], [ -115.2515061, 36.144200699799995 ], [ -115.2515061, 36.144197999799999 ], [ -115.2515358, 36.144197999799999 ], [ -115.2515358, 36.144195299799996 ], [ -115.2515412, 36.144195299799996 ], [ -115.2515412, 36.1441925998 ], [ -115.251552, 36.1441925998 ], [ -115.251552, 36.144195299799996 ], [ -115.251579, 36.144195299799996 ], [ -115.251579, 36.1441925998 ], [ -115.2515871, 36.1441925998 ], [ -115.2515871, 36.144189899799997 ], [ -115.251643800000011, 36.144189899799997 ], [ -115.251643800000011, 36.144187199800001 ], [ -115.2516708, 36.144187199800001 ], [ -115.2516708, 36.144189899799997 ], [ -115.25167350000001, 36.144189899799997 ], [ -115.25167350000001, 36.144195299799996 ], [ -115.2516789, 36.144195299799996 ], [ -115.2516789, 36.144197999799999 ], [ -115.251687, 36.144197999799999 ], [ -115.251687, 36.144200699799995 ], [ -115.25169240000001, 36.144200699799995 ], [ -115.25169240000001, 36.144203399799999 ], [ -115.2516978, 36.144203399799999 ], [ -115.2516978, 36.144206099800002 ], [ -115.2517005, 36.144206099800002 ], [ -115.2517005, 36.144208799799998 ], [ -115.2517086, 36.144208799799998 ], [ -115.2517086, 36.144211499800001 ], [ -115.2517167, 36.144211499800001 ], [ -115.2517167, 36.144214199799997 ], [ -115.2517194, 36.144214199799997 ], [ -115.2517194, 36.1442168998 ], [ -115.2517221, 36.1442168998 ], [ -115.2517221, 36.144219599799996 ], [ -115.2517248, 36.144219599799996 ], [ -115.2517248, 36.144222299799999 ], [ -115.2517275, 36.144222299799999 ], [ -115.2517275, 36.144227699799998 ], [ -115.2517302, 36.144227699799998 ], [ -115.2517302, 36.144251999799998 ], [ -115.2517329, 36.144251999799998 ], [ -115.2517329, 36.144254699800001 ], [ -115.2517356, 36.144254699800001 ], [ -115.2517356, 36.144257399799997 ], [ -115.2517383, 36.144257399799997 ], [ -115.2517383, 36.144262799799996 ], [ -115.251741, 36.144262799799996 ], [ -115.251741, 36.144265499799999 ], [ -115.2517437, 36.144265499799999 ], [ -115.2517437, 36.144268199799996 ], [ -115.2517491, 36.144268199799996 ], [ -115.2517491, 36.144270899799999 ], [ -115.2517572, 36.144270899799999 ], [ -115.2517572, 36.144268199799996 ], [ -115.2517599, 36.144268199799996 ], [ -115.2517599, 36.144265499799999 ], [ -115.2517788, 36.144265499799999 ], [ -115.2517788, 36.144268199799996 ], [ -115.2517815, 36.144268199799996 ], [ -115.2517815, 36.144270899799999 ], [ -115.2517842, 36.144270899799999 ], [ -115.2517842, 36.144281699799997 ], [ -115.2517869, 36.144281699799997 ], [ -115.2517869, 36.144305999799997 ], [ -115.2517896, 36.144305999799997 ], [ -115.2517896, 36.144311399799996 ], [ -115.2517923, 36.144311399799996 ], [ -115.2517923, 36.144330299799996 ], [ -115.251795, 36.144330299799996 ], [ -115.251795, 36.144346499800001 ], [ -115.2517977, 36.144346499800001 ], [ -115.2517977, 36.144370799800001 ], [ -115.2518004, 36.144370799800001 ], [ -115.2518004, 36.144403199799996 ], [ -115.2518031, 36.144403199799996 ], [ -115.2518031, 36.144440999799997 ], [ -115.2518058, 36.144440999799997 ], [ -115.2518058, 36.144521999799998 ], [ -115.2518031, 36.144521999799998 ], [ -115.2518031, 36.144527399799998 ], [ -115.2518058, 36.144527399799998 ], [ -115.2518058, 36.144530099800001 ], [ -115.25180850000001, 36.144530099800001 ], [ -115.25180850000001, 36.144532799799997 ], [ -115.2518112, 36.144532799799997 ], [ -115.2518112, 36.144538199799996 ], [ -115.2518139, 36.144538199799996 ], [ -115.2518139, 36.144567899800002 ], [ -115.2518166, 36.144567899800002 ], [ -115.2518166, 36.144594899799998 ], [ -115.2518193, 36.144594899799998 ], [ -115.2518193, 36.144629999799996 ], [ -115.251822, 36.144629999799996 ], [ -115.251822, 36.144662399799998 ], [ -115.2518247, 36.144662399799998 ], [ -115.2518247, 36.144702899800002 ], [ -115.2518274, 36.144702899800002 ], [ -115.2518274, 36.144735299799997 ], [ -115.2518301, 36.144735299799997 ], [ -115.2518301, 36.144751499800002 ], [ -115.2518274, 36.144751499800002 ], [ -115.2518274, 36.144756899800001 ], [ -115.2518247, 36.144756899800001 ], [ -115.2518247, 36.144764999799996 ], [ -115.2518274, 36.144764999799996 ], [ -115.2518274, 36.144773099799998 ], [ -115.2518301, 36.144773099799998 ], [ -115.2518301, 36.1448108998 ], [ -115.2518328, 36.1448108998 ], [ -115.2518328, 36.144840599799998 ], [ -115.2518355, 36.144840599799998 ], [ -115.2518355, 36.144848699800001 ], [ -115.2518382, 36.144848699800001 ], [ -115.2518382, 36.144851399799997 ], [ -115.2518409, 36.144851399799997 ], [ -115.2518409, 36.1448540998 ], [ -115.2518436, 36.1448540998 ], [ -115.2518436, 36.144862199800002 ], [ -115.2518463, 36.144862199800002 ], [ -115.2518463, 36.144926999799999 ], [ -115.2518436, 36.144926999799999 ], [ -115.2518436, 36.144953999800002 ], [ -115.2518409, 36.144953999800002 ], [ -115.2518409, 36.144980999799998 ], [ -115.2518436, 36.144980999799998 ], [ -115.2518436, 36.145024199799998 ], [ -115.2518409, 36.145024199799998 ], [ -115.2518409, 36.145026899800001 ], [ -115.2518382, 36.145026899800001 ], [ -115.2518382, 36.145029599799997 ], [ -115.2518301, 36.145029599799997 ], [ -115.2518301, 36.1450322998 ], [ -115.2518274, 36.1450322998 ], [ -115.2518274, 36.145034999799996 ], [ -115.2518247, 36.145034999799996 ], [ -115.2518247, 36.145048499799998 ], [ -115.251822, 36.145048499799998 ], [ -115.251822, 36.145051199800001 ], [ -115.2518193, 36.145051199800001 ], [ -115.2518193, 36.145053899799997 ], [ -115.2518166, 36.145053899799997 ], [ -115.2518166, 36.1450565998 ], [ -115.2518139, 36.1450565998 ], [ -115.2518139, 36.145072799799998 ], [ -115.2518112, 36.145072799799998 ], [ -115.2518112, 36.145078199799997 ], [ -115.2518058, 36.145078199799997 ], [ -115.2518058, 36.1450808998 ], [ -115.2517896, 36.1450808998 ], [ -115.2517896, 36.145083599800003 ], [ -115.2516843, 36.145083599800003 ], [ -115.2516843, 36.145086299799999 ], [ -115.251633, 36.145086299799999 ], [ -115.251633, 36.145088999800002 ], [ -115.2515358, 36.145088999800002 ], [ -115.2515358, 36.145091699799998 ] ] ] } }
]
}
