{
"type": "FeatureCollection",
"crs": { "type": "name", "properties": { "name": "urn:ogc:def:crs:OGC:1.3:CRS84" } },
"features": [
{ "type": "Feature", "properties": { "value": 255.0 }, "geometry": { "type": "Polygon", "coordinates": [ [ [ -115.2566226, 36.2055176999 ], [ -115.2562932, 36.2055176999 ], [ -115.2562932, 36.205463699900001 ], [ -115.2562905, 36.205463699900001 ], [ -115.2562905, 36.205436699899998 ], [ -115.2562932, 36.205436699899998 ], [ -115.2562932, 36.205433999900002 ], [ -115.2562959, 36.205433999900002 ], [ -115.2562959, 36.205431299899999 ], [ -115.2563067, 36.205431299899999 ], [ -115.2563067, 36.205428599900003 ], [ -115.2563202, 36.205428599900003 ], [ -115.2563202, 36.2054258999 ], [ -115.2563256, 36.2054258999 ], [ -115.2563256, 36.205423199899997 ], [ -115.256331, 36.205423199899997 ], [ -115.256331, 36.205420499900001 ], [ -115.2563391, 36.205420499900001 ], [ -115.2563391, 36.205417799899998 ], [ -115.2563472, 36.205417799899998 ], [ -115.2563472, 36.205420499900001 ], [ -115.2563553, 36.205420499900001 ], [ -115.2563553, 36.205423199899997 ], [ -115.2564714, 36.205423199899997 ], [ -115.2564714, 36.205420499900001 ], [ -115.2565416, 36.205420499900001 ], [ -115.2565416, 36.205417799899998 ], [ -115.2566226, 36.205417799899998 ], [ -115.2566226, 36.2055176999 ] ] ] } },
{ "type": "Feature", "properties": { "value": 255.0 }, "geometry": { "type": "Polygon", "coordinates": [ [ [ -115.2554238, 36.2055176999 ], [ -115.2552159, 36.2055176999 ], [ -115.2552159, 36.205501499900002 ], [ -115.2552132, 36.205501499900002 ], [ -115.2552132, 36.205487999900001 ], [ -115.2552159, 36.205487999900001 ], [ -115.2552159, 36.205471799899996 ], [ -115.2552186, 36.205471799899996 ], [ -115.2552186, 36.205460999899998 ], [ -115.2552213, 36.205460999899998 ], [ -115.2552213, 36.2054447999 ], [ -115.255224, 36.2054447999 ], [ -115.255224, 36.205436699899998 ], [ -115.2552267, 36.205436699899998 ], [ -115.2552267, 36.205428599900003 ], [ -115.2552294, 36.205428599900003 ], [ -115.2552294, 36.205404299899996 ], [ -115.2552321, 36.205404299899996 ], [ -115.2552321, 36.205355699899997 ], [ -115.2552348, 36.205355699899997 ], [ -115.2552348, 36.205344899899998 ], [ -115.2552375, 36.205344899899998 ], [ -115.2552375, 36.205320599899999 ], [ -115.2552402, 36.205320599899999 ], [ -115.2552402, 36.2052854999 ], [ -115.2552429, 36.2052854999 ], [ -115.2552429, 36.205280099900001 ], [ -115.2552456, 36.205280099900001 ], [ -115.2552456, 36.205277399899998 ], [ -115.2552483, 36.205277399899998 ], [ -115.2552483, 36.205274699900002 ], [ -115.2552699, 36.205274699900002 ], [ -115.2552699, 36.205277399899998 ], [ -115.2552996, 36.205277399899998 ], [ -115.2552996, 36.205280099900001 ], [ -115.2553239, 36.205280099900001 ], [ -115.2553239, 36.205282799899997 ], [ -115.2553428, 36.205282799899997 ], [ -115.2553428, 36.2052854999 ], [ -115.255359, 36.2052854999 ], [ -115.255359, 36.205288199899996 ], [ -115.255386, 36.205288199899996 ], [ -115.255386, 36.2052908999 ], [ -115.2554265, 36.2052908999 ], [ -115.2554265, 36.205293599900003 ], [ -115.2554481, 36.205293599900003 ], [ -115.2554481, 36.205296299899999 ], [ -115.2554535, 36.205296299899999 ], [ -115.2554535, 36.205298999900002 ], [ -115.2554562, 36.205298999900002 ], [ -115.2554562, 36.205312499899996 ], [ -115.2554535, 36.205312499899996 ], [ -115.2554535, 36.205320599899999 ], [ -115.2554508, 36.205320599899999 ], [ -115.2554508, 36.205325999899998 ], [ -115.2554481, 36.205325999899998 ], [ -115.2554481, 36.205339499899999 ], [ -115.2554454, 36.205339499899999 ], [ -115.2554454, 36.205369199899998 ], [ -115.2554427, 36.205369199899998 ], [ -115.2554427, 36.205385399900003 ], [ -115.25544, 36.205385399900003 ], [ -115.25544, 36.205396199900001 ], [ -115.2554373, 36.205396199900001 ], [ -115.2554373, 36.205412399899998 ], [ -115.2554346, 36.205412399899998 ], [ -115.2554346, 36.205431299899999 ], [ -115.2554319, 36.205431299899999 ], [ -115.2554319, 36.205452899900003 ], [ -115.2554292, 36.205452899900003 ], [ -115.2554292, 36.205471799899996 ], [ -115.2554265, 36.205471799899996 ], [ -115.2554265, 36.205485299899998 ], [ -115.2554238, 36.205485299899998 ], [ -115.2554238, 36.205498799899999 ], [ -115.2554211, 36.205498799899999 ], [ -115.2554211, 36.205514999899997 ], [ -115.2554238, 36.205514999899997 ], [ -115.2554238, 36.2055176999 ] ] ] } },
{ "type": "Feature", "properties": { "value": 255.0 }, "geometry": { "type": "Polygon", "coordinates": [ [ [ -115.2549702, 36.2054933999 ], [ -115.2549216, 36.2054933999 ], [ -115.2549216, 36.205490699899997 ], [ -115.2549054, 36.205490699899997 ], [ -115.2549054, 36.205487999900001 ], [ -115.2548703, 36.205487999900001 ], [ -115.2548703, 36.205490699899997 ], [ -115.2548676, 36.205490699899997 ], [ -115.2548676, 36.205255799900002 ], [ -115.2548838, 36.205255799900002 ], [ -115.2548838, 36.205258499899998 ], [ -115.2548919, 36.205258499899998 ], [ -115.2548919, 36.205261199900001 ], [ -115.2549108, 36.205261199900001 ], [ -115.2549108, 36.205258499899998 ], [ -115.2549243, 36.205258499899998 ], [ -115.2549243, 36.205261199900001 ], [ -115.2549459, 36.205261199900001 ], [ -115.2549459, 36.205263899899997 ], [ -115.2549756, 36.205263899899997 ], [ -115.2549756, 36.2052665999 ], [ -115.2550053, 36.2052665999 ], [ -115.2550053, 36.205269299899996 ], [ -115.2550107, 36.205269299899996 ], [ -115.2550107, 36.205271999899999 ], [ -115.2550134, 36.205271999899999 ], [ -115.2550134, 36.205277399899998 ], [ -115.2550161, 36.205277399899998 ], [ -115.2550161, 36.2052908999 ], [ -115.2550134, 36.2052908999 ], [ -115.2550134, 36.205296299899999 ], [ -115.2550107, 36.205296299899999 ], [ -115.2550107, 36.205301699899998 ], [ -115.255008, 36.205301699899998 ], [ -115.255008, 36.2053097999 ], [ -115.2550053, 36.2053097999 ], [ -115.2550053, 36.205320599899999 ], [ -115.2550026, 36.205320599899999 ], [ -115.2550026, 36.205336799899996 ], [ -115.2549999, 36.205336799899996 ], [ -115.2549999, 36.2053583999 ], [ -115.2549972, 36.2053583999 ], [ -115.2549972, 36.205374599899997 ], [ -115.2549945, 36.205374599899997 ], [ -115.2549945, 36.205388099899999 ], [ -115.2549918, 36.205388099899999 ], [ -115.2549918, 36.205398899899997 ], [ -115.2549891, 36.205398899899997 ], [ -115.2549891, 36.205415099900002 ], [ -115.2549864, 36.205415099900002 ], [ -115.2549864, 36.205420499900001 ], [ -115.2549837, 36.205420499900001 ], [ -115.2549837, 36.205428599900003 ], [ -115.254981, 36.205428599900003 ], [ -115.254981, 36.205439399900001 ], [ -115.2549783, 36.205439399900001 ], [ -115.2549783, 36.205460999899998 ], [ -115.2549756, 36.205460999899998 ], [ -115.2549756, 36.205482599900002 ], [ -115.2549729, 36.205482599900002 ], [ -115.2549729, 36.205490699899997 ], [ -115.2549702, 36.205490699899997 ], [ -115.2549702, 36.2054933999 ] ] ] } },
{ "type": "Feature", "properties": { "value": 255.0 }, "geometry": { "type": "Polygon", "coordinates": [ [ [ -115.2553725, 36.205120799900001 ], [ -115.2553482, 36.205120799900001 ], [ -115.2553482, 36.205118099899998 ], [ -115.2553266, 36.205118099899998 ], [ -115.2553266, 36.205115399900002 ], [ -115.2553131, 36.205115399900002 ], [ -115.2553131, 36.205112699899999 ], [ -115.2552969, 36.205112699899999 ], [ -115.2552969, 36.205109999899996 ], [ -115.2552807, 36.205109999899996 ], [ -115.2552807, 36.2051072999 ], [ -115.2552618, 36.2051072999 ], [ -115.2552618, 36.205104599899997 ], [ -115.2552294, 36.205104599899997 ], [ -115.2552294, 36.205101899900001 ], [ -115.2552078, 36.205101899900001 ], [ -115.2552078, 36.205099199899998 ], [ -115.2551673, 36.205099199899998 ], [ -115.2551673, 36.205096499900002 ], [ -115.2551484, 36.205096499900002 ], [ -115.2551484, 36.205093799899998 ], [ -115.2551052, 36.205093799899998 ], [ -115.2551052, 36.205091099900002 ], [ -115.2551025, 36.205091099900002 ], [ -115.2551025, 36.205093799899998 ], [ -115.2550998, 36.205093799899998 ], [ -115.2550998, 36.205091099900002 ], [ -115.2550944, 36.205091099900002 ], [ -115.2550944, 36.205088399899999 ], [ -115.2550917, 36.205088399899999 ], [ -115.2550917, 36.205085699899996 ], [ -115.255089, 36.205085699899996 ], [ -115.255089, 36.205053299900001 ], [ -115.2550863, 36.205053299900001 ], [ -115.2550863, 36.205037099899997 ], [ -115.255089, 36.205037099899997 ], [ -115.255089, 36.205031699899997 ], [ -115.2550917, 36.205031699899997 ], [ -115.2550917, 36.205028999900001 ], [ -115.2550944, 36.205028999900001 ], [ -115.2550944, 36.205026299899998 ], [ -115.2550971, 36.205026299899998 ], [ -115.2550971, 36.205023599900002 ], [ -115.2550998, 36.205023599900002 ], [ -115.2550998, 36.205018199899996 ], [ -115.2551025, 36.205018199899996 ], [ -115.2551025, 36.2050154999 ], [ -115.2551079, 36.2050154999 ], [ -115.2551079, 36.205012799899997 ], [ -115.2551268, 36.205012799899997 ], [ -115.2551268, 36.205010099900001 ], [ -115.2551322, 36.205010099900001 ], [ -115.2551322, 36.205004699900002 ], [ -115.2551349, 36.205004699900002 ], [ -115.2551349, 36.205001999899999 ], [ -115.2551376, 36.205001999899999 ], [ -115.2551376, 36.204996599899999 ], [ -115.2551403, 36.204996599899999 ], [ -115.2551403, 36.2049911999 ], [ -115.255143, 36.2049911999 ], [ -115.255143, 36.204974999899996 ], [ -115.2551457, 36.204974999899996 ], [ -115.2551457, 36.2049668999 ], [ -115.2551484, 36.2049668999 ], [ -115.2551484, 36.204956099900002 ], [ -115.2551511, 36.204956099900002 ], [ -115.2551511, 36.204950699899996 ], [ -115.2551538, 36.204950699899996 ], [ -115.2551538, 36.2049479999 ], [ -115.2551565, 36.2049479999 ], [ -115.2551565, 36.204945299899997 ], [ -115.2551619, 36.204945299899997 ], [ -115.2551619, 36.204942599900001 ], [ -115.2551727, 36.204942599900001 ], [ -115.2551727, 36.204939899899998 ], [ -115.2551835, 36.204939899899998 ], [ -115.2551835, 36.204937199900002 ], [ -115.2551943, 36.204937199900002 ], [ -115.2551943, 36.204934499899998 ], [ -115.255197, 36.204934499899998 ], [ -115.255197, 36.204931799899995 ], [ -115.2551997, 36.204931799899995 ], [ -115.2551997, 36.204929099899999 ], [ -115.2552051, 36.204929099899999 ], [ -115.2552051, 36.2049236999 ], [ -115.2552078, 36.2049236999 ], [ -115.2552078, 36.204915599899998 ], [ -115.2552105, 36.204915599899998 ], [ -115.2552105, 36.2049047999 ], [ -115.2552132, 36.2049047999 ], [ -115.2552132, 36.2048804999 ], [ -115.2552159, 36.2048804999 ], [ -115.2552159, 36.204875099900001 ], [ -115.2552213, 36.204875099900001 ], [ -115.2552213, 36.204872399899998 ], [ -115.2552294, 36.204872399899998 ], [ -115.2552294, 36.204875099900001 ], [ -115.2552429, 36.204875099900001 ], [ -115.2552429, 36.204877799899997 ], [ -115.2552456, 36.204877799899997 ], [ -115.2552456, 36.204875099900001 ], [ -115.255251, 36.204875099900001 ], [ -115.255251, 36.204877799899997 ], [ -115.2552915, 36.204877799899997 ], [ -115.2552915, 36.2048804999 ], [ -115.2553077, 36.2048804999 ], [ -115.2553077, 36.204883199899996 ], [ -115.2553185, 36.204883199899996 ], [ -115.2553185, 36.204885899899999 ], [ -115.2553536, 36.204885899899999 ], [ -115.2553536, 36.204888599900002 ], [ -115.2553779, 36.204888599900002 ], [ -115.2553779, 36.204891299899998 ], [ -115.2554076, 36.204891299899998 ], [ -115.2554076, 36.204893999900001 ], [ -115.2554157, 36.204893999900001 ], [ -115.2554157, 36.204896699899997 ], [ -115.2554184, 36.204896699899997 ], [ -115.2554184, 36.2048993999 ], [ -115.2554211, 36.2048993999 ], [ -115.2554211, 36.204907499899996 ], [ -115.2554184, 36.204907499899996 ], [ -115.2554184, 36.204918299900001 ], [ -115.2554157, 36.204918299900001 ], [ -115.2554157, 36.2049236999 ], [ -115.255413, 36.2049236999 ], [ -115.255413, 36.204929099899999 ], [ -115.2554103, 36.204929099899999 ], [ -115.2554103, 36.204945299899997 ], [ -115.2554076, 36.204945299899997 ], [ -115.2554076, 36.204953399899999 ], [ -115.2554049, 36.204953399899999 ], [ -115.2554049, 36.204977699899999 ], [ -115.2554022, 36.204977699899999 ], [ -115.2554022, 36.204993899899996 ], [ -115.2553995, 36.204993899899996 ], [ -115.2553995, 36.205010099900001 ], [ -115.2553968, 36.205010099900001 ], [ -115.2553968, 36.205020899899999 ], [ -115.2553941, 36.205020899899999 ], [ -115.2553941, 36.205031699899997 ], [ -115.2553914, 36.205031699899997 ], [ -115.2553914, 36.2050397999 ], [ -115.2553887, 36.2050397999 ], [ -115.2553887, 36.2050586999 ], [ -115.255386, 36.2050586999 ], [ -115.255386, 36.2050829999 ], [ -115.2553833, 36.2050829999 ], [ -115.2553833, 36.205096499900002 ], [ -115.2553806, 36.205096499900002 ], [ -115.2553806, 36.205115399900002 ], [ -115.2553779, 36.205115399900002 ], [ -115.2553779, 36.205118099899998 ], [ -115.2553725, 36.205118099899998 ], [ -115.2553725, 36.205120799900001 ] ] ] } },
{ "type": "Feature", "properties": { "value": 255.0 }, "geometry": { "type": "Polygon", "coordinates": [ [ [ -115.2564174, 36.204756299899998 ], [ -115.2563499, 36.204756299899998 ], [ -115.2563499, 36.204753599900002 ], [ -115.256331, 36.204753599900002 ], [ -115.256331, 36.204756299899998 ], [ -115.25625, 36.204756299899998 ], [ -115.25625, 36.204731999899998 ], [ -115.2562473, 36.204731999899998 ], [ -115.2562473, 36.204726599899999 ], [ -115.2562446, 36.204726599899999 ], [ -115.2562446, 36.2047211999 ], [ -115.2562419, 36.2047211999 ], [ -115.2562419, 36.204691499900001 ], [ -115.2562446, 36.204691499900001 ], [ -115.2562446, 36.204683399899999 ], [ -115.2562473, 36.204683399899999 ], [ -115.2562473, 36.204669899899997 ], [ -115.25625, 36.204669899899997 ], [ -115.25625, 36.204661799899995 ], [ -115.2562608, 36.204661799899995 ], [ -115.2562608, 36.204659099899999 ], [ -115.2562851, 36.204659099899999 ], [ -115.2562851, 36.204661799899995 ], [ -115.2563607, 36.204661799899995 ], [ -115.2563607, 36.204664499899998 ], [ -115.2563688, 36.204664499899998 ], [ -115.2563688, 36.204667199900001 ], [ -115.2563904, 36.204667199900001 ], [ -115.2563904, 36.204669899899997 ], [ -115.2563985, 36.204669899899997 ], [ -115.2563985, 36.204688799899998 ], [ -115.2563958, 36.204688799899998 ], [ -115.2563958, 36.204691499900001 ], [ -115.2563931, 36.204691499900001 ], [ -115.2563931, 36.204694199899997 ], [ -115.2563904, 36.204694199899997 ], [ -115.2563904, 36.2046968999 ], [ -115.2563931, 36.2046968999 ], [ -115.2563931, 36.204699599899996 ], [ -115.2563985, 36.204699599899996 ], [ -115.2563985, 36.204702299899999 ], [ -115.2564012, 36.204702299899999 ], [ -115.2564012, 36.204704999899995 ], [ -115.2564039, 36.204704999899995 ], [ -115.2564039, 36.204707699899998 ], [ -115.256412, 36.204707699899998 ], [ -115.256412, 36.204710399900002 ], [ -115.2564174, 36.204710399900002 ], [ -115.2564174, 36.204713099899998 ], [ -115.2564201, 36.204713099899998 ], [ -115.2564201, 36.204753599900002 ], [ -115.2564174, 36.204753599900002 ], [ -115.2564174, 36.204756299899998 ] ] ] } },
{ "type": "Feature", "properties": { "value": 255.0 }, "geometry": { "type": "Polygon", "coordinates": [ [ [ -115.255467, 36.204664499899998 ], [ -115.2554238, 36.204664499899998 ], [ -115.2554238, 36.204661799899995 ], [ -115.2553995, 36.204661799899995 ], [ -115.2553995, 36.204659099899999 ], [ -115.2553833, 36.204659099899999 ], [ -115.2553833, 36.204656399899996 ], [ -115.2553617, 36.204656399899996 ], [ -115.2553617, 36.2046536999 ], [ -115.2553374, 36.2046536999 ], [ -115.2553374, 36.204650999899997 ], [ -115.2553212, 36.204650999899997 ], [ -115.2553212, 36.204648299900001 ], [ -115.2552969, 36.204648299900001 ], [ -115.2552969, 36.204645599899997 ], [ -115.2552726, 36.204645599899997 ], [ -115.2552726, 36.204642899900001 ], [ -115.2552699, 36.204642899900001 ], [ -115.2552699, 36.204640199899998 ], [ -115.2552672, 36.204640199899998 ], [ -115.2552672, 36.204637499899995 ], [ -115.2552645, 36.204637499899995 ], [ -115.2552645, 36.204621299899998 ], [ -115.2552672, 36.204621299899998 ], [ -115.2552672, 36.204599699900001 ], [ -115.2552699, 36.204599699900001 ], [ -115.2552699, 36.2045861999 ], [ -115.2552726, 36.2045861999 ], [ -115.2552726, 36.204567299899999 ], [ -115.2552753, 36.204567299899999 ], [ -115.2552753, 36.204553799899998 ], [ -115.255278, 36.204553799899998 ], [ -115.255278, 36.204542999899999 ], [ -115.2552807, 36.204542999899999 ], [ -115.2552807, 36.204524099899999 ], [ -115.2552834, 36.204524099899999 ], [ -115.2552834, 36.2045132999 ], [ -115.2552861, 36.2045132999 ], [ -115.2552861, 36.204499799899999 ], [ -115.2552888, 36.204499799899999 ], [ -115.2552888, 36.204483599900001 ], [ -115.2552915, 36.204483599900001 ], [ -115.2552915, 36.204475499899999 ], [ -115.2552942, 36.204475499899999 ], [ -115.2552942, 36.204464699900001 ], [ -115.2552969, 36.204464699900001 ], [ -115.2552969, 36.204453899899995 ], [ -115.2552996, 36.204453899899995 ], [ -115.2552996, 36.2044268999 ], [ -115.2553023, 36.2044268999 ], [ -115.2553023, 36.2044214999 ], [ -115.255305, 36.2044214999 ], [ -115.255305, 36.204418799899997 ], [ -115.2553077, 36.204418799899997 ], [ -115.2553077, 36.204416099900001 ], [ -115.255332, 36.204416099900001 ], [ -115.255332, 36.204418799899997 ], [ -115.2553617, 36.204418799899997 ], [ -115.2553617, 36.2044214999 ], [ -115.2553833, 36.2044214999 ], [ -115.2553833, 36.204424199899996 ], [ -115.2554076, 36.204424199899996 ], [ -115.2554076, 36.2044268999 ], [ -115.2554265, 36.2044268999 ], [ -115.2554265, 36.204429599899996 ], [ -115.2554427, 36.204429599899996 ], [ -115.2554427, 36.204432299899999 ], [ -115.2554616, 36.204432299899999 ], [ -115.2554616, 36.204434999899995 ], [ -115.2554913, 36.204434999899995 ], [ -115.2554913, 36.204437699899998 ], [ -115.2554994, 36.204437699899998 ], [ -115.2554994, 36.204440399900001 ], [ -115.2555048, 36.204440399900001 ], [ -115.2555048, 36.2044457999 ], [ -115.2555075, 36.2044457999 ], [ -115.2555075, 36.204456599899999 ], [ -115.2555048, 36.204456599899999 ], [ -115.2555048, 36.204467399899997 ], [ -115.2555021, 36.204467399899997 ], [ -115.2555021, 36.204472799899996 ], [ -115.2554994, 36.204472799899996 ], [ -115.2554994, 36.204478199899995 ], [ -115.2554967, 36.204478199899995 ], [ -115.2554967, 36.2044943999 ], [ -115.255494, 36.2044943999 ], [ -115.255494, 36.204524099899999 ], [ -115.2554913, 36.204524099899999 ], [ -115.2554913, 36.204542999899999 ], [ -115.2554886, 36.204542999899999 ], [ -115.2554886, 36.204553799899998 ], [ -115.2554859, 36.204553799899998 ], [ -115.2554859, 36.2045618999 ], [ -115.2554832, 36.2045618999 ], [ -115.2554832, 36.204578099899997 ], [ -115.2554805, 36.204578099899997 ], [ -115.2554805, 36.204594299899995 ], [ -115.2554778, 36.204594299899995 ], [ -115.2554778, 36.204610499899999 ], [ -115.2554751, 36.204610499899999 ], [ -115.2554751, 36.204632099899996 ], [ -115.2554724, 36.204632099899996 ], [ -115.2554724, 36.204648299900001 ], [ -115.2554697, 36.204648299900001 ], [ -115.2554697, 36.204661799899995 ], [ -115.255467, 36.204661799899995 ], [ -115.255467, 36.204664499899998 ] ] ] } },
{ "type": "Feature", "properties": { "value": 255.0 }, "geometry": { "type": "Polygon", "coordinates": [ [ [ -115.2556506, 36.204394499899998 ], [ -115.2556236, 36.204394499899998 ], [ -115.2556236, 36.204391799899994 ], [ -115.2555939, 36.204391799899994 ], [ -115.2555939, 36.204389099899998 ], [ -115.2555534, 36.204389099899998 ], [ -115.2555534, 36.204386399899995 ], [ -115.2555345, 36.204386399899995 ], [ -115.2555345, 36.204383699899999 ], [ -115.2555102, 36.204383699899999 ], [ -115.2555102, 36.204380999899996 ], [ -115.2554994, 36.204380999899996 ], [ -115.2554994, 36.2043782999 ], [ -115.2554832, 36.2043782999 ], [ -115.2554832, 36.204375599899997 ], [ -115.2554697, 36.204375599899997 ], [ -115.2554697, 36.204372899900001 ], [ -115.25544, 36.204372899900001 ], [ -115.25544, 36.204370199899998 ], [ -115.255413, 36.204370199899998 ], [ -115.255413, 36.204367499899995 ], [ -115.255386, 36.204367499899995 ], [ -115.255386, 36.204364799899999 ], [ -115.255359, 36.204364799899999 ], [ -115.255359, 36.204362099899996 ], [ -115.2553374, 36.204362099899996 ], [ -115.2553374, 36.2043593999 ], [ -115.2553104, 36.2043593999 ], [ -115.2553104, 36.204356699899996 ], [ -115.2552861, 36.204356699899996 ], [ -115.2552861, 36.2043539999 ], [ -115.255278, 36.2043539999 ], [ -115.255278, 36.204324299899994 ], [ -115.2552807, 36.204324299899994 ], [ -115.2552807, 36.204313499899996 ], [ -115.2552834, 36.204313499899996 ], [ -115.2552834, 36.2043107999 ], [ -115.2553266, 36.2043107999 ], [ -115.2553266, 36.204313499899996 ], [ -115.2553482, 36.204313499899996 ], [ -115.2553482, 36.204316199899999 ], [ -115.2553698, 36.204316199899999 ], [ -115.2553698, 36.204318899899995 ], [ -115.2553941, 36.204318899899995 ], [ -115.2553941, 36.204321599899998 ], [ -115.2554562, 36.204321599899998 ], [ -115.2554562, 36.204324299899994 ], [ -115.2554805, 36.204324299899994 ], [ -115.2554805, 36.204326999899997 ], [ -115.2554886, 36.204326999899997 ], [ -115.2554886, 36.204329699900001 ], [ -115.2554967, 36.204329699900001 ], [ -115.2554967, 36.204332399899997 ], [ -115.2555102, 36.204332399899997 ], [ -115.2555102, 36.2043350999 ], [ -115.2555453, 36.2043350999 ], [ -115.2555453, 36.204337799899996 ], [ -115.2555588, 36.204337799899996 ], [ -115.2555588, 36.204340499899999 ], [ -115.2555804, 36.204340499899999 ], [ -115.2555804, 36.204343199899995 ], [ -115.2556074, 36.204343199899995 ], [ -115.2556074, 36.204345899899998 ], [ -115.2556317, 36.204345899899998 ], [ -115.2556317, 36.204348599900001 ], [ -115.2556506, 36.204348599900001 ], [ -115.2556506, 36.204351299899997 ], [ -115.255656, 36.204351299899997 ], [ -115.255656, 36.204356699899996 ], [ -115.2556587, 36.204356699899996 ], [ -115.2556587, 36.2043593999 ], [ -115.255656, 36.2043593999 ], [ -115.255656, 36.2043782999 ], [ -115.2556533, 36.2043782999 ], [ -115.2556533, 36.204391799899994 ], [ -115.2556506, 36.204391799899994 ], [ -115.2556506, 36.204394499899998 ] ] ] } },
{ "type": "Feature", "properties": { "value": 255.0 }, "geometry": { "type": "Polygon", "coordinates": [ [ [ -115.2548784, 36.204343199899995 ], [ -115.2548676, 36.204343199899995 ], [ -115.2548676, 36.204170399900001 ], [ -115.2548838, 36.204170399900001 ], [ -115.2548838, 36.204167699899998 ], [ -115.2548973, 36.204167699899998 ], [ -115.2548973, 36.204170399900001 ], [ -115.255008, 36.204170399900001 ], [ -115.255008, 36.204173099899997 ], [ -115.2550107, 36.204173099899997 ], [ -115.2550107, 36.204178499899996 ], [ -115.2550134, 36.204178499899996 ], [ -115.2550134, 36.204213599900001 ], [ -115.2550161, 36.204213599900001 ], [ -115.2550161, 36.2042675999 ], [ -115.2550134, 36.2042675999 ], [ -115.2550134, 36.204294599899995 ], [ -115.2550107, 36.204294599899995 ], [ -115.2550107, 36.204340499899999 ], [ -115.2549918, 36.204340499899999 ], [ -115.2549918, 36.204337799899996 ], [ -115.2549108, 36.204337799899996 ], [ -115.2549108, 36.204340499899999 ], [ -115.2548784, 36.204340499899999 ], [ -115.2548784, 36.204343199899995 ] ] ] } },
{ "type": "Feature", "properties": { "value": 255.0 }, "geometry": { "type": "Polygon", "coordinates": [ [ [ -115.2564228, 36.2042621999 ], [ -115.2563958, 36.2042621999 ], [ -115.2563958, 36.204259499899997 ], [ -115.2563904, 36.204259499899997 ], [ -115.2563904, 36.204256799899994 ], [ -115.2563877, 36.204256799899994 ], [ -115.2563877, 36.204254099899998 ], [ -115.256385, 36.204254099899998 ], [ -115.256385, 36.204251399899995 ], [ -115.2563823, 36.204251399899995 ], [ -115.2563823, 36.204248699899999 ], [ -115.2563796, 36.204248699899999 ], [ -115.2563796, 36.204245999899996 ], [ -115.2563769, 36.204245999899996 ], [ -115.2563769, 36.204235199899998 ], [ -115.2563742, 36.204235199899998 ], [ -115.2563742, 36.204189299899994 ], [ -115.2563715, 36.204189299899994 ], [ -115.2563715, 36.204146099900001 ], [ -115.2563688, 36.204146099900001 ], [ -115.2563688, 36.204113699899999 ], [ -115.2563661, 36.204113699899999 ], [ -115.2563661, 36.204081299899997 ], [ -115.2563634, 36.204081299899997 ], [ -115.2563634, 36.2040353999 ], [ -115.2563607, 36.2040353999 ], [ -115.2563607, 36.2040164999 ], [ -115.2563634, 36.2040164999 ], [ -115.2563634, 36.204005699899994 ], [ -115.2563607, 36.204005699899994 ], [ -115.2563607, 36.2039921999 ], [ -115.2563634, 36.2039921999 ], [ -115.2563634, 36.203986799899994 ], [ -115.2563661, 36.203986799899994 ], [ -115.2563661, 36.203984099899998 ], [ -115.2563688, 36.203984099899998 ], [ -115.2563688, 36.203981399899995 ], [ -115.2563715, 36.203981399899995 ], [ -115.2563715, 36.203973299899999 ], [ -115.2563742, 36.203973299899999 ], [ -115.2563742, 36.203962499899994 ], [ -115.2563769, 36.203962499899994 ], [ -115.2563769, 36.203959799899998 ], [ -115.2563823, 36.203959799899998 ], [ -115.2563823, 36.203957099899995 ], [ -115.2563877, 36.203957099899995 ], [ -115.2563877, 36.203954399899999 ], [ -115.2564012, 36.203954399899999 ], [ -115.2564012, 36.203951699899996 ], [ -115.256412, 36.203951699899996 ], [ -115.256412, 36.2039489999 ], [ -115.2564201, 36.2039489999 ], [ -115.2564201, 36.203946299899997 ], [ -115.2564282, 36.203946299899997 ], [ -115.2564282, 36.203943599900001 ], [ -115.2564336, 36.203943599900001 ], [ -115.2564336, 36.203940899899997 ], [ -115.2564444, 36.203940899899997 ], [ -115.2564444, 36.203938199899994 ], [ -115.2564876, 36.203938199899994 ], [ -115.2564876, 36.203935499899998 ], [ -115.2565065, 36.203935499899998 ], [ -115.2565065, 36.203932799899995 ], [ -115.2565713, 36.203932799899995 ], [ -115.2565713, 36.203930099899999 ], [ -115.2566091, 36.203930099899999 ], [ -115.2566091, 36.203927399899996 ], [ -115.2566172, 36.203927399899996 ], [ -115.2566172, 36.203930099899999 ], [ -115.2566226, 36.203930099899999 ], [ -115.2566226, 36.204256799899994 ], [ -115.2566199, 36.204256799899994 ], [ -115.2566199, 36.204254099899998 ], [ -115.2566064, 36.204254099899998 ], [ -115.2566064, 36.204251399899995 ], [ -115.256574, 36.204251399899995 ], [ -115.256574, 36.204254099899998 ], [ -115.2565281, 36.204254099899998 ], [ -115.2565281, 36.204256799899994 ], [ -115.256466, 36.204256799899994 ], [ -115.256466, 36.204259499899997 ], [ -115.2564228, 36.204259499899997 ], [ -115.2564228, 36.2042621999 ] ] ] } },
{ "type": "Feature", "properties": { "value": 255.0 }, "geometry": { "type": "Polygon", "coordinates": [ [ [ -115.2549648, 36.203849099899998 ], [ -115.2549027, 36.203849099899998 ], [ -115.2549027, 36.203846399899994 ], [ -115.2548919, 36.203846399899994 ], [ -115.2548919, 36.203843699899998 ], [ -115.2548676, 36.203843699899998 ], [ -115.2548676, 36.203762699899997 ], [ -115.2550215, 36.203762699899997 ], [ -115.2550215, 36.203770799899999 ], [ -115.2550188, 36.203770799899999 ], [ -115.2550188, 36.203781599899997 ], [ -115.2550215, 36.203781599899997 ], [ -115.2550215, 36.203816699899996 ], [ -115.2550188, 36.203816699899996 ], [ -115.2550188, 36.203840999899995 ], [ -115.2549864, 36.203840999899995 ], [ -115.2549864, 36.203843699899998 ], [ -115.2549702, 36.203843699899998 ], [ -115.2549702, 36.203846399899994 ], [ -115.2549648, 36.203846399899994 ], [ -115.2549648, 36.203849099899998 ] ] ] } },
{ "type": "Feature", "properties": { "value": 255.0 }, "geometry": { "type": "Polygon", "coordinates": [ [ [ -115.2558288, 36.2039489999 ], [ -115.2556155, 36.2039489999 ], [ -115.2556155, 36.203946299899997 ], [ -115.2555804, 36.203946299899997 ], [ -115.2555804, 36.203943599900001 ], [ -115.2555777, 36.203943599900001 ], [ -115.2555777, 36.203940899899997 ], [ -115.255575, 36.203940899899997 ], [ -115.255575, 36.203938199899994 ], [ -115.2555723, 36.203938199899994 ], [ -115.2555723, 36.203935499899998 ], [ -115.2555696, 36.203935499899998 ], [ -115.2555696, 36.203932799899995 ], [ -115.2555642, 36.203932799899995 ], [ -115.2555642, 36.203930099899999 ], [ -115.2555588, 36.203930099899999 ], [ -115.2555588, 36.203927399899996 ], [ -115.2555507, 36.203927399899996 ], [ -115.2555507, 36.2039246999 ], [ -115.2555399, 36.2039246999 ], [ -115.2555399, 36.203921999899997 ], [ -115.2555264, 36.203921999899997 ], [ -115.2555264, 36.203919299899994 ], [ -115.2555237, 36.203919299899994 ], [ -115.2555237, 36.203913899899995 ], [ -115.255521, 36.203913899899995 ], [ -115.255521, 36.203905799899999 ], [ -115.2555183, 36.203905799899999 ], [ -115.2555183, 36.2039003999 ], [ -115.2555156, 36.2039003999 ], [ -115.2555156, 36.203894999899994 ], [ -115.2555129, 36.203894999899994 ], [ -115.2555129, 36.203892299899998 ], [ -115.2555102, 36.203892299899998 ], [ -115.2555102, 36.203889599899995 ], [ -115.2555048, 36.203889599899995 ], [ -115.2555048, 36.203886899899999 ], [ -115.2555021, 36.203886899899999 ], [ -115.2555021, 36.203884199899996 ], [ -115.255494, 36.203884199899996 ], [ -115.255494, 36.2038814999 ], [ -115.2554886, 36.2038814999 ], [ -115.2554886, 36.203878799899996 ], [ -115.255467, 36.203878799899996 ], [ -115.255467, 36.2038760999 ], [ -115.2554643, 36.2038760999 ], [ -115.2554643, 36.203873399899997 ], [ -115.2554616, 36.203873399899997 ], [ -115.2554616, 36.203870699899994 ], [ -115.2554589, 36.203870699899994 ], [ -115.2554589, 36.203859899899996 ], [ -115.2554562, 36.203859899899996 ], [ -115.2554562, 36.2037653999 ], [ -115.2554589, 36.2037653999 ], [ -115.2554589, 36.203762699899997 ], [ -115.2558477, 36.203762699899997 ], [ -115.2558477, 36.203768099899996 ], [ -115.255845, 36.203768099899996 ], [ -115.255845, 36.203778899899994 ], [ -115.2558423, 36.203778899899994 ], [ -115.2558423, 36.203943599900001 ], [ -115.2558396, 36.203943599900001 ], [ -115.2558396, 36.203946299899997 ], [ -115.2558288, 36.203946299899997 ], [ -115.2558288, 36.2039489999 ] ] ] } }
]
}
