{
"type": "FeatureCollection",
"crs": { "type": "name", "properties": { "name": "urn:ogc:def:crs:OGC:1.3:CRS84" } },
"features": [
{ "type": "Feature", "properties": { "value": 255.0 }, "geometry": { "type": "Polygon", "coordinates": [ [ [ -115.2417834, 36.2441115 ], [ -115.24175910000001, 36.2441115 ], [ -115.24175910000001, 36.2441088 ], [ -115.2417321, 36.2441088 ], [ -115.2417321, 36.2441061 ], [ -115.2417024, 36.2441061 ], [ -115.2417024, 36.2441034 ], [ -115.241697, 36.2441034 ], [ -115.241697, 36.2441007 ], [ -115.2416943, 36.2441007 ], [ -115.2416943, 36.244098 ], [ -115.24169160000001, 36.244098 ], [ -115.24169160000001, 36.2440845 ], [ -115.2416943, 36.2440845 ], [ -115.2416943, 36.2440656 ], [ -115.241697, 36.2440656 ], [ -115.241697, 36.2440413 ], [ -115.2416997, 36.2440413 ], [ -115.2416997, 36.2440359 ], [ -115.2417024, 36.2440359 ], [ -115.2417024, 36.2440332 ], [ -115.2417807, 36.2440332 ], [ -115.2417807, 36.2440359 ], [ -115.2417861, 36.2440359 ], [ -115.2417861, 36.2440386 ], [ -115.2417888, 36.2440386 ], [ -115.2417888, 36.2440413 ], [ -115.2417915, 36.2440413 ], [ -115.2417915, 36.2440872 ], [ -115.2417888, 36.2440872 ], [ -115.2417888, 36.2441034 ], [ -115.2417861, 36.2441034 ], [ -115.2417861, 36.2441088 ], [ -115.2417834, 36.2441088 ], [ -115.2417834, 36.2441115 ] ] ] } },
{ "type": "Feature", "properties": { "value": 255.0 }, "geometry": { "type": "Polygon", "coordinates": [ [ [ -115.2409842, 36.2440359 ], [ -115.2409653, 36.2440359 ], [ -115.2409653, 36.2440332 ], [ -115.240941, 36.2440332 ], [ -115.240941, 36.2440305 ], [ -115.2409248, 36.2440305 ], [ -115.2409248, 36.2440278 ], [ -115.2409221, 36.2440278 ], [ -115.2409221, 36.2440251 ], [ -115.24091940000001, 36.2440251 ], [ -115.24091940000001, 36.2440089 ], [ -115.2409221, 36.2440089 ], [ -115.2409221, 36.2440062 ], [ -115.2409626, 36.2440062 ], [ -115.2409626, 36.2440035 ], [ -115.2409653, 36.2440035 ], [ -115.2409653, 36.24399 ], [ -115.240968, 36.24399 ], [ -115.240968, 36.2439846 ], [ -115.2409707, 36.2439846 ], [ -115.2409707, 36.2439819 ], [ -115.2409896, 36.2439819 ], [ -115.2409896, 36.2439846 ], [ -115.2409923, 36.2439846 ], [ -115.2409923, 36.2440251 ], [ -115.2409896, 36.2440251 ], [ -115.2409896, 36.2440332 ], [ -115.2409842, 36.2440332 ], [ -115.2409842, 36.2440359 ] ] ] } },
{ "type": "Feature", "properties": { "value": 255.0 }, "geometry": { "type": "Polygon", "coordinates": [ [ [ -115.2420021, 36.2440467 ], [ -115.2419751, 36.2440467 ], [ -115.2419751, 36.244044 ], [ -115.2419535, 36.244044 ], [ -115.2419535, 36.2440413 ], [ -115.241913, 36.2440413 ], [ -115.241913, 36.2440386 ], [ -115.2418833, 36.2440386 ], [ -115.2418833, 36.2440359 ], [ -115.241864400000011, 36.2440359 ], [ -115.241864400000011, 36.2440386 ], [ -115.2418482, 36.2440386 ], [ -115.2418482, 36.2440359 ], [ -115.2418428, 36.2440359 ], [ -115.2418428, 36.2440332 ], [ -115.2418401, 36.2440332 ], [ -115.2418401, 36.2440305 ], [ -115.2418374, 36.2440305 ], [ -115.2418374, 36.2440116 ], [ -115.2418347, 36.2440116 ], [ -115.2418347, 36.2440062 ], [ -115.241832, 36.2440062 ], [ -115.241832, 36.2440035 ], [ -115.24182660000001, 36.2440035 ], [ -115.24182660000001, 36.2440008 ], [ -115.24180770000001, 36.2440008 ], [ -115.24180770000001, 36.2440035 ], [ -115.2417888, 36.2440035 ], [ -115.2417888, 36.2440008 ], [ -115.2417456, 36.2440008 ], [ -115.2417456, 36.2439981 ], [ -115.2417429, 36.2439981 ], [ -115.2417429, 36.2439927 ], [ -115.24174020000001, 36.2439927 ], [ -115.24174020000001, 36.24399 ], [ -115.2417429, 36.24399 ], [ -115.2417429, 36.2439657 ], [ -115.2417456, 36.2439657 ], [ -115.2417456, 36.2439603 ], [ -115.2417429, 36.2439603 ], [ -115.2417429, 36.2439468 ], [ -115.24174020000001, 36.2439468 ], [ -115.24174020000001, 36.2439387 ], [ -115.2417375, 36.2439387 ], [ -115.2417375, 36.2439306 ], [ -115.24174020000001, 36.2439306 ], [ -115.24174020000001, 36.2439279 ], [ -115.2417429, 36.2439279 ], [ -115.2417429, 36.2439252 ], [ -115.2417456, 36.2439252 ], [ -115.2417456, 36.2439225 ], [ -115.2417483, 36.2439225 ], [ -115.2417483, 36.2439198 ], [ -115.241751, 36.2439198 ], [ -115.241751, 36.2439171 ], [ -115.2417564, 36.2439171 ], [ -115.2417564, 36.2439144 ], [ -115.241796900000011, 36.2439144 ], [ -115.241796900000011, 36.2439171 ], [ -115.2418293, 36.2439171 ], [ -115.2418293, 36.2439198 ], [ -115.2418347, 36.2439198 ], [ -115.2418347, 36.2439225 ], [ -115.2418401, 36.2439225 ], [ -115.2418401, 36.2439252 ], [ -115.2418428, 36.2439252 ], [ -115.2418428, 36.2439279 ], [ -115.241864400000011, 36.2439279 ], [ -115.241864400000011, 36.2439306 ], [ -115.2418968, 36.2439306 ], [ -115.2418968, 36.2439333 ], [ -115.2419211, 36.2439333 ], [ -115.2419211, 36.243936 ], [ -115.2419373, 36.243936 ], [ -115.2419373, 36.2439387 ], [ -115.2419697, 36.2439387 ], [ -115.2419697, 36.2439414 ], [ -115.2419886, 36.2439414 ], [ -115.2419886, 36.2439441 ], [ -115.2419967, 36.2439441 ], [ -115.2419967, 36.2439468 ], [ -115.2420048, 36.2439468 ], [ -115.2420048, 36.2439495 ], [ -115.2420129, 36.2439495 ], [ -115.2420129, 36.2439522 ], [ -115.2420183, 36.2439522 ], [ -115.2420183, 36.2439549 ], [ -115.242021, 36.2439549 ], [ -115.242021, 36.2439873 ], [ -115.2420183, 36.2439873 ], [ -115.2420183, 36.2439981 ], [ -115.2420156, 36.2439981 ], [ -115.2420156, 36.2440089 ], [ -115.2420129, 36.2440089 ], [ -115.2420129, 36.2440197 ], [ -115.24201020000001, 36.2440197 ], [ -115.24201020000001, 36.2440305 ], [ -115.2420075, 36.2440305 ], [ -115.2420075, 36.2440413 ], [ -115.2420048, 36.2440413 ], [ -115.2420048, 36.244044 ], [ -115.2420021, 36.244044 ], [ -115.2420021, 36.2440467 ] ] ] } },
{ "type": "Feature", "properties": { "value": 255.0 }, "geometry": { "type": "Polygon", "coordinates": [ [ [ -115.2416943, 36.2439495 ], [ -115.2416727, 36.2439495 ], [ -115.2416727, 36.2439468 ], [ -115.24167, 36.2439468 ], [ -115.24167, 36.2439279 ], [ -115.2416727, 36.2439279 ], [ -115.2416727, 36.2439198 ], [ -115.2416754, 36.2439198 ], [ -115.2416754, 36.2439171 ], [ -115.24169160000001, 36.2439171 ], [ -115.24169160000001, 36.2439225 ], [ -115.2416943, 36.2439225 ], [ -115.2416943, 36.243936 ], [ -115.241697, 36.243936 ], [ -115.241697, 36.2439441 ], [ -115.2416943, 36.2439441 ], [ -115.2416943, 36.2439495 ] ] ] } },
{ "type": "Feature", "properties": { "value": 255.0 }, "geometry": { "type": "Polygon", "coordinates": [ [ [ -115.2415971, 36.2440251 ], [ -115.2415782, 36.2440251 ], [ -115.2415782, 36.2440224 ], [ -115.241562, 36.2440224 ], [ -115.241562, 36.2440197 ], [ -115.2415161, 36.2440197 ], [ -115.2415161, 36.244017 ], [ -115.2414972, 36.244017 ], [ -115.2414972, 36.2440116 ], [ -115.2414945, 36.2440116 ], [ -115.2414945, 36.2440062 ], [ -115.2414972, 36.2440062 ], [ -115.2414972, 36.24399 ], [ -115.2414945, 36.24399 ], [ -115.2414945, 36.2439873 ], [ -115.24148910000001, 36.2439873 ], [ -115.24148910000001, 36.2439846 ], [ -115.2414513, 36.2439846 ], [ -115.2414513, 36.2439819 ], [ -115.2414162, 36.2439819 ], [ -115.2414162, 36.2439846 ], [ -115.2414081, 36.2439846 ], [ -115.2414081, 36.2439873 ], [ -115.241391900000011, 36.2439873 ], [ -115.241391900000011, 36.2439846 ], [ -115.2413865, 36.2439846 ], [ -115.2413865, 36.2439819 ], [ -115.2413811, 36.2439819 ], [ -115.2413811, 36.2439792 ], [ -115.241373, 36.2439792 ], [ -115.241373, 36.2439819 ], [ -115.2413703, 36.2439819 ], [ -115.2413703, 36.2439873 ], [ -115.2413676, 36.2439873 ], [ -115.2413676, 36.2439927 ], [ -115.2413649, 36.2439927 ], [ -115.2413649, 36.2440008 ], [ -115.2413622, 36.2440008 ], [ -115.2413622, 36.2440035 ], [ -115.2413595, 36.2440035 ], [ -115.2413595, 36.2440062 ], [ -115.2413568, 36.2440062 ], [ -115.2413568, 36.2440089 ], [ -115.2413541, 36.2440089 ], [ -115.2413541, 36.2440116 ], [ -115.2413514, 36.2440116 ], [ -115.2413514, 36.2440143 ], [ -115.2413487, 36.2440143 ], [ -115.2413487, 36.244017 ], [ -115.241346, 36.244017 ], [ -115.241346, 36.2440197 ], [ -115.2412812, 36.2440197 ], [ -115.2412812, 36.244017 ], [ -115.2412488, 36.244017 ], [ -115.2412488, 36.2440143 ], [ -115.2412218, 36.2440143 ], [ -115.2412218, 36.2440116 ], [ -115.24118940000001, 36.2440116 ], [ -115.24118940000001, 36.2440089 ], [ -115.2411516, 36.2440089 ], [ -115.2411516, 36.2440062 ], [ -115.2411489, 36.2440062 ], [ -115.2411489, 36.2439873 ], [ -115.2411516, 36.2439873 ], [ -115.2411516, 36.2439738 ], [ -115.2411489, 36.2439738 ], [ -115.2411489, 36.2439711 ], [ -115.2411381, 36.2439711 ], [ -115.2411381, 36.2439738 ], [ -115.2411003, 36.2439738 ], [ -115.2411003, 36.2439711 ], [ -115.2410733, 36.2439711 ], [ -115.2410733, 36.2439684 ], [ -115.2410679, 36.2439684 ], [ -115.2410679, 36.2439441 ], [ -115.2410706, 36.2439441 ], [ -115.2410706, 36.2439306 ], [ -115.2410733, 36.2439306 ], [ -115.2410733, 36.2439144 ], [ -115.241076, 36.2439144 ], [ -115.241076, 36.2438793 ], [ -115.2410787, 36.2438793 ], [ -115.2410787, 36.2438766 ], [ -115.2410841, 36.2438766 ], [ -115.2410841, 36.2438739 ], [ -115.2411246, 36.2438739 ], [ -115.2411246, 36.2438712 ], [ -115.2411489, 36.2438712 ], [ -115.2411489, 36.2438739 ], [ -115.2411678, 36.2438739 ], [ -115.2411678, 36.2438766 ], [ -115.2411786, 36.2438766 ], [ -115.2411786, 36.2438793 ], [ -115.2411867, 36.2438793 ], [ -115.2411867, 36.243882 ], [ -115.2411948, 36.243882 ], [ -115.2411948, 36.2438847 ], [ -115.2412002, 36.2438847 ], [ -115.2412002, 36.2438874 ], [ -115.2412191, 36.2438874 ], [ -115.2412191, 36.2438901 ], [ -115.241238, 36.2438901 ], [ -115.241238, 36.2438928 ], [ -115.2412461, 36.2438928 ], [ -115.2412461, 36.2438955 ], [ -115.2412542, 36.2438955 ], [ -115.2412542, 36.2438982 ], [ -115.2412677, 36.2438982 ], [ -115.2412677, 36.2439009 ], [ -115.2413325, 36.2439009 ], [ -115.2413325, 36.2438982 ], [ -115.2413406, 36.2438982 ], [ -115.2413406, 36.2438955 ], [ -115.2413487, 36.2438955 ], [ -115.2413487, 36.2438928 ], [ -115.2413622, 36.2438928 ], [ -115.2413622, 36.2438901 ], [ -115.2413784, 36.2438901 ], [ -115.2413784, 36.2438874 ], [ -115.241391900000011, 36.2438874 ], [ -115.241391900000011, 36.2438847 ], [ -115.2414, 36.2438847 ], [ -115.2414, 36.2438874 ], [ -115.2414054, 36.2438874 ], [ -115.2414054, 36.2438901 ], [ -115.2414189, 36.2438901 ], [ -115.2414189, 36.2438874 ], [ -115.24142160000001, 36.2438874 ], [ -115.24142160000001, 36.2438847 ], [ -115.2414243, 36.2438847 ], [ -115.2414243, 36.243882 ], [ -115.2414324, 36.243882 ], [ -115.2414324, 36.2438793 ], [ -115.2414702, 36.2438793 ], [ -115.2414702, 36.243882 ], [ -115.24148910000001, 36.243882 ], [ -115.24148910000001, 36.2438847 ], [ -115.2414999, 36.2438847 ], [ -115.2414999, 36.2438874 ], [ -115.2415161, 36.2438874 ], [ -115.2415161, 36.2438901 ], [ -115.241526900000011, 36.2438901 ], [ -115.241526900000011, 36.2438928 ], [ -115.2415674, 36.2438928 ], [ -115.2415674, 36.2438955 ], [ -115.2415728, 36.2438955 ], [ -115.2415728, 36.2438982 ], [ -115.2415782, 36.2438982 ], [ -115.2415782, 36.2439009 ], [ -115.2415809, 36.2439009 ], [ -115.2415809, 36.2439036 ], [ -115.2415836, 36.2439036 ], [ -115.2415836, 36.2439063 ], [ -115.241589, 36.2439063 ], [ -115.241589, 36.243909 ], [ -115.2415917, 36.243909 ], [ -115.2415917, 36.2439117 ], [ -115.241594400000011, 36.2439117 ], [ -115.241594400000011, 36.2439144 ], [ -115.2415971, 36.2439144 ], [ -115.2415971, 36.2439171 ], [ -115.2415998, 36.2439171 ], [ -115.2415998, 36.2439225 ], [ -115.2416025, 36.2439225 ], [ -115.2416025, 36.243936 ], [ -115.2416052, 36.243936 ], [ -115.2416052, 36.2439522 ], [ -115.2416079, 36.2439522 ], [ -115.2416079, 36.2439819 ], [ -115.2416052, 36.2439819 ], [ -115.2416052, 36.2440008 ], [ -115.2416025, 36.2440008 ], [ -115.2416025, 36.2440143 ], [ -115.2415998, 36.2440143 ], [ -115.2415998, 36.2440197 ], [ -115.2415971, 36.2440197 ], [ -115.2415971, 36.2440251 ] ] ] } },
{ "type": "Feature", "properties": { "value": 255.0 }, "geometry": { "type": "Polygon", "coordinates": [ [ [ -115.2409356, 36.2439306 ], [ -115.24091940000001, 36.2439306 ], [ -115.24091940000001, 36.2439279 ], [ -115.2408924, 36.2439279 ], [ -115.2408924, 36.2439252 ], [ -115.2408546, 36.2439252 ], [ -115.2408546, 36.2439225 ], [ -115.2408357, 36.2439225 ], [ -115.2408357, 36.2439198 ], [ -115.240833, 36.2439198 ], [ -115.240833, 36.2439171 ], [ -115.2408276, 36.2439171 ], [ -115.2408276, 36.2438226 ], [ -115.2408789, 36.2438226 ], [ -115.2408789, 36.2438253 ], [ -115.2408978, 36.2438253 ], [ -115.2408978, 36.243828 ], [ -115.2409086, 36.243828 ], [ -115.2409086, 36.2438307 ], [ -115.24091940000001, 36.2438307 ], [ -115.24091940000001, 36.2438334 ], [ -115.2409383, 36.2438334 ], [ -115.2409383, 36.2438361 ], [ -115.2409653, 36.2438361 ], [ -115.2409653, 36.2438388 ], [ -115.2409761, 36.2438388 ], [ -115.2409761, 36.2438415 ], [ -115.2409815, 36.2438415 ], [ -115.2409815, 36.2438442 ], [ -115.2409842, 36.2438442 ], [ -115.2409842, 36.2438469 ], [ -115.24098690000001, 36.2438469 ], [ -115.24098690000001, 36.2438496 ], [ -115.2410139, 36.2438496 ], [ -115.2410139, 36.2438523 ], [ -115.2410166, 36.2438523 ], [ -115.2410166, 36.243855 ], [ -115.2410193, 36.243855 ], [ -115.2410193, 36.2438928 ], [ -115.2410166, 36.2438928 ], [ -115.2410166, 36.2438982 ], [ -115.2410139, 36.2438982 ], [ -115.2410139, 36.2439009 ], [ -115.2409977, 36.2439009 ], [ -115.2409977, 36.2438955 ], [ -115.240995, 36.2438955 ], [ -115.240995, 36.2438658 ], [ -115.2409923, 36.2438658 ], [ -115.2409923, 36.2438577 ], [ -115.2409896, 36.2438577 ], [ -115.2409896, 36.2438604 ], [ -115.24098690000001, 36.2438604 ], [ -115.24098690000001, 36.2438739 ], [ -115.2409842, 36.2438739 ], [ -115.2409842, 36.2438901 ], [ -115.2409815, 36.2438901 ], [ -115.2409815, 36.2439036 ], [ -115.2409788, 36.2439036 ], [ -115.2409788, 36.2439144 ], [ -115.2409761, 36.2439144 ], [ -115.2409761, 36.2439171 ], [ -115.2409707, 36.2439171 ], [ -115.2409707, 36.2439198 ], [ -115.2409653, 36.2439198 ], [ -115.2409653, 36.2439171 ], [ -115.2409464, 36.2439171 ], [ -115.2409464, 36.2439198 ], [ -115.2409437, 36.2439198 ], [ -115.2409437, 36.2439225 ], [ -115.240941, 36.2439225 ], [ -115.240941, 36.2439279 ], [ -115.2409356, 36.2439279 ], [ -115.2409356, 36.2439306 ] ] ] } },
{ "type": "Feature", "properties": { "value": 255.0 }, "geometry": { "type": "Polygon", "coordinates": [ [ [ -115.2425826, 36.243774 ], [ -115.2425475, 36.243774 ], [ -115.2425475, 36.2437713 ], [ -115.2425448, 36.2437713 ], [ -115.2425448, 36.2437686 ], [ -115.2425421, 36.2437686 ], [ -115.2425421, 36.2437605 ], [ -115.242539400000013, 36.2437605 ], [ -115.242539400000013, 36.2437551 ], [ -115.2425421, 36.2437551 ], [ -115.2425421, 36.2437443 ], [ -115.2425448, 36.2437443 ], [ -115.2425448, 36.2437416 ], [ -115.2425475, 36.2437416 ], [ -115.2425475, 36.2437389 ], [ -115.242550200000011, 36.2437389 ], [ -115.242550200000011, 36.2437335 ], [ -115.2425529, 36.2437335 ], [ -115.2425529, 36.2437227 ], [ -115.2425556, 36.2437227 ], [ -115.2425556, 36.2437119 ], [ -115.2425583, 36.2437119 ], [ -115.2425583, 36.2437092 ], [ -115.2425556, 36.2437092 ], [ -115.2425556, 36.2436984 ], [ -115.2425529, 36.2436984 ], [ -115.2425529, 36.243666 ], [ -115.242550200000011, 36.243666 ], [ -115.242550200000011, 36.2436552 ], [ -115.2425529, 36.2436552 ], [ -115.2425529, 36.2436471 ], [ -115.2425556, 36.2436471 ], [ -115.2425556, 36.243612 ], [ -115.2425583, 36.243612 ], [ -115.2425583, 36.2435823 ], [ -115.242561, 36.2435823 ], [ -115.242561, 36.2435796 ], [ -115.2425637, 36.2435796 ], [ -115.2425637, 36.2435769 ], [ -115.2425664, 36.2435769 ], [ -115.2425664, 36.2435742 ], [ -115.242569100000011, 36.2435742 ], [ -115.242569100000011, 36.2435715 ], [ -115.2425772, 36.2435715 ], [ -115.2425772, 36.2435688 ], [ -115.2425826, 36.2435688 ], [ -115.2425826, 36.243774 ] ], [ [ -115.2425529, 36.2437551 ], [ -115.2425529, 36.2437524 ], [ -115.2425448, 36.2437524 ], [ -115.2425448, 36.2437551 ], [ -115.2425529, 36.2437551 ] ] ] } },
{ "type": "Feature", "properties": { "value": 255.0 }, "geometry": { "type": "Polygon", "coordinates": [ [ [ -115.2419481, 36.2436633 ], [ -115.24194270000001, 36.2436633 ], [ -115.24194270000001, 36.2436606 ], [ -115.2419292, 36.2436606 ], [ -115.2419292, 36.2436579 ], [ -115.2419157, 36.2436579 ], [ -115.2419157, 36.2436552 ], [ -115.2418995, 36.2436552 ], [ -115.2418995, 36.2436525 ], [ -115.24187520000001, 36.2436525 ], [ -115.24187520000001, 36.2436498 ], [ -115.2418374, 36.2436498 ], [ -115.2418374, 36.2436471 ], [ -115.2418104, 36.2436471 ], [ -115.2418104, 36.2436444 ], [ -115.2417726, 36.2436444 ], [ -115.2417726, 36.2436417 ], [ -115.2417645, 36.2436417 ], [ -115.2417645, 36.2436363 ], [ -115.2417618, 36.2436363 ], [ -115.2417618, 36.2436201 ], [ -115.2417645, 36.2436201 ], [ -115.2417645, 36.2435931 ], [ -115.2417672, 36.2435931 ], [ -115.2417672, 36.2435742 ], [ -115.2417699, 36.2435742 ], [ -115.2417699, 36.2435634 ], [ -115.2417726, 36.2435634 ], [ -115.2417726, 36.2435607 ], [ -115.241778, 36.2435607 ], [ -115.241778, 36.243558 ], [ -115.2418239, 36.243558 ], [ -115.2418239, 36.2435607 ], [ -115.2418509, 36.2435607 ], [ -115.2418509, 36.2435634 ], [ -115.241864400000011, 36.2435634 ], [ -115.241864400000011, 36.2435661 ], [ -115.2418833, 36.2435661 ], [ -115.2418833, 36.2435688 ], [ -115.241931900000012, 36.2435688 ], [ -115.241931900000012, 36.2435715 ], [ -115.241980500000011, 36.2435715 ], [ -115.241980500000011, 36.2435742 ], [ -115.2419832, 36.2435742 ], [ -115.2419832, 36.2435769 ], [ -115.2419859, 36.2435769 ], [ -115.2419859, 36.2435796 ], [ -115.2419886, 36.2435796 ], [ -115.2419886, 36.243585 ], [ -115.2419913, 36.243585 ], [ -115.2419913, 36.2436174 ], [ -115.2419886, 36.2436174 ], [ -115.2419886, 36.2436363 ], [ -115.2419859, 36.2436363 ], [ -115.2419859, 36.2436552 ], [ -115.2419832, 36.2436552 ], [ -115.2419832, 36.2436579 ], [ -115.241980500000011, 36.2436579 ], [ -115.241980500000011, 36.2436606 ], [ -115.2419481, 36.2436606 ], [ -115.2419481, 36.2436633 ] ] ] } },
{ "type": "Feature", "properties": { "value": 255.0 }, "geometry": { "type": "Polygon", "coordinates": [ [ [ -115.241697, 36.2436336 ], [ -115.2416511, 36.2436336 ], [ -115.2416511, 36.2436309 ], [ -115.2416403, 36.2436309 ], [ -115.2416403, 36.2436282 ], [ -115.2415971, 36.2436282 ], [ -115.2415971, 36.2436255 ], [ -115.2415728, 36.2436255 ], [ -115.2415728, 36.2436228 ], [ -115.2415431, 36.2436228 ], [ -115.2415431, 36.2436201 ], [ -115.2415134, 36.2436201 ], [ -115.2415134, 36.2436174 ], [ -115.2414756, 36.2436174 ], [ -115.2414756, 36.2436147 ], [ -115.2414675, 36.2436147 ], [ -115.2414675, 36.243612 ], [ -115.2414648, 36.243612 ], [ -115.2414648, 36.2436093 ], [ -115.2414621, 36.2436093 ], [ -115.2414621, 36.2435904 ], [ -115.2414648, 36.2435904 ], [ -115.2414648, 36.2435742 ], [ -115.2414675, 36.2435742 ], [ -115.2414675, 36.2435553 ], [ -115.2414702, 36.2435553 ], [ -115.2414702, 36.2435391 ], [ -115.2414729, 36.2435391 ], [ -115.2414729, 36.243531 ], [ -115.2414756, 36.243531 ], [ -115.2414756, 36.2435283 ], [ -115.241481, 36.2435283 ], [ -115.241481, 36.2435256 ], [ -115.2415161, 36.2435256 ], [ -115.2415161, 36.2435229 ], [ -115.2415188, 36.2435229 ], [ -115.2415188, 36.2435202 ], [ -115.2415215, 36.2435202 ], [ -115.2415215, 36.2434986 ], [ -115.2415242, 36.2434986 ], [ -115.2415242, 36.2434932 ], [ -115.241526900000011, 36.2434932 ], [ -115.241526900000011, 36.2434905 ], [ -115.2415323, 36.2434905 ], [ -115.2415323, 36.2434878 ], [ -115.2415431, 36.2434878 ], [ -115.2415431, 36.2434905 ], [ -115.2415809, 36.2434905 ], [ -115.2415809, 36.2434932 ], [ -115.241589, 36.2434932 ], [ -115.241589, 36.2434959 ], [ -115.2415917, 36.2434959 ], [ -115.2415917, 36.2434986 ], [ -115.241594400000011, 36.2434986 ], [ -115.241594400000011, 36.243504 ], [ -115.2415971, 36.243504 ], [ -115.2415971, 36.2435121 ], [ -115.2416025, 36.2435121 ], [ -115.2416025, 36.2435148 ], [ -115.24162410000001, 36.2435148 ], [ -115.24162410000001, 36.2435175 ], [ -115.2416268, 36.2435175 ], [ -115.2416268, 36.2435202 ], [ -115.2416295, 36.2435202 ], [ -115.2416295, 36.2435256 ], [ -115.2416322, 36.2435256 ], [ -115.2416322, 36.2435337 ], [ -115.2416376, 36.2435337 ], [ -115.2416376, 36.2435364 ], [ -115.2416889, 36.2435364 ], [ -115.2416889, 36.2435391 ], [ -115.2416943, 36.2435391 ], [ -115.2416943, 36.2435445 ], [ -115.241697, 36.2435445 ], [ -115.241697, 36.2435472 ], [ -115.2416997, 36.2435472 ], [ -115.2416997, 36.243558 ], [ -115.2417024, 36.243558 ], [ -115.2417024, 36.243612 ], [ -115.2416997, 36.243612 ], [ -115.2416997, 36.2436282 ], [ -115.241697, 36.2436282 ], [ -115.241697, 36.2436336 ] ] ] } },
{ "type": "Feature", "properties": { "value": 255.0 }, "geometry": { "type": "Polygon", "coordinates": [ [ [ -115.2413325, 36.2436012 ], [ -115.2413163, 36.2436012 ], [ -115.2413163, 36.2435985 ], [ -115.2412893, 36.2435985 ], [ -115.2412893, 36.2435958 ], [ -115.2412542, 36.2435958 ], [ -115.2412542, 36.2435931 ], [ -115.2412218, 36.2435931 ], [ -115.2412218, 36.2435904 ], [ -115.2411948, 36.2435904 ], [ -115.2411948, 36.2435877 ], [ -115.2411651, 36.2435877 ], [ -115.2411651, 36.243585 ], [ -115.2411354, 36.243585 ], [ -115.2411354, 36.2435823 ], [ -115.2411003, 36.2435823 ], [ -115.2411003, 36.2435796 ], [ -115.2410949, 36.2435796 ], [ -115.2410949, 36.2435769 ], [ -115.2410922, 36.2435769 ], [ -115.2410922, 36.2435715 ], [ -115.2410895, 36.2435715 ], [ -115.2410895, 36.2435526 ], [ -115.2410922, 36.2435526 ], [ -115.2410922, 36.2435337 ], [ -115.2410949, 36.2435337 ], [ -115.2410949, 36.2435094 ], [ -115.2410976, 36.2435094 ], [ -115.2410976, 36.2434851 ], [ -115.2411003, 36.2434851 ], [ -115.2411003, 36.2434581 ], [ -115.241103, 36.2434581 ], [ -115.241103, 36.2434446 ], [ -115.2411057, 36.2434446 ], [ -115.2411057, 36.2434365 ], [ -115.2411111, 36.2434365 ], [ -115.2411111, 36.2434338 ], [ -115.24113, 36.2434338 ], [ -115.24113, 36.2434365 ], [ -115.2411354, 36.2434365 ], [ -115.2411354, 36.2434392 ], [ -115.2411462, 36.2434392 ], [ -115.2411462, 36.2434419 ], [ -115.2411543, 36.2434419 ], [ -115.2411543, 36.2434446 ], [ -115.2411651, 36.2434446 ], [ -115.2411651, 36.2434473 ], [ -115.2411678, 36.2434473 ], [ -115.2411678, 36.24345 ], [ -115.24117050000001, 36.24345 ], [ -115.24117050000001, 36.2434527 ], [ -115.2411732, 36.2434527 ], [ -115.2411732, 36.2434554 ], [ -115.2411759, 36.2434554 ], [ -115.2411759, 36.2434608 ], [ -115.2411786, 36.2434608 ], [ -115.2411786, 36.2434635 ], [ -115.2411813, 36.2434635 ], [ -115.2411813, 36.2434662 ], [ -115.241184, 36.2434662 ], [ -115.241184, 36.2434689 ], [ -115.24118940000001, 36.2434689 ], [ -115.24118940000001, 36.2434716 ], [ -115.2411948, 36.2434716 ], [ -115.2411948, 36.2434743 ], [ -115.2412002, 36.2434743 ], [ -115.2412002, 36.2434986 ], [ -115.2412245, 36.2434986 ], [ -115.2412245, 36.2435013 ], [ -115.2412353, 36.2435013 ], [ -115.2412353, 36.2434986 ], [ -115.2412434, 36.2434986 ], [ -115.2412434, 36.2434959 ], [ -115.2412488, 36.2434959 ], [ -115.2412488, 36.2434932 ], [ -115.2412596, 36.2434932 ], [ -115.2412596, 36.2434905 ], [ -115.2412731, 36.2434905 ], [ -115.2412731, 36.2434878 ], [ -115.2412758, 36.2434878 ], [ -115.2412758, 36.2434851 ], [ -115.2412785, 36.2434851 ], [ -115.2412785, 36.2434824 ], [ -115.2412812, 36.2434824 ], [ -115.2412812, 36.2434797 ], [ -115.2412839, 36.2434797 ], [ -115.2412839, 36.243477 ], [ -115.2412866, 36.243477 ], [ -115.2412866, 36.2434743 ], [ -115.2412893, 36.2434743 ], [ -115.2412893, 36.2434716 ], [ -115.241292, 36.2434716 ], [ -115.241292, 36.2434689 ], [ -115.2413001, 36.2434689 ], [ -115.2413001, 36.2434662 ], [ -115.2413136, 36.2434662 ], [ -115.2413136, 36.2434689 ], [ -115.2413217, 36.2434689 ], [ -115.2413217, 36.2434716 ], [ -115.2413271, 36.2434716 ], [ -115.2413271, 36.2434743 ], [ -115.2413298, 36.2434743 ], [ -115.2413298, 36.243477 ], [ -115.2413352, 36.243477 ], [ -115.2413352, 36.2434797 ], [ -115.2413379, 36.2434797 ], [ -115.2413379, 36.2434824 ], [ -115.2413406, 36.2434824 ], [ -115.2413406, 36.2434851 ], [ -115.2413433, 36.2434851 ], [ -115.2413433, 36.2434905 ], [ -115.241346, 36.2434905 ], [ -115.241346, 36.2434959 ], [ -115.2413487, 36.2434959 ], [ -115.2413487, 36.2434986 ], [ -115.2413514, 36.2434986 ], [ -115.2413514, 36.2435094 ], [ -115.2413487, 36.2435094 ], [ -115.2413487, 36.2435175 ], [ -115.241346, 36.2435175 ], [ -115.241346, 36.2435229 ], [ -115.2413433, 36.2435229 ], [ -115.2413433, 36.2435256 ], [ -115.2413406, 36.2435256 ], [ -115.2413406, 36.243531 ], [ -115.2413379, 36.243531 ], [ -115.2413379, 36.2435364 ], [ -115.2413352, 36.2435364 ], [ -115.2413352, 36.2435472 ], [ -115.2413379, 36.2435472 ], [ -115.2413379, 36.2435526 ], [ -115.2413406, 36.2435526 ], [ -115.2413406, 36.243558 ], [ -115.2413433, 36.243558 ], [ -115.2413433, 36.2435688 ], [ -115.241346, 36.2435688 ], [ -115.241346, 36.2435823 ], [ -115.2413433, 36.2435823 ], [ -115.2413433, 36.2435904 ], [ -115.2413406, 36.2435904 ], [ -115.2413406, 36.2435958 ], [ -115.2413379, 36.2435958 ], [ -115.2413379, 36.2435985 ], [ -115.2413325, 36.2435985 ], [ -115.2413325, 36.2436012 ] ] ] } },
{ "type": "Feature", "properties": { "value": 255.0 }, "geometry": { "type": "Polygon", "coordinates": [ [ [ -115.2410274, 36.2435769 ], [ -115.2410058, 36.2435769 ], [ -115.2410058, 36.2435742 ], [ -115.24098690000001, 36.2435742 ], [ -115.24098690000001, 36.2435715 ], [ -115.2409599, 36.2435715 ], [ -115.2409599, 36.2435688 ], [ -115.2409356, 36.2435688 ], [ -115.2409356, 36.2435661 ], [ -115.2409005, 36.2435661 ], [ -115.2409005, 36.2435634 ], [ -115.2408735, 36.2435634 ], [ -115.2408735, 36.2435607 ], [ -115.2408492, 36.2435607 ], [ -115.2408492, 36.243558 ], [ -115.2408303, 36.243558 ], [ -115.2408303, 36.2435607 ], [ -115.2408276, 36.2435607 ], [ -115.2408276, 36.2434419 ], [ -115.2408465, 36.2434419 ], [ -115.2408465, 36.2434446 ], [ -115.2408627, 36.2434446 ], [ -115.2408627, 36.2434473 ], [ -115.2408789, 36.2434473 ], [ -115.2408789, 36.24345 ], [ -115.2409005, 36.24345 ], [ -115.2409005, 36.2434473 ], [ -115.2409086, 36.2434473 ], [ -115.2409086, 36.24345 ], [ -115.2409302, 36.24345 ], [ -115.2409302, 36.2434527 ], [ -115.2409383, 36.2434527 ], [ -115.2409383, 36.2434554 ], [ -115.2409491, 36.2434554 ], [ -115.2409491, 36.2434581 ], [ -115.2409572, 36.2434581 ], [ -115.2409572, 36.2434554 ], [ -115.240968, 36.2434554 ], [ -115.240968, 36.2434527 ], [ -115.2410274, 36.2434527 ], [ -115.2410274, 36.2434554 ], [ -115.2410382, 36.2434554 ], [ -115.2410382, 36.2434581 ], [ -115.2410409, 36.2434581 ], [ -115.2410409, 36.2434824 ], [ -115.2410382, 36.2434824 ], [ -115.2410382, 36.243504 ], [ -115.24103550000001, 36.243504 ], [ -115.24103550000001, 36.2435391 ], [ -115.2410328, 36.2435391 ], [ -115.2410328, 36.2435553 ], [ -115.2410301, 36.2435553 ], [ -115.2410301, 36.2435742 ], [ -115.2410274, 36.2435742 ], [ -115.2410274, 36.2435769 ] ] ] } },
{ "type": "Feature", "properties": { "value": 255.0 }, "geometry": { "type": "Polygon", "coordinates": [ [ [ -115.2420453, 36.2434176 ], [ -115.2420345, 36.2434176 ], [ -115.2420345, 36.2434149 ], [ -115.242029100000011, 36.2434149 ], [ -115.242029100000011, 36.2434122 ], [ -115.2420264, 36.2434122 ], [ -115.2420264, 36.2434095 ], [ -115.2420237, 36.2434095 ], [ -115.2420237, 36.243396 ], [ -115.2420264, 36.243396 ], [ -115.2420264, 36.2433933 ], [ -115.242029100000011, 36.2433933 ], [ -115.242029100000011, 36.2433906 ], [ -115.2420372, 36.2433906 ], [ -115.2420372, 36.2433879 ], [ -115.2420426, 36.2433879 ], [ -115.2420426, 36.2433906 ], [ -115.2420534, 36.2433906 ], [ -115.2420534, 36.2433933 ], [ -115.2420588, 36.2433933 ], [ -115.2420588, 36.243396 ], [ -115.2420615, 36.243396 ], [ -115.2420615, 36.2434068 ], [ -115.2420588, 36.2434068 ], [ -115.2420588, 36.2434095 ], [ -115.2420561, 36.2434095 ], [ -115.2420561, 36.2434122 ], [ -115.2420534, 36.2434122 ], [ -115.2420534, 36.2434149 ], [ -115.2420453, 36.2434149 ], [ -115.2420453, 36.2434176 ] ] ] } },
{ "type": "Feature", "properties": { "value": 255.0 }, "geometry": { "type": "Polygon", "coordinates": [ [ [ -115.2411786, 36.2433987 ], [ -115.2411516, 36.2433987 ], [ -115.2411516, 36.243396 ], [ -115.2411489, 36.243396 ], [ -115.2411489, 36.2433933 ], [ -115.2411462, 36.2433933 ], [ -115.2411462, 36.2433825 ], [ -115.2411489, 36.2433825 ], [ -115.2411489, 36.2433771 ], [ -115.2411516, 36.2433771 ], [ -115.2411516, 36.2433744 ], [ -115.2411651, 36.2433744 ], [ -115.2411651, 36.2433717 ], [ -115.24117050000001, 36.2433717 ], [ -115.24117050000001, 36.2433744 ], [ -115.2411786, 36.2433744 ], [ -115.2411786, 36.2433771 ], [ -115.2411813, 36.2433771 ], [ -115.2411813, 36.2433933 ], [ -115.2411786, 36.2433933 ], [ -115.2411786, 36.2433987 ] ] ] } },
{ "type": "Feature", "properties": { "value": 255.0 }, "geometry": { "type": "Polygon", "coordinates": [ [ [ -115.24175910000001, 36.2433987 ], [ -115.241724, 36.2433987 ], [ -115.241724, 36.243396 ], [ -115.2416943, 36.243396 ], [ -115.2416943, 36.2433933 ], [ -115.2416727, 36.2433933 ], [ -115.2416727, 36.2433906 ], [ -115.2416592, 36.2433906 ], [ -115.2416592, 36.2433852 ], [ -115.2416565, 36.2433852 ], [ -115.2416565, 36.2433744 ], [ -115.2416592, 36.2433744 ], [ -115.2416592, 36.243342 ], [ -115.241661900000011, 36.243342 ], [ -115.241661900000011, 36.2432961 ], [ -115.2416646, 36.2432961 ], [ -115.2416646, 36.2432745 ], [ -115.2416673, 36.2432745 ], [ -115.2416673, 36.243234 ], [ -115.24167, 36.243234 ], [ -115.24167, 36.2432286 ], [ -115.2416727, 36.2432286 ], [ -115.2416727, 36.2432259 ], [ -115.2417159, 36.2432259 ], [ -115.2417159, 36.2432232 ], [ -115.2417267, 36.2432232 ], [ -115.2417267, 36.2432205 ], [ -115.2417645, 36.2432205 ], [ -115.2417645, 36.2432232 ], [ -115.2417834, 36.2432232 ], [ -115.2417834, 36.2432259 ], [ -115.2417861, 36.2432259 ], [ -115.2417861, 36.2432529 ], [ -115.2417834, 36.2432529 ], [ -115.2417834, 36.2432745 ], [ -115.2417807, 36.2432745 ], [ -115.2417807, 36.2432988 ], [ -115.241778, 36.2432988 ], [ -115.241778, 36.2433204 ], [ -115.2417753, 36.2433204 ], [ -115.2417753, 36.2433474 ], [ -115.2417726, 36.2433474 ], [ -115.2417726, 36.2433582 ], [ -115.2417699, 36.2433582 ], [ -115.2417699, 36.2433744 ], [ -115.2417672, 36.2433744 ], [ -115.2417672, 36.2433933 ], [ -115.2417645, 36.2433933 ], [ -115.2417645, 36.243396 ], [ -115.24175910000001, 36.243396 ], [ -115.24175910000001, 36.2433987 ] ] ] } },
{ "type": "Feature", "properties": { "value": 255.0 }, "geometry": { "type": "Polygon", "coordinates": [ [ [ -115.2416295, 36.2433582 ], [ -115.2416187, 36.2433582 ], [ -115.2416187, 36.2433555 ], [ -115.2416025, 36.2433555 ], [ -115.2416025, 36.2433582 ], [ -115.2415971, 36.2433582 ], [ -115.2415971, 36.2433555 ], [ -115.2415836, 36.2433555 ], [ -115.2415836, 36.2433528 ], [ -115.2415539, 36.2433528 ], [ -115.2415539, 36.2433501 ], [ -115.2415485, 36.2433501 ], [ -115.2415485, 36.2433474 ], [ -115.2415458, 36.2433474 ], [ -115.2415458, 36.2433285 ], [ -115.2415485, 36.2433285 ], [ -115.2415485, 36.2433069 ], [ -115.2415512, 36.2433069 ], [ -115.2415512, 36.2432853 ], [ -115.2415539, 36.2432853 ], [ -115.2415539, 36.243261 ], [ -115.24155660000001, 36.243261 ], [ -115.24155660000001, 36.2432394 ], [ -115.2415593, 36.2432394 ], [ -115.2415593, 36.2432232 ], [ -115.24155660000001, 36.2432232 ], [ -115.24155660000001, 36.2432178 ], [ -115.2415539, 36.2432178 ], [ -115.2415539, 36.2432043 ], [ -115.24155660000001, 36.2432043 ], [ -115.24155660000001, 36.2431989 ], [ -115.2415593, 36.2431989 ], [ -115.2415593, 36.2431962 ], [ -115.2415701, 36.2431962 ], [ -115.2415701, 36.2431935 ], [ -115.2416322, 36.2431935 ], [ -115.2416322, 36.2431962 ], [ -115.2416349, 36.2431962 ], [ -115.2416349, 36.2432313 ], [ -115.2416376, 36.2432313 ], [ -115.2416376, 36.243234 ], [ -115.2416403, 36.243234 ], [ -115.2416403, 36.2432421 ], [ -115.241643, 36.2432421 ], [ -115.241643, 36.2432853 ], [ -115.2416403, 36.2432853 ], [ -115.2416403, 36.2433258 ], [ -115.2416376, 36.2433258 ], [ -115.2416376, 36.2433447 ], [ -115.2416349, 36.2433447 ], [ -115.2416349, 36.2433528 ], [ -115.2416322, 36.2433528 ], [ -115.2416322, 36.2433555 ], [ -115.2416295, 36.2433555 ], [ -115.2416295, 36.2433582 ] ] ] } },
{ "type": "Feature", "properties": { "value": 255.0 }, "geometry": { "type": "Polygon", "coordinates": [ [ [ -115.2418887, 36.2433852 ], [ -115.2418698, 36.2433852 ], [ -115.2418698, 36.2433825 ], [ -115.2418617, 36.2433825 ], [ -115.2418617, 36.2433798 ], [ -115.2418131, 36.2433798 ], [ -115.2418131, 36.2433771 ], [ -115.24180770000001, 36.2433771 ], [ -115.24180770000001, 36.2433744 ], [ -115.241805, 36.2433744 ], [ -115.241805, 36.2433717 ], [ -115.2418023, 36.2433717 ], [ -115.2418023, 36.2433555 ], [ -115.241805, 36.2433555 ], [ -115.241805, 36.2433069 ], [ -115.24180770000001, 36.2433069 ], [ -115.24180770000001, 36.2433015 ], [ -115.2418104, 36.2433015 ], [ -115.2418104, 36.2432988 ], [ -115.2418131, 36.2432988 ], [ -115.2418131, 36.2432772 ], [ -115.2418158, 36.2432772 ], [ -115.2418158, 36.2432664 ], [ -115.2418185, 36.2432664 ], [ -115.2418185, 36.2432529 ], [ -115.2418212, 36.2432529 ], [ -115.2418212, 36.2432448 ], [ -115.2418239, 36.2432448 ], [ -115.2418239, 36.243234 ], [ -115.24182660000001, 36.243234 ], [ -115.24182660000001, 36.2432151 ], [ -115.2418293, 36.2432151 ], [ -115.2418293, 36.243207 ], [ -115.241832, 36.243207 ], [ -115.241832, 36.2431989 ], [ -115.2418347, 36.2431989 ], [ -115.2418347, 36.2431908 ], [ -115.2418374, 36.2431908 ], [ -115.2418374, 36.24318 ], [ -115.2418401, 36.24318 ], [ -115.2418401, 36.2431746 ], [ -115.2418428, 36.2431746 ], [ -115.2418428, 36.2431719 ], [ -115.24187520000001, 36.2431719 ], [ -115.24187520000001, 36.2431692 ], [ -115.241886, 36.2431692 ], [ -115.241886, 36.2431719 ], [ -115.24189410000001, 36.2431719 ], [ -115.24189410000001, 36.2431746 ], [ -115.2418968, 36.2431746 ], [ -115.2418968, 36.2431773 ], [ -115.2419022, 36.2431773 ], [ -115.2419022, 36.2432124 ], [ -115.2418995, 36.2432124 ], [ -115.2418995, 36.2432178 ], [ -115.2419022, 36.2432178 ], [ -115.2419022, 36.2432448 ], [ -115.2418995, 36.2432448 ], [ -115.2418995, 36.2432745 ], [ -115.2418968, 36.2432745 ], [ -115.2418968, 36.243315 ], [ -115.24189410000001, 36.243315 ], [ -115.24189410000001, 36.2433771 ], [ -115.2418914, 36.2433771 ], [ -115.2418914, 36.2433825 ], [ -115.2418887, 36.2433825 ], [ -115.2418887, 36.2433852 ] ] ] } },
{ "type": "Feature", "properties": { "value": 255.0 }, "geometry": { "type": "Polygon", "coordinates": [ [ [ -115.2415107, 36.2433312 ], [ -115.24148910000001, 36.2433312 ], [ -115.24148910000001, 36.2433285 ], [ -115.2414783, 36.2433285 ], [ -115.2414783, 36.2433258 ], [ -115.2414432, 36.2433258 ], [ -115.2414432, 36.2433231 ], [ -115.24144050000001, 36.2433231 ], [ -115.24144050000001, 36.2433204 ], [ -115.2414378, 36.2433204 ], [ -115.2414378, 36.2433177 ], [ -115.2414351, 36.2433177 ], [ -115.2414351, 36.2432745 ], [ -115.2414378, 36.2432745 ], [ -115.2414378, 36.2432556 ], [ -115.24144050000001, 36.2432556 ], [ -115.24144050000001, 36.2432475 ], [ -115.2414432, 36.2432475 ], [ -115.2414432, 36.2432448 ], [ -115.2414459, 36.2432448 ], [ -115.2414459, 36.2432421 ], [ -115.2414486, 36.2432421 ], [ -115.2414486, 36.2432232 ], [ -115.2414513, 36.2432232 ], [ -115.2414513, 36.2432151 ], [ -115.241454, 36.2432151 ], [ -115.241454, 36.2432043 ], [ -115.2414567, 36.2432043 ], [ -115.2414567, 36.2431935 ], [ -115.241459400000011, 36.2431935 ], [ -115.241459400000011, 36.2431881 ], [ -115.2414621, 36.2431881 ], [ -115.2414621, 36.2431854 ], [ -115.2414648, 36.2431854 ], [ -115.2414648, 36.2431827 ], [ -115.2414729, 36.2431827 ], [ -115.2414729, 36.24318 ], [ -115.24148910000001, 36.24318 ], [ -115.24148910000001, 36.2431773 ], [ -115.241508, 36.2431773 ], [ -115.241508, 36.24318 ], [ -115.2415161, 36.24318 ], [ -115.2415161, 36.2431827 ], [ -115.2415242, 36.2431827 ], [ -115.2415242, 36.2431854 ], [ -115.241526900000011, 36.2431854 ], [ -115.241526900000011, 36.2431881 ], [ -115.2415296, 36.2431881 ], [ -115.2415296, 36.2431908 ], [ -115.2415323, 36.2431908 ], [ -115.2415323, 36.2431935 ], [ -115.241535, 36.2431935 ], [ -115.241535, 36.2432043 ], [ -115.2415323, 36.2432043 ], [ -115.2415323, 36.2432097 ], [ -115.2415296, 36.2432097 ], [ -115.2415296, 36.2432583 ], [ -115.2415323, 36.2432583 ], [ -115.2415323, 36.2432637 ], [ -115.2415296, 36.2432637 ], [ -115.2415296, 36.2433015 ], [ -115.241526900000011, 36.2433015 ], [ -115.241526900000011, 36.2433258 ], [ -115.2415242, 36.2433258 ], [ -115.2415242, 36.2433285 ], [ -115.2415107, 36.2433285 ], [ -115.2415107, 36.2433312 ] ] ] } },
{ "type": "Feature", "properties": { "value": 255.0 }, "geometry": { "type": "Polygon", "coordinates": [ [ [ -115.2419751, 36.243369 ], [ -115.2419643, 36.243369 ], [ -115.2419643, 36.2433663 ], [ -115.2419508, 36.2433663 ], [ -115.2419508, 36.2433636 ], [ -115.2419481, 36.2433636 ], [ -115.2419481, 36.2433555 ], [ -115.2419454, 36.2433555 ], [ -115.2419454, 36.2433501 ], [ -115.24194, 36.2433501 ], [ -115.24194, 36.2433474 ], [ -115.2419373, 36.2433474 ], [ -115.2419373, 36.2433447 ], [ -115.2419346, 36.2433447 ], [ -115.2419346, 36.243342 ], [ -115.241931900000012, 36.243342 ], [ -115.241931900000012, 36.2433393 ], [ -115.2419292, 36.2433393 ], [ -115.2419292, 36.2433339 ], [ -115.2419265, 36.2433339 ], [ -115.2419265, 36.2433258 ], [ -115.2419238, 36.2433258 ], [ -115.2419238, 36.2432961 ], [ -115.2419265, 36.2432961 ], [ -115.2419265, 36.2432799 ], [ -115.2419292, 36.2432799 ], [ -115.2419292, 36.2432448 ], [ -115.241931900000012, 36.2432448 ], [ -115.241931900000012, 36.2432097 ], [ -115.2419346, 36.2432097 ], [ -115.2419346, 36.2432043 ], [ -115.24194, 36.2432043 ], [ -115.24194, 36.2432016 ], [ -115.2419454, 36.2432016 ], [ -115.2419454, 36.2431989 ], [ -115.2419481, 36.2431989 ], [ -115.2419481, 36.24318 ], [ -115.2419454, 36.24318 ], [ -115.2419454, 36.2431719 ], [ -115.2419481, 36.2431719 ], [ -115.2419481, 36.2431692 ], [ -115.2419508, 36.2431692 ], [ -115.2419508, 36.2431665 ], [ -115.2419535, 36.2431665 ], [ -115.2419535, 36.2431638 ], [ -115.2419589, 36.2431638 ], [ -115.2419589, 36.2431611 ], [ -115.241967, 36.2431611 ], [ -115.241967, 36.2431584 ], [ -115.2419697, 36.2431584 ], [ -115.2419697, 36.2431611 ], [ -115.2420048, 36.2431611 ], [ -115.2420048, 36.2431638 ], [ -115.2420264, 36.2431638 ], [ -115.2420264, 36.2431665 ], [ -115.2420318, 36.2431665 ], [ -115.2420318, 36.2431692 ], [ -115.2420345, 36.2431692 ], [ -115.2420345, 36.2432178 ], [ -115.2420318, 36.2432178 ], [ -115.2420318, 36.2432691 ], [ -115.242029100000011, 36.2432691 ], [ -115.242029100000011, 36.2433096 ], [ -115.2420264, 36.2433096 ], [ -115.2420264, 36.2433204 ], [ -115.2420237, 36.2433204 ], [ -115.2420237, 36.2433312 ], [ -115.242021, 36.2433312 ], [ -115.242021, 36.2433474 ], [ -115.2420183, 36.2433474 ], [ -115.2420183, 36.2433501 ], [ -115.2420156, 36.2433501 ], [ -115.2420156, 36.2433528 ], [ -115.2419832, 36.2433528 ], [ -115.2419832, 36.2433555 ], [ -115.2419778, 36.2433555 ], [ -115.2419778, 36.2433582 ], [ -115.2419751, 36.2433582 ], [ -115.2419751, 36.243369 ] ] ] } },
{ "type": "Feature", "properties": { "value": 255.0 }, "geometry": { "type": "Polygon", "coordinates": [ [ [ -115.2413757, 36.2433312 ], [ -115.2413514, 36.2433312 ], [ -115.2413514, 36.2433285 ], [ -115.2413217, 36.2433285 ], [ -115.2413217, 36.2433258 ], [ -115.241292, 36.2433258 ], [ -115.241292, 36.2433231 ], [ -115.2412893, 36.2433231 ], [ -115.2412893, 36.2433204 ], [ -115.2412866, 36.2433204 ], [ -115.2412866, 36.2433015 ], [ -115.2412893, 36.2433015 ], [ -115.2412893, 36.2432745 ], [ -115.241292, 36.2432745 ], [ -115.241292, 36.2432529 ], [ -115.2412947, 36.2432529 ], [ -115.2412947, 36.2432313 ], [ -115.2412974, 36.2432313 ], [ -115.2412974, 36.2431665 ], [ -115.2413001, 36.2431665 ], [ -115.2413001, 36.2431476 ], [ -115.2413028, 36.2431476 ], [ -115.2413028, 36.2431449 ], [ -115.24130550000001, 36.2431449 ], [ -115.24130550000001, 36.2431422 ], [ -115.2413514, 36.2431422 ], [ -115.2413514, 36.2431449 ], [ -115.2413784, 36.2431449 ], [ -115.2413784, 36.2431476 ], [ -115.2413811, 36.2431476 ], [ -115.2413811, 36.2431611 ], [ -115.2413784, 36.2431611 ], [ -115.2413784, 36.2431827 ], [ -115.2413757, 36.2431827 ], [ -115.2413757, 36.2431962 ], [ -115.2413784, 36.2431962 ], [ -115.2413784, 36.2432016 ], [ -115.2413811, 36.2432016 ], [ -115.2413811, 36.2432043 ], [ -115.2413838, 36.2432043 ], [ -115.2413838, 36.243207 ], [ -115.2413865, 36.243207 ], [ -115.2413865, 36.2432124 ], [ -115.2413892, 36.2432124 ], [ -115.2413892, 36.2432583 ], [ -115.2413865, 36.2432583 ], [ -115.2413865, 36.243288 ], [ -115.2413838, 36.243288 ], [ -115.2413838, 36.2433015 ], [ -115.2413811, 36.2433015 ], [ -115.2413811, 36.2433204 ], [ -115.2413784, 36.2433204 ], [ -115.2413784, 36.2433285 ], [ -115.2413757, 36.2433285 ], [ -115.2413757, 36.2433312 ] ] ] } },
{ "type": "Feature", "properties": { "value": 255.0 }, "geometry": { "type": "Polygon", "coordinates": [ [ [ -115.2412542, 36.2433717 ], [ -115.2412461, 36.2433717 ], [ -115.2412461, 36.243369 ], [ -115.2412272, 36.243369 ], [ -115.2412272, 36.2433663 ], [ -115.2412245, 36.2433663 ], [ -115.2412245, 36.2433609 ], [ -115.2412218, 36.2433609 ], [ -115.2412218, 36.2433555 ], [ -115.2412245, 36.2433555 ], [ -115.2412245, 36.243342 ], [ -115.2412218, 36.243342 ], [ -115.2412218, 36.2433393 ], [ -115.2412002, 36.2433393 ], [ -115.2412002, 36.2433366 ], [ -115.2411678, 36.2433366 ], [ -115.2411678, 36.2433312 ], [ -115.2411651, 36.2433312 ], [ -115.2411651, 36.2433177 ], [ -115.2411678, 36.2433177 ], [ -115.2411678, 36.2433096 ], [ -115.24117050000001, 36.2433096 ], [ -115.24117050000001, 36.2433015 ], [ -115.2411732, 36.2433015 ], [ -115.2411732, 36.2432853 ], [ -115.2411759, 36.2432853 ], [ -115.2411759, 36.243261 ], [ -115.2411786, 36.243261 ], [ -115.2411786, 36.2432286 ], [ -115.2411813, 36.2432286 ], [ -115.2411813, 36.2432178 ], [ -115.241184, 36.2432178 ], [ -115.241184, 36.2432124 ], [ -115.2411867, 36.2432124 ], [ -115.2411867, 36.2432097 ], [ -115.24118940000001, 36.2432097 ], [ -115.24118940000001, 36.243207 ], [ -115.2411921, 36.243207 ], [ -115.2411921, 36.2432016 ], [ -115.2411948, 36.2432016 ], [ -115.2411948, 36.2431854 ], [ -115.2411975, 36.2431854 ], [ -115.2411975, 36.2431638 ], [ -115.2412002, 36.2431638 ], [ -115.2412002, 36.2431341 ], [ -115.2412029, 36.2431341 ], [ -115.2412029, 36.2431314 ], [ -115.2412245, 36.2431314 ], [ -115.2412245, 36.2431341 ], [ -115.2412542, 36.2431341 ], [ -115.2412542, 36.2431368 ], [ -115.2412758, 36.2431368 ], [ -115.2412758, 36.2431395 ], [ -115.2412785, 36.2431395 ], [ -115.2412785, 36.2431692 ], [ -115.2412758, 36.2431692 ], [ -115.2412758, 36.2431881 ], [ -115.2412731, 36.2431881 ], [ -115.2412731, 36.2432367 ], [ -115.2412704, 36.2432367 ], [ -115.2412704, 36.243261 ], [ -115.2412677, 36.243261 ], [ -115.2412677, 36.2432772 ], [ -115.241265, 36.2432772 ], [ -115.241265, 36.2432934 ], [ -115.2412623, 36.2432934 ], [ -115.2412623, 36.2433096 ], [ -115.2412596, 36.2433096 ], [ -115.2412596, 36.2433123 ], [ -115.24125690000001, 36.2433123 ], [ -115.24125690000001, 36.243315 ], [ -115.2412488, 36.243315 ], [ -115.2412488, 36.2433177 ], [ -115.241238, 36.2433177 ], [ -115.241238, 36.2433204 ], [ -115.2412326, 36.2433204 ], [ -115.2412326, 36.2433231 ], [ -115.2412272, 36.2433231 ], [ -115.2412272, 36.2433339 ], [ -115.2412299, 36.2433339 ], [ -115.2412299, 36.2433366 ], [ -115.2412326, 36.2433366 ], [ -115.2412326, 36.2433393 ], [ -115.2412542, 36.2433393 ], [ -115.2412542, 36.243342 ], [ -115.2412596, 36.243342 ], [ -115.2412596, 36.2433474 ], [ -115.2412623, 36.2433474 ], [ -115.2412623, 36.2433663 ], [ -115.2412596, 36.2433663 ], [ -115.2412596, 36.243369 ], [ -115.2412542, 36.243369 ], [ -115.2412542, 36.2433717 ] ] ] } },
{ "type": "Feature", "properties": { "value": 255.0 }, "geometry": { "type": "Polygon", "coordinates": [ [ [ -115.2410733, 36.2433258 ], [ -115.2410706, 36.2433258 ], [ -115.2410706, 36.2433231 ], [ -115.2410652, 36.2433231 ], [ -115.2410652, 36.2433069 ], [ -115.2410679, 36.2433069 ], [ -115.2410679, 36.2433042 ], [ -115.2410706, 36.2433042 ], [ -115.2410706, 36.2433015 ], [ -115.2410733, 36.2433015 ], [ -115.2410733, 36.2432961 ], [ -115.2410679, 36.2432961 ], [ -115.2410679, 36.2432934 ], [ -115.24105440000001, 36.2432934 ], [ -115.24105440000001, 36.2432907 ], [ -115.241049, 36.2432907 ], [ -115.241049, 36.243288 ], [ -115.2410436, 36.243288 ], [ -115.2410436, 36.2432826 ], [ -115.2410409, 36.2432826 ], [ -115.2410409, 36.2432097 ], [ -115.2410382, 36.2432097 ], [ -115.2410382, 36.2431908 ], [ -115.2410409, 36.2431908 ], [ -115.2410409, 36.2431665 ], [ -115.2410436, 36.2431665 ], [ -115.2410436, 36.243153 ], [ -115.2410463, 36.243153 ], [ -115.2410463, 36.2431422 ], [ -115.241049, 36.2431422 ], [ -115.241049, 36.243126 ], [ -115.2410517, 36.243126 ], [ -115.2410517, 36.2431233 ], [ -115.2410571, 36.2431233 ], [ -115.2410571, 36.2431206 ], [ -115.2410814, 36.2431206 ], [ -115.2410814, 36.2431233 ], [ -115.2411273, 36.2431233 ], [ -115.2411273, 36.2431287 ], [ -115.24113, 36.2431287 ], [ -115.24113, 36.2431368 ], [ -115.2411273, 36.2431368 ], [ -115.2411273, 36.2431503 ], [ -115.2411246, 36.2431503 ], [ -115.2411246, 36.2431746 ], [ -115.24112190000001, 36.2431746 ], [ -115.24112190000001, 36.2431908 ], [ -115.2411246, 36.2431908 ], [ -115.2411246, 36.2432043 ], [ -115.2411273, 36.2432043 ], [ -115.2411273, 36.2432151 ], [ -115.24113, 36.2432151 ], [ -115.24113, 36.2432178 ], [ -115.2411327, 36.2432178 ], [ -115.2411327, 36.2432205 ], [ -115.2411354, 36.2432205 ], [ -115.2411354, 36.2432637 ], [ -115.2411327, 36.2432637 ], [ -115.2411327, 36.2432826 ], [ -115.24113, 36.2432826 ], [ -115.24113, 36.243288 ], [ -115.2411273, 36.243288 ], [ -115.2411273, 36.2432907 ], [ -115.2411246, 36.2432907 ], [ -115.2411246, 36.2432934 ], [ -115.241103, 36.2432934 ], [ -115.241103, 36.2432961 ], [ -115.2411003, 36.2432961 ], [ -115.2411003, 36.2432988 ], [ -115.2410976, 36.2432988 ], [ -115.2410976, 36.2433042 ], [ -115.2410949, 36.2433042 ], [ -115.2410949, 36.2433204 ], [ -115.2410922, 36.2433204 ], [ -115.2410922, 36.2433231 ], [ -115.2410733, 36.2433231 ], [ -115.2410733, 36.2433258 ] ] ] } },
{ "type": "Feature", "properties": { "value": 255.0 }, "geometry": { "type": "Polygon", "coordinates": [ [ [ -115.2409761, 36.2432988 ], [ -115.2409707, 36.2432988 ], [ -115.2409707, 36.2432961 ], [ -115.2409545, 36.2432961 ], [ -115.2409545, 36.2432934 ], [ -115.2409248, 36.2432934 ], [ -115.2409248, 36.2432907 ], [ -115.2409032, 36.2432907 ], [ -115.2409032, 36.243288 ], [ -115.2408978, 36.243288 ], [ -115.2408978, 36.2432853 ], [ -115.2408951, 36.2432853 ], [ -115.2408951, 36.2432772 ], [ -115.2408978, 36.2432772 ], [ -115.2408978, 36.2432421 ], [ -115.2409005, 36.2432421 ], [ -115.2409005, 36.243234 ], [ -115.2408978, 36.243234 ], [ -115.2408978, 36.2432232 ], [ -115.2409005, 36.2432232 ], [ -115.2409005, 36.2431989 ], [ -115.2409032, 36.2431989 ], [ -115.2409032, 36.2431773 ], [ -115.2409059, 36.2431773 ], [ -115.2409059, 36.2431611 ], [ -115.2409086, 36.2431611 ], [ -115.2409086, 36.2431179 ], [ -115.2409113, 36.2431179 ], [ -115.2409113, 36.2431152 ], [ -115.2409167, 36.2431152 ], [ -115.2409167, 36.2431125 ], [ -115.2409545, 36.2431125 ], [ -115.2409545, 36.2431152 ], [ -115.2409842, 36.2431152 ], [ -115.2409842, 36.2431179 ], [ -115.2410112, 36.2431179 ], [ -115.2410112, 36.2431206 ], [ -115.241022, 36.2431206 ], [ -115.241022, 36.2431233 ], [ -115.2410247, 36.2431233 ], [ -115.2410247, 36.243126 ], [ -115.2410274, 36.243126 ], [ -115.2410274, 36.2431314 ], [ -115.2410247, 36.2431314 ], [ -115.2410247, 36.2431584 ], [ -115.241022, 36.2431584 ], [ -115.241022, 36.2431773 ], [ -115.2410193, 36.2431773 ], [ -115.2410193, 36.2431935 ], [ -115.2410166, 36.2431935 ], [ -115.2410166, 36.2432097 ], [ -115.2410139, 36.2432097 ], [ -115.2410139, 36.2432448 ], [ -115.2410112, 36.2432448 ], [ -115.2410112, 36.243261 ], [ -115.2410085, 36.243261 ], [ -115.2410085, 36.2432907 ], [ -115.2410058, 36.2432907 ], [ -115.2410058, 36.2432961 ], [ -115.2409761, 36.2432961 ], [ -115.2409761, 36.2432988 ] ] ] } },
{ "type": "Feature", "properties": { "value": 255.0 }, "geometry": { "type": "Polygon", "coordinates": [ [ [ -115.2408681, 36.2432853 ], [ -115.24085190000001, 36.2432853 ], [ -115.24085190000001, 36.2432826 ], [ -115.2408276, 36.2432826 ], [ -115.2408276, 36.2431125 ], [ -115.2408681, 36.2431125 ], [ -115.2408681, 36.2431152 ], [ -115.2408708, 36.2431152 ], [ -115.2408708, 36.2431206 ], [ -115.2408735, 36.2431206 ], [ -115.2408735, 36.243126 ], [ -115.2408708, 36.243126 ], [ -115.2408708, 36.243153 ], [ -115.2408735, 36.243153 ], [ -115.2408735, 36.2431557 ], [ -115.2408762, 36.2431557 ], [ -115.2408762, 36.2431584 ], [ -115.2408789, 36.2431584 ], [ -115.2408789, 36.2431611 ], [ -115.2408816, 36.2431611 ], [ -115.2408816, 36.2431665 ], [ -115.2408843, 36.2431665 ], [ -115.2408843, 36.2431827 ], [ -115.2408816, 36.2431827 ], [ -115.2408816, 36.2432016 ], [ -115.2408789, 36.2432016 ], [ -115.2408789, 36.2432394 ], [ -115.2408762, 36.2432394 ], [ -115.2408762, 36.2432637 ], [ -115.2408735, 36.2432637 ], [ -115.2408735, 36.2432799 ], [ -115.2408708, 36.2432799 ], [ -115.2408708, 36.2432826 ], [ -115.2408681, 36.2432826 ], [ -115.2408681, 36.2432853 ] ] ] } },
{ "type": "Feature", "properties": { "value": 255.0 }, "geometry": { "type": "Polygon", "coordinates": [ [ [ -115.2409032, 36.2428776 ], [ -115.2408762, 36.2428776 ], [ -115.2408762, 36.2428749 ], [ -115.2408492, 36.2428749 ], [ -115.2408492, 36.2428722 ], [ -115.2408411, 36.2428722 ], [ -115.2408411, 36.2428695 ], [ -115.2408384, 36.2428695 ], [ -115.2408384, 36.2428641 ], [ -115.2408357, 36.2428641 ], [ -115.2408357, 36.2428614 ], [ -115.2408384, 36.2428614 ], [ -115.2408384, 36.2428398 ], [ -115.2408411, 36.2428398 ], [ -115.2408411, 36.2428371 ], [ -115.2408762, 36.2428371 ], [ -115.2408762, 36.2428344 ], [ -115.2408897, 36.2428344 ], [ -115.2408897, 36.2428371 ], [ -115.2409059, 36.2428371 ], [ -115.2409059, 36.2428398 ], [ -115.2409086, 36.2428398 ], [ -115.2409086, 36.2428425 ], [ -115.2409113, 36.2428425 ], [ -115.2409113, 36.242856 ], [ -115.240914, 36.242856 ], [ -115.240914, 36.2428695 ], [ -115.2409113, 36.2428695 ], [ -115.2409113, 36.2428722 ], [ -115.2409086, 36.2428722 ], [ -115.2409086, 36.2428749 ], [ -115.2409032, 36.2428749 ], [ -115.2409032, 36.2428776 ] ] ] } },
{ "type": "Feature", "properties": { "value": 255.0 }, "geometry": { "type": "Polygon", "coordinates": [ [ [ -115.2419967, 36.2429721 ], [ -115.2419697, 36.2429721 ], [ -115.2419697, 36.2429694 ], [ -115.2419454, 36.2429694 ], [ -115.2419454, 36.2429667 ], [ -115.2419346, 36.2429667 ], [ -115.2419346, 36.242964 ], [ -115.241931900000012, 36.242964 ], [ -115.241931900000012, 36.242937 ], [ -115.2419346, 36.242937 ], [ -115.2419346, 36.24291 ], [ -115.241931900000012, 36.24291 ], [ -115.241931900000012, 36.2428938 ], [ -115.2419292, 36.2428938 ], [ -115.2419292, 36.2428803 ], [ -115.2419265, 36.2428803 ], [ -115.2419265, 36.2428506 ], [ -115.2419292, 36.2428506 ], [ -115.2419292, 36.2428452 ], [ -115.241931900000012, 36.2428452 ], [ -115.241931900000012, 36.2428398 ], [ -115.2419346, 36.2428398 ], [ -115.2419346, 36.2428371 ], [ -115.2419373, 36.2428371 ], [ -115.2419373, 36.2428317 ], [ -115.24194, 36.2428317 ], [ -115.24194, 36.2428236 ], [ -115.24194270000001, 36.2428236 ], [ -115.24194270000001, 36.2428182 ], [ -115.2419454, 36.2428182 ], [ -115.2419454, 36.2428155 ], [ -115.2419481, 36.2428155 ], [ -115.2419481, 36.2428128 ], [ -115.2420156, 36.2428128 ], [ -115.2420156, 36.2428155 ], [ -115.2420237, 36.2428155 ], [ -115.2420237, 36.2428182 ], [ -115.2420264, 36.2428182 ], [ -115.2420264, 36.2428209 ], [ -115.242029100000011, 36.2428209 ], [ -115.242029100000011, 36.242829 ], [ -115.2420318, 36.242829 ], [ -115.2420318, 36.242856 ], [ -115.242029100000011, 36.242856 ], [ -115.242029100000011, 36.2428722 ], [ -115.2420264, 36.2428722 ], [ -115.2420264, 36.2428857 ], [ -115.2420237, 36.2428857 ], [ -115.2420237, 36.2428965 ], [ -115.242021, 36.2428965 ], [ -115.242021, 36.2428992 ], [ -115.2420183, 36.2428992 ], [ -115.2420183, 36.2429046 ], [ -115.2420156, 36.2429046 ], [ -115.2420156, 36.2429154 ], [ -115.2420129, 36.2429154 ], [ -115.2420129, 36.2429397 ], [ -115.2420156, 36.2429397 ], [ -115.2420156, 36.2429532 ], [ -115.2420129, 36.2429532 ], [ -115.2420129, 36.2429613 ], [ -115.24201020000001, 36.2429613 ], [ -115.24201020000001, 36.2429667 ], [ -115.2420075, 36.2429667 ], [ -115.2420075, 36.2429694 ], [ -115.2419967, 36.2429694 ], [ -115.2419967, 36.2429721 ] ] ] } },
{ "type": "Feature", "properties": { "value": 255.0 }, "geometry": { "type": "Polygon", "coordinates": [ [ [ -115.24187520000001, 36.2429154 ], [ -115.2418698, 36.2429154 ], [ -115.2418698, 36.2429127 ], [ -115.2418482, 36.2429127 ], [ -115.2418482, 36.24291 ], [ -115.2418131, 36.24291 ], [ -115.2418131, 36.2429073 ], [ -115.2418104, 36.2429073 ], [ -115.2418104, 36.2429046 ], [ -115.24180770000001, 36.2429046 ], [ -115.24180770000001, 36.2429019 ], [ -115.241805, 36.2429019 ], [ -115.241805, 36.2428992 ], [ -115.2418023, 36.2428992 ], [ -115.2418023, 36.2428938 ], [ -115.2417996, 36.2428938 ], [ -115.2417996, 36.2428803 ], [ -115.2418023, 36.2428803 ], [ -115.2418023, 36.2428722 ], [ -115.241805, 36.2428722 ], [ -115.241805, 36.2428371 ], [ -115.2418023, 36.2428371 ], [ -115.2418023, 36.2427993 ], [ -115.2417996, 36.2427993 ], [ -115.2417996, 36.2427912 ], [ -115.2418023, 36.2427912 ], [ -115.2418023, 36.2427804 ], [ -115.241805, 36.2427804 ], [ -115.241805, 36.242775 ], [ -115.24180770000001, 36.242775 ], [ -115.24180770000001, 36.2427696 ], [ -115.2418104, 36.2427696 ], [ -115.2418104, 36.2427669 ], [ -115.2418158, 36.2427669 ], [ -115.2418158, 36.2427642 ], [ -115.2418293, 36.2427642 ], [ -115.2418293, 36.2427615 ], [ -115.2418428, 36.2427615 ], [ -115.2418428, 36.2427588 ], [ -115.2418536, 36.2427588 ], [ -115.2418536, 36.2427561 ], [ -115.2418617, 36.2427561 ], [ -115.2418617, 36.2427534 ], [ -115.2418806, 36.2427534 ], [ -115.2418806, 36.2427561 ], [ -115.24189410000001, 36.2427561 ], [ -115.24189410000001, 36.2427588 ], [ -115.2418995, 36.2427588 ], [ -115.2418995, 36.2427615 ], [ -115.2419022, 36.2427615 ], [ -115.2419022, 36.2427669 ], [ -115.2419049, 36.2427669 ], [ -115.2419049, 36.2427993 ], [ -115.2419022, 36.2427993 ], [ -115.2419022, 36.2428074 ], [ -115.2418995, 36.2428074 ], [ -115.2418995, 36.2428155 ], [ -115.2418968, 36.2428155 ], [ -115.2418968, 36.2428263 ], [ -115.24189410000001, 36.2428263 ], [ -115.24189410000001, 36.2428344 ], [ -115.2418914, 36.2428344 ], [ -115.2418914, 36.2428425 ], [ -115.2418887, 36.2428425 ], [ -115.2418887, 36.2428479 ], [ -115.241886, 36.2428479 ], [ -115.241886, 36.2428587 ], [ -115.2418833, 36.2428587 ], [ -115.2418833, 36.2428803 ], [ -115.2418806, 36.2428803 ], [ -115.2418806, 36.2429127 ], [ -115.24187520000001, 36.2429127 ], [ -115.24187520000001, 36.2429154 ] ] ] } },
{ "type": "Feature", "properties": { "value": 255.0 }, "geometry": { "type": "Polygon", "coordinates": [ [ [ -115.2409437, 36.242802 ], [ -115.24091940000001, 36.242802 ], [ -115.24091940000001, 36.2427993 ], [ -115.240914, 36.2427993 ], [ -115.240914, 36.242775 ], [ -115.2409167, 36.242775 ], [ -115.2409167, 36.2427723 ], [ -115.2409437, 36.2427723 ], [ -115.2409437, 36.242775 ], [ -115.2409464, 36.242775 ], [ -115.2409464, 36.2427777 ], [ -115.2409491, 36.2427777 ], [ -115.2409491, 36.2427912 ], [ -115.2409464, 36.2427912 ], [ -115.2409464, 36.2427993 ], [ -115.2409437, 36.2427993 ], [ -115.2409437, 36.242802 ] ] ] } },
{ "type": "Feature", "properties": { "value": 255.0 }, "geometry": { "type": "Polygon", "coordinates": [ [ [ -115.2415026, 36.2429316 ], [ -115.241481, 36.2429316 ], [ -115.241481, 36.2429289 ], [ -115.2414675, 36.2429289 ], [ -115.2414675, 36.2429262 ], [ -115.2414378, 36.2429262 ], [ -115.2414378, 36.2429235 ], [ -115.241427, 36.2429235 ], [ -115.241427, 36.2429208 ], [ -115.2414243, 36.2429208 ], [ -115.2414243, 36.2429181 ], [ -115.24142160000001, 36.2429181 ], [ -115.24142160000001, 36.2429073 ], [ -115.2414189, 36.2429073 ], [ -115.2414189, 36.2428884 ], [ -115.24142160000001, 36.2428884 ], [ -115.24142160000001, 36.2428344 ], [ -115.2414243, 36.2428344 ], [ -115.2414243, 36.2428101 ], [ -115.241427, 36.2428101 ], [ -115.241427, 36.2428047 ], [ -115.2414297, 36.2428047 ], [ -115.2414297, 36.2427804 ], [ -115.2414324, 36.2427804 ], [ -115.2414324, 36.2427453 ], [ -115.2414432, 36.2427453 ], [ -115.2414432, 36.2427426 ], [ -115.2414459, 36.2427426 ], [ -115.2414459, 36.2427453 ], [ -115.2414972, 36.2427453 ], [ -115.2414972, 36.242748 ], [ -115.2415053, 36.242748 ], [ -115.2415053, 36.2427507 ], [ -115.2415161, 36.2427507 ], [ -115.2415161, 36.2427534 ], [ -115.2415215, 36.2427534 ], [ -115.2415215, 36.2427561 ], [ -115.2415242, 36.2427561 ], [ -115.2415242, 36.2428344 ], [ -115.2415215, 36.2428344 ], [ -115.2415215, 36.2428533 ], [ -115.2415188, 36.2428533 ], [ -115.2415188, 36.242856 ], [ -115.2415161, 36.242856 ], [ -115.2415161, 36.2428587 ], [ -115.2415134, 36.2428587 ], [ -115.2415134, 36.2428614 ], [ -115.241508, 36.2428614 ], [ -115.241508, 36.24291 ], [ -115.2415053, 36.24291 ], [ -115.2415053, 36.2429262 ], [ -115.2415026, 36.2429262 ], [ -115.2415026, 36.2429316 ] ] ] } },
{ "type": "Feature", "properties": { "value": 255.0 }, "geometry": { "type": "Polygon", "coordinates": [ [ [ -115.2417051, 36.2428911 ], [ -115.241661900000011, 36.2428911 ], [ -115.241661900000011, 36.2428884 ], [ -115.2416565, 36.2428884 ], [ -115.2416565, 36.242883 ], [ -115.2416538, 36.242883 ], [ -115.2416538, 36.2428641 ], [ -115.2416565, 36.2428641 ], [ -115.2416565, 36.2428263 ], [ -115.2416592, 36.2428263 ], [ -115.2416592, 36.2427993 ], [ -115.241661900000011, 36.2427993 ], [ -115.241661900000011, 36.242775 ], [ -115.2416646, 36.242775 ], [ -115.2416646, 36.2427669 ], [ -115.2416673, 36.2427669 ], [ -115.2416673, 36.2427615 ], [ -115.24167, 36.2427615 ], [ -115.24167, 36.2427561 ], [ -115.2416727, 36.2427561 ], [ -115.2416727, 36.2427453 ], [ -115.2416754, 36.2427453 ], [ -115.2416754, 36.2427399 ], [ -115.2416781, 36.2427399 ], [ -115.2416781, 36.2427156 ], [ -115.2416808, 36.2427156 ], [ -115.2416808, 36.2427129 ], [ -115.2417024, 36.2427129 ], [ -115.2417024, 36.2427156 ], [ -115.2417321, 36.2427156 ], [ -115.2417321, 36.2427183 ], [ -115.2417483, 36.2427183 ], [ -115.2417483, 36.242721 ], [ -115.2417537, 36.242721 ], [ -115.2417537, 36.2427237 ], [ -115.2417564, 36.2427237 ], [ -115.2417564, 36.2427264 ], [ -115.24175910000001, 36.2427264 ], [ -115.24175910000001, 36.2427453 ], [ -115.2417618, 36.2427453 ], [ -115.2417618, 36.2427885 ], [ -115.2417645, 36.2427885 ], [ -115.2417645, 36.2428209 ], [ -115.2417672, 36.2428209 ], [ -115.2417672, 36.242883 ], [ -115.2417645, 36.242883 ], [ -115.2417645, 36.2428857 ], [ -115.2417159, 36.2428857 ], [ -115.2417159, 36.2428884 ], [ -115.2417051, 36.2428884 ], [ -115.2417051, 36.2428911 ] ] ] } },
{ "type": "Feature", "properties": { "value": 255.0 }, "geometry": { "type": "Polygon", "coordinates": [ [ [ -115.2416214, 36.242937 ], [ -115.2416052, 36.242937 ], [ -115.2416052, 36.2429343 ], [ -115.2415539, 36.2429343 ], [ -115.2415539, 36.2429316 ], [ -115.2415458, 36.2429316 ], [ -115.2415458, 36.2429046 ], [ -115.2415485, 36.2429046 ], [ -115.2415485, 36.2428992 ], [ -115.2415512, 36.2428992 ], [ -115.2415512, 36.2428641 ], [ -115.2415485, 36.2428641 ], [ -115.2415485, 36.2428533 ], [ -115.2415458, 36.2428533 ], [ -115.2415458, 36.2428452 ], [ -115.2415431, 36.2428452 ], [ -115.2415431, 36.2428182 ], [ -115.2415458, 36.2428182 ], [ -115.2415458, 36.242802 ], [ -115.2415485, 36.242802 ], [ -115.2415485, 36.2427885 ], [ -115.2415512, 36.2427885 ], [ -115.2415512, 36.242775 ], [ -115.2415539, 36.242775 ], [ -115.2415539, 36.2427561 ], [ -115.24155660000001, 36.2427561 ], [ -115.24155660000001, 36.2427507 ], [ -115.2415593, 36.2427507 ], [ -115.2415593, 36.2427453 ], [ -115.2416052, 36.2427453 ], [ -115.2416052, 36.2427426 ], [ -115.2416079, 36.2427426 ], [ -115.2416079, 36.2427399 ], [ -115.2416052, 36.2427399 ], [ -115.2416052, 36.2427372 ], [ -115.2416025, 36.2427372 ], [ -115.2416025, 36.2427345 ], [ -115.2415998, 36.2427345 ], [ -115.2415998, 36.2427291 ], [ -115.2416133, 36.2427291 ], [ -115.2416133, 36.2427318 ], [ -115.241616, 36.2427318 ], [ -115.241616, 36.2427345 ], [ -115.2416187, 36.2427345 ], [ -115.2416187, 36.2427372 ], [ -115.2416214, 36.2427372 ], [ -115.2416214, 36.242748 ], [ -115.2416268, 36.242748 ], [ -115.2416268, 36.2427507 ], [ -115.2416349, 36.2427507 ], [ -115.2416349, 36.2427534 ], [ -115.2416403, 36.2427534 ], [ -115.2416403, 36.2427561 ], [ -115.241643, 36.2427561 ], [ -115.241643, 36.2427615 ], [ -115.2416457, 36.2427615 ], [ -115.2416457, 36.2427669 ], [ -115.241643, 36.2427669 ], [ -115.241643, 36.2428128 ], [ -115.2416403, 36.2428128 ], [ -115.2416403, 36.2428371 ], [ -115.2416376, 36.2428371 ], [ -115.2416376, 36.2428506 ], [ -115.2416349, 36.2428506 ], [ -115.2416349, 36.2428641 ], [ -115.2416322, 36.2428641 ], [ -115.2416322, 36.2428749 ], [ -115.2416295, 36.2428749 ], [ -115.2416295, 36.24291 ], [ -115.2416268, 36.24291 ], [ -115.2416268, 36.2429289 ], [ -115.24162410000001, 36.2429289 ], [ -115.24162410000001, 36.2429343 ], [ -115.2416214, 36.2429343 ], [ -115.2416214, 36.242937 ] ] ] } },
{ "type": "Feature", "properties": { "value": 255.0 }, "geometry": { "type": "Polygon", "coordinates": [ [ [ -115.2412488, 36.24291 ], [ -115.2412191, 36.24291 ], [ -115.2412191, 36.2429073 ], [ -115.2411921, 36.2429073 ], [ -115.2411921, 36.2429046 ], [ -115.2411813, 36.2429046 ], [ -115.2411813, 36.2429019 ], [ -115.2411786, 36.2429019 ], [ -115.2411786, 36.2428641 ], [ -115.2411813, 36.2428641 ], [ -115.2411813, 36.2428614 ], [ -115.2411786, 36.2428614 ], [ -115.2411786, 36.2428533 ], [ -115.2411759, 36.2428533 ], [ -115.2411759, 36.2428425 ], [ -115.2411732, 36.2428425 ], [ -115.2411732, 36.2428344 ], [ -115.24117050000001, 36.2428344 ], [ -115.24117050000001, 36.242829 ], [ -115.2411678, 36.242829 ], [ -115.2411678, 36.2428101 ], [ -115.24117050000001, 36.2428101 ], [ -115.24117050000001, 36.2427993 ], [ -115.2411732, 36.2427993 ], [ -115.2411732, 36.2427885 ], [ -115.2411759, 36.2427885 ], [ -115.2411759, 36.2427804 ], [ -115.2411786, 36.2427804 ], [ -115.2411786, 36.2427561 ], [ -115.2411813, 36.2427561 ], [ -115.2411813, 36.2427453 ], [ -115.241184, 36.2427453 ], [ -115.241184, 36.2427237 ], [ -115.2411867, 36.2427237 ], [ -115.2411867, 36.242721 ], [ -115.2411948, 36.242721 ], [ -115.2411948, 36.2427183 ], [ -115.241211, 36.2427183 ], [ -115.241211, 36.242721 ], [ -115.2412218, 36.242721 ], [ -115.2412218, 36.2427237 ], [ -115.2412299, 36.2427237 ], [ -115.2412299, 36.2427264 ], [ -115.2412461, 36.2427264 ], [ -115.2412461, 36.2427291 ], [ -115.2412704, 36.2427291 ], [ -115.2412704, 36.2427318 ], [ -115.2412785, 36.2427318 ], [ -115.2412785, 36.2427345 ], [ -115.2412812, 36.2427345 ], [ -115.2412812, 36.2427372 ], [ -115.2412839, 36.2427372 ], [ -115.2412839, 36.2427399 ], [ -115.2412866, 36.2427399 ], [ -115.2412866, 36.2427453 ], [ -115.2412812, 36.2427453 ], [ -115.2412812, 36.2427696 ], [ -115.2412785, 36.2427696 ], [ -115.2412785, 36.2427831 ], [ -115.2412758, 36.2427831 ], [ -115.2412758, 36.2427939 ], [ -115.2412731, 36.2427939 ], [ -115.2412731, 36.2428209 ], [ -115.2412704, 36.2428209 ], [ -115.2412704, 36.2428614 ], [ -115.2412677, 36.2428614 ], [ -115.2412677, 36.2428668 ], [ -115.241265, 36.2428668 ], [ -115.241265, 36.2428776 ], [ -115.2412623, 36.2428776 ], [ -115.2412623, 36.2428857 ], [ -115.2412596, 36.2428857 ], [ -115.2412596, 36.2428911 ], [ -115.24125690000001, 36.2428911 ], [ -115.24125690000001, 36.2429019 ], [ -115.2412542, 36.2429019 ], [ -115.2412542, 36.2429073 ], [ -115.2412488, 36.2429073 ], [ -115.2412488, 36.24291 ] ] ] } },
{ "type": "Feature", "properties": { "value": 255.0 }, "geometry": { "type": "Polygon", "coordinates": [ [ [ -115.2413568, 36.2429154 ], [ -115.241319, 36.2429154 ], [ -115.241319, 36.2429127 ], [ -115.2412839, 36.2429127 ], [ -115.2412839, 36.24291 ], [ -115.2412785, 36.24291 ], [ -115.2412785, 36.2429073 ], [ -115.2412758, 36.2429073 ], [ -115.2412758, 36.2428857 ], [ -115.2412785, 36.2428857 ], [ -115.2412785, 36.2428614 ], [ -115.2412812, 36.2428614 ], [ -115.2412812, 36.2428506 ], [ -115.2412839, 36.2428506 ], [ -115.2412839, 36.2428344 ], [ -115.2412866, 36.2428344 ], [ -115.2412866, 36.2428236 ], [ -115.2412893, 36.2428236 ], [ -115.2412893, 36.2428101 ], [ -115.241292, 36.2428101 ], [ -115.241292, 36.2427669 ], [ -115.2412947, 36.2427669 ], [ -115.2412947, 36.2427507 ], [ -115.2412974, 36.2427507 ], [ -115.2412974, 36.2427453 ], [ -115.2412947, 36.2427453 ], [ -115.2412947, 36.2427426 ], [ -115.2412974, 36.2427426 ], [ -115.2412974, 36.2427345 ], [ -115.2413001, 36.2427345 ], [ -115.2413001, 36.2427318 ], [ -115.2413028, 36.2427318 ], [ -115.2413028, 36.2427264 ], [ -115.24130550000001, 36.2427264 ], [ -115.24130550000001, 36.2427156 ], [ -115.2413082, 36.2427156 ], [ -115.2413082, 36.2427129 ], [ -115.2413487, 36.2427129 ], [ -115.2413487, 36.2427102 ], [ -115.2413541, 36.2427102 ], [ -115.2413541, 36.2427075 ], [ -115.2413568, 36.2427075 ], [ -115.2413568, 36.2427048 ], [ -115.2413703, 36.2427048 ], [ -115.2413703, 36.2427075 ], [ -115.241373, 36.2427075 ], [ -115.241373, 36.2427102 ], [ -115.2413757, 36.2427102 ], [ -115.2413757, 36.2427129 ], [ -115.241373, 36.2427129 ], [ -115.241373, 36.2427183 ], [ -115.2413703, 36.2427183 ], [ -115.2413703, 36.2427264 ], [ -115.2413784, 36.2427264 ], [ -115.2413784, 36.2427291 ], [ -115.2413865, 36.2427291 ], [ -115.2413865, 36.2427318 ], [ -115.2413892, 36.2427318 ], [ -115.2413892, 36.2427345 ], [ -115.241391900000011, 36.2427345 ], [ -115.241391900000011, 36.2427723 ], [ -115.2413892, 36.2427723 ], [ -115.2413892, 36.2428182 ], [ -115.2413865, 36.2428182 ], [ -115.2413865, 36.2428371 ], [ -115.2413838, 36.2428371 ], [ -115.2413838, 36.2428425 ], [ -115.2413784, 36.2428425 ], [ -115.2413784, 36.2428452 ], [ -115.241373, 36.2428452 ], [ -115.241373, 36.2428479 ], [ -115.2413703, 36.2428479 ], [ -115.2413703, 36.2428506 ], [ -115.2413676, 36.2428506 ], [ -115.2413676, 36.2428587 ], [ -115.2413649, 36.2428587 ], [ -115.2413649, 36.2428776 ], [ -115.2413622, 36.2428776 ], [ -115.2413622, 36.2428992 ], [ -115.2413595, 36.2428992 ], [ -115.2413595, 36.2429127 ], [ -115.2413568, 36.2429127 ], [ -115.2413568, 36.2429154 ] ] ] } },
{ "type": "Feature", "properties": { "value": 255.0 }, "geometry": { "type": "Polygon", "coordinates": [ [ [ -115.2420048, 36.2426967 ], [ -115.2419967, 36.2426967 ], [ -115.2419967, 36.242694 ], [ -115.2419886, 36.242694 ], [ -115.2419886, 36.2426913 ], [ -115.2419859, 36.2426913 ], [ -115.2419859, 36.2426886 ], [ -115.2419832, 36.2426886 ], [ -115.2419832, 36.2426859 ], [ -115.241931900000012, 36.2426859 ], [ -115.241931900000012, 36.2426832 ], [ -115.2419265, 36.2426832 ], [ -115.2419265, 36.2426778 ], [ -115.2419238, 36.2426778 ], [ -115.2419238, 36.2426157 ], [ -115.2419265, 36.2426157 ], [ -115.2419265, 36.2425968 ], [ -115.2419292, 36.2425968 ], [ -115.2419292, 36.242586 ], [ -115.241931900000012, 36.242586 ], [ -115.241931900000012, 36.2425752 ], [ -115.2419346, 36.2425752 ], [ -115.2419346, 36.2425212 ], [ -115.2419373, 36.2425212 ], [ -115.2419373, 36.242505 ], [ -115.24194, 36.242505 ], [ -115.24194, 36.2424996 ], [ -115.24194270000001, 36.2424996 ], [ -115.24194270000001, 36.2424969 ], [ -115.2419454, 36.2424969 ], [ -115.2419454, 36.2424942 ], [ -115.2420075, 36.2424942 ], [ -115.2420075, 36.2424969 ], [ -115.2420156, 36.2424969 ], [ -115.2420156, 36.2424996 ], [ -115.2420183, 36.2424996 ], [ -115.2420183, 36.2425023 ], [ -115.242021, 36.2425023 ], [ -115.242021, 36.2425239 ], [ -115.2420183, 36.2425239 ], [ -115.2420183, 36.2425887 ], [ -115.242021, 36.2425887 ], [ -115.242021, 36.2425914 ], [ -115.2420237, 36.2425914 ], [ -115.2420237, 36.2425941 ], [ -115.242029100000011, 36.2425941 ], [ -115.242029100000011, 36.2425968 ], [ -115.2420318, 36.2425968 ], [ -115.2420318, 36.2426238 ], [ -115.242029100000011, 36.2426238 ], [ -115.242029100000011, 36.2426292 ], [ -115.2420264, 36.2426292 ], [ -115.2420264, 36.2426346 ], [ -115.2420237, 36.2426346 ], [ -115.2420237, 36.2426427 ], [ -115.242021, 36.2426427 ], [ -115.242021, 36.2426508 ], [ -115.2420183, 36.2426508 ], [ -115.2420183, 36.2426589 ], [ -115.2420156, 36.2426589 ], [ -115.2420156, 36.2426697 ], [ -115.2420129, 36.2426697 ], [ -115.2420129, 36.2426805 ], [ -115.24201020000001, 36.2426805 ], [ -115.24201020000001, 36.2426886 ], [ -115.2420075, 36.2426886 ], [ -115.2420075, 36.242694 ], [ -115.2420048, 36.242694 ], [ -115.2420048, 36.2426967 ] ] ] } },
{ "type": "Feature", "properties": { "value": 255.0 }, "geometry": { "type": "Polygon", "coordinates": [ [ [ -115.2418968, 36.2426643 ], [ -115.2418779, 36.2426643 ], [ -115.2418779, 36.2426616 ], [ -115.2418185, 36.2426616 ], [ -115.2418185, 36.2426589 ], [ -115.2418131, 36.2426589 ], [ -115.2418131, 36.2426562 ], [ -115.2418104, 36.2426562 ], [ -115.2418104, 36.2426535 ], [ -115.24180770000001, 36.2426535 ], [ -115.24180770000001, 36.2426454 ], [ -115.2418104, 36.2426454 ], [ -115.2418104, 36.2426238 ], [ -115.2418131, 36.2426238 ], [ -115.2418131, 36.2426211 ], [ -115.2418104, 36.2426211 ], [ -115.2418104, 36.2426184 ], [ -115.2418131, 36.2426184 ], [ -115.2418131, 36.2425995 ], [ -115.2418158, 36.2425995 ], [ -115.2418158, 36.2425914 ], [ -115.2418131, 36.2425914 ], [ -115.2418131, 36.2425725 ], [ -115.2418158, 36.2425725 ], [ -115.2418158, 36.2425428 ], [ -115.2418185, 36.2425428 ], [ -115.2418185, 36.2425293 ], [ -115.2418212, 36.2425293 ], [ -115.2418212, 36.2425023 ], [ -115.2418239, 36.2425023 ], [ -115.2418239, 36.2424942 ], [ -115.2418293, 36.2424942 ], [ -115.2418293, 36.2424915 ], [ -115.2418401, 36.2424915 ], [ -115.2418401, 36.2424942 ], [ -115.2418617, 36.2424942 ], [ -115.2418617, 36.2424969 ], [ -115.24189410000001, 36.2424969 ], [ -115.24189410000001, 36.2424996 ], [ -115.2418968, 36.2424996 ], [ -115.2418968, 36.2425131 ], [ -115.24189410000001, 36.2425131 ], [ -115.24189410000001, 36.2425401 ], [ -115.2418914, 36.2425401 ], [ -115.2418914, 36.2425644 ], [ -115.24189410000001, 36.2425644 ], [ -115.24189410000001, 36.2425806 ], [ -115.2418968, 36.2425806 ], [ -115.2418968, 36.2425887 ], [ -115.2418995, 36.2425887 ], [ -115.2418995, 36.2425995 ], [ -115.2419022, 36.2425995 ], [ -115.2419022, 36.2426157 ], [ -115.2419049, 36.2426157 ], [ -115.2419049, 36.2426346 ], [ -115.2419022, 36.2426346 ], [ -115.2419022, 36.2426589 ], [ -115.2418995, 36.2426589 ], [ -115.2418995, 36.2426616 ], [ -115.2418968, 36.2426616 ], [ -115.2418968, 36.2426643 ] ] ] } },
{ "type": "Feature", "properties": { "value": 255.0 }, "geometry": { "type": "Polygon", "coordinates": [ [ [ -115.241778, 36.2426535 ], [ -115.241751, 36.2426535 ], [ -115.241751, 36.2426508 ], [ -115.2417429, 36.2426508 ], [ -115.2417429, 36.2426481 ], [ -115.2417321, 36.2426481 ], [ -115.2417321, 36.2426508 ], [ -115.241724, 36.2426508 ], [ -115.241724, 36.2426481 ], [ -115.2417159, 36.2426481 ], [ -115.2417159, 36.2426508 ], [ -115.2417051, 36.2426508 ], [ -115.2417051, 36.2426481 ], [ -115.241697, 36.2426481 ], [ -115.241697, 36.2426454 ], [ -115.2416943, 36.2426454 ], [ -115.2416943, 36.24264 ], [ -115.24169160000001, 36.24264 ], [ -115.24169160000001, 36.2426319 ], [ -115.2416943, 36.2426319 ], [ -115.2416943, 36.2425833 ], [ -115.241697, 36.2425833 ], [ -115.241697, 36.2425725 ], [ -115.2416997, 36.2425725 ], [ -115.2416997, 36.2425698 ], [ -115.2417051, 36.2425698 ], [ -115.2417051, 36.2425671 ], [ -115.241710500000011, 36.2425671 ], [ -115.241710500000011, 36.2425644 ], [ -115.2417132, 36.2425644 ], [ -115.2417132, 36.2425617 ], [ -115.2417159, 36.2425617 ], [ -115.2417159, 36.2425239 ], [ -115.2417132, 36.2425239 ], [ -115.2417132, 36.2425077 ], [ -115.2417159, 36.2425077 ], [ -115.2417159, 36.2425023 ], [ -115.2417186, 36.2425023 ], [ -115.2417186, 36.2424969 ], [ -115.241724, 36.2424969 ], [ -115.241724, 36.2424942 ], [ -115.241729400000011, 36.2424942 ], [ -115.241729400000011, 36.2424915 ], [ -115.24174020000001, 36.2424915 ], [ -115.24174020000001, 36.2424888 ], [ -115.2417915, 36.2424888 ], [ -115.2417915, 36.2424915 ], [ -115.2417942, 36.2424915 ], [ -115.2417942, 36.2424969 ], [ -115.241796900000011, 36.2424969 ], [ -115.241796900000011, 36.2424996 ], [ -115.2417942, 36.2424996 ], [ -115.2417942, 36.242532 ], [ -115.2417915, 36.242532 ], [ -115.2417915, 36.242559 ], [ -115.2417888, 36.242559 ], [ -115.2417888, 36.2426211 ], [ -115.2417861, 36.2426211 ], [ -115.2417861, 36.2426481 ], [ -115.2417834, 36.2426481 ], [ -115.2417834, 36.2426508 ], [ -115.241778, 36.2426508 ], [ -115.241778, 36.2426535 ] ] ] } },
{ "type": "Feature", "properties": { "value": 255.0 }, "geometry": { "type": "Polygon", "coordinates": [ [ [ -115.2416538, 36.2426535 ], [ -115.2416403, 36.2426535 ], [ -115.2416403, 36.2426508 ], [ -115.2415998, 36.2426508 ], [ -115.2415998, 36.2426481 ], [ -115.2415728, 36.2426481 ], [ -115.2415728, 36.2426454 ], [ -115.2415701, 36.2426454 ], [ -115.2415701, 36.2426373 ], [ -115.2415674, 36.2426373 ], [ -115.2415674, 36.2426319 ], [ -115.2415701, 36.2426319 ], [ -115.2415701, 36.2425914 ], [ -115.2415728, 36.2425914 ], [ -115.2415728, 36.2425779 ], [ -115.24157550000001, 36.2425779 ], [ -115.24157550000001, 36.2425617 ], [ -115.2415782, 36.2425617 ], [ -115.2415782, 36.2425455 ], [ -115.2415809, 36.2425455 ], [ -115.2415809, 36.2425428 ], [ -115.2415782, 36.2425428 ], [ -115.2415782, 36.2425212 ], [ -115.24157550000001, 36.2425212 ], [ -115.24157550000001, 36.2425104 ], [ -115.2415782, 36.2425104 ], [ -115.2415782, 36.2425023 ], [ -115.2415809, 36.2425023 ], [ -115.2415809, 36.2424969 ], [ -115.2415836, 36.2424969 ], [ -115.2415836, 36.2424753 ], [ -115.2415863, 36.2424753 ], [ -115.2415863, 36.2424699 ], [ -115.2415917, 36.2424699 ], [ -115.2415917, 36.2424672 ], [ -115.241616, 36.2424672 ], [ -115.241616, 36.2424699 ], [ -115.2416457, 36.2424699 ], [ -115.2416457, 36.2424726 ], [ -115.2416511, 36.2424726 ], [ -115.2416511, 36.2424753 ], [ -115.2416592, 36.2424753 ], [ -115.2416592, 36.242478 ], [ -115.241661900000011, 36.242478 ], [ -115.241661900000011, 36.2424807 ], [ -115.2416646, 36.2424807 ], [ -115.2416646, 36.2424861 ], [ -115.2416673, 36.2424861 ], [ -115.2416673, 36.2425185 ], [ -115.24167, 36.2425185 ], [ -115.24167, 36.2425266 ], [ -115.2416727, 36.2425266 ], [ -115.2416727, 36.242559 ], [ -115.24167, 36.242559 ], [ -115.24167, 36.2425752 ], [ -115.2416673, 36.2425752 ], [ -115.2416673, 36.2426049 ], [ -115.2416646, 36.2426049 ], [ -115.2416646, 36.2426238 ], [ -115.241661900000011, 36.2426238 ], [ -115.241661900000011, 36.2426427 ], [ -115.2416592, 36.2426427 ], [ -115.2416592, 36.2426508 ], [ -115.2416538, 36.2426508 ], [ -115.2416538, 36.2426535 ] ] ] } },
{ "type": "Feature", "properties": { "value": 255.0 }, "geometry": { "type": "Polygon", "coordinates": [ [ [ -115.2415107, 36.2426481 ], [ -115.2414837, 36.2426481 ], [ -115.2414837, 36.2426454 ], [ -115.2414648, 36.2426454 ], [ -115.2414648, 36.2426427 ], [ -115.2414621, 36.2426427 ], [ -115.2414621, 36.24264 ], [ -115.241459400000011, 36.24264 ], [ -115.241459400000011, 36.2426319 ], [ -115.2414621, 36.2426319 ], [ -115.2414621, 36.2426184 ], [ -115.2414648, 36.2426184 ], [ -115.2414648, 36.242586 ], [ -115.2414621, 36.242586 ], [ -115.2414621, 36.2425752 ], [ -115.2414648, 36.2425752 ], [ -115.2414648, 36.2425563 ], [ -115.2414675, 36.2425563 ], [ -115.2414675, 36.2425482 ], [ -115.2414702, 36.2425482 ], [ -115.2414702, 36.2425104 ], [ -115.2414729, 36.2425104 ], [ -115.2414729, 36.2424753 ], [ -115.2414756, 36.2424753 ], [ -115.2414756, 36.2424699 ], [ -115.2414783, 36.2424699 ], [ -115.2414783, 36.2424672 ], [ -115.241481, 36.2424672 ], [ -115.241481, 36.2424645 ], [ -115.2414972, 36.2424645 ], [ -115.2414972, 36.2424672 ], [ -115.2415134, 36.2424672 ], [ -115.2415134, 36.2424699 ], [ -115.2415377, 36.2424699 ], [ -115.2415377, 36.2424726 ], [ -115.24155660000001, 36.2424726 ], [ -115.24155660000001, 36.2424753 ], [ -115.2415593, 36.2424753 ], [ -115.2415593, 36.242478 ], [ -115.241562, 36.242478 ], [ -115.241562, 36.2424861 ], [ -115.2415593, 36.2424861 ], [ -115.2415593, 36.242505 ], [ -115.24155660000001, 36.242505 ], [ -115.24155660000001, 36.2425698 ], [ -115.2415593, 36.2425698 ], [ -115.2415593, 36.2425779 ], [ -115.241562, 36.2425779 ], [ -115.241562, 36.2425941 ], [ -115.2415593, 36.2425941 ], [ -115.2415593, 36.2426076 ], [ -115.24155660000001, 36.2426076 ], [ -115.24155660000001, 36.2426211 ], [ -115.2415539, 36.2426211 ], [ -115.2415539, 36.2426319 ], [ -115.2415512, 36.2426319 ], [ -115.2415512, 36.2426373 ], [ -115.2415485, 36.2426373 ], [ -115.2415485, 36.24264 ], [ -115.2415431, 36.24264 ], [ -115.2415431, 36.2426427 ], [ -115.2415404, 36.2426427 ], [ -115.2415404, 36.2426454 ], [ -115.2415107, 36.2426454 ], [ -115.2415107, 36.2426481 ] ] ] } },
{ "type": "Feature", "properties": { "value": 255.0 }, "geometry": { "type": "Polygon", "coordinates": [ [ [ -115.24142160000001, 36.2426319 ], [ -115.2413622, 36.2426319 ], [ -115.2413622, 36.2426292 ], [ -115.2413298, 36.2426292 ], [ -115.2413298, 36.2426265 ], [ -115.241324400000011, 36.2426265 ], [ -115.241324400000011, 36.2426238 ], [ -115.2413217, 36.2426238 ], [ -115.2413217, 36.2426184 ], [ -115.241324400000011, 36.2426184 ], [ -115.241324400000011, 36.2425968 ], [ -115.2413217, 36.2425968 ], [ -115.2413217, 36.2425536 ], [ -115.241324400000011, 36.2425536 ], [ -115.241324400000011, 36.242532 ], [ -115.2413217, 36.242532 ], [ -115.2413217, 36.2425185 ], [ -115.241319, 36.2425185 ], [ -115.241319, 36.2424861 ], [ -115.2413217, 36.2424861 ], [ -115.2413217, 36.2424726 ], [ -115.241324400000011, 36.2424726 ], [ -115.241324400000011, 36.2424645 ], [ -115.2413271, 36.2424645 ], [ -115.2413271, 36.2424591 ], [ -115.2413298, 36.2424591 ], [ -115.2413298, 36.2424564 ], [ -115.2413352, 36.2424564 ], [ -115.2413352, 36.2424537 ], [ -115.2413703, 36.2424537 ], [ -115.2413703, 36.242451 ], [ -115.2414108, 36.242451 ], [ -115.2414108, 36.2424483 ], [ -115.2414162, 36.2424483 ], [ -115.2414162, 36.242451 ], [ -115.2414378, 36.242451 ], [ -115.2414378, 36.2424537 ], [ -115.24144050000001, 36.2424537 ], [ -115.24144050000001, 36.2424564 ], [ -115.2414432, 36.2424564 ], [ -115.2414432, 36.2424618 ], [ -115.2414459, 36.2424618 ], [ -115.2414459, 36.242478 ], [ -115.2414432, 36.242478 ], [ -115.2414432, 36.2424915 ], [ -115.24144050000001, 36.2424915 ], [ -115.24144050000001, 36.2425104 ], [ -115.2414378, 36.2425104 ], [ -115.2414378, 36.242532 ], [ -115.2414351, 36.242532 ], [ -115.2414351, 36.2425509 ], [ -115.2414324, 36.2425509 ], [ -115.2414324, 36.2425698 ], [ -115.2414297, 36.2425698 ], [ -115.2414297, 36.2425887 ], [ -115.241427, 36.2425887 ], [ -115.241427, 36.2426184 ], [ -115.2414243, 36.2426184 ], [ -115.2414243, 36.2426292 ], [ -115.24142160000001, 36.2426292 ], [ -115.24142160000001, 36.2426319 ] ] ] } },
{ "type": "Feature", "properties": { "value": 255.0 }, "geometry": { "type": "Polygon", "coordinates": [ [ [ -115.2412839, 36.2426373 ], [ -115.2412812, 36.2426373 ], [ -115.2412812, 36.2426346 ], [ -115.2412488, 36.2426346 ], [ -115.2412488, 36.2426319 ], [ -115.2412434, 36.2426319 ], [ -115.2412434, 36.2426292 ], [ -115.241238, 36.2426292 ], [ -115.241238, 36.2426265 ], [ -115.2412299, 36.2426265 ], [ -115.2412299, 36.2426238 ], [ -115.2412056, 36.2426238 ], [ -115.2412056, 36.2426211 ], [ -115.2412002, 36.2426211 ], [ -115.2412002, 36.2426076 ], [ -115.2411975, 36.2426076 ], [ -115.2411975, 36.2426022 ], [ -115.2412002, 36.2426022 ], [ -115.2412002, 36.2425752 ], [ -115.2412029, 36.2425752 ], [ -115.2412029, 36.2425671 ], [ -115.2412056, 36.2425671 ], [ -115.2412056, 36.242532 ], [ -115.2412083, 36.242532 ], [ -115.2412083, 36.2425293 ], [ -115.241211, 36.2425293 ], [ -115.241211, 36.2425266 ], [ -115.2412137, 36.2425266 ], [ -115.2412137, 36.2425239 ], [ -115.2412164, 36.2425239 ], [ -115.2412164, 36.2425212 ], [ -115.2412218, 36.2425212 ], [ -115.2412218, 36.2425158 ], [ -115.2412245, 36.2425158 ], [ -115.2412245, 36.2424942 ], [ -115.2412218, 36.2424942 ], [ -115.2412218, 36.2424861 ], [ -115.2412245, 36.2424861 ], [ -115.2412245, 36.2424807 ], [ -115.2412218, 36.2424807 ], [ -115.2412218, 36.2424483 ], [ -115.2412245, 36.2424483 ], [ -115.2412245, 36.2424456 ], [ -115.2412272, 36.2424456 ], [ -115.2412272, 36.2424429 ], [ -115.2412353, 36.2424429 ], [ -115.2412353, 36.2424402 ], [ -115.2412515, 36.2424402 ], [ -115.2412515, 36.2424429 ], [ -115.2412704, 36.2424429 ], [ -115.2412704, 36.2424456 ], [ -115.2413028, 36.2424456 ], [ -115.2413028, 36.2424483 ], [ -115.2413082, 36.2424483 ], [ -115.2413082, 36.2424699 ], [ -115.24130550000001, 36.2424699 ], [ -115.24130550000001, 36.2424969 ], [ -115.2413028, 36.2424969 ], [ -115.2413028, 36.2425131 ], [ -115.24130550000001, 36.2425131 ], [ -115.24130550000001, 36.2425536 ], [ -115.2413028, 36.2425536 ], [ -115.2413028, 36.2425698 ], [ -115.2413001, 36.2425698 ], [ -115.2413001, 36.2425968 ], [ -115.2412974, 36.2425968 ], [ -115.2412974, 36.2426184 ], [ -115.2412947, 36.2426184 ], [ -115.2412947, 36.2426319 ], [ -115.241292, 36.2426319 ], [ -115.241292, 36.2426346 ], [ -115.2412839, 36.2426346 ], [ -115.2412839, 36.2426373 ] ] ] } },
{ "type": "Feature", "properties": { "value": 255.0 }, "geometry": { "type": "Polygon", "coordinates": [ [ [ -115.2409545, 36.2426049 ], [ -115.240941, 36.2426049 ], [ -115.240941, 36.2426022 ], [ -115.2408951, 36.2426022 ], [ -115.2408951, 36.2425995 ], [ -115.2408708, 36.2425995 ], [ -115.2408708, 36.2425941 ], [ -115.2408681, 36.2425941 ], [ -115.2408681, 36.2425833 ], [ -115.2408708, 36.2425833 ], [ -115.2408708, 36.2425563 ], [ -115.2408735, 36.2425563 ], [ -115.2408735, 36.2425266 ], [ -115.2408762, 36.2425266 ], [ -115.2408762, 36.2424996 ], [ -115.2408789, 36.2424996 ], [ -115.2408789, 36.2424888 ], [ -115.2408762, 36.2424888 ], [ -115.2408762, 36.2424753 ], [ -115.2408735, 36.2424753 ], [ -115.2408735, 36.2424537 ], [ -115.2408762, 36.2424537 ], [ -115.2408762, 36.2424294 ], [ -115.2408789, 36.2424294 ], [ -115.2408789, 36.2424213 ], [ -115.2408816, 36.2424213 ], [ -115.2408816, 36.2424186 ], [ -115.2408843, 36.2424186 ], [ -115.2408843, 36.2424159 ], [ -115.2409275, 36.2424159 ], [ -115.2409275, 36.2424186 ], [ -115.2409572, 36.2424186 ], [ -115.2409572, 36.2424213 ], [ -115.2409599, 36.2424213 ], [ -115.2409599, 36.2424429 ], [ -115.2409572, 36.2424429 ], [ -115.2409572, 36.2424726 ], [ -115.2409599, 36.2424726 ], [ -115.2409599, 36.2424753 ], [ -115.2409626, 36.2424753 ], [ -115.2409626, 36.242478 ], [ -115.240968, 36.242478 ], [ -115.240968, 36.2424807 ], [ -115.2409707, 36.2424807 ], [ -115.2409707, 36.2425455 ], [ -115.240968, 36.2425455 ], [ -115.240968, 36.2425617 ], [ -115.2409653, 36.2425617 ], [ -115.2409653, 36.2425752 ], [ -115.2409626, 36.2425752 ], [ -115.2409626, 36.2425887 ], [ -115.2409599, 36.2425887 ], [ -115.2409599, 36.2425995 ], [ -115.2409572, 36.2425995 ], [ -115.2409572, 36.2426022 ], [ -115.2409545, 36.2426022 ], [ -115.2409545, 36.2426049 ] ] ] } },
{ "type": "Feature", "properties": { "value": 255.0 }, "geometry": { "type": "Polygon", "coordinates": [ [ [ -115.2408384, 36.2425995 ], [ -115.2408276, 36.2425995 ], [ -115.2408276, 36.2424024 ], [ -115.2408465, 36.2424024 ], [ -115.2408465, 36.2424051 ], [ -115.2408546, 36.2424051 ], [ -115.2408546, 36.2424078 ], [ -115.2408573, 36.2424078 ], [ -115.2408573, 36.2424132 ], [ -115.24086, 36.2424132 ], [ -115.24086, 36.242451 ], [ -115.2408573, 36.242451 ], [ -115.2408573, 36.2425131 ], [ -115.2408546, 36.2425131 ], [ -115.2408546, 36.2425239 ], [ -115.24085190000001, 36.2425239 ], [ -115.24085190000001, 36.242532 ], [ -115.2408492, 36.242532 ], [ -115.2408492, 36.2425455 ], [ -115.24085190000001, 36.2425455 ], [ -115.24085190000001, 36.2425806 ], [ -115.2408492, 36.2425806 ], [ -115.2408492, 36.2425941 ], [ -115.2408465, 36.2425941 ], [ -115.2408465, 36.2425968 ], [ -115.2408384, 36.2425968 ], [ -115.2408384, 36.2425995 ] ] ] } }
]
}
