{
"type": "FeatureCollection",
"crs": { "type": "name", "properties": { "name": "urn:ogc:def:crs:OGC:1.3:CRS84" } },
"features": [
{ "type": "Feature", "properties": { "value": 255.0 }, "geometry": { "type": "Polygon", "coordinates": [ [ [ -115.1741376, 36.158132699799999 ], [ -115.1740242, 36.158132699799999 ], [ -115.1740242, 36.158129999799996 ], [ -115.1740296, 36.158129999799996 ], [ -115.1740296, 36.1581272998 ], [ -115.1740323, 36.1581272998 ], [ -115.1740323, 36.158121899800001 ], [ -115.174035, 36.158121899800001 ], [ -115.174035, 36.158116499800002 ], [ -115.1740404, 36.158116499800002 ], [ -115.1740404, 36.158113799799999 ], [ -115.1740539, 36.158113799799999 ], [ -115.1740539, 36.158111099800003 ], [ -115.174062, 36.158111099800003 ], [ -115.174062, 36.158113799799999 ], [ -115.1741052, 36.158113799799999 ], [ -115.1741052, 36.158116499800002 ], [ -115.1741079, 36.158116499800002 ], [ -115.1741079, 36.158113799799999 ], [ -115.174116, 36.158113799799999 ], [ -115.174116, 36.158116499800002 ], [ -115.1741214, 36.158116499800002 ], [ -115.1741214, 36.158113799799999 ], [ -115.1741376, 36.158113799799999 ], [ -115.1741376, 36.158132699799999 ] ] ] } },
{ "type": "Feature", "properties": { "value": 255.0 }, "geometry": { "type": "Polygon", "coordinates": [ [ [ -115.1725554, 36.158132699799999 ], [ -115.1723826, 36.158132699799999 ], [ -115.1723826, 36.158094899799998 ], [ -115.1723907, 36.158094899799998 ], [ -115.1723907, 36.158092199800002 ], [ -115.17244740000001, 36.158092199800002 ], [ -115.17244740000001, 36.158089499799999 ], [ -115.1724798, 36.158089499799999 ], [ -115.1724798, 36.158092199800002 ], [ -115.1725122, 36.158092199800002 ], [ -115.1725122, 36.158094899799998 ], [ -115.1725446, 36.158094899799998 ], [ -115.1725446, 36.158097599800001 ], [ -115.1725473, 36.158097599800001 ], [ -115.1725473, 36.158100299799997 ], [ -115.17255, 36.158100299799997 ], [ -115.17255, 36.158105699799997 ], [ -115.172552700000011, 36.158105699799997 ], [ -115.172552700000011, 36.158129999799996 ], [ -115.1725554, 36.158129999799996 ], [ -115.1725554, 36.158132699799999 ] ] ] } },
{ "type": "Feature", "properties": { "value": 255.0 }, "geometry": { "type": "Polygon", "coordinates": [ [ [ -115.174035, 36.158105699799997 ], [ -115.1740215, 36.158105699799997 ], [ -115.1740215, 36.158102999800001 ], [ -115.1739648, 36.158102999800001 ], [ -115.1739648, 36.158100299799997 ], [ -115.1739621, 36.158100299799997 ], [ -115.1739621, 36.158097599800001 ], [ -115.1739594, 36.158097599800001 ], [ -115.1739594, 36.158094899799998 ], [ -115.1739567, 36.158094899799998 ], [ -115.1739567, 36.158089499799999 ], [ -115.173954, 36.158089499799999 ], [ -115.173954, 36.158086799799996 ], [ -115.1739378, 36.158086799799996 ], [ -115.1739378, 36.1580840998 ], [ -115.1739135, 36.1580840998 ], [ -115.1739135, 36.158081399799997 ], [ -115.1739108, 36.158081399799997 ], [ -115.1739108, 36.158046299799999 ], [ -115.1739081, 36.158046299799999 ], [ -115.1739081, 36.158030099800001 ], [ -115.1739108, 36.158030099800001 ], [ -115.1739108, 36.158024699800002 ], [ -115.1739135, 36.158024699800002 ], [ -115.1739135, 36.158021999799999 ], [ -115.1739189, 36.158021999799999 ], [ -115.1739189, 36.158019299799996 ], [ -115.1739405, 36.158019299799996 ], [ -115.1739405, 36.158021999799999 ], [ -115.1739486, 36.158021999799999 ], [ -115.1739486, 36.158024699800002 ], [ -115.173954, 36.158024699800002 ], [ -115.173954, 36.158027399799998 ], [ -115.1739648, 36.158027399799998 ], [ -115.1739648, 36.158030099800001 ], [ -115.173981, 36.158030099800001 ], [ -115.173981, 36.158032799799997 ], [ -115.1739918, 36.158032799799997 ], [ -115.1739918, 36.1580354998 ], [ -115.1740053, 36.1580354998 ], [ -115.1740053, 36.158038199799996 ], [ -115.174016099999989, 36.158038199799996 ], [ -115.174016099999989, 36.1580408998 ], [ -115.174035, 36.1580408998 ], [ -115.174035, 36.158043599800003 ], [ -115.1740485, 36.158043599800003 ], [ -115.1740485, 36.158046299799999 ], [ -115.1740566, 36.158046299799999 ], [ -115.1740566, 36.158048999800002 ], [ -115.174062, 36.158048999800002 ], [ -115.174062, 36.158051699799998 ], [ -115.174064699999988, 36.158051699799998 ], [ -115.174064699999988, 36.158054399800001 ], [ -115.1740674, 36.158054399800001 ], [ -115.1740674, 36.1580597998 ], [ -115.1740728, 36.1580597998 ], [ -115.1740728, 36.158062499799996 ], [ -115.1741187, 36.158062499799996 ], [ -115.1741187, 36.158065199799999 ], [ -115.1741241, 36.158065199799999 ], [ -115.1741241, 36.158067899800002 ], [ -115.1741268, 36.158067899800002 ], [ -115.1741268, 36.158078699800001 ], [ -115.1741295, 36.158078699800001 ], [ -115.1741295, 36.1580840998 ], [ -115.174132199999988, 36.1580840998 ], [ -115.174132199999988, 36.158086799799996 ], [ -115.1741376, 36.158086799799996 ], [ -115.1741376, 36.158102999800001 ], [ -115.1740971, 36.158102999800001 ], [ -115.1740971, 36.158100299799997 ], [ -115.1740809, 36.158100299799997 ], [ -115.1740809, 36.158097599800001 ], [ -115.1740674, 36.158097599800001 ], [ -115.1740674, 36.158100299799997 ], [ -115.1740539, 36.158100299799997 ], [ -115.1740539, 36.158102999800001 ], [ -115.174035, 36.158102999800001 ], [ -115.174035, 36.158105699799997 ] ] ] } },
{ "type": "Feature", "properties": { "value": 255.0 }, "geometry": { "type": "Polygon", "coordinates": [ [ [ -115.1736813, 36.158121899800001 ], [ -115.1736705, 36.158121899800001 ], [ -115.1736705, 36.158119199799998 ], [ -115.1736651, 36.158119199799998 ], [ -115.1736651, 36.158116499800002 ], [ -115.1736624, 36.158116499800002 ], [ -115.1736624, 36.158111099800003 ], [ -115.1736597, 36.158111099800003 ], [ -115.1736597, 36.158092199800002 ], [ -115.173657, 36.158092199800002 ], [ -115.173657, 36.158086799799996 ], [ -115.1736543, 36.158086799799996 ], [ -115.1736543, 36.158081399799997 ], [ -115.1736516, 36.158081399799997 ], [ -115.1736516, 36.158078699800001 ], [ -115.1736489, 36.158078699800001 ], [ -115.1736489, 36.158073299800002 ], [ -115.1736516, 36.158073299800002 ], [ -115.1736516, 36.158065199799999 ], [ -115.1736489, 36.158065199799999 ], [ -115.1736489, 36.158057099799997 ], [ -115.1736462, 36.158057099799997 ], [ -115.1736462, 36.158054399800001 ], [ -115.1736381, 36.158054399800001 ], [ -115.1736381, 36.158057099799997 ], [ -115.1736327, 36.158057099799997 ], [ -115.1736327, 36.1580597998 ], [ -115.17363, 36.1580597998 ], [ -115.17363, 36.158062499799996 ], [ -115.1736273, 36.158062499799996 ], [ -115.1736273, 36.158070599799998 ], [ -115.17363, 36.158070599799998 ], [ -115.17363, 36.158073299800002 ], [ -115.1736273, 36.158073299800002 ], [ -115.1736273, 36.158075999799998 ], [ -115.1736165, 36.158075999799998 ], [ -115.1736165, 36.158073299800002 ], [ -115.1736138, 36.158073299800002 ], [ -115.1736138, 36.158057099799997 ], [ -115.1736111, 36.158057099799997 ], [ -115.1736111, 36.1580165998 ], [ -115.1736165, 36.1580165998 ], [ -115.1736165, 36.158013899799997 ], [ -115.1736381, 36.158013899799997 ], [ -115.1736381, 36.1580165998 ], [ -115.1736516, 36.1580165998 ], [ -115.1736516, 36.158013899799997 ], [ -115.173657, 36.158013899799997 ], [ -115.173657, 36.158011199800001 ], [ -115.1736597, 36.158011199800001 ], [ -115.1736597, 36.158008499799998 ], [ -115.1736678, 36.158008499799998 ], [ -115.1736678, 36.158005799800002 ], [ -115.1736894, 36.158005799800002 ], [ -115.1736894, 36.158003099799998 ], [ -115.1737083, 36.158003099799998 ], [ -115.1737083, 36.158000399800002 ], [ -115.1737164, 36.158000399800002 ], [ -115.1737164, 36.157997699799999 ], [ -115.1737245, 36.157997699799999 ], [ -115.1737245, 36.157994999799996 ], [ -115.1737326, 36.157994999799996 ], [ -115.1737326, 36.1579922998 ], [ -115.1737596, 36.1579922998 ], [ -115.1737596, 36.157989599799997 ], [ -115.1737623, 36.157989599799997 ], [ -115.1737623, 36.1579922998 ], [ -115.173765, 36.1579922998 ], [ -115.173765, 36.158000399800002 ], [ -115.1737704, 36.158000399800002 ], [ -115.1737704, 36.158003099799998 ], [ -115.1737812, 36.158003099799998 ], [ -115.1737812, 36.158005799800002 ], [ -115.1737866, 36.158005799800002 ], [ -115.1737866, 36.158008499799998 ], [ -115.1737947, 36.158008499799998 ], [ -115.1737947, 36.158011199800001 ], [ -115.1738001, 36.158011199800001 ], [ -115.1738001, 36.158013899799997 ], [ -115.1738055, 36.158013899799997 ], [ -115.1738055, 36.1580165998 ], [ -115.1738433, 36.1580165998 ], [ -115.1738433, 36.158019299799996 ], [ -115.1738487, 36.158019299799996 ], [ -115.1738487, 36.158021999799999 ], [ -115.1738568, 36.158021999799999 ], [ -115.1738568, 36.158024699800002 ], [ -115.1738622, 36.158024699800002 ], [ -115.1738622, 36.158027399799998 ], [ -115.1738649, 36.158027399799998 ], [ -115.1738649, 36.158032799799997 ], [ -115.1738676, 36.158032799799997 ], [ -115.1738676, 36.158097599800001 ], [ -115.1738649, 36.158097599800001 ], [ -115.1738649, 36.158102999800001 ], [ -115.1737542, 36.158102999800001 ], [ -115.1737542, 36.158105699799997 ], [ -115.1737245, 36.158105699799997 ], [ -115.1737245, 36.1581083998 ], [ -115.1737218, 36.1581083998 ], [ -115.1737218, 36.158111099800003 ], [ -115.1737191, 36.158111099800003 ], [ -115.1737191, 36.158113799799999 ], [ -115.1737137, 36.158113799799999 ], [ -115.1737137, 36.158116499800002 ], [ -115.1737002, 36.158116499800002 ], [ -115.1737002, 36.158119199799998 ], [ -115.1736813, 36.158119199799998 ], [ -115.1736813, 36.158121899800001 ] ] ] } },
{ "type": "Feature", "properties": { "value": 255.0 }, "geometry": { "type": "Polygon", "coordinates": [ [ [ -115.1735868, 36.158132699799999 ], [ -115.1735409, 36.158132699799999 ], [ -115.1735409, 36.158129999799996 ], [ -115.1735382, 36.158129999799996 ], [ -115.1735382, 36.1581272998 ], [ -115.1735355, 36.1581272998 ], [ -115.1735355, 36.158124599799997 ], [ -115.1735328, 36.158124599799997 ], [ -115.1735328, 36.158121899800001 ], [ -115.1735301, 36.158121899800001 ], [ -115.1735301, 36.158119199799998 ], [ -115.1735274, 36.158119199799998 ], [ -115.1735274, 36.158113799799999 ], [ -115.1735247, 36.158113799799999 ], [ -115.1735247, 36.1581083998 ], [ -115.173522, 36.1581083998 ], [ -115.173522, 36.158105699799997 ], [ -115.1735193, 36.158105699799997 ], [ -115.1735193, 36.158102999800001 ], [ -115.1734923, 36.158102999800001 ], [ -115.1734923, 36.158105699799997 ], [ -115.1734707, 36.158105699799997 ], [ -115.1734707, 36.1581083998 ], [ -115.1734653, 36.1581083998 ], [ -115.1734653, 36.158111099800003 ], [ -115.1734626, 36.158111099800003 ], [ -115.1734626, 36.158113799799999 ], [ -115.1734545, 36.158113799799999 ], [ -115.1734545, 36.158116499800002 ], [ -115.1734194, 36.158116499800002 ], [ -115.1734194, 36.158100299799997 ], [ -115.1734167, 36.158100299799997 ], [ -115.1734167, 36.158097599800001 ], [ -115.173414, 36.158097599800001 ], [ -115.173414, 36.158094899799998 ], [ -115.1734113, 36.158094899799998 ], [ -115.1734113, 36.158092199800002 ], [ -115.1734032, 36.158092199800002 ], [ -115.1734032, 36.158089499799999 ], [ -115.1733816, 36.158089499799999 ], [ -115.1733816, 36.158092199800002 ], [ -115.1733384, 36.158092199800002 ], [ -115.1733384, 36.158089499799999 ], [ -115.1733357, 36.158089499799999 ], [ -115.1733357, 36.158078699800001 ], [ -115.173333, 36.158078699800001 ], [ -115.173333, 36.158054399800001 ], [ -115.1733357, 36.158054399800001 ], [ -115.1733357, 36.158043599800003 ], [ -115.173333, 36.158043599800003 ], [ -115.173333, 36.158038199799996 ], [ -115.1733357, 36.158038199799996 ], [ -115.1733357, 36.158027399799998 ], [ -115.173333, 36.158027399799998 ], [ -115.173333, 36.158011199800001 ], [ -115.1733357, 36.158011199800001 ], [ -115.1733357, 36.158005799800002 ], [ -115.1733384, 36.158005799800002 ], [ -115.1733384, 36.158003099799998 ], [ -115.1733411, 36.158003099799998 ], [ -115.1733411, 36.157997699799999 ], [ -115.1733465, 36.157997699799999 ], [ -115.1733465, 36.157994999799996 ], [ -115.1733492, 36.157994999799996 ], [ -115.1733492, 36.1579922998 ], [ -115.1733627, 36.1579922998 ], [ -115.1733627, 36.157989599799997 ], [ -115.1733681, 36.157989599799997 ], [ -115.1733681, 36.1579922998 ], [ -115.1733978, 36.1579922998 ], [ -115.1733978, 36.157994999799996 ], [ -115.1734302, 36.157994999799996 ], [ -115.1734302, 36.157997699799999 ], [ -115.1734383, 36.157997699799999 ], [ -115.1734383, 36.158000399800002 ], [ -115.1734518, 36.158000399800002 ], [ -115.1734518, 36.158003099799998 ], [ -115.1734896, 36.158003099799998 ], [ -115.1734896, 36.158005799800002 ], [ -115.1734977, 36.158005799800002 ], [ -115.1734977, 36.158008499799998 ], [ -115.1735193, 36.158008499799998 ], [ -115.1735193, 36.158005799800002 ], [ -115.1735247, 36.158005799800002 ], [ -115.1735247, 36.158003099799998 ], [ -115.1735328, 36.158003099799998 ], [ -115.1735328, 36.158000399800002 ], [ -115.1735841, 36.158000399800002 ], [ -115.1735841, 36.158003099799998 ], [ -115.1735895, 36.158003099799998 ], [ -115.1735895, 36.158024699800002 ], [ -115.1735868, 36.158024699800002 ], [ -115.1735868, 36.158046299799999 ], [ -115.1735895, 36.158046299799999 ], [ -115.1735895, 36.158119199799998 ], [ -115.1735868, 36.158119199799998 ], [ -115.1735868, 36.1581272998 ], [ -115.1735841, 36.1581272998 ], [ -115.1735841, 36.158129999799996 ], [ -115.1735868, 36.158129999799996 ], [ -115.1735868, 36.158132699799999 ] ] ] } },
{ "type": "Feature", "properties": { "value": 255.0 }, "geometry": { "type": "Polygon", "coordinates": [ [ [ -115.1723907, 36.157922099799997 ], [ -115.1723826, 36.157922099799997 ], [ -115.1723826, 36.157625099800001 ], [ -115.172388, 36.157625099800001 ], [ -115.172388, 36.157622399799997 ], [ -115.1723907, 36.157622399799997 ], [ -115.1723907, 36.157619699800001 ], [ -115.1723961, 36.157619699800001 ], [ -115.1723961, 36.157616999799998 ], [ -115.1724042, 36.157616999799998 ], [ -115.1724042, 36.157619699800001 ], [ -115.1724204, 36.157619699800001 ], [ -115.1724204, 36.157616999799998 ], [ -115.1725014, 36.157616999799998 ], [ -115.1725014, 36.157619699800001 ], [ -115.1725068, 36.157619699800001 ], [ -115.1725068, 36.157622399799997 ], [ -115.1725122, 36.157622399799997 ], [ -115.1725122, 36.157625099800001 ], [ -115.1725176, 36.157625099800001 ], [ -115.1725176, 36.157627799799997 ], [ -115.1725257, 36.157627799799997 ], [ -115.1725257, 36.1576304998 ], [ -115.1725311, 36.1576304998 ], [ -115.1725311, 36.157633199799996 ], [ -115.1725365, 36.157633199799996 ], [ -115.1725365, 36.157635899799999 ], [ -115.1725392, 36.157635899799999 ], [ -115.1725392, 36.157638599800002 ], [ -115.1725419, 36.157638599800002 ], [ -115.1725419, 36.157641299799998 ], [ -115.1725446, 36.157641299799998 ], [ -115.1725446, 36.157643999800001 ], [ -115.1725473, 36.157643999800001 ], [ -115.1725473, 36.1576493998 ], [ -115.17255, 36.1576493998 ], [ -115.17255, 36.157660199799999 ], [ -115.1725473, 36.157660199799999 ], [ -115.1725473, 36.157676399799996 ], [ -115.17255, 36.157676399799996 ], [ -115.17255, 36.157681799799995 ], [ -115.172552700000011, 36.157681799799995 ], [ -115.172552700000011, 36.157684499799998 ], [ -115.1725554, 36.157684499799998 ], [ -115.1725554, 36.157687199800002 ], [ -115.1725581, 36.157687199800002 ], [ -115.1725581, 36.157689899799998 ], [ -115.1725608, 36.157689899799998 ], [ -115.1725608, 36.157692599800001 ], [ -115.17256350000001, 36.157692599800001 ], [ -115.17256350000001, 36.157700699799996 ], [ -115.1725662, 36.157700699799996 ], [ -115.1725662, 36.157711499800001 ], [ -115.17256350000001, 36.157711499800001 ], [ -115.17256350000001, 36.157757399799998 ], [ -115.1725662, 36.157757399799998 ], [ -115.1725662, 36.157760099800001 ], [ -115.172577, 36.157760099800001 ], [ -115.172577, 36.157824899799998 ], [ -115.1725743, 36.157824899799998 ], [ -115.1725743, 36.1579004998 ], [ -115.1725716, 36.1579004998 ], [ -115.1725716, 36.157911299799999 ], [ -115.1725662, 36.157911299799999 ], [ -115.1725662, 36.157913999800002 ], [ -115.1725581, 36.157913999800002 ], [ -115.1725581, 36.157916699799998 ], [ -115.1725554, 36.157916699799998 ], [ -115.1725554, 36.157913999800002 ], [ -115.172533800000011, 36.157913999800002 ], [ -115.172533800000011, 36.157911299799999 ], [ -115.1725257, 36.157911299799999 ], [ -115.1725257, 36.157908599800002 ], [ -115.1725068, 36.157908599800002 ], [ -115.1725068, 36.157911299799999 ], [ -115.1724798, 36.157911299799999 ], [ -115.1724798, 36.157908599800002 ], [ -115.1724771, 36.157908599800002 ], [ -115.1724771, 36.157905899799999 ], [ -115.1724744, 36.157905899799999 ], [ -115.1724744, 36.1579004998 ], [ -115.1724717, 36.1579004998 ], [ -115.1724717, 36.157897799799997 ], [ -115.172469, 36.157897799799997 ], [ -115.172469, 36.157895099800001 ], [ -115.1724582, 36.157895099800001 ], [ -115.1724582, 36.1579004998 ], [ -115.172455500000012, 36.1579004998 ], [ -115.172455500000012, 36.157905899799999 ], [ -115.1724528, 36.157905899799999 ], [ -115.1724528, 36.157908599800002 ], [ -115.1724447, 36.157908599800002 ], [ -115.1724447, 36.157911299799999 ], [ -115.1724231, 36.157911299799999 ], [ -115.1724231, 36.157913999800002 ], [ -115.172406900000013, 36.157913999800002 ], [ -115.172406900000013, 36.157916699799998 ], [ -115.172398800000011, 36.157916699799998 ], [ -115.172398800000011, 36.157919399800001 ], [ -115.1723907, 36.157919399800001 ], [ -115.1723907, 36.157922099799997 ] ] ] } },
{ "type": "Feature", "properties": { "value": 255.0 }, "geometry": { "type": "Polygon", "coordinates": [ [ [ -115.1737407, 36.157700699799996 ], [ -115.1737218, 36.157700699799996 ], [ -115.1737218, 36.1576979998 ], [ -115.1737137, 36.1576979998 ], [ -115.1737137, 36.157695299799997 ], [ -115.1736408, 36.157695299799997 ], [ -115.1736408, 36.157692599800001 ], [ -115.1735625, 36.157692599800001 ], [ -115.1735625, 36.157689899799998 ], [ -115.1735571, 36.157689899799998 ], [ -115.1735571, 36.157687199800002 ], [ -115.1735409, 36.157687199800002 ], [ -115.1735409, 36.157684499799998 ], [ -115.1735112, 36.157684499799998 ], [ -115.1735112, 36.157681799799995 ], [ -115.1735085, 36.157681799799995 ], [ -115.1735085, 36.157679099799999 ], [ -115.1735058, 36.157679099799999 ], [ -115.1735058, 36.1576493998 ], [ -115.1735085, 36.1576493998 ], [ -115.1735085, 36.157646699799997 ], [ -115.1735112, 36.157646699799997 ], [ -115.1735112, 36.157643999800001 ], [ -115.1735139, 36.157643999800001 ], [ -115.1735139, 36.157641299799998 ], [ -115.1735166, 36.157641299799998 ], [ -115.1735166, 36.157638599800002 ], [ -115.1735193, 36.157638599800002 ], [ -115.1735193, 36.157635899799999 ], [ -115.1735274, 36.157635899799999 ], [ -115.1735274, 36.157633199799996 ], [ -115.1735328, 36.157633199799996 ], [ -115.1735328, 36.1576304998 ], [ -115.1735382, 36.1576304998 ], [ -115.1735382, 36.157627799799997 ], [ -115.1735436, 36.157627799799997 ], [ -115.1735436, 36.157625099800001 ], [ -115.173549, 36.157625099800001 ], [ -115.173549, 36.157622399799997 ], [ -115.1735517, 36.157622399799997 ], [ -115.1735517, 36.157614299799995 ], [ -115.1735544, 36.157614299799995 ], [ -115.1735544, 36.1576061998 ], [ -115.1735571, 36.1576061998 ], [ -115.1735571, 36.157600799800001 ], [ -115.1735625, 36.157600799800001 ], [ -115.1735625, 36.157598099799998 ], [ -115.1735652, 36.157598099799998 ], [ -115.1735652, 36.157595399800002 ], [ -115.1735706, 36.157595399800002 ], [ -115.1735706, 36.157592699799999 ], [ -115.1735976, 36.157592699799999 ], [ -115.1735976, 36.157595399800002 ], [ -115.1736381, 36.157595399800002 ], [ -115.1736381, 36.157592699799999 ], [ -115.1736516, 36.157592699799999 ], [ -115.1736516, 36.157589999799995 ], [ -115.1736543, 36.157589999799995 ], [ -115.1736543, 36.157587299799999 ], [ -115.173657, 36.157587299799999 ], [ -115.173657, 36.1575818998 ], [ -115.1736597, 36.1575818998 ], [ -115.1736597, 36.157573799799998 ], [ -115.1736624, 36.157573799799998 ], [ -115.1736624, 36.157568399799999 ], [ -115.1736651, 36.157568399799999 ], [ -115.1736651, 36.157565699799996 ], [ -115.1736678, 36.157565699799996 ], [ -115.1736678, 36.1575629998 ], [ -115.1736705, 36.1575629998 ], [ -115.1736705, 36.157560299799997 ], [ -115.1736759, 36.157560299799997 ], [ -115.1736759, 36.157557599800001 ], [ -115.1737191, 36.157557599800001 ], [ -115.1737191, 36.157560299799997 ], [ -115.1737542, 36.157560299799997 ], [ -115.1737542, 36.157557599800001 ], [ -115.173765, 36.157557599800001 ], [ -115.173765, 36.157549499799998 ], [ -115.1737785, 36.157549499799998 ], [ -115.1737785, 36.157546799799995 ], [ -115.1737812, 36.157546799799995 ], [ -115.1737812, 36.157549499799998 ], [ -115.1737974, 36.157549499799998 ], [ -115.1737974, 36.157552199800001 ], [ -115.1738136, 36.157552199800001 ], [ -115.1738136, 36.157554899799997 ], [ -115.1738568, 36.157554899799997 ], [ -115.1738568, 36.157557599800001 ], [ -115.1738649, 36.157557599800001 ], [ -115.1738649, 36.157554899799997 ], [ -115.1738811, 36.157554899799997 ], [ -115.1738811, 36.157552199800001 ], [ -115.1739189, 36.157552199800001 ], [ -115.1739189, 36.157554899799997 ], [ -115.1739243, 36.157554899799997 ], [ -115.1739243, 36.157557599800001 ], [ -115.173927, 36.157557599800001 ], [ -115.173927, 36.157560299799997 ], [ -115.1739297, 36.157560299799997 ], [ -115.1739297, 36.1576304998 ], [ -115.173927, 36.1576304998 ], [ -115.173927, 36.157633199799996 ], [ -115.1739162, 36.157633199799996 ], [ -115.1739162, 36.157635899799999 ], [ -115.1739081, 36.157635899799999 ], [ -115.1739081, 36.157638599800002 ], [ -115.1739027, 36.157638599800002 ], [ -115.1739027, 36.157641299799998 ], [ -115.1739, 36.157641299799998 ], [ -115.1739, 36.157643999800001 ], [ -115.1738973, 36.157643999800001 ], [ -115.1738973, 36.157646699799997 ], [ -115.1738946, 36.157646699799997 ], [ -115.1738946, 36.1576493998 ], [ -115.1738892, 36.1576493998 ], [ -115.1738892, 36.157652099799996 ], [ -115.1738865, 36.157652099799996 ], [ -115.1738865, 36.157660199799999 ], [ -115.1738838, 36.157660199799999 ], [ -115.1738838, 36.157668299800001 ], [ -115.1738811, 36.157668299800001 ], [ -115.1738811, 36.1576736998 ], [ -115.1738784, 36.1576736998 ], [ -115.1738784, 36.157679099799999 ], [ -115.1738757, 36.157679099799999 ], [ -115.1738757, 36.157684499799998 ], [ -115.173873, 36.157684499799998 ], [ -115.173873, 36.157687199800002 ], [ -115.1738703, 36.157687199800002 ], [ -115.1738703, 36.157689899799998 ], [ -115.1738622, 36.157689899799998 ], [ -115.1738622, 36.157692599800001 ], [ -115.1738595, 36.157692599800001 ], [ -115.1738595, 36.157689899799998 ], [ -115.173846, 36.157689899799998 ], [ -115.173846, 36.157687199800002 ], [ -115.1738406, 36.157687199800002 ], [ -115.1738406, 36.157684499799998 ], [ -115.1738379, 36.157684499799998 ], [ -115.1738379, 36.157681799799995 ], [ -115.1738352, 36.157681799799995 ], [ -115.1738352, 36.157679099799999 ], [ -115.1738325, 36.157679099799999 ], [ -115.1738325, 36.157676399799996 ], [ -115.1738298, 36.157676399799996 ], [ -115.1738298, 36.1576736998 ], [ -115.1738244, 36.1576736998 ], [ -115.1738244, 36.157670999799997 ], [ -115.1738217, 36.157670999799997 ], [ -115.1738217, 36.157668299800001 ], [ -115.1738163, 36.157668299800001 ], [ -115.1738163, 36.157665599799998 ], [ -115.1738136, 36.157665599799998 ], [ -115.1738136, 36.157660199799999 ], [ -115.1738109, 36.157660199799999 ], [ -115.1738109, 36.1576547998 ], [ -115.1738082, 36.1576547998 ], [ -115.1738082, 36.157652099799996 ], [ -115.1738055, 36.157652099799996 ], [ -115.1738055, 36.1576493998 ], [ -115.1738001, 36.1576493998 ], [ -115.1738001, 36.157646699799997 ], [ -115.1737758, 36.157646699799997 ], [ -115.1737758, 36.1576493998 ], [ -115.1737677, 36.1576493998 ], [ -115.1737677, 36.157652099799996 ], [ -115.173765, 36.157652099799996 ], [ -115.173765, 36.1576736998 ], [ -115.1737677, 36.1576736998 ], [ -115.1737677, 36.157676399799996 ], [ -115.1737704, 36.157676399799996 ], [ -115.1737704, 36.157687199800002 ], [ -115.173765, 36.157687199800002 ], [ -115.173765, 36.157695299799997 ], [ -115.1737488, 36.157695299799997 ], [ -115.1737488, 36.1576979998 ], [ -115.1737407, 36.1576979998 ], [ -115.1737407, 36.157700699799996 ] ] ] } },
{ "type": "Feature", "properties": { "value": 255.0 }, "geometry": { "type": "Polygon", "coordinates": [ [ [ -115.1733573, 36.1577168998 ], [ -115.1733384, 36.1577168998 ], [ -115.1733384, 36.157714199799997 ], [ -115.1732358, 36.157714199799997 ], [ -115.1732358, 36.1577168998 ], [ -115.1732061, 36.1577168998 ], [ -115.1732061, 36.157714199799997 ], [ -115.173171, 36.157714199799997 ], [ -115.173171, 36.157711499800001 ], [ -115.1731656, 36.157711499800001 ], [ -115.1731656, 36.157708799799998 ], [ -115.1731602, 36.157708799799998 ], [ -115.1731602, 36.157706099800002 ], [ -115.1731575, 36.157706099800002 ], [ -115.1731575, 36.157700699799996 ], [ -115.1731548, 36.157700699799996 ], [ -115.1731548, 36.157684499799998 ], [ -115.1731521, 36.157684499799998 ], [ -115.1731521, 36.157670999799997 ], [ -115.1731494, 36.157670999799997 ], [ -115.1731494, 36.157646699799997 ], [ -115.1731467, 36.157646699799997 ], [ -115.1731467, 36.157614299799995 ], [ -115.173144, 36.157614299799995 ], [ -115.173144, 36.157603499799997 ], [ -115.1731413, 36.157603499799997 ], [ -115.1731413, 36.157595399800002 ], [ -115.1731386, 36.157595399800002 ], [ -115.1731386, 36.157584599799996 ], [ -115.1731413, 36.157584599799996 ], [ -115.1731413, 36.157579199799997 ], [ -115.1731386, 36.157579199799997 ], [ -115.1731386, 36.1575629998 ], [ -115.1731413, 36.1575629998 ], [ -115.1731413, 36.157554899799997 ], [ -115.173144, 36.157554899799997 ], [ -115.173144, 36.157549499799998 ], [ -115.1731467, 36.157549499799998 ], [ -115.1731467, 36.157546799799995 ], [ -115.1731494, 36.157546799799995 ], [ -115.1731494, 36.157541399799996 ], [ -115.1731521, 36.157541399799996 ], [ -115.1731521, 36.1575386998 ], [ -115.1731548, 36.1575386998 ], [ -115.1731548, 36.157535999799997 ], [ -115.1731629, 36.157535999799997 ], [ -115.1731629, 36.157533299800001 ], [ -115.1731683, 36.157533299800001 ], [ -115.1731683, 36.157530599799998 ], [ -115.1731737, 36.157530599799998 ], [ -115.1731737, 36.157527899800002 ], [ -115.1731818, 36.157527899800002 ], [ -115.1731818, 36.157525199799998 ], [ -115.1731845, 36.157525199799998 ], [ -115.1731845, 36.157519799799999 ], [ -115.1731872, 36.157519799799999 ], [ -115.1731872, 36.157511699799997 ], [ -115.1731899, 36.157511699799997 ], [ -115.1731899, 36.157503599800002 ], [ -115.1731926, 36.157503599800002 ], [ -115.1731926, 36.157500899799999 ], [ -115.1731953, 36.157500899799999 ], [ -115.1731953, 36.157498199799996 ], [ -115.1732061, 36.157498199799996 ], [ -115.1732061, 36.1574954998 ], [ -115.1732142, 36.1574954998 ], [ -115.1732142, 36.157492799799996 ], [ -115.173225, 36.157492799799996 ], [ -115.173225, 36.1574900998 ], [ -115.1732493, 36.1574900998 ], [ -115.1732493, 36.157492799799996 ], [ -115.173252, 36.157492799799996 ], [ -115.173252, 36.157579199799997 ], [ -115.1732493, 36.157579199799997 ], [ -115.1732493, 36.157587299799999 ], [ -115.1732466, 36.157587299799999 ], [ -115.1732466, 36.157592699799999 ], [ -115.1732493, 36.157592699799999 ], [ -115.1732493, 36.157598099799998 ], [ -115.173252, 36.157598099799998 ], [ -115.173252, 36.157600799800001 ], [ -115.1732574, 36.157600799800001 ], [ -115.1732574, 36.157603499799997 ], [ -115.1732655, 36.157603499799997 ], [ -115.1732655, 36.1576061998 ], [ -115.173279, 36.1576061998 ], [ -115.173279, 36.157603499799997 ], [ -115.173333, 36.157603499799997 ], [ -115.173333, 36.1576061998 ], [ -115.1733519, 36.1576061998 ], [ -115.1733519, 36.157608899799996 ], [ -115.1733573, 36.157608899799996 ], [ -115.1733573, 36.157611599799999 ], [ -115.17336, 36.157611599799999 ], [ -115.17336, 36.157616999799998 ], [ -115.1733627, 36.157616999799998 ], [ -115.1733627, 36.157708799799998 ], [ -115.17336, 36.157708799799998 ], [ -115.17336, 36.157714199799997 ], [ -115.1733573, 36.157714199799997 ], [ -115.1733573, 36.1577168998 ] ] ] } },
{ "type": "Feature", "properties": { "value": 255.0 }, "geometry": { "type": "Polygon", "coordinates": [ [ [ -115.1737704, 36.157525199799998 ], [ -115.173765, 36.157525199799998 ], [ -115.173765, 36.157522499799995 ], [ -115.173711, 36.157522499799995 ], [ -115.173711, 36.157519799799999 ], [ -115.1736246, 36.157519799799999 ], [ -115.1736246, 36.157522499799995 ], [ -115.1735976, 36.157522499799995 ], [ -115.1735976, 36.157519799799999 ], [ -115.1735922, 36.157519799799999 ], [ -115.1735922, 36.1575143998 ], [ -115.1735895, 36.1575143998 ], [ -115.1735895, 36.157511699799997 ], [ -115.1735868, 36.157511699799997 ], [ -115.1735868, 36.157508999800001 ], [ -115.1735841, 36.157508999800001 ], [ -115.1735841, 36.157506299799998 ], [ -115.1735814, 36.157506299799998 ], [ -115.1735814, 36.157503599800002 ], [ -115.1735787, 36.157503599800002 ], [ -115.1735787, 36.1574711998 ], [ -115.1735814, 36.1574711998 ], [ -115.1735814, 36.157468499799997 ], [ -115.1735841, 36.157468499799997 ], [ -115.1735841, 36.157465799800001 ], [ -115.1735895, 36.157465799800001 ], [ -115.1735895, 36.157463099799998 ], [ -115.1735949, 36.157463099799998 ], [ -115.1735949, 36.157460399800001 ], [ -115.1735976, 36.157460399800001 ], [ -115.1735976, 36.157457699799998 ], [ -115.173603, 36.157457699799998 ], [ -115.173603, 36.157454999799995 ], [ -115.1736084, 36.157454999799995 ], [ -115.1736084, 36.157452299799999 ], [ -115.17363, 36.157452299799999 ], [ -115.17363, 36.157449599799996 ], [ -115.1736327, 36.157449599799996 ], [ -115.1736327, 36.1574468998 ], [ -115.1736354, 36.1574468998 ], [ -115.1736354, 36.157441499800001 ], [ -115.1736381, 36.157441499800001 ], [ -115.1736381, 36.157376699799997 ], [ -115.1736354, 36.157376699799997 ], [ -115.1736354, 36.157365899799998 ], [ -115.1736381, 36.157365899799998 ], [ -115.1736381, 36.1573550998 ], [ -115.1736408, 36.1573550998 ], [ -115.1736408, 36.157352399799997 ], [ -115.1736462, 36.157352399799997 ], [ -115.1736462, 36.157349699800001 ], [ -115.1736732, 36.157349699800001 ], [ -115.1736732, 36.157346999799998 ], [ -115.1736759, 36.157346999799998 ], [ -115.1736759, 36.157344299799995 ], [ -115.173684, 36.157344299799995 ], [ -115.173684, 36.157341599799999 ], [ -115.1737056, 36.157341599799999 ], [ -115.1737056, 36.157338899799996 ], [ -115.1737299, 36.157338899799996 ], [ -115.1737299, 36.157341599799999 ], [ -115.1737434, 36.157341599799999 ], [ -115.1737434, 36.157344299799995 ], [ -115.1737623, 36.157344299799995 ], [ -115.1737623, 36.157346999799998 ], [ -115.173765, 36.157346999799998 ], [ -115.173765, 36.1573793998 ], [ -115.1737677, 36.1573793998 ], [ -115.1737677, 36.157382099799996 ], [ -115.1737704, 36.157382099799996 ], [ -115.1737704, 36.157384799799999 ], [ -115.1737758, 36.157384799799999 ], [ -115.1737758, 36.157387499799995 ], [ -115.1737785, 36.157387499799995 ], [ -115.1737785, 36.157390199799998 ], [ -115.1737812, 36.157390199799998 ], [ -115.1737812, 36.157395599799997 ], [ -115.1737839, 36.157395599799997 ], [ -115.1737839, 36.157406399799996 ], [ -115.1737866, 36.157406399799996 ], [ -115.1737866, 36.157411799799995 ], [ -115.1737893, 36.157411799799995 ], [ -115.1737893, 36.157417199800001 ], [ -115.173792, 36.157417199800001 ], [ -115.173792, 36.157419899799997 ], [ -115.1737947, 36.157419899799997 ], [ -115.1737947, 36.157427999799999 ], [ -115.1737974, 36.157427999799999 ], [ -115.1737974, 36.157436099800002 ], [ -115.1737947, 36.157436099800002 ], [ -115.1737947, 36.157457699799998 ], [ -115.1737974, 36.157457699799998 ], [ -115.1737974, 36.157463099799998 ], [ -115.1737947, 36.157463099799998 ], [ -115.1737947, 36.157468499799997 ], [ -115.173792, 36.157468499799997 ], [ -115.173792, 36.157473899799996 ], [ -115.1737893, 36.157473899799996 ], [ -115.1737893, 36.157479299799995 ], [ -115.1737866, 36.157479299799995 ], [ -115.1737866, 36.1575143998 ], [ -115.1737839, 36.1575143998 ], [ -115.1737839, 36.157519799799999 ], [ -115.1737812, 36.157519799799999 ], [ -115.1737812, 36.157522499799995 ], [ -115.1737704, 36.157522499799995 ], [ -115.1737704, 36.157525199799998 ] ] ] } },
{ "type": "Feature", "properties": { "value": 255.0 }, "geometry": { "type": "Polygon", "coordinates": [ [ [ -115.17256350000001, 36.157552199800001 ], [ -115.1725554, 36.157552199800001 ], [ -115.1725554, 36.157549499799998 ], [ -115.172533800000011, 36.157549499799998 ], [ -115.172533800000011, 36.157546799799995 ], [ -115.17251490000001, 36.157546799799995 ], [ -115.17251490000001, 36.157544099799999 ], [ -115.172496, 36.157544099799999 ], [ -115.172496, 36.157541399799996 ], [ -115.172485200000011, 36.157541399799996 ], [ -115.172485200000011, 36.157544099799999 ], [ -115.1724744, 36.157544099799999 ], [ -115.1724744, 36.157541399799996 ], [ -115.172455500000012, 36.157541399799996 ], [ -115.172455500000012, 36.1575386998 ], [ -115.17244740000001, 36.1575386998 ], [ -115.17244740000001, 36.157541399799996 ], [ -115.172398800000011, 36.157541399799996 ], [ -115.172398800000011, 36.1575386998 ], [ -115.1723907, 36.1575386998 ], [ -115.1723907, 36.157535999799997 ], [ -115.1723826, 36.157535999799997 ], [ -115.1723826, 36.157444199799997 ], [ -115.1723853, 36.157444199799997 ], [ -115.1723853, 36.1574468998 ], [ -115.1723907, 36.1574468998 ], [ -115.1723907, 36.157444199799997 ], [ -115.1723934, 36.157444199799997 ], [ -115.1723934, 36.157441499800001 ], [ -115.1723961, 36.157441499800001 ], [ -115.1723961, 36.157438799799998 ], [ -115.1724015, 36.157438799799998 ], [ -115.1724015, 36.157436099800002 ], [ -115.1724042, 36.157436099800002 ], [ -115.1724042, 36.157433399799999 ], [ -115.172406900000013, 36.157433399799999 ], [ -115.172406900000013, 36.157430699799995 ], [ -115.1724096, 36.157430699799995 ], [ -115.1724096, 36.157427999799999 ], [ -115.1724123, 36.157427999799999 ], [ -115.1724123, 36.157419899799997 ], [ -115.172415, 36.157419899799997 ], [ -115.172415, 36.157417199800001 ], [ -115.172417700000011, 36.157417199800001 ], [ -115.172417700000011, 36.157414499799998 ], [ -115.1724231, 36.157414499799998 ], [ -115.1724231, 36.157409099799999 ], [ -115.1723853, 36.157409099799999 ], [ -115.1723853, 36.157411799799995 ], [ -115.1723826, 36.157411799799995 ], [ -115.1723826, 36.157255199799998 ], [ -115.172388, 36.157255199799998 ], [ -115.172388, 36.157252499799995 ], [ -115.1724096, 36.157252499799995 ], [ -115.1724096, 36.157255199799998 ], [ -115.1724231, 36.157255199799998 ], [ -115.1724231, 36.157257899800001 ], [ -115.172442, 36.157257899800001 ], [ -115.172442, 36.157260599799997 ], [ -115.172466300000011, 36.157260599799997 ], [ -115.172466300000011, 36.1572632998 ], [ -115.1724987, 36.1572632998 ], [ -115.1724987, 36.157260599799997 ], [ -115.1725284, 36.157260599799997 ], [ -115.1725284, 36.157257899800001 ], [ -115.1725365, 36.157257899800001 ], [ -115.1725365, 36.157255199799998 ], [ -115.1725419, 36.157255199799998 ], [ -115.1725419, 36.157252499799995 ], [ -115.1725446, 36.157252499799995 ], [ -115.1725446, 36.157249799799999 ], [ -115.17255, 36.157249799799999 ], [ -115.17255, 36.157247099799996 ], [ -115.1725581, 36.157247099799996 ], [ -115.1725581, 36.1572443998 ], [ -115.1725608, 36.1572443998 ], [ -115.1725608, 36.157247099799996 ], [ -115.1725662, 36.157247099799996 ], [ -115.1725662, 36.157249799799999 ], [ -115.1725689, 36.157249799799999 ], [ -115.1725689, 36.157252499799995 ], [ -115.1725716, 36.157252499799995 ], [ -115.1725716, 36.157260599799997 ], [ -115.1725743, 36.157260599799997 ], [ -115.1725743, 36.157274099799999 ], [ -115.172577, 36.157274099799999 ], [ -115.172577, 36.157314599799996 ], [ -115.1725797, 36.157314599799996 ], [ -115.1725797, 36.157390199799998 ], [ -115.172577, 36.157390199799998 ], [ -115.172577, 36.157395599799997 ], [ -115.1725743, 36.157395599799997 ], [ -115.1725743, 36.157398299800001 ], [ -115.1725554, 36.157398299800001 ], [ -115.1725554, 36.157400999799997 ], [ -115.1725284, 36.157400999799997 ], [ -115.1725284, 36.1574036998 ], [ -115.1725203, 36.1574036998 ], [ -115.1725203, 36.157409099799999 ], [ -115.172523, 36.157409099799999 ], [ -115.172523, 36.157411799799995 ], [ -115.1725311, 36.157411799799995 ], [ -115.1725311, 36.157414499799998 ], [ -115.17255, 36.157414499799998 ], [ -115.17255, 36.157417199800001 ], [ -115.17256350000001, 36.157417199800001 ], [ -115.17256350000001, 36.157419899799997 ], [ -115.1725689, 36.157419899799997 ], [ -115.1725689, 36.157425299799996 ], [ -115.1725716, 36.157425299799996 ], [ -115.1725716, 36.157544099799999 ], [ -115.1725689, 36.157544099799999 ], [ -115.1725689, 36.157546799799995 ], [ -115.1725662, 36.157546799799995 ], [ -115.1725662, 36.157549499799998 ], [ -115.17256350000001, 36.157549499799998 ], [ -115.17256350000001, 36.157552199800001 ] ] ] } },
{ "type": "Feature", "properties": { "value": 255.0 }, "geometry": { "type": "Polygon", "coordinates": [ [ [ -115.1736867, 36.157309199799997 ], [ -115.173657, 36.157309199799997 ], [ -115.173657, 36.157306499800001 ], [ -115.1736408, 36.157306499800001 ], [ -115.1736408, 36.157303799799998 ], [ -115.1736381, 36.157303799799998 ], [ -115.1736381, 36.157260599799997 ], [ -115.1736435, 36.157260599799997 ], [ -115.1736435, 36.157257899800001 ], [ -115.173684, 36.157257899800001 ], [ -115.173684, 36.157255199799998 ], [ -115.1736867, 36.157255199799998 ], [ -115.1736867, 36.157252499799995 ], [ -115.1736894, 36.157252499799995 ], [ -115.1736894, 36.157247099799996 ], [ -115.1736921, 36.157247099799996 ], [ -115.1736921, 36.157241699799997 ], [ -115.1736948, 36.157241699799997 ], [ -115.1736948, 36.157230899799998 ], [ -115.1736921, 36.157230899799998 ], [ -115.1736921, 36.157222799799996 ], [ -115.1736894, 36.157222799799996 ], [ -115.1736894, 36.157217399799997 ], [ -115.1736867, 36.157217399799997 ], [ -115.1736867, 36.1571768998 ], [ -115.173684, 36.1571768998 ], [ -115.173684, 36.157149899799997 ], [ -115.1736867, 36.157149899799997 ], [ -115.1736867, 36.157139099799998 ], [ -115.1736894, 36.157139099799998 ], [ -115.1736894, 36.157136399799995 ], [ -115.1736921, 36.157136399799995 ], [ -115.1736921, 36.157133699799999 ], [ -115.1737083, 36.157133699799999 ], [ -115.1737083, 36.157130999799996 ], [ -115.1737164, 36.157130999799996 ], [ -115.1737164, 36.1571282998 ], [ -115.1738028, 36.1571282998 ], [ -115.1738028, 36.157130999799996 ], [ -115.1738082, 36.157130999799996 ], [ -115.1738082, 36.157133699799999 ], [ -115.1738109, 36.157133699799999 ], [ -115.1738109, 36.157136399799995 ], [ -115.1738136, 36.157136399799995 ], [ -115.1738136, 36.157144499799998 ], [ -115.1738163, 36.157144499799998 ], [ -115.1738163, 36.157149899799997 ], [ -115.173819, 36.157149899799997 ], [ -115.173819, 36.157157999799999 ], [ -115.1738217, 36.157157999799999 ], [ -115.1738217, 36.157168799799997 ], [ -115.1738244, 36.157168799799997 ], [ -115.1738244, 36.157174199799996 ], [ -115.1738271, 36.157174199799996 ], [ -115.1738271, 36.1571768998 ], [ -115.1738298, 36.1571768998 ], [ -115.1738298, 36.157179599799996 ], [ -115.1738325, 36.157179599799996 ], [ -115.1738325, 36.157184999799995 ], [ -115.1738352, 36.157184999799995 ], [ -115.1738352, 36.157190399800001 ], [ -115.1738325, 36.157190399800001 ], [ -115.1738325, 36.157214699800001 ], [ -115.1738352, 36.157214699800001 ], [ -115.1738352, 36.157222799799996 ], [ -115.1738379, 36.157222799799996 ], [ -115.1738379, 36.157225499799999 ], [ -115.1738406, 36.157225499799999 ], [ -115.1738406, 36.157230899799998 ], [ -115.1738433, 36.157230899799998 ], [ -115.1738433, 36.157238999800001 ], [ -115.173846, 36.157238999800001 ], [ -115.173846, 36.157247099799996 ], [ -115.1738487, 36.157247099799996 ], [ -115.1738487, 36.157249799799999 ], [ -115.1738514, 36.157249799799999 ], [ -115.1738514, 36.157255199799998 ], [ -115.1738541, 36.157255199799998 ], [ -115.1738541, 36.157260599799997 ], [ -115.1738568, 36.157260599799997 ], [ -115.1738568, 36.157265999799996 ], [ -115.1738595, 36.157265999799996 ], [ -115.1738595, 36.157292999799999 ], [ -115.1738568, 36.157292999799999 ], [ -115.1738568, 36.157298399799998 ], [ -115.1738541, 36.157298399799998 ], [ -115.1738541, 36.157301099800002 ], [ -115.1738514, 36.157301099800002 ], [ -115.1738514, 36.157303799799998 ], [ -115.173846, 36.157303799799998 ], [ -115.173846, 36.157306499800001 ], [ -115.1737353, 36.157306499800001 ], [ -115.1737353, 36.157303799799998 ], [ -115.1737218, 36.157303799799998 ], [ -115.1737218, 36.157301099800002 ], [ -115.1737083, 36.157301099800002 ], [ -115.1737083, 36.157298399799998 ], [ -115.1737029, 36.157298399799998 ], [ -115.1737029, 36.157301099800002 ], [ -115.1736975, 36.157301099800002 ], [ -115.1736975, 36.157303799799998 ], [ -115.1736921, 36.157303799799998 ], [ -115.1736921, 36.157306499800001 ], [ -115.1736867, 36.157306499800001 ], [ -115.1736867, 36.157309199799997 ] ] ] } },
{ "type": "Feature", "properties": { "value": 255.0 }, "geometry": { "type": "Polygon", "coordinates": [ [ [ -115.1724933, 36.157144499799998 ], [ -115.1724744, 36.157144499799998 ], [ -115.1724744, 36.157141799799994 ], [ -115.1723934, 36.157141799799994 ], [ -115.1723934, 36.157136399799995 ], [ -115.1723907, 36.157136399799995 ], [ -115.1723907, 36.157125599799997 ], [ -115.172388, 36.157125599799997 ], [ -115.172388, 36.157112099799996 ], [ -115.1723907, 36.157112099799996 ], [ -115.1723907, 36.157106699799996 ], [ -115.1723934, 36.157106699799996 ], [ -115.1723934, 36.157101299799997 ], [ -115.1723961, 36.157101299799997 ], [ -115.1723961, 36.157098599800001 ], [ -115.1724015, 36.157098599800001 ], [ -115.1724015, 36.157095899799998 ], [ -115.1724393, 36.157095899799998 ], [ -115.1724393, 36.157093199799995 ], [ -115.1724447, 36.157093199799995 ], [ -115.1724447, 36.157095899799998 ], [ -115.1725203, 36.157095899799998 ], [ -115.1725203, 36.157098599800001 ], [ -115.1725662, 36.157098599800001 ], [ -115.1725662, 36.157101299799997 ], [ -115.1725743, 36.157101299799997 ], [ -115.1725743, 36.1571039998 ], [ -115.172577, 36.1571039998 ], [ -115.172577, 36.157109399799999 ], [ -115.1725797, 36.157109399799999 ], [ -115.1725797, 36.1571282998 ], [ -115.172577, 36.1571282998 ], [ -115.172577, 36.157139099799998 ], [ -115.1725716, 36.157139099799998 ], [ -115.1725716, 36.157141799799994 ], [ -115.17256350000001, 36.157141799799994 ], [ -115.17256350000001, 36.157139099799998 ], [ -115.1725446, 36.157139099799998 ], [ -115.1725446, 36.157141799799994 ], [ -115.1724933, 36.157141799799994 ], [ -115.1724933, 36.157144499799998 ] ] ] } },
{ "type": "Feature", "properties": { "value": 255.0 }, "geometry": { "type": "Polygon", "coordinates": [ [ [ -115.172398800000011, 36.157001399799995 ], [ -115.1723826, 36.157001399799995 ], [ -115.1723826, 36.156909599799995 ], [ -115.1723934, 36.156909599799995 ], [ -115.1723934, 36.156912299799998 ], [ -115.1723961, 36.156912299799998 ], [ -115.1723961, 36.156914999799994 ], [ -115.172398800000011, 36.156914999799994 ], [ -115.172398800000011, 36.156920399800001 ], [ -115.1724015, 36.156920399800001 ], [ -115.1724015, 36.156931199799999 ], [ -115.1724042, 36.156931199799999 ], [ -115.1724042, 36.1569932998 ], [ -115.1724015, 36.1569932998 ], [ -115.1724015, 36.156998699799999 ], [ -115.172398800000011, 36.156998699799999 ], [ -115.172398800000011, 36.157001399799995 ] ] ] } },
{ "type": "Feature", "properties": { "value": 255.0 }, "geometry": { "type": "Polygon", "coordinates": [ [ [ -115.1736894, 36.157082399799997 ], [ -115.1736867, 36.157082399799997 ], [ -115.1736867, 36.157079699800001 ], [ -115.1736813, 36.157079699800001 ], [ -115.1736813, 36.157076999799997 ], [ -115.1736678, 36.157076999799997 ], [ -115.1736678, 36.157074299799994 ], [ -115.1736651, 36.157074299799994 ], [ -115.1736651, 36.1570607998 ], [ -115.1736678, 36.1570607998 ], [ -115.1736678, 36.157058099799997 ], [ -115.1736705, 36.157058099799997 ], [ -115.1736705, 36.157055399800001 ], [ -115.1736732, 36.157055399800001 ], [ -115.1736732, 36.157052699799998 ], [ -115.1736759, 36.157052699799998 ], [ -115.1736759, 36.157049999799995 ], [ -115.1736786, 36.157049999799995 ], [ -115.1736786, 36.1570364998 ], [ -115.1736813, 36.1570364998 ], [ -115.1736813, 36.157022999799999 ], [ -115.173684, 36.157022999799999 ], [ -115.173684, 36.1570175998 ], [ -115.1736867, 36.1570175998 ], [ -115.1736867, 36.157014899799996 ], [ -115.1736894, 36.157014899799996 ], [ -115.1736894, 36.157009499799997 ], [ -115.1736921, 36.157009499799997 ], [ -115.1736921, 36.156920399800001 ], [ -115.1736948, 36.156920399800001 ], [ -115.1736948, 36.156904199799996 ], [ -115.1737164, 36.156904199799996 ], [ -115.1737164, 36.156906899799999 ], [ -115.1737326, 36.156906899799999 ], [ -115.1737326, 36.156909599799995 ], [ -115.1737461, 36.156909599799995 ], [ -115.1737461, 36.156906899799999 ], [ -115.173765, 36.156906899799999 ], [ -115.173765, 36.156904199799996 ], [ -115.1737893, 36.156904199799996 ], [ -115.1737893, 36.1569014998 ], [ -115.1738568, 36.1569014998 ], [ -115.1738568, 36.156904199799996 ], [ -115.1738649, 36.156904199799996 ], [ -115.1738649, 36.156906899799999 ], [ -115.1738676, 36.156906899799999 ], [ -115.1738676, 36.156909599799995 ], [ -115.1738703, 36.156909599799995 ], [ -115.1738703, 36.156912299799998 ], [ -115.173873, 36.156912299799998 ], [ -115.173873, 36.156923099799997 ], [ -115.1738757, 36.156923099799997 ], [ -115.1738757, 36.156939299799994 ], [ -115.173873, 36.156939299799994 ], [ -115.173873, 36.156941999799997 ], [ -115.1738757, 36.156941999799997 ], [ -115.1738757, 36.156952799799996 ], [ -115.173873, 36.156952799799996 ], [ -115.173873, 36.157004099799998 ], [ -115.1738703, 36.157004099799998 ], [ -115.1738703, 36.1570121998 ], [ -115.1738676, 36.1570121998 ], [ -115.1738676, 36.157028399799998 ], [ -115.1738649, 36.157028399799998 ], [ -115.1738649, 36.157039199799996 ], [ -115.1738622, 36.157039199799996 ], [ -115.1738622, 36.157047299799999 ], [ -115.1738595, 36.157047299799999 ], [ -115.1738595, 36.157052699799998 ], [ -115.1738568, 36.157052699799998 ], [ -115.1738568, 36.157058099799997 ], [ -115.1738541, 36.157058099799997 ], [ -115.1738541, 36.157063499799996 ], [ -115.1738514, 36.157063499799996 ], [ -115.1738514, 36.157068899799995 ], [ -115.1738487, 36.157068899799995 ], [ -115.1738487, 36.157071599799998 ], [ -115.1738379, 36.157071599799998 ], [ -115.1738379, 36.157068899799995 ], [ -115.1738325, 36.157068899799995 ], [ -115.1738325, 36.157063499799996 ], [ -115.1738271, 36.157063499799996 ], [ -115.1738271, 36.1570607998 ], [ -115.1738163, 36.1570607998 ], [ -115.1738163, 36.157058099799997 ], [ -115.1737812, 36.157058099799997 ], [ -115.1737812, 36.1570607998 ], [ -115.173765, 36.1570607998 ], [ -115.173765, 36.157058099799997 ], [ -115.1737407, 36.157058099799997 ], [ -115.1737407, 36.1570607998 ], [ -115.1737245, 36.1570607998 ], [ -115.1737245, 36.157063499799996 ], [ -115.173711, 36.157063499799996 ], [ -115.173711, 36.157066199799999 ], [ -115.1737056, 36.157066199799999 ], [ -115.1737056, 36.157068899799995 ], [ -115.1737029, 36.157068899799995 ], [ -115.1737029, 36.157071599799998 ], [ -115.1737002, 36.157071599799998 ], [ -115.1737002, 36.157074299799994 ], [ -115.1736975, 36.157074299799994 ], [ -115.1736975, 36.157076999799997 ], [ -115.1736948, 36.157076999799997 ], [ -115.1736948, 36.157079699800001 ], [ -115.1736894, 36.157079699800001 ], [ -115.1736894, 36.157082399799997 ] ] ] } },
{ "type": "Feature", "properties": { "value": 255.0 }, "geometry": { "type": "Polygon", "coordinates": [ [ [ -115.1738028, 36.156869099799998 ], [ -115.1737164, 36.156869099799998 ], [ -115.1737164, 36.156866399799995 ], [ -115.1737056, 36.156866399799995 ], [ -115.1737056, 36.156863699799999 ], [ -115.1736975, 36.156863699799999 ], [ -115.1736975, 36.156860999799996 ], [ -115.1736948, 36.156860999799996 ], [ -115.1736948, 36.1568582998 ], [ -115.1736921, 36.1568582998 ], [ -115.1736921, 36.156855599799997 ], [ -115.1736894, 36.156855599799997 ], [ -115.1736894, 36.156847499799994 ], [ -115.1736867, 36.156847499799994 ], [ -115.1736867, 36.156836699799996 ], [ -115.1736894, 36.156836699799996 ], [ -115.1736894, 36.156828599800001 ], [ -115.1736921, 36.156828599800001 ], [ -115.1736921, 36.156817799799995 ], [ -115.1736948, 36.156817799799995 ], [ -115.1736948, 36.1567853998 ], [ -115.1736921, 36.1567853998 ], [ -115.1736921, 36.156771899799999 ], [ -115.1736948, 36.156771899799999 ], [ -115.1736948, 36.156755699799994 ], [ -115.1736921, 36.156755699799994 ], [ -115.1736921, 36.156752999799998 ], [ -115.1736948, 36.156752999799998 ], [ -115.1736948, 36.156750299799995 ], [ -115.1736975, 36.156750299799995 ], [ -115.1736975, 36.156728699799999 ], [ -115.1737002, 36.156728699799999 ], [ -115.1737002, 36.1567178998 ], [ -115.1737029, 36.1567178998 ], [ -115.1737029, 36.156709799799998 ], [ -115.1737056, 36.156709799799998 ], [ -115.1737056, 36.156696299799997 ], [ -115.1737083, 36.156696299799997 ], [ -115.1737083, 36.156693599800001 ], [ -115.1737137, 36.156693599800001 ], [ -115.1737137, 36.156690899799997 ], [ -115.1737218, 36.156690899799997 ], [ -115.1737218, 36.156693599800001 ], [ -115.1737596, 36.156693599800001 ], [ -115.1737596, 36.156690899799997 ], [ -115.1737947, 36.156690899799997 ], [ -115.1737947, 36.156688199799994 ], [ -115.1738109, 36.156688199799994 ], [ -115.1738109, 36.156685499799998 ], [ -115.1738379, 36.156685499799998 ], [ -115.1738379, 36.156688199799994 ], [ -115.1738703, 36.156688199799994 ], [ -115.1738703, 36.156690899799997 ], [ -115.1738757, 36.156690899799997 ], [ -115.1738757, 36.156693599800001 ], [ -115.1738784, 36.156693599800001 ], [ -115.1738784, 36.156709799799998 ], [ -115.1738811, 36.156709799799998 ], [ -115.1738811, 36.156725999799995 ], [ -115.1738838, 36.156725999799995 ], [ -115.1738838, 36.156736799799994 ], [ -115.1738811, 36.156736799799994 ], [ -115.1738811, 36.156739499799997 ], [ -115.1738757, 36.156739499799997 ], [ -115.1738757, 36.1567421998 ], [ -115.1738433, 36.1567421998 ], [ -115.1738433, 36.156744899799996 ], [ -115.1738244, 36.156744899799996 ], [ -115.1738244, 36.156747599799999 ], [ -115.1738217, 36.156747599799999 ], [ -115.1738217, 36.156750299799995 ], [ -115.173819, 36.156750299799995 ], [ -115.173819, 36.156788099799996 ], [ -115.1738163, 36.156788099799996 ], [ -115.1738163, 36.156796199799999 ], [ -115.1738136, 36.156796199799999 ], [ -115.1738136, 36.156801599799998 ], [ -115.1738109, 36.156801599799998 ], [ -115.1738109, 36.156825899799998 ], [ -115.1738082, 36.156825899799998 ], [ -115.1738082, 36.156866399799995 ], [ -115.1738028, 36.156866399799995 ], [ -115.1738028, 36.156869099799998 ] ] ] } },
{ "type": "Feature", "properties": { "value": 255.0 }, "geometry": { "type": "Polygon", "coordinates": [ [ [ -115.1725203, 36.156725999799995 ], [ -115.1724987, 36.156725999799995 ], [ -115.1724987, 36.156709799799998 ], [ -115.1725014, 36.156709799799998 ], [ -115.1725014, 36.156688199799994 ], [ -115.172504100000012, 36.156688199799994 ], [ -115.172504100000012, 36.156680099799999 ], [ -115.1725068, 36.156680099799999 ], [ -115.1725068, 36.156688199799994 ], [ -115.1725095, 36.156688199799994 ], [ -115.1725095, 36.156693599800001 ], [ -115.1725122, 36.156693599800001 ], [ -115.1725122, 36.156712499799994 ], [ -115.17251490000001, 36.156712499799994 ], [ -115.17251490000001, 36.156715199799997 ], [ -115.1725203, 36.156715199799997 ], [ -115.1725203, 36.1567178998 ], [ -115.172523, 36.1567178998 ], [ -115.172523, 36.156723299799999 ], [ -115.1725203, 36.156723299799999 ], [ -115.1725203, 36.156725999799995 ] ] ] } },
{ "type": "Feature", "properties": { "value": 255.0 }, "geometry": { "type": "Polygon", "coordinates": [ [ [ -115.1735544, 36.156725999799995 ], [ -115.1735247, 36.156725999799995 ], [ -115.1735247, 36.156723299799999 ], [ -115.173522, 36.156723299799999 ], [ -115.173522, 36.156720599799996 ], [ -115.1735193, 36.156720599799996 ], [ -115.1735193, 36.156671999799997 ], [ -115.173522, 36.156671999799997 ], [ -115.173522, 36.156669299799994 ], [ -115.1735247, 36.156669299799994 ], [ -115.1735247, 36.156666599799998 ], [ -115.1735517, 36.156666599799998 ], [ -115.1735517, 36.156669299799994 ], [ -115.1735544, 36.156669299799994 ], [ -115.1735544, 36.156671999799997 ], [ -115.1735571, 36.156671999799997 ], [ -115.1735571, 36.156723299799999 ], [ -115.1735544, 36.156723299799999 ], [ -115.1735544, 36.156725999799995 ] ] ] } },
{ "type": "Feature", "properties": { "value": 255.0 }, "geometry": { "type": "Polygon", "coordinates": [ [ [ -115.1726823, 36.156747599799999 ], [ -115.1726418, 36.156747599799999 ], [ -115.1726418, 36.156744899799996 ], [ -115.172601300000011, 36.156744899799996 ], [ -115.172601300000011, 36.156747599799999 ], [ -115.1725743, 36.156747599799999 ], [ -115.1725743, 36.156744899799996 ], [ -115.1725716, 36.156744899799996 ], [ -115.1725716, 36.1567178998 ], [ -115.1725689, 36.1567178998 ], [ -115.1725689, 36.156712499799994 ], [ -115.1725716, 36.156712499799994 ], [ -115.1725716, 36.156696299799997 ], [ -115.1725743, 36.156696299799997 ], [ -115.1725743, 36.156682799799995 ], [ -115.172577, 36.156682799799995 ], [ -115.172577, 36.156677399799996 ], [ -115.1725797, 36.156677399799996 ], [ -115.1725797, 36.156671999799997 ], [ -115.17258240000001, 36.156671999799997 ], [ -115.17258240000001, 36.156663899799995 ], [ -115.1725851, 36.156663899799995 ], [ -115.1725851, 36.156655799799999 ], [ -115.1725878, 36.156655799799999 ], [ -115.1725878, 36.156647699799997 ], [ -115.1725905, 36.156647699799997 ], [ -115.1725905, 36.156636899799999 ], [ -115.1725932, 36.156636899799999 ], [ -115.1725932, 36.1566314998 ], [ -115.1725959, 36.1566314998 ], [ -115.1725959, 36.156628799799996 ], [ -115.172601300000011, 36.156628799799996 ], [ -115.172601300000011, 36.156623399799997 ], [ -115.172604, 36.156623399799997 ], [ -115.172604, 36.156617999799998 ], [ -115.1726067, 36.156617999799998 ], [ -115.1726067, 36.156609899799996 ], [ -115.1726094, 36.156609899799996 ], [ -115.1726094, 36.156604499799997 ], [ -115.1726148, 36.156604499799997 ], [ -115.1726148, 36.156601799799994 ], [ -115.1726877, 36.156601799799994 ], [ -115.1726877, 36.156599099799998 ], [ -115.1726958, 36.156599099799998 ], [ -115.1726958, 36.156601799799994 ], [ -115.17269850000001, 36.156601799799994 ], [ -115.17269850000001, 36.156682799799995 ], [ -115.1726958, 36.156682799799995 ], [ -115.1726958, 36.156685499799998 ], [ -115.1726904, 36.156685499799998 ], [ -115.1726904, 36.156709799799998 ], [ -115.1726931, 36.156709799799998 ], [ -115.1726931, 36.156723299799999 ], [ -115.1726904, 36.156723299799999 ], [ -115.1726904, 36.1567421998 ], [ -115.1726877, 36.1567421998 ], [ -115.1726877, 36.156744899799996 ], [ -115.1726823, 36.156744899799996 ], [ -115.1726823, 36.156747599799999 ] ] ] } },
{ "type": "Feature", "properties": { "value": 255.0 }, "geometry": { "type": "Polygon", "coordinates": [ [ [ -115.1738676, 36.156661199799998 ], [ -115.1738622, 36.156661199799998 ], [ -115.1738622, 36.156658499799995 ], [ -115.173792, 36.156658499799995 ], [ -115.173792, 36.156655799799999 ], [ -115.1737893, 36.156655799799999 ], [ -115.1737893, 36.1566503998 ], [ -115.1737866, 36.1566503998 ], [ -115.1737866, 36.156642299799998 ], [ -115.1737839, 36.156642299799998 ], [ -115.1737839, 36.156639599799995 ], [ -115.1737758, 36.156639599799995 ], [ -115.1737758, 36.156636899799999 ], [ -115.1737623, 36.156636899799999 ], [ -115.1737623, 36.156634199799996 ], [ -115.1736894, 36.156634199799996 ], [ -115.1736894, 36.1566314998 ], [ -115.1736867, 36.1566314998 ], [ -115.1736867, 36.156628799799996 ], [ -115.173684, 36.156628799799996 ], [ -115.173684, 36.1566260998 ], [ -115.1736813, 36.1566260998 ], [ -115.1736813, 36.156617999799998 ], [ -115.1736786, 36.156617999799998 ], [ -115.1736786, 36.156580199799997 ], [ -115.1736813, 36.156580199799997 ], [ -115.1736813, 36.1565585998 ], [ -115.173684, 36.1565585998 ], [ -115.173684, 36.156545099799999 ], [ -115.1736867, 36.156545099799999 ], [ -115.1736867, 36.156542399799996 ], [ -115.1736894, 36.156542399799996 ], [ -115.1736894, 36.1565396998 ], [ -115.1736921, 36.1565396998 ], [ -115.1736921, 36.156534299799993 ], [ -115.1736948, 36.156534299799993 ], [ -115.1736948, 36.156504599799995 ], [ -115.1736975, 36.156504599799995 ], [ -115.1736975, 36.156493799799996 ], [ -115.1736948, 36.156493799799996 ], [ -115.1736948, 36.1564721998 ], [ -115.1736975, 36.1564721998 ], [ -115.1736975, 36.156469499799996 ], [ -115.1737002, 36.156469499799996 ], [ -115.1737002, 36.156466799799993 ], [ -115.1737083, 36.156466799799993 ], [ -115.1737083, 36.156464099799997 ], [ -115.1737515, 36.156464099799997 ], [ -115.1737515, 36.156466799799993 ], [ -115.1737812, 36.156466799799993 ], [ -115.1737812, 36.156469499799996 ], [ -115.1738055, 36.156469499799996 ], [ -115.1738055, 36.1564721998 ], [ -115.1738082, 36.1564721998 ], [ -115.1738082, 36.156474899799996 ], [ -115.1738109, 36.156474899799996 ], [ -115.1738109, 36.156480299799995 ], [ -115.1738136, 36.156480299799995 ], [ -115.1738136, 36.156493799799996 ], [ -115.1738163, 36.156493799799996 ], [ -115.1738163, 36.156563999799999 ], [ -115.1738136, 36.156563999799999 ], [ -115.1738136, 36.156572099799995 ], [ -115.1738163, 36.156572099799995 ], [ -115.1738163, 36.1565828998 ], [ -115.1738217, 36.1565828998 ], [ -115.1738217, 36.156585599799996 ], [ -115.1738676, 36.156585599799996 ], [ -115.1738676, 36.156588299799999 ], [ -115.173873, 36.156588299799999 ], [ -115.173873, 36.156593699799998 ], [ -115.1738757, 36.156593699799998 ], [ -115.1738757, 36.156615299799995 ], [ -115.173873, 36.156615299799995 ], [ -115.173873, 36.156634199799996 ], [ -115.1738757, 36.156634199799996 ], [ -115.1738757, 36.156655799799999 ], [ -115.173873, 36.156655799799999 ], [ -115.173873, 36.156658499799995 ], [ -115.1738676, 36.156658499799995 ], [ -115.1738676, 36.156661199799998 ] ] ] } },
{ "type": "Feature", "properties": { "value": 255.0 }, "geometry": { "type": "Polygon", "coordinates": [ [ [ -115.1732385, 36.156739499799997 ], [ -115.1732304, 36.156739499799997 ], [ -115.1732304, 36.156736799799994 ], [ -115.1732223, 36.156736799799994 ], [ -115.1732223, 36.156734099799998 ], [ -115.1732196, 36.156734099799998 ], [ -115.1732196, 36.156731399799995 ], [ -115.1732142, 36.156731399799995 ], [ -115.1732142, 36.156728699799999 ], [ -115.1732115, 36.156728699799999 ], [ -115.1732115, 36.156725999799995 ], [ -115.1732061, 36.156725999799995 ], [ -115.1732061, 36.156723299799999 ], [ -115.1732034, 36.156723299799999 ], [ -115.1732034, 36.1567178998 ], [ -115.1732007, 36.1567178998 ], [ -115.1732007, 36.156715199799997 ], [ -115.173198, 36.156715199799997 ], [ -115.173198, 36.156712499799994 ], [ -115.1731953, 36.156712499799994 ], [ -115.1731953, 36.156707099799995 ], [ -115.1731926, 36.156707099799995 ], [ -115.1731926, 36.156690899799997 ], [ -115.1731899, 36.156690899799997 ], [ -115.1731899, 36.156677399799996 ], [ -115.1731872, 36.156677399799996 ], [ -115.1731872, 36.1566746998 ], [ -115.1731818, 36.1566746998 ], [ -115.1731818, 36.156671999799997 ], [ -115.1731791, 36.156671999799997 ], [ -115.1731791, 36.156628799799996 ], [ -115.1731764, 36.156628799799996 ], [ -115.1731764, 36.156561299799996 ], [ -115.1731737, 36.156561299799996 ], [ -115.1731737, 36.156528899799994 ], [ -115.1731764, 36.156528899799994 ], [ -115.1731764, 36.156499199799995 ], [ -115.1731791, 36.156499199799995 ], [ -115.1731791, 36.156488399799997 ], [ -115.1731818, 36.156488399799997 ], [ -115.1731818, 36.156458699799998 ], [ -115.1731845, 36.156458699799998 ], [ -115.1731845, 36.156428999799999 ], [ -115.1731872, 36.156428999799999 ], [ -115.1731872, 36.156426299799996 ], [ -115.1731926, 36.156426299799996 ], [ -115.1731926, 36.1564235998 ], [ -115.1732574, 36.1564235998 ], [ -115.1732574, 36.156420899799997 ], [ -115.173279, 36.156420899799997 ], [ -115.173279, 36.156418199799994 ], [ -115.1732952, 36.156418199799994 ], [ -115.1732952, 36.156415499799998 ], [ -115.1733006, 36.156415499799998 ], [ -115.1733006, 36.156401999799996 ], [ -115.1733033, 36.156401999799996 ], [ -115.1733033, 36.156399299799993 ], [ -115.173333, 36.156399299799993 ], [ -115.173333, 36.156401999799996 ], [ -115.1733357, 36.156401999799996 ], [ -115.1733357, 36.156407399799996 ], [ -115.173333, 36.156407399799996 ], [ -115.173333, 36.156412799799995 ], [ -115.1733357, 36.156412799799995 ], [ -115.1733357, 36.156415499799998 ], [ -115.1733384, 36.156415499799998 ], [ -115.1733384, 36.156418199799994 ], [ -115.1733411, 36.156418199799994 ], [ -115.1733411, 36.156420899799997 ], [ -115.1733465, 36.156420899799997 ], [ -115.1733465, 36.1564235998 ], [ -115.17336, 36.1564235998 ], [ -115.17336, 36.156426299799996 ], [ -115.1733789, 36.156426299799996 ], [ -115.1733789, 36.156428999799999 ], [ -115.1733951, 36.156428999799999 ], [ -115.1733951, 36.156431699799995 ], [ -115.1733978, 36.156431699799995 ], [ -115.1733978, 36.156434399799998 ], [ -115.1734005, 36.156434399799998 ], [ -115.1734005, 36.156445199799997 ], [ -115.1733978, 36.156445199799997 ], [ -115.1733978, 36.156485699799994 ], [ -115.1733951, 36.156485699799994 ], [ -115.1733951, 36.156488399799997 ], [ -115.1733681, 36.156488399799997 ], [ -115.1733681, 36.1564910998 ], [ -115.1733573, 36.1564910998 ], [ -115.1733573, 36.156493799799996 ], [ -115.1733546, 36.156493799799996 ], [ -115.1733546, 36.156523499799995 ], [ -115.1733519, 36.156523499799995 ], [ -115.1733519, 36.156572099799995 ], [ -115.1733492, 36.156572099799995 ], [ -115.1733492, 36.156593699799998 ], [ -115.1733519, 36.156593699799998 ], [ -115.1733519, 36.156604499799997 ], [ -115.1733546, 36.156604499799997 ], [ -115.1733546, 36.1566071998 ], [ -115.17336, 36.1566071998 ], [ -115.17336, 36.156609899799996 ], [ -115.1733627, 36.156609899799996 ], [ -115.1733627, 36.156617999799998 ], [ -115.1733654, 36.156617999799998 ], [ -115.1733654, 36.156636899799999 ], [ -115.1733627, 36.156636899799999 ], [ -115.1733627, 36.156642299799998 ], [ -115.17336, 36.156642299799998 ], [ -115.17336, 36.156644999799994 ], [ -115.1733573, 36.156644999799994 ], [ -115.1733573, 36.156647699799997 ], [ -115.1733546, 36.156647699799997 ], [ -115.1733546, 36.1566503998 ], [ -115.1733519, 36.1566503998 ], [ -115.1733519, 36.156653099799996 ], [ -115.1733492, 36.156653099799996 ], [ -115.1733492, 36.156669299799994 ], [ -115.1733465, 36.156669299799994 ], [ -115.1733465, 36.156671999799997 ], [ -115.1733411, 36.156671999799997 ], [ -115.1733411, 36.1566746998 ], [ -115.173333, 36.1566746998 ], [ -115.173333, 36.156671999799997 ], [ -115.1733087, 36.156671999799997 ], [ -115.1733087, 36.1566746998 ], [ -115.1732952, 36.1566746998 ], [ -115.1732952, 36.156677399799996 ], [ -115.1732898, 36.156677399799996 ], [ -115.1732898, 36.156680099799999 ], [ -115.1732871, 36.156680099799999 ], [ -115.1732871, 36.156720599799996 ], [ -115.1732844, 36.156720599799996 ], [ -115.1732844, 36.156728699799999 ], [ -115.1732817, 36.156728699799999 ], [ -115.1732817, 36.156731399799995 ], [ -115.1732763, 36.156731399799995 ], [ -115.1732763, 36.156734099799998 ], [ -115.1732709, 36.156734099799998 ], [ -115.1732709, 36.156736799799994 ], [ -115.1732385, 36.156736799799994 ], [ -115.1732385, 36.156739499799997 ] ] ] } },
{ "type": "Feature", "properties": { "value": 255.0 }, "geometry": { "type": "Polygon", "coordinates": [ [ [ -115.173873, 36.156437099799994 ], [ -115.173819, 36.156437099799994 ], [ -115.173819, 36.156434399799998 ], [ -115.1738109, 36.156434399799998 ], [ -115.1738109, 36.156431699799995 ], [ -115.1738082, 36.156431699799995 ], [ -115.1738082, 36.156428999799999 ], [ -115.1738055, 36.156428999799999 ], [ -115.1738055, 36.156426299799996 ], [ -115.1738028, 36.156426299799996 ], [ -115.1738028, 36.1564235998 ], [ -115.1737974, 36.1564235998 ], [ -115.1737974, 36.156420899799997 ], [ -115.1737893, 36.156420899799997 ], [ -115.1737893, 36.156418199799994 ], [ -115.173765, 36.156418199799994 ], [ -115.173765, 36.156420899799997 ], [ -115.1737542, 36.156420899799997 ], [ -115.1737542, 36.156418199799994 ], [ -115.1737164, 36.156418199799994 ], [ -115.1737164, 36.156415499799998 ], [ -115.1737083, 36.156415499799998 ], [ -115.1737083, 36.156412799799995 ], [ -115.1737029, 36.156412799799995 ], [ -115.1737029, 36.156410099799999 ], [ -115.1737002, 36.156410099799999 ], [ -115.1737002, 36.156407399799996 ], [ -115.1736975, 36.156407399799996 ], [ -115.1736975, 36.156404699799999 ], [ -115.1736948, 36.156404699799999 ], [ -115.1736948, 36.156399299799993 ], [ -115.1736894, 36.156399299799993 ], [ -115.1736894, 36.156396599799997 ], [ -115.1736867, 36.156396599799997 ], [ -115.1736867, 36.156393899799994 ], [ -115.173684, 36.156393899799994 ], [ -115.173684, 36.156391199799998 ], [ -115.1736732, 36.156391199799998 ], [ -115.1736732, 36.156396599799997 ], [ -115.1736759, 36.156396599799997 ], [ -115.1736759, 36.156404699799999 ], [ -115.1736705, 36.156404699799999 ], [ -115.1736705, 36.156407399799996 ], [ -115.1736678, 36.156407399799996 ], [ -115.1736678, 36.156404699799999 ], [ -115.1736624, 36.156404699799999 ], [ -115.1736624, 36.156388499799995 ], [ -115.1736597, 36.156388499799995 ], [ -115.1736597, 36.156385799799999 ], [ -115.1736624, 36.156385799799999 ], [ -115.1736624, 36.1563803998 ], [ -115.1736651, 36.1563803998 ], [ -115.1736651, 36.156377699799997 ], [ -115.1738784, 36.156377699799997 ], [ -115.1738784, 36.156385799799999 ], [ -115.1738811, 36.156385799799999 ], [ -115.1738811, 36.156431699799995 ], [ -115.1738784, 36.156431699799995 ], [ -115.1738784, 36.156434399799998 ], [ -115.173873, 36.156434399799998 ], [ -115.173873, 36.156437099799994 ] ] ] } },
{ "type": "Feature", "properties": { "value": 255.0 }, "geometry": { "type": "Polygon", "coordinates": [ [ [ -115.1725905, 36.156553199799994 ], [ -115.172577, 36.156553199799994 ], [ -115.172577, 36.156550499799998 ], [ -115.1725716, 36.156550499799998 ], [ -115.1725716, 36.156547799799995 ], [ -115.1725662, 36.156547799799995 ], [ -115.1725662, 36.156545099799999 ], [ -115.17256350000001, 36.156545099799999 ], [ -115.17256350000001, 36.156542399799996 ], [ -115.1725608, 36.156542399799996 ], [ -115.1725608, 36.1565396998 ], [ -115.1725581, 36.1565396998 ], [ -115.1725581, 36.156536999799997 ], [ -115.1725554, 36.156536999799997 ], [ -115.1725554, 36.156534299799993 ], [ -115.17255, 36.156534299799993 ], [ -115.17255, 36.156531599799997 ], [ -115.1725473, 36.156531599799997 ], [ -115.1725473, 36.156528899799994 ], [ -115.1725446, 36.156528899799994 ], [ -115.1725446, 36.156526199799998 ], [ -115.1725419, 36.156526199799998 ], [ -115.1725419, 36.156523499799995 ], [ -115.1725365, 36.156523499799995 ], [ -115.1725365, 36.156520799799999 ], [ -115.172533800000011, 36.156520799799999 ], [ -115.172533800000011, 36.156518099799996 ], [ -115.1725311, 36.156518099799996 ], [ -115.1725311, 36.1565153998 ], [ -115.1725284, 36.1565153998 ], [ -115.1725284, 36.156512699799997 ], [ -115.172523, 36.156512699799997 ], [ -115.172523, 36.156509999799994 ], [ -115.1725122, 36.156509999799994 ], [ -115.1725122, 36.156507299799998 ], [ -115.1724582, 36.156507299799998 ], [ -115.1724582, 36.156509999799994 ], [ -115.1724258, 36.156509999799994 ], [ -115.1724258, 36.156507299799998 ], [ -115.1724231, 36.156507299799998 ], [ -115.1724231, 36.156504599799995 ], [ -115.1724204, 36.156504599799995 ], [ -115.1724204, 36.156477599799999 ], [ -115.172417700000011, 36.156477599799999 ], [ -115.172417700000011, 36.156474899799996 ], [ -115.172415, 36.156474899799996 ], [ -115.172415, 36.1564721998 ], [ -115.172398800000011, 36.1564721998 ], [ -115.172398800000011, 36.156469499799996 ], [ -115.1723934, 36.156469499799996 ], [ -115.1723934, 36.156466799799993 ], [ -115.1723907, 36.156466799799993 ], [ -115.1723907, 36.156439799799998 ], [ -115.1723934, 36.156439799799998 ], [ -115.1723934, 36.1564235998 ], [ -115.1723961, 36.1564235998 ], [ -115.1723961, 36.156415499799998 ], [ -115.172398800000011, 36.156415499799998 ], [ -115.172398800000011, 36.156412799799995 ], [ -115.1724015, 36.156412799799995 ], [ -115.1724015, 36.156410099799999 ], [ -115.1724042, 36.156410099799999 ], [ -115.1724042, 36.156407399799996 ], [ -115.172406900000013, 36.156407399799996 ], [ -115.172406900000013, 36.156401999799996 ], [ -115.1724096, 36.156401999799996 ], [ -115.1724096, 36.156377699799997 ], [ -115.1726337, 36.156377699799997 ], [ -115.1726337, 36.156396599799997 ], [ -115.172631, 36.156396599799997 ], [ -115.172631, 36.156412799799995 ], [ -115.1726337, 36.156412799799995 ], [ -115.1726337, 36.156434399799998 ], [ -115.1726364, 36.156434399799998 ], [ -115.1726364, 36.156445199799997 ], [ -115.1726391, 36.156445199799997 ], [ -115.1726391, 36.156450599799996 ], [ -115.1726418, 36.156450599799996 ], [ -115.1726418, 36.156474899799996 ], [ -115.1726391, 36.156474899799996 ], [ -115.1726391, 36.156482999799998 ], [ -115.1726364, 36.156482999799998 ], [ -115.1726364, 36.156488399799997 ], [ -115.1726337, 36.156488399799997 ], [ -115.1726337, 36.156501899799999 ], [ -115.172631, 36.156501899799999 ], [ -115.172631, 36.156512699799997 ], [ -115.1726283, 36.156512699799997 ], [ -115.1726283, 36.1565153998 ], [ -115.1726256, 36.1565153998 ], [ -115.1726256, 36.156518099799996 ], [ -115.172620200000011, 36.156518099799996 ], [ -115.172620200000011, 36.156520799799999 ], [ -115.1726175, 36.156520799799999 ], [ -115.1726175, 36.156523499799995 ], [ -115.1726148, 36.156523499799995 ], [ -115.1726148, 36.156526199799998 ], [ -115.1726121, 36.156526199799998 ], [ -115.1726121, 36.156528899799994 ], [ -115.1726094, 36.156528899799994 ], [ -115.1726094, 36.156534299799993 ], [ -115.1726067, 36.156534299799993 ], [ -115.1726067, 36.1565396998 ], [ -115.172604, 36.1565396998 ], [ -115.172604, 36.156545099799999 ], [ -115.172601300000011, 36.156545099799999 ], [ -115.172601300000011, 36.156547799799995 ], [ -115.1725986, 36.156547799799995 ], [ -115.1725986, 36.156550499799998 ], [ -115.1725905, 36.156550499799998 ], [ -115.1725905, 36.156553199799994 ] ] ] } }
]
}
