{
"type": "FeatureCollection",
"crs": { "type": "name", "properties": { "name": "urn:ogc:def:crs:OGC:1.3:CRS84" } },
"features": [
{ "type": "Feature", "properties": { "value": 255.0 }, "geometry": { "type": "Polygon", "coordinates": [ [ [ -115.1625708, 36.131807699699998 ], [ -115.1625303, 36.131807699699998 ], [ -115.1625303, 36.131802299699999 ], [ -115.1625276, 36.131802299699999 ], [ -115.1625276, 36.131799599699995 ], [ -115.1625303, 36.131799599699995 ], [ -115.1625303, 36.131796899699999 ], [ -115.1625438, 36.131796899699999 ], [ -115.1625438, 36.131794199699996 ], [ -115.1625573, 36.131794199699996 ], [ -115.1625573, 36.131796899699999 ], [ -115.1625627, 36.131796899699999 ], [ -115.1625627, 36.131799599699995 ], [ -115.1625654, 36.131799599699995 ], [ -115.1625654, 36.131802299699999 ], [ -115.1625681, 36.131802299699999 ], [ -115.1625681, 36.131804999699995 ], [ -115.1625708, 36.131804999699995 ], [ -115.1625708, 36.131807699699998 ] ] ] } },
{ "type": "Feature", "properties": { "value": 255.0 }, "geometry": { "type": "Polygon", "coordinates": [ [ [ -115.162479, 36.131807699699998 ], [ -115.1624358, 36.131807699699998 ], [ -115.1624358, 36.131804999699995 ], [ -115.1624385, 36.131804999699995 ], [ -115.1624385, 36.131799599699995 ], [ -115.162479, 36.131799599699995 ], [ -115.162479, 36.131807699699998 ] ] ] } },
{ "type": "Feature", "properties": { "value": 255.0 }, "geometry": { "type": "Polygon", "coordinates": [ [ [ -115.1623899, 36.131807699699998 ], [ -115.162349400000011, 36.131807699699998 ], [ -115.162349400000011, 36.131804999699995 ], [ -115.1623548, 36.131804999699995 ], [ -115.1623548, 36.131802299699999 ], [ -115.1623575, 36.131802299699999 ], [ -115.1623575, 36.131799599699995 ], [ -115.1623629, 36.131799599699995 ], [ -115.1623629, 36.131796899699999 ], [ -115.1623683, 36.131796899699999 ], [ -115.1623683, 36.131794199699996 ], [ -115.1623872, 36.131794199699996 ], [ -115.1623872, 36.131796899699999 ], [ -115.1623899, 36.131796899699999 ], [ -115.1623899, 36.131799599699995 ], [ -115.1623926, 36.131799599699995 ], [ -115.1623926, 36.131802299699999 ], [ -115.1623899, 36.131802299699999 ], [ -115.1623899, 36.131807699699998 ] ] ] } },
{ "type": "Feature", "properties": { "value": 255.0 }, "geometry": { "type": "Polygon", "coordinates": [ [ [ -115.1619795, 36.131807699699998 ], [ -115.1619606, 36.131807699699998 ], [ -115.1619606, 36.131786099700001 ], [ -115.1619579, 36.131786099700001 ], [ -115.1619579, 36.1317725997 ], [ -115.1619822, 36.1317725997 ], [ -115.1619822, 36.131796899699999 ], [ -115.1619795, 36.131796899699999 ], [ -115.1619795, 36.131807699699998 ] ] ] } },
{ "type": "Feature", "properties": { "value": 255.0 }, "geometry": { "type": "Polygon", "coordinates": [ [ [ -115.1622117, 36.131783399699998 ], [ -115.1621496, 36.131783399699998 ], [ -115.1621496, 36.131780699699995 ], [ -115.1621388, 36.131780699699995 ], [ -115.1621388, 36.131777999699999 ], [ -115.1621307, 36.131777999699999 ], [ -115.1621307, 36.131775299699996 ], [ -115.1621253, 36.131775299699996 ], [ -115.1621253, 36.1317725997 ], [ -115.1621172, 36.1317725997 ], [ -115.1621172, 36.131769899699997 ], [ -115.1621091, 36.131769899699997 ], [ -115.1621091, 36.131767199700001 ], [ -115.1621064, 36.131767199700001 ], [ -115.1621064, 36.131764499699997 ], [ -115.1621037, 36.131764499699997 ], [ -115.1621037, 36.131761799700001 ], [ -115.162101, 36.131761799700001 ], [ -115.162101, 36.131756399699995 ], [ -115.1621118, 36.131756399699995 ], [ -115.1621118, 36.131759099699998 ], [ -115.1621307, 36.131759099699998 ], [ -115.1621307, 36.131756399699995 ], [ -115.1621712, 36.131756399699995 ], [ -115.1621712, 36.131753699699999 ], [ -115.1621793, 36.131753699699999 ], [ -115.1621793, 36.131750999699996 ], [ -115.1621847, 36.131750999699996 ], [ -115.1621847, 36.1317482997 ], [ -115.1622063, 36.1317482997 ], [ -115.1622063, 36.131745599699997 ], [ -115.1622252, 36.131745599699997 ], [ -115.1622252, 36.131780699699995 ], [ -115.1622117, 36.131780699699995 ], [ -115.1622117, 36.131783399699998 ] ] ] } },
{ "type": "Feature", "properties": { "value": 255.0 }, "geometry": { "type": "Polygon", "coordinates": [ [ [ -115.1621631, 36.131745599699997 ], [ -115.1621496, 36.131745599699997 ], [ -115.1621496, 36.131742899700001 ], [ -115.1621388, 36.131742899700001 ], [ -115.1621388, 36.131745599699997 ], [ -115.1621307, 36.131745599699997 ], [ -115.1621307, 36.131742899700001 ], [ -115.1621226, 36.131742899700001 ], [ -115.1621226, 36.131740199699998 ], [ -115.1621091, 36.131740199699998 ], [ -115.1621091, 36.131742899700001 ], [ -115.1621037, 36.131742899700001 ], [ -115.1621037, 36.131740199699998 ], [ -115.162101, 36.131740199699998 ], [ -115.162101, 36.131737499699994 ], [ -115.1620983, 36.131737499699994 ], [ -115.1620983, 36.131732099699995 ], [ -115.1620956, 36.131732099699995 ], [ -115.1620956, 36.131688899699995 ], [ -115.1620929, 36.131688899699995 ], [ -115.1620929, 36.131667299699998 ], [ -115.1620902, 36.131667299699998 ], [ -115.1620902, 36.131637599699999 ], [ -115.1620929, 36.131637599699999 ], [ -115.1620929, 36.131629499699997 ], [ -115.1620956, 36.131629499699997 ], [ -115.1620956, 36.131626799700001 ], [ -115.1621064, 36.131626799700001 ], [ -115.1621064, 36.131624099699998 ], [ -115.1621199, 36.131624099699998 ], [ -115.1621199, 36.131626799700001 ], [ -115.1621253, 36.131626799700001 ], [ -115.1621253, 36.131637599699999 ], [ -115.1621226, 36.131637599699999 ], [ -115.1621226, 36.131640299699995 ], [ -115.1621199, 36.131640299699995 ], [ -115.1621199, 36.131642999699999 ], [ -115.1621172, 36.131642999699999 ], [ -115.1621172, 36.131648399699998 ], [ -115.1621145, 36.131648399699998 ], [ -115.1621145, 36.131651099700001 ], [ -115.1621172, 36.131651099700001 ], [ -115.1621172, 36.131653799699997 ], [ -115.1621226, 36.131653799699997 ], [ -115.1621226, 36.1316564997 ], [ -115.1621496, 36.1316564997 ], [ -115.1621496, 36.131653799699997 ], [ -115.1621523, 36.131653799699997 ], [ -115.1621523, 36.131651099700001 ], [ -115.162155, 36.131651099700001 ], [ -115.162155, 36.131648399699998 ], [ -115.1621739, 36.131648399699998 ], [ -115.1621739, 36.131651099700001 ], [ -115.1621847, 36.131651099700001 ], [ -115.1621847, 36.131653799699997 ], [ -115.1622252, 36.131653799699997 ], [ -115.1622252, 36.131732099699995 ], [ -115.1622225, 36.131732099699995 ], [ -115.1622225, 36.131734799699998 ], [ -115.162209, 36.131734799699998 ], [ -115.162209, 36.131737499699994 ], [ -115.1621928, 36.131737499699994 ], [ -115.1621928, 36.131740199699998 ], [ -115.1621739, 36.131740199699998 ], [ -115.1621739, 36.131742899700001 ], [ -115.1621631, 36.131742899700001 ], [ -115.1621631, 36.131745599699997 ] ] ] } },
{ "type": "Feature", "properties": { "value": 255.0 }, "geometry": { "type": "Polygon", "coordinates": [ [ [ -115.161858, 36.1316564997 ], [ -115.1618526, 36.1316564997 ], [ -115.1618526, 36.131602499700001 ], [ -115.1618553, 36.131602499700001 ], [ -115.1618553, 36.131605199699997 ], [ -115.161858, 36.131605199699997 ], [ -115.161858, 36.131607899700001 ], [ -115.1618607, 36.131607899700001 ], [ -115.1618607, 36.131610599699997 ], [ -115.1618634, 36.131610599699997 ], [ -115.1618634, 36.131615999699996 ], [ -115.1618661, 36.131615999699996 ], [ -115.1618661, 36.131621399699995 ], [ -115.1618688, 36.131621399699995 ], [ -115.1618688, 36.131640299699995 ], [ -115.1618661, 36.131640299699995 ], [ -115.1618661, 36.131645699699995 ], [ -115.1618634, 36.131645699699995 ], [ -115.1618634, 36.131648399699998 ], [ -115.1618607, 36.131648399699998 ], [ -115.1618607, 36.131653799699997 ], [ -115.161858, 36.131653799699997 ], [ -115.161858, 36.1316564997 ] ] ] } },
{ "type": "Feature", "properties": { "value": 255.0 }, "geometry": { "type": "Polygon", "coordinates": [ [ [ -115.1636076, 36.131615999699996 ], [ -115.16360490000001, 36.131615999699996 ], [ -115.16360490000001, 36.1316132997 ], [ -115.1635995, 36.1316132997 ], [ -115.1635995, 36.131615999699996 ], [ -115.163594100000012, 36.131615999699996 ], [ -115.163594100000012, 36.1316132997 ], [ -115.1635914, 36.1316132997 ], [ -115.1635914, 36.131610599699997 ], [ -115.1635887, 36.131610599699997 ], [ -115.1635887, 36.131580899699998 ], [ -115.163586, 36.131580899699998 ], [ -115.163586, 36.131553899700002 ], [ -115.1635887, 36.131553899700002 ], [ -115.1635887, 36.131548499699996 ], [ -115.1635914, 36.131548499699996 ], [ -115.1635914, 36.1315457997 ], [ -115.163594100000012, 36.1315457997 ], [ -115.163594100000012, 36.131543099699996 ], [ -115.1635995, 36.131543099699996 ], [ -115.1635995, 36.1315457997 ], [ -115.1636076, 36.1315457997 ], [ -115.1636076, 36.131615999699996 ] ] ] } },
{ "type": "Feature", "properties": { "value": 255.0 }, "geometry": { "type": "Polygon", "coordinates": [ [ [ -115.1635833, 36.1313864997 ], [ -115.16355630000001, 36.1313864997 ], [ -115.16355630000001, 36.131383799699996 ], [ -115.1635509, 36.131383799699996 ], [ -115.1635509, 36.131378399699997 ], [ -115.1635482, 36.131378399699997 ], [ -115.1635482, 36.131367599699999 ], [ -115.1635509, 36.131367599699999 ], [ -115.1635509, 36.131343299699999 ], [ -115.1635482, 36.131343299699999 ], [ -115.1635482, 36.131335199699997 ], [ -115.1635509, 36.131335199699997 ], [ -115.1635509, 36.131332499700001 ], [ -115.1635887, 36.131332499700001 ], [ -115.1635887, 36.131335199699997 ], [ -115.1635968, 36.131335199699997 ], [ -115.1635968, 36.131332499700001 ], [ -115.1635995, 36.131332499700001 ], [ -115.1635995, 36.131329799699998 ], [ -115.16360490000001, 36.131329799699998 ], [ -115.16360490000001, 36.131327099700002 ], [ -115.1636076, 36.131327099700002 ], [ -115.1636076, 36.131375699700001 ], [ -115.1636022, 36.131375699700001 ], [ -115.1636022, 36.131378399699997 ], [ -115.163594100000012, 36.131378399699997 ], [ -115.163594100000012, 36.1313810997 ], [ -115.1635914, 36.1313810997 ], [ -115.1635914, 36.131383799699996 ], [ -115.1635833, 36.131383799699996 ], [ -115.1635833, 36.1313864997 ] ], [ [ -115.1635968, 36.131367599699999 ], [ -115.1635968, 36.131364899699996 ], [ -115.1635995, 36.131364899699996 ], [ -115.1635995, 36.1313621997 ], [ -115.1636022, 36.1313621997 ], [ -115.1636022, 36.131359499699997 ], [ -115.1635995, 36.131359499699997 ], [ -115.1635995, 36.131356799700001 ], [ -115.1635968, 36.131356799700001 ], [ -115.1635968, 36.131354099699998 ], [ -115.1635914, 36.131354099699998 ], [ -115.1635914, 36.131364899699996 ], [ -115.163594100000012, 36.131364899699996 ], [ -115.163594100000012, 36.131367599699999 ], [ -115.1635968, 36.131367599699999 ] ] ] } },
{ "type": "Feature", "properties": { "value": 255.0 }, "geometry": { "type": "Polygon", "coordinates": [ [ [ -115.1635347, 36.131397299699998 ], [ -115.1635131, 36.131397299699998 ], [ -115.1635131, 36.131394599700002 ], [ -115.1635104, 36.131394599700002 ], [ -115.1635104, 36.131389199699996 ], [ -115.163507700000011, 36.131389199699996 ], [ -115.163507700000011, 36.131335199699997 ], [ -115.1635104, 36.131335199699997 ], [ -115.1635104, 36.131329799699998 ], [ -115.1635131, 36.131329799699998 ], [ -115.1635131, 36.131327099700002 ], [ -115.163532, 36.131327099700002 ], [ -115.163532, 36.131329799699998 ], [ -115.1635347, 36.131329799699998 ], [ -115.1635347, 36.131332499700001 ], [ -115.16353740000001, 36.131332499700001 ], [ -115.16353740000001, 36.131356799700001 ], [ -115.1635347, 36.131356799700001 ], [ -115.1635347, 36.131397299699998 ] ] ] } },
{ "type": "Feature", "properties": { "value": 255.0 }, "geometry": { "type": "Polygon", "coordinates": [ [ [ -115.1628759, 36.1307006997 ], [ -115.1628408, 36.1307006997 ], [ -115.1628408, 36.130695299700001 ], [ -115.1628381, 36.130695299700001 ], [ -115.1628381, 36.130687199699999 ], [ -115.1628408, 36.130687199699999 ], [ -115.1628408, 36.130684499700003 ], [ -115.1628435, 36.130684499700003 ], [ -115.1628435, 36.1306817997 ], [ -115.1628462, 36.1306817997 ], [ -115.1628462, 36.130684499700003 ], [ -115.16285160000001, 36.130684499700003 ], [ -115.16285160000001, 36.130687199699999 ], [ -115.1628624, 36.130687199699999 ], [ -115.1628624, 36.130684499700003 ], [ -115.162870500000011, 36.130684499700003 ], [ -115.162870500000011, 36.1306817997 ], [ -115.1628732, 36.1306817997 ], [ -115.1628732, 36.130684499700003 ], [ -115.1628759, 36.130684499700003 ], [ -115.1628759, 36.130687199699999 ], [ -115.1628786, 36.130687199699999 ], [ -115.1628786, 36.130697999699997 ], [ -115.1628759, 36.130697999699997 ], [ -115.1628759, 36.1307006997 ] ] ] } },
{ "type": "Feature", "properties": { "value": 255.0 }, "geometry": { "type": "Polygon", "coordinates": [ [ [ -115.162317, 36.130549499700003 ], [ -115.162209, 36.130549499700003 ], [ -115.162209, 36.1305413997 ], [ -115.1622063, 36.1305413997 ], [ -115.1622063, 36.130511699700001 ], [ -115.1622036, 36.130511699700001 ], [ -115.1622036, 36.130508999699998 ], [ -115.1622063, 36.130508999699998 ], [ -115.1622063, 36.130444199700001 ], [ -115.162209, 36.130444199700001 ], [ -115.162209, 36.130433399700003 ], [ -115.1622063, 36.130433399700003 ], [ -115.1622063, 36.1303577997 ], [ -115.162209, 36.1303577997 ], [ -115.162209, 36.130355099700004 ], [ -115.1622387, 36.130355099700004 ], [ -115.1622387, 36.130352399700001 ], [ -115.1622576, 36.130352399700001 ], [ -115.1622576, 36.130355099700004 ], [ -115.162317, 36.130355099700004 ], [ -115.162317, 36.1303577997 ], [ -115.1623197, 36.1303577997 ], [ -115.1623197, 36.130546799699999 ], [ -115.162317, 36.130546799699999 ], [ -115.162317, 36.130549499700003 ] ] ] } },
{ "type": "Feature", "properties": { "value": 255.0 }, "geometry": { "type": "Polygon", "coordinates": [ [ [ -115.163235, 36.130587299700004 ], [ -115.1632296, 36.130587299700004 ], [ -115.1632296, 36.130584599700001 ], [ -115.1632026, 36.130584599700001 ], [ -115.1632026, 36.130587299700004 ], [ -115.1631837, 36.130587299700004 ], [ -115.1631837, 36.130584599700001 ], [ -115.163181, 36.130584599700001 ], [ -115.163181, 36.130581899699997 ], [ -115.1631783, 36.130581899699997 ], [ -115.1631783, 36.130568399700003 ], [ -115.1631756, 36.130568399700003 ], [ -115.1631756, 36.130484699699998 ], [ -115.1631729, 36.130484699699998 ], [ -115.1631729, 36.130446899700004 ], [ -115.1631756, 36.130446899700004 ], [ -115.1631756, 36.130438799700002 ], [ -115.163181, 36.130438799700002 ], [ -115.163181, 36.130436099699999 ], [ -115.163189100000011, 36.130436099699999 ], [ -115.163189100000011, 36.130433399700003 ], [ -115.1631999, 36.130433399700003 ], [ -115.1631999, 36.130436099699999 ], [ -115.163226900000012, 36.130436099699999 ], [ -115.163226900000012, 36.130433399700003 ], [ -115.163235, 36.130433399700003 ], [ -115.163235, 36.130425299700001 ], [ -115.1632431, 36.130425299700001 ], [ -115.1632431, 36.130422599700005 ], [ -115.1632458, 36.130422599700005 ], [ -115.1632458, 36.130419899700001 ], [ -115.1632512, 36.130419899700001 ], [ -115.1632512, 36.130417199699998 ], [ -115.1632593, 36.130417199699998 ], [ -115.1632593, 36.130414499700002 ], [ -115.1632674, 36.130414499700002 ], [ -115.1632674, 36.130411799699999 ], [ -115.1632782, 36.130411799699999 ], [ -115.1632782, 36.130409099700003 ], [ -115.1632971, 36.130409099700003 ], [ -115.1632971, 36.1304063997 ], [ -115.1633106, 36.1304063997 ], [ -115.1633106, 36.130403699700004 ], [ -115.1633187, 36.130403699700004 ], [ -115.1633187, 36.130400999700001 ], [ -115.1633349, 36.130400999700001 ], [ -115.1633349, 36.130398299699998 ], [ -115.1633403, 36.130398299699998 ], [ -115.1633403, 36.130392899699999 ], [ -115.1633376, 36.130392899699999 ], [ -115.1633376, 36.130390199700003 ], [ -115.1633349, 36.130390199700003 ], [ -115.1633349, 36.130387499699999 ], [ -115.1633322, 36.130387499699999 ], [ -115.1633322, 36.130365899700003 ], [ -115.1633295, 36.130365899700003 ], [ -115.1633295, 36.130360499700004 ], [ -115.1633322, 36.130360499700004 ], [ -115.1633322, 36.130355099700004 ], [ -115.1633376, 36.130355099700004 ], [ -115.1633376, 36.130352399700001 ], [ -115.1633403, 36.130352399700001 ], [ -115.1633403, 36.130349699699998 ], [ -115.1633646, 36.130349699699998 ], [ -115.1633646, 36.130352399700001 ], [ -115.163372700000011, 36.130352399700001 ], [ -115.163372700000011, 36.130355099700004 ], [ -115.1633754, 36.130355099700004 ], [ -115.1633754, 36.1303577997 ], [ -115.1633808, 36.1303577997 ], [ -115.1633808, 36.130360499700004 ], [ -115.1633862, 36.130360499700004 ], [ -115.1633862, 36.130365899700003 ], [ -115.1633889, 36.130365899700003 ], [ -115.1633889, 36.130384799700003 ], [ -115.1633835, 36.130384799700003 ], [ -115.1633835, 36.130390199700003 ], [ -115.163391600000011, 36.130390199700003 ], [ -115.163391600000011, 36.130395599700002 ], [ -115.1633943, 36.130395599700002 ], [ -115.1633943, 36.130398299699998 ], [ -115.1633997, 36.130398299699998 ], [ -115.1633997, 36.130400999700001 ], [ -115.1634267, 36.130400999700001 ], [ -115.1634267, 36.130403699700004 ], [ -115.1634321, 36.130403699700004 ], [ -115.1634321, 36.1304063997 ], [ -115.1634375, 36.1304063997 ], [ -115.1634375, 36.130409099700003 ], [ -115.1634456, 36.130409099700003 ], [ -115.1634456, 36.130411799699999 ], [ -115.1634645, 36.130411799699999 ], [ -115.1634645, 36.130414499700002 ], [ -115.163478, 36.130414499700002 ], [ -115.163478, 36.130411799699999 ], [ -115.1635428, 36.130411799699999 ], [ -115.1635428, 36.130414499700002 ], [ -115.1636076, 36.130414499700002 ], [ -115.1636076, 36.130554899700002 ], [ -115.1635698, 36.130554899700002 ], [ -115.1635698, 36.130552199699999 ], [ -115.1635536, 36.130552199699999 ], [ -115.1635536, 36.130549499700003 ], [ -115.1635401, 36.130549499700003 ], [ -115.1635401, 36.130546799699999 ], [ -115.1634645, 36.130546799699999 ], [ -115.1634645, 36.130544099700003 ], [ -115.1634483, 36.130544099700003 ], [ -115.1634483, 36.130546799699999 ], [ -115.163397, 36.130546799699999 ], [ -115.163397, 36.130544099700003 ], [ -115.16337, 36.130544099700003 ], [ -115.16337, 36.130546799699999 ], [ -115.1632998, 36.130546799699999 ], [ -115.1632998, 36.130549499700003 ], [ -115.1632836, 36.130549499700003 ], [ -115.1632836, 36.130552199699999 ], [ -115.1632728, 36.130552199699999 ], [ -115.1632728, 36.130554899700002 ], [ -115.1632647, 36.130554899700002 ], [ -115.1632647, 36.130557599699998 ], [ -115.1632458, 36.130557599699998 ], [ -115.1632458, 36.130560299700001 ], [ -115.1632431, 36.130560299700001 ], [ -115.1632431, 36.1305656997 ], [ -115.1632404, 36.1305656997 ], [ -115.1632404, 36.130579199700001 ], [ -115.16323770000001, 36.130579199700001 ], [ -115.16323770000001, 36.130584599700001 ], [ -115.163235, 36.130584599700001 ], [ -115.163235, 36.130587299700004 ] ] ] } },
{ "type": "Feature", "properties": { "value": 255.0 }, "geometry": { "type": "Polygon", "coordinates": [ [ [ -115.162614, 36.1304981997 ], [ -115.1626032, 36.1304981997 ], [ -115.1626032, 36.130495499700004 ], [ -115.1625951, 36.130495499700004 ], [ -115.1625951, 36.130492799700001 ], [ -115.1625924, 36.130492799700001 ], [ -115.1625924, 36.130487399700002 ], [ -115.1625897, 36.130487399700002 ], [ -115.1625897, 36.130484699699998 ], [ -115.162587, 36.130484699699998 ], [ -115.162587, 36.130481999700002 ], [ -115.1625843, 36.130481999700002 ], [ -115.1625843, 36.130476599700003 ], [ -115.16258160000001, 36.130476599700003 ], [ -115.16258160000001, 36.130471199700004 ], [ -115.1625789, 36.130471199700004 ], [ -115.1625789, 36.130433399700003 ], [ -115.16258160000001, 36.130433399700003 ], [ -115.16258160000001, 36.130425299700001 ], [ -115.1625762, 36.130425299700001 ], [ -115.1625762, 36.130422599700005 ], [ -115.1625735, 36.130422599700005 ], [ -115.1625735, 36.130419899700001 ], [ -115.1625708, 36.130419899700001 ], [ -115.1625708, 36.130417199699998 ], [ -115.1625681, 36.130417199699998 ], [ -115.1625681, 36.130411799699999 ], [ -115.1625654, 36.130411799699999 ], [ -115.1625654, 36.130403699700004 ], [ -115.1625627, 36.130403699700004 ], [ -115.1625627, 36.130398299699998 ], [ -115.1625654, 36.130398299699998 ], [ -115.1625654, 36.130390199700003 ], [ -115.162551900000011, 36.130390199700003 ], [ -115.162551900000011, 36.130387499699999 ], [ -115.1625249, 36.130387499699999 ], [ -115.1625249, 36.130390199700003 ], [ -115.1624817, 36.130390199700003 ], [ -115.1624817, 36.130387499699999 ], [ -115.162479, 36.130387499699999 ], [ -115.162479, 36.130384799700003 ], [ -115.1624763, 36.130384799700003 ], [ -115.1624763, 36.1303820997 ], [ -115.1624736, 36.1303820997 ], [ -115.1624736, 36.130376699700001 ], [ -115.1624709, 36.130376699700001 ], [ -115.1624709, 36.1303577997 ], [ -115.1624682, 36.1303577997 ], [ -115.1624682, 36.1303388997 ], [ -115.1624709, 36.1303388997 ], [ -115.1624709, 36.130330799700005 ], [ -115.1624736, 36.130330799700005 ], [ -115.1624736, 36.130325399699998 ], [ -115.1624763, 36.130325399699998 ], [ -115.1624763, 36.1303145997 ], [ -115.162479, 36.1303145997 ], [ -115.162479, 36.130301099699999 ], [ -115.1624817, 36.130301099699999 ], [ -115.1624817, 36.130279499700002 ], [ -115.162484400000011, 36.130279499700002 ], [ -115.162484400000011, 36.130263299700005 ], [ -115.1624817, 36.130263299700005 ], [ -115.1624817, 36.130257899699998 ], [ -115.162479, 36.130257899699998 ], [ -115.162479, 36.130255199700002 ], [ -115.1624682, 36.130255199700002 ], [ -115.1624682, 36.130252499699999 ], [ -115.1624439, 36.130252499699999 ], [ -115.1624439, 36.130249799700003 ], [ -115.1623251, 36.130249799700003 ], [ -115.1623251, 36.1302470997 ], [ -115.1623197, 36.1302470997 ], [ -115.1623197, 36.130244399700004 ], [ -115.162317, 36.130244399700004 ], [ -115.162317, 36.130238999700005 ], [ -115.1623143, 36.130238999700005 ], [ -115.1623143, 36.130230899700003 ], [ -115.16231160000001, 36.130230899700003 ], [ -115.16231160000001, 36.130225499700003 ], [ -115.1623089, 36.130225499700003 ], [ -115.1623089, 36.130214699700005 ], [ -115.1623062, 36.130214699700005 ], [ -115.1623062, 36.130209299699999 ], [ -115.1623089, 36.130209299699999 ], [ -115.1623089, 36.130190399699998 ], [ -115.1623062, 36.130190399699998 ], [ -115.1623062, 36.130114799700003 ], [ -115.1623089, 36.130114799700003 ], [ -115.1623089, 36.130095899700002 ], [ -115.16231160000001, 36.130095899700002 ], [ -115.16231160000001, 36.130071599700003 ], [ -115.1623143, 36.130071599700003 ], [ -115.1623143, 36.1300634997 ], [ -115.162317, 36.1300634997 ], [ -115.162317, 36.130060799700004 ], [ -115.1623278, 36.130060799700004 ], [ -115.1623278, 36.130058099700001 ], [ -115.1623413, 36.130058099700001 ], [ -115.1623413, 36.130055399700005 ], [ -115.1623467, 36.130055399700005 ], [ -115.1623467, 36.130052699700002 ], [ -115.1623926, 36.130052699700002 ], [ -115.1623926, 36.130055399700005 ], [ -115.1623953, 36.130055399700005 ], [ -115.1623953, 36.130058099700001 ], [ -115.162398, 36.130058099700001 ], [ -115.162398, 36.130060799700004 ], [ -115.1624196, 36.130060799700004 ], [ -115.1624196, 36.1300634997 ], [ -115.1624331, 36.1300634997 ], [ -115.1624331, 36.130060799700004 ], [ -115.1625438, 36.130060799700004 ], [ -115.1625438, 36.1300634997 ], [ -115.1626221, 36.1300634997 ], [ -115.1626221, 36.130066199700003 ], [ -115.1626545, 36.130066199700003 ], [ -115.1626545, 36.1300634997 ], [ -115.162668, 36.1300634997 ], [ -115.162668, 36.130060799700004 ], [ -115.1627814, 36.130060799700004 ], [ -115.1627814, 36.130058099700001 ], [ -115.1627895, 36.130058099700001 ], [ -115.1627895, 36.130060799700004 ], [ -115.1627922, 36.130060799700004 ], [ -115.1627922, 36.1300634997 ], [ -115.1627949, 36.1300634997 ], [ -115.1627949, 36.130076999700002 ], [ -115.1627976, 36.130076999700002 ], [ -115.1627976, 36.130085099700004 ], [ -115.1627949, 36.130085099700004 ], [ -115.1627949, 36.130109399700004 ], [ -115.1627922, 36.130109399700004 ], [ -115.1627922, 36.130190399699998 ], [ -115.1627949, 36.130190399699998 ], [ -115.1627949, 36.130238999700005 ], [ -115.1627922, 36.130238999700005 ], [ -115.1627922, 36.130260599700001 ], [ -115.1627895, 36.130260599700001 ], [ -115.1627895, 36.130287599700004 ], [ -115.1627868, 36.130287599700004 ], [ -115.1627868, 36.130398299699998 ], [ -115.16278410000001, 36.130398299699998 ], [ -115.16278410000001, 36.130417199699998 ], [ -115.1627868, 36.130417199699998 ], [ -115.1627868, 36.130425299700001 ], [ -115.1627895, 36.130425299700001 ], [ -115.1627895, 36.130465799699998 ], [ -115.1627868, 36.130465799699998 ], [ -115.1627868, 36.130484699699998 ], [ -115.16278410000001, 36.130484699699998 ], [ -115.16278410000001, 36.130490099699998 ], [ -115.1627787, 36.130490099699998 ], [ -115.1627787, 36.130492799700001 ], [ -115.1627436, 36.130492799700001 ], [ -115.1627436, 36.130490099699998 ], [ -115.1627139, 36.130490099699998 ], [ -115.1627139, 36.130492799700001 ], [ -115.1626626, 36.130492799700001 ], [ -115.1626626, 36.130495499700004 ], [ -115.1626383, 36.130495499700004 ], [ -115.1626383, 36.130492799700001 ], [ -115.1626356, 36.130492799700001 ], [ -115.1626356, 36.130495499700004 ], [ -115.162614, 36.130495499700004 ], [ -115.162614, 36.1304981997 ] ] ] } }
]
}
