{
"type": "FeatureCollection",
"crs": { "type": "name", "properties": { "name": "urn:ogc:def:crs:OGC:1.3:CRS84" } },
"features": [
{ "type": "Feature", "properties": { "value": 255.0 }, "geometry": { "type": "Polygon", "coordinates": [ [ [ -115.24266630000001, 36.187573499799996 ], [ -115.2426015, 36.187573499799996 ], [ -115.2426015, 36.1875707998 ], [ -115.2425907, 36.1875707998 ], [ -115.2425907, 36.187568099799996 ], [ -115.2425853, 36.187568099799996 ], [ -115.2425853, 36.1875653998 ], [ -115.2425826, 36.1875653998 ], [ -115.2425826, 36.187473599800001 ], [ -115.242588, 36.187473599800001 ], [ -115.242588, 36.187470899799997 ], [ -115.2425907, 36.187470899799997 ], [ -115.2425907, 36.187468199800001 ], [ -115.2425934, 36.187468199800001 ], [ -115.2425934, 36.187465499799998 ], [ -115.2425961, 36.187465499799998 ], [ -115.2425961, 36.187460099799999 ], [ -115.2426015, 36.187460099799999 ], [ -115.2426015, 36.187457399799996 ], [ -115.2426204, 36.187457399799996 ], [ -115.2426204, 36.187460099799999 ], [ -115.2426258, 36.187460099799999 ], [ -115.2426258, 36.187462799800002 ], [ -115.2426285, 36.187462799800002 ], [ -115.2426285, 36.187465499799998 ], [ -115.2426312, 36.187465499799998 ], [ -115.2426312, 36.187468199800001 ], [ -115.2426339, 36.187468199800001 ], [ -115.2426339, 36.187470899799997 ], [ -115.2426393, 36.187470899799997 ], [ -115.2426393, 36.187473599800001 ], [ -115.242642, 36.187473599800001 ], [ -115.242642, 36.187476299799997 ], [ -115.2426447, 36.187476299799997 ], [ -115.2426447, 36.1874789998 ], [ -115.24264740000001, 36.1874789998 ], [ -115.24264740000001, 36.187484399799999 ], [ -115.2426501, 36.187484399799999 ], [ -115.2426501, 36.187487099800002 ], [ -115.2426528, 36.187487099800002 ], [ -115.2426528, 36.187492499800001 ], [ -115.242655500000012, 36.187492499800001 ], [ -115.242655500000012, 36.187505999800003 ], [ -115.2426528, 36.187505999800003 ], [ -115.2426528, 36.187516799800001 ], [ -115.242655500000012, 36.187516799800001 ], [ -115.242655500000012, 36.187519499799997 ], [ -115.2426771, 36.187519499799997 ], [ -115.2426771, 36.187514099799998 ], [ -115.2426798, 36.187514099799998 ], [ -115.2426798, 36.187511399800002 ], [ -115.2426825, 36.187511399800002 ], [ -115.2426825, 36.187508699799999 ], [ -115.2426879, 36.187508699799999 ], [ -115.2426879, 36.187505999800003 ], [ -115.2426933, 36.187505999800003 ], [ -115.2426933, 36.187503299799999 ], [ -115.2427014, 36.187503299799999 ], [ -115.2427014, 36.187500599799996 ], [ -115.2427068, 36.187500599799996 ], [ -115.2427068, 36.1874978998 ], [ -115.2427176, 36.1874978998 ], [ -115.2427176, 36.187500599799996 ], [ -115.242723, 36.187500599799996 ], [ -115.242723, 36.187503299799999 ], [ -115.2427284, 36.187503299799999 ], [ -115.2427284, 36.187505999800003 ], [ -115.242733800000011, 36.187505999800003 ], [ -115.242733800000011, 36.187508699799999 ], [ -115.242752700000011, 36.187508699799999 ], [ -115.242752700000011, 36.187505999800003 ], [ -115.2427689, 36.187505999800003 ], [ -115.2427689, 36.187508699799999 ], [ -115.2427716, 36.187508699799999 ], [ -115.2427716, 36.187514099799998 ], [ -115.2427743, 36.187514099799998 ], [ -115.2427743, 36.187543799799997 ], [ -115.2427716, 36.187543799799997 ], [ -115.2427716, 36.1875464998 ], [ -115.2427446, 36.1875464998 ], [ -115.2427446, 36.187549199799996 ], [ -115.2427014, 36.187549199799996 ], [ -115.2427014, 36.187554599800002 ], [ -115.2426987, 36.187554599800002 ], [ -115.2426987, 36.187562699799997 ], [ -115.242696, 36.187562699799997 ], [ -115.242696, 36.187568099799996 ], [ -115.2426906, 36.187568099799996 ], [ -115.2426906, 36.1875707998 ], [ -115.24266630000001, 36.1875707998 ], [ -115.24266630000001, 36.187573499799996 ] ] ] } },
{ "type": "Feature", "properties": { "value": 255.0 }, "geometry": { "type": "Polygon", "coordinates": [ [ [ -115.2431793, 36.1876571998 ], [ -115.2431739, 36.1876571998 ], [ -115.2431739, 36.187654499799997 ], [ -115.2431712, 36.187654499799997 ], [ -115.2431712, 36.187651799800001 ], [ -115.2431685, 36.187651799800001 ], [ -115.2431685, 36.187649099799998 ], [ -115.2431658, 36.187649099799998 ], [ -115.2431658, 36.187646399800002 ], [ -115.2431631, 36.187646399800002 ], [ -115.2431631, 36.187643699799999 ], [ -115.2431604, 36.187643699799999 ], [ -115.2431604, 36.187640999799996 ], [ -115.243155, 36.187640999799996 ], [ -115.243155, 36.1876382998 ], [ -115.2431172, 36.1876382998 ], [ -115.2431172, 36.187635599799997 ], [ -115.2430551, 36.187635599799997 ], [ -115.2430551, 36.1876382998 ], [ -115.2430065, 36.1876382998 ], [ -115.2430065, 36.187640999799996 ], [ -115.2429714, 36.187640999799996 ], [ -115.2429714, 36.1876382998 ], [ -115.242966, 36.1876382998 ], [ -115.242966, 36.187640999799996 ], [ -115.242868800000011, 36.187640999799996 ], [ -115.242868800000011, 36.1876382998 ], [ -115.2428634, 36.1876382998 ], [ -115.2428634, 36.187635599799997 ], [ -115.242858, 36.187635599799997 ], [ -115.242858, 36.187632899800001 ], [ -115.2428553, 36.187632899800001 ], [ -115.2428553, 36.187627499800001 ], [ -115.2428526, 36.187627499800001 ], [ -115.2428526, 36.1876139998 ], [ -115.24284990000001, 36.1876139998 ], [ -115.24284990000001, 36.187603199800002 ], [ -115.2428472, 36.187603199800002 ], [ -115.2428472, 36.187595099799999 ], [ -115.24284990000001, 36.187595099799999 ], [ -115.24284990000001, 36.187592399799996 ], [ -115.2428526, 36.187592399799996 ], [ -115.2428526, 36.187581599799998 ], [ -115.2428553, 36.187581599799998 ], [ -115.2428553, 36.187551899799999 ], [ -115.2428526, 36.187551899799999 ], [ -115.2428526, 36.187541099800001 ], [ -115.24284990000001, 36.187541099800001 ], [ -115.24284990000001, 36.1874978998 ], [ -115.2428472, 36.1874978998 ], [ -115.2428472, 36.187487099800002 ], [ -115.2428445, 36.187487099800002 ], [ -115.2428445, 36.187481699799996 ], [ -115.2428418, 36.187481699799996 ], [ -115.2428418, 36.1874789998 ], [ -115.2428391, 36.1874789998 ], [ -115.2428391, 36.187476299799997 ], [ -115.2428364, 36.187476299799997 ], [ -115.2428364, 36.187460099799999 ], [ -115.2428391, 36.187460099799999 ], [ -115.2428391, 36.1874546998 ], [ -115.2428418, 36.1874546998 ], [ -115.2428418, 36.187449299800001 ], [ -115.2428445, 36.187449299800001 ], [ -115.2428445, 36.187441199799999 ], [ -115.2428418, 36.187441199799999 ], [ -115.2428418, 36.187438499800002 ], [ -115.2428364, 36.187438499800002 ], [ -115.2428364, 36.187435799799999 ], [ -115.242831, 36.187435799799999 ], [ -115.242831, 36.1874303998 ], [ -115.2428283, 36.1874303998 ], [ -115.2428283, 36.187427699799997 ], [ -115.2428256, 36.187427699799997 ], [ -115.2428256, 36.187422299799998 ], [ -115.2428229, 36.187422299799998 ], [ -115.2428229, 36.187419599800002 ], [ -115.242820200000011, 36.187419599800002 ], [ -115.242820200000011, 36.187389899799996 ], [ -115.2428229, 36.187389899799996 ], [ -115.2428229, 36.187373699799998 ], [ -115.2428256, 36.187373699799998 ], [ -115.2428256, 36.1873385998 ], [ -115.2428229, 36.1873385998 ], [ -115.2428229, 36.187316999799997 ], [ -115.242820200000011, 36.187316999799997 ], [ -115.242820200000011, 36.187311599799997 ], [ -115.2428175, 36.187311599799997 ], [ -115.2428175, 36.187303499800002 ], [ -115.2428148, 36.187303499800002 ], [ -115.2428148, 36.187298099800003 ], [ -115.2428121, 36.187298099800003 ], [ -115.2428121, 36.187287299799998 ], [ -115.2428148, 36.187287299799998 ], [ -115.2428148, 36.187284599800002 ], [ -115.2428175, 36.187284599800002 ], [ -115.2428175, 36.187281899799999 ], [ -115.2428391, 36.187281899799999 ], [ -115.2428391, 36.187284599800002 ], [ -115.2428553, 36.187284599800002 ], [ -115.2428553, 36.187287299799998 ], [ -115.2428904, 36.187287299799998 ], [ -115.2428904, 36.187284599800002 ], [ -115.2429039, 36.187284599800002 ], [ -115.2429039, 36.187287299799998 ], [ -115.2429066, 36.187287299799998 ], [ -115.2429066, 36.187284599800002 ], [ -115.2429525, 36.187284599800002 ], [ -115.2429525, 36.187287299799998 ], [ -115.2429552, 36.187287299799998 ], [ -115.2429552, 36.187284599800002 ], [ -115.2429579, 36.187284599800002 ], [ -115.2429579, 36.187287299799998 ], [ -115.242966, 36.187287299799998 ], [ -115.242966, 36.187289999800001 ], [ -115.2429741, 36.187289999800001 ], [ -115.2429741, 36.187292699799997 ], [ -115.2429822, 36.187292699799997 ], [ -115.2429822, 36.1872953998 ], [ -115.2429849, 36.1872953998 ], [ -115.2429849, 36.187306199799998 ], [ -115.2429876, 36.187306199799998 ], [ -115.2429876, 36.187322399800003 ], [ -115.2429849, 36.187322399800003 ], [ -115.2429849, 36.187357499800001 ], [ -115.2429876, 36.187357499800001 ], [ -115.2429876, 36.187408799799996 ], [ -115.2429849, 36.187408799799996 ], [ -115.2429849, 36.1874114998 ], [ -115.2429795, 36.1874114998 ], [ -115.2429795, 36.187414199800003 ], [ -115.2429552, 36.187414199800003 ], [ -115.2429552, 36.187416899799999 ], [ -115.2428769, 36.187416899799999 ], [ -115.2428769, 36.187419599800002 ], [ -115.2428634, 36.187419599800002 ], [ -115.2428634, 36.187422299799998 ], [ -115.2428553, 36.187422299799998 ], [ -115.2428553, 36.187427699799997 ], [ -115.2428607, 36.187427699799997 ], [ -115.2428607, 36.1874303998 ], [ -115.2428634, 36.1874303998 ], [ -115.2428634, 36.187433099799996 ], [ -115.242885, 36.187433099799996 ], [ -115.242885, 36.1874303998 ], [ -115.2429012, 36.1874303998 ], [ -115.2429012, 36.187427699799997 ], [ -115.2429309, 36.187427699799997 ], [ -115.2429309, 36.1874303998 ], [ -115.2429552, 36.1874303998 ], [ -115.2429552, 36.187433099799996 ], [ -115.2430686, 36.187433099799996 ], [ -115.2430686, 36.1874303998 ], [ -115.2430848, 36.1874303998 ], [ -115.2430848, 36.187433099799996 ], [ -115.243101, 36.187433099799996 ], [ -115.243101, 36.1874303998 ], [ -115.2431415, 36.1874303998 ], [ -115.2431415, 36.187433099799996 ], [ -115.2431604, 36.187433099799996 ], [ -115.2431604, 36.187435799799999 ], [ -115.2431631, 36.187435799799999 ], [ -115.2431631, 36.187438499800002 ], [ -115.2431658, 36.187438499800002 ], [ -115.2431658, 36.187441199799999 ], [ -115.2431685, 36.187441199799999 ], [ -115.2431685, 36.187443899800002 ], [ -115.2431712, 36.187443899800002 ], [ -115.2431712, 36.187446599799998 ], [ -115.2431739, 36.187446599799998 ], [ -115.2431739, 36.187449299800001 ], [ -115.2431928, 36.187449299800001 ], [ -115.2431928, 36.187451999799997 ], [ -115.2432549, 36.187451999799997 ], [ -115.2432549, 36.187449299800001 ], [ -115.2433818, 36.187449299800001 ], [ -115.2433818, 36.187451999799997 ], [ -115.2434439, 36.187451999799997 ], [ -115.2434439, 36.1874546998 ], [ -115.2434493, 36.1874546998 ], [ -115.2434493, 36.187457399799996 ], [ -115.243452, 36.187457399799996 ], [ -115.243452, 36.187460099799999 ], [ -115.2434493, 36.187460099799999 ], [ -115.2434493, 36.187465499799998 ], [ -115.243452, 36.187465499799998 ], [ -115.243452, 36.187468199800001 ], [ -115.2434547, 36.187468199800001 ], [ -115.2434547, 36.187470899799997 ], [ -115.2434574, 36.187470899799997 ], [ -115.2434574, 36.187473599800001 ], [ -115.2434601, 36.187473599800001 ], [ -115.2434601, 36.1874789998 ], [ -115.2434628, 36.1874789998 ], [ -115.2434628, 36.187487099800002 ], [ -115.2434655, 36.187487099800002 ], [ -115.2434655, 36.1874978998 ], [ -115.2434682, 36.1874978998 ], [ -115.2434682, 36.187500599799996 ], [ -115.2434709, 36.187500599799996 ], [ -115.2434709, 36.187524899799996 ], [ -115.2434682, 36.187524899799996 ], [ -115.2434682, 36.187535699800002 ], [ -115.2434655, 36.187535699800002 ], [ -115.2434655, 36.187538399799998 ], [ -115.2434682, 36.187538399799998 ], [ -115.2434682, 36.187549199799996 ], [ -115.2434709, 36.187549199799996 ], [ -115.2434709, 36.187576199799999 ], [ -115.2434736, 36.187576199799999 ], [ -115.2434736, 36.187595099799999 ], [ -115.2434709, 36.187595099799999 ], [ -115.2434709, 36.187627499800001 ], [ -115.2434682, 36.187627499800001 ], [ -115.2434682, 36.187635599799997 ], [ -115.2434655, 36.187635599799997 ], [ -115.2434655, 36.187643699799999 ], [ -115.2434628, 36.187643699799999 ], [ -115.2434628, 36.187646399800002 ], [ -115.2434601, 36.187646399800002 ], [ -115.2434601, 36.187649099799998 ], [ -115.2433575, 36.187649099799998 ], [ -115.2433575, 36.187651799800001 ], [ -115.2432684, 36.187651799800001 ], [ -115.2432684, 36.187654499799997 ], [ -115.2431793, 36.187654499799997 ], [ -115.2431793, 36.1876571998 ] ] ] } },
{ "type": "Feature", "properties": { "value": 255.0 }, "geometry": { "type": "Polygon", "coordinates": [ [ [ -115.2429552, 36.186736499799999 ], [ -115.2429525, 36.186736499799999 ], [ -115.2429525, 36.186733799800002 ], [ -115.2429498, 36.186733799800002 ], [ -115.2429498, 36.186731099799999 ], [ -115.2429471, 36.186731099799999 ], [ -115.2429471, 36.186728399800003 ], [ -115.2429417, 36.186728399800003 ], [ -115.2429417, 36.1867256998 ], [ -115.2429363, 36.1867256998 ], [ -115.2429363, 36.186720299800001 ], [ -115.242939, 36.186720299800001 ], [ -115.242939, 36.186717599799998 ], [ -115.2429552, 36.186717599799998 ], [ -115.2429552, 36.186736499799999 ] ] ] } },
{ "type": "Feature", "properties": { "value": 255.0 }, "geometry": { "type": "Polygon", "coordinates": [ [ [ -115.2430416, 36.186744599800001 ], [ -115.24302, 36.186744599800001 ], [ -115.24302, 36.186741899799998 ], [ -115.2430065, 36.186741899799998 ], [ -115.2430065, 36.186739199800002 ], [ -115.2430038, 36.186739199800002 ], [ -115.2430038, 36.186736499799999 ], [ -115.2430011, 36.186736499799999 ], [ -115.2430011, 36.186733799800002 ], [ -115.2429957, 36.186733799800002 ], [ -115.2429957, 36.186731099799999 ], [ -115.2429714, 36.186731099799999 ], [ -115.2429714, 36.186728399800003 ], [ -115.2429687, 36.186728399800003 ], [ -115.2429687, 36.186722999800004 ], [ -115.2429741, 36.186722999800004 ], [ -115.2429741, 36.186720299800001 ], [ -115.2429849, 36.186720299800001 ], [ -115.2429849, 36.186722999800004 ], [ -115.2429957, 36.186722999800004 ], [ -115.2429957, 36.186720299800001 ], [ -115.2430065, 36.186720299800001 ], [ -115.2430065, 36.186717599799998 ], [ -115.2430146, 36.186717599799998 ], [ -115.2430146, 36.186720299800001 ], [ -115.2430497, 36.186720299800001 ], [ -115.2430497, 36.186722999800004 ], [ -115.2430524, 36.186722999800004 ], [ -115.2430524, 36.186728399800003 ], [ -115.2430497, 36.186728399800003 ], [ -115.2430497, 36.186733799800002 ], [ -115.243047, 36.186733799800002 ], [ -115.243047, 36.186739199800002 ], [ -115.2430443, 36.186739199800002 ], [ -115.2430443, 36.186741899799998 ], [ -115.2430416, 36.186741899799998 ], [ -115.2430416, 36.186744599800001 ] ] ] } },
{ "type": "Feature", "properties": { "value": 255.0 }, "geometry": { "type": "Polygon", "coordinates": [ [ [ -115.2426258, 36.1867499998 ], [ -115.242588, 36.1867499998 ], [ -115.242588, 36.186747299800004 ], [ -115.2425826, 36.186747299800004 ], [ -115.2425826, 36.186628499800001 ], [ -115.242588, 36.186628499800001 ], [ -115.242588, 36.186631199800004 ], [ -115.24259880000001, 36.186631199800004 ], [ -115.24259880000001, 36.186628499800001 ], [ -115.2426123, 36.186628499800001 ], [ -115.2426123, 36.186631199800004 ], [ -115.2426258, 36.186631199800004 ], [ -115.2426258, 36.1866338998 ], [ -115.2426285, 36.1866338998 ], [ -115.2426285, 36.186636599800003 ], [ -115.2426312, 36.186636599800003 ], [ -115.2426312, 36.186647399800002 ], [ -115.2426339, 36.186647399800002 ], [ -115.2426339, 36.186650099799998 ], [ -115.242636600000012, 36.186650099799998 ], [ -115.242636600000012, 36.186652799800001 ], [ -115.2426393, 36.186652799800001 ], [ -115.2426393, 36.186666299800002 ], [ -115.242642, 36.186666299800002 ], [ -115.242642, 36.1867067998 ], [ -115.2426447, 36.1867067998 ], [ -115.2426447, 36.186714899800002 ], [ -115.24264740000001, 36.186714899800002 ], [ -115.24264740000001, 36.186720299800001 ], [ -115.2426447, 36.186720299800001 ], [ -115.2426447, 36.1867256998 ], [ -115.242642, 36.1867256998 ], [ -115.242642, 36.186736499799999 ], [ -115.2426393, 36.186736499799999 ], [ -115.2426393, 36.186741899799998 ], [ -115.242636600000012, 36.186741899799998 ], [ -115.242636600000012, 36.186744599800001 ], [ -115.2426339, 36.186744599800001 ], [ -115.2426339, 36.186747299800004 ], [ -115.2426258, 36.186747299800004 ], [ -115.2426258, 36.1867499998 ] ] ] } },
{ "type": "Feature", "properties": { "value": 255.0 }, "geometry": { "type": "Polygon", "coordinates": [ [ [ -115.244051399999989, 36.1867256998 ], [ -115.2440001, 36.1867256998 ], [ -115.2440001, 36.186722999800004 ], [ -115.2439947, 36.186722999800004 ], [ -115.2439947, 36.186720299800001 ], [ -115.243992, 36.186720299800001 ], [ -115.243992, 36.186714899800002 ], [ -115.2439893, 36.186714899800002 ], [ -115.2439893, 36.186704099800004 ], [ -115.243992, 36.186704099800004 ], [ -115.243992, 36.186693299799998 ], [ -115.2439947, 36.186693299799998 ], [ -115.2439947, 36.186687899799999 ], [ -115.243992, 36.186687899799999 ], [ -115.243992, 36.1865474998 ], [ -115.2439947, 36.1865474998 ], [ -115.2439947, 36.186493499800001 ], [ -115.2439974, 36.186493499800001 ], [ -115.2439974, 36.186490799800005 ], [ -115.2439947, 36.186490799800005 ], [ -115.2439947, 36.186477299800003 ], [ -115.2439974, 36.186477299800003 ], [ -115.2439974, 36.186471899800004 ], [ -115.2440001, 36.186471899800004 ], [ -115.2440001, 36.186469199800001 ], [ -115.2440568, 36.186469199800001 ], [ -115.2440568, 36.186466499799998 ], [ -115.2440649, 36.186466499799998 ], [ -115.2440649, 36.186539399800004 ], [ -115.2440622, 36.186539399800004 ], [ -115.2440622, 36.1865474998 ], [ -115.2440649, 36.1865474998 ], [ -115.2440649, 36.1867013998 ], [ -115.2440622, 36.1867013998 ], [ -115.2440622, 36.186717599799998 ], [ -115.2440595, 36.186717599799998 ], [ -115.2440595, 36.186720299800001 ], [ -115.2440568, 36.186720299800001 ], [ -115.2440568, 36.186722999800004 ], [ -115.244051399999989, 36.186722999800004 ], [ -115.244051399999989, 36.1867256998 ] ] ] } },
{ "type": "Feature", "properties": { "value": 255.0 }, "geometry": { "type": "Polygon", "coordinates": [ [ [ -115.2437112, 36.186639299799999 ], [ -115.2436896, 36.186639299799999 ], [ -115.2436896, 36.186636599800003 ], [ -115.243587, 36.186636599800003 ], [ -115.243587, 36.1866338998 ], [ -115.2435519, 36.1866338998 ], [ -115.2435519, 36.186631199800004 ], [ -115.2435006, 36.186631199800004 ], [ -115.2435006, 36.1866338998 ], [ -115.2432657, 36.1866338998 ], [ -115.2432657, 36.186631199800004 ], [ -115.243236, 36.186631199800004 ], [ -115.243236, 36.186628499800001 ], [ -115.2431928, 36.186628499800001 ], [ -115.2431928, 36.186631199800004 ], [ -115.2431577, 36.186631199800004 ], [ -115.2431577, 36.1866338998 ], [ -115.2431118, 36.1866338998 ], [ -115.2431118, 36.186631199800004 ], [ -115.2430848, 36.186631199800004 ], [ -115.2430848, 36.186628499800001 ], [ -115.2430578, 36.186628499800001 ], [ -115.2430578, 36.186631199800004 ], [ -115.2429795, 36.186631199800004 ], [ -115.2429795, 36.186628499800001 ], [ -115.2428553, 36.186628499800001 ], [ -115.2428553, 36.186631199800004 ], [ -115.2427905, 36.186631199800004 ], [ -115.2427905, 36.186628499800001 ], [ -115.2427878, 36.186628499800001 ], [ -115.2427878, 36.186625799799998 ], [ -115.2427851, 36.186625799799998 ], [ -115.2427851, 36.186609599800001 ], [ -115.24278240000001, 36.186609599800001 ], [ -115.24278240000001, 36.186604199800001 ], [ -115.2427797, 36.186604199800001 ], [ -115.2427797, 36.186598799800002 ], [ -115.2427716, 36.186598799800002 ], [ -115.2427716, 36.186596099799999 ], [ -115.2427554, 36.186596099799999 ], [ -115.2427554, 36.186593399800003 ], [ -115.24275, 36.186593399800003 ], [ -115.24275, 36.1865906998 ], [ -115.2427473, 36.1865906998 ], [ -115.2427473, 36.186585299800001 ], [ -115.2427446, 36.186585299800001 ], [ -115.2427446, 36.186544799800004 ], [ -115.2427473, 36.186544799800004 ], [ -115.2427473, 36.186509699799998 ], [ -115.2427446, 36.186509699799998 ], [ -115.2427446, 36.1864988998 ], [ -115.2427473, 36.1864988998 ], [ -115.2427473, 36.186490799800005 ], [ -115.24275, 36.186490799800005 ], [ -115.24275, 36.186485399799999 ], [ -115.242752700000011, 36.186485399799999 ], [ -115.242752700000011, 36.1864745998 ], [ -115.2427554, 36.1864745998 ], [ -115.2427554, 36.186471899800004 ], [ -115.2427581, 36.186471899800004 ], [ -115.2427581, 36.186469199800001 ], [ -115.2427608, 36.186469199800001 ], [ -115.2427608, 36.186466499799998 ], [ -115.2427662, 36.186466499799998 ], [ -115.2427662, 36.186463799800002 ], [ -115.2427689, 36.186463799800002 ], [ -115.2427689, 36.186461099799999 ], [ -115.2427716, 36.186461099799999 ], [ -115.2427716, 36.186452999800004 ], [ -115.2427743, 36.186452999800004 ], [ -115.2427743, 36.186439499800002 ], [ -115.242777, 36.186439499800002 ], [ -115.242777, 36.1864313998 ], [ -115.2427797, 36.1864313998 ], [ -115.2427797, 36.186428699800004 ], [ -115.2430929, 36.186428699800004 ], [ -115.2430929, 36.186425999800001 ], [ -115.2431199, 36.186425999800001 ], [ -115.2431199, 36.186428699800004 ], [ -115.243263, 36.186428699800004 ], [ -115.243263, 36.1864313998 ], [ -115.2433224, 36.1864313998 ], [ -115.2433224, 36.186428699800004 ], [ -115.243506, 36.186428699800004 ], [ -115.243506, 36.1864313998 ], [ -115.2435168, 36.1864313998 ], [ -115.2435168, 36.186428699800004 ], [ -115.2435276, 36.186428699800004 ], [ -115.2435276, 36.1864313998 ], [ -115.2435519, 36.1864313998 ], [ -115.2435519, 36.186428699800004 ], [ -115.24356, 36.186428699800004 ], [ -115.24356, 36.1864313998 ], [ -115.2438786, 36.1864313998 ], [ -115.2438786, 36.186434099800003 ], [ -115.2438921, 36.186434099800003 ], [ -115.2438921, 36.186436799799999 ], [ -115.2438948, 36.186436799799999 ], [ -115.2438948, 36.186501599800003 ], [ -115.2438975, 36.186501599800003 ], [ -115.2438975, 36.186606899800005 ], [ -115.2438948, 36.186606899800005 ], [ -115.2438948, 36.186631199800004 ], [ -115.2438921, 36.186631199800004 ], [ -115.2438921, 36.1866338998 ], [ -115.2438894, 36.1866338998 ], [ -115.2438894, 36.186636599800003 ], [ -115.2437814, 36.186636599800003 ], [ -115.2437814, 36.1866338998 ], [ -115.2437571, 36.1866338998 ], [ -115.2437571, 36.186636599800003 ], [ -115.2437112, 36.186636599800003 ], [ -115.2437112, 36.186639299799999 ] ] ] } },
{ "type": "Feature", "properties": { "value": 255.0 }, "geometry": { "type": "Polygon", "coordinates": [ [ [ -115.24259880000001, 36.186434099800003 ], [ -115.2425826, 36.186434099800003 ], [ -115.2425826, 36.1863206998 ], [ -115.2425907, 36.1863206998 ], [ -115.2425907, 36.186317999800004 ], [ -115.2426231, 36.186317999800004 ], [ -115.2426231, 36.1863206998 ], [ -115.2426393, 36.1863206998 ], [ -115.2426393, 36.186323399800003 ], [ -115.242642, 36.186323399800003 ], [ -115.242642, 36.186326099799999 ], [ -115.2426447, 36.186326099799999 ], [ -115.2426447, 36.186344999799999 ], [ -115.24264740000001, 36.186344999799999 ], [ -115.24264740000001, 36.1863827998 ], [ -115.2426447, 36.1863827998 ], [ -115.2426447, 36.186425999800001 ], [ -115.242642, 36.186425999800001 ], [ -115.242642, 36.1864313998 ], [ -115.24259880000001, 36.1864313998 ], [ -115.24259880000001, 36.186434099800003 ] ] ] } },
{ "type": "Feature", "properties": { "value": 255.0 }, "geometry": { "type": "Polygon", "coordinates": [ [ [ -115.2440244, 36.186425999800001 ], [ -115.2440136, 36.186425999800001 ], [ -115.2440136, 36.186423299800005 ], [ -115.2440109, 36.186423299800005 ], [ -115.2440109, 36.186420599800002 ], [ -115.2440082, 36.186420599800002 ], [ -115.2440082, 36.186417899799999 ], [ -115.2440055, 36.186417899799999 ], [ -115.2440055, 36.186412499799999 ], [ -115.2440028, 36.186412499799999 ], [ -115.2440028, 36.186409799800003 ], [ -115.2440001, 36.186409799800003 ], [ -115.2440001, 36.186404399800004 ], [ -115.2439974, 36.186404399800004 ], [ -115.2439974, 36.186366599800003 ], [ -115.2440001, 36.186366599800003 ], [ -115.2440001, 36.186355799800005 ], [ -115.2439974, 36.186355799800005 ], [ -115.2439974, 36.186353099800002 ], [ -115.2439947, 36.186353099800002 ], [ -115.2439947, 36.186350399799998 ], [ -115.243425, 36.186350399799998 ], [ -115.243425, 36.186347699800002 ], [ -115.2433629, 36.186347699800002 ], [ -115.2433629, 36.186350399799998 ], [ -115.2433575, 36.186350399799998 ], [ -115.2433575, 36.186347699800002 ], [ -115.2431523, 36.186347699800002 ], [ -115.2431523, 36.186344999799999 ], [ -115.2430713, 36.186344999799999 ], [ -115.2430713, 36.186347699800002 ], [ -115.2430605, 36.186347699800002 ], [ -115.2430605, 36.186344999799999 ], [ -115.2429579, 36.186344999799999 ], [ -115.2429579, 36.186347699800002 ], [ -115.2429552, 36.186347699800002 ], [ -115.2429552, 36.186344999799999 ], [ -115.2427932, 36.186344999799999 ], [ -115.2427932, 36.186342299800003 ], [ -115.2427311, 36.186342299800003 ], [ -115.2427311, 36.1863395998 ], [ -115.2427257, 36.1863395998 ], [ -115.2427257, 36.186336899800004 ], [ -115.2427203, 36.186336899800004 ], [ -115.2427203, 36.186331499800005 ], [ -115.2427176, 36.186331499800005 ], [ -115.2427176, 36.186328799800002 ], [ -115.2427203, 36.186328799800002 ], [ -115.2427203, 36.1863152998 ], [ -115.242723, 36.1863152998 ], [ -115.242723, 36.186307199800005 ], [ -115.2427257, 36.186307199800005 ], [ -115.2427257, 36.186304499800002 ], [ -115.2427284, 36.186304499800002 ], [ -115.2427284, 36.186301799799999 ], [ -115.242733800000011, 36.186301799799999 ], [ -115.242733800000011, 36.186299099800003 ], [ -115.2427554, 36.186299099800003 ], [ -115.2427554, 36.1862963998 ], [ -115.242777, 36.1862963998 ], [ -115.242777, 36.186293699800004 ], [ -115.2427986, 36.186293699800004 ], [ -115.2427986, 36.1862963998 ], [ -115.2428121, 36.1862963998 ], [ -115.2428121, 36.186299099800003 ], [ -115.242831, 36.186299099800003 ], [ -115.242831, 36.186301799799999 ], [ -115.242868800000011, 36.186301799799999 ], [ -115.242868800000011, 36.186304499800002 ], [ -115.2429039, 36.186304499800002 ], [ -115.2429039, 36.186301799799999 ], [ -115.2429552, 36.186301799799999 ], [ -115.2429552, 36.186299099800003 ], [ -115.2430551, 36.186299099800003 ], [ -115.2430551, 36.186301799799999 ], [ -115.2430713, 36.186301799799999 ], [ -115.2430713, 36.186299099800003 ], [ -115.2431469, 36.186299099800003 ], [ -115.2431469, 36.186301799799999 ], [ -115.2431766, 36.186301799799999 ], [ -115.2431766, 36.186299099800003 ], [ -115.243236, 36.186299099800003 ], [ -115.243236, 36.1862963998 ], [ -115.2432468, 36.1862963998 ], [ -115.2432468, 36.186299099800003 ], [ -115.2432954, 36.186299099800003 ], [ -115.2432954, 36.186301799799999 ], [ -115.2433197, 36.186301799799999 ], [ -115.2433197, 36.186304499800002 ], [ -115.2433548, 36.186304499800002 ], [ -115.2433548, 36.186301799799999 ], [ -115.2434682, 36.186301799799999 ], [ -115.2434682, 36.186304499800002 ], [ -115.2435384, 36.186304499800002 ], [ -115.2435384, 36.186301799799999 ], [ -115.2435573, 36.186301799799999 ], [ -115.2435573, 36.186299099800003 ], [ -115.2435978, 36.186299099800003 ], [ -115.2435978, 36.186301799799999 ], [ -115.2436302, 36.186301799799999 ], [ -115.2436302, 36.186299099800003 ], [ -115.2436383, 36.186299099800003 ], [ -115.2436383, 36.186301799799999 ], [ -115.2436626, 36.186301799799999 ], [ -115.2436626, 36.186299099800003 ], [ -115.2436923, 36.186299099800003 ], [ -115.2436923, 36.186301799799999 ], [ -115.2437571, 36.186301799799999 ], [ -115.2437571, 36.186304499800002 ], [ -115.2437868, 36.186304499800002 ], [ -115.2437868, 36.186307199800005 ], [ -115.2438138, 36.186307199800005 ], [ -115.2438138, 36.186304499800002 ], [ -115.2438435, 36.186304499800002 ], [ -115.2438435, 36.186301799799999 ], [ -115.2438678, 36.186301799799999 ], [ -115.2438678, 36.186304499800002 ], [ -115.2439218, 36.186304499800002 ], [ -115.2439218, 36.186307199800005 ], [ -115.2439353, 36.186307199800005 ], [ -115.2439353, 36.186304499800002 ], [ -115.2440352, 36.186304499800002 ], [ -115.2440352, 36.186307199800005 ], [ -115.2440487, 36.186307199800005 ], [ -115.2440487, 36.186309899800001 ], [ -115.2440568, 36.186309899800001 ], [ -115.2440568, 36.186312599800004 ], [ -115.2440595, 36.186312599800004 ], [ -115.2440595, 36.1863152998 ], [ -115.2440622, 36.1863152998 ], [ -115.2440622, 36.186317999800004 ], [ -115.2440649, 36.186317999800004 ], [ -115.2440649, 36.186326099799999 ], [ -115.2440676, 36.186326099799999 ], [ -115.2440676, 36.186409799800003 ], [ -115.2440649, 36.186409799800003 ], [ -115.2440649, 36.186420599800002 ], [ -115.2440541, 36.186420599800002 ], [ -115.2440541, 36.186417899799999 ], [ -115.244051399999989, 36.186417899799999 ], [ -115.244051399999989, 36.186415199800003 ], [ -115.244046, 36.186415199800003 ], [ -115.244046, 36.186412499799999 ], [ -115.2440298, 36.186412499799999 ], [ -115.2440298, 36.186415199800003 ], [ -115.2440271, 36.186415199800003 ], [ -115.2440271, 36.186417899799999 ], [ -115.2440352, 36.186417899799999 ], [ -115.2440352, 36.186423299800005 ], [ -115.2440244, 36.186423299800005 ], [ -115.2440244, 36.186425999800001 ] ] ] } },
{ "type": "Feature", "properties": { "value": 255.0 }, "geometry": { "type": "Polygon", "coordinates": [ [ [ -115.242685200000011, 36.186309899800001 ], [ -115.2426744, 36.186309899800001 ], [ -115.2426744, 36.186307199800005 ], [ -115.24266630000001, 36.186307199800005 ], [ -115.24266630000001, 36.186304499800002 ], [ -115.2426636, 36.186304499800002 ], [ -115.2426636, 36.186301799799999 ], [ -115.242669, 36.186301799799999 ], [ -115.242669, 36.186299099800003 ], [ -115.2426717, 36.186299099800003 ], [ -115.2426717, 36.1862963998 ], [ -115.2426798, 36.1862963998 ], [ -115.2426798, 36.186293699800004 ], [ -115.242696, 36.186293699800004 ], [ -115.242696, 36.1862963998 ], [ -115.2426987, 36.1862963998 ], [ -115.2426987, 36.186304499800002 ], [ -115.2426933, 36.186304499800002 ], [ -115.2426933, 36.186307199800005 ], [ -115.242685200000011, 36.186307199800005 ], [ -115.242685200000011, 36.186309899800001 ] ] ] } },
{ "type": "Feature", "properties": { "value": 255.0 }, "geometry": { "type": "Polygon", "coordinates": [ [ [ -115.2425853, 36.186282899800005 ], [ -115.2425826, 36.186282899800005 ], [ -115.2425826, 36.186212699800002 ], [ -115.24266630000001, 36.186212699800002 ], [ -115.24266630000001, 36.1862720998 ], [ -115.2426636, 36.1862720998 ], [ -115.2426636, 36.186277499799999 ], [ -115.2426339, 36.186277499799999 ], [ -115.2426339, 36.186280199800002 ], [ -115.2425853, 36.186280199800002 ], [ -115.2425853, 36.186282899800005 ] ] ] } },
{ "type": "Feature", "properties": { "value": 255.0 }, "geometry": { "type": "Polygon", "coordinates": [ [ [ -115.2428229, 36.186236999800002 ], [ -115.242777, 36.186236999800002 ], [ -115.242777, 36.186231599800003 ], [ -115.2427743, 36.186231599800003 ], [ -115.2427743, 36.186212699800002 ], [ -115.2432576, 36.186212699800002 ], [ -115.2432576, 36.186223499800001 ], [ -115.2432549, 36.186223499800001 ], [ -115.2432549, 36.186226199800004 ], [ -115.2432522, 36.186226199800004 ], [ -115.2432522, 36.1862288998 ], [ -115.2432225, 36.1862288998 ], [ -115.2432225, 36.186226199800004 ], [ -115.2430632, 36.186226199800004 ], [ -115.2430632, 36.1862288998 ], [ -115.2430173, 36.1862288998 ], [ -115.2430173, 36.186231599800003 ], [ -115.2430092, 36.186231599800003 ], [ -115.2430092, 36.186234299799999 ], [ -115.2429714, 36.186234299799999 ], [ -115.2429714, 36.186231599800003 ], [ -115.2429444, 36.186231599800003 ], [ -115.2429444, 36.186234299799999 ], [ -115.2429336, 36.186234299799999 ], [ -115.2429336, 36.186231599800003 ], [ -115.2429255, 36.186231599800003 ], [ -115.2429255, 36.186234299799999 ], [ -115.2428229, 36.186234299799999 ], [ -115.2428229, 36.186236999800002 ] ] ] } },
{ "type": "Feature", "properties": { "value": 255.0 }, "geometry": { "type": "Polygon", "coordinates": [ [ [ -115.2439947, 36.186223499800001 ], [ -115.243965, 36.186223499800001 ], [ -115.243965, 36.186220799800004 ], [ -115.2439515, 36.186220799800004 ], [ -115.2439515, 36.186218099800001 ], [ -115.2439488, 36.186218099800001 ], [ -115.2439488, 36.186212699800002 ], [ -115.2439974, 36.186212699800002 ], [ -115.2439974, 36.186220799800004 ], [ -115.2439947, 36.186220799800004 ], [ -115.2439947, 36.186223499800001 ] ] ] } },
{ "type": "Feature", "properties": { "value": 255.0 }, "geometry": { "type": "Polygon", "coordinates": [ [ [ -115.24329, 36.186236999800002 ], [ -115.2432819, 36.186236999800002 ], [ -115.2432819, 36.186234299799999 ], [ -115.2432738, 36.186234299799999 ], [ -115.2432738, 36.186231599800003 ], [ -115.2432711, 36.186231599800003 ], [ -115.2432711, 36.186212699800002 ], [ -115.2439353, 36.186212699800002 ], [ -115.2439353, 36.186218099800001 ], [ -115.2439326, 36.186218099800001 ], [ -115.2439326, 36.186220799800004 ], [ -115.2438138, 36.186220799800004 ], [ -115.2438138, 36.186223499800001 ], [ -115.2437085, 36.186223499800001 ], [ -115.2437085, 36.186220799800004 ], [ -115.2436896, 36.186220799800004 ], [ -115.2436896, 36.186223499800001 ], [ -115.2436869, 36.186223499800001 ], [ -115.2436869, 36.186220799800004 ], [ -115.2436626, 36.186220799800004 ], [ -115.2436626, 36.186223499800001 ], [ -115.2435627, 36.186223499800001 ], [ -115.2435627, 36.186226199800004 ], [ -115.2435276, 36.186226199800004 ], [ -115.2435276, 36.1862288998 ], [ -115.2435195, 36.1862288998 ], [ -115.2435195, 36.186231599800003 ], [ -115.2435114, 36.186231599800003 ], [ -115.2435114, 36.186234299799999 ], [ -115.2434736, 36.186234299799999 ], [ -115.2434736, 36.186231599800003 ], [ -115.2434601, 36.186231599800003 ], [ -115.2434601, 36.186234299799999 ], [ -115.2434466, 36.186234299799999 ], [ -115.2434466, 36.186231599800003 ], [ -115.2433494, 36.186231599800003 ], [ -115.2433494, 36.186234299799999 ], [ -115.24329, 36.186234299799999 ], [ -115.24329, 36.186236999800002 ] ] ] } }
]
}
