{
"type": "FeatureCollection",
"crs": { "type": "name", "properties": { "name": "urn:ogc:def:crs:OGC:1.3:CRS84" } },
"features": [
{ "type": "Feature", "properties": { "value": 255.0 }, "geometry": { "type": "Polygon", "coordinates": [ [ [ -115.2680895, 36.173735999799995 ], [ -115.2680814, 36.173735999799995 ], [ -115.2680814, 36.173733299799999 ], [ -115.2680787, 36.173733299799999 ], [ -115.2680787, 36.173730599799995 ], [ -115.268076, 36.173730599799995 ], [ -115.268076, 36.173725199799996 ], [ -115.2680787, 36.173725199799996 ], [ -115.2680787, 36.1737224998 ], [ -115.2680868, 36.1737224998 ], [ -115.2680868, 36.173725199799996 ], [ -115.2680895, 36.173725199799996 ], [ -115.2680895, 36.173735999799995 ] ] ] } },
{ "type": "Feature", "properties": { "value": 255.0 }, "geometry": { "type": "Polygon", "coordinates": [ [ [ -115.2674604, 36.173735999799995 ], [ -115.2674496, 36.173735999799995 ], [ -115.2674496, 36.173733299799999 ], [ -115.2674442, 36.173733299799999 ], [ -115.2674442, 36.173719799799997 ], [ -115.26744690000001, 36.173719799799997 ], [ -115.26744690000001, 36.173714399799998 ], [ -115.2674523, 36.173714399799998 ], [ -115.2674523, 36.173711699799995 ], [ -115.267455, 36.173711699799995 ], [ -115.267455, 36.173708999799999 ], [ -115.2674604, 36.173708999799999 ], [ -115.2674604, 36.173714399799998 ], [ -115.2674631, 36.173714399799998 ], [ -115.2674631, 36.173733299799999 ], [ -115.2674604, 36.173733299799999 ], [ -115.2674604, 36.173735999799995 ] ] ] } },
{ "type": "Feature", "properties": { "value": 255.0 }, "geometry": { "type": "Polygon", "coordinates": [ [ [ -115.2680652, 36.173744099799997 ], [ -115.2680625, 36.173744099799997 ], [ -115.2680625, 36.173733299799999 ], [ -115.2680598, 36.173733299799999 ], [ -115.2680598, 36.173725199799996 ], [ -115.2680625, 36.173725199799996 ], [ -115.2680625, 36.173717099799994 ], [ -115.2680679, 36.173717099799994 ], [ -115.2680679, 36.1737224998 ], [ -115.2680706, 36.1737224998 ], [ -115.2680706, 36.173730599799995 ], [ -115.2680679, 36.173730599799995 ], [ -115.2680679, 36.173733299799999 ], [ -115.2680652, 36.173733299799999 ], [ -115.2680652, 36.173744099799997 ] ] ] } },
{ "type": "Feature", "properties": { "value": 255.0 }, "geometry": { "type": "Polygon", "coordinates": [ [ [ -115.2671661, 36.173695499799997 ], [ -115.2671526, 36.173695499799997 ], [ -115.2671526, 36.173573999799999 ], [ -115.2671553, 36.173573999799999 ], [ -115.2671553, 36.173571299799995 ], [ -115.2671607, 36.173571299799995 ], [ -115.2671607, 36.173573999799999 ], [ -115.2671661, 36.173573999799999 ], [ -115.2671661, 36.173579399799998 ], [ -115.2671688, 36.173579399799998 ], [ -115.2671688, 36.173584799799997 ], [ -115.2671715, 36.173584799799997 ], [ -115.2671715, 36.173590199799996 ], [ -115.2671742, 36.173590199799996 ], [ -115.2671742, 36.173595599799995 ], [ -115.26717690000001, 36.173595599799995 ], [ -115.26717690000001, 36.173603699799997 ], [ -115.2671796, 36.173603699799997 ], [ -115.2671796, 36.173627999799997 ], [ -115.2671823, 36.173627999799997 ], [ -115.2671823, 36.173684699799999 ], [ -115.2671796, 36.173684699799999 ], [ -115.2671796, 36.173692799799994 ], [ -115.2671661, 36.173692799799994 ], [ -115.2671661, 36.173695499799997 ] ] ] } },
{ "type": "Feature", "properties": { "value": 255.0 }, "geometry": { "type": "Polygon", "coordinates": [ [ [ -115.2673956, 36.173719799799997 ], [ -115.2673389, 36.173719799799997 ], [ -115.2673389, 36.173717099799994 ], [ -115.2673362, 36.173717099799994 ], [ -115.2673362, 36.173714399799998 ], [ -115.2673335, 36.173714399799998 ], [ -115.2673335, 36.173706299799996 ], [ -115.2673362, 36.173706299799996 ], [ -115.2673362, 36.173695499799997 ], [ -115.2673335, 36.173695499799997 ], [ -115.2673335, 36.173692799799994 ], [ -115.2673281, 36.173692799799994 ], [ -115.2673281, 36.173690099799998 ], [ -115.2672687, 36.173690099799998 ], [ -115.2672687, 36.173692799799994 ], [ -115.2672282, 36.173692799799994 ], [ -115.2672282, 36.173690099799998 ], [ -115.2672255, 36.173690099799998 ], [ -115.2672255, 36.173687399799995 ], [ -115.2672228, 36.173687399799995 ], [ -115.2672228, 36.173579399799998 ], [ -115.2672255, 36.173579399799998 ], [ -115.2672255, 36.173576699799995 ], [ -115.2672498, 36.173576699799995 ], [ -115.2672498, 36.173573999799999 ], [ -115.2672876, 36.173573999799999 ], [ -115.2672876, 36.173571299799995 ], [ -115.2672903, 36.173571299799995 ], [ -115.2672903, 36.173568599799999 ], [ -115.267293, 36.173568599799999 ], [ -115.267293, 36.173565899799996 ], [ -115.2672957, 36.173565899799996 ], [ -115.2672957, 36.173555099799998 ], [ -115.2673038, 36.173555099799998 ], [ -115.2673038, 36.173552399799995 ], [ -115.2673092, 36.173552399799995 ], [ -115.2673092, 36.173549699799999 ], [ -115.2673173, 36.173549699799999 ], [ -115.2673173, 36.173546999799996 ], [ -115.267347, 36.173546999799996 ], [ -115.267347, 36.173549699799999 ], [ -115.2673578, 36.173549699799999 ], [ -115.2673578, 36.173552399799995 ], [ -115.2673902, 36.173552399799995 ], [ -115.2673902, 36.173555099799998 ], [ -115.2673983, 36.173555099799998 ], [ -115.2673983, 36.1736549998 ], [ -115.267401, 36.1736549998 ], [ -115.267401, 36.173695499799997 ], [ -115.2674037, 36.173695499799997 ], [ -115.2674037, 36.173711699799995 ], [ -115.267401, 36.173711699799995 ], [ -115.267401, 36.173717099799994 ], [ -115.2673956, 36.173717099799994 ], [ -115.2673956, 36.173719799799997 ] ] ] } },
{ "type": "Feature", "properties": { "value": 255.0 }, "geometry": { "type": "Polygon", "coordinates": [ [ [ -115.2677088, 36.173673899800001 ], [ -115.2676818, 36.173673899800001 ], [ -115.2676818, 36.173671199799998 ], [ -115.2676791, 36.173671199799998 ], [ -115.2676791, 36.173668499799994 ], [ -115.2676764, 36.173668499799994 ], [ -115.2676764, 36.173644199799995 ], [ -115.2676791, 36.173644199799995 ], [ -115.2676791, 36.173549699799999 ], [ -115.2676845, 36.173549699799999 ], [ -115.2676845, 36.173546999799996 ], [ -115.2677601, 36.173546999799996 ], [ -115.2677601, 36.173549699799999 ], [ -115.2678087, 36.173549699799999 ], [ -115.2678087, 36.173552399799995 ], [ -115.2678168, 36.173552399799995 ], [ -115.2678168, 36.173555099799998 ], [ -115.2678276, 36.173555099799998 ], [ -115.2678276, 36.1735631998 ], [ -115.2678303, 36.1735631998 ], [ -115.2678303, 36.173622599799998 ], [ -115.267833, 36.173622599799998 ], [ -115.267833, 36.173663099799995 ], [ -115.2678303, 36.173663099799995 ], [ -115.2678303, 36.173665799799998 ], [ -115.2678276, 36.173665799799998 ], [ -115.2678276, 36.173668499799994 ], [ -115.2677952, 36.173668499799994 ], [ -115.2677952, 36.173671199799998 ], [ -115.2677088, 36.173671199799998 ], [ -115.2677088, 36.173673899800001 ] ] ] } },
{ "type": "Feature", "properties": { "value": 255.0 }, "geometry": { "type": "Polygon", "coordinates": [ [ [ -115.2676062, 36.1736981998 ], [ -115.2676008, 36.1736981998 ], [ -115.2676008, 36.173695499799997 ], [ -115.2675873, 36.173695499799997 ], [ -115.2675873, 36.173692799799994 ], [ -115.2675846, 36.173692799799994 ], [ -115.2675846, 36.173690099799998 ], [ -115.26758190000001, 36.173690099799998 ], [ -115.26758190000001, 36.173684699799999 ], [ -115.2675792, 36.173684699799999 ], [ -115.2675792, 36.173681999799996 ], [ -115.2675765, 36.173681999799996 ], [ -115.2675765, 36.1736792998 ], [ -115.2675684, 36.1736792998 ], [ -115.2675684, 36.173676599799997 ], [ -115.2675522, 36.173676599799997 ], [ -115.2675522, 36.1736792998 ], [ -115.2675279, 36.1736792998 ], [ -115.2675279, 36.173676599799997 ], [ -115.267482, 36.173676599799997 ], [ -115.267482, 36.173673899800001 ], [ -115.2674712, 36.173673899800001 ], [ -115.2674712, 36.173671199799998 ], [ -115.2674685, 36.173671199799998 ], [ -115.2674685, 36.173614499799996 ], [ -115.2674712, 36.173614499799996 ], [ -115.2674712, 36.1735631998 ], [ -115.2674739, 36.1735631998 ], [ -115.2674739, 36.173560499799997 ], [ -115.2674928, 36.173560499799997 ], [ -115.2674928, 36.173557799799994 ], [ -115.2675333, 36.173557799799994 ], [ -115.2675333, 36.173555099799998 ], [ -115.2675414, 36.173555099799998 ], [ -115.2675414, 36.173552399799995 ], [ -115.2675495, 36.173552399799995 ], [ -115.2675495, 36.173549699799999 ], [ -115.2675873, 36.173549699799999 ], [ -115.2675873, 36.173546999799996 ], [ -115.2676062, 36.173546999799996 ], [ -115.2676062, 36.173549699799999 ], [ -115.2676143, 36.173549699799999 ], [ -115.2676143, 36.173552399799995 ], [ -115.267617, 36.173552399799995 ], [ -115.267617, 36.173555099799998 ], [ -115.2676224, 36.173555099799998 ], [ -115.2676224, 36.173622599799998 ], [ -115.2676251, 36.173622599799998 ], [ -115.2676251, 36.1736306998 ], [ -115.2676224, 36.1736306998 ], [ -115.2676224, 36.173636099799999 ], [ -115.267617, 36.173636099799999 ], [ -115.267617, 36.173638799799996 ], [ -115.2676089, 36.173638799799996 ], [ -115.2676089, 36.173641499799999 ], [ -115.2676062, 36.173641499799999 ], [ -115.2676062, 36.173649599799994 ], [ -115.2676089, 36.173649599799994 ], [ -115.2676089, 36.173652299799997 ], [ -115.2676116, 36.173652299799997 ], [ -115.2676116, 36.173657699799996 ], [ -115.2676143, 36.173657699799996 ], [ -115.2676143, 36.173663099799995 ], [ -115.267617, 36.173663099799995 ], [ -115.267617, 36.173673899800001 ], [ -115.2676143, 36.173673899800001 ], [ -115.2676143, 36.1736792998 ], [ -115.2676116, 36.1736792998 ], [ -115.2676116, 36.173695499799997 ], [ -115.2676062, 36.173695499799997 ], [ -115.2676062, 36.1736981998 ] ] ] } },
{ "type": "Feature", "properties": { "value": 255.0 }, "geometry": { "type": "Polygon", "coordinates": [ [ [ -115.2679788, 36.173692799799994 ], [ -115.2679626, 36.173692799799994 ], [ -115.2679626, 36.173690099799998 ], [ -115.2679464, 36.173690099799998 ], [ -115.2679464, 36.173687399799995 ], [ -115.267941, 36.173687399799995 ], [ -115.267941, 36.173684699799999 ], [ -115.2678951, 36.173684699799999 ], [ -115.2678951, 36.173681999799996 ], [ -115.2678924, 36.173681999799996 ], [ -115.2678924, 36.1736792998 ], [ -115.2678897, 36.1736792998 ], [ -115.2678897, 36.173641499799999 ], [ -115.2678924, 36.173641499799999 ], [ -115.2678924, 36.173598299799998 ], [ -115.2678897, 36.173598299799998 ], [ -115.2678897, 36.173584799799997 ], [ -115.267887, 36.173584799799997 ], [ -115.267887, 36.173546999799996 ], [ -115.2678897, 36.173546999799996 ], [ -115.2678897, 36.1735442998 ], [ -115.2678951, 36.1735442998 ], [ -115.2678951, 36.173541599799997 ], [ -115.2679302, 36.173541599799997 ], [ -115.2679302, 36.1735442998 ], [ -115.2679653, 36.1735442998 ], [ -115.2679653, 36.173546999799996 ], [ -115.2679707, 36.173546999799996 ], [ -115.2679707, 36.173552399799995 ], [ -115.2679734, 36.173552399799995 ], [ -115.2679734, 36.173555099799998 ], [ -115.2679761, 36.173555099799998 ], [ -115.2679761, 36.173584799799997 ], [ -115.2679788, 36.173584799799997 ], [ -115.2679788, 36.173590199799996 ], [ -115.2679842, 36.173590199799996 ], [ -115.2679842, 36.173592899799999 ], [ -115.267995, 36.173592899799999 ], [ -115.267995, 36.173590199799996 ], [ -115.2680301, 36.173590199799996 ], [ -115.2680301, 36.173592899799999 ], [ -115.2680625, 36.173592899799999 ], [ -115.2680625, 36.173595599799995 ], [ -115.2680652, 36.173595599799995 ], [ -115.2680652, 36.173598299799998 ], [ -115.2680679, 36.173598299799998 ], [ -115.2680679, 36.173606399800001 ], [ -115.2680706, 36.173606399800001 ], [ -115.2680706, 36.173646899799998 ], [ -115.2680733, 36.173646899799998 ], [ -115.2680733, 36.173676599799997 ], [ -115.2680706, 36.173676599799997 ], [ -115.2680706, 36.1736792998 ], [ -115.2680679, 36.1736792998 ], [ -115.2680679, 36.173681999799996 ], [ -115.2680112, 36.173681999799996 ], [ -115.2680112, 36.173684699799999 ], [ -115.2680058, 36.173684699799999 ], [ -115.2680058, 36.173681999799996 ], [ -115.2679842, 36.173681999799996 ], [ -115.2679842, 36.173684699799999 ], [ -115.2679815, 36.173684699799999 ], [ -115.2679815, 36.173687399799995 ], [ -115.2679788, 36.173687399799995 ], [ -115.2679788, 36.173692799799994 ] ] ] } },
{ "type": "Feature", "properties": { "value": 255.0 }, "geometry": { "type": "Polygon", "coordinates": [ [ [ -115.2684324, 36.173681999799996 ], [ -115.268421600000011, 36.173681999799996 ], [ -115.268421600000011, 36.1736792998 ], [ -115.2683622, 36.1736792998 ], [ -115.2683622, 36.173681999799996 ], [ -115.2683487, 36.173681999799996 ], [ -115.2683487, 36.1736792998 ], [ -115.268346, 36.1736792998 ], [ -115.268346, 36.173652299799997 ], [ -115.2683433, 36.173652299799997 ], [ -115.2683433, 36.173619899799995 ], [ -115.2683406, 36.173619899799995 ], [ -115.2683406, 36.173571299799995 ], [ -115.2683433, 36.173571299799995 ], [ -115.2683433, 36.173536199799997 ], [ -115.268346, 36.173536199799997 ], [ -115.268346, 36.173533499799994 ], [ -115.2684243, 36.173533499799994 ], [ -115.2684243, 36.173536199799997 ], [ -115.268427, 36.173536199799997 ], [ -115.268427, 36.1735388998 ], [ -115.2684297, 36.1735388998 ], [ -115.2684297, 36.173573999799999 ], [ -115.2684324, 36.173573999799999 ], [ -115.2684324, 36.173579399799998 ], [ -115.2684351, 36.173579399799998 ], [ -115.2684351, 36.173582099800001 ], [ -115.2684918, 36.173582099800001 ], [ -115.2684918, 36.173584799799997 ], [ -115.2685215, 36.173584799799997 ], [ -115.2685215, 36.1735874998 ], [ -115.268526900000012, 36.1735874998 ], [ -115.268526900000012, 36.173592899799999 ], [ -115.2685296, 36.173592899799999 ], [ -115.2685296, 36.173668499799994 ], [ -115.268526900000012, 36.173668499799994 ], [ -115.268526900000012, 36.173673899800001 ], [ -115.2685107, 36.173673899800001 ], [ -115.2685107, 36.173676599799997 ], [ -115.268459400000012, 36.173676599799997 ], [ -115.268459400000012, 36.173673899800001 ], [ -115.268454, 36.173673899800001 ], [ -115.268454, 36.173671199799998 ], [ -115.2684459, 36.173671199799998 ], [ -115.2684459, 36.173673899800001 ], [ -115.2684378, 36.173673899800001 ], [ -115.2684378, 36.173676599799997 ], [ -115.2684351, 36.173676599799997 ], [ -115.2684351, 36.1736792998 ], [ -115.2684324, 36.1736792998 ], [ -115.2684324, 36.173681999799996 ] ] ] } },
{ "type": "Feature", "properties": { "value": 255.0 }, "geometry": { "type": "Polygon", "coordinates": [ [ [ -115.2685971, 36.173673899800001 ], [ -115.2685809, 36.173673899800001 ], [ -115.2685809, 36.173671199799998 ], [ -115.2685728, 36.173671199799998 ], [ -115.2685728, 36.173668499799994 ], [ -115.2685701, 36.173668499799994 ], [ -115.2685701, 36.173665799799998 ], [ -115.2685674, 36.173665799799998 ], [ -115.2685674, 36.173533499799994 ], [ -115.2685701, 36.173533499799994 ], [ -115.2685701, 36.173530799799998 ], [ -115.2685782, 36.173530799799998 ], [ -115.2685782, 36.173528099799995 ], [ -115.268661900000012, 36.173528099799995 ], [ -115.268661900000012, 36.173530799799998 ], [ -115.2686646, 36.173530799799998 ], [ -115.2686646, 36.173533499799994 ], [ -115.2686673, 36.173533499799994 ], [ -115.2686673, 36.1735442998 ], [ -115.26867, 36.1735442998 ], [ -115.26867, 36.173552399799995 ], [ -115.26867270000001, 36.173552399799995 ], [ -115.26867270000001, 36.173555099799998 ], [ -115.2686808, 36.173555099799998 ], [ -115.2686808, 36.173557799799994 ], [ -115.268697, 36.173557799799994 ], [ -115.268697, 36.173555099799998 ], [ -115.268740200000011, 36.173555099799998 ], [ -115.268740200000011, 36.173557799799994 ], [ -115.2687456, 36.173557799799994 ], [ -115.2687456, 36.173571299799995 ], [ -115.2687483, 36.173571299799995 ], [ -115.2687483, 36.1736549998 ], [ -115.268751, 36.1736549998 ], [ -115.268751, 36.173665799799998 ], [ -115.2687483, 36.173665799799998 ], [ -115.2687483, 36.173668499799994 ], [ -115.268740200000011, 36.173668499799994 ], [ -115.268740200000011, 36.173671199799998 ], [ -115.2687321, 36.173671199799998 ], [ -115.2687321, 36.173668499799994 ], [ -115.2687159, 36.173668499799994 ], [ -115.2687159, 36.173671199799998 ], [ -115.2685971, 36.173671199799998 ], [ -115.2685971, 36.173673899800001 ] ] ] } },
{ "type": "Feature", "properties": { "value": 255.0 }, "geometry": { "type": "Polygon", "coordinates": [ [ [ -115.2682029, 36.173676599799997 ], [ -115.2681192, 36.173676599799997 ], [ -115.2681192, 36.173673899800001 ], [ -115.2681165, 36.173673899800001 ], [ -115.2681165, 36.1736306998 ], [ -115.2681192, 36.1736306998 ], [ -115.2681192, 36.173614499799996 ], [ -115.268121900000011, 36.173614499799996 ], [ -115.268121900000011, 36.1736117998 ], [ -115.2681246, 36.1736117998 ], [ -115.2681246, 36.173609099799997 ], [ -115.2681651, 36.173609099799997 ], [ -115.2681651, 36.173606399800001 ], [ -115.2681975, 36.173606399800001 ], [ -115.2681975, 36.173603699799997 ], [ -115.2682029, 36.173603699799997 ], [ -115.2682029, 36.173552399799995 ], [ -115.26820020000001, 36.173552399799995 ], [ -115.26820020000001, 36.173541599799997 ], [ -115.2682029, 36.173541599799997 ], [ -115.2682029, 36.1735388998 ], [ -115.2682056, 36.1735388998 ], [ -115.2682056, 36.173536199799997 ], [ -115.2682974, 36.173536199799997 ], [ -115.2682974, 36.1735388998 ], [ -115.2683001, 36.1735388998 ], [ -115.2683001, 36.173663099799995 ], [ -115.2683028, 36.173663099799995 ], [ -115.2683028, 36.173665799799998 ], [ -115.2683001, 36.173665799799998 ], [ -115.2683001, 36.173671199799998 ], [ -115.268238, 36.173671199799998 ], [ -115.268238, 36.173673899800001 ], [ -115.2682029, 36.173673899800001 ], [ -115.2682029, 36.173676599799997 ] ] ] } },
{ "type": "Feature", "properties": { "value": 255.0 }, "geometry": { "type": "Polygon", "coordinates": [ [ [ -115.2671661, 36.173320199799996 ], [ -115.2671526, 36.173320199799996 ], [ -115.2671526, 36.173174399799997 ], [ -115.2672525, 36.173174399799997 ], [ -115.2672525, 36.1731770998 ], [ -115.2672579, 36.1731770998 ], [ -115.2672579, 36.173179799799996 ], [ -115.2672606, 36.173179799799996 ], [ -115.2672606, 36.173255399799999 ], [ -115.2672579, 36.173255399799999 ], [ -115.2672579, 36.173258099800002 ], [ -115.2672309, 36.173258099800002 ], [ -115.2672309, 36.173260799799998 ], [ -115.2672282, 36.173260799799998 ], [ -115.2672282, 36.173263499800001 ], [ -115.2672255, 36.173263499800001 ], [ -115.2672255, 36.1732931998 ], [ -115.2672228, 36.1732931998 ], [ -115.2672228, 36.1733120998 ], [ -115.2672201, 36.1733120998 ], [ -115.2672201, 36.173314799799996 ], [ -115.2672174, 36.173314799799996 ], [ -115.2672174, 36.1733174998 ], [ -115.2671661, 36.1733174998 ], [ -115.2671661, 36.173320199799996 ] ] ] } },
{ "type": "Feature", "properties": { "value": 255.0 }, "geometry": { "type": "Polygon", "coordinates": [ [ [ -115.268184, 36.173290499799997 ], [ -115.2681786, 36.173290499799997 ], [ -115.2681786, 36.173287799800001 ], [ -115.268170500000011, 36.173287799800001 ], [ -115.268170500000011, 36.173285099799998 ], [ -115.2681246, 36.173285099799998 ], [ -115.2681246, 36.173287799800001 ], [ -115.2681084, 36.173287799800001 ], [ -115.2681084, 36.173290499799997 ], [ -115.2681003, 36.173290499799997 ], [ -115.2681003, 36.173287799800001 ], [ -115.2680922, 36.173287799800001 ], [ -115.2680922, 36.173285099799998 ], [ -115.2680895, 36.173285099799998 ], [ -115.2680895, 36.173282399800001 ], [ -115.2680868, 36.173282399800001 ], [ -115.2680868, 36.173279699799998 ], [ -115.26808410000001, 36.173279699799998 ], [ -115.26808410000001, 36.173276999799995 ], [ -115.2680814, 36.173276999799995 ], [ -115.2680814, 36.173274299799999 ], [ -115.2680274, 36.173274299799999 ], [ -115.2680274, 36.173271599799996 ], [ -115.2680139, 36.173271599799996 ], [ -115.2680139, 36.1732688998 ], [ -115.2680112, 36.1732688998 ], [ -115.2680112, 36.173266199799997 ], [ -115.2680085, 36.173266199799997 ], [ -115.2680085, 36.173155499799996 ], [ -115.2680112, 36.173155499799996 ], [ -115.2680112, 36.1731527998 ], [ -115.268022, 36.1731527998 ], [ -115.268022, 36.173150099799997 ], [ -115.2680706, 36.173150099799997 ], [ -115.2680706, 36.1731527998 ], [ -115.2681273, 36.1731527998 ], [ -115.2681273, 36.173155499799996 ], [ -115.2681408, 36.173155499799996 ], [ -115.2681408, 36.1731527998 ], [ -115.2681435, 36.1731527998 ], [ -115.2681435, 36.173150099799997 ], [ -115.2681462, 36.173150099799997 ], [ -115.2681462, 36.173147399800001 ], [ -115.26815160000001, 36.173147399800001 ], [ -115.26815160000001, 36.173144699799998 ], [ -115.268157, 36.173144699799998 ], [ -115.268157, 36.173141999799995 ], [ -115.2681597, 36.173141999799995 ], [ -115.2681597, 36.173139299799999 ], [ -115.2681624, 36.173139299799999 ], [ -115.2681624, 36.173136599799996 ], [ -115.268170500000011, 36.173136599799996 ], [ -115.268170500000011, 36.173139299799999 ], [ -115.2681732, 36.173139299799999 ], [ -115.2681732, 36.173141999799995 ], [ -115.2681759, 36.173141999799995 ], [ -115.2681759, 36.173144699799998 ], [ -115.2681786, 36.173144699799998 ], [ -115.2681786, 36.173147399800001 ], [ -115.2681813, 36.173147399800001 ], [ -115.2681813, 36.1731527998 ], [ -115.268184, 36.1731527998 ], [ -115.268184, 36.1732013998 ], [ -115.2681867, 36.1732013998 ], [ -115.2681867, 36.173260799799998 ], [ -115.268189400000011, 36.173260799799998 ], [ -115.268189400000011, 36.173285099799998 ], [ -115.2681867, 36.173285099799998 ], [ -115.2681867, 36.173287799800001 ], [ -115.268184, 36.173287799800001 ], [ -115.268184, 36.173290499799997 ] ] ] } },
{ "type": "Feature", "properties": { "value": 255.0 }, "geometry": { "type": "Polygon", "coordinates": [ [ [ -115.268616, 36.173298599799999 ], [ -115.2685593, 36.173298599799999 ], [ -115.2685593, 36.173187899799998 ], [ -115.268556600000011, 36.173187899799998 ], [ -115.268556600000011, 36.173179799799996 ], [ -115.2685593, 36.173179799799996 ], [ -115.2685593, 36.173171699800001 ], [ -115.268556600000011, 36.173171699800001 ], [ -115.268556600000011, 36.1731581998 ], [ -115.2685593, 36.1731581998 ], [ -115.2685593, 36.173155499799996 ], [ -115.268562, 36.173155499799996 ], [ -115.268562, 36.1731527998 ], [ -115.2686106, 36.1731527998 ], [ -115.2686106, 36.173155499799996 ], [ -115.26867270000001, 36.173155499799996 ], [ -115.26867270000001, 36.1731527998 ], [ -115.2687132, 36.1731527998 ], [ -115.2687132, 36.173155499799996 ], [ -115.26872130000001, 36.173155499799996 ], [ -115.26872130000001, 36.1731581998 ], [ -115.268724, 36.1731581998 ], [ -115.268724, 36.173160899799996 ], [ -115.2687267, 36.173160899799996 ], [ -115.2687267, 36.173163599799999 ], [ -115.268729400000012, 36.173163599799999 ], [ -115.268729400000012, 36.173168999799998 ], [ -115.2687321, 36.173168999799998 ], [ -115.2687321, 36.173179799799996 ], [ -115.2687348, 36.173179799799996 ], [ -115.2687348, 36.173214899800001 ], [ -115.2687321, 36.173214899800001 ], [ -115.2687321, 36.173220299800001 ], [ -115.268724, 36.173220299800001 ], [ -115.268724, 36.173222999799997 ], [ -115.2687078, 36.173222999799997 ], [ -115.2687078, 36.1732256998 ], [ -115.2687051, 36.1732256998 ], [ -115.2687051, 36.173233799799995 ], [ -115.2687078, 36.173233799799995 ], [ -115.2687078, 36.173236499799998 ], [ -115.268710500000012, 36.173236499799998 ], [ -115.268710500000012, 36.173239199800001 ], [ -115.2687132, 36.173239199800001 ], [ -115.2687132, 36.173249999799999 ], [ -115.2687159, 36.173249999799999 ], [ -115.2687159, 36.173271599799996 ], [ -115.2687132, 36.173271599799996 ], [ -115.2687132, 36.173287799800001 ], [ -115.268710500000012, 36.173287799800001 ], [ -115.268710500000012, 36.173290499799997 ], [ -115.2687051, 36.173290499799997 ], [ -115.2687051, 36.1732931998 ], [ -115.2686997, 36.1732931998 ], [ -115.2686997, 36.173295899799996 ], [ -115.268616, 36.173295899799996 ], [ -115.268616, 36.173298599799999 ] ] ] } },
{ "type": "Feature", "properties": { "value": 255.0 }, "geometry": { "type": "Polygon", "coordinates": [ [ [ -115.2684054, 36.173290499799997 ], [ -115.268305500000011, 36.173290499799997 ], [ -115.268305500000011, 36.173287799800001 ], [ -115.2683028, 36.173287799800001 ], [ -115.2683028, 36.1732688998 ], [ -115.2683001, 36.1732688998 ], [ -115.2683001, 36.173266199799997 ], [ -115.268265, 36.173266199799997 ], [ -115.268265, 36.1732688998 ], [ -115.2682515, 36.1732688998 ], [ -115.2682515, 36.173266199799997 ], [ -115.2682353, 36.173266199799997 ], [ -115.2682353, 36.173263499800001 ], [ -115.2682272, 36.173263499800001 ], [ -115.2682272, 36.173260799799998 ], [ -115.2682245, 36.173260799799998 ], [ -115.2682245, 36.173258099800002 ], [ -115.2682218, 36.173258099800002 ], [ -115.2682218, 36.173252699799995 ], [ -115.26821910000001, 36.173252699799995 ], [ -115.26821910000001, 36.173206799799999 ], [ -115.2682218, 36.173206799799999 ], [ -115.2682218, 36.173171699800001 ], [ -115.2682245, 36.173171699800001 ], [ -115.2682245, 36.173160899799996 ], [ -115.2682272, 36.173160899799996 ], [ -115.2682272, 36.1731527998 ], [ -115.2682299, 36.1731527998 ], [ -115.2682299, 36.173147399800001 ], [ -115.2682353, 36.173147399800001 ], [ -115.2682353, 36.173144699799998 ], [ -115.2682596, 36.173144699799998 ], [ -115.2682596, 36.173141999799995 ], [ -115.268292, 36.173141999799995 ], [ -115.268292, 36.173144699799998 ], [ -115.2683001, 36.173144699799998 ], [ -115.2683001, 36.173147399800001 ], [ -115.2683082, 36.173147399800001 ], [ -115.2683082, 36.173150099799997 ], [ -115.2683136, 36.173150099799997 ], [ -115.2683136, 36.1731527998 ], [ -115.2683163, 36.1731527998 ], [ -115.2683163, 36.173155499799996 ], [ -115.26833520000001, 36.173155499799996 ], [ -115.26833520000001, 36.1731527998 ], [ -115.2683379, 36.1731527998 ], [ -115.2683379, 36.173147399800001 ], [ -115.2683406, 36.173147399800001 ], [ -115.2683406, 36.173128499800001 ], [ -115.2683433, 36.173128499800001 ], [ -115.2683433, 36.173120399799998 ], [ -115.2683595, 36.173120399799998 ], [ -115.2683595, 36.173123099800002 ], [ -115.2683676, 36.173123099800002 ], [ -115.2683676, 36.173125799799998 ], [ -115.2683757, 36.173125799799998 ], [ -115.2683757, 36.173128499800001 ], [ -115.2683838, 36.173128499800001 ], [ -115.2683838, 36.173131199799997 ], [ -115.2683946, 36.173131199799997 ], [ -115.2683946, 36.1731338998 ], [ -115.2683973, 36.1731338998 ], [ -115.2683973, 36.173136599799996 ], [ -115.2684, 36.173136599799996 ], [ -115.2684, 36.173141999799995 ], [ -115.26840270000001, 36.173141999799995 ], [ -115.26840270000001, 36.1731527998 ], [ -115.2684054, 36.1731527998 ], [ -115.2684054, 36.1732013998 ], [ -115.2684081, 36.1732013998 ], [ -115.2684081, 36.173287799800001 ], [ -115.2684054, 36.173287799800001 ], [ -115.2684054, 36.173290499799997 ] ] ] } },
{ "type": "Feature", "properties": { "value": 255.0 }, "geometry": { "type": "Polygon", "coordinates": [ [ [ -115.2678384, 36.173301299799995 ], [ -115.26781410000001, 36.173301299799995 ], [ -115.26781410000001, 36.173298599799999 ], [ -115.267784400000011, 36.173298599799999 ], [ -115.267784400000011, 36.173295899799996 ], [ -115.2677817, 36.173295899799996 ], [ -115.2677817, 36.173285099799998 ], [ -115.267779, 36.173285099799998 ], [ -115.267779, 36.173279699799998 ], [ -115.2677817, 36.173279699799998 ], [ -115.2677817, 36.173249999799999 ], [ -115.267784400000011, 36.173249999799999 ], [ -115.267784400000011, 36.173231099799999 ], [ -115.2677817, 36.173231099799999 ], [ -115.2677817, 36.173160899799996 ], [ -115.267784400000011, 36.173160899799996 ], [ -115.267784400000011, 36.173131199799997 ], [ -115.2677871, 36.173131199799997 ], [ -115.2677871, 36.173128499800001 ], [ -115.2678654, 36.173128499800001 ], [ -115.2678654, 36.1731338998 ], [ -115.2678681, 36.1731338998 ], [ -115.2678681, 36.173141999799995 ], [ -115.2678708, 36.173141999799995 ], [ -115.2678708, 36.173150099799997 ], [ -115.2678735, 36.173150099799997 ], [ -115.2678735, 36.1731527998 ], [ -115.2678762, 36.1731527998 ], [ -115.2678762, 36.173155499799996 ], [ -115.2679545, 36.173155499799996 ], [ -115.2679545, 36.1731581998 ], [ -115.2679626, 36.1731581998 ], [ -115.2679626, 36.173160899799996 ], [ -115.2679653, 36.173160899799996 ], [ -115.2679653, 36.173198699799997 ], [ -115.267968, 36.173198699799997 ], [ -115.267968, 36.173212199799998 ], [ -115.2679653, 36.173212199799998 ], [ -115.2679653, 36.173217599799997 ], [ -115.2679626, 36.173217599799997 ], [ -115.2679626, 36.173220299800001 ], [ -115.2678897, 36.173220299800001 ], [ -115.2678897, 36.173222999799997 ], [ -115.2678843, 36.173222999799997 ], [ -115.2678843, 36.1732256998 ], [ -115.26788160000001, 36.1732256998 ], [ -115.26788160000001, 36.173295899799996 ], [ -115.2678789, 36.173295899799996 ], [ -115.2678789, 36.173298599799999 ], [ -115.2678384, 36.173298599799999 ], [ -115.2678384, 36.173301299799995 ] ] ] } },
{ "type": "Feature", "properties": { "value": 255.0 }, "geometry": { "type": "Polygon", "coordinates": [ [ [ -115.26763050000001, 36.173301299799995 ], [ -115.2676224, 36.173301299799995 ], [ -115.2676224, 36.173298599799999 ], [ -115.2676197, 36.173298599799999 ], [ -115.2676197, 36.173295899799996 ], [ -115.267617, 36.173295899799996 ], [ -115.267617, 36.173287799800001 ], [ -115.2676143, 36.173287799800001 ], [ -115.2676143, 36.173279699799998 ], [ -115.2676116, 36.173279699799998 ], [ -115.2676116, 36.173276999799995 ], [ -115.2676089, 36.173276999799995 ], [ -115.2676089, 36.173274299799999 ], [ -115.267563, 36.173274299799999 ], [ -115.267563, 36.173276999799995 ], [ -115.2675441, 36.173276999799995 ], [ -115.2675441, 36.173274299799999 ], [ -115.2675414, 36.173274299799999 ], [ -115.2675414, 36.173271599799996 ], [ -115.2675387, 36.173271599799996 ], [ -115.2675387, 36.173231099799999 ], [ -115.2675414, 36.173231099799999 ], [ -115.2675414, 36.173198699799997 ], [ -115.2675387, 36.173198699799997 ], [ -115.2675387, 36.173171699800001 ], [ -115.2675414, 36.173171699800001 ], [ -115.2675414, 36.173166299800002 ], [ -115.2675441, 36.173166299800002 ], [ -115.2675441, 36.173163599799999 ], [ -115.2675495, 36.173163599799999 ], [ -115.2675495, 36.173160899799996 ], [ -115.26758190000001, 36.173160899799996 ], [ -115.26758190000001, 36.1731581998 ], [ -115.2676008, 36.1731581998 ], [ -115.2676008, 36.173155499799996 ], [ -115.2676062, 36.173155499799996 ], [ -115.2676062, 36.1731527998 ], [ -115.2676089, 36.1731527998 ], [ -115.2676089, 36.173141999799995 ], [ -115.2676116, 36.173141999799995 ], [ -115.2676116, 36.173101499799998 ], [ -115.2676143, 36.173101499799998 ], [ -115.2676143, 36.173098799800002 ], [ -115.2677088, 36.173098799800002 ], [ -115.2677088, 36.173101499799998 ], [ -115.2677142, 36.173101499799998 ], [ -115.2677142, 36.173104199800001 ], [ -115.2677196, 36.173104199800001 ], [ -115.2677196, 36.173106899799997 ], [ -115.2677277, 36.173106899799997 ], [ -115.2677277, 36.1731095998 ], [ -115.2677358, 36.1731095998 ], [ -115.2677358, 36.173112299799996 ], [ -115.2677412, 36.173112299799996 ], [ -115.2677412, 36.173114999799999 ], [ -115.2677466, 36.173114999799999 ], [ -115.2677466, 36.173123099800002 ], [ -115.2677493, 36.173123099800002 ], [ -115.2677493, 36.173171699800001 ], [ -115.2677466, 36.173171699800001 ], [ -115.2677466, 36.1732013998 ], [ -115.2677493, 36.1732013998 ], [ -115.2677493, 36.173214899800001 ], [ -115.267752, 36.173214899800001 ], [ -115.267752, 36.173241899799997 ], [ -115.2677547, 36.173241899799997 ], [ -115.2677547, 36.173282399800001 ], [ -115.267752, 36.173282399800001 ], [ -115.267752, 36.173285099799998 ], [ -115.2677331, 36.173285099799998 ], [ -115.2677331, 36.173287799800001 ], [ -115.2677223, 36.173287799800001 ], [ -115.2677223, 36.173290499799997 ], [ -115.2676629, 36.173290499799997 ], [ -115.2676629, 36.1732931998 ], [ -115.2676467, 36.1732931998 ], [ -115.2676467, 36.173295899799996 ], [ -115.2676386, 36.173295899799996 ], [ -115.2676386, 36.173298599799999 ], [ -115.26763050000001, 36.173298599799999 ], [ -115.26763050000001, 36.173301299799995 ] ] ] } },
{ "type": "Feature", "properties": { "value": 255.0 }, "geometry": { "type": "Polygon", "coordinates": [ [ [ -115.2672228, 36.173144699799998 ], [ -115.2671526, 36.173144699799998 ], [ -115.2671526, 36.173009699799998 ], [ -115.2671607, 36.173009699799998 ], [ -115.2671607, 36.173006999800002 ], [ -115.26717690000001, 36.173006999800002 ], [ -115.26717690000001, 36.173004299799999 ], [ -115.2672039, 36.173004299799999 ], [ -115.2672039, 36.173001599799996 ], [ -115.2672336, 36.173001599799996 ], [ -115.2672336, 36.1729988998 ], [ -115.2672417, 36.1729988998 ], [ -115.2672417, 36.173001599799996 ], [ -115.2672498, 36.173001599799996 ], [ -115.2672498, 36.173004299799999 ], [ -115.2672525, 36.173004299799999 ], [ -115.2672525, 36.173006999800002 ], [ -115.2672552, 36.173006999800002 ], [ -115.2672552, 36.173012399800001 ], [ -115.2672579, 36.173012399800001 ], [ -115.2672579, 36.1730420998 ], [ -115.2672552, 36.1730420998 ], [ -115.2672552, 36.173052899799998 ], [ -115.2672525, 36.173052899799998 ], [ -115.2672525, 36.173058299799997 ], [ -115.2672552, 36.173058299799997 ], [ -115.2672552, 36.173063699799997 ], [ -115.2672579, 36.173063699799997 ], [ -115.2672579, 36.173069099799996 ], [ -115.2672606, 36.173069099799996 ], [ -115.2672606, 36.173077199799998 ], [ -115.2672579, 36.173077199799998 ], [ -115.2672579, 36.173079899800001 ], [ -115.2672525, 36.173079899800001 ], [ -115.2672525, 36.173082599799997 ], [ -115.2672471, 36.173082599799997 ], [ -115.2672471, 36.173079899800001 ], [ -115.26724440000001, 36.173079899800001 ], [ -115.26724440000001, 36.173082599799997 ], [ -115.2672309, 36.173082599799997 ], [ -115.2672309, 36.1730852998 ], [ -115.2672282, 36.1730852998 ], [ -115.2672282, 36.173087999799996 ], [ -115.2672255, 36.173087999799996 ], [ -115.2672255, 36.173141999799995 ], [ -115.2672228, 36.173141999799995 ], [ -115.2672228, 36.173144699799998 ] ] ] } },
{ "type": "Feature", "properties": { "value": 255.0 }, "geometry": { "type": "Polygon", "coordinates": [ [ [ -115.2684459, 36.173025899799995 ], [ -115.2684189, 36.173025899799995 ], [ -115.2684189, 36.173023199799999 ], [ -115.2684054, 36.173023199799999 ], [ -115.2684054, 36.173020499799996 ], [ -115.26840270000001, 36.173020499799996 ], [ -115.26840270000001, 36.172982699800002 ], [ -115.2684054, 36.172982699800002 ], [ -115.2684054, 36.172979999799999 ], [ -115.2684081, 36.172979999799999 ], [ -115.2684081, 36.172977299799996 ], [ -115.268421600000011, 36.172977299799996 ], [ -115.268421600000011, 36.1729745998 ], [ -115.2684243, 36.1729745998 ], [ -115.2684243, 36.172977299799996 ], [ -115.2684351, 36.172977299799996 ], [ -115.2684351, 36.1729745998 ], [ -115.2684432, 36.1729745998 ], [ -115.2684432, 36.172977299799996 ], [ -115.2684513, 36.172977299799996 ], [ -115.2684513, 36.172979999799999 ], [ -115.268454, 36.172979999799999 ], [ -115.268454, 36.173023199799999 ], [ -115.2684459, 36.173023199799999 ], [ -115.2684459, 36.173025899799995 ] ] ] } },
{ "type": "Feature", "properties": { "value": 255.0 }, "geometry": { "type": "Polygon", "coordinates": [ [ [ -115.2686484, 36.173125799799998 ], [ -115.2685647, 36.173125799799998 ], [ -115.2685647, 36.173123099800002 ], [ -115.2685593, 36.173123099800002 ], [ -115.2685593, 36.173047499799999 ], [ -115.268562, 36.173047499799999 ], [ -115.268562, 36.173039399799997 ], [ -115.2685593, 36.173039399799997 ], [ -115.2685593, 36.173036699800001 ], [ -115.268556600000011, 36.173036699800001 ], [ -115.268556600000011, 36.173033999799998 ], [ -115.2685485, 36.173033999799998 ], [ -115.2685485, 36.173031299800002 ], [ -115.2685458, 36.173031299800002 ], [ -115.2685458, 36.172988099800001 ], [ -115.2685485, 36.172988099800001 ], [ -115.2685485, 36.172985399799998 ], [ -115.2685539, 36.172985399799998 ], [ -115.2685539, 36.172982699800002 ], [ -115.2685593, 36.172982699800002 ], [ -115.2685593, 36.172979999799999 ], [ -115.268589, 36.172979999799999 ], [ -115.268589, 36.172977299799996 ], [ -115.26872130000001, 36.172977299799996 ], [ -115.26872130000001, 36.172979999799999 ], [ -115.268729400000012, 36.172979999799999 ], [ -115.268729400000012, 36.172982699800002 ], [ -115.2687321, 36.172982699800002 ], [ -115.2687321, 36.172985399799998 ], [ -115.2687348, 36.172985399799998 ], [ -115.2687348, 36.1729934998 ], [ -115.2687375, 36.1729934998 ], [ -115.2687375, 36.172996199799996 ], [ -115.2687348, 36.172996199799996 ], [ -115.2687348, 36.173060999800001 ], [ -115.2687321, 36.173060999800001 ], [ -115.2687321, 36.173063699799997 ], [ -115.2687051, 36.173063699799997 ], [ -115.2687051, 36.173069099799996 ], [ -115.2687024, 36.173069099799996 ], [ -115.2687024, 36.173120399799998 ], [ -115.2686997, 36.173120399799998 ], [ -115.2686997, 36.173123099800002 ], [ -115.2686484, 36.173123099800002 ], [ -115.2686484, 36.173125799799998 ] ] ] } },
{ "type": "Feature", "properties": { "value": 255.0 }, "geometry": { "type": "Polygon", "coordinates": [ [ [ -115.26724440000001, 36.172944899800001 ], [ -115.2671634, 36.172944899800001 ], [ -115.2671634, 36.172942199799998 ], [ -115.267158, 36.172942199799998 ], [ -115.267158, 36.172939499800002 ], [ -115.2671553, 36.172939499800002 ], [ -115.2671553, 36.172934099799996 ], [ -115.2671526, 36.172934099799996 ], [ -115.2671526, 36.1728395998 ], [ -115.267158, 36.1728395998 ], [ -115.267158, 36.172836899799997 ], [ -115.2672039, 36.172836899799997 ], [ -115.2672039, 36.1728341998 ], [ -115.2672228, 36.1728341998 ], [ -115.2672228, 36.172831499799997 ], [ -115.2672471, 36.172831499799997 ], [ -115.2672471, 36.1728341998 ], [ -115.2672552, 36.1728341998 ], [ -115.2672552, 36.172836899799997 ], [ -115.2672579, 36.172836899799997 ], [ -115.2672579, 36.172842299799996 ], [ -115.2672606, 36.172842299799996 ], [ -115.2672606, 36.172847699800002 ], [ -115.2672633, 36.172847699800002 ], [ -115.2672633, 36.1728584998 ], [ -115.267266, 36.1728584998 ], [ -115.267266, 36.172863899799999 ], [ -115.2672687, 36.172863899799999 ], [ -115.2672687, 36.172869299799999 ], [ -115.2672714, 36.172869299799999 ], [ -115.2672714, 36.172885499799996 ], [ -115.2672687, 36.172885499799996 ], [ -115.2672687, 36.172896299800001 ], [ -115.267266, 36.172896299800001 ], [ -115.267266, 36.172898999799997 ], [ -115.2672579, 36.172898999799997 ], [ -115.2672579, 36.172901699800001 ], [ -115.2672552, 36.172901699800001 ], [ -115.2672552, 36.172904399799997 ], [ -115.2672525, 36.172904399799997 ], [ -115.2672525, 36.172912499799999 ], [ -115.2672498, 36.172912499799999 ], [ -115.2672498, 36.1729259998 ], [ -115.2672471, 36.1729259998 ], [ -115.2672471, 36.172942199799998 ], [ -115.26724440000001, 36.172942199799998 ], [ -115.26724440000001, 36.172944899800001 ] ] ] } },
{ "type": "Feature", "properties": { "value": 255.0 }, "geometry": { "type": "Polygon", "coordinates": [ [ [ -115.2687348, 36.172942199799998 ], [ -115.268562, 36.172942199799998 ], [ -115.268562, 36.172939499800002 ], [ -115.2685593, 36.172939499800002 ], [ -115.2685593, 36.172936799799999 ], [ -115.268556600000011, 36.172936799799999 ], [ -115.268556600000011, 36.172931399799999 ], [ -115.2685539, 36.172931399799999 ], [ -115.2685539, 36.172928699799996 ], [ -115.2685512, 36.172928699799996 ], [ -115.2685512, 36.172923299799997 ], [ -115.2685485, 36.172923299799997 ], [ -115.2685485, 36.172909799799996 ], [ -115.2685512, 36.172909799799996 ], [ -115.2685512, 36.172901699800001 ], [ -115.2685539, 36.172901699800001 ], [ -115.2685539, 36.172863899799999 ], [ -115.268556600000011, 36.172863899799999 ], [ -115.268556600000011, 36.172801799799998 ], [ -115.2685593, 36.172801799799998 ], [ -115.2685593, 36.172799099800002 ], [ -115.2685674, 36.172799099800002 ], [ -115.2685674, 36.172796399799999 ], [ -115.2686835, 36.172796399799999 ], [ -115.2686835, 36.172799099800002 ], [ -115.2686943, 36.172799099800002 ], [ -115.2686943, 36.172801799799998 ], [ -115.268697, 36.172801799799998 ], [ -115.268697, 36.172804499800002 ], [ -115.2686997, 36.172804499800002 ], [ -115.2686997, 36.172823399800002 ], [ -115.2687024, 36.172823399800002 ], [ -115.2687024, 36.172850399799998 ], [ -115.2687051, 36.172850399799998 ], [ -115.2687051, 36.172855799799997 ], [ -115.2687078, 36.172855799799997 ], [ -115.2687078, 36.1728584998 ], [ -115.26872130000001, 36.1728584998 ], [ -115.26872130000001, 36.172861199799996 ], [ -115.2687267, 36.172861199799996 ], [ -115.2687267, 36.172863899799999 ], [ -115.268729400000012, 36.172863899799999 ], [ -115.268729400000012, 36.172869299799999 ], [ -115.2687321, 36.172869299799999 ], [ -115.2687321, 36.172874699799998 ], [ -115.2687348, 36.172874699799998 ], [ -115.2687348, 36.172885499799996 ], [ -115.2687375, 36.172885499799996 ], [ -115.2687375, 36.172936799799999 ], [ -115.2687348, 36.172936799799999 ], [ -115.2687348, 36.172942199799998 ] ] ] } },
{ "type": "Feature", "properties": { "value": 255.0 }, "geometry": { "type": "Polygon", "coordinates": [ [ [ -115.2684054, 36.172963799800002 ], [ -115.2682326, 36.172963799800002 ], [ -115.2682326, 36.172961099799998 ], [ -115.2682299, 36.172961099799998 ], [ -115.2682299, 36.172952999799996 ], [ -115.2682272, 36.172952999799996 ], [ -115.2682272, 36.172909799799996 ], [ -115.2682245, 36.172909799799996 ], [ -115.2682245, 36.172880099799997 ], [ -115.2682218, 36.172880099799997 ], [ -115.2682218, 36.1728584998 ], [ -115.26821910000001, 36.1728584998 ], [ -115.26821910000001, 36.172836899799997 ], [ -115.2682164, 36.172836899799997 ], [ -115.2682164, 36.172823399800002 ], [ -115.26821910000001, 36.172823399800002 ], [ -115.26821910000001, 36.172804499800002 ], [ -115.2682218, 36.172804499800002 ], [ -115.2682218, 36.172801799799998 ], [ -115.2682245, 36.172801799799998 ], [ -115.2682245, 36.172799099800002 ], [ -115.2682272, 36.172799099800002 ], [ -115.2682272, 36.1727909998 ], [ -115.2682299, 36.1727909998 ], [ -115.2682299, 36.172788299799997 ], [ -115.2682326, 36.172788299799997 ], [ -115.2682326, 36.172785599800001 ], [ -115.2682434, 36.172785599800001 ], [ -115.2682434, 36.172782899799998 ], [ -115.2682704, 36.172782899799998 ], [ -115.2682704, 36.172785599800001 ], [ -115.2682839, 36.172785599800001 ], [ -115.2682839, 36.172788299799997 ], [ -115.268324400000012, 36.172788299799997 ], [ -115.268324400000012, 36.1727909998 ], [ -115.2683298, 36.1727909998 ], [ -115.2683298, 36.172796399799999 ], [ -115.2683325, 36.172796399799999 ], [ -115.2683325, 36.172801799799998 ], [ -115.26833520000001, 36.172801799799998 ], [ -115.26833520000001, 36.172804499800002 ], [ -115.2683379, 36.172804499800002 ], [ -115.2683379, 36.172807199799998 ], [ -115.2683433, 36.172807199799998 ], [ -115.2683433, 36.172809899800001 ], [ -115.268373, 36.172809899800001 ], [ -115.268373, 36.172807199799998 ], [ -115.2683865, 36.172807199799998 ], [ -115.2683865, 36.172809899800001 ], [ -115.2684081, 36.172809899800001 ], [ -115.2684081, 36.172812599799997 ], [ -115.2684108, 36.172812599799997 ], [ -115.2684108, 36.172817999799996 ], [ -115.2684135, 36.172817999799996 ], [ -115.2684135, 36.172958399800002 ], [ -115.2684108, 36.172958399800002 ], [ -115.2684108, 36.172961099799998 ], [ -115.2684054, 36.172961099799998 ], [ -115.2684054, 36.172963799800002 ] ] ] } },
{ "type": "Feature", "properties": { "value": 255.0 }, "geometry": { "type": "Polygon", "coordinates": [ [ [ -115.2680733, 36.172955699799999 ], [ -115.2680058, 36.172955699799999 ], [ -115.2680058, 36.172952999799996 ], [ -115.2680031, 36.172952999799996 ], [ -115.2680031, 36.172947599799997 ], [ -115.2680004, 36.172947599799997 ], [ -115.2680004, 36.172923299799997 ], [ -115.2679977, 36.172923299799997 ], [ -115.2679977, 36.172871999800002 ], [ -115.267995, 36.172871999800002 ], [ -115.267995, 36.172831499799997 ], [ -115.2679923, 36.172831499799997 ], [ -115.2679923, 36.172817999799996 ], [ -115.267995, 36.172817999799996 ], [ -115.267995, 36.1727909998 ], [ -115.2680004, 36.1727909998 ], [ -115.2680004, 36.172788299799997 ], [ -115.2680895, 36.172788299799997 ], [ -115.2680895, 36.1727909998 ], [ -115.2680922, 36.1727909998 ], [ -115.2680922, 36.172793699799996 ], [ -115.2680949, 36.172793699799996 ], [ -115.2680949, 36.172801799799998 ], [ -115.2680922, 36.172801799799998 ], [ -115.2680922, 36.172826099799998 ], [ -115.2680949, 36.172826099799998 ], [ -115.2680949, 36.172853099800001 ], [ -115.2680976, 36.172853099800001 ], [ -115.2680976, 36.172855799799997 ], [ -115.2681003, 36.172855799799997 ], [ -115.2681003, 36.1728584998 ], [ -115.2681111, 36.1728584998 ], [ -115.2681111, 36.172855799799997 ], [ -115.268157, 36.172855799799997 ], [ -115.268157, 36.1728584998 ], [ -115.2681624, 36.1728584998 ], [ -115.2681624, 36.172855799799997 ], [ -115.2681651, 36.172855799799997 ], [ -115.2681651, 36.1728584998 ], [ -115.2681732, 36.1728584998 ], [ -115.2681732, 36.172861199799996 ], [ -115.2681786, 36.172861199799996 ], [ -115.2681786, 36.172863899799999 ], [ -115.2681813, 36.172863899799999 ], [ -115.2681813, 36.172885499799996 ], [ -115.268184, 36.172885499799996 ], [ -115.268184, 36.172920599800001 ], [ -115.2681813, 36.172920599800001 ], [ -115.2681813, 36.172931399799999 ], [ -115.2681786, 36.172931399799999 ], [ -115.2681786, 36.172944899800001 ], [ -115.2681759, 36.172944899800001 ], [ -115.2681759, 36.1729502998 ], [ -115.2681732, 36.1729502998 ], [ -115.2681732, 36.172952999799996 ], [ -115.2680733, 36.172952999799996 ], [ -115.2680733, 36.172955699799999 ] ] ] } },
{ "type": "Feature", "properties": { "value": 255.0 }, "geometry": { "type": "Polygon", "coordinates": [ [ [ -115.2679059, 36.172885499799996 ], [ -115.2678573, 36.172885499799996 ], [ -115.2678573, 36.1728827998 ], [ -115.2678168, 36.1728827998 ], [ -115.2678168, 36.172885499799996 ], [ -115.267779, 36.172885499799996 ], [ -115.267779, 36.1728827998 ], [ -115.2677736, 36.1728827998 ], [ -115.2677736, 36.172880099799997 ], [ -115.2677709, 36.172880099799997 ], [ -115.2677709, 36.172874699799998 ], [ -115.2677682, 36.172874699799998 ], [ -115.2677682, 36.172847699800002 ], [ -115.2677709, 36.172847699800002 ], [ -115.2677709, 36.172807199799998 ], [ -115.2677682, 36.172807199799998 ], [ -115.2677682, 36.172796399799999 ], [ -115.2677709, 36.172796399799999 ], [ -115.2677709, 36.172788299799997 ], [ -115.2677736, 36.172788299799997 ], [ -115.2677736, 36.172782899799998 ], [ -115.2677763, 36.172782899799998 ], [ -115.2677763, 36.172777499799999 ], [ -115.267779, 36.172777499799999 ], [ -115.267779, 36.172774799800003 ], [ -115.267784400000011, 36.172774799800003 ], [ -115.267784400000011, 36.1727720998 ], [ -115.2678303, 36.1727720998 ], [ -115.2678303, 36.172769399799996 ], [ -115.2678546, 36.172769399799996 ], [ -115.2678546, 36.1727666998 ], [ -115.2678627, 36.1727666998 ], [ -115.2678627, 36.172763999799997 ], [ -115.2678681, 36.172763999799997 ], [ -115.2678681, 36.172761299800001 ], [ -115.2678708, 36.172761299800001 ], [ -115.2678708, 36.172758599799998 ], [ -115.2678735, 36.172758599799998 ], [ -115.2678735, 36.172755899800002 ], [ -115.2678762, 36.172755899800002 ], [ -115.2678762, 36.172753199799999 ], [ -115.2678789, 36.172753199799999 ], [ -115.2678789, 36.172750499800003 ], [ -115.26788160000001, 36.172750499800003 ], [ -115.26788160000001, 36.1727477998 ], [ -115.267887, 36.1727477998 ], [ -115.267887, 36.172745099799997 ], [ -115.2679248, 36.172745099799997 ], [ -115.2679248, 36.172742399800001 ], [ -115.2679464, 36.172742399800001 ], [ -115.2679464, 36.172745099799997 ], [ -115.2679518, 36.172745099799997 ], [ -115.2679518, 36.172750499800003 ], [ -115.2679545, 36.172750499800003 ], [ -115.2679545, 36.172769399799996 ], [ -115.2679518, 36.172769399799996 ], [ -115.2679518, 36.172826099799998 ], [ -115.2679545, 36.172826099799998 ], [ -115.2679545, 36.172880099799997 ], [ -115.2679518, 36.172880099799997 ], [ -115.2679518, 36.1728827998 ], [ -115.2679059, 36.1728827998 ], [ -115.2679059, 36.172885499799996 ] ] ] } },
{ "type": "Feature", "properties": { "value": 255.0 }, "geometry": { "type": "Polygon", "coordinates": [ [ [ -115.2677088, 36.172888199799999 ], [ -115.2677061, 36.172888199799999 ], [ -115.2677061, 36.172885499799996 ], [ -115.2676872, 36.172885499799996 ], [ -115.2676872, 36.1728827998 ], [ -115.2676764, 36.1728827998 ], [ -115.2676764, 36.172885499799996 ], [ -115.2676656, 36.172885499799996 ], [ -115.2676656, 36.172888199799999 ], [ -115.2676602, 36.172888199799999 ], [ -115.2676602, 36.172885499799996 ], [ -115.2676197, 36.172885499799996 ], [ -115.2676197, 36.172888199799999 ], [ -115.267563, 36.172888199799999 ], [ -115.267563, 36.172885499799996 ], [ -115.2675522, 36.172885499799996 ], [ -115.2675522, 36.1728827998 ], [ -115.2675468, 36.1728827998 ], [ -115.2675468, 36.172880099799997 ], [ -115.2675387, 36.172880099799997 ], [ -115.2675387, 36.172877399800001 ], [ -115.2675252, 36.172877399800001 ], [ -115.2675252, 36.172880099799997 ], [ -115.26751440000001, 36.172880099799997 ], [ -115.26751440000001, 36.172866599800003 ], [ -115.2675117, 36.172866599800003 ], [ -115.2675117, 36.172799099800002 ], [ -115.26751440000001, 36.172799099800002 ], [ -115.26751440000001, 36.172793699799996 ], [ -115.2675225, 36.172793699799996 ], [ -115.2675225, 36.1727909998 ], [ -115.2675387, 36.1727909998 ], [ -115.2675387, 36.172788299799997 ], [ -115.2675441, 36.172788299799997 ], [ -115.2675441, 36.172785599800001 ], [ -115.2675468, 36.172785599800001 ], [ -115.2675468, 36.172782899799998 ], [ -115.2675495, 36.172782899799998 ], [ -115.2675495, 36.172780199800002 ], [ -115.2675549, 36.172780199800002 ], [ -115.2675549, 36.172777499799999 ], [ -115.2675576, 36.172777499799999 ], [ -115.2675576, 36.172774799800003 ], [ -115.267563, 36.172774799800003 ], [ -115.267563, 36.1727720998 ], [ -115.2675684, 36.1727720998 ], [ -115.2675684, 36.172769399799996 ], [ -115.2675981, 36.172769399799996 ], [ -115.2675981, 36.1727666998 ], [ -115.2676089, 36.1727666998 ], [ -115.2676089, 36.172763999799997 ], [ -115.2676116, 36.172763999799997 ], [ -115.2676116, 36.172761299800001 ], [ -115.2676143, 36.172761299800001 ], [ -115.2676143, 36.172750499800003 ], [ -115.267617, 36.172750499800003 ], [ -115.267617, 36.172745099799997 ], [ -115.2676251, 36.172745099799997 ], [ -115.2676251, 36.172742399800001 ], [ -115.2676575, 36.172742399800001 ], [ -115.2676575, 36.172739699799997 ], [ -115.267716900000011, 36.172739699799997 ], [ -115.267716900000011, 36.172742399800001 ], [ -115.2677223, 36.172742399800001 ], [ -115.2677223, 36.172745099799997 ], [ -115.267725, 36.172745099799997 ], [ -115.267725, 36.1727666998 ], [ -115.2677223, 36.1727666998 ], [ -115.2677223, 36.172774799800003 ], [ -115.267725, 36.172774799800003 ], [ -115.267725, 36.172809899800001 ], [ -115.2677277, 36.172809899800001 ], [ -115.2677277, 36.172855799799997 ], [ -115.267725, 36.172855799799997 ], [ -115.267725, 36.172874699799998 ], [ -115.2677223, 36.172874699799998 ], [ -115.2677223, 36.172880099799997 ], [ -115.2677196, 36.172880099799997 ], [ -115.2677196, 36.1728827998 ], [ -115.267716900000011, 36.1728827998 ], [ -115.267716900000011, 36.172885499799996 ], [ -115.2677088, 36.172885499799996 ], [ -115.2677088, 36.172888199799999 ] ] ] } },
{ "type": "Feature", "properties": { "value": 255.0 }, "geometry": { "type": "Polygon", "coordinates": [ [ [ -115.2671661, 36.1727720998 ], [ -115.2671526, 36.1727720998 ], [ -115.2671526, 36.172634399799996 ], [ -115.2671553, 36.172634399799996 ], [ -115.2671553, 36.1726316998 ], [ -115.2672525, 36.1726316998 ], [ -115.2672525, 36.172634399799996 ], [ -115.2672579, 36.172634399799996 ], [ -115.2672579, 36.172637099799999 ], [ -115.2672606, 36.172637099799999 ], [ -115.2672606, 36.172642499799998 ], [ -115.2672633, 36.172642499799998 ], [ -115.2672633, 36.172709999799999 ], [ -115.2672606, 36.172709999799999 ], [ -115.2672606, 36.172712699800002 ], [ -115.2671904, 36.172712699800002 ], [ -115.2671904, 36.172709999799999 ], [ -115.2671796, 36.172709999799999 ], [ -115.2671796, 36.172712699800002 ], [ -115.2671742, 36.172712699800002 ], [ -115.2671742, 36.172715399799998 ], [ -115.2671715, 36.172715399799998 ], [ -115.2671715, 36.1727666998 ], [ -115.2671688, 36.1727666998 ], [ -115.2671688, 36.172769399799996 ], [ -115.2671661, 36.172769399799996 ], [ -115.2671661, 36.1727720998 ] ] ] } },
{ "type": "Feature", "properties": { "value": 255.0 }, "geometry": { "type": "Polygon", "coordinates": [ [ [ -115.2685917, 36.1727666998 ], [ -115.2685728, 36.1727666998 ], [ -115.2685728, 36.172763999799997 ], [ -115.2685674, 36.172763999799997 ], [ -115.2685674, 36.172758599799998 ], [ -115.2685647, 36.172758599799998 ], [ -115.2685647, 36.1726802998 ], [ -115.268562, 36.1726802998 ], [ -115.268562, 36.172677599799997 ], [ -115.2685593, 36.172677599799997 ], [ -115.2685593, 36.172674899800001 ], [ -115.268556600000011, 36.172674899800001 ], [ -115.268556600000011, 36.172672199799997 ], [ -115.2685539, 36.172672199799997 ], [ -115.2685539, 36.172661399799999 ], [ -115.268556600000011, 36.172661399799999 ], [ -115.268556600000011, 36.172653299799997 ], [ -115.2685593, 36.172653299799997 ], [ -115.2685593, 36.172642499799998 ], [ -115.268562, 36.172642499799998 ], [ -115.268562, 36.172615499800003 ], [ -115.2685674, 36.172615499800003 ], [ -115.2685674, 36.1726127998 ], [ -115.2686889, 36.1726127998 ], [ -115.2686889, 36.172615499800003 ], [ -115.2687186, 36.172615499800003 ], [ -115.2687186, 36.1726127998 ], [ -115.2687348, 36.1726127998 ], [ -115.2687348, 36.172618199799999 ], [ -115.2687375, 36.172618199799999 ], [ -115.2687375, 36.172688399800002 ], [ -115.2687348, 36.172688399800002 ], [ -115.2687348, 36.172691099799998 ], [ -115.2686997, 36.172691099799998 ], [ -115.2686997, 36.172693799800001 ], [ -115.2686484, 36.172693799800001 ], [ -115.2686484, 36.172696499799997 ], [ -115.2686457, 36.172696499799997 ], [ -115.2686457, 36.172761299800001 ], [ -115.268643, 36.172761299800001 ], [ -115.268643, 36.172763999799997 ], [ -115.2685917, 36.172763999799997 ], [ -115.2685917, 36.1727666998 ] ] ] } },
{ "type": "Feature", "properties": { "value": 255.0 }, "geometry": { "type": "Polygon", "coordinates": [ [ [ -115.2672363, 36.172599299799998 ], [ -115.2671526, 36.172599299799998 ], [ -115.2671526, 36.172456199800003 ], [ -115.2671688, 36.172456199800003 ], [ -115.2671688, 36.1724534998 ], [ -115.2672147, 36.1724534998 ], [ -115.2672147, 36.172456199800003 ], [ -115.2672255, 36.172456199800003 ], [ -115.2672255, 36.172458899799999 ], [ -115.2672282, 36.172458899799999 ], [ -115.2672282, 36.172461599800002 ], [ -115.2672309, 36.172461599800002 ], [ -115.2672309, 36.172504799800002 ], [ -115.2672336, 36.172504799800002 ], [ -115.2672336, 36.172512899799997 ], [ -115.2672579, 36.172512899799997 ], [ -115.2672579, 36.172515599800001 ], [ -115.2672633, 36.172515599800001 ], [ -115.2672633, 36.172518299799997 ], [ -115.267266, 36.172518299799997 ], [ -115.267266, 36.172545299799999 ], [ -115.2672633, 36.172545299799999 ], [ -115.2672633, 36.172577699800001 ], [ -115.2672606, 36.172577699800001 ], [ -115.2672606, 36.172585799799997 ], [ -115.2672579, 36.172585799799997 ], [ -115.2672579, 36.1725884998 ], [ -115.2672552, 36.1725884998 ], [ -115.2672552, 36.172591199800003 ], [ -115.2672525, 36.172591199800003 ], [ -115.2672525, 36.172593899799999 ], [ -115.2672471, 36.172593899799999 ], [ -115.2672471, 36.172596599800002 ], [ -115.2672363, 36.172596599800002 ], [ -115.2672363, 36.172599299799998 ] ] ] } },
{ "type": "Feature", "properties": { "value": 255.0 }, "geometry": { "type": "Polygon", "coordinates": [ [ [ -115.2687321, 36.172583099800001 ], [ -115.268710500000012, 36.172583099800001 ], [ -115.268710500000012, 36.172580399799998 ], [ -115.26867270000001, 36.172580399799998 ], [ -115.26867270000001, 36.172583099800001 ], [ -115.26867, 36.172583099800001 ], [ -115.26867, 36.172580399799998 ], [ -115.268594400000012, 36.172580399799998 ], [ -115.268594400000012, 36.172577699800001 ], [ -115.2685674, 36.172577699800001 ], [ -115.2685674, 36.172574999799998 ], [ -115.268562, 36.172574999799998 ], [ -115.268562, 36.172518299799997 ], [ -115.2685647, 36.172518299799997 ], [ -115.2685647, 36.1724723998 ], [ -115.2685674, 36.1724723998 ], [ -115.2685674, 36.172464299799998 ], [ -115.2685701, 36.172464299799998 ], [ -115.2685701, 36.172445399799997 ], [ -115.2685728, 36.172445399799997 ], [ -115.2685728, 36.172442699800001 ], [ -115.2685782, 36.172442699800001 ], [ -115.2685782, 36.172439999799998 ], [ -115.2685836, 36.172439999799998 ], [ -115.2685836, 36.172437299800002 ], [ -115.268589, 36.172437299800002 ], [ -115.268589, 36.172434599799999 ], [ -115.2687078, 36.172434599799999 ], [ -115.2687078, 36.172437299800002 ], [ -115.26872130000001, 36.172437299800002 ], [ -115.26872130000001, 36.172439999799998 ], [ -115.2687267, 36.172439999799998 ], [ -115.2687267, 36.172442699800001 ], [ -115.268729400000012, 36.172442699800001 ], [ -115.268729400000012, 36.172445399799997 ], [ -115.2687321, 36.172445399799997 ], [ -115.2687321, 36.1724534998 ], [ -115.268729400000012, 36.1724534998 ], [ -115.268729400000012, 36.172456199800003 ], [ -115.2687267, 36.172456199800003 ], [ -115.2687267, 36.172464299799998 ], [ -115.268724, 36.172464299799998 ], [ -115.268724, 36.1724723998 ], [ -115.26872130000001, 36.1724723998 ], [ -115.26872130000001, 36.172488599799998 ], [ -115.2687186, 36.172488599799998 ], [ -115.2687186, 36.1724966998 ], [ -115.26872130000001, 36.1724966998 ], [ -115.26872130000001, 36.172499399800003 ], [ -115.268724, 36.172499399800003 ], [ -115.268724, 36.172502099799999 ], [ -115.268729400000012, 36.172502099799999 ], [ -115.268729400000012, 36.172504799800002 ], [ -115.2687321, 36.172504799800002 ], [ -115.2687321, 36.172507499799998 ], [ -115.2687348, 36.172507499799998 ], [ -115.2687348, 36.172510199800001 ], [ -115.2687375, 36.172510199800001 ], [ -115.2687375, 36.172512899799997 ], [ -115.268740200000011, 36.172512899799997 ], [ -115.268740200000011, 36.172547999800003 ], [ -115.2687375, 36.172547999800003 ], [ -115.2687375, 36.172577699800001 ], [ -115.2687348, 36.172577699800001 ], [ -115.2687348, 36.172580399799998 ], [ -115.2687321, 36.172580399799998 ], [ -115.2687321, 36.172583099800001 ] ] ] } },
{ "type": "Feature", "properties": { "value": 255.0 }, "geometry": { "type": "Polygon", "coordinates": [ [ [ -115.2678681, 36.172502099799999 ], [ -115.267851900000011, 36.172502099799999 ], [ -115.267851900000011, 36.172499399800003 ], [ -115.2678465, 36.172499399800003 ], [ -115.2678465, 36.172493999799997 ], [ -115.2678438, 36.172493999799997 ], [ -115.2678438, 36.172475099800003 ], [ -115.2678411, 36.172475099800003 ], [ -115.2678411, 36.1724723998 ], [ -115.2677763, 36.1724723998 ], [ -115.2677763, 36.172469699799997 ], [ -115.2677709, 36.172469699799997 ], [ -115.2677709, 36.172466999800001 ], [ -115.2677682, 36.172466999800001 ], [ -115.2677682, 36.172464299799998 ], [ -115.26776550000001, 36.172464299799998 ], [ -115.26776550000001, 36.172461599800002 ], [ -115.2677628, 36.172461599800002 ], [ -115.2677628, 36.1724534998 ], [ -115.2677601, 36.1724534998 ], [ -115.2677601, 36.172402199799997 ], [ -115.2677574, 36.172402199799997 ], [ -115.2677574, 36.172377899799997 ], [ -115.2677601, 36.172377899799997 ], [ -115.2677601, 36.1723616998 ], [ -115.2677628, 36.1723616998 ], [ -115.2677628, 36.172358999800004 ], [ -115.26776550000001, 36.172358999800004 ], [ -115.26776550000001, 36.172356299800001 ], [ -115.267779, 36.172356299800001 ], [ -115.267779, 36.172353599799997 ], [ -115.2678168, 36.172353599799997 ], [ -115.2678168, 36.172350899800001 ], [ -115.2679248, 36.172350899800001 ], [ -115.2679248, 36.172348199799998 ], [ -115.2679356, 36.172348199799998 ], [ -115.2679356, 36.172350899800001 ], [ -115.267941, 36.172350899800001 ], [ -115.267941, 36.172353599799997 ], [ -115.2679437, 36.172353599799997 ], [ -115.2679437, 36.172358999800004 ], [ -115.2679464, 36.172358999800004 ], [ -115.2679464, 36.172410299799999 ], [ -115.26794910000001, 36.172410299799999 ], [ -115.26794910000001, 36.172493999799997 ], [ -115.2679464, 36.172493999799997 ], [ -115.2679464, 36.1724966998 ], [ -115.267887, 36.1724966998 ], [ -115.267887, 36.172499399800003 ], [ -115.2678681, 36.172499399800003 ], [ -115.2678681, 36.172502099799999 ] ] ] } },
{ "type": "Feature", "properties": { "value": 255.0 }, "geometry": { "type": "Polygon", "coordinates": [ [ [ -115.26763050000001, 36.172502099799999 ], [ -115.2675522, 36.172502099799999 ], [ -115.2675522, 36.172499399800003 ], [ -115.2675495, 36.172499399800003 ], [ -115.2675495, 36.172450799800004 ], [ -115.2675522, 36.172450799800004 ], [ -115.2675522, 36.172412999800002 ], [ -115.2675495, 36.172412999800002 ], [ -115.2675495, 36.172358999800004 ], [ -115.2675522, 36.172358999800004 ], [ -115.2675522, 36.172356299800001 ], [ -115.2675549, 36.172356299800001 ], [ -115.2675549, 36.172353599799997 ], [ -115.2676926, 36.172353599799997 ], [ -115.2676926, 36.172356299800001 ], [ -115.2677088, 36.172356299800001 ], [ -115.2677088, 36.172358999800004 ], [ -115.267716900000011, 36.172358999800004 ], [ -115.267716900000011, 36.1723616998 ], [ -115.2677223, 36.1723616998 ], [ -115.2677223, 36.172367099799999 ], [ -115.267725, 36.172367099799999 ], [ -115.267725, 36.172372499799998 ], [ -115.2677277, 36.172372499799998 ], [ -115.2677277, 36.172439999799998 ], [ -115.267725, 36.172439999799998 ], [ -115.267725, 36.172442699800001 ], [ -115.2677196, 36.172442699800001 ], [ -115.2677196, 36.172445399799997 ], [ -115.267698, 36.172445399799997 ], [ -115.267698, 36.1724480998 ], [ -115.2676899, 36.1724480998 ], [ -115.2676899, 36.172450799800004 ], [ -115.2676413, 36.172450799800004 ], [ -115.2676413, 36.1724480998 ], [ -115.2676386, 36.1724480998 ], [ -115.2676386, 36.172450799800004 ], [ -115.2676359, 36.172450799800004 ], [ -115.2676359, 36.1724966998 ], [ -115.2676332, 36.1724966998 ], [ -115.2676332, 36.172499399800003 ], [ -115.26763050000001, 36.172499399800003 ], [ -115.26763050000001, 36.172502099799999 ] ] ] } },
{ "type": "Feature", "properties": { "value": 255.0 }, "geometry": { "type": "Polygon", "coordinates": [ [ [ -115.2672363, 36.172426499799997 ], [ -115.2671526, 36.172426499799997 ], [ -115.2671526, 36.172283399800001 ], [ -115.2672012, 36.172283399800001 ], [ -115.2672012, 36.172286099799997 ], [ -115.2672606, 36.172286099799997 ], [ -115.2672606, 36.1722887998 ], [ -115.2672633, 36.1722887998 ], [ -115.2672633, 36.172291499800004 ], [ -115.267266, 36.172291499800004 ], [ -115.267266, 36.172304999799998 ], [ -115.2672687, 36.172304999799998 ], [ -115.2672687, 36.172375199800001 ], [ -115.267266, 36.172375199800001 ], [ -115.267266, 36.172377899799997 ], [ -115.2672633, 36.172377899799997 ], [ -115.2672633, 36.1723805998 ], [ -115.2672525, 36.1723805998 ], [ -115.2672525, 36.172383299800003 ], [ -115.2672471, 36.172383299800003 ], [ -115.2672471, 36.172421099799998 ], [ -115.26724440000001, 36.172421099799998 ], [ -115.26724440000001, 36.172423799800001 ], [ -115.2672363, 36.172423799800001 ], [ -115.2672363, 36.172426499799997 ] ] ] } },
{ "type": "Feature", "properties": { "value": 255.0 }, "geometry": { "type": "Polygon", "coordinates": [ [ [ -115.2680922, 36.172464299799998 ], [ -115.2680112, 36.172464299799998 ], [ -115.2680112, 36.172461599800002 ], [ -115.2680085, 36.172461599800002 ], [ -115.2680085, 36.172458899799999 ], [ -115.2680058, 36.172458899799999 ], [ -115.2680058, 36.172439999799998 ], [ -115.2680085, 36.172439999799998 ], [ -115.2680085, 36.172412999800002 ], [ -115.2680058, 36.172412999800002 ], [ -115.2680058, 36.172407599800003 ], [ -115.2680085, 36.172407599800003 ], [ -115.2680085, 36.172377899799997 ], [ -115.2680058, 36.172377899799997 ], [ -115.2680058, 36.172369799800002 ], [ -115.2680031, 36.172369799800002 ], [ -115.2680031, 36.172358999800004 ], [ -115.2680004, 36.172358999800004 ], [ -115.2680004, 36.172345499800002 ], [ -115.2679977, 36.172345499800002 ], [ -115.2679977, 36.172342799799999 ], [ -115.2680004, 36.172342799799999 ], [ -115.2680004, 36.172334699800004 ], [ -115.2680031, 36.172334699800004 ], [ -115.2680031, 36.172329299799998 ], [ -115.2680058, 36.172329299799998 ], [ -115.2680058, 36.172315799800003 ], [ -115.2680085, 36.172315799800003 ], [ -115.2680085, 36.1722941998 ], [ -115.2680112, 36.1722941998 ], [ -115.2680112, 36.172291499800004 ], [ -115.2680571, 36.172291499800004 ], [ -115.2680571, 36.1722887998 ], [ -115.2680949, 36.1722887998 ], [ -115.2680949, 36.172291499800004 ], [ -115.2680976, 36.172291499800004 ], [ -115.2680976, 36.1722941998 ], [ -115.2681003, 36.1722941998 ], [ -115.2681003, 36.172326599800002 ], [ -115.268103, 36.172326599800002 ], [ -115.268103, 36.172329299799998 ], [ -115.2681489, 36.172329299799998 ], [ -115.2681489, 36.172331999800001 ], [ -115.268157, 36.172331999800001 ], [ -115.268157, 36.172334699800004 ], [ -115.2681597, 36.172334699800004 ], [ -115.2681597, 36.172353599799997 ], [ -115.268157, 36.172353599799997 ], [ -115.268157, 36.172358999800004 ], [ -115.2681597, 36.172358999800004 ], [ -115.2681597, 36.172412999800002 ], [ -115.268157, 36.172412999800002 ], [ -115.268157, 36.172439999799998 ], [ -115.2681543, 36.172439999799998 ], [ -115.2681543, 36.172442699800001 ], [ -115.2681057, 36.172442699800001 ], [ -115.2681057, 36.172445399799997 ], [ -115.2681003, 36.172445399799997 ], [ -115.2681003, 36.1724480998 ], [ -115.2680976, 36.1724480998 ], [ -115.2680976, 36.172456199800003 ], [ -115.2680949, 36.172456199800003 ], [ -115.2680949, 36.172461599800002 ], [ -115.2680922, 36.172461599800002 ], [ -115.2680922, 36.172464299799998 ] ] ] } },
{ "type": "Feature", "properties": { "value": 255.0 }, "geometry": { "type": "Polygon", "coordinates": [ [ [ -115.268740200000011, 36.172402199799997 ], [ -115.2686376, 36.172402199799997 ], [ -115.2686376, 36.172399499800001 ], [ -115.2686322, 36.172399499800001 ], [ -115.2686322, 36.172396799799998 ], [ -115.2685809, 36.172396799799998 ], [ -115.2685809, 36.172394099800002 ], [ -115.268575500000011, 36.172394099800002 ], [ -115.268575500000011, 36.172391399799999 ], [ -115.2685728, 36.172391399799999 ], [ -115.2685728, 36.172385999799999 ], [ -115.2685701, 36.172385999799999 ], [ -115.2685701, 36.172383299800003 ], [ -115.2685674, 36.172383299800003 ], [ -115.2685674, 36.172350899800001 ], [ -115.2685701, 36.172350899800001 ], [ -115.2685701, 36.172345499800002 ], [ -115.2685728, 36.172345499800002 ], [ -115.2685728, 36.172340099800003 ], [ -115.268575500000011, 36.172340099800003 ], [ -115.268575500000011, 36.172299599799999 ], [ -115.2685782, 36.172299599799999 ], [ -115.2685782, 36.172277999800002 ], [ -115.2685809, 36.172277999800002 ], [ -115.2685809, 36.172275299799999 ], [ -115.2686322, 36.172275299799999 ], [ -115.2686322, 36.172272599800003 ], [ -115.2687132, 36.172272599800003 ], [ -115.2687132, 36.172275299799999 ], [ -115.2687186, 36.172275299799999 ], [ -115.2687186, 36.172280699799998 ], [ -115.26872130000001, 36.172280699799998 ], [ -115.26872130000001, 36.172329299799998 ], [ -115.268724, 36.172329299799998 ], [ -115.268724, 36.172331999800001 ], [ -115.2687348, 36.172331999800001 ], [ -115.2687348, 36.172334699800004 ], [ -115.268740200000011, 36.172334699800004 ], [ -115.268740200000011, 36.1723373998 ], [ -115.2687429, 36.1723373998 ], [ -115.2687429, 36.172348199799998 ], [ -115.268740200000011, 36.172348199799998 ], [ -115.268740200000011, 36.172372499799998 ], [ -115.2687429, 36.172372499799998 ], [ -115.2687429, 36.172399499800001 ], [ -115.268740200000011, 36.172399499800001 ], [ -115.268740200000011, 36.172402199799997 ] ] ] } },
{ "type": "Feature", "properties": { "value": 255.0 }, "geometry": { "type": "Polygon", "coordinates": [ [ [ -115.2683271, 36.172442699800001 ], [ -115.2682245, 36.172442699800001 ], [ -115.2682245, 36.172439999799998 ], [ -115.2682218, 36.172439999799998 ], [ -115.2682218, 36.172437299800002 ], [ -115.26821910000001, 36.172437299800002 ], [ -115.26821910000001, 36.172434599799999 ], [ -115.2682164, 36.172434599799999 ], [ -115.2682164, 36.1724291998 ], [ -115.2682137, 36.1724291998 ], [ -115.2682137, 36.172421099799998 ], [ -115.268211, 36.172421099799998 ], [ -115.268211, 36.172415699799998 ], [ -115.2682083, 36.172415699799998 ], [ -115.2682083, 36.172385999799999 ], [ -115.2682056, 36.172385999799999 ], [ -115.2682056, 36.172372499799998 ], [ -115.2682029, 36.172372499799998 ], [ -115.2682029, 36.1723373998 ], [ -115.26820020000001, 36.1723373998 ], [ -115.26820020000001, 36.172302299800002 ], [ -115.2682029, 36.172302299800002 ], [ -115.2682029, 36.172296899800003 ], [ -115.2682137, 36.172296899800003 ], [ -115.2682137, 36.172299599799999 ], [ -115.2682434, 36.172299599799999 ], [ -115.2682434, 36.172296899800003 ], [ -115.2682731, 36.172296899800003 ], [ -115.2682731, 36.172299599799999 ], [ -115.2682785, 36.172299599799999 ], [ -115.2682785, 36.172296899800003 ], [ -115.268292, 36.172296899800003 ], [ -115.268292, 36.1722941998 ], [ -115.2683163, 36.1722941998 ], [ -115.2683163, 36.172291499800004 ], [ -115.268324400000012, 36.172291499800004 ], [ -115.268324400000012, 36.1722887998 ], [ -115.2683271, 36.1722887998 ], [ -115.2683271, 36.172286099799997 ], [ -115.2683298, 36.172286099799997 ], [ -115.2683298, 36.172275299799999 ], [ -115.2683325, 36.172275299799999 ], [ -115.2683325, 36.172272599800003 ], [ -115.26833520000001, 36.172272599800003 ], [ -115.26833520000001, 36.1722698998 ], [ -115.268346, 36.1722698998 ], [ -115.268346, 36.172267199800004 ], [ -115.2683838, 36.172267199800004 ], [ -115.2683838, 36.1722698998 ], [ -115.2683865, 36.1722698998 ], [ -115.2683865, 36.172272599800003 ], [ -115.2683892, 36.172272599800003 ], [ -115.2683892, 36.172283399800001 ], [ -115.268391900000012, 36.172283399800001 ], [ -115.268391900000012, 36.1722941998 ], [ -115.2683946, 36.1722941998 ], [ -115.2683946, 36.172302299800002 ], [ -115.2683973, 36.172302299800002 ], [ -115.2683973, 36.1723373998 ], [ -115.2684, 36.1723373998 ], [ -115.2684, 36.172394099800002 ], [ -115.26840270000001, 36.172394099800002 ], [ -115.26840270000001, 36.172410299799999 ], [ -115.2683973, 36.172410299799999 ], [ -115.2683973, 36.172412999800002 ], [ -115.26833520000001, 36.172412999800002 ], [ -115.26833520000001, 36.172415699799998 ], [ -115.2683325, 36.172415699799998 ], [ -115.2683325, 36.172418399800002 ], [ -115.2683298, 36.172418399800002 ], [ -115.2683298, 36.172439999799998 ], [ -115.2683271, 36.172439999799998 ], [ -115.2683271, 36.172442699800001 ] ] ] } },
{ "type": "Feature", "properties": { "value": 255.0 }, "geometry": { "type": "Polygon", "coordinates": [ [ [ -115.2678114, 36.172232099799999 ], [ -115.2677871, 36.172232099799999 ], [ -115.2677871, 36.172229399800003 ], [ -115.267784400000011, 36.172229399800003 ], [ -115.267784400000011, 36.172218599799997 ], [ -115.2677871, 36.172218599799997 ], [ -115.2677871, 36.172215899800001 ], [ -115.2678114, 36.172215899800001 ], [ -115.2678114, 36.172218599799997 ], [ -115.26781410000001, 36.172218599799997 ], [ -115.26781410000001, 36.172229399800003 ], [ -115.2678114, 36.172229399800003 ], [ -115.2678114, 36.172232099799999 ] ] ] } },
{ "type": "Feature", "properties": { "value": 255.0 }, "geometry": { "type": "Polygon", "coordinates": [ [ [ -115.2672633, 36.172240199800001 ], [ -115.2672039, 36.172240199800001 ], [ -115.2672039, 36.172237499799998 ], [ -115.2671931, 36.172237499799998 ], [ -115.2671931, 36.172240199800001 ], [ -115.2671526, 36.172240199800001 ], [ -115.2671526, 36.172172699800001 ], [ -115.2672687, 36.172172699800001 ], [ -115.2672687, 36.172237499799998 ], [ -115.2672633, 36.172237499799998 ], [ -115.2672633, 36.172240199800001 ] ] ] } },
{ "type": "Feature", "properties": { "value": 255.0 }, "geometry": { "type": "Polygon", "coordinates": [ [ [ -115.26860520000001, 36.172223999800003 ], [ -115.268535, 36.172223999800003 ], [ -115.268535, 36.172172699800001 ], [ -115.2687348, 36.172172699800001 ], [ -115.2687348, 36.172183499799999 ], [ -115.2687375, 36.172183499799999 ], [ -115.2687375, 36.172218599799997 ], [ -115.2687348, 36.172218599799997 ], [ -115.2687348, 36.1722212998 ], [ -115.26860520000001, 36.1722212998 ], [ -115.26860520000001, 36.172223999800003 ] ] ] } }
]
}
