{
"type": "FeatureCollection",
"crs": { "type": "name", "properties": { "name": "urn:ogc:def:crs:OGC:1.3:CRS84" } },
"features": [
{ "type": "Feature", "properties": { "value": 255.0 }, "geometry": { "type": "Polygon", "coordinates": [ [ [ -115.1901459, 36.2405745 ], [ -115.190127, 36.2405745 ], [ -115.190127, 36.2405718 ], [ -115.1900919, 36.2405718 ], [ -115.1900919, 36.2405691 ], [ -115.1900433, 36.2405691 ], [ -115.1900433, 36.2405664 ], [ -115.1900136, 36.2405664 ], [ -115.1900136, 36.2405637 ], [ -115.18999740000001, 36.2405637 ], [ -115.18999740000001, 36.240561 ], [ -115.189986600000012, 36.240561 ], [ -115.189986600000012, 36.2405637 ], [ -115.189967700000011, 36.2405637 ], [ -115.189967700000011, 36.240561 ], [ -115.1899596, 36.240561 ], [ -115.1899596, 36.2405583 ], [ -115.1899515, 36.2405583 ], [ -115.1899515, 36.2405556 ], [ -115.1899326, 36.2405556 ], [ -115.1899326, 36.2400237 ], [ -115.1899353, 36.2400237 ], [ -115.1899353, 36.240021 ], [ -115.1899407, 36.240021 ], [ -115.1899407, 36.2400237 ], [ -115.1899434, 36.2400237 ], [ -115.1899434, 36.2400264 ], [ -115.1899461, 36.2400264 ], [ -115.1899461, 36.2400291 ], [ -115.1899596, 36.2400291 ], [ -115.1899596, 36.2400318 ], [ -115.189986600000012, 36.2400318 ], [ -115.189986600000012, 36.2400291 ], [ -115.18999740000001, 36.2400291 ], [ -115.18999740000001, 36.2400237 ], [ -115.1900001, 36.2400237 ], [ -115.1900001, 36.2400183 ], [ -115.1900028, 36.2400183 ], [ -115.1900028, 36.2400102 ], [ -115.190005500000012, 36.2400102 ], [ -115.190005500000012, 36.2400075 ], [ -115.1900082, 36.2400075 ], [ -115.1900082, 36.2400048 ], [ -115.1900784, 36.2400048 ], [ -115.1900784, 36.2400075 ], [ -115.190102700000011, 36.2400075 ], [ -115.190102700000011, 36.2400102 ], [ -115.1901729, 36.2400102 ], [ -115.1901729, 36.2400075 ], [ -115.1902539, 36.2400075 ], [ -115.1902539, 36.2400102 ], [ -115.190262, 36.2400102 ], [ -115.190262, 36.2400129 ], [ -115.1902647, 36.2400129 ], [ -115.1902647, 36.2400156 ], [ -115.19026740000001, 36.2400156 ], [ -115.19026740000001, 36.2400183 ], [ -115.1902701, 36.2400183 ], [ -115.1902701, 36.240021 ], [ -115.1902728, 36.240021 ], [ -115.1902728, 36.2400237 ], [ -115.1902755, 36.2400237 ], [ -115.1902755, 36.2400264 ], [ -115.1902809, 36.2400264 ], [ -115.1902809, 36.2400291 ], [ -115.1903052, 36.2400291 ], [ -115.1903052, 36.2400318 ], [ -115.1903781, 36.2400318 ], [ -115.1903781, 36.2400345 ], [ -115.190505, 36.2400345 ], [ -115.190505, 36.2400372 ], [ -115.1905266, 36.2400372 ], [ -115.1905266, 36.2400345 ], [ -115.1905968, 36.2400345 ], [ -115.1905968, 36.2400372 ], [ -115.1906589, 36.2400372 ], [ -115.1906589, 36.2400345 ], [ -115.1906643, 36.2400345 ], [ -115.1906643, 36.2400318 ], [ -115.190667, 36.2400318 ], [ -115.190667, 36.2400291 ], [ -115.1906697, 36.2400291 ], [ -115.1906697, 36.240021 ], [ -115.1906724, 36.240021 ], [ -115.1906724, 36.2400183 ], [ -115.1906751, 36.2400183 ], [ -115.1906751, 36.2400156 ], [ -115.1906805, 36.2400156 ], [ -115.1906805, 36.2400129 ], [ -115.1906859, 36.2400129 ], [ -115.1906859, 36.2400156 ], [ -115.1907183, 36.2400156 ], [ -115.1907183, 36.2400129 ], [ -115.1907561, 36.2400129 ], [ -115.1907561, 36.2400156 ], [ -115.1907615, 36.2400156 ], [ -115.1907615, 36.240021 ], [ -115.1907642, 36.240021 ], [ -115.1907642, 36.2400237 ], [ -115.1907669, 36.2400237 ], [ -115.1907669, 36.2400318 ], [ -115.1907696, 36.2400318 ], [ -115.1907696, 36.2400345 ], [ -115.1907777, 36.2400345 ], [ -115.1907777, 36.2400372 ], [ -115.1907939, 36.2400372 ], [ -115.1907939, 36.2400345 ], [ -115.1908344, 36.2400345 ], [ -115.1908344, 36.2400372 ], [ -115.1908884, 36.2400372 ], [ -115.1908884, 36.2400399 ], [ -115.1909262, 36.2400399 ], [ -115.1909262, 36.2400372 ], [ -115.1909343, 36.2400372 ], [ -115.1909343, 36.2400399 ], [ -115.1909559, 36.2400399 ], [ -115.1909559, 36.2400426 ], [ -115.1910045, 36.2400426 ], [ -115.1910045, 36.2400453 ], [ -115.1910072, 36.2400453 ], [ -115.1910072, 36.240048 ], [ -115.1910099, 36.240048 ], [ -115.1910099, 36.2400588 ], [ -115.1910072, 36.2400588 ], [ -115.1910072, 36.2400669 ], [ -115.1910099, 36.2400669 ], [ -115.1910099, 36.2400939 ], [ -115.1910072, 36.2400939 ], [ -115.1910072, 36.2401317 ], [ -115.1910045, 36.2401317 ], [ -115.1910045, 36.2401749 ], [ -115.1910072, 36.2401749 ], [ -115.1910072, 36.2402316 ], [ -115.1910099, 36.2402316 ], [ -115.1910099, 36.2402424 ], [ -115.1910126, 36.2402424 ], [ -115.1910126, 36.2402478 ], [ -115.1910153, 36.2402478 ], [ -115.1910153, 36.2402505 ], [ -115.191018, 36.2402505 ], [ -115.191018, 36.2402532 ], [ -115.1910207, 36.2402532 ], [ -115.1910207, 36.2402559 ], [ -115.1910288, 36.2402559 ], [ -115.1910288, 36.2402532 ], [ -115.1910693, 36.2402532 ], [ -115.1910693, 36.2402559 ], [ -115.1910963, 36.2402559 ], [ -115.1910963, 36.2402532 ], [ -115.1911125, 36.2402532 ], [ -115.1911125, 36.2402505 ], [ -115.1911422, 36.2402505 ], [ -115.1911422, 36.2402532 ], [ -115.1911476, 36.2402532 ], [ -115.1911476, 36.2402559 ], [ -115.1911503, 36.2402559 ], [ -115.1911503, 36.2402613 ], [ -115.1911476, 36.2402613 ], [ -115.1911476, 36.2402667 ], [ -115.1911503, 36.2402667 ], [ -115.1911503, 36.2403045 ], [ -115.1911476, 36.2403045 ], [ -115.1911476, 36.2403234 ], [ -115.1911503, 36.2403234 ], [ -115.1911503, 36.2404044 ], [ -115.1911476, 36.2404044 ], [ -115.1911476, 36.2404071 ], [ -115.1911449, 36.2404071 ], [ -115.1911449, 36.2404098 ], [ -115.1910936, 36.2404098 ], [ -115.1910936, 36.2404125 ], [ -115.1910693, 36.2404125 ], [ -115.1910693, 36.2404098 ], [ -115.1910639, 36.2404098 ], [ -115.1910639, 36.2404125 ], [ -115.1910477, 36.2404125 ], [ -115.1910477, 36.2404098 ], [ -115.1910126, 36.2404098 ], [ -115.1910126, 36.2404125 ], [ -115.1910072, 36.2404125 ], [ -115.1910072, 36.2404152 ], [ -115.1910045, 36.2404152 ], [ -115.1910045, 36.2404206 ], [ -115.1910018, 36.2404206 ], [ -115.1910018, 36.2404314 ], [ -115.1909991, 36.2404314 ], [ -115.1909991, 36.2404395 ], [ -115.1909964, 36.2404395 ], [ -115.1909964, 36.2404422 ], [ -115.1909937, 36.2404422 ], [ -115.1909937, 36.2404449 ], [ -115.1909883, 36.2404449 ], [ -115.1909883, 36.2404476 ], [ -115.1909613, 36.2404476 ], [ -115.1909613, 36.2404503 ], [ -115.1908803, 36.2404503 ], [ -115.1908803, 36.2404476 ], [ -115.1908587, 36.2404476 ], [ -115.1908587, 36.2404503 ], [ -115.1907939, 36.2404503 ], [ -115.1907939, 36.2404476 ], [ -115.1907912, 36.2404476 ], [ -115.1907912, 36.2404449 ], [ -115.1907885, 36.2404449 ], [ -115.1907885, 36.2404422 ], [ -115.1907858, 36.2404422 ], [ -115.1907858, 36.2404368 ], [ -115.1907831, 36.2404368 ], [ -115.1907831, 36.2404314 ], [ -115.1907804, 36.2404314 ], [ -115.1907804, 36.2403963 ], [ -115.1907831, 36.2403963 ], [ -115.1907831, 36.2403936 ], [ -115.1907858, 36.2403936 ], [ -115.1907858, 36.240372 ], [ -115.1907831, 36.240372 ], [ -115.1907831, 36.2403693 ], [ -115.1907777, 36.2403693 ], [ -115.1907777, 36.2403666 ], [ -115.1907696, 36.2403666 ], [ -115.1907696, 36.2403639 ], [ -115.1907318, 36.2403639 ], [ -115.1907318, 36.2403612 ], [ -115.1904915, 36.2403612 ], [ -115.1904915, 36.2403585 ], [ -115.1904753, 36.2403585 ], [ -115.1904753, 36.2403558 ], [ -115.1904429, 36.2403558 ], [ -115.1904429, 36.2403585 ], [ -115.1903754, 36.2403585 ], [ -115.1903754, 36.2403558 ], [ -115.1903592, 36.2403558 ], [ -115.1903592, 36.2403585 ], [ -115.190343, 36.2403585 ], [ -115.190343, 36.2403612 ], [ -115.1903403, 36.2403612 ], [ -115.1903403, 36.2403639 ], [ -115.1903376, 36.2403639 ], [ -115.1903376, 36.2403666 ], [ -115.1903349, 36.2403666 ], [ -115.1903349, 36.2403693 ], [ -115.1903322, 36.2403693 ], [ -115.1903322, 36.2403936 ], [ -115.1903295, 36.2403936 ], [ -115.1903295, 36.2404098 ], [ -115.1903268, 36.2404098 ], [ -115.1903268, 36.2404314 ], [ -115.1903241, 36.2404314 ], [ -115.1903241, 36.2404476 ], [ -115.1903214, 36.2404476 ], [ -115.1903214, 36.2404611 ], [ -115.1903187, 36.2404611 ], [ -115.1903187, 36.2404881 ], [ -115.1903214, 36.2404881 ], [ -115.1903214, 36.2404989 ], [ -115.1903241, 36.2404989 ], [ -115.1903241, 36.2405124 ], [ -115.1903268, 36.2405124 ], [ -115.1903268, 36.2405367 ], [ -115.1903241, 36.2405367 ], [ -115.1903241, 36.2405448 ], [ -115.1903214, 36.2405448 ], [ -115.1903214, 36.2405502 ], [ -115.1903187, 36.2405502 ], [ -115.1903187, 36.2405556 ], [ -115.190316, 36.2405556 ], [ -115.190316, 36.2405583 ], [ -115.1903133, 36.2405583 ], [ -115.1903133, 36.2405637 ], [ -115.1903106, 36.2405637 ], [ -115.1903106, 36.2405664 ], [ -115.1903079, 36.2405664 ], [ -115.1903079, 36.2405691 ], [ -115.1903052, 36.2405691 ], [ -115.1903052, 36.2405637 ], [ -115.1902863, 36.2405637 ], [ -115.1902863, 36.2405664 ], [ -115.19024850000001, 36.2405664 ], [ -115.19024850000001, 36.2405691 ], [ -115.1902161, 36.2405691 ], [ -115.1902161, 36.2405718 ], [ -115.1901459, 36.2405718 ], [ -115.1901459, 36.2405745 ] ] ] } },
{ "type": "Feature", "properties": { "value": 255.0 }, "geometry": { "type": "Polygon", "coordinates": [ [ [ -115.1900811, 36.2390031 ], [ -115.190016300000011, 36.2390031 ], [ -115.190016300000011, 36.2390004 ], [ -115.18999740000001, 36.2390004 ], [ -115.18999740000001, 36.2389977 ], [ -115.189986600000012, 36.2389977 ], [ -115.189986600000012, 36.238995 ], [ -115.1899785, 36.238995 ], [ -115.1899785, 36.2389923 ], [ -115.1899731, 36.2389923 ], [ -115.1899731, 36.2389896 ], [ -115.1899704, 36.2389896 ], [ -115.1899704, 36.2389869 ], [ -115.189965, 36.2389869 ], [ -115.189965, 36.2389842 ], [ -115.1899596, 36.2389842 ], [ -115.1899596, 36.2389815 ], [ -115.189956900000013, 36.2389815 ], [ -115.189956900000013, 36.2389734 ], [ -115.1899542, 36.2389734 ], [ -115.1899542, 36.2389626 ], [ -115.1899515, 36.2389626 ], [ -115.1899515, 36.2389545 ], [ -115.18994880000001, 36.2389545 ], [ -115.18994880000001, 36.2389302 ], [ -115.1899515, 36.2389302 ], [ -115.1899515, 36.2389005 ], [ -115.1899542, 36.2389005 ], [ -115.1899542, 36.2388627 ], [ -115.1901243, 36.2388627 ], [ -115.1901243, 36.2388762 ], [ -115.190127, 36.2388762 ], [ -115.190127, 36.2388843 ], [ -115.1901297, 36.2388843 ], [ -115.1901297, 36.2389437 ], [ -115.190127, 36.2389437 ], [ -115.190127, 36.2389869 ], [ -115.1901243, 36.2389869 ], [ -115.1901243, 36.2389923 ], [ -115.1901216, 36.2389923 ], [ -115.1901216, 36.238995 ], [ -115.1901189, 36.238995 ], [ -115.1901189, 36.2389977 ], [ -115.1901108, 36.2389977 ], [ -115.1901108, 36.2390004 ], [ -115.1900811, 36.2390004 ], [ -115.1900811, 36.2390031 ] ] ] } }
]
}
