{
"type": "FeatureCollection",
"crs": { "type": "name", "properties": { "name": "urn:ogc:def:crs:OGC:1.3:CRS84" } },
"features": [
{ "type": "Feature", "properties": { "value": 255.0 }, "geometry": { "type": "Polygon", "coordinates": [ [ [ -115.285194, 36.2390463 ], [ -115.2851832, 36.2390463 ], [ -115.2851832, 36.2390436 ], [ -115.2851751, 36.2390436 ], [ -115.2851751, 36.2390382 ], [ -115.2851724, 36.2390382 ], [ -115.2851724, 36.2390139 ], [ -115.2851751, 36.2390139 ], [ -115.2851751, 36.2390058 ], [ -115.2851778, 36.2390058 ], [ -115.2851778, 36.2390004 ], [ -115.2851859, 36.2390004 ], [ -115.2851859, 36.2390031 ], [ -115.2851886, 36.2390031 ], [ -115.2851886, 36.2390058 ], [ -115.2851913, 36.2390058 ], [ -115.2851913, 36.2390112 ], [ -115.285194, 36.2390112 ], [ -115.285194, 36.2390166 ], [ -115.2851967, 36.2390166 ], [ -115.2851967, 36.2390274 ], [ -115.28519940000001, 36.2390274 ], [ -115.28519940000001, 36.2390436 ], [ -115.285194, 36.2390436 ], [ -115.285194, 36.2390463 ] ] ] } }
]
}
