{
"type": "FeatureCollection",
"crs": { "type": "name", "properties": { "name": "urn:ogc:def:crs:OGC:1.3:CRS84" } },
"features": [
{ "type": "Feature", "properties": { "value": 255.0 }, "geometry": { "type": "Polygon", "coordinates": [ [ [ -115.3035081, 36.140496299799999 ], [ -115.3034811, 36.140496299799999 ], [ -115.3034811, 36.140493599800003 ], [ -115.3034784, 36.140493599800003 ], [ -115.3034784, 36.140471999799999 ], [ -115.3034811, 36.140471999799999 ], [ -115.3034811, 36.140458499799998 ], [ -115.3034838, 36.140458499799998 ], [ -115.3034838, 36.140455799800002 ], [ -115.3034865, 36.140455799800002 ], [ -115.3034865, 36.140453099799998 ], [ -115.3035081, 36.140453099799998 ], [ -115.3035081, 36.140455799800002 ], [ -115.3035108, 36.140455799800002 ], [ -115.3035108, 36.140493599800003 ], [ -115.3035081, 36.140493599800003 ], [ -115.3035081, 36.140496299799999 ] ] ] } },
{ "type": "Feature", "properties": { "value": 255.0 }, "geometry": { "type": "Polygon", "coordinates": [ [ [ -115.3040076, 36.140453099799998 ], [ -115.3040022, 36.140453099799998 ], [ -115.3040022, 36.140450399800002 ], [ -115.3039968, 36.140450399800002 ], [ -115.3039968, 36.140447699799999 ], [ -115.3039671, 36.140447699799999 ], [ -115.3039671, 36.140444999799996 ], [ -115.30395630000001, 36.140444999799996 ], [ -115.30395630000001, 36.140447699799999 ], [ -115.3039428, 36.140447699799999 ], [ -115.3039428, 36.140444999799996 ], [ -115.3038915, 36.140444999799996 ], [ -115.3038915, 36.1404422998 ], [ -115.30388880000001, 36.1404422998 ], [ -115.30388880000001, 36.1404179998 ], [ -115.3038915, 36.1404179998 ], [ -115.3038915, 36.140380199799999 ], [ -115.3038942, 36.140380199799999 ], [ -115.3038942, 36.140361299799999 ], [ -115.303896900000012, 36.140361299799999 ], [ -115.303896900000012, 36.140304599799997 ], [ -115.3038996, 36.140304599799997 ], [ -115.3038996, 36.140301899800001 ], [ -115.3039023, 36.140301899800001 ], [ -115.3039023, 36.140299199799998 ], [ -115.30395630000001, 36.140299199799998 ], [ -115.30395630000001, 36.140301899800001 ], [ -115.3039725, 36.140301899800001 ], [ -115.3039725, 36.140304599799997 ], [ -115.3039887, 36.140304599799997 ], [ -115.3039887, 36.1403072998 ], [ -115.3040076, 36.1403072998 ], [ -115.3040076, 36.140453099799998 ] ] ] } },
{ "type": "Feature", "properties": { "value": 255.0 }, "geometry": { "type": "Polygon", "coordinates": [ [ [ -115.3037511, 36.1404665998 ], [ -115.303716, 36.1404665998 ], [ -115.303716, 36.140463899799997 ], [ -115.30368630000001, 36.140463899799997 ], [ -115.30368630000001, 36.140461199800001 ], [ -115.3036836, 36.140461199800001 ], [ -115.3036836, 36.140436899800001 ], [ -115.3036809, 36.140436899800001 ], [ -115.3036809, 36.140434199799998 ], [ -115.3036782, 36.140434199799998 ], [ -115.3036782, 36.140431499800002 ], [ -115.3036512, 36.140431499800002 ], [ -115.3036512, 36.140428799799999 ], [ -115.303635, 36.140428799799999 ], [ -115.303635, 36.140426099800003 ], [ -115.3036296, 36.140426099800003 ], [ -115.3036296, 36.140428799799999 ], [ -115.3035999, 36.140428799799999 ], [ -115.3035999, 36.140426099800003 ], [ -115.3035918, 36.140426099800003 ], [ -115.3035918, 36.1404233998 ], [ -115.3035864, 36.1404233998 ], [ -115.3035864, 36.1404179998 ], [ -115.3035837, 36.1404179998 ], [ -115.3035837, 36.140409899799998 ], [ -115.303581, 36.140409899799998 ], [ -115.303581, 36.1403747998 ], [ -115.3035837, 36.1403747998 ], [ -115.3035837, 36.140309999799996 ], [ -115.3035864, 36.140309999799996 ], [ -115.3035864, 36.1403072998 ], [ -115.303589100000011, 36.1403072998 ], [ -115.303589100000011, 36.140304599799997 ], [ -115.3036215, 36.140304599799997 ], [ -115.3036215, 36.140301899800001 ], [ -115.3036323, 36.140301899800001 ], [ -115.3036323, 36.140299199799998 ], [ -115.303635, 36.140299199799998 ], [ -115.303635, 36.140285699799996 ], [ -115.3036431, 36.140285699799996 ], [ -115.3036431, 36.1402829998 ], [ -115.3036674, 36.1402829998 ], [ -115.3036674, 36.140280299799997 ], [ -115.3036836, 36.140280299799997 ], [ -115.3036836, 36.140277599800001 ], [ -115.30377270000001, 36.140277599800001 ], [ -115.30377270000001, 36.140280299799997 ], [ -115.3037862, 36.140280299799997 ], [ -115.3037862, 36.1402829998 ], [ -115.3038051, 36.1402829998 ], [ -115.3038051, 36.140285699799996 ], [ -115.3038132, 36.140285699799996 ], [ -115.3038132, 36.140288399799999 ], [ -115.3038186, 36.140288399799999 ], [ -115.3038186, 36.140293799799998 ], [ -115.30382130000001, 36.140293799799998 ], [ -115.30382130000001, 36.140296499800002 ], [ -115.3038186, 36.140296499800002 ], [ -115.3038186, 36.140320799800001 ], [ -115.3038159, 36.140320799800001 ], [ -115.3038159, 36.140342399799998 ], [ -115.3038132, 36.140342399799998 ], [ -115.3038132, 36.140345099800001 ], [ -115.303810500000012, 36.140345099800001 ], [ -115.303810500000012, 36.140347799799997 ], [ -115.303797, 36.140347799799997 ], [ -115.303797, 36.1403504998 ], [ -115.3037943, 36.1403504998 ], [ -115.3037943, 36.140353199799996 ], [ -115.303791600000011, 36.140353199799996 ], [ -115.303791600000011, 36.1403747998 ], [ -115.3037889, 36.1403747998 ], [ -115.3037889, 36.140385599799998 ], [ -115.3037862, 36.140385599799998 ], [ -115.3037862, 36.140390999799997 ], [ -115.3037835, 36.140390999799997 ], [ -115.3037835, 36.140412599800001 ], [ -115.3037808, 36.140412599800001 ], [ -115.3037808, 36.1404233998 ], [ -115.3037781, 36.1404233998 ], [ -115.3037781, 36.140447699799999 ], [ -115.3037754, 36.140447699799999 ], [ -115.3037754, 36.140455799800002 ], [ -115.30377270000001, 36.140455799800002 ], [ -115.30377270000001, 36.140461199800001 ], [ -115.3037646, 36.140461199800001 ], [ -115.3037646, 36.140463899799997 ], [ -115.3037511, 36.140463899799997 ], [ -115.3037511, 36.1404665998 ] ] ] } },
{ "type": "Feature", "properties": { "value": 255.0 }, "geometry": { "type": "Polygon", "coordinates": [ [ [ -115.3033596, 36.140436899800001 ], [ -115.30331910000001, 36.140436899800001 ], [ -115.30331910000001, 36.140434199799998 ], [ -115.3033137, 36.140434199799998 ], [ -115.3033137, 36.140431499800002 ], [ -115.303311, 36.140431499800002 ], [ -115.303311, 36.140428799799999 ], [ -115.3033056, 36.140428799799999 ], [ -115.3033056, 36.140426099800003 ], [ -115.30330020000001, 36.140426099800003 ], [ -115.30330020000001, 36.1404233998 ], [ -115.303289400000011, 36.1404233998 ], [ -115.303289400000011, 36.140420699799996 ], [ -115.3032813, 36.140420699799996 ], [ -115.3032813, 36.1404179998 ], [ -115.3032786, 36.1404179998 ], [ -115.3032786, 36.140401799799996 ], [ -115.3032813, 36.140401799799996 ], [ -115.3032813, 36.140396399799997 ], [ -115.303284, 36.140396399799997 ], [ -115.303284, 36.140393699800001 ], [ -115.3032867, 36.140393699800001 ], [ -115.3032867, 36.140388299800001 ], [ -115.303289400000011, 36.140388299800001 ], [ -115.303289400000011, 36.140380199799999 ], [ -115.3032921, 36.140380199799999 ], [ -115.3032921, 36.140369399800001 ], [ -115.3032948, 36.140369399800001 ], [ -115.3032948, 36.1403504998 ], [ -115.3032975, 36.1403504998 ], [ -115.3032975, 36.140318099799998 ], [ -115.30330020000001, 36.140318099799998 ], [ -115.30330020000001, 36.140315399800002 ], [ -115.3033029, 36.140315399800002 ], [ -115.3033029, 36.140312699799999 ], [ -115.3033083, 36.140312699799999 ], [ -115.3033083, 36.140309999799996 ], [ -115.3033245, 36.140309999799996 ], [ -115.3033245, 36.1403072998 ], [ -115.3033326, 36.1403072998 ], [ -115.3033326, 36.140304599799997 ], [ -115.3033407, 36.140304599799997 ], [ -115.3033407, 36.140301899800001 ], [ -115.3033488, 36.140301899800001 ], [ -115.3033488, 36.140299199799998 ], [ -115.3033542, 36.140299199799998 ], [ -115.3033542, 36.140301899800001 ], [ -115.30336770000001, 36.140301899800001 ], [ -115.30336770000001, 36.140299199799998 ], [ -115.3033704, 36.140299199799998 ], [ -115.3033704, 36.140296499800002 ], [ -115.3033731, 36.140296499800002 ], [ -115.3033731, 36.140293799799998 ], [ -115.3033758, 36.140293799799998 ], [ -115.3033758, 36.140272199800002 ], [ -115.3033785, 36.140272199800002 ], [ -115.3033785, 36.140247899800002 ], [ -115.3033812, 36.140247899800002 ], [ -115.3033812, 36.140242499799996 ], [ -115.30338660000001, 36.140242499799996 ], [ -115.30338660000001, 36.1402397998 ], [ -115.3034109, 36.1402397998 ], [ -115.3034109, 36.140242499799996 ], [ -115.3034784, 36.140242499799996 ], [ -115.3034784, 36.140245199799999 ], [ -115.3034838, 36.140245199799999 ], [ -115.3034838, 36.140250599799998 ], [ -115.3034865, 36.140250599799998 ], [ -115.3034865, 36.140277599800001 ], [ -115.3034838, 36.140277599800001 ], [ -115.3034838, 36.1403072998 ], [ -115.3034811, 36.1403072998 ], [ -115.3034811, 36.140361299799999 ], [ -115.3034784, 36.140361299799999 ], [ -115.3034784, 36.140409899799998 ], [ -115.3034757, 36.140409899799998 ], [ -115.3034757, 36.1404233998 ], [ -115.303473, 36.1404233998 ], [ -115.303473, 36.140428799799999 ], [ -115.3034676, 36.140428799799999 ], [ -115.3034676, 36.140431499800002 ], [ -115.3034487, 36.140431499800002 ], [ -115.3034487, 36.140428799799999 ], [ -115.3034433, 36.140428799799999 ], [ -115.3034433, 36.140426099800003 ], [ -115.3034406, 36.140426099800003 ], [ -115.3034406, 36.1404233998 ], [ -115.3034379, 36.1404233998 ], [ -115.3034379, 36.140420699799996 ], [ -115.303424400000011, 36.140420699799996 ], [ -115.303424400000011, 36.1404233998 ], [ -115.303419, 36.1404233998 ], [ -115.303419, 36.140426099800003 ], [ -115.303405500000011, 36.140426099800003 ], [ -115.303405500000011, 36.140428799799999 ], [ -115.3034028, 36.140428799799999 ], [ -115.3034028, 36.140426099800003 ], [ -115.303392, 36.140426099800003 ], [ -115.303392, 36.1404233998 ], [ -115.3033758, 36.1404233998 ], [ -115.3033758, 36.140426099800003 ], [ -115.3033731, 36.140426099800003 ], [ -115.3033731, 36.140428799799999 ], [ -115.3033704, 36.140428799799999 ], [ -115.3033704, 36.140431499800002 ], [ -115.30336770000001, 36.140431499800002 ], [ -115.30336770000001, 36.140434199799998 ], [ -115.3033596, 36.140434199799998 ], [ -115.3033596, 36.140436899800001 ] ] ] } },
{ "type": "Feature", "properties": { "value": 255.0 }, "geometry": { "type": "Polygon", "coordinates": [ [ [ -115.3030518, 36.140388299800001 ], [ -115.3030302, 36.140388299800001 ], [ -115.3030302, 36.140385599799998 ], [ -115.303014, 36.140385599799998 ], [ -115.303014, 36.140382899800002 ], [ -115.3030032, 36.140382899800002 ], [ -115.3030032, 36.140377499799996 ], [ -115.30300050000001, 36.140377499799996 ], [ -115.30300050000001, 36.140372099799997 ], [ -115.3029978, 36.140372099799997 ], [ -115.3029978, 36.140369399800001 ], [ -115.3029951, 36.140369399800001 ], [ -115.3029951, 36.140366699799998 ], [ -115.3029924, 36.140366699799998 ], [ -115.3029924, 36.140363999800002 ], [ -115.3029843, 36.140363999800002 ], [ -115.3029843, 36.140361299799999 ], [ -115.3029735, 36.140361299799999 ], [ -115.3029735, 36.140358599800003 ], [ -115.302951900000011, 36.140358599800003 ], [ -115.302951900000011, 36.140355899799999 ], [ -115.3029465, 36.140355899799999 ], [ -115.3029465, 36.1403504998 ], [ -115.3029438, 36.1403504998 ], [ -115.3029438, 36.1403315998 ], [ -115.3029465, 36.1403315998 ], [ -115.3029465, 36.140320799800001 ], [ -115.3029492, 36.140320799800001 ], [ -115.3029492, 36.140312699799999 ], [ -115.302951900000011, 36.140312699799999 ], [ -115.302951900000011, 36.1402829998 ], [ -115.3029546, 36.1402829998 ], [ -115.3029546, 36.140274899799998 ], [ -115.3029573, 36.140274899799998 ], [ -115.3029573, 36.140272199800002 ], [ -115.30296, 36.140272199800002 ], [ -115.30296, 36.140269499799999 ], [ -115.3029627, 36.140269499799999 ], [ -115.3029627, 36.140250599799998 ], [ -115.3029654, 36.140250599799998 ], [ -115.3029654, 36.140237099799997 ], [ -115.3029681, 36.140237099799997 ], [ -115.3029681, 36.140228999800001 ], [ -115.3029708, 36.140228999800001 ], [ -115.3029708, 36.140223599800002 ], [ -115.3029789, 36.140223599800002 ], [ -115.3029789, 36.140220899799999 ], [ -115.3029843, 36.140220899799999 ], [ -115.3029843, 36.140223599800002 ], [ -115.3029951, 36.140223599800002 ], [ -115.3029951, 36.140226299799998 ], [ -115.30300050000001, 36.140226299799998 ], [ -115.30300050000001, 36.140228999800001 ], [ -115.3030086, 36.140228999800001 ], [ -115.3030086, 36.140231699799998 ], [ -115.30304910000001, 36.140231699799998 ], [ -115.30304910000001, 36.140234399800001 ], [ -115.3030653, 36.140234399800001 ], [ -115.3030653, 36.140237099799997 ], [ -115.3030923, 36.140237099799997 ], [ -115.3030923, 36.140234399800001 ], [ -115.30311660000001, 36.140234399800001 ], [ -115.30311660000001, 36.140237099799997 ], [ -115.3031571, 36.140237099799997 ], [ -115.3031571, 36.1402397998 ], [ -115.3031652, 36.1402397998 ], [ -115.3031652, 36.140242499799996 ], [ -115.3031706, 36.140242499799996 ], [ -115.3031706, 36.140245199799999 ], [ -115.3031787, 36.140245199799999 ], [ -115.3031787, 36.140247899800002 ], [ -115.3031922, 36.140247899800002 ], [ -115.3031922, 36.140250599799998 ], [ -115.3031949, 36.140250599799998 ], [ -115.3031949, 36.140253299800001 ], [ -115.3031976, 36.140253299800001 ], [ -115.3031976, 36.140272199800002 ], [ -115.3031949, 36.140272199800002 ], [ -115.3031949, 36.1402829998 ], [ -115.3031922, 36.1402829998 ], [ -115.3031922, 36.140291099800002 ], [ -115.3031895, 36.140291099800002 ], [ -115.3031895, 36.140296499800002 ], [ -115.3031868, 36.140296499800002 ], [ -115.3031868, 36.140299199799998 ], [ -115.3031679, 36.140299199799998 ], [ -115.3031679, 36.140301899800001 ], [ -115.3031625, 36.140301899800001 ], [ -115.3031625, 36.1403072998 ], [ -115.3031598, 36.1403072998 ], [ -115.3031598, 36.140312699799999 ], [ -115.3031571, 36.140312699799999 ], [ -115.3031571, 36.1403315998 ], [ -115.303154400000011, 36.1403315998 ], [ -115.303154400000011, 36.140353199799996 ], [ -115.3031517, 36.140353199799996 ], [ -115.3031517, 36.140361299799999 ], [ -115.303149, 36.140361299799999 ], [ -115.303149, 36.140369399800001 ], [ -115.3031463, 36.140369399800001 ], [ -115.3031463, 36.1403747998 ], [ -115.3031436, 36.1403747998 ], [ -115.3031436, 36.140380199799999 ], [ -115.3031409, 36.140380199799999 ], [ -115.3031409, 36.140382899800002 ], [ -115.3031382, 36.140382899800002 ], [ -115.3031382, 36.140385599799998 ], [ -115.3031112, 36.140385599799998 ], [ -115.3031112, 36.140382899800002 ], [ -115.303095, 36.140382899800002 ], [ -115.303095, 36.140380199799999 ], [ -115.303068, 36.140380199799999 ], [ -115.303068, 36.140382899800002 ], [ -115.3030599, 36.140382899800002 ], [ -115.3030599, 36.140385599799998 ], [ -115.3030518, 36.140385599799998 ], [ -115.3030518, 36.140388299800001 ] ] ] } },
{ "type": "Feature", "properties": { "value": 255.0 }, "geometry": { "type": "Polygon", "coordinates": [ [ [ -115.3028088, 36.140318099799998 ], [ -115.3027845, 36.140318099799998 ], [ -115.3027845, 36.140315399800002 ], [ -115.3027764, 36.140315399800002 ], [ -115.3027764, 36.140312699799999 ], [ -115.30274940000001, 36.140312699799999 ], [ -115.30274940000001, 36.140309999799996 ], [ -115.3027413, 36.140309999799996 ], [ -115.3027413, 36.140312699799999 ], [ -115.3027359, 36.140312699799999 ], [ -115.3027359, 36.140315399800002 ], [ -115.3027251, 36.140315399800002 ], [ -115.3027251, 36.140318099799998 ], [ -115.3027035, 36.140318099799998 ], [ -115.3027035, 36.140315399800002 ], [ -115.30269, 36.140315399800002 ], [ -115.30269, 36.140312699799999 ], [ -115.30268190000001, 36.140312699799999 ], [ -115.30268190000001, 36.140309999799996 ], [ -115.3026765, 36.140309999799996 ], [ -115.3026765, 36.1403072998 ], [ -115.3026711, 36.1403072998 ], [ -115.3026711, 36.140304599799997 ], [ -115.3026684, 36.140304599799997 ], [ -115.3026684, 36.140299199799998 ], [ -115.302663, 36.140299199799998 ], [ -115.302663, 36.140296499800002 ], [ -115.3026576, 36.140296499800002 ], [ -115.3026576, 36.140293799799998 ], [ -115.3026549, 36.140293799799998 ], [ -115.3026549, 36.140291099800002 ], [ -115.3026495, 36.140291099800002 ], [ -115.3026495, 36.140288399799999 ], [ -115.3026441, 36.140288399799999 ], [ -115.3026441, 36.140285699799996 ], [ -115.3026387, 36.140285699799996 ], [ -115.3026387, 36.1402829998 ], [ -115.302636, 36.1402829998 ], [ -115.302636, 36.140280299799997 ], [ -115.3026279, 36.140280299799997 ], [ -115.3026279, 36.140277599800001 ], [ -115.3026252, 36.140277599800001 ], [ -115.3026252, 36.140266799799996 ], [ -115.3026225, 36.140266799799996 ], [ -115.3026225, 36.140250599799998 ], [ -115.3026252, 36.140250599799998 ], [ -115.3026252, 36.140210099800001 ], [ -115.3026441, 36.140210099800001 ], [ -115.3026441, 36.140207399799998 ], [ -115.3026495, 36.140207399799998 ], [ -115.3026495, 36.140199299799995 ], [ -115.3026522, 36.140199299799995 ], [ -115.3026522, 36.140193899799996 ], [ -115.3026549, 36.140193899799996 ], [ -115.3026549, 36.140180399800002 ], [ -115.3026576, 36.140180399800002 ], [ -115.3026576, 36.140169599799997 ], [ -115.3026603, 36.140169599799997 ], [ -115.3026603, 36.140164199799997 ], [ -115.302663, 36.140164199799997 ], [ -115.302663, 36.140156099800002 ], [ -115.3026657, 36.140156099800002 ], [ -115.3026657, 36.1401479998 ], [ -115.3026684, 36.1401479998 ], [ -115.3026684, 36.140145299799997 ], [ -115.3026711, 36.140145299799997 ], [ -115.3026711, 36.140142599800001 ], [ -115.3026765, 36.140142599800001 ], [ -115.3026765, 36.140139899799998 ], [ -115.30269, 36.140139899799998 ], [ -115.30269, 36.140142599800001 ], [ -115.3027008, 36.140142599800001 ], [ -115.3027008, 36.140145299799997 ], [ -115.3027116, 36.140145299799997 ], [ -115.3027116, 36.1401479998 ], [ -115.302717, 36.1401479998 ], [ -115.302717, 36.140150699799996 ], [ -115.3027224, 36.140150699799996 ], [ -115.3027224, 36.140153399799999 ], [ -115.30273050000001, 36.140153399799999 ], [ -115.30273050000001, 36.140156099800002 ], [ -115.30274940000001, 36.140156099800002 ], [ -115.30274940000001, 36.140153399799999 ], [ -115.3027548, 36.140153399799999 ], [ -115.3027548, 36.140156099800002 ], [ -115.3027683, 36.140156099800002 ], [ -115.3027683, 36.140158799799998 ], [ -115.3027764, 36.140158799799998 ], [ -115.3027764, 36.140161499800001 ], [ -115.3027818, 36.140161499800001 ], [ -115.3027818, 36.140164199799997 ], [ -115.3027872, 36.140164199799997 ], [ -115.3027872, 36.140166899800001 ], [ -115.3027926, 36.140166899800001 ], [ -115.3027926, 36.140169599799997 ], [ -115.302798, 36.140169599799997 ], [ -115.302798, 36.1401722998 ], [ -115.3028061, 36.1401722998 ], [ -115.3028061, 36.140174999799996 ], [ -115.3028223, 36.140174999799996 ], [ -115.3028223, 36.140177699799999 ], [ -115.3028385, 36.140177699799999 ], [ -115.3028385, 36.140180399800002 ], [ -115.3028466, 36.140180399800002 ], [ -115.3028466, 36.140183099799998 ], [ -115.302852, 36.140183099799998 ], [ -115.302852, 36.140185799800001 ], [ -115.3028547, 36.140185799800001 ], [ -115.3028547, 36.140188499799997 ], [ -115.3028601, 36.140188499799997 ], [ -115.3028601, 36.1401911998 ], [ -115.30286550000001, 36.1401911998 ], [ -115.30286550000001, 36.140193899799996 ], [ -115.3028736, 36.140193899799996 ], [ -115.3028736, 36.140196599799999 ], [ -115.3028817, 36.140196599799999 ], [ -115.3028817, 36.140199299799995 ], [ -115.302884400000011, 36.140199299799995 ], [ -115.302884400000011, 36.140201999799999 ], [ -115.3028871, 36.140201999799999 ], [ -115.3028871, 36.140223599800002 ], [ -115.302884400000011, 36.140223599800002 ], [ -115.302884400000011, 36.140234399800001 ], [ -115.3028817, 36.140234399800001 ], [ -115.3028817, 36.140242499799996 ], [ -115.302879, 36.140242499799996 ], [ -115.302879, 36.140247899800002 ], [ -115.3028763, 36.140247899800002 ], [ -115.3028763, 36.140250599799998 ], [ -115.3028736, 36.140250599799998 ], [ -115.3028736, 36.140253299800001 ], [ -115.3028466, 36.140253299800001 ], [ -115.3028466, 36.140250599799998 ], [ -115.3028385, 36.140250599799998 ], [ -115.3028385, 36.140253299800001 ], [ -115.3028358, 36.140253299800001 ], [ -115.3028358, 36.1402586998 ], [ -115.3028331, 36.1402586998 ], [ -115.3028331, 36.140266799799996 ], [ -115.3028304, 36.140266799799996 ], [ -115.3028304, 36.140285699799996 ], [ -115.3028277, 36.140285699799996 ], [ -115.3028277, 36.140293799799998 ], [ -115.302825, 36.140293799799998 ], [ -115.302825, 36.140299199799998 ], [ -115.3028223, 36.140299199799998 ], [ -115.3028223, 36.140304599799997 ], [ -115.3028196, 36.140304599799997 ], [ -115.3028196, 36.140309999799996 ], [ -115.30281690000001, 36.140309999799996 ], [ -115.30281690000001, 36.140312699799999 ], [ -115.3028142, 36.140312699799999 ], [ -115.3028142, 36.140315399800002 ], [ -115.3028088, 36.140315399800002 ], [ -115.3028088, 36.140318099799998 ] ] ] } },
{ "type": "Feature", "properties": { "value": 255.0 }, "geometry": { "type": "Polygon", "coordinates": [ [ [ -115.3037457, 36.139983299800001 ], [ -115.3036782, 36.139983299800001 ], [ -115.3036782, 36.139980599799998 ], [ -115.3036728, 36.139980599799998 ], [ -115.3036728, 36.139977899800002 ], [ -115.3036701, 36.139977899800002 ], [ -115.3036701, 36.139975199799999 ], [ -115.3036674, 36.139975199799999 ], [ -115.3036674, 36.1399643998 ], [ -115.3036647, 36.1399643998 ], [ -115.3036647, 36.139961699799997 ], [ -115.3036593, 36.139961699799997 ], [ -115.3036593, 36.139958999800001 ], [ -115.3036458, 36.139958999800001 ], [ -115.3036458, 36.139961699799997 ], [ -115.3036404, 36.139961699799997 ], [ -115.3036404, 36.1399643998 ], [ -115.30363770000001, 36.1399643998 ], [ -115.30363770000001, 36.139967099799996 ], [ -115.3036134, 36.139967099799996 ], [ -115.3036134, 36.139969799799999 ], [ -115.3035675, 36.139969799799999 ], [ -115.3035675, 36.139967099799996 ], [ -115.3035648, 36.139967099799996 ], [ -115.3035648, 36.1399643998 ], [ -115.3035621, 36.1399643998 ], [ -115.3035621, 36.139961699799997 ], [ -115.303559400000012, 36.139961699799997 ], [ -115.303559400000012, 36.139958999800001 ], [ -115.3035567, 36.139958999800001 ], [ -115.3035567, 36.139956299799998 ], [ -115.303554, 36.139956299799998 ], [ -115.303554, 36.139953599800002 ], [ -115.3035513, 36.139953599800002 ], [ -115.3035513, 36.139929299799995 ], [ -115.3035486, 36.139929299799995 ], [ -115.3035486, 36.139899599799996 ], [ -115.3035513, 36.139899599799996 ], [ -115.3035513, 36.139894199799997 ], [ -115.303554, 36.139894199799997 ], [ -115.303554, 36.139891499800001 ], [ -115.303559400000012, 36.139891499800001 ], [ -115.303559400000012, 36.139888799799998 ], [ -115.3035648, 36.139888799799998 ], [ -115.3035648, 36.139886099800002 ], [ -115.3036296, 36.139886099800002 ], [ -115.3036296, 36.139883399799999 ], [ -115.3036323, 36.139883399799999 ], [ -115.3036323, 36.139856399799996 ], [ -115.303635, 36.139856399799996 ], [ -115.303635, 36.139818599800002 ], [ -115.3036458, 36.139818599800002 ], [ -115.3036458, 36.139815899799999 ], [ -115.3036512, 36.139815899799999 ], [ -115.3036512, 36.139818599800002 ], [ -115.3036728, 36.139818599800002 ], [ -115.3036728, 36.139821299799998 ], [ -115.303675500000011, 36.139821299799998 ], [ -115.303675500000011, 36.139823999800001 ], [ -115.3036782, 36.139823999800001 ], [ -115.3036782, 36.139826699799997 ], [ -115.3036809, 36.139826699799997 ], [ -115.3036809, 36.139832099799996 ], [ -115.3036836, 36.139832099799996 ], [ -115.3036836, 36.139837499799995 ], [ -115.30368630000001, 36.139837499799995 ], [ -115.30368630000001, 36.139842899800001 ], [ -115.3037025, 36.139842899800001 ], [ -115.3037025, 36.139845599799997 ], [ -115.3037403, 36.139845599799997 ], [ -115.3037403, 36.139848299800001 ], [ -115.3037457, 36.139848299800001 ], [ -115.3037457, 36.139850999799997 ], [ -115.3037511, 36.139850999799997 ], [ -115.3037511, 36.1398536998 ], [ -115.30375380000001, 36.1398536998 ], [ -115.30375380000001, 36.139861799799995 ], [ -115.3037565, 36.139861799799995 ], [ -115.3037565, 36.139902299799999 ], [ -115.30375380000001, 36.139902299799999 ], [ -115.30375380000001, 36.1399211998 ], [ -115.3037565, 36.1399211998 ], [ -115.3037565, 36.139923899799996 ], [ -115.3037592, 36.139923899799996 ], [ -115.3037592, 36.139926599799999 ], [ -115.30377, 36.139926599799999 ], [ -115.30377, 36.139929299799995 ], [ -115.30377270000001, 36.139929299799995 ], [ -115.30377270000001, 36.139931999799998 ], [ -115.3037754, 36.139931999799998 ], [ -115.3037754, 36.139967099799996 ], [ -115.30377270000001, 36.139967099799996 ], [ -115.30377270000001, 36.139972499799995 ], [ -115.3037673, 36.139972499799995 ], [ -115.3037673, 36.139975199799999 ], [ -115.303761900000012, 36.139975199799999 ], [ -115.303761900000012, 36.139977899800002 ], [ -115.3037565, 36.139977899800002 ], [ -115.3037565, 36.139980599799998 ], [ -115.3037457, 36.139980599799998 ], [ -115.3037457, 36.139983299800001 ] ] ] } },
{ "type": "Feature", "properties": { "value": 255.0 }, "geometry": { "type": "Polygon", "coordinates": [ [ [ -115.3040076, 36.140015699799996 ], [ -115.30400490000001, 36.140015699799996 ], [ -115.30400490000001, 36.1400129998 ], [ -115.303959, 36.1400129998 ], [ -115.303959, 36.140010299799997 ], [ -115.303945500000012, 36.140010299799997 ], [ -115.303945500000012, 36.140007599800001 ], [ -115.3039428, 36.140007599800001 ], [ -115.3039428, 36.140002199800001 ], [ -115.3039401, 36.140002199800001 ], [ -115.3039401, 36.139994099799999 ], [ -115.3039428, 36.139994099799999 ], [ -115.3039428, 36.139975199799999 ], [ -115.3039401, 36.139975199799999 ], [ -115.3039401, 36.139972499799995 ], [ -115.3039374, 36.139972499799995 ], [ -115.3039374, 36.139969799799999 ], [ -115.303926600000011, 36.139969799799999 ], [ -115.303926600000011, 36.139972499799995 ], [ -115.3039212, 36.139972499799995 ], [ -115.3039212, 36.139975199799999 ], [ -115.3039185, 36.139975199799999 ], [ -115.3039185, 36.139977899800002 ], [ -115.3039158, 36.139977899800002 ], [ -115.3039158, 36.139980599799998 ], [ -115.3038861, 36.139980599799998 ], [ -115.3038861, 36.139977899800002 ], [ -115.3038726, 36.139977899800002 ], [ -115.3038726, 36.139975199799999 ], [ -115.3038672, 36.139975199799999 ], [ -115.3038672, 36.139972499799995 ], [ -115.3038645, 36.139972499799995 ], [ -115.3038645, 36.139969799799999 ], [ -115.3038618, 36.139969799799999 ], [ -115.3038618, 36.139942799799996 ], [ -115.3038645, 36.139942799799996 ], [ -115.3038645, 36.139934699800001 ], [ -115.3038672, 36.139934699800001 ], [ -115.3038672, 36.139926599799999 ], [ -115.3038699, 36.139926599799999 ], [ -115.3038699, 36.139888799799998 ], [ -115.3038726, 36.139888799799998 ], [ -115.3038726, 36.139826699799997 ], [ -115.3038753, 36.139826699799997 ], [ -115.3038753, 36.139821299799998 ], [ -115.303878, 36.139821299799998 ], [ -115.303878, 36.139818599800002 ], [ -115.3038834, 36.139818599800002 ], [ -115.3038834, 36.139815899799999 ], [ -115.3038915, 36.139815899799999 ], [ -115.3038915, 36.139813199799995 ], [ -115.303896900000012, 36.139813199799995 ], [ -115.303896900000012, 36.139810499799999 ], [ -115.3039023, 36.139810499799999 ], [ -115.3039023, 36.139807799799996 ], [ -115.303945500000012, 36.139807799799996 ], [ -115.303945500000012, 36.1398050998 ], [ -115.3039779, 36.1398050998 ], [ -115.3039779, 36.139807799799996 ], [ -115.3039833, 36.139807799799996 ], [ -115.3039833, 36.139810499799999 ], [ -115.303986, 36.139810499799999 ], [ -115.303986, 36.139813199799995 ], [ -115.3039887, 36.139813199799995 ], [ -115.3039887, 36.139815899799999 ], [ -115.3039914, 36.139815899799999 ], [ -115.3039914, 36.139818599800002 ], [ -115.303994100000011, 36.139818599800002 ], [ -115.303994100000011, 36.139821299799998 ], [ -115.3039995, 36.139821299799998 ], [ -115.3039995, 36.139818599800002 ], [ -115.3040022, 36.139818599800002 ], [ -115.3040022, 36.139815899799999 ], [ -115.3040076, 36.139815899799999 ], [ -115.3040076, 36.140015699799996 ] ] ] } },
{ "type": "Feature", "properties": { "value": 255.0 }, "geometry": { "type": "Polygon", "coordinates": [ [ [ -115.3034136, 36.139961699799997 ], [ -115.303365, 36.139961699799997 ], [ -115.303365, 36.139958999800001 ], [ -115.3033623, 36.139958999800001 ], [ -115.3033623, 36.139956299799998 ], [ -115.3033596, 36.139956299799998 ], [ -115.3033596, 36.139953599800002 ], [ -115.303356900000011, 36.139953599800002 ], [ -115.303356900000011, 36.139956299799998 ], [ -115.3033488, 36.139956299799998 ], [ -115.3033488, 36.139958999800001 ], [ -115.3033407, 36.139958999800001 ], [ -115.3033407, 36.139956299799998 ], [ -115.3033299, 36.139956299799998 ], [ -115.3033299, 36.139953599800002 ], [ -115.3032732, 36.139953599800002 ], [ -115.3032732, 36.139950899799999 ], [ -115.3032624, 36.139950899799999 ], [ -115.3032624, 36.139948199799996 ], [ -115.303257, 36.139948199799996 ], [ -115.303257, 36.139942799799996 ], [ -115.3032543, 36.139942799799996 ], [ -115.3032543, 36.139913099799998 ], [ -115.30325160000001, 36.139913099799998 ], [ -115.30325160000001, 36.139902299799999 ], [ -115.3032489, 36.139902299799999 ], [ -115.3032489, 36.139867199800001 ], [ -115.30325160000001, 36.139867199800001 ], [ -115.30325160000001, 36.1398536998 ], [ -115.3032543, 36.1398536998 ], [ -115.3032543, 36.1398293998 ], [ -115.303257, 36.1398293998 ], [ -115.303257, 36.139802399799997 ], [ -115.3032597, 36.139802399799997 ], [ -115.3032597, 36.139796999799998 ], [ -115.3032624, 36.139796999799998 ], [ -115.3032624, 36.139794299799995 ], [ -115.3032678, 36.139794299799995 ], [ -115.3032678, 36.139791599799999 ], [ -115.303289400000011, 36.139791599799999 ], [ -115.303289400000011, 36.139794299799995 ], [ -115.3033029, 36.139794299799995 ], [ -115.3033029, 36.139796999799998 ], [ -115.303356900000011, 36.139796999799998 ], [ -115.303356900000011, 36.139799699800001 ], [ -115.3033704, 36.139799699800001 ], [ -115.3033704, 36.139802399799997 ], [ -115.3033839, 36.139802399799997 ], [ -115.3033839, 36.139799699800001 ], [ -115.303392, 36.139799699800001 ], [ -115.303392, 36.139802399799997 ], [ -115.3034001, 36.139802399799997 ], [ -115.3034001, 36.139799699800001 ], [ -115.303424400000011, 36.139799699800001 ], [ -115.303424400000011, 36.139796999799998 ], [ -115.30345410000001, 36.139796999799998 ], [ -115.30345410000001, 36.139799699800001 ], [ -115.3034649, 36.139799699800001 ], [ -115.3034649, 36.139802399799997 ], [ -115.3034676, 36.139802399799997 ], [ -115.3034676, 36.1398050998 ], [ -115.3034703, 36.1398050998 ], [ -115.3034703, 36.139815899799999 ], [ -115.3034676, 36.139815899799999 ], [ -115.3034676, 36.139818599800002 ], [ -115.3034649, 36.139818599800002 ], [ -115.3034649, 36.139823999800001 ], [ -115.3034622, 36.139823999800001 ], [ -115.3034622, 36.139826699799997 ], [ -115.3034595, 36.139826699799997 ], [ -115.3034595, 36.139848299800001 ], [ -115.3034568, 36.139848299800001 ], [ -115.3034568, 36.139861799799995 ], [ -115.3034595, 36.139861799799995 ], [ -115.3034595, 36.139886099800002 ], [ -115.3034568, 36.139886099800002 ], [ -115.3034568, 36.139888799799998 ], [ -115.3034595, 36.139888799799998 ], [ -115.3034595, 36.139894199799997 ], [ -115.3034622, 36.139894199799997 ], [ -115.3034622, 36.1398968998 ], [ -115.3034649, 36.1398968998 ], [ -115.3034649, 36.139899599799996 ], [ -115.303473, 36.139899599799996 ], [ -115.303473, 36.139902299799999 ], [ -115.3034757, 36.139902299799999 ], [ -115.3034757, 36.139904999799995 ], [ -115.3034784, 36.139904999799995 ], [ -115.3034784, 36.139910399800002 ], [ -115.3034811, 36.139910399800002 ], [ -115.3034811, 36.139950899799999 ], [ -115.3034784, 36.139950899799999 ], [ -115.3034784, 36.139956299799998 ], [ -115.3034703, 36.139956299799998 ], [ -115.3034703, 36.139958999800001 ], [ -115.3034136, 36.139958999800001 ], [ -115.3034136, 36.139961699799997 ] ] ] } },
{ "type": "Feature", "properties": { "value": 255.0 }, "geometry": { "type": "Polygon", "coordinates": [ [ [ -115.3031814, 36.139961699799997 ], [ -115.3031139, 36.139961699799997 ], [ -115.3031139, 36.139958999800001 ], [ -115.3031031, 36.139958999800001 ], [ -115.3031031, 36.139956299799998 ], [ -115.303095, 36.139956299799998 ], [ -115.303095, 36.139953599800002 ], [ -115.3030761, 36.139953599800002 ], [ -115.3030761, 36.139950899799999 ], [ -115.3030734, 36.139950899799999 ], [ -115.3030734, 36.139907699799998 ], [ -115.3030572, 36.139907699799998 ], [ -115.3030572, 36.139910399800002 ], [ -115.3030518, 36.139910399800002 ], [ -115.3030518, 36.139913099799998 ], [ -115.3030464, 36.139913099799998 ], [ -115.3030464, 36.139915799800001 ], [ -115.303014, 36.139915799800001 ], [ -115.303014, 36.139913099799998 ], [ -115.3030113, 36.139913099799998 ], [ -115.3030113, 36.139910399800002 ], [ -115.3030086, 36.139910399800002 ], [ -115.3030086, 36.139899599799996 ], [ -115.3030059, 36.139899599799996 ], [ -115.3030059, 36.139877999799999 ], [ -115.3030086, 36.139877999799999 ], [ -115.3030086, 36.1398725998 ], [ -115.3030113, 36.1398725998 ], [ -115.3030113, 36.1398536998 ], [ -115.303014, 36.1398536998 ], [ -115.303014, 36.139840199799998 ], [ -115.3030167, 36.139840199799998 ], [ -115.3030167, 36.139823999800001 ], [ -115.303019400000011, 36.139823999800001 ], [ -115.303019400000011, 36.139813199799995 ], [ -115.3030167, 36.139813199799995 ], [ -115.3030167, 36.139799699800001 ], [ -115.303014, 36.139799699800001 ], [ -115.303014, 36.139759199799997 ], [ -115.3030167, 36.139759199799997 ], [ -115.3030167, 36.139756499800001 ], [ -115.303019400000011, 36.139756499800001 ], [ -115.303019400000011, 36.139753799799998 ], [ -115.3030221, 36.139753799799998 ], [ -115.3030221, 36.139751099800002 ], [ -115.3030302, 36.139751099800002 ], [ -115.3030302, 36.139748399799998 ], [ -115.3030437, 36.139748399799998 ], [ -115.3030437, 36.139745699799995 ], [ -115.303086900000011, 36.139745699799995 ], [ -115.303086900000011, 36.139748399799998 ], [ -115.303095, 36.139748399799998 ], [ -115.303095, 36.139751099800002 ], [ -115.3030977, 36.139751099800002 ], [ -115.3030977, 36.139753799799998 ], [ -115.3031031, 36.139753799799998 ], [ -115.3031031, 36.139756499800001 ], [ -115.3031085, 36.139756499800001 ], [ -115.3031085, 36.139759199799997 ], [ -115.30311660000001, 36.139759199799997 ], [ -115.30311660000001, 36.1397618998 ], [ -115.3031301, 36.1397618998 ], [ -115.3031301, 36.139764599799996 ], [ -115.3031814, 36.139764599799996 ], [ -115.3031814, 36.139767299799999 ], [ -115.3031949, 36.139767299799999 ], [ -115.3031949, 36.139769999799995 ], [ -115.303203, 36.139769999799995 ], [ -115.303203, 36.139772699799998 ], [ -115.3032057, 36.139772699799998 ], [ -115.3032057, 36.139775399800001 ], [ -115.3032084, 36.139775399800001 ], [ -115.3032084, 36.139815899799999 ], [ -115.3032057, 36.139815899799999 ], [ -115.3032057, 36.139832099799996 ], [ -115.303203, 36.139832099799996 ], [ -115.303203, 36.1398536998 ], [ -115.3032003, 36.1398536998 ], [ -115.3032003, 36.139867199800001 ], [ -115.3031976, 36.139867199800001 ], [ -115.3031976, 36.139886099800002 ], [ -115.3031949, 36.139886099800002 ], [ -115.3031949, 36.139899599799996 ], [ -115.3031922, 36.139899599799996 ], [ -115.3031922, 36.139913099799998 ], [ -115.3031895, 36.139913099799998 ], [ -115.3031895, 36.139953599800002 ], [ -115.3031868, 36.139953599800002 ], [ -115.3031868, 36.139956299799998 ], [ -115.30318410000001, 36.139956299799998 ], [ -115.30318410000001, 36.139958999800001 ], [ -115.3031814, 36.139958999800001 ], [ -115.3031814, 36.139961699799997 ] ] ] } },
{ "type": "Feature", "properties": { "value": 255.0 }, "geometry": { "type": "Polygon", "coordinates": [ [ [ -115.3024254, 36.139832099799996 ], [ -115.30241190000001, 36.139832099799996 ], [ -115.30241190000001, 36.1398293998 ], [ -115.3024092, 36.1398293998 ], [ -115.3024092, 36.139823999800001 ], [ -115.3024065, 36.139823999800001 ], [ -115.3024065, 36.139818599800002 ], [ -115.3024038, 36.139818599800002 ], [ -115.3024038, 36.139810499799999 ], [ -115.3024011, 36.139810499799999 ], [ -115.3024011, 36.1398050998 ], [ -115.3023984, 36.1398050998 ], [ -115.3023984, 36.139802399799997 ], [ -115.3023957, 36.139802399799997 ], [ -115.3023957, 36.139796999799998 ], [ -115.302393, 36.139796999799998 ], [ -115.302393, 36.1397861998 ], [ -115.3023903, 36.1397861998 ], [ -115.3023903, 36.139775399800001 ], [ -115.3023876, 36.139775399800001 ], [ -115.3023876, 36.139769999799995 ], [ -115.3023849, 36.139769999799995 ], [ -115.3023849, 36.139764599799996 ], [ -115.3023822, 36.139764599799996 ], [ -115.3023822, 36.1397618998 ], [ -115.3023606, 36.1397618998 ], [ -115.3023606, 36.139764599799996 ], [ -115.3023417, 36.139764599799996 ], [ -115.3023417, 36.1397618998 ], [ -115.302339, 36.1397618998 ], [ -115.302339, 36.139759199799997 ], [ -115.3023363, 36.139759199799997 ], [ -115.3023363, 36.139756499800001 ], [ -115.3023336, 36.139756499800001 ], [ -115.3023336, 36.139748399799998 ], [ -115.3023309, 36.139748399799998 ], [ -115.3023309, 36.139742999799999 ], [ -115.3023282, 36.139742999799999 ], [ -115.3023282, 36.1397375998 ], [ -115.3023255, 36.1397375998 ], [ -115.3023255, 36.139734899799997 ], [ -115.3023228, 36.139734899799997 ], [ -115.3023228, 36.139732199800001 ], [ -115.3023201, 36.139732199800001 ], [ -115.3023201, 36.139724099799999 ], [ -115.3023174, 36.139724099799999 ], [ -115.3023174, 36.139705199799998 ], [ -115.3023201, 36.139705199799998 ], [ -115.3023201, 36.139702499799995 ], [ -115.3023228, 36.139702499799995 ], [ -115.3023228, 36.139699799799999 ], [ -115.3023336, 36.139699799799999 ], [ -115.3023336, 36.139697099799996 ], [ -115.3023471, 36.139697099799996 ], [ -115.3023471, 36.1396943998 ], [ -115.3023525, 36.1396943998 ], [ -115.3023525, 36.139691699799997 ], [ -115.3023579, 36.139691699799997 ], [ -115.3023579, 36.139688999800001 ], [ -115.3023633, 36.139688999800001 ], [ -115.3023633, 36.139686299799997 ], [ -115.3023714, 36.139686299799997 ], [ -115.3023714, 36.139683599800001 ], [ -115.3023822, 36.139683599800001 ], [ -115.3023822, 36.139680899799998 ], [ -115.3023957, 36.139680899799998 ], [ -115.3023957, 36.139678199799995 ], [ -115.3024092, 36.139678199799995 ], [ -115.3024092, 36.139675499799999 ], [ -115.3024335, 36.139675499799999 ], [ -115.3024335, 36.139678199799995 ], [ -115.302447, 36.139678199799995 ], [ -115.302447, 36.139675499799999 ], [ -115.3024578, 36.139675499799999 ], [ -115.3024578, 36.139678199799995 ], [ -115.3024605, 36.139678199799995 ], [ -115.3024605, 36.139680899799998 ], [ -115.3024632, 36.139680899799998 ], [ -115.3024632, 36.139697099799996 ], [ -115.3024713, 36.139697099799996 ], [ -115.3024713, 36.139699799799999 ], [ -115.3024767, 36.139699799799999 ], [ -115.3024767, 36.139697099799996 ], [ -115.3024848, 36.139697099799996 ], [ -115.3024848, 36.1396943998 ], [ -115.3024902, 36.1396943998 ], [ -115.3024902, 36.139691699799997 ], [ -115.302501, 36.139691699799997 ], [ -115.302501, 36.139688999800001 ], [ -115.302528, 36.139688999800001 ], [ -115.302528, 36.139686299799997 ], [ -115.3025361, 36.139686299799997 ], [ -115.3025361, 36.139683599800001 ], [ -115.3025577, 36.139683599800001 ], [ -115.3025577, 36.139686299799997 ], [ -115.3025604, 36.139686299799997 ], [ -115.3025604, 36.139688999800001 ], [ -115.3025631, 36.139688999800001 ], [ -115.3025631, 36.1396943998 ], [ -115.3025658, 36.1396943998 ], [ -115.3025658, 36.139697099799996 ], [ -115.3025685, 36.139697099799996 ], [ -115.3025685, 36.139699799799999 ], [ -115.3025712, 36.139699799799999 ], [ -115.3025712, 36.139702499799995 ], [ -115.3025739, 36.139702499799995 ], [ -115.3025739, 36.139705199799998 ], [ -115.3025793, 36.139705199799998 ], [ -115.3025793, 36.139707899800001 ], [ -115.302582, 36.139707899800001 ], [ -115.302582, 36.139710599799997 ], [ -115.3025847, 36.139710599799997 ], [ -115.3025847, 36.139715999799996 ], [ -115.3025874, 36.139715999799996 ], [ -115.3025874, 36.139721399799996 ], [ -115.3025901, 36.139721399799996 ], [ -115.3025901, 36.139729499799998 ], [ -115.3025928, 36.139729499799998 ], [ -115.3025928, 36.1397375998 ], [ -115.3025901, 36.1397375998 ], [ -115.3025901, 36.139753799799998 ], [ -115.3025928, 36.139753799799998 ], [ -115.3025928, 36.1397618998 ], [ -115.30259550000001, 36.1397618998 ], [ -115.30259550000001, 36.139778099799997 ], [ -115.3025928, 36.139778099799997 ], [ -115.3025928, 36.1397807998 ], [ -115.3025901, 36.1397807998 ], [ -115.3025901, 36.139783499799996 ], [ -115.3025847, 36.139783499799996 ], [ -115.3025847, 36.1397861998 ], [ -115.3025766, 36.1397861998 ], [ -115.3025766, 36.139788899799996 ], [ -115.3025712, 36.139788899799996 ], [ -115.3025712, 36.139791599799999 ], [ -115.3025685, 36.139791599799999 ], [ -115.3025685, 36.139796999799998 ], [ -115.3025658, 36.139796999799998 ], [ -115.3025658, 36.139802399799997 ], [ -115.3025631, 36.139802399799997 ], [ -115.3025631, 36.1398050998 ], [ -115.3025577, 36.1398050998 ], [ -115.3025577, 36.139807799799996 ], [ -115.3025496, 36.139807799799996 ], [ -115.3025496, 36.139810499799999 ], [ -115.3025388, 36.139810499799999 ], [ -115.3025388, 36.139807799799996 ], [ -115.3024983, 36.139807799799996 ], [ -115.3024983, 36.139810499799999 ], [ -115.3024902, 36.139810499799999 ], [ -115.3024902, 36.139813199799995 ], [ -115.3024821, 36.139813199799995 ], [ -115.3024821, 36.139815899799999 ], [ -115.3024767, 36.139815899799999 ], [ -115.3024767, 36.139818599800002 ], [ -115.3024713, 36.139818599800002 ], [ -115.3024713, 36.139821299799998 ], [ -115.3024605, 36.139821299799998 ], [ -115.3024605, 36.139823999800001 ], [ -115.302447, 36.139823999800001 ], [ -115.302447, 36.139826699799997 ], [ -115.3024335, 36.139826699799997 ], [ -115.3024335, 36.1398293998 ], [ -115.3024254, 36.1398293998 ], [ -115.3024254, 36.139832099799996 ] ] ] } },
{ "type": "Feature", "properties": { "value": 255.0 }, "geometry": { "type": "Polygon", "coordinates": [ [ [ -115.3040076, 36.139634999799995 ], [ -115.30400490000001, 36.139634999799995 ], [ -115.30400490000001, 36.139632299799999 ], [ -115.3039779, 36.139632299799999 ], [ -115.3039779, 36.139629599799996 ], [ -115.3039428, 36.139629599799996 ], [ -115.3039428, 36.1396268998 ], [ -115.3039212, 36.1396268998 ], [ -115.3039212, 36.139624199799997 ], [ -115.3039104, 36.139624199799997 ], [ -115.3039104, 36.1396268998 ], [ -115.3038834, 36.1396268998 ], [ -115.3038834, 36.139624199799997 ], [ -115.303878, 36.139624199799997 ], [ -115.303878, 36.139618799799997 ], [ -115.3038753, 36.139618799799997 ], [ -115.3038753, 36.1396025998 ], [ -115.303878, 36.1396025998 ], [ -115.303878, 36.139551299799997 ], [ -115.3038807, 36.139551299799997 ], [ -115.3038807, 36.139540499799999 ], [ -115.303878, 36.139540499799999 ], [ -115.303878, 36.139529699800001 ], [ -115.3038753, 36.139529699800001 ], [ -115.3038753, 36.139526999799997 ], [ -115.3038726, 36.139526999799997 ], [ -115.3038726, 36.139524299799994 ], [ -115.3038699, 36.139524299799994 ], [ -115.3038699, 36.139521599799998 ], [ -115.303851, 36.139521599799998 ], [ -115.303851, 36.139518899799995 ], [ -115.3038483, 36.139518899799995 ], [ -115.3038483, 36.139513499799996 ], [ -115.3038456, 36.139513499799996 ], [ -115.3038456, 36.1395107998 ], [ -115.3038483, 36.1395107998 ], [ -115.3038483, 36.139502699799998 ], [ -115.303851, 36.139502699799998 ], [ -115.303851, 36.139494599799995 ], [ -115.3038537, 36.139494599799995 ], [ -115.3038537, 36.139489199799996 ], [ -115.3038564, 36.139489199799996 ], [ -115.3038564, 36.1394864998 ], [ -115.3038618, 36.1394864998 ], [ -115.3038618, 36.139483799799997 ], [ -115.3038699, 36.139483799799997 ], [ -115.3038699, 36.139481099800001 ], [ -115.3038807, 36.139481099800001 ], [ -115.3038807, 36.139478399799998 ], [ -115.303905, 36.139478399799998 ], [ -115.303905, 36.139481099800001 ], [ -115.3039509, 36.139481099800001 ], [ -115.3039509, 36.139483799799997 ], [ -115.30395630000001, 36.139483799799997 ], [ -115.30395630000001, 36.1394864998 ], [ -115.3039617, 36.1394864998 ], [ -115.3039617, 36.139489199799996 ], [ -115.3039779, 36.139489199799996 ], [ -115.3039779, 36.139491899799999 ], [ -115.3040076, 36.139491899799999 ], [ -115.3040076, 36.139634999799995 ] ] ] } },
{ "type": "Feature", "properties": { "value": 255.0 }, "geometry": { "type": "Polygon", "coordinates": [ [ [ -115.3037376, 36.139651199799999 ], [ -115.30370520000001, 36.139651199799999 ], [ -115.30370520000001, 36.139648499799996 ], [ -115.3036836, 36.139648499799996 ], [ -115.3036836, 36.1396457998 ], [ -115.3036728, 36.1396457998 ], [ -115.3036728, 36.139643099799997 ], [ -115.303635, 36.139643099799997 ], [ -115.303635, 36.139629599799996 ], [ -115.3036215, 36.139629599799996 ], [ -115.3036215, 36.1396268998 ], [ -115.3035972, 36.1396268998 ], [ -115.3035972, 36.139624199799997 ], [ -115.3035729, 36.139624199799997 ], [ -115.3035729, 36.1396214998 ], [ -115.30357020000001, 36.1396214998 ], [ -115.30357020000001, 36.139613399799998 ], [ -115.3035675, 36.139613399799998 ], [ -115.3035675, 36.139597199800001 ], [ -115.30357020000001, 36.139597199800001 ], [ -115.30357020000001, 36.139572899800001 ], [ -115.3035675, 36.139572899800001 ], [ -115.3035675, 36.1395350998 ], [ -115.30357020000001, 36.1395350998 ], [ -115.30357020000001, 36.139508099799997 ], [ -115.3035729, 36.139508099799997 ], [ -115.3035729, 36.139502699799998 ], [ -115.3035756, 36.139502699799998 ], [ -115.3035756, 36.139499999799995 ], [ -115.3036161, 36.139499999799995 ], [ -115.3036161, 36.139502699799998 ], [ -115.303626900000012, 36.139502699799998 ], [ -115.303626900000012, 36.139499999799995 ], [ -115.3036404, 36.139499999799995 ], [ -115.3036404, 36.139497299799999 ], [ -115.3036485, 36.139497299799999 ], [ -115.3036485, 36.139494599799995 ], [ -115.3036539, 36.139494599799995 ], [ -115.3036539, 36.139491899799999 ], [ -115.3036593, 36.139491899799999 ], [ -115.3036593, 36.139489199799996 ], [ -115.3036728, 36.139489199799996 ], [ -115.3036728, 36.1394864998 ], [ -115.303689, 36.1394864998 ], [ -115.303689, 36.139483799799997 ], [ -115.303694400000012, 36.139483799799997 ], [ -115.303694400000012, 36.139481099800001 ], [ -115.3036998, 36.139481099800001 ], [ -115.3036998, 36.139478399799998 ], [ -115.3037592, 36.139478399799998 ], [ -115.3037592, 36.139481099800001 ], [ -115.3037673, 36.139481099800001 ], [ -115.3037673, 36.139483799799997 ], [ -115.3037862, 36.139483799799997 ], [ -115.3037862, 36.1394864998 ], [ -115.303797, 36.1394864998 ], [ -115.303797, 36.139489199799996 ], [ -115.3038024, 36.139489199799996 ], [ -115.3038024, 36.139494599799995 ], [ -115.3038051, 36.139494599799995 ], [ -115.3038051, 36.139499999799995 ], [ -115.3038078, 36.139499999799995 ], [ -115.3038078, 36.139545899799998 ], [ -115.3038051, 36.139545899799998 ], [ -115.3038051, 36.139548599800001 ], [ -115.3038024, 36.139548599800001 ], [ -115.3038024, 36.139551299799997 ], [ -115.303791600000011, 36.139551299799997 ], [ -115.303791600000011, 36.139548599800001 ], [ -115.3037754, 36.139548599800001 ], [ -115.3037754, 36.139551299799997 ], [ -115.30377270000001, 36.139551299799997 ], [ -115.30377270000001, 36.139556699799996 ], [ -115.30377, 36.139556699799996 ], [ -115.30377, 36.1396214998 ], [ -115.3037673, 36.1396214998 ], [ -115.3037673, 36.139629599799996 ], [ -115.3037646, 36.139629599799996 ], [ -115.3037646, 36.139632299799999 ], [ -115.303761900000012, 36.139632299799999 ], [ -115.303761900000012, 36.139634999799995 ], [ -115.3037511, 36.139634999799995 ], [ -115.3037511, 36.139637699799998 ], [ -115.3037484, 36.139637699799998 ], [ -115.3037484, 36.139643099799997 ], [ -115.3037457, 36.139643099799997 ], [ -115.3037457, 36.139648499799996 ], [ -115.3037376, 36.139648499799996 ], [ -115.3037376, 36.139651199799999 ] ] ] } },
{ "type": "Feature", "properties": { "value": 255.0 }, "geometry": { "type": "Polygon", "coordinates": [ [ [ -115.3033974, 36.139610699799995 ], [ -115.3033272, 36.139610699799995 ], [ -115.3033272, 36.139607999799999 ], [ -115.3033245, 36.139607999799999 ], [ -115.3033245, 36.139605299799996 ], [ -115.3033218, 36.139605299799996 ], [ -115.3033218, 36.139599899799997 ], [ -115.30331910000001, 36.139599899799997 ], [ -115.30331910000001, 36.139597199800001 ], [ -115.303311, 36.139597199800001 ], [ -115.303311, 36.139594499799998 ], [ -115.3033029, 36.139594499799998 ], [ -115.3033029, 36.139591799799994 ], [ -115.3032975, 36.139591799799994 ], [ -115.3032975, 36.139502699799998 ], [ -115.30330020000001, 36.139502699799998 ], [ -115.30330020000001, 36.139462199800001 ], [ -115.3033029, 36.139462199800001 ], [ -115.3033029, 36.139454099799998 ], [ -115.303311, 36.139454099799998 ], [ -115.303311, 36.139451399799995 ], [ -115.303338, 36.139451399799995 ], [ -115.303338, 36.139454099799998 ], [ -115.3033596, 36.139454099799998 ], [ -115.3033596, 36.139456799799994 ], [ -115.3033785, 36.139456799799994 ], [ -115.3033785, 36.139459499799997 ], [ -115.3034028, 36.139459499799997 ], [ -115.3034028, 36.139456799799994 ], [ -115.3034163, 36.139456799799994 ], [ -115.3034163, 36.139454099799998 ], [ -115.3034325, 36.139454099799998 ], [ -115.3034325, 36.139451399799995 ], [ -115.3034514, 36.139451399799995 ], [ -115.3034514, 36.139454099799998 ], [ -115.3034784, 36.139454099799998 ], [ -115.3034784, 36.139456799799994 ], [ -115.3035, 36.139456799799994 ], [ -115.3035, 36.139459499799997 ], [ -115.3035081, 36.139459499799997 ], [ -115.3035081, 36.139462199800001 ], [ -115.303527, 36.139462199800001 ], [ -115.303527, 36.139464899799997 ], [ -115.3035351, 36.139464899799997 ], [ -115.3035351, 36.1394675998 ], [ -115.3035378, 36.1394675998 ], [ -115.3035378, 36.139497299799999 ], [ -115.3035351, 36.139497299799999 ], [ -115.3035351, 36.139513499799996 ], [ -115.3035324, 36.139513499799996 ], [ -115.3035324, 36.139518899799995 ], [ -115.3035297, 36.139518899799995 ], [ -115.3035297, 36.139521599799998 ], [ -115.3035243, 36.139521599799998 ], [ -115.3035243, 36.139524299799994 ], [ -115.30350270000001, 36.139524299799994 ], [ -115.30350270000001, 36.139526999799997 ], [ -115.3035, 36.139526999799997 ], [ -115.3035, 36.139532399799997 ], [ -115.3034973, 36.139532399799997 ], [ -115.3034973, 36.139564799799999 ], [ -115.3034946, 36.139564799799999 ], [ -115.3034946, 36.139583699799999 ], [ -115.303491900000012, 36.139583699799999 ], [ -115.303491900000012, 36.139597199800001 ], [ -115.3034892, 36.139597199800001 ], [ -115.3034892, 36.1396025998 ], [ -115.3034406, 36.1396025998 ], [ -115.3034406, 36.139605299799996 ], [ -115.3034163, 36.139605299799996 ], [ -115.3034163, 36.139607999799999 ], [ -115.3033974, 36.139607999799999 ], [ -115.3033974, 36.139610699799995 ] ] ] } },
{ "type": "Feature", "properties": { "value": 255.0 }, "geometry": { "type": "Polygon", "coordinates": [ [ [ -115.3032246, 36.139583699799999 ], [ -115.3031976, 36.139583699799999 ], [ -115.3031976, 36.139580999799996 ], [ -115.30313550000001, 36.139580999799996 ], [ -115.30313550000001, 36.139583699799999 ], [ -115.3031247, 36.139583699799999 ], [ -115.3031247, 36.139580999799996 ], [ -115.3031112, 36.139580999799996 ], [ -115.3031112, 36.1395782998 ], [ -115.3030896, 36.1395782998 ], [ -115.3030896, 36.139575599799997 ], [ -115.3030356, 36.139575599799997 ], [ -115.3030356, 36.139572899800001 ], [ -115.3030329, 36.139572899800001 ], [ -115.3030329, 36.139562099799996 ], [ -115.3030302, 36.139562099799996 ], [ -115.3030302, 36.139548599800001 ], [ -115.3030329, 36.139548599800001 ], [ -115.3030329, 36.139537799799996 ], [ -115.3030356, 36.139537799799996 ], [ -115.3030356, 36.139524299799994 ], [ -115.3030329, 36.139524299799994 ], [ -115.3030329, 36.139489199799996 ], [ -115.3030356, 36.139489199799996 ], [ -115.3030356, 36.1394864998 ], [ -115.3030383, 36.1394864998 ], [ -115.3030383, 36.139481099800001 ], [ -115.303041, 36.139481099800001 ], [ -115.303041, 36.139448699799999 ], [ -115.3030437, 36.139448699799999 ], [ -115.3030437, 36.139440599799997 ], [ -115.3030464, 36.139440599799997 ], [ -115.3030464, 36.139437899800001 ], [ -115.30304910000001, 36.139437899800001 ], [ -115.30304910000001, 36.139435199799998 ], [ -115.3030545, 36.139435199799998 ], [ -115.3030545, 36.139432499799995 ], [ -115.3030626, 36.139432499799995 ], [ -115.3030626, 36.139435199799998 ], [ -115.3031004, 36.139435199799998 ], [ -115.3031004, 36.139437899800001 ], [ -115.3031652, 36.139437899800001 ], [ -115.3031652, 36.139435199799998 ], [ -115.3032381, 36.139435199799998 ], [ -115.3032381, 36.139437899800001 ], [ -115.3032624, 36.139437899800001 ], [ -115.3032624, 36.139440599799997 ], [ -115.3032651, 36.139440599799997 ], [ -115.3032651, 36.1394432998 ], [ -115.3032678, 36.1394432998 ], [ -115.3032678, 36.139483799799997 ], [ -115.3032651, 36.139483799799997 ], [ -115.3032651, 36.139499999799995 ], [ -115.3032624, 36.139499999799995 ], [ -115.3032624, 36.1395107998 ], [ -115.3032597, 36.1395107998 ], [ -115.3032597, 36.139516199799999 ], [ -115.303257, 36.139516199799999 ], [ -115.303257, 36.139518899799995 ], [ -115.3032543, 36.139518899799995 ], [ -115.3032543, 36.139521599799998 ], [ -115.3032354, 36.139521599799998 ], [ -115.3032354, 36.139532399799997 ], [ -115.3032327, 36.139532399799997 ], [ -115.3032327, 36.139564799799999 ], [ -115.30323, 36.139564799799999 ], [ -115.30323, 36.1395782998 ], [ -115.3032273, 36.1395782998 ], [ -115.3032273, 36.139580999799996 ], [ -115.3032246, 36.139580999799996 ], [ -115.3032246, 36.139583699799999 ] ] ] } },
{ "type": "Feature", "properties": { "value": 255.0 }, "geometry": { "type": "Polygon", "coordinates": [ [ [ -115.30269, 36.139629599799996 ], [ -115.3026792, 36.139629599799996 ], [ -115.3026792, 36.1396268998 ], [ -115.3026279, 36.1396268998 ], [ -115.3026279, 36.139624199799997 ], [ -115.3026252, 36.139624199799997 ], [ -115.3026252, 36.1396214998 ], [ -115.3026198, 36.1396214998 ], [ -115.3026198, 36.139618799799997 ], [ -115.3026063, 36.139618799799997 ], [ -115.3026063, 36.139616099800001 ], [ -115.3025901, 36.139616099800001 ], [ -115.3025901, 36.139613399799998 ], [ -115.3025766, 36.139613399799998 ], [ -115.3025766, 36.139610699799995 ], [ -115.3025712, 36.139610699799995 ], [ -115.3025712, 36.139607999799999 ], [ -115.3025658, 36.139607999799999 ], [ -115.3025658, 36.139605299799996 ], [ -115.3025631, 36.139605299799996 ], [ -115.3025631, 36.1396025998 ], [ -115.3025442, 36.1396025998 ], [ -115.3025442, 36.139599899799997 ], [ -115.3025415, 36.139599899799997 ], [ -115.3025415, 36.139597199800001 ], [ -115.3025388, 36.139597199800001 ], [ -115.3025388, 36.139591799799994 ], [ -115.3025361, 36.139591799799994 ], [ -115.3025361, 36.1395782998 ], [ -115.3025388, 36.1395782998 ], [ -115.3025388, 36.139564799799999 ], [ -115.3025415, 36.139564799799999 ], [ -115.3025415, 36.139562099799996 ], [ -115.3025442, 36.139562099799996 ], [ -115.3025442, 36.1395539998 ], [ -115.30254690000001, 36.1395539998 ], [ -115.30254690000001, 36.139545899799998 ], [ -115.3025496, 36.139545899799998 ], [ -115.3025496, 36.139529699800001 ], [ -115.3025523, 36.139529699800001 ], [ -115.3025523, 36.139508099799997 ], [ -115.3025496, 36.139508099799997 ], [ -115.3025496, 36.139491899799999 ], [ -115.3025523, 36.139491899799999 ], [ -115.3025523, 36.139481099800001 ], [ -115.302555, 36.139481099800001 ], [ -115.302555, 36.139470299799996 ], [ -115.3025577, 36.139470299799996 ], [ -115.3025577, 36.139456799799994 ], [ -115.3025604, 36.139456799799994 ], [ -115.3025604, 36.139440599799997 ], [ -115.3025631, 36.139440599799997 ], [ -115.3025631, 36.139437899800001 ], [ -115.3025658, 36.139437899800001 ], [ -115.3025658, 36.139435199799998 ], [ -115.3025685, 36.139435199799998 ], [ -115.3025685, 36.139432499799995 ], [ -115.3025712, 36.139432499799995 ], [ -115.3025712, 36.139427099799995 ], [ -115.3025739, 36.139427099799995 ], [ -115.3025739, 36.139421699799996 ], [ -115.3025766, 36.139421699799996 ], [ -115.3025766, 36.1394189998 ], [ -115.3026036, 36.1394189998 ], [ -115.3026036, 36.139421699799996 ], [ -115.3026225, 36.139421699799996 ], [ -115.3026225, 36.139424399799999 ], [ -115.3026252, 36.139424399799999 ], [ -115.3026252, 36.139456799799994 ], [ -115.3026279, 36.139456799799994 ], [ -115.3026279, 36.139459499799997 ], [ -115.3026684, 36.139459499799997 ], [ -115.3026684, 36.139462199800001 ], [ -115.30268190000001, 36.139462199800001 ], [ -115.30268190000001, 36.139464899799997 ], [ -115.3027089, 36.139464899799997 ], [ -115.3027089, 36.1394675998 ], [ -115.3027197, 36.1394675998 ], [ -115.3027197, 36.139470299799996 ], [ -115.3027251, 36.139470299799996 ], [ -115.3027251, 36.139472999799999 ], [ -115.3027278, 36.139472999799999 ], [ -115.3027278, 36.139475699799995 ], [ -115.30273050000001, 36.139475699799995 ], [ -115.30273050000001, 36.139494599799995 ], [ -115.3027278, 36.139494599799995 ], [ -115.3027278, 36.139518899799995 ], [ -115.30273050000001, 36.139518899799995 ], [ -115.30273050000001, 36.139526999799997 ], [ -115.3027332, 36.139526999799997 ], [ -115.3027332, 36.139529699800001 ], [ -115.3027359, 36.139529699800001 ], [ -115.3027359, 36.1395350998 ], [ -115.3027386, 36.1395350998 ], [ -115.3027386, 36.139537799799996 ], [ -115.3027413, 36.139537799799996 ], [ -115.3027413, 36.139540499799999 ], [ -115.302744, 36.139540499799999 ], [ -115.302744, 36.139543199799995 ], [ -115.3027467, 36.139543199799995 ], [ -115.3027467, 36.139545899799998 ], [ -115.30274940000001, 36.139545899799998 ], [ -115.30274940000001, 36.139556699799996 ], [ -115.3027467, 36.139556699799996 ], [ -115.3027467, 36.139567499799995 ], [ -115.302744, 36.139567499799995 ], [ -115.302744, 36.139575599799997 ], [ -115.3027413, 36.139575599799997 ], [ -115.3027413, 36.139586399799995 ], [ -115.3027386, 36.139586399799995 ], [ -115.3027386, 36.139599899799997 ], [ -115.3027359, 36.139599899799997 ], [ -115.3027359, 36.139610699799995 ], [ -115.3027332, 36.139610699799995 ], [ -115.3027332, 36.139616099800001 ], [ -115.30273050000001, 36.139616099800001 ], [ -115.30273050000001, 36.139618799799997 ], [ -115.3027278, 36.139618799799997 ], [ -115.3027278, 36.1396214998 ], [ -115.3027224, 36.1396214998 ], [ -115.3027224, 36.139624199799997 ], [ -115.3027197, 36.139624199799997 ], [ -115.3027197, 36.1396268998 ], [ -115.30269, 36.1396268998 ], [ -115.30269, 36.139629599799996 ] ] ] } },
{ "type": "Feature", "properties": { "value": 255.0 }, "geometry": { "type": "Polygon", "coordinates": [ [ [ -115.3026603, 36.139386599799998 ], [ -115.3025793, 36.139386599799998 ], [ -115.3025793, 36.139383899799995 ], [ -115.3025739, 36.139383899799995 ], [ -115.3025739, 36.139381199799999 ], [ -115.3025604, 36.139381199799999 ], [ -115.3025604, 36.139378499799996 ], [ -115.3025172, 36.139378499799996 ], [ -115.3025172, 36.1393757998 ], [ -115.3025118, 36.1393757998 ], [ -115.3025118, 36.139373099799997 ], [ -115.3025064, 36.139373099799997 ], [ -115.3025064, 36.139319099799998 ], [ -115.3025091, 36.139319099799998 ], [ -115.3025091, 36.139286699799996 ], [ -115.3025064, 36.139286699799996 ], [ -115.3025064, 36.139281299799997 ], [ -115.3025037, 36.139281299799997 ], [ -115.3025037, 36.139275899799998 ], [ -115.302501, 36.139275899799998 ], [ -115.302501, 36.1392164998 ], [ -115.3025037, 36.1392164998 ], [ -115.3025037, 36.139213799799997 ], [ -115.3025064, 36.139213799799997 ], [ -115.3025064, 36.139211099800001 ], [ -115.3025091, 36.139211099800001 ], [ -115.3025091, 36.1391921998 ], [ -115.3025118, 36.1391921998 ], [ -115.3025118, 36.139189499799997 ], [ -115.3025739, 36.139189499799997 ], [ -115.3025739, 36.1391921998 ], [ -115.3025793, 36.1391921998 ], [ -115.3025793, 36.139194899799996 ], [ -115.302582, 36.139194899799996 ], [ -115.302582, 36.139200299799995 ], [ -115.3025847, 36.139200299799995 ], [ -115.3025847, 36.139219199799996 ], [ -115.3025874, 36.139219199799996 ], [ -115.3025874, 36.139221899799999 ], [ -115.3026441, 36.139221899799999 ], [ -115.3026441, 36.139224599799995 ], [ -115.3026846, 36.139224599799995 ], [ -115.3026846, 36.139227299799998 ], [ -115.3026954, 36.139227299799998 ], [ -115.3026954, 36.139229999799994 ], [ -115.3027008, 36.139229999799994 ], [ -115.3027008, 36.1392353998 ], [ -115.3027035, 36.1392353998 ], [ -115.3027035, 36.139238099799996 ], [ -115.3027062, 36.139238099799996 ], [ -115.3027062, 36.139243499799996 ], [ -115.3027089, 36.139243499799996 ], [ -115.3027089, 36.139319099799998 ], [ -115.3027062, 36.139319099799998 ], [ -115.3027062, 36.139324499799997 ], [ -115.3026981, 36.139324499799997 ], [ -115.3026981, 36.1393271998 ], [ -115.3026846, 36.1393271998 ], [ -115.3026846, 36.139329899799996 ], [ -115.30268190000001, 36.139329899799996 ], [ -115.30268190000001, 36.139332599799999 ], [ -115.3026792, 36.139332599799999 ], [ -115.3026792, 36.139348799799997 ], [ -115.30268190000001, 36.139348799799997 ], [ -115.30268190000001, 36.139378499799996 ], [ -115.3026792, 36.139378499799996 ], [ -115.3026792, 36.139383899799995 ], [ -115.3026603, 36.139383899799995 ], [ -115.3026603, 36.139386599799998 ] ] ] } },
{ "type": "Feature", "properties": { "value": 255.0 }, "geometry": { "type": "Polygon", "coordinates": [ [ [ -115.3040076, 36.139200299799995 ], [ -115.303964400000012, 36.139200299799995 ], [ -115.303964400000012, 36.139197599799999 ], [ -115.3039617, 36.139197599799999 ], [ -115.3039617, 36.139194899799996 ], [ -115.303959, 36.139194899799996 ], [ -115.303959, 36.1391921998 ], [ -115.30395630000001, 36.1391921998 ], [ -115.30395630000001, 36.139170599799996 ], [ -115.3039428, 36.139170599799996 ], [ -115.3039428, 36.139173299799999 ], [ -115.3039401, 36.139173299799999 ], [ -115.3039401, 36.139175999799996 ], [ -115.3039347, 36.139175999799996 ], [ -115.3039347, 36.139178699799999 ], [ -115.3039131, 36.139178699799999 ], [ -115.3039131, 36.139181399799995 ], [ -115.3038996, 36.139181399799995 ], [ -115.3038996, 36.139178699799999 ], [ -115.3038645, 36.139178699799999 ], [ -115.3038645, 36.139175999799996 ], [ -115.3038618, 36.139175999799996 ], [ -115.3038618, 36.139173299799999 ], [ -115.303859100000011, 36.139173299799999 ], [ -115.303859100000011, 36.139154399799999 ], [ -115.3038618, 36.139154399799999 ], [ -115.3038618, 36.139143599800001 ], [ -115.303859100000011, 36.139143599800001 ], [ -115.303859100000011, 36.139132799799995 ], [ -115.3038618, 36.139132799799995 ], [ -115.3038618, 36.139113899799995 ], [ -115.3038645, 36.139113899799995 ], [ -115.3038645, 36.139105799799999 ], [ -115.3038672, 36.139105799799999 ], [ -115.3038672, 36.139097699799997 ], [ -115.3038699, 36.139097699799997 ], [ -115.3038699, 36.139089599799995 ], [ -115.3038726, 36.139089599799995 ], [ -115.3038726, 36.139084199799996 ], [ -115.3038753, 36.139084199799996 ], [ -115.3038753, 36.1390760998 ], [ -115.303878, 36.1390760998 ], [ -115.303878, 36.139059899799996 ], [ -115.3038807, 36.139059899799996 ], [ -115.3038807, 36.139030199799997 ], [ -115.303878, 36.139030199799997 ], [ -115.303878, 36.139024799799998 ], [ -115.3038807, 36.139024799799998 ], [ -115.3038807, 36.139019399799999 ], [ -115.3038834, 36.139019399799999 ], [ -115.3038834, 36.139016699799996 ], [ -115.3038861, 36.139016699799996 ], [ -115.3038861, 36.1390139998 ], [ -115.303896900000012, 36.1390139998 ], [ -115.303896900000012, 36.139011299799996 ], [ -115.303905, 36.139011299799996 ], [ -115.303905, 36.1390085998 ], [ -115.3039104, 36.1390085998 ], [ -115.3039104, 36.139005899799997 ], [ -115.3039158, 36.139005899799997 ], [ -115.3039158, 36.139003199799994 ], [ -115.303964400000012, 36.139003199799994 ], [ -115.303964400000012, 36.139000499799998 ], [ -115.303994100000011, 36.139000499799998 ], [ -115.303994100000011, 36.139003199799994 ], [ -115.3040076, 36.139003199799994 ], [ -115.3040076, 36.139200299799995 ] ] ] } },
{ "type": "Feature", "properties": { "value": 255.0 }, "geometry": { "type": "Polygon", "coordinates": [ [ [ -115.3037943, 36.139202999799998 ], [ -115.3037862, 36.139202999799998 ], [ -115.3037862, 36.139200299799995 ], [ -115.3037187, 36.139200299799995 ], [ -115.3037187, 36.139197599799999 ], [ -115.303716, 36.139197599799999 ], [ -115.303716, 36.139194899799996 ], [ -115.3037133, 36.139194899799996 ], [ -115.3037133, 36.139181399799995 ], [ -115.3037106, 36.139181399799995 ], [ -115.3037106, 36.139178699799999 ], [ -115.30370520000001, 36.139178699799999 ], [ -115.30370520000001, 36.139181399799995 ], [ -115.3037025, 36.139181399799995 ], [ -115.3037025, 36.139184099799998 ], [ -115.3036998, 36.139184099799998 ], [ -115.3036998, 36.139186799799994 ], [ -115.3036917, 36.139186799799994 ], [ -115.3036917, 36.139189499799997 ], [ -115.3036836, 36.139189499799997 ], [ -115.3036836, 36.1391921998 ], [ -115.3036674, 36.1391921998 ], [ -115.3036674, 36.139194899799996 ], [ -115.3036539, 36.139194899799996 ], [ -115.3036539, 36.1391921998 ], [ -115.3036404, 36.1391921998 ], [ -115.3036404, 36.139189499799997 ], [ -115.303635, 36.139189499799997 ], [ -115.303635, 36.139170599799996 ], [ -115.3036323, 36.139170599799996 ], [ -115.3036323, 36.139165199799997 ], [ -115.303626900000012, 36.139165199799997 ], [ -115.303626900000012, 36.139162499799994 ], [ -115.3036242, 36.139162499799994 ], [ -115.3036242, 36.139159799799998 ], [ -115.3036215, 36.139159799799998 ], [ -115.3036215, 36.139157099799995 ], [ -115.30361880000001, 36.139157099799995 ], [ -115.30361880000001, 36.139154399799999 ], [ -115.3036134, 36.139154399799999 ], [ -115.3036134, 36.139151699799996 ], [ -115.3036107, 36.139151699799996 ], [ -115.3036107, 36.1391489998 ], [ -115.303608, 36.1391489998 ], [ -115.303608, 36.139146299799997 ], [ -115.3036053, 36.139146299799997 ], [ -115.3036053, 36.139140899799997 ], [ -115.3036026, 36.139140899799997 ], [ -115.3036026, 36.139135499799998 ], [ -115.3035999, 36.139135499799998 ], [ -115.3035999, 36.1391246998 ], [ -115.3035972, 36.1391246998 ], [ -115.3035972, 36.139049099799998 ], [ -115.3035999, 36.139049099799998 ], [ -115.3035999, 36.139038299799999 ], [ -115.3036026, 36.139038299799999 ], [ -115.3036026, 36.1390328998 ], [ -115.3036053, 36.1390328998 ], [ -115.3036053, 36.139030199799997 ], [ -115.303608, 36.139030199799997 ], [ -115.303608, 36.139027499799994 ], [ -115.3036107, 36.139027499799994 ], [ -115.3036107, 36.139024799799998 ], [ -115.3036134, 36.139024799799998 ], [ -115.3036134, 36.139022099799995 ], [ -115.3036161, 36.139022099799995 ], [ -115.3036161, 36.139019399799999 ], [ -115.3036215, 36.139019399799999 ], [ -115.3036215, 36.1390139998 ], [ -115.303626900000012, 36.1390139998 ], [ -115.303626900000012, 36.139011299799996 ], [ -115.3036323, 36.139011299799996 ], [ -115.3036323, 36.1390085998 ], [ -115.3036431, 36.1390085998 ], [ -115.3036431, 36.139005899799997 ], [ -115.3036593, 36.139005899799997 ], [ -115.3036593, 36.1390085998 ], [ -115.3036647, 36.1390085998 ], [ -115.3036647, 36.1390139998 ], [ -115.3036674, 36.1390139998 ], [ -115.3036674, 36.139019399799999 ], [ -115.3036701, 36.139019399799999 ], [ -115.3036701, 36.139040999799995 ], [ -115.303675500000011, 36.139040999799995 ], [ -115.303675500000011, 36.139043699799998 ], [ -115.3037214, 36.139043699799998 ], [ -115.3037214, 36.139040999799995 ], [ -115.3037268, 36.139040999799995 ], [ -115.3037268, 36.139038299799999 ], [ -115.3037295, 36.139038299799999 ], [ -115.3037295, 36.1390328998 ], [ -115.3037322, 36.1390328998 ], [ -115.3037322, 36.139027499799994 ], [ -115.3037349, 36.139027499799994 ], [ -115.3037349, 36.139024799799998 ], [ -115.3037376, 36.139024799799998 ], [ -115.3037376, 36.139022099799995 ], [ -115.3037403, 36.139022099799995 ], [ -115.3037403, 36.139016699799996 ], [ -115.303743, 36.139016699799996 ], [ -115.303743, 36.1390139998 ], [ -115.3037457, 36.1390139998 ], [ -115.3037457, 36.139011299799996 ], [ -115.3037484, 36.139011299799996 ], [ -115.3037484, 36.1390085998 ], [ -115.3037565, 36.1390085998 ], [ -115.3037565, 36.139005899799997 ], [ -115.3037889, 36.139005899799997 ], [ -115.3037889, 36.1390085998 ], [ -115.3037997, 36.1390085998 ], [ -115.3037997, 36.139011299799996 ], [ -115.3038024, 36.139011299799996 ], [ -115.3038024, 36.139016699799996 ], [ -115.3038051, 36.139016699799996 ], [ -115.3038051, 36.139027499799994 ], [ -115.3038078, 36.139027499799994 ], [ -115.3038078, 36.139138199799994 ], [ -115.303810500000012, 36.139138199799994 ], [ -115.303810500000012, 36.139146299799997 ], [ -115.3038132, 36.139146299799997 ], [ -115.3038132, 36.139173299799999 ], [ -115.303810500000012, 36.139173299799999 ], [ -115.303810500000012, 36.139186799799994 ], [ -115.3038078, 36.139186799799994 ], [ -115.3038078, 36.139200299799995 ], [ -115.3037943, 36.139200299799995 ], [ -115.3037943, 36.139202999799998 ] ] ] } },
{ "type": "Feature", "properties": { "value": 255.0 }, "geometry": { "type": "Polygon", "coordinates": [ [ [ -115.3025739, 36.139157099799995 ], [ -115.302528, 36.139157099799995 ], [ -115.302528, 36.139154399799999 ], [ -115.3025226, 36.139154399799999 ], [ -115.3025226, 36.139151699799996 ], [ -115.3025199, 36.139151699799996 ], [ -115.3025199, 36.1391489998 ], [ -115.3025172, 36.1391489998 ], [ -115.3025172, 36.139146299799997 ], [ -115.3025145, 36.139146299799997 ], [ -115.3025145, 36.139140899799997 ], [ -115.3025118, 36.139140899799997 ], [ -115.3025118, 36.139132799799995 ], [ -115.3025091, 36.139132799799995 ], [ -115.3025091, 36.1391246998 ], [ -115.3025118, 36.1391246998 ], [ -115.3025118, 36.139119299799994 ], [ -115.3025145, 36.139119299799994 ], [ -115.3025145, 36.139116599799998 ], [ -115.3025172, 36.139116599799998 ], [ -115.3025172, 36.139113899799995 ], [ -115.3025307, 36.139113899799995 ], [ -115.3025307, 36.139111199799999 ], [ -115.3025334, 36.139111199799999 ], [ -115.3025334, 36.139108499799995 ], [ -115.3025361, 36.139108499799995 ], [ -115.3025361, 36.139105799799999 ], [ -115.3025388, 36.139105799799999 ], [ -115.3025388, 36.1391003998 ], [ -115.3025415, 36.1391003998 ], [ -115.3025415, 36.139094999799994 ], [ -115.3025388, 36.139094999799994 ], [ -115.3025388, 36.139086899799999 ], [ -115.3025361, 36.139086899799999 ], [ -115.3025361, 36.1390814998 ], [ -115.3025307, 36.1390814998 ], [ -115.3025307, 36.139078799799996 ], [ -115.3025253, 36.139078799799996 ], [ -115.3025253, 36.1390760998 ], [ -115.3025199, 36.1390760998 ], [ -115.3025199, 36.139073399799997 ], [ -115.3025172, 36.139073399799997 ], [ -115.3025172, 36.139065299799995 ], [ -115.3025145, 36.139065299799995 ], [ -115.3025145, 36.139062599799999 ], [ -115.3025172, 36.139062599799999 ], [ -115.3025172, 36.139054499799997 ], [ -115.3025145, 36.139054499799997 ], [ -115.3025145, 36.139024799799998 ], [ -115.3025118, 36.139024799799998 ], [ -115.3025118, 36.138981599799997 ], [ -115.3025145, 36.138981599799997 ], [ -115.3025145, 36.138978899799994 ], [ -115.3025577, 36.138978899799994 ], [ -115.3025577, 36.138976199799998 ], [ -115.3026117, 36.138976199799998 ], [ -115.3026117, 36.138978899799994 ], [ -115.3026333, 36.138978899799994 ], [ -115.3026333, 36.138981599799997 ], [ -115.3026684, 36.138981599799997 ], [ -115.3026684, 36.138984299799993 ], [ -115.3026765, 36.138984299799993 ], [ -115.3026765, 36.138986999799997 ], [ -115.30268190000001, 36.138986999799997 ], [ -115.30268190000001, 36.1389896998 ], [ -115.3026846, 36.1389896998 ], [ -115.3026846, 36.138992399799996 ], [ -115.3026873, 36.138992399799996 ], [ -115.3026873, 36.139016699799996 ], [ -115.30269, 36.139016699799996 ], [ -115.30269, 36.139035599799996 ], [ -115.3026927, 36.139035599799996 ], [ -115.3026927, 36.139038299799999 ], [ -115.3027008, 36.139038299799999 ], [ -115.3027008, 36.139040999799995 ], [ -115.3027035, 36.139040999799995 ], [ -115.3027035, 36.139043699799998 ], [ -115.3027089, 36.139043699799998 ], [ -115.3027089, 36.139046399799994 ], [ -115.3027116, 36.139046399799994 ], [ -115.3027116, 36.139051799799994 ], [ -115.3027143, 36.139051799799994 ], [ -115.3027143, 36.139059899799996 ], [ -115.3027116, 36.139059899799996 ], [ -115.3027116, 36.139086899799999 ], [ -115.3027062, 36.139086899799999 ], [ -115.3027062, 36.139089599799995 ], [ -115.30269, 36.139089599799995 ], [ -115.30269, 36.139092299799998 ], [ -115.3026873, 36.139092299799998 ], [ -115.3026873, 36.139097699799997 ], [ -115.3026846, 36.139097699799997 ], [ -115.3026846, 36.139138199799994 ], [ -115.30268190000001, 36.139138199799994 ], [ -115.30268190000001, 36.139143599800001 ], [ -115.3026441, 36.139143599800001 ], [ -115.3026441, 36.139146299799997 ], [ -115.3026252, 36.139146299799997 ], [ -115.3026252, 36.139143599800001 ], [ -115.3025874, 36.139143599800001 ], [ -115.3025874, 36.139146299799997 ], [ -115.302582, 36.139146299799997 ], [ -115.302582, 36.1391489998 ], [ -115.3025793, 36.1391489998 ], [ -115.3025793, 36.139151699799996 ], [ -115.3025766, 36.139151699799996 ], [ -115.3025766, 36.139154399799999 ], [ -115.3025739, 36.139154399799999 ], [ -115.3025739, 36.139157099799995 ] ] ] } },
{ "type": "Feature", "properties": { "value": 255.0 }, "geometry": { "type": "Polygon", "coordinates": [ [ [ -115.3035351, 36.139200299799995 ], [ -115.3034973, 36.139200299799995 ], [ -115.3034973, 36.139197599799999 ], [ -115.3034784, 36.139197599799999 ], [ -115.3034784, 36.139194899799996 ], [ -115.30345410000001, 36.139194899799996 ], [ -115.30345410000001, 36.1391921998 ], [ -115.3034298, 36.1391921998 ], [ -115.3034298, 36.139189499799997 ], [ -115.303424400000011, 36.139189499799997 ], [ -115.303424400000011, 36.139184099799998 ], [ -115.3034217, 36.139184099799998 ], [ -115.3034217, 36.139178699799999 ], [ -115.303419, 36.139178699799999 ], [ -115.303419, 36.139175999799996 ], [ -115.303405500000011, 36.139175999799996 ], [ -115.303405500000011, 36.139173299799999 ], [ -115.3033947, 36.139173299799999 ], [ -115.3033947, 36.139170599799996 ], [ -115.3033893, 36.139170599799996 ], [ -115.3033893, 36.1391678998 ], [ -115.3033839, 36.1391678998 ], [ -115.3033839, 36.139165199799997 ], [ -115.3033758, 36.139165199799997 ], [ -115.3033758, 36.139162499799994 ], [ -115.3033461, 36.139162499799994 ], [ -115.3033461, 36.139159799799998 ], [ -115.3033434, 36.139159799799998 ], [ -115.3033434, 36.139157099799995 ], [ -115.3033407, 36.139157099799995 ], [ -115.3033407, 36.139143599800001 ], [ -115.3033434, 36.139143599800001 ], [ -115.3033434, 36.139138199799994 ], [ -115.3033461, 36.139138199799994 ], [ -115.3033461, 36.139121999799997 ], [ -115.3033488, 36.139121999799997 ], [ -115.3033488, 36.1391003998 ], [ -115.3033515, 36.1391003998 ], [ -115.3033515, 36.139073399799997 ], [ -115.3033542, 36.139073399799997 ], [ -115.3033542, 36.139030199799997 ], [ -115.3033515, 36.139030199799997 ], [ -115.3033515, 36.1390139998 ], [ -115.3033542, 36.1390139998 ], [ -115.3033542, 36.1390085998 ], [ -115.303356900000011, 36.1390085998 ], [ -115.303356900000011, 36.139005899799997 ], [ -115.3033596, 36.139005899799997 ], [ -115.3033596, 36.139003199799994 ], [ -115.3033758, 36.139003199799994 ], [ -115.3033758, 36.139000499799998 ], [ -115.3033812, 36.139000499799998 ], [ -115.3033812, 36.138997799799995 ], [ -115.3033839, 36.138997799799995 ], [ -115.3033839, 36.138992399799996 ], [ -115.30338660000001, 36.138992399799996 ], [ -115.30338660000001, 36.138986999799997 ], [ -115.3033893, 36.138986999799997 ], [ -115.3033893, 36.138984299799993 ], [ -115.303392, 36.138984299799993 ], [ -115.303392, 36.138981599799997 ], [ -115.3034163, 36.138981599799997 ], [ -115.3034163, 36.138984299799993 ], [ -115.3034487, 36.138984299799993 ], [ -115.3034487, 36.138986999799997 ], [ -115.3034649, 36.138986999799997 ], [ -115.3034649, 36.1389896998 ], [ -115.3034676, 36.1389896998 ], [ -115.3034676, 36.138992399799996 ], [ -115.3034703, 36.138992399799996 ], [ -115.3034703, 36.138997799799995 ], [ -115.303473, 36.138997799799995 ], [ -115.303473, 36.139005899799997 ], [ -115.3034757, 36.139005899799997 ], [ -115.3034757, 36.1390085998 ], [ -115.3034946, 36.1390085998 ], [ -115.3034946, 36.139005899799997 ], [ -115.3034973, 36.139005899799997 ], [ -115.3034973, 36.1390085998 ], [ -115.3035459, 36.1390085998 ], [ -115.3035459, 36.139011299799996 ], [ -115.3035513, 36.139011299799996 ], [ -115.3035513, 36.1390139998 ], [ -115.303554, 36.1390139998 ], [ -115.303554, 36.139019399799999 ], [ -115.3035567, 36.139019399799999 ], [ -115.3035567, 36.139024799799998 ], [ -115.303554, 36.139024799799998 ], [ -115.303554, 36.139084199799996 ], [ -115.3035513, 36.139084199799996 ], [ -115.3035513, 36.1391003998 ], [ -115.3035486, 36.1391003998 ], [ -115.3035486, 36.139113899799995 ], [ -115.3035459, 36.139113899799995 ], [ -115.3035459, 36.139130099799999 ], [ -115.3035432, 36.139130099799999 ], [ -115.3035432, 36.1391489998 ], [ -115.303540500000011, 36.1391489998 ], [ -115.303540500000011, 36.1391921998 ], [ -115.3035378, 36.1391921998 ], [ -115.3035378, 36.139197599799999 ], [ -115.3035351, 36.139197599799999 ], [ -115.3035351, 36.139200299799995 ] ] ] } },
{ "type": "Feature", "properties": { "value": 255.0 }, "geometry": { "type": "Polygon", "coordinates": [ [ [ -115.3032543, 36.139181399799995 ], [ -115.3032327, 36.139181399799995 ], [ -115.3032327, 36.139178699799999 ], [ -115.30318410000001, 36.139178699799999 ], [ -115.30318410000001, 36.139175999799996 ], [ -115.303154400000011, 36.139175999799996 ], [ -115.303154400000011, 36.139173299799999 ], [ -115.30313550000001, 36.139173299799999 ], [ -115.30313550000001, 36.139170599799996 ], [ -115.3031328, 36.139170599799996 ], [ -115.3031328, 36.139154399799999 ], [ -115.30313550000001, 36.139154399799999 ], [ -115.30313550000001, 36.139143599800001 ], [ -115.3031328, 36.139143599800001 ], [ -115.3031328, 36.139140899799997 ], [ -115.3031301, 36.139140899799997 ], [ -115.3031301, 36.139138199799994 ], [ -115.3030761, 36.139138199799994 ], [ -115.3030761, 36.139140899799997 ], [ -115.3030653, 36.139140899799997 ], [ -115.3030653, 36.139138199799994 ], [ -115.3030599, 36.139138199799994 ], [ -115.3030599, 36.139135499799998 ], [ -115.3030572, 36.139135499799998 ], [ -115.3030572, 36.139059899799996 ], [ -115.3030599, 36.139059899799996 ], [ -115.3030599, 36.139043699799998 ], [ -115.3030626, 36.139043699799998 ], [ -115.3030626, 36.139035599799996 ], [ -115.3030653, 36.139035599799996 ], [ -115.3030653, 36.1389896998 ], [ -115.303068, 36.1389896998 ], [ -115.303068, 36.138981599799997 ], [ -115.3030707, 36.138981599799997 ], [ -115.3030707, 36.138976199799998 ], [ -115.3030734, 36.138976199799998 ], [ -115.3030734, 36.138968099799996 ], [ -115.3030761, 36.138968099799996 ], [ -115.3030761, 36.1389653998 ], [ -115.3030788, 36.1389653998 ], [ -115.3030788, 36.138962699799997 ], [ -115.3031247, 36.138962699799997 ], [ -115.3031247, 36.1389653998 ], [ -115.3031895, 36.1389653998 ], [ -115.3031895, 36.138962699799997 ], [ -115.3031976, 36.138962699799997 ], [ -115.3031976, 36.138959999799994 ], [ -115.3032084, 36.138959999799994 ], [ -115.3032084, 36.138962699799997 ], [ -115.3032111, 36.138962699799997 ], [ -115.3032111, 36.138984299799993 ], [ -115.3032138, 36.138984299799993 ], [ -115.3032138, 36.138986999799997 ], [ -115.3032273, 36.138986999799997 ], [ -115.3032273, 36.1389896998 ], [ -115.3032624, 36.1389896998 ], [ -115.3032624, 36.138992399799996 ], [ -115.303270500000011, 36.138992399799996 ], [ -115.303270500000011, 36.138995099799999 ], [ -115.3032759, 36.138995099799999 ], [ -115.3032759, 36.139049099799998 ], [ -115.3032732, 36.139049099799998 ], [ -115.3032732, 36.1390760998 ], [ -115.303270500000011, 36.1390760998 ], [ -115.303270500000011, 36.139089599799995 ], [ -115.3032678, 36.139089599799995 ], [ -115.3032678, 36.139103099799996 ], [ -115.3032651, 36.139103099799996 ], [ -115.3032651, 36.139119299799994 ], [ -115.3032624, 36.139119299799994 ], [ -115.3032624, 36.139132799799995 ], [ -115.3032597, 36.139132799799995 ], [ -115.3032597, 36.139170599799996 ], [ -115.303257, 36.139170599799996 ], [ -115.303257, 36.139178699799999 ], [ -115.3032543, 36.139178699799999 ], [ -115.3032543, 36.139181399799995 ] ] ] } },
{ "type": "Feature", "properties": { "value": 255.0 }, "geometry": { "type": "Polygon", "coordinates": [ [ [ -115.30259550000001, 36.138943799799996 ], [ -115.3025226, 36.138943799799996 ], [ -115.3025226, 36.1389410998 ], [ -115.3025172, 36.1389410998 ], [ -115.3025172, 36.138938399799997 ], [ -115.3025145, 36.138938399799997 ], [ -115.3025145, 36.138935699799994 ], [ -115.3025118, 36.138935699799994 ], [ -115.3025118, 36.138892499799994 ], [ -115.3025091, 36.138892499799994 ], [ -115.3025091, 36.138881699799995 ], [ -115.3025064, 36.138881699799995 ], [ -115.3025064, 36.1388546998 ], [ -115.3025091, 36.1388546998 ], [ -115.3025091, 36.138851999799996 ], [ -115.3025172, 36.138851999799996 ], [ -115.3025172, 36.138849299799993 ], [ -115.302528, 36.138849299799993 ], [ -115.302528, 36.138846599799997 ], [ -115.3025307, 36.138846599799997 ], [ -115.3025307, 36.138841199799998 ], [ -115.3025226, 36.138841199799998 ], [ -115.3025226, 36.138838499799995 ], [ -115.3025145, 36.138838499799995 ], [ -115.3025145, 36.138835799799999 ], [ -115.3025118, 36.138835799799999 ], [ -115.3025118, 36.1388303998 ], [ -115.3025145, 36.1388303998 ], [ -115.3025145, 36.138827699799997 ], [ -115.3027332, 36.138827699799997 ], [ -115.3027332, 36.138905999799995 ], [ -115.30273050000001, 36.138905999799995 ], [ -115.30273050000001, 36.138914099799997 ], [ -115.3027278, 36.138914099799997 ], [ -115.3027278, 36.138916799799993 ], [ -115.3026765, 36.138916799799993 ], [ -115.3026765, 36.138919499799997 ], [ -115.3026549, 36.138919499799997 ], [ -115.3026549, 36.138916799799993 ], [ -115.3026441, 36.138916799799993 ], [ -115.3026441, 36.138919499799997 ], [ -115.3026117, 36.138919499799997 ], [ -115.3026117, 36.1389221998 ], [ -115.302609, 36.1389221998 ], [ -115.302609, 36.138924899799996 ], [ -115.3026063, 36.138924899799996 ], [ -115.3026063, 36.138932999799998 ], [ -115.3026036, 36.138932999799998 ], [ -115.3026036, 36.138938399799997 ], [ -115.3026009, 36.138938399799997 ], [ -115.3026009, 36.1389410998 ], [ -115.30259550000001, 36.1389410998 ], [ -115.30259550000001, 36.138943799799996 ] ] ] } },
{ "type": "Feature", "properties": { "value": 255.0 }, "geometry": { "type": "Polygon", "coordinates": [ [ [ -115.3040076, 36.138876299799996 ], [ -115.3039914, 36.138876299799996 ], [ -115.3039914, 36.1388735998 ], [ -115.3039833, 36.1388735998 ], [ -115.3039833, 36.138870899799997 ], [ -115.3039806, 36.138870899799997 ], [ -115.3039806, 36.138868199799994 ], [ -115.3039779, 36.138868199799994 ], [ -115.3039779, 36.138865499799998 ], [ -115.303975200000011, 36.138865499799998 ], [ -115.303975200000011, 36.138862799799995 ], [ -115.3039725, 36.138862799799995 ], [ -115.3039725, 36.138860099799999 ], [ -115.3039698, 36.138860099799999 ], [ -115.3039698, 36.138857399799996 ], [ -115.3039509, 36.138857399799996 ], [ -115.3039509, 36.1388546998 ], [ -115.3038996, 36.1388546998 ], [ -115.3038996, 36.138851999799996 ], [ -115.3038726, 36.138851999799996 ], [ -115.3038726, 36.138849299799993 ], [ -115.3038672, 36.138849299799993 ], [ -115.3038672, 36.138843899799994 ], [ -115.3038645, 36.138843899799994 ], [ -115.3038645, 36.138838499799995 ], [ -115.3038618, 36.138838499799995 ], [ -115.3038618, 36.138827699799997 ], [ -115.3040076, 36.138827699799997 ], [ -115.3040076, 36.138876299799996 ] ] ] } },
{ "type": "Feature", "properties": { "value": 255.0 }, "geometry": { "type": "Polygon", "coordinates": [ [ [ -115.3037025, 36.138868199799994 ], [ -115.303635, 36.138868199799994 ], [ -115.303635, 36.138865499799998 ], [ -115.3036323, 36.138865499799998 ], [ -115.3036323, 36.138862799799995 ], [ -115.3036296, 36.138862799799995 ], [ -115.3036296, 36.138860099799999 ], [ -115.303626900000012, 36.138860099799999 ], [ -115.303626900000012, 36.138851999799996 ], [ -115.3036242, 36.138851999799996 ], [ -115.3036242, 36.138849299799993 ], [ -115.3036215, 36.138849299799993 ], [ -115.3036215, 36.138846599799997 ], [ -115.3036134, 36.138846599799997 ], [ -115.3036134, 36.138843899799994 ], [ -115.3036026, 36.138843899799994 ], [ -115.3036026, 36.138838499799995 ], [ -115.3035999, 36.138838499799995 ], [ -115.3035999, 36.138827699799997 ], [ -115.3037997, 36.138827699799997 ], [ -115.3037997, 36.138833099799996 ], [ -115.303797, 36.138833099799996 ], [ -115.303797, 36.138849299799993 ], [ -115.3037943, 36.138849299799993 ], [ -115.3037943, 36.138851999799996 ], [ -115.303791600000011, 36.138851999799996 ], [ -115.303791600000011, 36.1388546998 ], [ -115.3037403, 36.1388546998 ], [ -115.3037403, 36.138851999799996 ], [ -115.3037079, 36.138851999799996 ], [ -115.3037079, 36.1388546998 ], [ -115.30370520000001, 36.1388546998 ], [ -115.30370520000001, 36.138865499799998 ], [ -115.3037025, 36.138865499799998 ], [ -115.3037025, 36.138868199799994 ] ] ] } }
]
}
