{
"type": "FeatureCollection",
"crs": { "type": "name", "properties": { "name": "urn:ogc:def:crs:OGC:1.3:CRS84" } },
"features": [
{ "type": "Feature", "properties": { "value": 255.0 }, "geometry": { "type": "Polygon", "coordinates": [ [ [ -115.186428, 36.217097999899998 ], [ -115.1864226, 36.217097999899998 ], [ -115.1864226, 36.216844199900002 ], [ -115.186428, 36.216844199900002 ], [ -115.186428, 36.216841499899999 ], [ -115.1864334, 36.216841499899999 ], [ -115.1864334, 36.216838799900003 ], [ -115.1866008, 36.216838799900003 ], [ -115.1866008, 36.2168360999 ], [ -115.1866332, 36.2168360999 ], [ -115.1866332, 36.216838799900003 ], [ -115.1866521, 36.216838799900003 ], [ -115.1866521, 36.216841499899999 ], [ -115.1866548, 36.216841499899999 ], [ -115.1866548, 36.216844199900002 ], [ -115.1866575, 36.216844199900002 ], [ -115.1866575, 36.216863099900003 ], [ -115.1866548, 36.216863099900003 ], [ -115.1866548, 36.216873899900001 ], [ -115.1866521, 36.216873899900001 ], [ -115.1866521, 36.216925199900004 ], [ -115.1866494, 36.216925199900004 ], [ -115.1866494, 36.216930599900003 ], [ -115.1866467, 36.216930599900003 ], [ -115.1866467, 36.216935999900002 ], [ -115.186644, 36.216935999900002 ], [ -115.186644, 36.216941399900001 ], [ -115.1866413, 36.216941399900001 ], [ -115.1866413, 36.217033199900001 ], [ -115.186644, 36.217033199900001 ], [ -115.186644, 36.217052099900002 ], [ -115.1866413, 36.217052099900002 ], [ -115.1866413, 36.217060199899997 ], [ -115.1866386, 36.217060199899997 ], [ -115.1866386, 36.2170628999 ], [ -115.1866332, 36.2170628999 ], [ -115.1866332, 36.217065599900003 ], [ -115.1866251, 36.217065599900003 ], [ -115.1866251, 36.217068299899999 ], [ -115.1866143, 36.217068299899999 ], [ -115.1866143, 36.217070999900002 ], [ -115.1866008, 36.217070999900002 ], [ -115.1866008, 36.217068299899999 ], [ -115.18659, 36.217068299899999 ], [ -115.18659, 36.217065599900003 ], [ -115.1865657, 36.217065599900003 ], [ -115.1865657, 36.217068299899999 ], [ -115.1865603, 36.217068299899999 ], [ -115.1865603, 36.217070999900002 ], [ -115.1865576, 36.217070999900002 ], [ -115.1865576, 36.217076399900002 ], [ -115.1865549, 36.217076399900002 ], [ -115.1865549, 36.217081799900001 ], [ -115.1865522, 36.217081799900001 ], [ -115.1865522, 36.2170871999 ], [ -115.1865468, 36.2170871999 ], [ -115.1865468, 36.217089899900003 ], [ -115.1865414, 36.217089899900003 ], [ -115.1865414, 36.217092599899999 ], [ -115.1865225, 36.217092599899999 ], [ -115.1865225, 36.217095299900002 ], [ -115.186428, 36.217095299900002 ], [ -115.186428, 36.217097999899998 ] ] ] } },
{ "type": "Feature", "properties": { "value": 255.0 }, "geometry": { "type": "Polygon", "coordinates": [ [ [ -115.1864361, 36.216630899900004 ], [ -115.1864226, 36.216630899900004 ], [ -115.1864226, 36.216582299900004 ], [ -115.1864253, 36.216582299900004 ], [ -115.1864253, 36.216593099900003 ], [ -115.1864361, 36.216593099900003 ], [ -115.1864361, 36.216601199899998 ], [ -115.1864388, 36.216601199899998 ], [ -115.1864388, 36.216628199900001 ], [ -115.1864361, 36.216628199900001 ], [ -115.1864361, 36.216630899900004 ] ] ] } },
{ "type": "Feature", "properties": { "value": 255.0 }, "geometry": { "type": "Polygon", "coordinates": [ [ [ -115.1871597, 36.217116899899999 ], [ -115.1869842, 36.217116899899999 ], [ -115.1869842, 36.217114199900003 ], [ -115.1869761, 36.217114199900003 ], [ -115.1869761, 36.217108799899997 ], [ -115.1869734, 36.217108799899997 ], [ -115.1869734, 36.217100699900001 ], [ -115.1869707, 36.217100699900001 ], [ -115.1869707, 36.217097999899998 ], [ -115.186968, 36.217097999899998 ], [ -115.186968, 36.217095299900002 ], [ -115.1869626, 36.217095299900002 ], [ -115.1869626, 36.217092599899999 ], [ -115.1869572, 36.217092599899999 ], [ -115.1869572, 36.217089899900003 ], [ -115.1868546, 36.217089899900003 ], [ -115.1868546, 36.2170871999 ], [ -115.1868519, 36.2170871999 ], [ -115.1868519, 36.217084499899997 ], [ -115.1868492, 36.217084499899997 ], [ -115.1868492, 36.217079099899998 ], [ -115.1868465, 36.217079099899998 ], [ -115.1868465, 36.217076399900002 ], [ -115.1868438, 36.217076399900002 ], [ -115.1868438, 36.217073699899998 ], [ -115.1868411, 36.217073699899998 ], [ -115.1868411, 36.217070999900002 ], [ -115.1868384, 36.217070999900002 ], [ -115.1868384, 36.217068299899999 ], [ -115.186833, 36.217068299899999 ], [ -115.186833, 36.217065599900003 ], [ -115.1868249, 36.217065599900003 ], [ -115.1868249, 36.2170628999 ], [ -115.186806, 36.2170628999 ], [ -115.186806, 36.217065599900003 ], [ -115.1867979, 36.217065599900003 ], [ -115.1867979, 36.217068299899999 ], [ -115.1867952, 36.217068299899999 ], [ -115.1867952, 36.217065599900003 ], [ -115.1867871, 36.217065599900003 ], [ -115.1867871, 36.217068299899999 ], [ -115.1867844, 36.217068299899999 ], [ -115.1867844, 36.217065599900003 ], [ -115.1867601, 36.217065599900003 ], [ -115.1867601, 36.2170628999 ], [ -115.1867574, 36.2170628999 ], [ -115.1867574, 36.217057499900001 ], [ -115.1867547, 36.217057499900001 ], [ -115.1867547, 36.217052099900002 ], [ -115.186752, 36.217052099900002 ], [ -115.186752, 36.217041299900004 ], [ -115.1867493, 36.217041299900004 ], [ -115.1867493, 36.217033199900001 ], [ -115.1867466, 36.217033199900001 ], [ -115.1867466, 36.217025099899999 ], [ -115.1867439, 36.217025099899999 ], [ -115.1867439, 36.216968399899997 ], [ -115.1867412, 36.216968399899997 ], [ -115.1867412, 36.216962999899998 ], [ -115.1867385, 36.216962999899998 ], [ -115.1867385, 36.216957599899999 ], [ -115.1867358, 36.216957599899999 ], [ -115.1867358, 36.216954899900003 ], [ -115.1867331, 36.216954899900003 ], [ -115.1867331, 36.216944099899997 ], [ -115.1867304, 36.216944099899997 ], [ -115.1867304, 36.216841499899999 ], [ -115.1867331, 36.216841499899999 ], [ -115.1867331, 36.216838799900003 ], [ -115.1867412, 36.216838799900003 ], [ -115.1867412, 36.2168360999 ], [ -115.1867763, 36.2168360999 ], [ -115.1867763, 36.216833399900004 ], [ -115.186806, 36.216833399900004 ], [ -115.186806, 36.2168360999 ], [ -115.186887, 36.2168360999 ], [ -115.186887, 36.216833399900004 ], [ -115.1869491, 36.216833399900004 ], [ -115.1869491, 36.2168360999 ], [ -115.1869545, 36.2168360999 ], [ -115.1869545, 36.216838799900003 ], [ -115.1869572, 36.216838799900003 ], [ -115.1869572, 36.216844199900002 ], [ -115.1869599, 36.216844199900002 ], [ -115.1869599, 36.216863099900003 ], [ -115.1869626, 36.216863099900003 ], [ -115.1869626, 36.216873899900001 ], [ -115.1869653, 36.216873899900001 ], [ -115.1869653, 36.216876599899997 ], [ -115.186968, 36.216876599899997 ], [ -115.186968, 36.2168792999 ], [ -115.1869707, 36.2168792999 ], [ -115.1869707, 36.216881999900004 ], [ -115.1870058, 36.216881999900004 ], [ -115.1870058, 36.2168792999 ], [ -115.1870598, 36.2168792999 ], [ -115.1870598, 36.216876599899997 ], [ -115.1870625, 36.216876599899997 ], [ -115.1870625, 36.216871199899998 ], [ -115.1870652, 36.216871199899998 ], [ -115.1870652, 36.216852299899998 ], [ -115.1870625, 36.216852299899998 ], [ -115.1870625, 36.216822599899999 ], [ -115.1870598, 36.216822599899999 ], [ -115.1870598, 36.216803699899998 ], [ -115.1870571, 36.216803699899998 ], [ -115.1870571, 36.2167253999 ], [ -115.1870544, 36.2167253999 ], [ -115.1870544, 36.216422999900004 ], [ -115.1870571, 36.216422999900004 ], [ -115.1870571, 36.216420299900001 ], [ -115.1870598, 36.216420299900001 ], [ -115.1870598, 36.216417599900005 ], [ -115.1870625, 36.216417599900005 ], [ -115.1870625, 36.216414899900002 ], [ -115.1870652, 36.216414899900002 ], [ -115.1870652, 36.216412199899999 ], [ -115.1870706, 36.216412199899999 ], [ -115.1870706, 36.216409499900003 ], [ -115.187076, 36.216409499900003 ], [ -115.187076, 36.2164067999 ], [ -115.1870787, 36.2164067999 ], [ -115.1870787, 36.216404099900004 ], [ -115.1870841, 36.216404099900004 ], [ -115.1870841, 36.216401399900001 ], [ -115.1870868, 36.216401399900001 ], [ -115.1870868, 36.216398699900004 ], [ -115.1870922, 36.216398699900004 ], [ -115.1870922, 36.216395999900001 ], [ -115.1870976, 36.216395999900001 ], [ -115.1870976, 36.216393299899998 ], [ -115.1871111, 36.216393299899998 ], [ -115.1871111, 36.216390599900002 ], [ -115.1871408, 36.216390599900002 ], [ -115.1871408, 36.216387899899999 ], [ -115.1872569, 36.216387899899999 ], [ -115.1872569, 36.216385199900003 ], [ -115.1873622, 36.216385199900003 ], [ -115.1873622, 36.216387899899999 ], [ -115.1873757, 36.216387899899999 ], [ -115.1873757, 36.216390599900002 ], [ -115.1873811, 36.216390599900002 ], [ -115.1873811, 36.216393299899998 ], [ -115.1873838, 36.216393299899998 ], [ -115.1873838, 36.2164067999 ], [ -115.1873811, 36.2164067999 ], [ -115.1873811, 36.216420299900001 ], [ -115.1873865, 36.216420299900001 ], [ -115.1873865, 36.216422999900004 ], [ -115.1873892, 36.216422999900004 ], [ -115.1873892, 36.216536399900001 ], [ -115.1873865, 36.216536399900001 ], [ -115.1873865, 36.2165606999 ], [ -115.1873838, 36.2165606999 ], [ -115.1873838, 36.216647099900001 ], [ -115.1873865, 36.216647099900001 ], [ -115.1873865, 36.216671399900001 ], [ -115.1873892, 36.216671399900001 ], [ -115.1873892, 36.216765899900004 ], [ -115.1873865, 36.216765899900004 ], [ -115.1873865, 36.216771299900003 ], [ -115.1873838, 36.216771299900003 ], [ -115.1873838, 36.216779399899998 ], [ -115.1873811, 36.216779399899998 ], [ -115.1873811, 36.216784799899997 ], [ -115.1873784, 36.216784799899997 ], [ -115.1873784, 36.216798299899999 ], [ -115.1873757, 36.216798299899999 ], [ -115.1873757, 36.216863099900003 ], [ -115.1873784, 36.216863099900003 ], [ -115.1873784, 36.216868499900002 ], [ -115.1873757, 36.216868499900002 ], [ -115.1873757, 36.216881999900004 ], [ -115.187373, 36.216881999900004 ], [ -115.187373, 36.2169035999 ], [ -115.1873703, 36.2169035999 ], [ -115.1873703, 36.216919799899998 ], [ -115.1873676, 36.216919799899998 ], [ -115.1873676, 36.216925199900004 ], [ -115.1873649, 36.216925199900004 ], [ -115.1873649, 36.216930599900003 ], [ -115.1873622, 36.216930599900003 ], [ -115.1873622, 36.216935999900002 ], [ -115.1873595, 36.216935999900002 ], [ -115.1873595, 36.216944099899997 ], [ -115.1873568, 36.216944099899997 ], [ -115.1873568, 36.2169521999 ], [ -115.1873595, 36.2169521999 ], [ -115.1873595, 36.216987299899998 ], [ -115.1873622, 36.216987299899998 ], [ -115.1873622, 36.217008899900001 ], [ -115.1873595, 36.217008899900001 ], [ -115.1873595, 36.217027799900002 ], [ -115.1873568, 36.217027799900002 ], [ -115.1873568, 36.217033199900001 ], [ -115.1873541, 36.217033199900001 ], [ -115.1873541, 36.217035899899997 ], [ -115.1873487, 36.217035899899997 ], [ -115.1873487, 36.2170385999 ], [ -115.1873433, 36.2170385999 ], [ -115.1873433, 36.217041299900004 ], [ -115.1873379, 36.217041299900004 ], [ -115.1873379, 36.2170439999 ], [ -115.1873352, 36.2170439999 ], [ -115.1873352, 36.217046699900003 ], [ -115.1873325, 36.217046699900003 ], [ -115.1873325, 36.217052099900002 ], [ -115.1873298, 36.217052099900002 ], [ -115.1873298, 36.217060199899997 ], [ -115.1873271, 36.217060199899997 ], [ -115.1873271, 36.217073699899998 ], [ -115.1873244, 36.217073699899998 ], [ -115.1873244, 36.217079099899998 ], [ -115.1873217, 36.217079099899998 ], [ -115.1873217, 36.217081799900001 ], [ -115.1872974, 36.217081799900001 ], [ -115.1872974, 36.217084499899997 ], [ -115.1872596, 36.217084499899997 ], [ -115.1872596, 36.2170871999 ], [ -115.1872434, 36.2170871999 ], [ -115.1872434, 36.217089899900003 ], [ -115.187238, 36.217089899900003 ], [ -115.187238, 36.217092599899999 ], [ -115.1872353, 36.217092599899999 ], [ -115.1872353, 36.217095299900002 ], [ -115.1872326, 36.217095299900002 ], [ -115.1872326, 36.217097999899998 ], [ -115.1872299, 36.217097999899998 ], [ -115.1872299, 36.217103399899997 ], [ -115.1872272, 36.217103399899997 ], [ -115.1872272, 36.217106099900001 ], [ -115.1872218, 36.217106099900001 ], [ -115.1872218, 36.217108799899997 ], [ -115.1872164, 36.217108799899997 ], [ -115.1872164, 36.2171114999 ], [ -115.1872029, 36.2171114999 ], [ -115.1872029, 36.217114199900003 ], [ -115.1871597, 36.217114199900003 ], [ -115.1871597, 36.217116899899999 ] ] ] } },
{ "type": "Feature", "properties": { "value": 255.0 }, "geometry": { "type": "Polygon", "coordinates": [ [ [ -115.1877375, 36.216371699900002 ], [ -115.1877294, 36.216371699900002 ], [ -115.1877294, 36.216368999899998 ], [ -115.1877267, 36.216368999899998 ], [ -115.1877267, 36.216366299900002 ], [ -115.187724, 36.216366299900002 ], [ -115.187724, 36.216325799900005 ], [ -115.1877267, 36.216325799900005 ], [ -115.1877267, 36.216323099900002 ], [ -115.1877429, 36.216323099900002 ], [ -115.1877429, 36.216320399899999 ], [ -115.1877753, 36.216320399899999 ], [ -115.1877753, 36.216323099900002 ], [ -115.187778, 36.216323099900002 ], [ -115.187778, 36.216325799900005 ], [ -115.1877807, 36.216325799900005 ], [ -115.1877807, 36.216344699899999 ], [ -115.1877834, 36.216344699899999 ], [ -115.1877834, 36.216352799900001 ], [ -115.1877807, 36.216352799900001 ], [ -115.1877807, 36.216363599899999 ], [ -115.187778, 36.216363599899999 ], [ -115.187778, 36.216366299900002 ], [ -115.1877726, 36.216366299900002 ], [ -115.1877726, 36.216368999899998 ], [ -115.1877375, 36.216368999899998 ], [ -115.1877375, 36.216371699900002 ] ] ] } },
{ "type": "Feature", "properties": { "value": 255.0 }, "geometry": { "type": "Polygon", "coordinates": [ [ [ -115.1879346, 36.216687599899998 ], [ -115.1878482, 36.216687599899998 ], [ -115.1878482, 36.216684899900002 ], [ -115.1878455, 36.216684899900002 ], [ -115.1878455, 36.216682199899999 ], [ -115.1878428, 36.216682199899999 ], [ -115.1878428, 36.216679499900003 ], [ -115.1878347, 36.216679499900003 ], [ -115.1878347, 36.2166767999 ], [ -115.187832, 36.2166767999 ], [ -115.187832, 36.216674099900004 ], [ -115.1878293, 36.216674099900004 ], [ -115.1878293, 36.216671399900001 ], [ -115.1878266, 36.216671399900001 ], [ -115.1878266, 36.216663299899999 ], [ -115.1878239, 36.216663299899999 ], [ -115.1878239, 36.216641699900002 ], [ -115.1878212, 36.216641699900002 ], [ -115.1878212, 36.2165849999 ], [ -115.1878185, 36.2165849999 ], [ -115.1878185, 36.216544499900003 ], [ -115.1878158, 36.216544499900003 ], [ -115.1878158, 36.216468899900001 ], [ -115.1878131, 36.216468899900001 ], [ -115.1878131, 36.2164256999 ], [ -115.1878104, 36.2164256999 ], [ -115.1878104, 36.216422999900004 ], [ -115.1878131, 36.216422999900004 ], [ -115.1878131, 36.216395999900001 ], [ -115.1878104, 36.216395999900001 ], [ -115.1878104, 36.2162906999 ], [ -115.1878131, 36.2162906999 ], [ -115.1878131, 36.216274499900003 ], [ -115.1878158, 36.216274499900003 ], [ -115.1878158, 36.216271799899999 ], [ -115.1878185, 36.216271799899999 ], [ -115.1878185, 36.216269099900003 ], [ -115.1878212, 36.216269099900003 ], [ -115.1878212, 36.2162663999 ], [ -115.1878239, 36.2162663999 ], [ -115.1878239, 36.216263699900004 ], [ -115.187832, 36.216263699900004 ], [ -115.187832, 36.216260999900001 ], [ -115.1879265, 36.216260999900001 ], [ -115.1879265, 36.216258299900005 ], [ -115.1879832, 36.216258299900005 ], [ -115.1879832, 36.216255599900002 ], [ -115.1881236, 36.216255599900002 ], [ -115.1881236, 36.216258299900005 ], [ -115.1881371, 36.216258299900005 ], [ -115.1881371, 36.216260999900001 ], [ -115.1881425, 36.216260999900001 ], [ -115.1881425, 36.2162663999 ], [ -115.1881452, 36.2162663999 ], [ -115.1881452, 36.216274499900003 ], [ -115.1881425, 36.216274499900003 ], [ -115.1881425, 36.216282599900005 ], [ -115.1881398, 36.216282599900005 ], [ -115.1881398, 36.216301499899998 ], [ -115.1881425, 36.216301499899998 ], [ -115.1881425, 36.2163149999 ], [ -115.1881398, 36.2163149999 ], [ -115.1881398, 36.216344699899999 ], [ -115.1881371, 36.216344699899999 ], [ -115.1881371, 36.216390599900002 ], [ -115.1881398, 36.216390599900002 ], [ -115.1881398, 36.216433799900003 ], [ -115.1881425, 36.216433799900003 ], [ -115.1881425, 36.216441899900005 ], [ -115.1881398, 36.216441899900005 ], [ -115.1881398, 36.216458099900002 ], [ -115.1881425, 36.216458099900002 ], [ -115.1881425, 36.216460799899998 ], [ -115.1881479, 36.216460799899998 ], [ -115.1881479, 36.216463499900001 ], [ -115.1881506, 36.216463499900001 ], [ -115.1881506, 36.216466199900005 ], [ -115.1881533, 36.216466199900005 ], [ -115.1881533, 36.216479699899999 ], [ -115.188156, 36.216479699899999 ], [ -115.188156, 36.216482399900002 ], [ -115.1881533, 36.216482399900002 ], [ -115.1881533, 36.2164931999 ], [ -115.1881506, 36.2164931999 ], [ -115.1881506, 36.2164985999 ], [ -115.1881479, 36.2164985999 ], [ -115.1881479, 36.216503999899999 ], [ -115.1881452, 36.216503999899999 ], [ -115.1881452, 36.2166092999 ], [ -115.1881479, 36.2166092999 ], [ -115.1881479, 36.216638999899999 ], [ -115.1881452, 36.216638999899999 ], [ -115.1881452, 36.216671399900001 ], [ -115.1881425, 36.216671399900001 ], [ -115.1881425, 36.216674099900004 ], [ -115.1881371, 36.216674099900004 ], [ -115.1881371, 36.2166767999 ], [ -115.1881182, 36.2166767999 ], [ -115.1881182, 36.216679499900003 ], [ -115.1880507, 36.216679499900003 ], [ -115.1880507, 36.216682199899999 ], [ -115.1879913, 36.216682199899999 ], [ -115.1879913, 36.216684899900002 ], [ -115.1879346, 36.216684899900002 ], [ -115.1879346, 36.216687599899998 ] ] ] } }
]
}
