{
"type": "FeatureCollection",
"crs": { "type": "name", "properties": { "name": "urn:ogc:def:crs:OGC:1.3:CRS84" } },
"features": [
{ "type": "Feature", "properties": { "value": 255.0 }, "geometry": { "type": "Polygon", "coordinates": [ [ [ -115.2767133, 36.151069499800002 ], [ -115.2766998, 36.151069499800002 ], [ -115.2766998, 36.151066799799999 ], [ -115.2766485, 36.151066799799999 ], [ -115.2766485, 36.151069499800002 ], [ -115.2766377, 36.151069499800002 ], [ -115.2766377, 36.151066799799999 ], [ -115.2766296, 36.151066799799999 ], [ -115.2766296, 36.1510613998 ], [ -115.276626900000011, 36.1510613998 ], [ -115.276626900000011, 36.151018199799999 ], [ -115.2766296, 36.151018199799999 ], [ -115.2766296, 36.150915599800001 ], [ -115.2766323, 36.150915599800001 ], [ -115.2766323, 36.150904799800003 ], [ -115.276635, 36.150904799800003 ], [ -115.276635, 36.1509020998 ], [ -115.2767025, 36.1509020998 ], [ -115.2767025, 36.150904799800003 ], [ -115.276716, 36.150904799800003 ], [ -115.276716, 36.150910199800002 ], [ -115.2767187, 36.150910199800002 ], [ -115.2767187, 36.150961499800005 ], [ -115.276716, 36.150961499800005 ], [ -115.276716, 36.151066799799999 ], [ -115.2767133, 36.151066799799999 ], [ -115.2767133, 36.151069499800002 ] ] ] } },
{ "type": "Feature", "properties": { "value": 255.0 }, "geometry": { "type": "Polygon", "coordinates": [ [ [ -115.2770211, 36.151072199800005 ], [ -115.276945500000011, 36.151072199800005 ], [ -115.276945500000011, 36.151069499800002 ], [ -115.2768645, 36.151069499800002 ], [ -115.2768645, 36.151066799799999 ], [ -115.2768429, 36.151066799799999 ], [ -115.2768429, 36.151069499800002 ], [ -115.276810500000011, 36.151069499800002 ], [ -115.276810500000011, 36.151066799799999 ], [ -115.2768078, 36.151066799799999 ], [ -115.2768078, 36.1510613998 ], [ -115.2768051, 36.1510613998 ], [ -115.2768051, 36.150996599800003 ], [ -115.2768078, 36.150996599800003 ], [ -115.2768078, 36.150958799800001 ], [ -115.276810500000011, 36.150958799800001 ], [ -115.276810500000011, 36.150883199799999 ], [ -115.2768132, 36.150883199799999 ], [ -115.2768132, 36.150880499800003 ], [ -115.276964400000011, 36.150880499800003 ], [ -115.276964400000011, 36.150883199799999 ], [ -115.27699410000001, 36.150883199799999 ], [ -115.27699410000001, 36.150880499800003 ], [ -115.277013, 36.150880499800003 ], [ -115.277013, 36.150883199799999 ], [ -115.2770265, 36.150883199799999 ], [ -115.2770265, 36.150888599800005 ], [ -115.2770292, 36.150888599800005 ], [ -115.2770292, 36.1509020998 ], [ -115.2770265, 36.1509020998 ], [ -115.2770265, 36.150918299800004 ], [ -115.2770238, 36.150918299800004 ], [ -115.2770238, 36.151015499800003 ], [ -115.2770265, 36.151015499800003 ], [ -115.2770265, 36.151066799799999 ], [ -115.2770238, 36.151066799799999 ], [ -115.2770238, 36.151069499800002 ], [ -115.2770211, 36.151069499800002 ], [ -115.2770211, 36.151072199800005 ] ] ] } },
{ "type": "Feature", "properties": { "value": 255.0 }, "geometry": { "type": "Polygon", "coordinates": [ [ [ -115.2776826, 36.150961499800005 ], [ -115.27763130000001, 36.150961499800005 ], [ -115.27763130000001, 36.150958799800001 ], [ -115.277571900000012, 36.150958799800001 ], [ -115.277571900000012, 36.150961499800005 ], [ -115.2775557, 36.150961499800005 ], [ -115.2775557, 36.150958799800001 ], [ -115.2775476, 36.150958799800001 ], [ -115.2775476, 36.150956099800005 ], [ -115.2775449, 36.150956099800005 ], [ -115.2775449, 36.150950699799999 ], [ -115.2775422, 36.150950699799999 ], [ -115.2775422, 36.150942599800004 ], [ -115.2775395, 36.150942599800004 ], [ -115.2775395, 36.150937199800005 ], [ -115.2775368, 36.150937199800005 ], [ -115.2775368, 36.150934499800002 ], [ -115.277534100000011, 36.150934499800002 ], [ -115.277534100000011, 36.150931799799999 ], [ -115.2775314, 36.150931799799999 ], [ -115.2775314, 36.150929099800003 ], [ -115.2775233, 36.150929099800003 ], [ -115.2775233, 36.150926399799999 ], [ -115.2775179, 36.150926399799999 ], [ -115.2775179, 36.150923699800003 ], [ -115.277515200000011, 36.150923699800003 ], [ -115.277515200000011, 36.1509209998 ], [ -115.2775125, 36.1509209998 ], [ -115.2775125, 36.1509020998 ], [ -115.277515200000011, 36.1509020998 ], [ -115.277515200000011, 36.150875099800004 ], [ -115.2775179, 36.150875099800004 ], [ -115.2775179, 36.150869699800005 ], [ -115.2775206, 36.150869699800005 ], [ -115.2775206, 36.150866999800002 ], [ -115.277526, 36.150866999800002 ], [ -115.277526, 36.150864299799998 ], [ -115.277534100000011, 36.150864299799998 ], [ -115.277534100000011, 36.150861599800002 ], [ -115.2775503, 36.150861599800002 ], [ -115.2775503, 36.150858899799999 ], [ -115.2775854, 36.150858899799999 ], [ -115.2775854, 36.150856199800003 ], [ -115.2776448, 36.150856199800003 ], [ -115.2776448, 36.150858899799999 ], [ -115.2776826, 36.150858899799999 ], [ -115.2776826, 36.150961499800005 ] ] ] } },
{ "type": "Feature", "properties": { "value": 255.0 }, "geometry": { "type": "Polygon", "coordinates": [ [ [ -115.277639400000012, 36.150837299800003 ], [ -115.2775746, 36.150837299800003 ], [ -115.2775746, 36.1508345998 ], [ -115.2775557, 36.1508345998 ], [ -115.2775557, 36.150837299800003 ], [ -115.2775449, 36.150837299800003 ], [ -115.2775449, 36.1508345998 ], [ -115.2775395, 36.1508345998 ], [ -115.2775395, 36.150831899800004 ], [ -115.2775368, 36.150831899800004 ], [ -115.2775368, 36.150740099800004 ], [ -115.2775395, 36.150740099800004 ], [ -115.2775395, 36.150731999800001 ], [ -115.2775503, 36.150731999800001 ], [ -115.2775503, 36.150734699800005 ], [ -115.277553, 36.150734699800005 ], [ -115.277553, 36.150737399800001 ], [ -115.2775665, 36.150737399800001 ], [ -115.2775665, 36.150731999800001 ], [ -115.2775692, 36.150731999800001 ], [ -115.2775692, 36.150729299799998 ], [ -115.2775989, 36.150729299799998 ], [ -115.2775989, 36.150726599800002 ], [ -115.2776232, 36.150726599800002 ], [ -115.2776232, 36.150723899799999 ], [ -115.2776475, 36.150723899799999 ], [ -115.2776475, 36.150721199800003 ], [ -115.2776583, 36.150721199800003 ], [ -115.2776583, 36.150723899799999 ], [ -115.2776826, 36.150723899799999 ], [ -115.2776826, 36.1508345998 ], [ -115.277639400000012, 36.1508345998 ], [ -115.277639400000012, 36.150837299800003 ] ] ] } },
{ "type": "Feature", "properties": { "value": 255.0 }, "geometry": { "type": "Polygon", "coordinates": [ [ [ -115.27704270000001, 36.150740099800004 ], [ -115.2769833, 36.150740099800004 ], [ -115.2769833, 36.150737399800001 ], [ -115.2769806, 36.150737399800001 ], [ -115.2769806, 36.150729299799998 ], [ -115.2769779, 36.150729299799998 ], [ -115.2769779, 36.150680699799999 ], [ -115.2770022, 36.150680699799999 ], [ -115.2770022, 36.150677999800003 ], [ -115.2770157, 36.150677999800003 ], [ -115.2770157, 36.150680699799999 ], [ -115.2770562, 36.150680699799999 ], [ -115.2770562, 36.150683399800002 ], [ -115.2770589, 36.150683399800002 ], [ -115.2770589, 36.150688799800001 ], [ -115.27706160000001, 36.150688799800001 ], [ -115.27706160000001, 36.150734699800005 ], [ -115.2770562, 36.150734699800005 ], [ -115.2770562, 36.150737399800001 ], [ -115.27704270000001, 36.150737399800001 ], [ -115.27704270000001, 36.150740099800004 ] ] ] } },
{ "type": "Feature", "properties": { "value": 255.0 }, "geometry": { "type": "Polygon", "coordinates": [ [ [ -115.2769401, 36.150804899800001 ], [ -115.2768645, 36.150804899800001 ], [ -115.2768645, 36.150802199800005 ], [ -115.2768618, 36.150802199800005 ], [ -115.2768618, 36.150799499800002 ], [ -115.27685910000001, 36.150799499800002 ], [ -115.27685910000001, 36.1507859998 ], [ -115.2768618, 36.1507859998 ], [ -115.2768618, 36.150740099800004 ], [ -115.2768645, 36.150740099800004 ], [ -115.2768645, 36.150696899800003 ], [ -115.2768618, 36.150696899800003 ], [ -115.2768618, 36.150686099800005 ], [ -115.2768645, 36.150686099800005 ], [ -115.2768645, 36.150680699799999 ], [ -115.2768672, 36.150680699799999 ], [ -115.2768672, 36.150677999800003 ], [ -115.2769374, 36.150677999800003 ], [ -115.2769374, 36.150680699799999 ], [ -115.2769401, 36.150680699799999 ], [ -115.2769401, 36.150683399800002 ], [ -115.2769428, 36.150683399800002 ], [ -115.2769428, 36.150731999800001 ], [ -115.2769401, 36.150731999800001 ], [ -115.2769401, 36.150740099800004 ], [ -115.2769428, 36.150740099800004 ], [ -115.2769428, 36.1507859998 ], [ -115.2769401, 36.1507859998 ], [ -115.2769401, 36.150804899800001 ] ] ] } },
{ "type": "Feature", "properties": { "value": 255.0 }, "geometry": { "type": "Polygon", "coordinates": [ [ [ -115.2776043, 36.150704999799999 ], [ -115.2775422, 36.150704999799999 ], [ -115.2775422, 36.150702299800002 ], [ -115.2775206, 36.150702299800002 ], [ -115.2775206, 36.150699599799999 ], [ -115.2775179, 36.150699599799999 ], [ -115.2775179, 36.150691499800004 ], [ -115.277515200000011, 36.150691499800004 ], [ -115.277515200000011, 36.150686099800005 ], [ -115.2775125, 36.150686099800005 ], [ -115.2775125, 36.150683399800002 ], [ -115.2774882, 36.150683399800002 ], [ -115.2774882, 36.150680699799999 ], [ -115.2774828, 36.150680699799999 ], [ -115.2774828, 36.150615899800002 ], [ -115.277485500000012, 36.150615899800002 ], [ -115.277485500000012, 36.150613199799999 ], [ -115.2775179, 36.150613199799999 ], [ -115.2775179, 36.150610499800003 ], [ -115.2775206, 36.150610499800003 ], [ -115.2775206, 36.150588899799999 ], [ -115.2775233, 36.150588899799999 ], [ -115.2775233, 36.150586199800003 ], [ -115.277634, 36.150586199800003 ], [ -115.277634, 36.150588899799999 ], [ -115.2776448, 36.150588899799999 ], [ -115.2776448, 36.150586199800003 ], [ -115.2776826, 36.150586199800003 ], [ -115.2776826, 36.150702299800002 ], [ -115.2776043, 36.150702299800002 ], [ -115.2776043, 36.150704999799999 ] ] ] } },
{ "type": "Feature", "properties": { "value": 255.0 }, "geometry": { "type": "Polygon", "coordinates": [ [ [ -115.2776826, 36.150561899800003 ], [ -115.2775395, 36.150561899800003 ], [ -115.2775395, 36.150556499800004 ], [ -115.2775368, 36.150556499800004 ], [ -115.2775368, 36.150494399800003 ], [ -115.2775395, 36.150494399800003 ], [ -115.2775395, 36.150456599800002 ], [ -115.2775422, 36.150456599800002 ], [ -115.2775422, 36.150453899799999 ], [ -115.2775476, 36.150453899799999 ], [ -115.2775476, 36.150451199800003 ], [ -115.2776421, 36.150451199800003 ], [ -115.2776421, 36.150453899799999 ], [ -115.2776826, 36.150453899799999 ], [ -115.2776826, 36.150561899800003 ] ] ] } },
{ "type": "Feature", "properties": { "value": 255.0 }, "geometry": { "type": "Polygon", "coordinates": [ [ [ -115.2776826, 36.150426899800003 ], [ -115.2775017, 36.150426899800003 ], [ -115.2775017, 36.1504241998 ], [ -115.277499, 36.1504241998 ], [ -115.277499, 36.150413399800001 ], [ -115.27749630000001, 36.150413399800001 ], [ -115.27749630000001, 36.150407999800002 ], [ -115.2774936, 36.150407999800002 ], [ -115.2774936, 36.150405299799999 ], [ -115.2774612, 36.150405299799999 ], [ -115.2774612, 36.150402599800003 ], [ -115.2774585, 36.150402599800003 ], [ -115.2774585, 36.150397199800004 ], [ -115.2774558, 36.150397199800004 ], [ -115.2774558, 36.150389099800002 ], [ -115.2774585, 36.150389099800002 ], [ -115.2774585, 36.150343199799998 ], [ -115.2774639, 36.150343199799998 ], [ -115.2774639, 36.150340499800002 ], [ -115.2774801, 36.150340499800002 ], [ -115.2774801, 36.150343199799998 ], [ -115.2774936, 36.150343199799998 ], [ -115.2774936, 36.150316199800002 ], [ -115.27749630000001, 36.150316199800002 ], [ -115.27749630000001, 36.150313499799999 ], [ -115.277499, 36.150313499799999 ], [ -115.277499, 36.150310799800003 ], [ -115.2776637, 36.150310799800003 ], [ -115.2776637, 36.150313499799999 ], [ -115.2776826, 36.150313499799999 ], [ -115.2776826, 36.150426899800003 ] ] ] } },
{ "type": "Feature", "properties": { "value": 255.0 }, "geometry": { "type": "Polygon", "coordinates": [ [ [ -115.2776745, 36.150291899800003 ], [ -115.277661, 36.150291899800003 ], [ -115.277661, 36.1502891998 ], [ -115.2776556, 36.1502891998 ], [ -115.2776556, 36.150291899800003 ], [ -115.2775233, 36.150291899800003 ], [ -115.2775233, 36.1502891998 ], [ -115.2775017, 36.1502891998 ], [ -115.2775017, 36.150291899800003 ], [ -115.277499, 36.150291899800003 ], [ -115.277499, 36.1502891998 ], [ -115.2774882, 36.1502891998 ], [ -115.2774882, 36.150286499800004 ], [ -115.277485500000012, 36.150286499800004 ], [ -115.277485500000012, 36.150267599800003 ], [ -115.2774828, 36.150267599800003 ], [ -115.2774828, 36.1502648998 ], [ -115.2774801, 36.1502648998 ], [ -115.2774801, 36.150262199800004 ], [ -115.277445, 36.150262199800004 ], [ -115.277445, 36.150232499799998 ], [ -115.27744770000001, 36.150232499799998 ], [ -115.27744770000001, 36.1502162998 ], [ -115.2774504, 36.1502162998 ], [ -115.2774504, 36.150202799799999 ], [ -115.2774531, 36.150202799799999 ], [ -115.2774531, 36.1501973998 ], [ -115.2774558, 36.1501973998 ], [ -115.2774558, 36.150194699800004 ], [ -115.2774585, 36.150194699800004 ], [ -115.2774585, 36.150191999800001 ], [ -115.277466600000011, 36.150191999800001 ], [ -115.277466600000011, 36.150189299799997 ], [ -115.277472, 36.150189299799997 ], [ -115.277472, 36.150186599800001 ], [ -115.2774747, 36.150186599800001 ], [ -115.2774747, 36.150183899799998 ], [ -115.2774774, 36.150183899799998 ], [ -115.2774774, 36.150181199800002 ], [ -115.2774828, 36.150181199800002 ], [ -115.2774828, 36.150178499799999 ], [ -115.277485500000012, 36.150178499799999 ], [ -115.277485500000012, 36.150175799800003 ], [ -115.277526, 36.150175799800003 ], [ -115.277526, 36.150178499799999 ], [ -115.2775395, 36.150178499799999 ], [ -115.2775395, 36.150175799800003 ], [ -115.277669100000011, 36.150175799800003 ], [ -115.277669100000011, 36.150178499799999 ], [ -115.2776745, 36.150178499799999 ], [ -115.2776745, 36.150181199800002 ], [ -115.2776826, 36.150181199800002 ], [ -115.2776826, 36.1502891998 ], [ -115.2776745, 36.1502891998 ], [ -115.2776745, 36.150291899800003 ] ] ] } },
{ "type": "Feature", "properties": { "value": 255.0 }, "geometry": { "type": "Polygon", "coordinates": [ [ [ -115.2776745, 36.150154199799999 ], [ -115.2775071, 36.150154199799999 ], [ -115.2775071, 36.150151499800003 ], [ -115.2774693, 36.150151499800003 ], [ -115.2774693, 36.1501487998 ], [ -115.2774639, 36.1501487998 ], [ -115.2774639, 36.150146099800004 ], [ -115.2774612, 36.150146099800004 ], [ -115.2774612, 36.150073199799998 ], [ -115.2774639, 36.150073199799998 ], [ -115.2774639, 36.150067799799999 ], [ -115.2774882, 36.150067799799999 ], [ -115.2774882, 36.150070499800002 ], [ -115.2774936, 36.150070499800002 ], [ -115.2774936, 36.150067799799999 ], [ -115.27749630000001, 36.150067799799999 ], [ -115.27749630000001, 36.150043499799999 ], [ -115.277499, 36.150043499799999 ], [ -115.277499, 36.150040799800003 ], [ -115.2775071, 36.150040799800003 ], [ -115.2775071, 36.1500380998 ], [ -115.2776178, 36.1500380998 ], [ -115.2776178, 36.150040799800003 ], [ -115.2776826, 36.150040799800003 ], [ -115.2776826, 36.1501244998 ], [ -115.2776772, 36.1501244998 ], [ -115.2776772, 36.150143399800001 ], [ -115.2776745, 36.150143399800001 ], [ -115.2776745, 36.150154199799999 ] ] ] } },
{ "type": "Feature", "properties": { "value": 255.0 }, "geometry": { "type": "Polygon", "coordinates": [ [ [ -115.27672410000001, 36.150799499800002 ], [ -115.2766971, 36.150799499800002 ], [ -115.2766971, 36.150796799799998 ], [ -115.2766215, 36.150796799799998 ], [ -115.2766215, 36.150794099800002 ], [ -115.2764622, 36.150794099800002 ], [ -115.2764622, 36.150791399799999 ], [ -115.2763947, 36.150791399799999 ], [ -115.2763947, 36.150788699800003 ], [ -115.2763731, 36.150788699800003 ], [ -115.2763731, 36.150791399799999 ], [ -115.2763299, 36.150791399799999 ], [ -115.2763299, 36.1507859998 ], [ -115.2763272, 36.1507859998 ], [ -115.2763272, 36.150777899800005 ], [ -115.2763245, 36.150777899800005 ], [ -115.2763245, 36.150767099799999 ], [ -115.2763218, 36.150767099799999 ], [ -115.2763218, 36.150756299800001 ], [ -115.2763191, 36.150756299800001 ], [ -115.2763191, 36.150740099800004 ], [ -115.2763137, 36.150740099800004 ], [ -115.2763137, 36.150696899800003 ], [ -115.2763164, 36.150696899800003 ], [ -115.2763164, 36.150683399800002 ], [ -115.2763191, 36.150683399800002 ], [ -115.2763191, 36.150661799799998 ], [ -115.2763218, 36.150661799799998 ], [ -115.2763218, 36.150629399800003 ], [ -115.2763245, 36.150629399800003 ], [ -115.2763245, 36.150613199799999 ], [ -115.2763218, 36.150613199799999 ], [ -115.2763218, 36.1505159998 ], [ -115.2763245, 36.1505159998 ], [ -115.2763245, 36.1504673998 ], [ -115.2763272, 36.1504673998 ], [ -115.2763272, 36.1504430998 ], [ -115.2763245, 36.1504430998 ], [ -115.2763245, 36.150434999799998 ], [ -115.2763218, 36.150434999799998 ], [ -115.2763218, 36.150432299800002 ], [ -115.2763191, 36.150432299800002 ], [ -115.2763191, 36.150429599799999 ], [ -115.2763164, 36.150429599799999 ], [ -115.2763164, 36.150426899800003 ], [ -115.276311, 36.150426899800003 ], [ -115.276311, 36.1504241998 ], [ -115.2763002, 36.1504241998 ], [ -115.2763002, 36.150416099800005 ], [ -115.276176, 36.150416099800005 ], [ -115.276176, 36.150418799800001 ], [ -115.2761679, 36.150418799800001 ], [ -115.2761679, 36.150421499800004 ], [ -115.2761652, 36.150421499800004 ], [ -115.2761652, 36.150426899800003 ], [ -115.2761625, 36.150426899800003 ], [ -115.2761625, 36.150432299800002 ], [ -115.2761652, 36.150432299800002 ], [ -115.2761652, 36.150437699800001 ], [ -115.2761679, 36.150437699800001 ], [ -115.2761679, 36.150445799800003 ], [ -115.2761706, 36.150445799800003 ], [ -115.2761706, 36.150461999800001 ], [ -115.2761733, 36.150461999800001 ], [ -115.2761733, 36.150472799799999 ], [ -115.2761706, 36.150472799799999 ], [ -115.2761706, 36.1504916998 ], [ -115.2761733, 36.1504916998 ], [ -115.2761733, 36.150542999800003 ], [ -115.2761706, 36.150542999800003 ], [ -115.2761706, 36.150545699799999 ], [ -115.276149, 36.150545699799999 ], [ -115.276149, 36.150542999800003 ], [ -115.2761409, 36.150542999800003 ], [ -115.2761409, 36.150545699799999 ], [ -115.2761247, 36.150545699799999 ], [ -115.2761247, 36.150548399800002 ], [ -115.276068, 36.150548399800002 ], [ -115.276068, 36.150542999800003 ], [ -115.2760653, 36.150542999800003 ], [ -115.2760653, 36.150521399799999 ], [ -115.2760626, 36.150521399799999 ], [ -115.2760626, 36.1505159998 ], [ -115.2760599, 36.1505159998 ], [ -115.2760599, 36.1505105998 ], [ -115.2760572, 36.1505105998 ], [ -115.2760572, 36.1504430998 ], [ -115.2760599, 36.1504430998 ], [ -115.2760599, 36.150440399800004 ], [ -115.2760653, 36.150440399800004 ], [ -115.2760653, 36.150437699800001 ], [ -115.276068, 36.150437699800001 ], [ -115.276068, 36.150434999799998 ], [ -115.2760734, 36.150434999799998 ], [ -115.2760734, 36.150432299800002 ], [ -115.2760788, 36.150432299800002 ], [ -115.2760788, 36.150429599799999 ], [ -115.2760815, 36.150429599799999 ], [ -115.2760815, 36.150426899800003 ], [ -115.27608690000001, 36.150426899800003 ], [ -115.27608690000001, 36.1504241998 ], [ -115.2760896, 36.1504241998 ], [ -115.2760896, 36.150421499800004 ], [ -115.2760923, 36.150421499800004 ], [ -115.2760923, 36.150416099800005 ], [ -115.27608690000001, 36.150416099800005 ], [ -115.27608690000001, 36.150413399800001 ], [ -115.275987, 36.150413399800001 ], [ -115.275987, 36.150410699799998 ], [ -115.2759843, 36.150410699799998 ], [ -115.2759843, 36.150402599800003 ], [ -115.2759816, 36.150402599800003 ], [ -115.2759816, 36.150389099800002 ], [ -115.2759789, 36.150389099800002 ], [ -115.2759789, 36.150362099799999 ], [ -115.2759816, 36.150362099799999 ], [ -115.2759816, 36.1503323998 ], [ -115.2759789, 36.1503323998 ], [ -115.2759789, 36.150146099800004 ], [ -115.2759816, 36.150146099800004 ], [ -115.2759816, 36.150100199800001 ], [ -115.2759843, 36.150100199800001 ], [ -115.2759843, 36.150062399799999 ], [ -115.275987, 36.150062399799999 ], [ -115.275987, 36.150051599800001 ], [ -115.2759897, 36.150051599800001 ], [ -115.2759897, 36.150046199800002 ], [ -115.2759951, 36.150046199800002 ], [ -115.2759951, 36.150043499799999 ], [ -115.2760113, 36.150043499799999 ], [ -115.2760113, 36.150040799800003 ], [ -115.2760437, 36.150040799800003 ], [ -115.2760437, 36.1500380998 ], [ -115.2760626, 36.1500380998 ], [ -115.2760626, 36.150035399800004 ], [ -115.2760896, 36.150035399800004 ], [ -115.2760896, 36.150032699800001 ], [ -115.2761706, 36.150032699800001 ], [ -115.2761706, 36.150035399800004 ], [ -115.2762408, 36.150035399800004 ], [ -115.2762408, 36.1500380998 ], [ -115.2763002, 36.1500380998 ], [ -115.2763002, 36.150043499799999 ], [ -115.2764217, 36.150043499799999 ], [ -115.2764217, 36.150046199800002 ], [ -115.2764487, 36.150046199800002 ], [ -115.2764487, 36.150043499799999 ], [ -115.2764676, 36.150043499799999 ], [ -115.2764676, 36.150040799800003 ], [ -115.2764784, 36.150040799800003 ], [ -115.2764784, 36.1500380998 ], [ -115.2765, 36.1500380998 ], [ -115.2765, 36.150040799800003 ], [ -115.2765054, 36.150040799800003 ], [ -115.2765054, 36.150043499799999 ], [ -115.2765108, 36.150043499799999 ], [ -115.2765108, 36.150046199800002 ], [ -115.2765216, 36.150046199800002 ], [ -115.2765216, 36.150048899799998 ], [ -115.2765486, 36.150048899799998 ], [ -115.2765486, 36.150051599800001 ], [ -115.2765918, 36.150051599800001 ], [ -115.2765918, 36.150054299799997 ], [ -115.2766053, 36.150054299799997 ], [ -115.2766053, 36.1500569998 ], [ -115.2766161, 36.1500569998 ], [ -115.2766161, 36.150062399799999 ], [ -115.2766188, 36.150062399799999 ], [ -115.2766188, 36.150067799799999 ], [ -115.2766161, 36.150067799799999 ], [ -115.2766161, 36.150089399800002 ], [ -115.2766134, 36.150089399800002 ], [ -115.2766134, 36.150151499800003 ], [ -115.2766107, 36.150151499800003 ], [ -115.2766107, 36.1501730998 ], [ -115.2766134, 36.1501730998 ], [ -115.2766134, 36.1501973998 ], [ -115.2766161, 36.1501973998 ], [ -115.2766161, 36.150205499800002 ], [ -115.2766188, 36.150205499800002 ], [ -115.2766188, 36.150210899800001 ], [ -115.2766215, 36.150210899800001 ], [ -115.2766215, 36.150213599800004 ], [ -115.2766242, 36.150213599800004 ], [ -115.2766242, 36.1502162998 ], [ -115.2766296, 36.1502162998 ], [ -115.2766296, 36.150218999800003 ], [ -115.2766485, 36.150218999800003 ], [ -115.2766485, 36.1502162998 ], [ -115.276694400000011, 36.1502162998 ], [ -115.276694400000011, 36.150218999800003 ], [ -115.2767214, 36.150218999800003 ], [ -115.2767214, 36.150221699799999 ], [ -115.2767268, 36.150221699799999 ], [ -115.2767268, 36.150232499799998 ], [ -115.2767295, 36.150232499799998 ], [ -115.2767295, 36.150245999799999 ], [ -115.2767322, 36.150245999799999 ], [ -115.2767322, 36.150248699800002 ], [ -115.2767376, 36.150248699800002 ], [ -115.2767376, 36.150251399799998 ], [ -115.2767727, 36.150251399799998 ], [ -115.2767727, 36.150248699800002 ], [ -115.2767997, 36.150248699800002 ], [ -115.2767997, 36.150251399799998 ], [ -115.2768159, 36.150251399799998 ], [ -115.2768159, 36.150254099800001 ], [ -115.2768375, 36.150254099800001 ], [ -115.2768375, 36.150256799799998 ], [ -115.2768645, 36.150256799799998 ], [ -115.2768645, 36.150259499800001 ], [ -115.2768861, 36.150259499800001 ], [ -115.2768861, 36.150262199800004 ], [ -115.276932, 36.150262199800004 ], [ -115.276932, 36.1502648998 ], [ -115.2769482, 36.1502648998 ], [ -115.2769482, 36.150267599800003 ], [ -115.2769509, 36.150267599800003 ], [ -115.2769509, 36.1502837998 ], [ -115.2769536, 36.1502837998 ], [ -115.2769536, 36.150318899799998 ], [ -115.2769563, 36.150318899799998 ], [ -115.2769563, 36.150321599800002 ], [ -115.276959, 36.150321599800002 ], [ -115.276959, 36.150324299799998 ], [ -115.2769617, 36.150324299799998 ], [ -115.2769617, 36.150326999800001 ], [ -115.276964400000011, 36.150326999800001 ], [ -115.276964400000011, 36.150329699800004 ], [ -115.2769671, 36.150329699800004 ], [ -115.2769671, 36.150335099800003 ], [ -115.276964400000011, 36.150335099800003 ], [ -115.276964400000011, 36.150337799799999 ], [ -115.276959, 36.150337799799999 ], [ -115.276959, 36.150340499800002 ], [ -115.2769536, 36.150340499800002 ], [ -115.2769536, 36.150345899800001 ], [ -115.2769509, 36.150345899800001 ], [ -115.2769509, 36.150351299800001 ], [ -115.2769482, 36.150351299800001 ], [ -115.2769482, 36.150364799800002 ], [ -115.276945500000011, 36.150364799800002 ], [ -115.276945500000011, 36.150416099800005 ], [ -115.2769428, 36.150416099800005 ], [ -115.2769428, 36.150561899800003 ], [ -115.2769401, 36.150561899800003 ], [ -115.2769401, 36.150586199800003 ], [ -115.2769374, 36.150586199800003 ], [ -115.2769374, 36.150596999800001 ], [ -115.2769347, 36.150596999800001 ], [ -115.2769347, 36.1506023998 ], [ -115.2769293, 36.1506023998 ], [ -115.2769293, 36.150605099800003 ], [ -115.2768348, 36.150605099800003 ], [ -115.2768348, 36.1506023998 ], [ -115.276824, 36.1506023998 ], [ -115.276824, 36.150605099800003 ], [ -115.27677, 36.150605099800003 ], [ -115.27677, 36.150607799799999 ], [ -115.2767484, 36.150607799799999 ], [ -115.2767484, 36.150610499800003 ], [ -115.2767376, 36.150610499800003 ], [ -115.2767376, 36.150613199799999 ], [ -115.2767322, 36.150613199799999 ], [ -115.2767322, 36.150615899800002 ], [ -115.2767295, 36.150615899800002 ], [ -115.2767295, 36.150618599800005 ], [ -115.2767268, 36.150618599800005 ], [ -115.2767268, 36.1506266998 ], [ -115.2767295, 36.1506266998 ], [ -115.2767295, 36.150632099799999 ], [ -115.2767322, 36.150632099799999 ], [ -115.2767322, 36.150645599800001 ], [ -115.2767295, 36.150645599800001 ], [ -115.2767295, 36.150653699800003 ], [ -115.2767268, 36.150653699800003 ], [ -115.2767268, 36.1506698998 ], [ -115.2767295, 36.1506698998 ], [ -115.2767295, 36.150721199800003 ], [ -115.2767322, 36.150721199800003 ], [ -115.2767322, 36.1507859998 ], [ -115.2767295, 36.1507859998 ], [ -115.2767295, 36.150794099800002 ], [ -115.2767268, 36.150794099800002 ], [ -115.2767268, 36.150796799799998 ], [ -115.27672410000001, 36.150796799799998 ], [ -115.27672410000001, 36.150799499800002 ] ] ] } },
{ "type": "Feature", "properties": { "value": 255.0 }, "geometry": { "type": "Polygon", "coordinates": [ [ [ -115.277669100000011, 36.150019199799999 ], [ -115.277650200000011, 36.150019199799999 ], [ -115.277650200000011, 36.150016499800003 ], [ -115.2775125, 36.150016499800003 ], [ -115.2775125, 36.150019199799999 ], [ -115.2775071, 36.150019199799999 ], [ -115.2775071, 36.150016499800003 ], [ -115.2774801, 36.150016499800003 ], [ -115.2774801, 36.150019199799999 ], [ -115.2774639, 36.150019199799999 ], [ -115.2774639, 36.150016499800003 ], [ -115.2774558, 36.150016499800003 ], [ -115.2774558, 36.1500137998 ], [ -115.2774531, 36.1500137998 ], [ -115.2774531, 36.150008399800001 ], [ -115.2774504, 36.150008399800001 ], [ -115.2774504, 36.150005699799998 ], [ -115.27744770000001, 36.150005699799998 ], [ -115.27744770000001, 36.150002999800002 ], [ -115.2774234, 36.150002999800002 ], [ -115.2774234, 36.150000299799999 ], [ -115.2774207, 36.150000299799999 ], [ -115.2774207, 36.149997599800002 ], [ -115.277418, 36.149997599800002 ], [ -115.277418, 36.149978699800002 ], [ -115.2774207, 36.149978699800002 ], [ -115.2774207, 36.149938199799998 ], [ -115.277418, 36.149938199799998 ], [ -115.277418, 36.149927399799999 ], [ -115.2774207, 36.149927399799999 ], [ -115.2774207, 36.149924699800003 ], [ -115.2774261, 36.149924699800003 ], [ -115.2774261, 36.1499219998 ], [ -115.2774342, 36.1499219998 ], [ -115.2774342, 36.149919299799997 ], [ -115.277445, 36.149919299799997 ], [ -115.277445, 36.149916599800001 ], [ -115.27744770000001, 36.149916599800001 ], [ -115.27744770000001, 36.149913899799998 ], [ -115.2774504, 36.149913899799998 ], [ -115.2774504, 36.149911199800002 ], [ -115.2774531, 36.149911199800002 ], [ -115.2774531, 36.149908499799999 ], [ -115.2774693, 36.149908499799999 ], [ -115.2774693, 36.149911199800002 ], [ -115.2774774, 36.149911199800002 ], [ -115.2774774, 36.149908499799999 ], [ -115.2774909, 36.149908499799999 ], [ -115.2774909, 36.149905799800003 ], [ -115.2775125, 36.149905799800003 ], [ -115.2775125, 36.149903099799999 ], [ -115.2776259, 36.149903099799999 ], [ -115.2776259, 36.149905799800003 ], [ -115.2776286, 36.149905799800003 ], [ -115.2776286, 36.149908499799999 ], [ -115.27763130000001, 36.149908499799999 ], [ -115.27763130000001, 36.149938199799998 ], [ -115.277634, 36.149938199799998 ], [ -115.277634, 36.1499651998 ], [ -115.2776367, 36.1499651998 ], [ -115.2776367, 36.1499705998 ], [ -115.2776421, 36.1499705998 ], [ -115.2776421, 36.149973299800003 ], [ -115.2776664, 36.149973299800003 ], [ -115.2776664, 36.149975999799999 ], [ -115.2776718, 36.149975999799999 ], [ -115.2776718, 36.149981399799998 ], [ -115.2776745, 36.149981399799998 ], [ -115.2776745, 36.150016499800003 ], [ -115.277669100000011, 36.150016499800003 ], [ -115.277669100000011, 36.150019199799999 ] ] ] } },
{ "type": "Feature", "properties": { "value": 255.0 }, "geometry": { "type": "Polygon", "coordinates": [ [ [ -115.2761382, 36.1498976998 ], [ -115.2760599, 36.1498976998 ], [ -115.2760599, 36.149894999799997 ], [ -115.2760248, 36.149894999799997 ], [ -115.2760248, 36.149892299800001 ], [ -115.2760167, 36.149892299800001 ], [ -115.2760167, 36.149889599799998 ], [ -115.276014, 36.149889599799998 ], [ -115.276014, 36.149886899800002 ], [ -115.2760113, 36.149886899800002 ], [ -115.2760113, 36.149884199799999 ], [ -115.2760086, 36.149884199799999 ], [ -115.2760086, 36.149881499800003 ], [ -115.2760059, 36.149881499800003 ], [ -115.2760059, 36.149849099800001 ], [ -115.2760086, 36.149849099800001 ], [ -115.2760086, 36.149824799800001 ], [ -115.2760113, 36.149824799800001 ], [ -115.2760113, 36.149800499800001 ], [ -115.276014, 36.149800499800001 ], [ -115.276014, 36.149795099800002 ], [ -115.27601940000001, 36.149795099800002 ], [ -115.27601940000001, 36.149792399799999 ], [ -115.2760275, 36.149792399799999 ], [ -115.2760275, 36.149795099800002 ], [ -115.2760437, 36.149795099800002 ], [ -115.2760437, 36.149797799799998 ], [ -115.2761166, 36.149797799799998 ], [ -115.2761166, 36.149800499800001 ], [ -115.2761328, 36.149800499800001 ], [ -115.2761328, 36.149803199799997 ], [ -115.2761382, 36.149803199799997 ], [ -115.2761382, 36.1498112998 ], [ -115.2761409, 36.1498112998 ], [ -115.2761409, 36.1498301998 ], [ -115.2761436, 36.1498301998 ], [ -115.2761436, 36.149892299800001 ], [ -115.2761409, 36.149892299800001 ], [ -115.2761409, 36.149894999799997 ], [ -115.2761382, 36.149894999799997 ], [ -115.2761382, 36.1498976998 ] ] ] } },
{ "type": "Feature", "properties": { "value": 255.0 }, "geometry": { "type": "Polygon", "coordinates": [ [ [ -115.277515200000011, 36.149881499800003 ], [ -115.2774585, 36.149881499800003 ], [ -115.2774585, 36.1498787998 ], [ -115.2774099, 36.1498787998 ], [ -115.2774099, 36.149870699799997 ], [ -115.2774072, 36.149870699799997 ], [ -115.2774072, 36.149773499799998 ], [ -115.2774099, 36.149773499799998 ], [ -115.2774099, 36.149768099799999 ], [ -115.2776232, 36.149768099799999 ], [ -115.2776232, 36.149770799800002 ], [ -115.2776259, 36.149770799800002 ], [ -115.2776259, 36.149773499799998 ], [ -115.2776286, 36.149773499799998 ], [ -115.2776286, 36.149819399800002 ], [ -115.2776259, 36.149819399800002 ], [ -115.2776259, 36.1498301998 ], [ -115.2775962, 36.1498301998 ], [ -115.2775962, 36.149832899800003 ], [ -115.2775935, 36.149832899800003 ], [ -115.2775935, 36.149840999799999 ], [ -115.2775962, 36.149840999799999 ], [ -115.2775962, 36.149846399799998 ], [ -115.2775989, 36.149846399799998 ], [ -115.2775989, 36.149849099800001 ], [ -115.277601600000011, 36.149849099800001 ], [ -115.277601600000011, 36.149851799799997 ], [ -115.2776043, 36.149851799799997 ], [ -115.2776043, 36.149857199800003 ], [ -115.277607, 36.149857199800003 ], [ -115.277607, 36.149870699799997 ], [ -115.2776043, 36.149870699799997 ], [ -115.2776043, 36.149873399800001 ], [ -115.2775989, 36.149873399800001 ], [ -115.2775989, 36.149876099800004 ], [ -115.2775773, 36.149876099800004 ], [ -115.2775773, 36.1498787998 ], [ -115.277515200000011, 36.1498787998 ], [ -115.277515200000011, 36.149881499800003 ] ] ] } },
{ "type": "Feature", "properties": { "value": 255.0 }, "geometry": { "type": "Polygon", "coordinates": [ [ [ -115.2776637, 36.149746499800003 ], [ -115.277485500000012, 36.149746499800003 ], [ -115.277485500000012, 36.1497437998 ], [ -115.27742880000001, 36.1497437998 ], [ -115.27742880000001, 36.149741099800003 ], [ -115.2774234, 36.149741099800003 ], [ -115.2774234, 36.1497383998 ], [ -115.2774207, 36.1497383998 ], [ -115.2774207, 36.149735699799997 ], [ -115.277418, 36.149735699799997 ], [ -115.277418, 36.149730299799998 ], [ -115.2774207, 36.149730299799998 ], [ -115.2774207, 36.149705999799998 ], [ -115.2774234, 36.149705999799998 ], [ -115.2774234, 36.149684399800002 ], [ -115.2774207, 36.149684399800002 ], [ -115.2774207, 36.149660099800002 ], [ -115.277418, 36.149660099800002 ], [ -115.277418, 36.149649299799997 ], [ -115.2774207, 36.149649299799997 ], [ -115.2774207, 36.149646599800001 ], [ -115.2774342, 36.149646599800001 ], [ -115.2774342, 36.149643899799997 ], [ -115.277515200000011, 36.149643899799997 ], [ -115.277515200000011, 36.149646599800001 ], [ -115.277526, 36.149646599800001 ], [ -115.277526, 36.149649299799997 ], [ -115.277534100000011, 36.149649299799997 ], [ -115.277534100000011, 36.149646599800001 ], [ -115.2776826, 36.149646599800001 ], [ -115.2776826, 36.149705999799998 ], [ -115.2776772, 36.149705999799998 ], [ -115.2776772, 36.149708699800001 ], [ -115.2776745, 36.149708699800001 ], [ -115.2776745, 36.149741099800003 ], [ -115.2776718, 36.149741099800003 ], [ -115.2776718, 36.1497437998 ], [ -115.2776637, 36.1497437998 ], [ -115.2776637, 36.149746499800003 ] ] ] } },
{ "type": "Feature", "properties": { "value": 255.0 }, "geometry": { "type": "Polygon", "coordinates": [ [ [ -115.2776286, 36.149624999799997 ], [ -115.277534100000011, 36.149624999799997 ], [ -115.277534100000011, 36.149622299800001 ], [ -115.27749630000001, 36.149622299800001 ], [ -115.27749630000001, 36.149619599799998 ], [ -115.2774828, 36.149619599799998 ], [ -115.2774828, 36.149622299800001 ], [ -115.2774639, 36.149622299800001 ], [ -115.2774639, 36.149619599799998 ], [ -115.2774585, 36.149619599799998 ], [ -115.2774585, 36.149614199799998 ], [ -115.2774558, 36.149614199799998 ], [ -115.2774558, 36.1496033998 ], [ -115.2774585, 36.1496033998 ], [ -115.2774585, 36.1495601998 ], [ -115.2774558, 36.1495601998 ], [ -115.2774558, 36.149549399800001 ], [ -115.2774585, 36.149549399800001 ], [ -115.2774585, 36.149546699799998 ], [ -115.277485500000012, 36.149546699799998 ], [ -115.277485500000012, 36.149543999800002 ], [ -115.2774882, 36.149543999800002 ], [ -115.2774882, 36.149538599800003 ], [ -115.2774909, 36.149538599800003 ], [ -115.2774909, 36.149476499800002 ], [ -115.2774936, 36.149476499800002 ], [ -115.2774936, 36.149473799799999 ], [ -115.277499, 36.149473799799999 ], [ -115.277499, 36.149471099800003 ], [ -115.2775233, 36.149471099800003 ], [ -115.2775233, 36.149473799799999 ], [ -115.2775584, 36.149473799799999 ], [ -115.2775584, 36.149471099800003 ], [ -115.277571900000012, 36.149471099800003 ], [ -115.277571900000012, 36.1494683998 ], [ -115.2775854, 36.1494683998 ], [ -115.2775854, 36.149465699799997 ], [ -115.277620500000012, 36.149465699799997 ], [ -115.277620500000012, 36.1494683998 ], [ -115.277639400000012, 36.1494683998 ], [ -115.277639400000012, 36.149471099800003 ], [ -115.2776448, 36.149471099800003 ], [ -115.2776448, 36.149473799799999 ], [ -115.2776475, 36.149473799799999 ], [ -115.2776475, 36.149481899800001 ], [ -115.277650200000011, 36.149481899800001 ], [ -115.277650200000011, 36.1494926998 ], [ -115.2776529, 36.1494926998 ], [ -115.2776529, 36.149500799800002 ], [ -115.2776556, 36.149500799800002 ], [ -115.2776556, 36.149503499799998 ], [ -115.2776583, 36.149503499799998 ], [ -115.2776583, 36.149508899799997 ], [ -115.277661, 36.149508899799997 ], [ -115.277661, 36.1495115998 ], [ -115.2776637, 36.1495115998 ], [ -115.2776637, 36.149519699800003 ], [ -115.2776664, 36.149519699800003 ], [ -115.2776664, 36.149527799799998 ], [ -115.277669100000011, 36.149527799799998 ], [ -115.277669100000011, 36.149546699799998 ], [ -115.2776718, 36.149546699799998 ], [ -115.2776718, 36.149549399800001 ], [ -115.2776745, 36.149549399800001 ], [ -115.2776745, 36.149552099799998 ], [ -115.2776826, 36.149552099799998 ], [ -115.2776826, 36.149622299800001 ], [ -115.2776286, 36.149622299800001 ], [ -115.2776286, 36.149624999799997 ] ] ] } },
{ "type": "Feature", "properties": { "value": 255.0 }, "geometry": { "type": "Polygon", "coordinates": [ [ [ -115.2768564, 36.149489999799997 ], [ -115.2768132, 36.149489999799997 ], [ -115.2768132, 36.149487299800001 ], [ -115.276810500000011, 36.149487299800001 ], [ -115.276810500000011, 36.149484599799997 ], [ -115.2768078, 36.149484599799997 ], [ -115.2768078, 36.149454899799998 ], [ -115.276810500000011, 36.149454899799998 ], [ -115.276810500000011, 36.149446799799996 ], [ -115.2768078, 36.149446799799996 ], [ -115.2768078, 36.1494440998 ], [ -115.2768051, 36.1494440998 ], [ -115.2768051, 36.149441399799997 ], [ -115.2767997, 36.149441399799997 ], [ -115.2767997, 36.149438699800001 ], [ -115.2767835, 36.149438699800001 ], [ -115.2767835, 36.149435999799998 ], [ -115.2767754, 36.149435999799998 ], [ -115.2767754, 36.149433299800002 ], [ -115.2767673, 36.149433299800002 ], [ -115.2767673, 36.149430599799999 ], [ -115.276761900000011, 36.149430599799999 ], [ -115.276761900000011, 36.149427899800003 ], [ -115.2767592, 36.149427899800003 ], [ -115.2767592, 36.149417099799997 ], [ -115.2767565, 36.149417099799997 ], [ -115.2767565, 36.149406299799999 ], [ -115.2767592, 36.149406299799999 ], [ -115.2767592, 36.1494008998 ], [ -115.276761900000011, 36.1494008998 ], [ -115.276761900000011, 36.149390099800002 ], [ -115.2767592, 36.149390099800002 ], [ -115.2767592, 36.149387399799998 ], [ -115.2767565, 36.149387399799998 ], [ -115.2767565, 36.149384699800002 ], [ -115.2767538, 36.149384699800002 ], [ -115.2767538, 36.149381999799999 ], [ -115.2767484, 36.149381999799999 ], [ -115.2767484, 36.149379299799996 ], [ -115.276743, 36.149379299799996 ], [ -115.276743, 36.1493765998 ], [ -115.2767403, 36.1493765998 ], [ -115.2767403, 36.149373899799997 ], [ -115.2767376, 36.149373899799997 ], [ -115.2767376, 36.149357699799999 ], [ -115.2769239, 36.149357699799999 ], [ -115.2769239, 36.149446799799996 ], [ -115.27692660000001, 36.149446799799996 ], [ -115.27692660000001, 36.149457599800002 ], [ -115.2769293, 36.149457599800002 ], [ -115.2769293, 36.149481899800001 ], [ -115.27692660000001, 36.149481899800001 ], [ -115.27692660000001, 36.149484599799997 ], [ -115.2769185, 36.149484599799997 ], [ -115.2769185, 36.149487299800001 ], [ -115.2768564, 36.149487299800001 ], [ -115.2768564, 36.149489999799997 ] ] ] } },
{ "type": "Feature", "properties": { "value": 255.0 }, "geometry": { "type": "Polygon", "coordinates": [ [ [ -115.2775179, 36.149449499799999 ], [ -115.277472, 36.149449499799999 ], [ -115.277472, 36.149446799799996 ], [ -115.277436900000012, 36.149446799799996 ], [ -115.277436900000012, 36.1494440998 ], [ -115.2773856, 36.1494440998 ], [ -115.2773856, 36.149441399799997 ], [ -115.2773829, 36.149441399799997 ], [ -115.2773829, 36.149438699800001 ], [ -115.27738020000001, 36.149438699800001 ], [ -115.27738020000001, 36.149406299799999 ], [ -115.2773829, 36.149406299799999 ], [ -115.2773829, 36.149357699799999 ], [ -115.2776259, 36.149357699799999 ], [ -115.2776259, 36.1493765998 ], [ -115.2776232, 36.1493765998 ], [ -115.2776232, 36.149379299799996 ], [ -115.2775908, 36.149379299799996 ], [ -115.2775908, 36.149381999799999 ], [ -115.2775854, 36.149381999799999 ], [ -115.2775854, 36.149414399800001 ], [ -115.277582700000011, 36.149414399800001 ], [ -115.277582700000011, 36.149417099799997 ], [ -115.27758, 36.149417099799997 ], [ -115.27758, 36.1494197998 ], [ -115.2775746, 36.1494197998 ], [ -115.2775746, 36.149422499799996 ], [ -115.2775692, 36.149422499799996 ], [ -115.2775692, 36.1494251998 ], [ -115.2775665, 36.1494251998 ], [ -115.2775665, 36.149435999799998 ], [ -115.27756380000001, 36.149435999799998 ], [ -115.27756380000001, 36.1494440998 ], [ -115.2775611, 36.1494440998 ], [ -115.2775611, 36.149446799799996 ], [ -115.2775179, 36.149446799799996 ], [ -115.2775179, 36.149449499799999 ] ] ] } }
]
}
