{
"type": "FeatureCollection",
"crs": { "type": "name", "properties": { "name": "urn:ogc:def:crs:OGC:1.3:CRS84" } },
"features": [
{ "type": "Feature", "properties": { "value": 255.0 }, "geometry": { "type": "Polygon", "coordinates": [ [ [ -115.2588339, 36.1738817998 ], [ -115.2588258, 36.1738817998 ], [ -115.2588258, 36.173879099799997 ], [ -115.2588123, 36.173879099799997 ], [ -115.2588123, 36.173873699799998 ], [ -115.2588096, 36.173873699799998 ], [ -115.2588096, 36.173860199799996 ], [ -115.2588231, 36.173860199799996 ], [ -115.2588231, 36.173857499799993 ], [ -115.2588312, 36.173857499799993 ], [ -115.2588312, 36.173854799799997 ], [ -115.2588339, 36.173854799799997 ], [ -115.2588339, 36.173857499799993 ], [ -115.2588393, 36.173857499799993 ], [ -115.2588393, 36.173876399799994 ], [ -115.2588366, 36.173876399799994 ], [ -115.2588366, 36.173879099799997 ], [ -115.2588339, 36.173879099799997 ], [ -115.2588339, 36.1738817998 ] ] ] } },
{ "type": "Feature", "properties": { "value": 255.0 }, "geometry": { "type": "Polygon", "coordinates": [ [ [ -115.2591282, 36.173849399799998 ], [ -115.2591039, 36.173849399799998 ], [ -115.2591039, 36.173846699799995 ], [ -115.2591012, 36.173846699799995 ], [ -115.2591012, 36.1738385998 ], [ -115.2590985, 36.1738385998 ], [ -115.2590985, 36.173830499799998 ], [ -115.2591012, 36.173830499799998 ], [ -115.2591012, 36.173811599799997 ], [ -115.2591039, 36.173811599799997 ], [ -115.2591039, 36.173808899799994 ], [ -115.2591228, 36.173808899799994 ], [ -115.2591228, 36.173811599799997 ], [ -115.2591282, 36.173811599799997 ], [ -115.2591282, 36.173819699799999 ], [ -115.2591309, 36.173819699799999 ], [ -115.2591309, 36.173827799799994 ], [ -115.2591336, 36.173827799799994 ], [ -115.2591336, 36.173846699799995 ], [ -115.2591282, 36.173846699799995 ], [ -115.2591282, 36.173849399799998 ] ] ] } },
{ "type": "Feature", "properties": { "value": 255.0 }, "geometry": { "type": "Polygon", "coordinates": [ [ [ -115.2585477, 36.173779199799995 ], [ -115.2585234, 36.173779199799995 ], [ -115.2585234, 36.1737467998 ], [ -115.2584964, 36.1737467998 ], [ -115.2584964, 36.173744099799997 ], [ -115.2584586, 36.173744099799997 ], [ -115.2584586, 36.1737467998 ], [ -115.2584532, 36.1737467998 ], [ -115.2584532, 36.173744099799997 ], [ -115.2584343, 36.173744099799997 ], [ -115.2584343, 36.173741399799994 ], [ -115.2584316, 36.173741399799994 ], [ -115.2584316, 36.1737224998 ], [ -115.2584343, 36.1737224998 ], [ -115.2584343, 36.1736549998 ], [ -115.258437, 36.1736549998 ], [ -115.258437, 36.173652299799997 ], [ -115.2584451, 36.173652299799997 ], [ -115.2584451, 36.173649599799994 ], [ -115.2584613, 36.173649599799994 ], [ -115.2584613, 36.173646899799998 ], [ -115.2585072, 36.173646899799998 ], [ -115.2585072, 36.173649599799994 ], [ -115.258518, 36.173649599799994 ], [ -115.258518, 36.173646899799998 ], [ -115.2585207, 36.173646899799998 ], [ -115.2585207, 36.173644199799995 ], [ -115.2585234, 36.173644199799995 ], [ -115.2585234, 36.173633399799996 ], [ -115.2585261, 36.173633399799996 ], [ -115.2585261, 36.173603699799997 ], [ -115.2585288, 36.173603699799997 ], [ -115.2585288, 36.173600999799994 ], [ -115.25853690000001, 36.173600999799994 ], [ -115.25853690000001, 36.173598299799998 ], [ -115.2585531, 36.173598299799998 ], [ -115.2585531, 36.173600999799994 ], [ -115.25860440000001, 36.173600999799994 ], [ -115.25860440000001, 36.173603699799997 ], [ -115.2586071, 36.173603699799997 ], [ -115.2586071, 36.173606399800001 ], [ -115.2586098, 36.173606399800001 ], [ -115.2586098, 36.1737710998 ], [ -115.2586071, 36.1737710998 ], [ -115.2586071, 36.173776499799999 ], [ -115.2585477, 36.173776499799999 ], [ -115.2585477, 36.173779199799995 ] ] ] } },
{ "type": "Feature", "properties": { "value": 255.0 }, "geometry": { "type": "Polygon", "coordinates": [ [ [ -115.2589581, 36.173776499799999 ], [ -115.2588933, 36.173776499799999 ], [ -115.2588933, 36.173773799799996 ], [ -115.2588906, 36.173773799799996 ], [ -115.2588906, 36.173719799799997 ], [ -115.2588933, 36.173719799799997 ], [ -115.2588933, 36.173717099799994 ], [ -115.258896, 36.173717099799994 ], [ -115.258896, 36.173714399799998 ], [ -115.2589014, 36.173714399799998 ], [ -115.2589014, 36.173711699799995 ], [ -115.2589041, 36.173711699799995 ], [ -115.2589041, 36.173708999799999 ], [ -115.2589095, 36.173708999799999 ], [ -115.2589095, 36.173706299799996 ], [ -115.2589122, 36.173706299799996 ], [ -115.2589122, 36.173700899799996 ], [ -115.2589068, 36.173700899799996 ], [ -115.2589068, 36.1736981998 ], [ -115.2588987, 36.1736981998 ], [ -115.2588987, 36.173695499799997 ], [ -115.258896, 36.173695499799997 ], [ -115.258896, 36.1736117998 ], [ -115.2588987, 36.1736117998 ], [ -115.2588987, 36.173609099799997 ], [ -115.2589068, 36.173609099799997 ], [ -115.2589068, 36.173606399800001 ], [ -115.2589203, 36.173606399800001 ], [ -115.2589203, 36.173609099799997 ], [ -115.2589743, 36.173609099799997 ], [ -115.2589743, 36.1736117998 ], [ -115.2589851, 36.1736117998 ], [ -115.2589851, 36.173614499799996 ], [ -115.2590256, 36.173614499799996 ], [ -115.2590256, 36.173617199799999 ], [ -115.2590337, 36.173617199799999 ], [ -115.2590337, 36.173619899799995 ], [ -115.2590364, 36.173619899799995 ], [ -115.2590364, 36.173622599799998 ], [ -115.25903910000001, 36.173622599799998 ], [ -115.25903910000001, 36.173627999799997 ], [ -115.2590418, 36.173627999799997 ], [ -115.2590418, 36.173671199799998 ], [ -115.2590445, 36.173671199799998 ], [ -115.2590445, 36.173708999799999 ], [ -115.2590418, 36.173708999799999 ], [ -115.2590418, 36.173727899799999 ], [ -115.25903910000001, 36.173727899799999 ], [ -115.25903910000001, 36.173730599799995 ], [ -115.2590202, 36.173730599799995 ], [ -115.2590202, 36.173733299799999 ], [ -115.2590148, 36.173733299799999 ], [ -115.2590148, 36.173730599799995 ], [ -115.2589986, 36.173730599799995 ], [ -115.2589986, 36.173727899799999 ], [ -115.2589932, 36.173727899799999 ], [ -115.2589932, 36.173725199799996 ], [ -115.25897160000001, 36.173725199799996 ], [ -115.25897160000001, 36.173727899799999 ], [ -115.2589662, 36.173727899799999 ], [ -115.2589662, 36.173730599799995 ], [ -115.2589635, 36.173730599799995 ], [ -115.2589635, 36.173744099799997 ], [ -115.2589662, 36.173744099799997 ], [ -115.2589662, 36.173762999799997 ], [ -115.2589635, 36.173762999799997 ], [ -115.2589635, 36.173773799799996 ], [ -115.2589581, 36.173773799799996 ], [ -115.2589581, 36.173776499799999 ] ] ] } },
{ "type": "Feature", "properties": { "value": 255.0 }, "geometry": { "type": "Polygon", "coordinates": [ [ [ -115.2586935, 36.173795399799999 ], [ -115.2586773, 36.173795399799999 ], [ -115.2586773, 36.173792699799996 ], [ -115.2586665, 36.173792699799996 ], [ -115.2586665, 36.1737899998 ], [ -115.2586611, 36.1737899998 ], [ -115.2586611, 36.173787299799997 ], [ -115.2586584, 36.173787299799997 ], [ -115.2586584, 36.173784599799994 ], [ -115.2586557, 36.173784599799994 ], [ -115.2586557, 36.173781899799998 ], [ -115.258653, 36.173781899799998 ], [ -115.258653, 36.1737710998 ], [ -115.2586557, 36.1737710998 ], [ -115.2586557, 36.173749499799996 ], [ -115.258653, 36.173749499799996 ], [ -115.258653, 36.173727899799999 ], [ -115.2586503, 36.173727899799999 ], [ -115.2586503, 36.173706299799996 ], [ -115.258653, 36.173706299799996 ], [ -115.258653, 36.173673899800001 ], [ -115.2586503, 36.173673899800001 ], [ -115.2586503, 36.173641499799999 ], [ -115.258653, 36.173641499799999 ], [ -115.258653, 36.173609099799997 ], [ -115.2586557, 36.173609099799997 ], [ -115.2586557, 36.173603699799997 ], [ -115.2586584, 36.173603699799997 ], [ -115.2586584, 36.173600999799994 ], [ -115.2586881, 36.173600999799994 ], [ -115.2586881, 36.173603699799997 ], [ -115.2587097, 36.173603699799997 ], [ -115.2587097, 36.173600999799994 ], [ -115.2587475, 36.173600999799994 ], [ -115.2587475, 36.173603699799997 ], [ -115.2587502, 36.173603699799997 ], [ -115.2587502, 36.173619899799995 ], [ -115.2587529, 36.173619899799995 ], [ -115.2587529, 36.173622599799998 ], [ -115.2587556, 36.173622599799998 ], [ -115.2587556, 36.173625299799994 ], [ -115.2587583, 36.173625299799994 ], [ -115.2587583, 36.173627999799997 ], [ -115.2587907, 36.173627999799997 ], [ -115.2587907, 36.1736306998 ], [ -115.2588042, 36.1736306998 ], [ -115.2588042, 36.173627999799997 ], [ -115.2588285, 36.173627999799997 ], [ -115.2588285, 36.1736306998 ], [ -115.2588339, 36.1736306998 ], [ -115.2588339, 36.173633399799996 ], [ -115.2588366, 36.173633399799996 ], [ -115.2588366, 36.173663099799995 ], [ -115.2588339, 36.173663099799995 ], [ -115.2588339, 36.173741399799994 ], [ -115.2588312, 36.173741399799994 ], [ -115.2588312, 36.173744099799997 ], [ -115.2587502, 36.173744099799997 ], [ -115.2587502, 36.1737467998 ], [ -115.2587448, 36.1737467998 ], [ -115.2587448, 36.173749499799996 ], [ -115.2587421, 36.173749499799996 ], [ -115.2587421, 36.173757599799998 ], [ -115.2587448, 36.173757599799998 ], [ -115.2587448, 36.173765699799993 ], [ -115.2587421, 36.173765699799993 ], [ -115.2587421, 36.173776499799999 ], [ -115.2587448, 36.173776499799999 ], [ -115.2587448, 36.173787299799997 ], [ -115.2587421, 36.173787299799997 ], [ -115.2587421, 36.1737899998 ], [ -115.25873940000001, 36.1737899998 ], [ -115.25873940000001, 36.173792699799996 ], [ -115.2586935, 36.173792699799996 ], [ -115.2586935, 36.173795399799999 ] ] ] } },
{ "type": "Feature", "properties": { "value": 255.0 }, "geometry": { "type": "Polygon", "coordinates": [ [ [ -115.2592767, 36.173735999799995 ], [ -115.2592686, 36.173735999799995 ], [ -115.2592686, 36.173733299799999 ], [ -115.2592632, 36.173733299799999 ], [ -115.2592632, 36.173730599799995 ], [ -115.259260500000011, 36.173730599799995 ], [ -115.259260500000011, 36.173727899799999 ], [ -115.2592578, 36.173727899799999 ], [ -115.2592578, 36.173725199799996 ], [ -115.2592551, 36.173725199799996 ], [ -115.2592551, 36.1737224998 ], [ -115.2592524, 36.1737224998 ], [ -115.2592524, 36.173719799799997 ], [ -115.259247, 36.173719799799997 ], [ -115.259247, 36.173717099799994 ], [ -115.2592443, 36.173717099799994 ], [ -115.2592443, 36.173714399799998 ], [ -115.25924160000001, 36.173714399799998 ], [ -115.25924160000001, 36.173711699799995 ], [ -115.2592389, 36.173711699799995 ], [ -115.2592389, 36.173708999799999 ], [ -115.2592362, 36.173708999799999 ], [ -115.2592362, 36.173706299799996 ], [ -115.2592335, 36.173706299799996 ], [ -115.2592335, 36.1737035998 ], [ -115.2592308, 36.1737035998 ], [ -115.2592308, 36.173700899799996 ], [ -115.2592281, 36.173700899799996 ], [ -115.2592281, 36.1736981998 ], [ -115.2592254, 36.1736981998 ], [ -115.2592254, 36.173695499799997 ], [ -115.2592227, 36.173695499799997 ], [ -115.2592227, 36.173692799799994 ], [ -115.25922, 36.173692799799994 ], [ -115.25922, 36.173690099799998 ], [ -115.2592173, 36.173690099799998 ], [ -115.2592173, 36.173687399799995 ], [ -115.2592146, 36.173687399799995 ], [ -115.2592146, 36.173684699799999 ], [ -115.259211900000011, 36.173684699799999 ], [ -115.259211900000011, 36.173681999799996 ], [ -115.2592092, 36.173681999799996 ], [ -115.2592092, 36.1736792998 ], [ -115.2592065, 36.1736792998 ], [ -115.2592065, 36.173676599799997 ], [ -115.2592038, 36.173676599799997 ], [ -115.2592038, 36.173673899800001 ], [ -115.2592011, 36.173673899800001 ], [ -115.2592011, 36.173671199799998 ], [ -115.2591984, 36.173671199799998 ], [ -115.2591984, 36.173668499799994 ], [ -115.2591957, 36.173668499799994 ], [ -115.2591957, 36.173665799799998 ], [ -115.259193, 36.173665799799998 ], [ -115.259193, 36.173663099799995 ], [ -115.2591903, 36.173663099799995 ], [ -115.2591903, 36.173660399799999 ], [ -115.2591876, 36.173660399799999 ], [ -115.2591876, 36.173657699799996 ], [ -115.2591849, 36.173657699799996 ], [ -115.2591849, 36.1736549998 ], [ -115.2591822, 36.1736549998 ], [ -115.2591822, 36.173649599799994 ], [ -115.2591795, 36.173649599799994 ], [ -115.2591795, 36.173646899799998 ], [ -115.2591768, 36.173646899799998 ], [ -115.2591768, 36.173644199799995 ], [ -115.25917410000001, 36.173644199799995 ], [ -115.25917410000001, 36.173641499799999 ], [ -115.2591714, 36.173641499799999 ], [ -115.2591714, 36.173638799799996 ], [ -115.2591687, 36.173638799799996 ], [ -115.2591687, 36.173636099799999 ], [ -115.259166, 36.173636099799999 ], [ -115.259166, 36.173633399799996 ], [ -115.2591633, 36.173633399799996 ], [ -115.2591633, 36.1736306998 ], [ -115.2591606, 36.1736306998 ], [ -115.2591606, 36.173627999799997 ], [ -115.2591579, 36.173627999799997 ], [ -115.2591579, 36.173625299799994 ], [ -115.2591552, 36.173625299799994 ], [ -115.2591552, 36.173622599799998 ], [ -115.2591525, 36.173622599799998 ], [ -115.2591525, 36.173619899799995 ], [ -115.2591498, 36.173619899799995 ], [ -115.2591498, 36.173617199799999 ], [ -115.2591471, 36.173617199799999 ], [ -115.2591471, 36.173614499799996 ], [ -115.259144400000011, 36.173614499799996 ], [ -115.259144400000011, 36.173609099799997 ], [ -115.2591417, 36.173609099799997 ], [ -115.2591417, 36.173600999799994 ], [ -115.259144400000011, 36.173600999799994 ], [ -115.259144400000011, 36.173595599799995 ], [ -115.2591471, 36.173595599799995 ], [ -115.2591471, 36.173590199799996 ], [ -115.2591498, 36.173590199799996 ], [ -115.2591498, 36.1735874998 ], [ -115.2591552, 36.1735874998 ], [ -115.2591552, 36.173584799799997 ], [ -115.2591606, 36.173584799799997 ], [ -115.2591606, 36.173582099800001 ], [ -115.2591687, 36.173582099800001 ], [ -115.2591687, 36.173579399799998 ], [ -115.25917410000001, 36.173579399799998 ], [ -115.25917410000001, 36.173576699799995 ], [ -115.2591768, 36.173576699799995 ], [ -115.2591768, 36.173573999799999 ], [ -115.2591822, 36.173573999799999 ], [ -115.2591822, 36.173571299799995 ], [ -115.2591849, 36.173571299799995 ], [ -115.2591849, 36.173568599799999 ], [ -115.2591903, 36.173568599799999 ], [ -115.2591903, 36.173565899799996 ], [ -115.2592092, 36.173565899799996 ], [ -115.2592092, 36.173568599799999 ], [ -115.2592146, 36.173568599799999 ], [ -115.2592146, 36.173571299799995 ], [ -115.2592173, 36.173571299799995 ], [ -115.2592173, 36.173573999799999 ], [ -115.25922, 36.173573999799999 ], [ -115.25922, 36.173576699799995 ], [ -115.2592227, 36.173576699799995 ], [ -115.2592227, 36.173582099800001 ], [ -115.2592254, 36.173582099800001 ], [ -115.2592254, 36.173584799799997 ], [ -115.2592281, 36.173584799799997 ], [ -115.2592281, 36.1735874998 ], [ -115.2592308, 36.1735874998 ], [ -115.2592308, 36.173590199799996 ], [ -115.2592335, 36.173590199799996 ], [ -115.2592335, 36.173584799799997 ], [ -115.2592362, 36.173584799799997 ], [ -115.2592362, 36.173582099800001 ], [ -115.2592389, 36.173582099800001 ], [ -115.2592389, 36.173579399799998 ], [ -115.25924160000001, 36.173579399799998 ], [ -115.25924160000001, 36.173576699799995 ], [ -115.2592443, 36.173576699799995 ], [ -115.2592443, 36.173573999799999 ], [ -115.259247, 36.173573999799999 ], [ -115.259247, 36.173571299799995 ], [ -115.2592524, 36.173571299799995 ], [ -115.2592524, 36.173568599799999 ], [ -115.2592659, 36.173568599799999 ], [ -115.2592659, 36.173565899799996 ], [ -115.2592713, 36.173565899799996 ], [ -115.2592713, 36.1735631998 ], [ -115.259274, 36.1735631998 ], [ -115.259274, 36.173560499799997 ], [ -115.2592767, 36.173560499799997 ], [ -115.2592767, 36.173555099799998 ], [ -115.2592848, 36.173555099799998 ], [ -115.2592848, 36.173552399799995 ], [ -115.2592902, 36.173552399799995 ], [ -115.2592902, 36.173555099799998 ], [ -115.259301, 36.173555099799998 ], [ -115.259301, 36.173557799799994 ], [ -115.2593037, 36.173557799799994 ], [ -115.2593037, 36.173560499799997 ], [ -115.25930910000001, 36.173560499799997 ], [ -115.25930910000001, 36.1735631998 ], [ -115.2593145, 36.1735631998 ], [ -115.2593145, 36.173565899799996 ], [ -115.2593172, 36.173565899799996 ], [ -115.2593172, 36.173568599799999 ], [ -115.2593199, 36.173568599799999 ], [ -115.2593199, 36.173571299799995 ], [ -115.2593253, 36.173571299799995 ], [ -115.2593253, 36.173573999799999 ], [ -115.259328, 36.173573999799999 ], [ -115.259328, 36.173576699799995 ], [ -115.2593307, 36.173576699799995 ], [ -115.2593307, 36.173579399799998 ], [ -115.2593334, 36.173579399799998 ], [ -115.2593334, 36.173582099800001 ], [ -115.2593388, 36.173582099800001 ], [ -115.2593388, 36.1735874998 ], [ -115.2593415, 36.1735874998 ], [ -115.2593415, 36.173592899799999 ], [ -115.2593442, 36.173592899799999 ], [ -115.2593442, 36.173598299799998 ], [ -115.259346900000011, 36.173598299799998 ], [ -115.259346900000011, 36.173600999799994 ], [ -115.2593496, 36.173600999799994 ], [ -115.2593496, 36.173603699799997 ], [ -115.259355, 36.173603699799997 ], [ -115.259355, 36.173606399800001 ], [ -115.25935770000001, 36.173606399800001 ], [ -115.25935770000001, 36.173609099799997 ], [ -115.2593658, 36.173609099799997 ], [ -115.2593658, 36.1736117998 ], [ -115.2593685, 36.1736117998 ], [ -115.2593685, 36.173619899799995 ], [ -115.2593658, 36.173619899799995 ], [ -115.2593658, 36.173622599799998 ], [ -115.2593631, 36.173622599799998 ], [ -115.2593631, 36.173625299799994 ], [ -115.2593604, 36.173625299799994 ], [ -115.2593604, 36.1736306998 ], [ -115.25935770000001, 36.1736306998 ], [ -115.25935770000001, 36.173636099799999 ], [ -115.259355, 36.173636099799999 ], [ -115.259355, 36.173638799799996 ], [ -115.2593496, 36.173638799799996 ], [ -115.2593496, 36.173641499799999 ], [ -115.259346900000011, 36.173641499799999 ], [ -115.259346900000011, 36.173644199799995 ], [ -115.2593442, 36.173644199799995 ], [ -115.2593442, 36.173649599799994 ], [ -115.2593415, 36.173649599799994 ], [ -115.2593415, 36.1736549998 ], [ -115.2593388, 36.1736549998 ], [ -115.2593388, 36.173663099799995 ], [ -115.2593361, 36.173663099799995 ], [ -115.2593361, 36.173671199799998 ], [ -115.2593334, 36.173671199799998 ], [ -115.2593334, 36.1736792998 ], [ -115.2593361, 36.1736792998 ], [ -115.2593361, 36.173687399799995 ], [ -115.2593388, 36.173687399799995 ], [ -115.2593388, 36.173695499799997 ], [ -115.2593361, 36.173695499799997 ], [ -115.2593361, 36.173700899799996 ], [ -115.2593307, 36.173700899799996 ], [ -115.2593307, 36.1737035998 ], [ -115.259328, 36.1737035998 ], [ -115.259328, 36.173706299799996 ], [ -115.2593226, 36.173706299799996 ], [ -115.2593226, 36.173708999799999 ], [ -115.2593172, 36.173708999799999 ], [ -115.2593172, 36.173711699799995 ], [ -115.2593145, 36.173711699799995 ], [ -115.2593145, 36.173714399799998 ], [ -115.25930910000001, 36.173714399799998 ], [ -115.25930910000001, 36.173717099799994 ], [ -115.2593064, 36.173717099799994 ], [ -115.2593064, 36.173719799799997 ], [ -115.2593037, 36.173719799799997 ], [ -115.2593037, 36.1737224998 ], [ -115.2592983, 36.1737224998 ], [ -115.2592983, 36.173725199799996 ], [ -115.2592956, 36.173725199799996 ], [ -115.2592956, 36.173727899799999 ], [ -115.2592902, 36.173727899799999 ], [ -115.2592902, 36.173730599799995 ], [ -115.2592848, 36.173730599799995 ], [ -115.2592848, 36.173733299799999 ], [ -115.2592767, 36.173733299799999 ], [ -115.2592767, 36.173735999799995 ] ] ] } },
{ "type": "Feature", "properties": { "value": 255.0 }, "geometry": { "type": "Polygon", "coordinates": [ [ [ -115.2587286, 36.173379599800001 ], [ -115.2587043, 36.173379599800001 ], [ -115.2587043, 36.173376899799997 ], [ -115.2587016, 36.173376899799997 ], [ -115.2587016, 36.173355299800001 ], [ -115.2587043, 36.173355299800001 ], [ -115.2587043, 36.173352599799998 ], [ -115.2587286, 36.173352599799998 ], [ -115.2587286, 36.173355299800001 ], [ -115.258734, 36.173355299800001 ], [ -115.258734, 36.173374199800001 ], [ -115.2587313, 36.173374199800001 ], [ -115.2587313, 36.173376899799997 ], [ -115.2587286, 36.173376899799997 ], [ -115.2587286, 36.173379599800001 ] ] ] } },
{ "type": "Feature", "properties": { "value": 255.0 }, "geometry": { "type": "Polygon", "coordinates": [ [ [ -115.2594117, 36.173479499799996 ], [ -115.2593334, 36.173479499799996 ], [ -115.2593334, 36.1734767998 ], [ -115.2593253, 36.1734767998 ], [ -115.2593253, 36.173474099799996 ], [ -115.2593226, 36.173474099799996 ], [ -115.2593226, 36.1734713998 ], [ -115.2593199, 36.1734713998 ], [ -115.2593199, 36.1734524998 ], [ -115.2593226, 36.1734524998 ], [ -115.2593226, 36.173417399799995 ], [ -115.2593253, 36.173417399799995 ], [ -115.2593253, 36.1734038998 ], [ -115.259328, 36.1734038998 ], [ -115.259328, 36.173352599799998 ], [ -115.2593307, 36.173352599799998 ], [ -115.2593307, 36.173349899799994 ], [ -115.259436, 36.173349899799994 ], [ -115.259436, 36.173347199799998 ], [ -115.2594657, 36.173347199799998 ], [ -115.2594657, 36.173349899799994 ], [ -115.2594684, 36.173349899799994 ], [ -115.2594684, 36.173352599799998 ], [ -115.2594711, 36.173352599799998 ], [ -115.2594711, 36.173355299800001 ], [ -115.2594738, 36.173355299800001 ], [ -115.2594738, 36.173409299799999 ], [ -115.2594765, 36.173409299799999 ], [ -115.2594765, 36.1734281998 ], [ -115.2594792, 36.1734281998 ], [ -115.2594792, 36.173430899799996 ], [ -115.259481900000011, 36.173430899799996 ], [ -115.259481900000011, 36.173433599799999 ], [ -115.2594846, 36.173433599799999 ], [ -115.2594846, 36.173436299799995 ], [ -115.25949, 36.173436299799995 ], [ -115.25949, 36.173438999799998 ], [ -115.25949270000001, 36.173438999799998 ], [ -115.25949270000001, 36.173447099800001 ], [ -115.2594954, 36.173447099800001 ], [ -115.2594954, 36.173463299799998 ], [ -115.25949270000001, 36.173463299799998 ], [ -115.25949270000001, 36.173465999800001 ], [ -115.2594792, 36.173465999800001 ], [ -115.2594792, 36.173468699799997 ], [ -115.2594576, 36.173468699799997 ], [ -115.2594576, 36.1734713998 ], [ -115.2594333, 36.1734713998 ], [ -115.2594333, 36.173474099799996 ], [ -115.25942520000001, 36.173474099799996 ], [ -115.25942520000001, 36.1734767998 ], [ -115.2594117, 36.1734767998 ], [ -115.2594117, 36.173479499799996 ] ] ] } },
{ "type": "Feature", "properties": { "value": 255.0 }, "geometry": { "type": "Polygon", "coordinates": [ [ [ -115.258383, 36.173322899799999 ], [ -115.2583776, 36.173322899799999 ], [ -115.2583776, 36.173179799799996 ], [ -115.2583884, 36.173179799799996 ], [ -115.2583884, 36.173182499799999 ], [ -115.2583911, 36.173182499799999 ], [ -115.2583911, 36.173185199799995 ], [ -115.2583938, 36.173185199799995 ], [ -115.2583938, 36.173193299799998 ], [ -115.2583965, 36.173193299799998 ], [ -115.2583965, 36.1733174998 ], [ -115.2583911, 36.1733174998 ], [ -115.2583911, 36.173320199799996 ], [ -115.258383, 36.173320199799996 ], [ -115.258383, 36.173322899799999 ] ] ] } },
{ "type": "Feature", "properties": { "value": 255.0 }, "geometry": { "type": "Polygon", "coordinates": [ [ [ -115.25887440000001, 36.173352599799998 ], [ -115.2588015, 36.173352599799998 ], [ -115.2588015, 36.173349899799994 ], [ -115.2587907, 36.173349899799994 ], [ -115.2587907, 36.173347199799998 ], [ -115.258788, 36.173347199799998 ], [ -115.258788, 36.1732931998 ], [ -115.2587853, 36.1732931998 ], [ -115.2587853, 36.173290499799997 ], [ -115.2587529, 36.173290499799997 ], [ -115.2587529, 36.173287799800001 ], [ -115.2587502, 36.173287799800001 ], [ -115.2587502, 36.173279699799998 ], [ -115.2587475, 36.173279699799998 ], [ -115.2587475, 36.173263499800001 ], [ -115.2587502, 36.173263499800001 ], [ -115.2587502, 36.173247299799996 ], [ -115.2587475, 36.173247299799996 ], [ -115.2587475, 36.173206799799999 ], [ -115.2587502, 36.173206799799999 ], [ -115.2587502, 36.1732013998 ], [ -115.258761, 36.1732013998 ], [ -115.258761, 36.173198699799997 ], [ -115.2587988, 36.173198699799997 ], [ -115.2587988, 36.1732013998 ], [ -115.2588123, 36.1732013998 ], [ -115.2588123, 36.173198699799997 ], [ -115.2588204, 36.173198699799997 ], [ -115.2588204, 36.1732013998 ], [ -115.2589149, 36.1732013998 ], [ -115.2589149, 36.173198699799997 ], [ -115.2589284, 36.173198699799997 ], [ -115.2589284, 36.1732013998 ], [ -115.2589392, 36.1732013998 ], [ -115.2589392, 36.173198699799997 ], [ -115.25895, 36.173198699799997 ], [ -115.25895, 36.1732013998 ], [ -115.2589581, 36.1732013998 ], [ -115.2589581, 36.173206799799999 ], [ -115.2589608, 36.173206799799999 ], [ -115.2589608, 36.173217599799997 ], [ -115.2589635, 36.173217599799997 ], [ -115.2589635, 36.173258099800002 ], [ -115.2589662, 36.173258099800002 ], [ -115.2589662, 36.173285099799998 ], [ -115.2589635, 36.173285099799998 ], [ -115.2589635, 36.173287799800001 ], [ -115.2589365, 36.173287799800001 ], [ -115.2589365, 36.173290499799997 ], [ -115.2589338, 36.173290499799997 ], [ -115.2589338, 36.173298599799999 ], [ -115.2589311, 36.173298599799999 ], [ -115.2589311, 36.173301299799995 ], [ -115.2589338, 36.173301299799995 ], [ -115.2589338, 36.1733174998 ], [ -115.2589311, 36.1733174998 ], [ -115.2589311, 36.173347199799998 ], [ -115.2589284, 36.173347199799998 ], [ -115.2589284, 36.173349899799994 ], [ -115.25887440000001, 36.173349899799994 ], [ -115.25887440000001, 36.173352599799998 ] ] ] } },
{ "type": "Feature", "properties": { "value": 255.0 }, "geometry": { "type": "Polygon", "coordinates": [ [ [ -115.2586395, 36.173320199799996 ], [ -115.2584748, 36.173320199799996 ], [ -115.2584748, 36.1733174998 ], [ -115.2584721, 36.1733174998 ], [ -115.2584721, 36.173314799799996 ], [ -115.25846940000001, 36.173314799799996 ], [ -115.25846940000001, 36.1733120998 ], [ -115.2584667, 36.1733120998 ], [ -115.2584667, 36.173309399799997 ], [ -115.2584343, 36.173309399799997 ], [ -115.2584343, 36.173306699800001 ], [ -115.2584316, 36.173306699800001 ], [ -115.2584316, 36.173303999799998 ], [ -115.2584289, 36.173303999799998 ], [ -115.2584289, 36.173290499799997 ], [ -115.2584316, 36.173290499799997 ], [ -115.2584316, 36.173271599799996 ], [ -115.2584343, 36.173271599799996 ], [ -115.2584343, 36.1732688998 ], [ -115.2584667, 36.1732688998 ], [ -115.2584667, 36.173266199799997 ], [ -115.25846940000001, 36.173266199799997 ], [ -115.25846940000001, 36.173233799799995 ], [ -115.2584586, 36.173233799799995 ], [ -115.2584586, 36.173236499799998 ], [ -115.2584424, 36.173236499799998 ], [ -115.2584424, 36.173233799799995 ], [ -115.258437, 36.173233799799995 ], [ -115.258437, 36.173231099799999 ], [ -115.2584343, 36.173231099799999 ], [ -115.2584343, 36.173195999800001 ], [ -115.258437, 36.173195999800001 ], [ -115.258437, 36.173190599800002 ], [ -115.2584397, 36.173190599800002 ], [ -115.2584397, 36.173187899799998 ], [ -115.2584478, 36.173187899799998 ], [ -115.2584478, 36.173190599800002 ], [ -115.258464, 36.173190599800002 ], [ -115.258464, 36.173187899799998 ], [ -115.2584667, 36.173187899799998 ], [ -115.2584667, 36.173185199799995 ], [ -115.25846940000001, 36.173185199799995 ], [ -115.25846940000001, 36.173182499799999 ], [ -115.2584721, 36.173182499799999 ], [ -115.2584721, 36.1731770998 ], [ -115.2584748, 36.1731770998 ], [ -115.2584748, 36.173174399799997 ], [ -115.2584775, 36.173174399799997 ], [ -115.2584775, 36.173171699800001 ], [ -115.2585072, 36.173171699800001 ], [ -115.2585072, 36.173168999799998 ], [ -115.2585126, 36.173168999799998 ], [ -115.2585126, 36.173171699800001 ], [ -115.2586395, 36.173171699800001 ], [ -115.2586395, 36.173168999799998 ], [ -115.258653, 36.173168999799998 ], [ -115.258653, 36.173166299800002 ], [ -115.25868, 36.173166299800002 ], [ -115.25868, 36.173168999799998 ], [ -115.2586827, 36.173168999799998 ], [ -115.2586827, 36.173171699800001 ], [ -115.2586854, 36.173171699800001 ], [ -115.2586854, 36.173193299799998 ], [ -115.2586881, 36.173193299799998 ], [ -115.2586881, 36.1732256998 ], [ -115.2586854, 36.1732256998 ], [ -115.2586854, 36.173231099799999 ], [ -115.258653, 36.173231099799999 ], [ -115.258653, 36.173236499799998 ], [ -115.2586503, 36.173236499799998 ], [ -115.2586503, 36.173263499800001 ], [ -115.2586476, 36.173263499800001 ], [ -115.2586476, 36.173276999799995 ], [ -115.2586449, 36.173276999799995 ], [ -115.2586449, 36.173314799799996 ], [ -115.2586422, 36.173314799799996 ], [ -115.2586422, 36.1733174998 ], [ -115.2586395, 36.1733174998 ], [ -115.2586395, 36.173320199799996 ] ] ] } },
{ "type": "Feature", "properties": { "value": 255.0 }, "geometry": { "type": "Polygon", "coordinates": [ [ [ -115.2594333, 36.173309399799997 ], [ -115.259355, 36.173309399799997 ], [ -115.259355, 36.173306699800001 ], [ -115.2593253, 36.173306699800001 ], [ -115.2593253, 36.173303999799998 ], [ -115.25930910000001, 36.173303999799998 ], [ -115.25930910000001, 36.173301299799995 ], [ -115.259301, 36.173301299799995 ], [ -115.259301, 36.173298599799999 ], [ -115.2592983, 36.173298599799999 ], [ -115.2592983, 36.1732931998 ], [ -115.2592956, 36.1732931998 ], [ -115.2592956, 36.173287799800001 ], [ -115.2592929, 36.173287799800001 ], [ -115.2592929, 36.173271599799996 ], [ -115.2592956, 36.173271599799996 ], [ -115.2592956, 36.173239199800001 ], [ -115.2592929, 36.173239199800001 ], [ -115.2592929, 36.173220299800001 ], [ -115.2592902, 36.173220299800001 ], [ -115.2592902, 36.173214899800001 ], [ -115.2592929, 36.173214899800001 ], [ -115.2592929, 36.173185199799995 ], [ -115.2592956, 36.173185199799995 ], [ -115.2592956, 36.173168999799998 ], [ -115.2592983, 36.173168999799998 ], [ -115.2592983, 36.173166299800002 ], [ -115.259301, 36.173166299800002 ], [ -115.259301, 36.173163599799999 ], [ -115.25930910000001, 36.173163599799999 ], [ -115.25930910000001, 36.173160899799996 ], [ -115.2593658, 36.173160899799996 ], [ -115.2593658, 36.1731581998 ], [ -115.2594171, 36.1731581998 ], [ -115.2594171, 36.173160899799996 ], [ -115.2594306, 36.173160899799996 ], [ -115.2594306, 36.1731581998 ], [ -115.2594414, 36.1731581998 ], [ -115.2594414, 36.173160899799996 ], [ -115.2594738, 36.173160899799996 ], [ -115.2594738, 36.173163599799999 ], [ -115.2595278, 36.173163599799999 ], [ -115.2595278, 36.173166299800002 ], [ -115.2595332, 36.173166299800002 ], [ -115.2595332, 36.173206799799999 ], [ -115.259530500000011, 36.173206799799999 ], [ -115.259530500000011, 36.173209499799995 ], [ -115.2595278, 36.173209499799995 ], [ -115.2595278, 36.173212199799998 ], [ -115.2594792, 36.173212199799998 ], [ -115.2594792, 36.173214899800001 ], [ -115.2594738, 36.173214899800001 ], [ -115.2594738, 36.173271599799996 ], [ -115.2594711, 36.173271599799996 ], [ -115.2594711, 36.173295899799996 ], [ -115.2594738, 36.173295899799996 ], [ -115.2594738, 36.173298599799999 ], [ -115.2594711, 36.173298599799999 ], [ -115.2594711, 36.173306699800001 ], [ -115.2594333, 36.173306699800001 ], [ -115.2594333, 36.173309399799997 ] ] ] } },
{ "type": "Feature", "properties": { "value": 255.0 }, "geometry": { "type": "Polygon", "coordinates": [ [ [ -115.25873940000001, 36.173168999799998 ], [ -115.2587124, 36.173168999799998 ], [ -115.2587124, 36.173155499799996 ], [ -115.2587151, 36.173155499799996 ], [ -115.2587151, 36.1731527998 ], [ -115.2587178, 36.1731527998 ], [ -115.2587178, 36.173150099799997 ], [ -115.25872050000001, 36.173150099799997 ], [ -115.25872050000001, 36.1731527998 ], [ -115.2587259, 36.1731527998 ], [ -115.2587259, 36.173155499799996 ], [ -115.2587313, 36.173155499799996 ], [ -115.2587313, 36.1731581998 ], [ -115.25873940000001, 36.1731581998 ], [ -115.25873940000001, 36.173163599799999 ], [ -115.2587421, 36.173163599799999 ], [ -115.2587421, 36.173166299800002 ], [ -115.25873940000001, 36.173166299800002 ], [ -115.25873940000001, 36.173168999799998 ] ] ] } },
{ "type": "Feature", "properties": { "value": 255.0 }, "geometry": { "type": "Polygon", "coordinates": [ [ [ -115.25868, 36.173141999799995 ], [ -115.2586557, 36.173141999799995 ], [ -115.2586557, 36.173139299799999 ], [ -115.2586476, 36.173139299799999 ], [ -115.2586476, 36.173136599799996 ], [ -115.2586449, 36.173136599799996 ], [ -115.2586449, 36.1731095998 ], [ -115.2586476, 36.1731095998 ], [ -115.2586476, 36.173106899799997 ], [ -115.2586503, 36.173106899799997 ], [ -115.2586503, 36.173104199800001 ], [ -115.2586746, 36.173104199800001 ], [ -115.2586746, 36.173106899799997 ], [ -115.2586827, 36.173106899799997 ], [ -115.2586827, 36.1731095998 ], [ -115.2586854, 36.1731095998 ], [ -115.2586854, 36.173125799799998 ], [ -115.2586881, 36.173125799799998 ], [ -115.2586881, 36.173139299799999 ], [ -115.25868, 36.173139299799999 ], [ -115.25868, 36.173141999799995 ] ] ] } },
{ "type": "Feature", "properties": { "value": 255.0 }, "geometry": { "type": "Polygon", "coordinates": [ [ [ -115.2583992, 36.173071799799999 ], [ -115.2583857, 36.173071799799999 ], [ -115.2583857, 36.173069099799996 ], [ -115.2583803, 36.173069099799996 ], [ -115.2583803, 36.1730663998 ], [ -115.2583776, 36.1730663998 ], [ -115.2583776, 36.173058299799997 ], [ -115.2583884, 36.173058299799997 ], [ -115.2583884, 36.173055599800001 ], [ -115.2583965, 36.173055599800001 ], [ -115.2583965, 36.173058299799997 ], [ -115.2583992, 36.173058299799997 ], [ -115.2583992, 36.173060999800001 ], [ -115.25840190000001, 36.173060999800001 ], [ -115.25840190000001, 36.1730663998 ], [ -115.2583992, 36.1730663998 ], [ -115.2583992, 36.173071799799999 ] ] ] } },
{ "type": "Feature", "properties": { "value": 255.0 }, "geometry": { "type": "Polygon", "coordinates": [ [ [ -115.2589446, 36.173174399799997 ], [ -115.2588987, 36.173174399799997 ], [ -115.2588987, 36.173171699800001 ], [ -115.2588933, 36.173171699800001 ], [ -115.2588933, 36.173174399799997 ], [ -115.2587907, 36.173174399799997 ], [ -115.2587907, 36.173171699800001 ], [ -115.258788, 36.173171699800001 ], [ -115.258788, 36.173168999799998 ], [ -115.2587853, 36.173168999799998 ], [ -115.2587853, 36.173139299799999 ], [ -115.2587826, 36.173139299799999 ], [ -115.2587826, 36.173106899799997 ], [ -115.2587799, 36.173106899799997 ], [ -115.2587799, 36.173098799800002 ], [ -115.2587772, 36.173098799800002 ], [ -115.2587772, 36.173093399799995 ], [ -115.2587745, 36.173093399799995 ], [ -115.2587745, 36.173079899800001 ], [ -115.2587718, 36.173079899800001 ], [ -115.2587718, 36.173058299799997 ], [ -115.2587745, 36.173058299799997 ], [ -115.2587745, 36.173039399799997 ], [ -115.2587772, 36.173039399799997 ], [ -115.2587772, 36.173033999799998 ], [ -115.2587799, 36.173033999799998 ], [ -115.2587799, 36.173031299800002 ], [ -115.2587853, 36.173031299800002 ], [ -115.2587853, 36.173028599799999 ], [ -115.2587961, 36.173028599799999 ], [ -115.2587961, 36.173025899799995 ], [ -115.25885550000001, 36.173025899799995 ], [ -115.25885550000001, 36.173028599799999 ], [ -115.258869, 36.173028599799999 ], [ -115.258869, 36.173031299800002 ], [ -115.2588771, 36.173031299800002 ], [ -115.2588771, 36.173033999799998 ], [ -115.2589014, 36.173033999799998 ], [ -115.2589014, 36.173031299800002 ], [ -115.2589149, 36.173031299800002 ], [ -115.2589149, 36.173028599799999 ], [ -115.2589365, 36.173028599799999 ], [ -115.2589365, 36.173025899799995 ], [ -115.2589635, 36.173025899799995 ], [ -115.2589635, 36.173028599799999 ], [ -115.2589662, 36.173028599799999 ], [ -115.2589662, 36.173036699800001 ], [ -115.2589689, 36.173036699800001 ], [ -115.2589689, 36.173044799799996 ], [ -115.2589662, 36.173044799799996 ], [ -115.2589662, 36.173071799799999 ], [ -115.2589689, 36.173071799799999 ], [ -115.2589689, 36.173082599799997 ], [ -115.2589662, 36.173082599799997 ], [ -115.2589662, 36.1730852998 ], [ -115.2589635, 36.1730852998 ], [ -115.2589635, 36.173087999799996 ], [ -115.2589527, 36.173087999799996 ], [ -115.2589527, 36.173090699799999 ], [ -115.25895, 36.173090699799999 ], [ -115.25895, 36.173093399799995 ], [ -115.2589473, 36.173093399799995 ], [ -115.2589473, 36.173171699800001 ], [ -115.2589446, 36.173171699800001 ], [ -115.2589446, 36.173174399799997 ] ] ] } },
{ "type": "Feature", "properties": { "value": 255.0 }, "geometry": { "type": "Polygon", "coordinates": [ [ [ -115.2594495, 36.173128499800001 ], [ -115.2593928, 36.173128499800001 ], [ -115.2593928, 36.173125799799998 ], [ -115.2593712, 36.173125799799998 ], [ -115.2593712, 36.173123099800002 ], [ -115.2593658, 36.173123099800002 ], [ -115.2593658, 36.173120399799998 ], [ -115.2593442, 36.173120399799998 ], [ -115.2593442, 36.173123099800002 ], [ -115.2593361, 36.173123099800002 ], [ -115.2593361, 36.173125799799998 ], [ -115.2593253, 36.173125799799998 ], [ -115.2593253, 36.173128499800001 ], [ -115.2593199, 36.173128499800001 ], [ -115.2593199, 36.173125799799998 ], [ -115.2593145, 36.173125799799998 ], [ -115.2593145, 36.173123099800002 ], [ -115.25930910000001, 36.173123099800002 ], [ -115.25930910000001, 36.173120399799998 ], [ -115.2593064, 36.173120399799998 ], [ -115.2593064, 36.173117699799995 ], [ -115.2592983, 36.173117699799995 ], [ -115.2592983, 36.173114999799999 ], [ -115.2592956, 36.173114999799999 ], [ -115.2592956, 36.173112299799996 ], [ -115.2592929, 36.173112299799996 ], [ -115.2592929, 36.1731095998 ], [ -115.2592902, 36.1731095998 ], [ -115.2592902, 36.173104199800001 ], [ -115.2592875, 36.173104199800001 ], [ -115.2592875, 36.173087999799996 ], [ -115.2592848, 36.173087999799996 ], [ -115.2592848, 36.173060999800001 ], [ -115.2592875, 36.173060999800001 ], [ -115.2592875, 36.173055599800001 ], [ -115.2592902, 36.173055599800001 ], [ -115.2592902, 36.173052899799998 ], [ -115.2592929, 36.173052899799998 ], [ -115.2592929, 36.173050199800002 ], [ -115.2593064, 36.173050199800002 ], [ -115.2593064, 36.173047499799999 ], [ -115.259355, 36.173047499799999 ], [ -115.259355, 36.173044799799996 ], [ -115.2593631, 36.173044799799996 ], [ -115.2593631, 36.1730420998 ], [ -115.2593685, 36.1730420998 ], [ -115.2593685, 36.173039399799997 ], [ -115.259382, 36.173039399799997 ], [ -115.259382, 36.173036699800001 ], [ -115.2593847, 36.173036699800001 ], [ -115.2593847, 36.173033999799998 ], [ -115.2593874, 36.173033999799998 ], [ -115.2593874, 36.1729934998 ], [ -115.2593847, 36.1729934998 ], [ -115.2593847, 36.172990799799997 ], [ -115.2593874, 36.172990799799997 ], [ -115.2593874, 36.172985399799998 ], [ -115.2593901, 36.172985399799998 ], [ -115.2593901, 36.172982699800002 ], [ -115.2593928, 36.172982699800002 ], [ -115.2593928, 36.172979999799999 ], [ -115.2594657, 36.172979999799999 ], [ -115.2594657, 36.172982699800002 ], [ -115.2594684, 36.172982699800002 ], [ -115.2594684, 36.172985399799998 ], [ -115.2594711, 36.172985399799998 ], [ -115.2594711, 36.173031299800002 ], [ -115.2594738, 36.173031299800002 ], [ -115.2594738, 36.173047499799999 ], [ -115.2594765, 36.173047499799999 ], [ -115.2594765, 36.173050199800002 ], [ -115.2594954, 36.173050199800002 ], [ -115.2594954, 36.173052899799998 ], [ -115.2595089, 36.173052899799998 ], [ -115.2595089, 36.173055599800001 ], [ -115.25951160000001, 36.173055599800001 ], [ -115.25951160000001, 36.173058299799997 ], [ -115.2595143, 36.173058299799997 ], [ -115.2595143, 36.173104199800001 ], [ -115.259517, 36.173104199800001 ], [ -115.259517, 36.1731095998 ], [ -115.2595143, 36.1731095998 ], [ -115.2595143, 36.173117699799995 ], [ -115.25951160000001, 36.173117699799995 ], [ -115.25951160000001, 36.173120399799998 ], [ -115.2594765, 36.173120399799998 ], [ -115.2594765, 36.173123099800002 ], [ -115.2594684, 36.173123099800002 ], [ -115.2594684, 36.173125799799998 ], [ -115.2594495, 36.173125799799998 ], [ -115.2594495, 36.173128499800001 ] ] ] } },
{ "type": "Feature", "properties": { "value": 255.0 }, "geometry": { "type": "Polygon", "coordinates": [ [ [ -115.2584289, 36.1730420998 ], [ -115.2584127, 36.1730420998 ], [ -115.2584127, 36.173039399799997 ], [ -115.2584073, 36.173039399799997 ], [ -115.2584073, 36.173036699800001 ], [ -115.2584046, 36.173036699800001 ], [ -115.2584046, 36.173033999799998 ], [ -115.2583992, 36.173033999799998 ], [ -115.2583992, 36.173031299800002 ], [ -115.2583911, 36.173031299800002 ], [ -115.2583911, 36.173028599799999 ], [ -115.2583776, 36.173028599799999 ], [ -115.2583776, 36.172863899799999 ], [ -115.258383, 36.172863899799999 ], [ -115.258383, 36.172866599800003 ], [ -115.2583911, 36.172866599800003 ], [ -115.2583911, 36.172869299799999 ], [ -115.25840190000001, 36.172869299799999 ], [ -115.25840190000001, 36.172871999800002 ], [ -115.2584046, 36.172871999800002 ], [ -115.2584046, 36.172874699799998 ], [ -115.25841, 36.172874699799998 ], [ -115.25841, 36.172877399800001 ], [ -115.2584127, 36.172877399800001 ], [ -115.2584127, 36.172880099799997 ], [ -115.2584154, 36.172880099799997 ], [ -115.2584154, 36.1728827998 ], [ -115.2584181, 36.1728827998 ], [ -115.2584181, 36.172885499799996 ], [ -115.2584235, 36.172885499799996 ], [ -115.2584235, 36.172888199799999 ], [ -115.2584262, 36.172888199799999 ], [ -115.2584262, 36.172890899800002 ], [ -115.2584289, 36.172890899800002 ], [ -115.2584289, 36.172896299800001 ], [ -115.2584316, 36.172896299800001 ], [ -115.2584316, 36.172898999799997 ], [ -115.2584343, 36.172898999799997 ], [ -115.2584343, 36.172904399799997 ], [ -115.258437, 36.172904399799997 ], [ -115.258437, 36.1729070998 ], [ -115.2584397, 36.1729070998 ], [ -115.2584397, 36.172909799799996 ], [ -115.2584424, 36.172909799799996 ], [ -115.2584424, 36.172912499799999 ], [ -115.2584451, 36.172912499799999 ], [ -115.2584451, 36.172915199800002 ], [ -115.2584478, 36.172915199800002 ], [ -115.2584478, 36.172917899799998 ], [ -115.2584559, 36.172917899799998 ], [ -115.2584559, 36.172920599800001 ], [ -115.2584613, 36.172920599800001 ], [ -115.2584613, 36.1729259998 ], [ -115.258464, 36.1729259998 ], [ -115.258464, 36.172947599799997 ], [ -115.2584613, 36.172947599799997 ], [ -115.2584613, 36.1729502998 ], [ -115.2584586, 36.1729502998 ], [ -115.2584586, 36.172952999799996 ], [ -115.2584559, 36.172952999799996 ], [ -115.2584559, 36.172955699799999 ], [ -115.2584532, 36.172955699799999 ], [ -115.2584532, 36.172958399800002 ], [ -115.2584451, 36.172958399800002 ], [ -115.2584451, 36.172961099799998 ], [ -115.258437, 36.172961099799998 ], [ -115.258437, 36.172963799800002 ], [ -115.2584316, 36.172963799800002 ], [ -115.2584316, 36.172966499799998 ], [ -115.2584262, 36.172966499799998 ], [ -115.2584262, 36.172969199800001 ], [ -115.2584235, 36.172969199800001 ], [ -115.2584235, 36.172971899799997 ], [ -115.2584208, 36.172971899799997 ], [ -115.2584208, 36.172977299799996 ], [ -115.2584181, 36.172977299799996 ], [ -115.2584181, 36.172979999799999 ], [ -115.2584208, 36.172979999799999 ], [ -115.2584208, 36.172982699800002 ], [ -115.2584235, 36.172982699800002 ], [ -115.2584235, 36.172985399799998 ], [ -115.2584262, 36.172985399799998 ], [ -115.2584262, 36.172988099800001 ], [ -115.2584289, 36.172988099800001 ], [ -115.2584289, 36.172990799799997 ], [ -115.2584316, 36.172990799799997 ], [ -115.2584316, 36.1729934998 ], [ -115.258437, 36.1729934998 ], [ -115.258437, 36.172996199799996 ], [ -115.2584424, 36.172996199799996 ], [ -115.2584424, 36.1729988998 ], [ -115.2584451, 36.1729988998 ], [ -115.2584451, 36.173006999800002 ], [ -115.2584424, 36.173006999800002 ], [ -115.2584424, 36.173009699799998 ], [ -115.2584397, 36.173009699799998 ], [ -115.2584397, 36.173015099799997 ], [ -115.258437, 36.173015099799997 ], [ -115.258437, 36.173031299800002 ], [ -115.2584343, 36.173031299800002 ], [ -115.2584343, 36.173039399799997 ], [ -115.2584289, 36.173039399799997 ], [ -115.2584289, 36.1730420998 ] ] ] } },
{ "type": "Feature", "properties": { "value": 255.0 }, "geometry": { "type": "Polygon", "coordinates": [ [ [ -115.2588042, 36.172996199799996 ], [ -115.258788, 36.172996199799996 ], [ -115.258788, 36.1729934998 ], [ -115.2587853, 36.1729934998 ], [ -115.2587853, 36.172990799799997 ], [ -115.2587826, 36.172990799799997 ], [ -115.2587826, 36.1729745998 ], [ -115.2587799, 36.1729745998 ], [ -115.2587799, 36.172963799800002 ], [ -115.2587772, 36.172963799800002 ], [ -115.2587772, 36.172944899800001 ], [ -115.2587799, 36.172944899800001 ], [ -115.2587799, 36.172939499800002 ], [ -115.2587826, 36.172939499800002 ], [ -115.2587826, 36.1728827998 ], [ -115.2587853, 36.1728827998 ], [ -115.2587853, 36.172853099800001 ], [ -115.258788, 36.172853099800001 ], [ -115.258788, 36.172850399799998 ], [ -115.2587907, 36.172850399799998 ], [ -115.2587907, 36.172847699800002 ], [ -115.2589311, 36.172847699800002 ], [ -115.2589311, 36.172850399799998 ], [ -115.2589365, 36.172850399799998 ], [ -115.2589365, 36.172853099800001 ], [ -115.258941900000011, 36.172853099800001 ], [ -115.258941900000011, 36.172855799799997 ], [ -115.2589446, 36.172855799799997 ], [ -115.2589446, 36.1728584998 ], [ -115.2589473, 36.1728584998 ], [ -115.2589473, 36.1729070998 ], [ -115.2589446, 36.1729070998 ], [ -115.2589446, 36.172912499799999 ], [ -115.258941900000011, 36.172912499799999 ], [ -115.258941900000011, 36.172923299799997 ], [ -115.2589446, 36.172923299799997 ], [ -115.2589446, 36.1729259998 ], [ -115.2589608, 36.1729259998 ], [ -115.2589608, 36.172928699799996 ], [ -115.2589662, 36.172928699799996 ], [ -115.2589662, 36.172931399799999 ], [ -115.2589689, 36.172931399799999 ], [ -115.2589689, 36.172982699800002 ], [ -115.2589662, 36.172982699800002 ], [ -115.2589662, 36.1729934998 ], [ -115.2588042, 36.1729934998 ], [ -115.2588042, 36.172996199799996 ] ] ] } },
{ "type": "Feature", "properties": { "value": 255.0 }, "geometry": { "type": "Polygon", "coordinates": [ [ [ -115.2594495, 36.172947599799997 ], [ -115.2593226, 36.172947599799997 ], [ -115.2593226, 36.172944899800001 ], [ -115.2593172, 36.172944899800001 ], [ -115.2593172, 36.172939499800002 ], [ -115.2593145, 36.172939499800002 ], [ -115.2593145, 36.172863899799999 ], [ -115.2593118, 36.172863899799999 ], [ -115.2593118, 36.172861199799996 ], [ -115.25930910000001, 36.172861199799996 ], [ -115.25930910000001, 36.1728584998 ], [ -115.2593037, 36.1728584998 ], [ -115.2593037, 36.172853099800001 ], [ -115.259301, 36.172853099800001 ], [ -115.259301, 36.172842299799996 ], [ -115.2592983, 36.172842299799996 ], [ -115.2592983, 36.172809899800001 ], [ -115.259301, 36.172809899800001 ], [ -115.259301, 36.172799099800002 ], [ -115.2593037, 36.172799099800002 ], [ -115.2593037, 36.172796399799999 ], [ -115.2593874, 36.172796399799999 ], [ -115.2593874, 36.172799099800002 ], [ -115.2594279, 36.172799099800002 ], [ -115.2594279, 36.172796399799999 ], [ -115.2594684, 36.172796399799999 ], [ -115.2594684, 36.172799099800002 ], [ -115.2594738, 36.172799099800002 ], [ -115.2594738, 36.172801799799998 ], [ -115.2594765, 36.172801799799998 ], [ -115.2594765, 36.172847699800002 ], [ -115.2594738, 36.172847699800002 ], [ -115.2594738, 36.172869299799999 ], [ -115.2594765, 36.172869299799999 ], [ -115.2594765, 36.172942199799998 ], [ -115.2594738, 36.172942199799998 ], [ -115.2594738, 36.172944899800001 ], [ -115.2594495, 36.172944899800001 ], [ -115.2594495, 36.172947599799997 ] ] ] } },
{ "type": "Feature", "properties": { "value": 255.0 }, "geometry": { "type": "Polygon", "coordinates": [ [ [ -115.2583992, 36.1727720998 ], [ -115.2583911, 36.1727720998 ], [ -115.2583911, 36.172769399799996 ], [ -115.2583884, 36.172769399799996 ], [ -115.2583884, 36.172761299800001 ], [ -115.2583911, 36.172761299800001 ], [ -115.2583911, 36.172758599799998 ], [ -115.2583938, 36.172758599799998 ], [ -115.2583938, 36.172755899800002 ], [ -115.2583965, 36.172755899800002 ], [ -115.2583965, 36.172753199799999 ], [ -115.2584046, 36.172753199799999 ], [ -115.2584046, 36.172755899800002 ], [ -115.2584073, 36.172755899800002 ], [ -115.2584073, 36.172758599799998 ], [ -115.2584046, 36.172758599799998 ], [ -115.2584046, 36.172761299800001 ], [ -115.25840190000001, 36.172761299800001 ], [ -115.25840190000001, 36.172769399799996 ], [ -115.2583992, 36.172769399799996 ], [ -115.2583992, 36.1727720998 ] ] ] } },
{ "type": "Feature", "properties": { "value": 255.0 }, "geometry": { "type": "Polygon", "coordinates": [ [ [ -115.2584991, 36.172812599799997 ], [ -115.2584775, 36.172812599799997 ], [ -115.2584775, 36.172809899800001 ], [ -115.2584748, 36.172809899800001 ], [ -115.2584748, 36.172807199799998 ], [ -115.2584721, 36.172807199799998 ], [ -115.2584721, 36.172801799799998 ], [ -115.2584748, 36.172801799799998 ], [ -115.2584748, 36.172799099800002 ], [ -115.2584721, 36.172799099800002 ], [ -115.2584721, 36.172793699799996 ], [ -115.25846940000001, 36.172793699799996 ], [ -115.25846940000001, 36.1727909998 ], [ -115.258464, 36.1727909998 ], [ -115.258464, 36.172788299799997 ], [ -115.2584559, 36.172788299799997 ], [ -115.2584559, 36.172785599800001 ], [ -115.2584505, 36.172785599800001 ], [ -115.2584505, 36.1727720998 ], [ -115.2584532, 36.1727720998 ], [ -115.2584532, 36.1727666998 ], [ -115.2584559, 36.1727666998 ], [ -115.2584559, 36.172758599799998 ], [ -115.2584532, 36.172758599799998 ], [ -115.2584532, 36.172755899800002 ], [ -115.2584505, 36.172755899800002 ], [ -115.2584505, 36.172753199799999 ], [ -115.2584235, 36.172753199799999 ], [ -115.2584235, 36.1727477998 ], [ -115.2584262, 36.1727477998 ], [ -115.2584262, 36.172745099799997 ], [ -115.2584478, 36.172745099799997 ], [ -115.2584478, 36.172742399800001 ], [ -115.2584559, 36.172742399800001 ], [ -115.2584559, 36.172734299799998 ], [ -115.2584586, 36.172734299799998 ], [ -115.2584586, 36.172715399799998 ], [ -115.2584613, 36.172715399799998 ], [ -115.2584613, 36.172707299800003 ], [ -115.258464, 36.172707299800003 ], [ -115.258464, 36.172704599799999 ], [ -115.2584667, 36.172704599799999 ], [ -115.2584667, 36.172701899799996 ], [ -115.25846940000001, 36.172701899799996 ], [ -115.25846940000001, 36.1726991998 ], [ -115.2584802, 36.1726991998 ], [ -115.2584802, 36.172696499799997 ], [ -115.2585045, 36.172696499799997 ], [ -115.2585045, 36.1726991998 ], [ -115.2585261, 36.1726991998 ], [ -115.2585261, 36.172696499799997 ], [ -115.2585342, 36.172696499799997 ], [ -115.2585342, 36.172693799800001 ], [ -115.2585423, 36.172693799800001 ], [ -115.2585423, 36.172691099799998 ], [ -115.2585558, 36.172691099799998 ], [ -115.2585558, 36.172688399800002 ], [ -115.2585639, 36.172688399800002 ], [ -115.2585639, 36.172685699799999 ], [ -115.2585747, 36.172685699799999 ], [ -115.2585747, 36.172682999800003 ], [ -115.2585909, 36.172682999800003 ], [ -115.2585909, 36.172685699799999 ], [ -115.258599, 36.172685699799999 ], [ -115.258599, 36.172688399800002 ], [ -115.2586017, 36.172688399800002 ], [ -115.2586017, 36.172691099799998 ], [ -115.25860440000001, 36.172691099799998 ], [ -115.25860440000001, 36.172693799800001 ], [ -115.2586071, 36.172693799800001 ], [ -115.2586071, 36.172701899799996 ], [ -115.2586098, 36.172701899799996 ], [ -115.2586098, 36.172742399800001 ], [ -115.2586071, 36.172742399800001 ], [ -115.2586071, 36.172753199799999 ], [ -115.25860440000001, 36.172753199799999 ], [ -115.25860440000001, 36.172755899800002 ], [ -115.2586017, 36.172755899800002 ], [ -115.2586017, 36.172758599799998 ], [ -115.25860440000001, 36.172758599799998 ], [ -115.25860440000001, 36.172763999799997 ], [ -115.2586071, 36.172763999799997 ], [ -115.2586071, 36.172769399799996 ], [ -115.2586098, 36.172769399799996 ], [ -115.2586098, 36.1727720998 ], [ -115.2586125, 36.1727720998 ], [ -115.2586125, 36.172769399799996 ], [ -115.2586206, 36.172769399799996 ], [ -115.2586206, 36.1727720998 ], [ -115.2586287, 36.1727720998 ], [ -115.2586287, 36.172774799800003 ], [ -115.2586314, 36.172774799800003 ], [ -115.2586314, 36.172780199800002 ], [ -115.2586341, 36.172780199800002 ], [ -115.2586341, 36.172793699799996 ], [ -115.2586179, 36.172793699799996 ], [ -115.2586179, 36.1727909998 ], [ -115.2586152, 36.1727909998 ], [ -115.2586152, 36.172782899799998 ], [ -115.2586125, 36.172782899799998 ], [ -115.2586125, 36.172777499799999 ], [ -115.2586071, 36.172777499799999 ], [ -115.2586071, 36.172780199800002 ], [ -115.25860440000001, 36.172780199800002 ], [ -115.25860440000001, 36.172785599800001 ], [ -115.2585963, 36.172785599800001 ], [ -115.2585963, 36.172782899799998 ], [ -115.2585936, 36.172782899799998 ], [ -115.2585936, 36.172785599800001 ], [ -115.2585909, 36.172785599800001 ], [ -115.2585909, 36.172788299799997 ], [ -115.2585693, 36.172788299799997 ], [ -115.2585693, 36.172785599800001 ], [ -115.2585666, 36.172785599800001 ], [ -115.2585666, 36.172782899799998 ], [ -115.2585693, 36.172782899799998 ], [ -115.2585693, 36.172780199800002 ], [ -115.2585747, 36.172780199800002 ], [ -115.2585747, 36.172777499799999 ], [ -115.2585666, 36.172777499799999 ], [ -115.2585666, 36.172780199800002 ], [ -115.2585612, 36.172780199800002 ], [ -115.2585612, 36.172782899799998 ], [ -115.2585585, 36.172782899799998 ], [ -115.2585585, 36.172785599800001 ], [ -115.2585531, 36.172785599800001 ], [ -115.2585531, 36.172788299799997 ], [ -115.2585504, 36.172788299799997 ], [ -115.2585504, 36.1727909998 ], [ -115.2585477, 36.1727909998 ], [ -115.2585477, 36.172799099800002 ], [ -115.258545, 36.172799099800002 ], [ -115.258545, 36.172804499800002 ], [ -115.2585396, 36.172804499800002 ], [ -115.2585396, 36.172807199799998 ], [ -115.2585342, 36.172807199799998 ], [ -115.2585342, 36.172804499800002 ], [ -115.2585315, 36.172804499800002 ], [ -115.2585315, 36.172799099800002 ], [ -115.2585288, 36.172799099800002 ], [ -115.2585288, 36.172796399799999 ], [ -115.2584991, 36.172796399799999 ], [ -115.2584991, 36.172801799799998 ], [ -115.2585018, 36.172801799799998 ], [ -115.2585018, 36.172804499800002 ], [ -115.2585045, 36.172804499800002 ], [ -115.2585045, 36.172809899800001 ], [ -115.2584991, 36.172809899800001 ], [ -115.2584991, 36.172812599799997 ] ] ] } },
{ "type": "Feature", "properties": { "value": 255.0 }, "geometry": { "type": "Polygon", "coordinates": [ [ [ -115.2589608, 36.172820699799999 ], [ -115.2588636, 36.172820699799999 ], [ -115.2588636, 36.172817999799996 ], [ -115.2588582, 36.172817999799996 ], [ -115.2588582, 36.1728152998 ], [ -115.25885550000001, 36.1728152998 ], [ -115.25885550000001, 36.172812599799997 ], [ -115.2588528, 36.172812599799997 ], [ -115.2588528, 36.172809899800001 ], [ -115.2588474, 36.172809899800001 ], [ -115.2588474, 36.172807199799998 ], [ -115.2588393, 36.172807199799998 ], [ -115.2588393, 36.172809899800001 ], [ -115.2588312, 36.172809899800001 ], [ -115.2588312, 36.172812599799997 ], [ -115.2588096, 36.172812599799997 ], [ -115.2588096, 36.172809899800001 ], [ -115.25880690000001, 36.172809899800001 ], [ -115.25880690000001, 36.172785599800001 ], [ -115.2588096, 36.172785599800001 ], [ -115.2588096, 36.172780199800002 ], [ -115.2588123, 36.172780199800002 ], [ -115.2588123, 36.172777499799999 ], [ -115.258815, 36.172777499799999 ], [ -115.258815, 36.1727720998 ], [ -115.2588177, 36.1727720998 ], [ -115.2588177, 36.1727666998 ], [ -115.2588204, 36.1727666998 ], [ -115.2588204, 36.172763999799997 ], [ -115.2588231, 36.172763999799997 ], [ -115.2588231, 36.172761299800001 ], [ -115.2588258, 36.172761299800001 ], [ -115.2588258, 36.172758599799998 ], [ -115.2588285, 36.172758599799998 ], [ -115.2588285, 36.172761299800001 ], [ -115.2588339, 36.172761299800001 ], [ -115.2588339, 36.172763999799997 ], [ -115.2588366, 36.172763999799997 ], [ -115.2588366, 36.1727666998 ], [ -115.2588393, 36.1727666998 ], [ -115.2588393, 36.172769399799996 ], [ -115.2588447, 36.172769399799996 ], [ -115.2588447, 36.1727666998 ], [ -115.2588474, 36.1727666998 ], [ -115.2588474, 36.1727477998 ], [ -115.2588447, 36.1727477998 ], [ -115.2588447, 36.172742399800001 ], [ -115.2588474, 36.172742399800001 ], [ -115.2588474, 36.172736999800001 ], [ -115.2588501, 36.172736999800001 ], [ -115.2588501, 36.172734299799998 ], [ -115.2588528, 36.172734299799998 ], [ -115.2588528, 36.172731599800002 ], [ -115.25885550000001, 36.172731599800002 ], [ -115.25885550000001, 36.172728899799999 ], [ -115.2588582, 36.172728899799999 ], [ -115.2588582, 36.172726199799996 ], [ -115.2588609, 36.172726199799996 ], [ -115.2588609, 36.1727234998 ], [ -115.2588636, 36.1727234998 ], [ -115.2588636, 36.172720799799997 ], [ -115.258869, 36.172720799799997 ], [ -115.258869, 36.172718099800001 ], [ -115.2589014, 36.172718099800001 ], [ -115.2589014, 36.172715399799998 ], [ -115.2589149, 36.172715399799998 ], [ -115.2589149, 36.172712699800002 ], [ -115.258923, 36.172712699800002 ], [ -115.258923, 36.172709999799999 ], [ -115.2589257, 36.172709999799999 ], [ -115.2589257, 36.172707299800003 ], [ -115.2589284, 36.172707299800003 ], [ -115.2589284, 36.172704599799999 ], [ -115.2589311, 36.172704599799999 ], [ -115.2589311, 36.172691099799998 ], [ -115.2589338, 36.172691099799998 ], [ -115.2589338, 36.172688399800002 ], [ -115.258941900000011, 36.172688399800002 ], [ -115.258941900000011, 36.172685699799999 ], [ -115.2589635, 36.172685699799999 ], [ -115.2589635, 36.172688399800002 ], [ -115.2589689, 36.172688399800002 ], [ -115.2589689, 36.172691099799998 ], [ -115.25897160000001, 36.172691099799998 ], [ -115.25897160000001, 36.172709999799999 ], [ -115.2589689, 36.172709999799999 ], [ -115.2589689, 36.172739699799997 ], [ -115.2589662, 36.172739699799997 ], [ -115.2589662, 36.172750499800003 ], [ -115.2589635, 36.172750499800003 ], [ -115.2589635, 36.172817999799996 ], [ -115.2589608, 36.172817999799996 ], [ -115.2589608, 36.172820699799999 ] ] ] } },
{ "type": "Feature", "properties": { "value": 255.0 }, "geometry": { "type": "Polygon", "coordinates": [ [ [ -115.2594495, 36.1727666998 ], [ -115.2593847, 36.1727666998 ], [ -115.2593847, 36.172763999799997 ], [ -115.2593739, 36.172763999799997 ], [ -115.2593739, 36.1727666998 ], [ -115.2593307, 36.1727666998 ], [ -115.2593307, 36.172763999799997 ], [ -115.2593037, 36.172763999799997 ], [ -115.2593037, 36.172761299800001 ], [ -115.259301, 36.172761299800001 ], [ -115.259301, 36.172758599799998 ], [ -115.2592983, 36.172758599799998 ], [ -115.2592983, 36.172701899799996 ], [ -115.259301, 36.172701899799996 ], [ -115.259301, 36.172693799800001 ], [ -115.2593037, 36.172693799800001 ], [ -115.2593037, 36.172688399800002 ], [ -115.2593064, 36.172688399800002 ], [ -115.2593064, 36.172682999800003 ], [ -115.25930910000001, 36.172682999800003 ], [ -115.25930910000001, 36.172674899800001 ], [ -115.2593118, 36.172674899800001 ], [ -115.2593118, 36.1726316998 ], [ -115.2593145, 36.1726316998 ], [ -115.2593145, 36.172628999799997 ], [ -115.2593172, 36.172628999799997 ], [ -115.2593172, 36.172626299800001 ], [ -115.2593199, 36.172626299800001 ], [ -115.2593199, 36.172623599799998 ], [ -115.2593307, 36.172623599799998 ], [ -115.2593307, 36.172620899800002 ], [ -115.2593685, 36.172620899800002 ], [ -115.2593685, 36.172618199799999 ], [ -115.2594711, 36.172618199799999 ], [ -115.2594711, 36.172620899800002 ], [ -115.2594981, 36.172620899800002 ], [ -115.2594981, 36.172623599799998 ], [ -115.2595035, 36.172623599799998 ], [ -115.2595035, 36.172634399799996 ], [ -115.2595008, 36.172634399799996 ], [ -115.2595008, 36.172637099799999 ], [ -115.2594873, 36.172637099799999 ], [ -115.2594873, 36.172639799800002 ], [ -115.259481900000011, 36.172639799800002 ], [ -115.259481900000011, 36.172642499799998 ], [ -115.2594792, 36.172642499799998 ], [ -115.2594792, 36.172677599799997 ], [ -115.259481900000011, 36.172677599799997 ], [ -115.259481900000011, 36.172682999800003 ], [ -115.2595089, 36.172682999800003 ], [ -115.2595089, 36.172685699799999 ], [ -115.25951160000001, 36.172685699799999 ], [ -115.25951160000001, 36.172691099799998 ], [ -115.2595143, 36.172691099799998 ], [ -115.2595143, 36.172758599799998 ], [ -115.25951160000001, 36.172758599799998 ], [ -115.25951160000001, 36.172761299800001 ], [ -115.2594792, 36.172761299800001 ], [ -115.2594792, 36.172763999799997 ], [ -115.2594495, 36.172763999799997 ], [ -115.2594495, 36.1727666998 ] ] ] } },
{ "type": "Feature", "properties": { "value": 255.0 }, "geometry": { "type": "Polygon", "coordinates": [ [ [ -115.2589446, 36.172637099799999 ], [ -115.2588015, 36.172637099799999 ], [ -115.2588015, 36.172634399799996 ], [ -115.2587799, 36.172634399799996 ], [ -115.2587799, 36.1726316998 ], [ -115.2587637, 36.1726316998 ], [ -115.2587637, 36.172628999799997 ], [ -115.258761, 36.172628999799997 ], [ -115.258761, 36.172626299800001 ], [ -115.2587583, 36.172626299800001 ], [ -115.2587583, 36.172615499800003 ], [ -115.2587556, 36.172615499800003 ], [ -115.2587556, 36.172591199800003 ], [ -115.2587583, 36.172591199800003 ], [ -115.2587583, 36.172583099800001 ], [ -115.2587556, 36.172583099800001 ], [ -115.2587556, 36.172574999799998 ], [ -115.2587583, 36.172574999799998 ], [ -115.2587583, 36.1725641998 ], [ -115.258761, 36.1725641998 ], [ -115.258761, 36.172561499799997 ], [ -115.2587664, 36.172561499799997 ], [ -115.2587664, 36.172558799800001 ], [ -115.2587772, 36.172558799800001 ], [ -115.2587772, 36.172556099799998 ], [ -115.2587826, 36.172556099799998 ], [ -115.2587826, 36.172553399800002 ], [ -115.258788, 36.172553399800002 ], [ -115.258788, 36.172550699799999 ], [ -115.2587907, 36.172550699799999 ], [ -115.2587907, 36.172545299799999 ], [ -115.2587934, 36.172545299799999 ], [ -115.2587934, 36.1725209998 ], [ -115.2587961, 36.1725209998 ], [ -115.2587961, 36.172504799800002 ], [ -115.2587934, 36.172504799800002 ], [ -115.2587934, 36.172499399800003 ], [ -115.2587961, 36.172499399800003 ], [ -115.2587961, 36.172493999799997 ], [ -115.2587988, 36.172493999799997 ], [ -115.2587988, 36.172491299800001 ], [ -115.2589203, 36.172491299800001 ], [ -115.2589203, 36.172493999799997 ], [ -115.2589257, 36.172493999799997 ], [ -115.2589257, 36.1724966998 ], [ -115.2589284, 36.1724966998 ], [ -115.2589284, 36.172499399800003 ], [ -115.2589311, 36.172499399800003 ], [ -115.2589311, 36.172510199800001 ], [ -115.2589338, 36.172510199800001 ], [ -115.2589338, 36.172523699800003 ], [ -115.2589365, 36.172523699800003 ], [ -115.2589365, 36.172529099800002 ], [ -115.2589392, 36.172529099800002 ], [ -115.2589392, 36.172531799799998 ], [ -115.258941900000011, 36.172531799799998 ], [ -115.258941900000011, 36.172537199799997 ], [ -115.2589446, 36.172537199799997 ], [ -115.2589446, 36.1725398998 ], [ -115.2589473, 36.1725398998 ], [ -115.2589473, 36.172547999800003 ], [ -115.25895, 36.172547999800003 ], [ -115.25895, 36.172553399800002 ], [ -115.2589527, 36.172553399800002 ], [ -115.2589527, 36.172556099799998 ], [ -115.2589554, 36.172556099799998 ], [ -115.2589554, 36.172569599799999 ], [ -115.2589581, 36.172569599799999 ], [ -115.2589581, 36.172574999799998 ], [ -115.2589608, 36.172574999799998 ], [ -115.2589608, 36.172583099800001 ], [ -115.2589635, 36.172583099800001 ], [ -115.2589635, 36.172591199800003 ], [ -115.2589662, 36.172591199800003 ], [ -115.2589662, 36.172599299799998 ], [ -115.2589689, 36.172599299799998 ], [ -115.2589689, 36.172618199799999 ], [ -115.2589662, 36.172618199799999 ], [ -115.2589662, 36.172623599799998 ], [ -115.2589635, 36.172623599799998 ], [ -115.2589635, 36.172628999799997 ], [ -115.2589608, 36.172628999799997 ], [ -115.2589608, 36.1726316998 ], [ -115.2589554, 36.1726316998 ], [ -115.2589554, 36.172634399799996 ], [ -115.2589446, 36.172634399799996 ], [ -115.2589446, 36.172637099799999 ] ] ] } },
{ "type": "Feature", "properties": { "value": 255.0 }, "geometry": { "type": "Polygon", "coordinates": [ [ [ -115.2583884, 36.1726802998 ], [ -115.2583776, 36.1726802998 ], [ -115.2583776, 36.172483199799998 ], [ -115.258383, 36.172483199799998 ], [ -115.258383, 36.172480499800002 ], [ -115.2583857, 36.172480499800002 ], [ -115.2583857, 36.172477799799999 ], [ -115.2583884, 36.172477799799999 ], [ -115.2583884, 36.172475099800003 ], [ -115.2583911, 36.172475099800003 ], [ -115.2583911, 36.1724723998 ], [ -115.2583965, 36.1724723998 ], [ -115.2583965, 36.172469699799997 ], [ -115.2583992, 36.172469699799997 ], [ -115.2583992, 36.172466999800001 ], [ -115.25840190000001, 36.172466999800001 ], [ -115.25840190000001, 36.172464299799998 ], [ -115.2584073, 36.172464299799998 ], [ -115.2584073, 36.172461599800002 ], [ -115.25841, 36.172461599800002 ], [ -115.25841, 36.172458899799999 ], [ -115.2584154, 36.172458899799999 ], [ -115.2584154, 36.172456199800003 ], [ -115.2584316, 36.172456199800003 ], [ -115.2584316, 36.172458899799999 ], [ -115.2584424, 36.172458899799999 ], [ -115.2584424, 36.172461599800002 ], [ -115.2584478, 36.172461599800002 ], [ -115.2584478, 36.172464299799998 ], [ -115.2584505, 36.172464299799998 ], [ -115.2584505, 36.172466999800001 ], [ -115.2584532, 36.172466999800001 ], [ -115.2584532, 36.172469699799997 ], [ -115.2584559, 36.172469699799997 ], [ -115.2584559, 36.1724723998 ], [ -115.2584613, 36.1724723998 ], [ -115.2584613, 36.172475099800003 ], [ -115.2584667, 36.172475099800003 ], [ -115.2584667, 36.172477799799999 ], [ -115.2584748, 36.172477799799999 ], [ -115.2584748, 36.172480499800002 ], [ -115.2584802, 36.172480499800002 ], [ -115.2584802, 36.172483199799998 ], [ -115.2584883, 36.172483199799998 ], [ -115.2584883, 36.172485899800002 ], [ -115.2584964, 36.172485899800002 ], [ -115.2584964, 36.172488599799998 ], [ -115.2585072, 36.172488599799998 ], [ -115.2585072, 36.172491299800001 ], [ -115.2585126, 36.172491299800001 ], [ -115.2585126, 36.172493999799997 ], [ -115.2585234, 36.172493999799997 ], [ -115.2585234, 36.1724966998 ], [ -115.2585342, 36.1724966998 ], [ -115.2585342, 36.172499399800003 ], [ -115.258545, 36.172499399800003 ], [ -115.258545, 36.172502099799999 ], [ -115.2585477, 36.172502099799999 ], [ -115.2585477, 36.172504799800002 ], [ -115.2585504, 36.172504799800002 ], [ -115.2585504, 36.172512899799997 ], [ -115.2585531, 36.172512899799997 ], [ -115.2585531, 36.172545299799999 ], [ -115.2585504, 36.172545299799999 ], [ -115.2585504, 36.172553399800002 ], [ -115.2585477, 36.172553399800002 ], [ -115.2585477, 36.172558799800001 ], [ -115.258545, 36.172558799800001 ], [ -115.258545, 36.1725641998 ], [ -115.2585423, 36.1725641998 ], [ -115.2585423, 36.1725884998 ], [ -115.2585396, 36.1725884998 ], [ -115.2585396, 36.172593899799999 ], [ -115.25853690000001, 36.172593899799999 ], [ -115.25853690000001, 36.172596599800002 ], [ -115.2585342, 36.172596599800002 ], [ -115.2585342, 36.1726127998 ], [ -115.25853690000001, 36.1726127998 ], [ -115.25853690000001, 36.172620899800002 ], [ -115.2585342, 36.172620899800002 ], [ -115.2585342, 36.172623599799998 ], [ -115.2585315, 36.172623599799998 ], [ -115.2585315, 36.172626299800001 ], [ -115.2585288, 36.172626299800001 ], [ -115.2585288, 36.172628999799997 ], [ -115.2585261, 36.172628999799997 ], [ -115.2585261, 36.1726316998 ], [ -115.2585234, 36.1726316998 ], [ -115.2585234, 36.172634399799996 ], [ -115.2585207, 36.172634399799996 ], [ -115.2585207, 36.172637099799999 ], [ -115.258518, 36.172637099799999 ], [ -115.258518, 36.172639799800002 ], [ -115.2585153, 36.172639799800002 ], [ -115.2585153, 36.172642499799998 ], [ -115.2585126, 36.172642499799998 ], [ -115.2585126, 36.172645199800002 ], [ -115.2585099, 36.172645199800002 ], [ -115.2585099, 36.172647899799998 ], [ -115.2585072, 36.172647899799998 ], [ -115.2585072, 36.172650599800001 ], [ -115.2585018, 36.172650599800001 ], [ -115.2585018, 36.172653299799997 ], [ -115.2584991, 36.172653299799997 ], [ -115.2584991, 36.1726559998 ], [ -115.258491, 36.1726559998 ], [ -115.258491, 36.172658699800003 ], [ -115.2584775, 36.172658699800003 ], [ -115.2584775, 36.1726559998 ], [ -115.2584721, 36.1726559998 ], [ -115.2584721, 36.172653299799997 ], [ -115.2584667, 36.172653299799997 ], [ -115.2584667, 36.172650599800001 ], [ -115.2584613, 36.172650599800001 ], [ -115.2584613, 36.172647899799998 ], [ -115.2584532, 36.172647899799998 ], [ -115.2584532, 36.172645199800002 ], [ -115.2584451, 36.172645199800002 ], [ -115.2584451, 36.172647899799998 ], [ -115.258437, 36.172647899799998 ], [ -115.258437, 36.172650599800001 ], [ -115.2584262, 36.172650599800001 ], [ -115.2584262, 36.172653299799997 ], [ -115.2584073, 36.172653299799997 ], [ -115.2584073, 36.172669499800001 ], [ -115.2583938, 36.172669499800001 ], [ -115.2583938, 36.172672199799997 ], [ -115.2583911, 36.172672199799997 ], [ -115.2583911, 36.172674899800001 ], [ -115.2583884, 36.172674899800001 ], [ -115.2583884, 36.1726802998 ] ] ] } },
{ "type": "Feature", "properties": { "value": 255.0 }, "geometry": { "type": "Polygon", "coordinates": [ [ [ -115.2593307, 36.172583099800001 ], [ -115.2593118, 36.172583099800001 ], [ -115.2593118, 36.172580399799998 ], [ -115.25930910000001, 36.172580399799998 ], [ -115.25930910000001, 36.172577699800001 ], [ -115.2593064, 36.172577699800001 ], [ -115.2593064, 36.172572299800002 ], [ -115.2593037, 36.172572299800002 ], [ -115.2593037, 36.172556099799998 ], [ -115.259301, 36.172556099799998 ], [ -115.259301, 36.172518299799997 ], [ -115.2593037, 36.172518299799997 ], [ -115.2593037, 36.1724966998 ], [ -115.2593064, 36.1724966998 ], [ -115.2593064, 36.172493999799997 ], [ -115.25930910000001, 36.172493999799997 ], [ -115.25930910000001, 36.172491299800001 ], [ -115.2593172, 36.172491299800001 ], [ -115.2593172, 36.172488599799998 ], [ -115.259328, 36.172488599799998 ], [ -115.259328, 36.172485899800002 ], [ -115.2593334, 36.172485899800002 ], [ -115.2593334, 36.172483199799998 ], [ -115.2593361, 36.172483199799998 ], [ -115.2593361, 36.172469699799997 ], [ -115.2593334, 36.172469699799997 ], [ -115.2593334, 36.172434599799999 ], [ -115.2593361, 36.172434599799999 ], [ -115.2593361, 36.172431899800003 ], [ -115.2593442, 36.172431899800003 ], [ -115.2593442, 36.1724291998 ], [ -115.2593847, 36.1724291998 ], [ -115.2593847, 36.172431899800003 ], [ -115.2594738, 36.172431899800003 ], [ -115.2594738, 36.172434599799999 ], [ -115.2594792, 36.172434599799999 ], [ -115.2594792, 36.172437299800002 ], [ -115.259481900000011, 36.172437299800002 ], [ -115.259481900000011, 36.172442699800001 ], [ -115.2594846, 36.172442699800001 ], [ -115.2594846, 36.172456199800003 ], [ -115.259481900000011, 36.172456199800003 ], [ -115.259481900000011, 36.172488599799998 ], [ -115.2594846, 36.172488599799998 ], [ -115.2594846, 36.172504799800002 ], [ -115.2594873, 36.172504799800002 ], [ -115.2594873, 36.172518299799997 ], [ -115.25949, 36.172518299799997 ], [ -115.25949, 36.172523699800003 ], [ -115.25949270000001, 36.172523699800003 ], [ -115.25949270000001, 36.172526399799999 ], [ -115.2594954, 36.172526399799999 ], [ -115.2594954, 36.172531799799998 ], [ -115.2594981, 36.172531799799998 ], [ -115.2594981, 36.172534499800001 ], [ -115.2595008, 36.172534499800001 ], [ -115.2595008, 36.172542599800003 ], [ -115.2595035, 36.172542599800003 ], [ -115.2595035, 36.172545299799999 ], [ -115.2595062, 36.172545299799999 ], [ -115.2595062, 36.172569599799999 ], [ -115.2595008, 36.172569599799999 ], [ -115.2595008, 36.172572299800002 ], [ -115.2594738, 36.172572299800002 ], [ -115.2594738, 36.172574999799998 ], [ -115.2594036, 36.172574999799998 ], [ -115.2594036, 36.172577699800001 ], [ -115.25937660000001, 36.172577699800001 ], [ -115.25937660000001, 36.172580399799998 ], [ -115.2593307, 36.172580399799998 ], [ -115.2593307, 36.172583099800001 ] ] ] } },
{ "type": "Feature", "properties": { "value": 255.0 }, "geometry": { "type": "Polygon", "coordinates": [ [ [ -115.2589041, 36.172461599800002 ], [ -115.2588042, 36.172461599800002 ], [ -115.2588042, 36.172458899799999 ], [ -115.2588015, 36.172458899799999 ], [ -115.2588015, 36.172442699800001 ], [ -115.2587988, 36.172442699800001 ], [ -115.2587988, 36.1724291998 ], [ -115.2587961, 36.1724291998 ], [ -115.2587961, 36.172423799800001 ], [ -115.2587934, 36.172423799800001 ], [ -115.2587934, 36.172415699799998 ], [ -115.2587907, 36.172415699799998 ], [ -115.2587907, 36.1724048998 ], [ -115.258788, 36.1724048998 ], [ -115.258788, 36.172356299800001 ], [ -115.2587853, 36.172356299800001 ], [ -115.2587853, 36.172340099800003 ], [ -115.2587826, 36.172340099800003 ], [ -115.2587826, 36.172326599800002 ], [ -115.2587853, 36.172326599800002 ], [ -115.2587853, 36.172323899799999 ], [ -115.258788, 36.172323899799999 ], [ -115.258788, 36.172321199800002 ], [ -115.2587907, 36.172321199800002 ], [ -115.2587907, 36.172318499799999 ], [ -115.2588015, 36.172318499799999 ], [ -115.2588015, 36.172315799800003 ], [ -115.2589527, 36.172315799800003 ], [ -115.2589527, 36.1723130998 ], [ -115.2589608, 36.1723130998 ], [ -115.2589608, 36.172315799800003 ], [ -115.2589689, 36.172315799800003 ], [ -115.2589689, 36.172321199800002 ], [ -115.25897160000001, 36.172321199800002 ], [ -115.25897160000001, 36.172334699800004 ], [ -115.2589743, 36.172334699800004 ], [ -115.2589743, 36.1723805998 ], [ -115.25897160000001, 36.1723805998 ], [ -115.25897160000001, 36.172383299800003 ], [ -115.2589149, 36.172383299800003 ], [ -115.2589149, 36.172385999799999 ], [ -115.2589122, 36.172385999799999 ], [ -115.2589122, 36.172388699800003 ], [ -115.2589095, 36.172388699800003 ], [ -115.2589095, 36.172456199800003 ], [ -115.2589068, 36.172456199800003 ], [ -115.2589068, 36.172458899799999 ], [ -115.2589041, 36.172458899799999 ], [ -115.2589041, 36.172461599800002 ] ] ] } },
{ "type": "Feature", "properties": { "value": 255.0 }, "geometry": { "type": "Polygon", "coordinates": [ [ [ -115.2593982, 36.1724048998 ], [ -115.2593064, 36.1724048998 ], [ -115.2593064, 36.172399499800001 ], [ -115.2593037, 36.172399499800001 ], [ -115.2593037, 36.172353599799997 ], [ -115.2593064, 36.172353599799997 ], [ -115.2593064, 36.172345499800002 ], [ -115.25930910000001, 36.172345499800002 ], [ -115.25930910000001, 36.172340099800003 ], [ -115.2593118, 36.172340099800003 ], [ -115.2593118, 36.1723373998 ], [ -115.2593145, 36.1723373998 ], [ -115.2593145, 36.172331999800001 ], [ -115.2593172, 36.172331999800001 ], [ -115.2593172, 36.172304999799998 ], [ -115.2593199, 36.172304999799998 ], [ -115.2593199, 36.172291499800004 ], [ -115.2593172, 36.172291499800004 ], [ -115.2593172, 36.1722698998 ], [ -115.2593199, 36.1722698998 ], [ -115.2593199, 36.172264499800001 ], [ -115.2593226, 36.172264499800001 ], [ -115.2593226, 36.172259099800002 ], [ -115.259328, 36.172259099800002 ], [ -115.259328, 36.172256399799998 ], [ -115.2594738, 36.172256399799998 ], [ -115.2594738, 36.172259099800002 ], [ -115.259481900000011, 36.172259099800002 ], [ -115.259481900000011, 36.172261799799998 ], [ -115.2594981, 36.172261799799998 ], [ -115.2594981, 36.172264499800001 ], [ -115.2595089, 36.172264499800001 ], [ -115.2595089, 36.172286099799997 ], [ -115.25949, 36.172286099799997 ], [ -115.25949, 36.1722887998 ], [ -115.2594846, 36.1722887998 ], [ -115.2594846, 36.172291499800004 ], [ -115.259481900000011, 36.172291499800004 ], [ -115.259481900000011, 36.172321199800002 ], [ -115.2594792, 36.172321199800002 ], [ -115.2594792, 36.172329299799998 ], [ -115.2594765, 36.172329299799998 ], [ -115.2594765, 36.172331999800001 ], [ -115.2594738, 36.172331999800001 ], [ -115.2594738, 36.172364399800003 ], [ -115.2594765, 36.172364399800003 ], [ -115.2594765, 36.172388699800003 ], [ -115.2594738, 36.172388699800003 ], [ -115.2594738, 36.172399499800001 ], [ -115.2594711, 36.172399499800001 ], [ -115.2594711, 36.172402199799997 ], [ -115.2593982, 36.172402199799997 ], [ -115.2593982, 36.1724048998 ] ] ] } },
{ "type": "Feature", "properties": { "value": 255.0 }, "geometry": { "type": "Polygon", "coordinates": [ [ [ -115.2589689, 36.172277999800002 ], [ -115.2589581, 36.172277999800002 ], [ -115.2589581, 36.172275299799999 ], [ -115.258941900000011, 36.172275299799999 ], [ -115.258941900000011, 36.172277999800002 ], [ -115.2589284, 36.172277999800002 ], [ -115.2589284, 36.172275299799999 ], [ -115.2588717, 36.172275299799999 ], [ -115.2588717, 36.172277999800002 ], [ -115.2588447, 36.172277999800002 ], [ -115.2588447, 36.172275299799999 ], [ -115.2588366, 36.172275299799999 ], [ -115.2588366, 36.172272599800003 ], [ -115.2588339, 36.172272599800003 ], [ -115.2588339, 36.172267199800004 ], [ -115.2588312, 36.172267199800004 ], [ -115.2588312, 36.172248299800003 ], [ -115.2588339, 36.172248299800003 ], [ -115.2588339, 36.172242899800004 ], [ -115.2588312, 36.172242899800004 ], [ -115.2588312, 36.1722023998 ], [ -115.2588285, 36.1722023998 ], [ -115.2588285, 36.172199699800004 ], [ -115.25880690000001, 36.172199699800004 ], [ -115.25880690000001, 36.172196999800001 ], [ -115.2587988, 36.172196999800001 ], [ -115.2587988, 36.172194299799997 ], [ -115.2587961, 36.172194299799997 ], [ -115.2587961, 36.172172699800001 ], [ -115.2589527, 36.172172699800001 ], [ -115.2589527, 36.172207799799999 ], [ -115.2589554, 36.172207799799999 ], [ -115.2589554, 36.172213199799998 ], [ -115.2589581, 36.172213199799998 ], [ -115.2589581, 36.172215899800001 ], [ -115.2589608, 36.172215899800001 ], [ -115.2589608, 36.172218599799997 ], [ -115.2589662, 36.172218599799997 ], [ -115.2589662, 36.1722212998 ], [ -115.2589689, 36.1722212998 ], [ -115.2589689, 36.172223999800003 ], [ -115.25897160000001, 36.172223999800003 ], [ -115.25897160000001, 36.172242899800004 ], [ -115.2589743, 36.172242899800004 ], [ -115.2589743, 36.172272599800003 ], [ -115.25897160000001, 36.172272599800003 ], [ -115.25897160000001, 36.172275299799999 ], [ -115.2589689, 36.172275299799999 ], [ -115.2589689, 36.172277999800002 ] ] ] } },
{ "type": "Feature", "properties": { "value": 255.0 }, "geometry": { "type": "Polygon", "coordinates": [ [ [ -115.2594306, 36.172229399800003 ], [ -115.259395500000011, 36.172229399800003 ], [ -115.259395500000011, 36.172226699799999 ], [ -115.2593442, 36.172226699799999 ], [ -115.2593442, 36.172223999800003 ], [ -115.2593388, 36.172223999800003 ], [ -115.2593388, 36.1722212998 ], [ -115.2593361, 36.1722212998 ], [ -115.2593361, 36.172218599799997 ], [ -115.2593334, 36.172218599799997 ], [ -115.2593334, 36.172205099800003 ], [ -115.2593307, 36.172205099800003 ], [ -115.2593307, 36.172180799800003 ], [ -115.2593334, 36.172180799800003 ], [ -115.2593334, 36.172172699800001 ], [ -115.2594792, 36.172172699800001 ], [ -115.2594792, 36.172218599799997 ], [ -115.2594765, 36.172218599799997 ], [ -115.2594765, 36.172223999800003 ], [ -115.2594711, 36.172223999800003 ], [ -115.2594711, 36.172226699799999 ], [ -115.2594306, 36.172226699799999 ], [ -115.2594306, 36.172229399800003 ] ] ] } },
{ "type": "Feature", "properties": { "value": 255.0 }, "geometry": { "type": "Polygon", "coordinates": [ [ [ -115.2584667, 36.172299599799999 ], [ -115.2584532, 36.172299599799999 ], [ -115.2584532, 36.172296899800003 ], [ -115.2584451, 36.172296899800003 ], [ -115.2584451, 36.1722941998 ], [ -115.2584397, 36.1722941998 ], [ -115.2584397, 36.172291499800004 ], [ -115.2584343, 36.172291499800004 ], [ -115.2584343, 36.1722887998 ], [ -115.2584289, 36.1722887998 ], [ -115.2584289, 36.172286099799997 ], [ -115.2584235, 36.172286099799997 ], [ -115.2584235, 36.172283399800001 ], [ -115.2584208, 36.172283399800001 ], [ -115.2584208, 36.172280699799998 ], [ -115.2584154, 36.172280699799998 ], [ -115.2584154, 36.172277999800002 ], [ -115.2584127, 36.172277999800002 ], [ -115.2584127, 36.172275299799999 ], [ -115.2584073, 36.172275299799999 ], [ -115.2584073, 36.172272599800003 ], [ -115.2584046, 36.172272599800003 ], [ -115.2584046, 36.1722698998 ], [ -115.2583992, 36.1722698998 ], [ -115.2583992, 36.172267199800004 ], [ -115.2583938, 36.172267199800004 ], [ -115.2583938, 36.172264499800001 ], [ -115.2583884, 36.172264499800001 ], [ -115.2583884, 36.172261799799998 ], [ -115.2583857, 36.172261799799998 ], [ -115.2583857, 36.172259099800002 ], [ -115.258383, 36.172259099800002 ], [ -115.258383, 36.172256399799998 ], [ -115.2583803, 36.172256399799998 ], [ -115.2583803, 36.172253699800002 ], [ -115.2583776, 36.172253699800002 ], [ -115.2583776, 36.1722455998 ], [ -115.2583803, 36.1722455998 ], [ -115.2583803, 36.172240199800001 ], [ -115.258383, 36.172240199800001 ], [ -115.258383, 36.172232099799999 ], [ -115.2583857, 36.172232099799999 ], [ -115.2583857, 36.1722023998 ], [ -115.2583884, 36.1722023998 ], [ -115.2583884, 36.172186199800002 ], [ -115.2583857, 36.172186199800002 ], [ -115.2583857, 36.172180799800003 ], [ -115.258383, 36.172180799800003 ], [ -115.258383, 36.1721780998 ], [ -115.2583776, 36.1721780998 ], [ -115.2583776, 36.172172699800001 ], [ -115.2585531, 36.172172699800001 ], [ -115.2585531, 36.1721780998 ], [ -115.2585558, 36.1721780998 ], [ -115.2585558, 36.172180799800003 ], [ -115.2585585, 36.172180799800003 ], [ -115.2585585, 36.172183499799999 ], [ -115.2585612, 36.172183499799999 ], [ -115.2585612, 36.172186199800002 ], [ -115.2585639, 36.172186199800002 ], [ -115.2585639, 36.172191599800001 ], [ -115.2585666, 36.172191599800001 ], [ -115.2585666, 36.172210499800002 ], [ -115.2585639, 36.172210499800002 ], [ -115.2585639, 36.172215899800001 ], [ -115.2585612, 36.172215899800001 ], [ -115.2585612, 36.172218599799997 ], [ -115.2585585, 36.172218599799997 ], [ -115.2585585, 36.1722212998 ], [ -115.2585558, 36.1722212998 ], [ -115.2585558, 36.172223999800003 ], [ -115.2585531, 36.172223999800003 ], [ -115.2585531, 36.172226699799999 ], [ -115.2585504, 36.172226699799999 ], [ -115.2585504, 36.172229399800003 ], [ -115.2585477, 36.172229399800003 ], [ -115.2585477, 36.172232099799999 ], [ -115.258545, 36.172232099799999 ], [ -115.258545, 36.172234799800002 ], [ -115.2585423, 36.172234799800002 ], [ -115.2585423, 36.172237499799998 ], [ -115.2585396, 36.172237499799998 ], [ -115.2585396, 36.172259099800002 ], [ -115.258518, 36.172259099800002 ], [ -115.258518, 36.172261799799998 ], [ -115.2585099, 36.172261799799998 ], [ -115.2585099, 36.172264499800001 ], [ -115.2585045, 36.172264499800001 ], [ -115.2585045, 36.172267199800004 ], [ -115.2585018, 36.172267199800004 ], [ -115.2585018, 36.1722698998 ], [ -115.2584991, 36.1722698998 ], [ -115.2584991, 36.172272599800003 ], [ -115.2584964, 36.172272599800003 ], [ -115.2584964, 36.172275299799999 ], [ -115.2584937, 36.172275299799999 ], [ -115.2584937, 36.172277999800002 ], [ -115.2584883, 36.172277999800002 ], [ -115.2584883, 36.172280699799998 ], [ -115.2584856, 36.172280699799998 ], [ -115.2584856, 36.172283399800001 ], [ -115.2584829, 36.172283399800001 ], [ -115.2584829, 36.172286099799997 ], [ -115.2584802, 36.172286099799997 ], [ -115.2584802, 36.1722887998 ], [ -115.2584775, 36.1722887998 ], [ -115.2584775, 36.172291499800004 ], [ -115.2584748, 36.172291499800004 ], [ -115.2584748, 36.1722941998 ], [ -115.2584721, 36.1722941998 ], [ -115.2584721, 36.172296899800003 ], [ -115.2584667, 36.172296899800003 ], [ -115.2584667, 36.172299599799999 ] ] ] } }
]
}
