{
"type": "FeatureCollection",
"crs": { "type": "name", "properties": { "name": "urn:ogc:def:crs:OGC:1.3:CRS84" } },
"features": [
{ "type": "Feature", "properties": { "value": 255.0 }, "geometry": { "type": "Polygon", "coordinates": [ [ [ -115.1934588, 36.2405475 ], [ -115.1934507, 36.2405475 ], [ -115.1934507, 36.2405448 ], [ -115.193448, 36.2405448 ], [ -115.193448, 36.2405394 ], [ -115.1934453, 36.2405394 ], [ -115.1934453, 36.2405367 ], [ -115.1934426, 36.2405367 ], [ -115.1934426, 36.2403909 ], [ -115.1934588, 36.2403909 ], [ -115.1934588, 36.2403936 ], [ -115.1934642, 36.2403936 ], [ -115.1934642, 36.2403963 ], [ -115.1934696, 36.2403963 ], [ -115.1934696, 36.240399 ], [ -115.193475, 36.240399 ], [ -115.193475, 36.2404017 ], [ -115.1934831, 36.2404017 ], [ -115.1934831, 36.2404044 ], [ -115.1935047, 36.2404044 ], [ -115.1935047, 36.2404071 ], [ -115.1935074, 36.2404071 ], [ -115.1935074, 36.2404125 ], [ -115.1935101, 36.2404125 ], [ -115.1935101, 36.2404233 ], [ -115.1935128, 36.2404233 ], [ -115.1935128, 36.2404557 ], [ -115.1935155, 36.2404557 ], [ -115.1935155, 36.2405367 ], [ -115.1935101, 36.2405367 ], [ -115.1935101, 36.2405394 ], [ -115.1934966, 36.2405394 ], [ -115.1934966, 36.2405421 ], [ -115.1934723, 36.2405421 ], [ -115.1934723, 36.2405448 ], [ -115.1934588, 36.2405448 ], [ -115.1934588, 36.2405475 ] ] ] } },
{ "type": "Feature", "properties": { "value": 255.0 }, "geometry": { "type": "Polygon", "coordinates": [ [ [ -115.1938449, 36.2405718 ], [ -115.1938368, 36.2405718 ], [ -115.1938368, 36.2405691 ], [ -115.1938314, 36.2405691 ], [ -115.1938314, 36.240561 ], [ -115.1938287, 36.240561 ], [ -115.1938287, 36.2405502 ], [ -115.193826, 36.2405502 ], [ -115.193826, 36.2405286 ], [ -115.1938233, 36.2405286 ], [ -115.1938233, 36.2405232 ], [ -115.193826, 36.2405232 ], [ -115.193826, 36.2404584 ], [ -115.1938233, 36.2404584 ], [ -115.1938233, 36.240426 ], [ -115.1938206, 36.240426 ], [ -115.1938206, 36.2404125 ], [ -115.1938233, 36.2404125 ], [ -115.1938233, 36.2404098 ], [ -115.193826, 36.2404098 ], [ -115.193826, 36.2404071 ], [ -115.1938314, 36.2404071 ], [ -115.1938314, 36.2404044 ], [ -115.1938476, 36.2404044 ], [ -115.1938476, 36.2404071 ], [ -115.1938854, 36.2404071 ], [ -115.1938854, 36.2404098 ], [ -115.1939475, 36.2404098 ], [ -115.1939475, 36.2404071 ], [ -115.1939583, 36.2404071 ], [ -115.1939583, 36.2404044 ], [ -115.1939664, 36.2404044 ], [ -115.1939664, 36.2404017 ], [ -115.1939799, 36.2404017 ], [ -115.1939799, 36.2404044 ], [ -115.194015, 36.2404044 ], [ -115.194015, 36.2404071 ], [ -115.1940231, 36.2404071 ], [ -115.1940231, 36.2404098 ], [ -115.1940258, 36.2404098 ], [ -115.1940258, 36.2404152 ], [ -115.1940285, 36.2404152 ], [ -115.1940285, 36.2404206 ], [ -115.1940312, 36.2404206 ], [ -115.1940312, 36.2404395 ], [ -115.1940339, 36.2404395 ], [ -115.1940339, 36.240453 ], [ -115.1940312, 36.240453 ], [ -115.1940312, 36.2404557 ], [ -115.1940285, 36.2404557 ], [ -115.1940285, 36.2404584 ], [ -115.1940096, 36.2404584 ], [ -115.1940096, 36.2404611 ], [ -115.1940069, 36.2404611 ], [ -115.1940069, 36.2405205 ], [ -115.1940096, 36.2405205 ], [ -115.1940096, 36.2405367 ], [ -115.1940069, 36.2405367 ], [ -115.1940069, 36.2405421 ], [ -115.1940015, 36.2405421 ], [ -115.1940015, 36.2405448 ], [ -115.1939934, 36.2405448 ], [ -115.1939934, 36.2405502 ], [ -115.1939907, 36.2405502 ], [ -115.1939907, 36.2405583 ], [ -115.193988, 36.2405583 ], [ -115.193988, 36.240561 ], [ -115.193934, 36.240561 ], [ -115.193934, 36.2405637 ], [ -115.1939259, 36.2405637 ], [ -115.1939259, 36.2405664 ], [ -115.1939124, 36.2405664 ], [ -115.1939124, 36.2405691 ], [ -115.1938449, 36.2405691 ], [ -115.1938449, 36.2405718 ] ] ] } },
{ "type": "Feature", "properties": { "value": 255.0 }, "geometry": { "type": "Polygon", "coordinates": [ [ [ -115.1935884, 36.2405826 ], [ -115.1935803, 36.2405826 ], [ -115.1935803, 36.2405799 ], [ -115.1935749, 36.2405799 ], [ -115.1935749, 36.2405772 ], [ -115.1935722, 36.2405772 ], [ -115.1935722, 36.2405718 ], [ -115.1935695, 36.2405718 ], [ -115.1935695, 36.2405691 ], [ -115.1935668, 36.2405691 ], [ -115.1935668, 36.2405664 ], [ -115.1935533, 36.2405664 ], [ -115.1935533, 36.2405637 ], [ -115.1935479, 36.2405637 ], [ -115.1935479, 36.240561 ], [ -115.1935452, 36.240561 ], [ -115.1935452, 36.2405556 ], [ -115.1935425, 36.2405556 ], [ -115.1935425, 36.2405475 ], [ -115.1935398, 36.2405475 ], [ -115.1935398, 36.2405394 ], [ -115.1935371, 36.2405394 ], [ -115.1935371, 36.2405043 ], [ -115.1935344, 36.2405043 ], [ -115.1935344, 36.2404638 ], [ -115.1935371, 36.2404638 ], [ -115.1935371, 36.2404584 ], [ -115.1935398, 36.2404584 ], [ -115.1935398, 36.2404341 ], [ -115.1935425, 36.2404341 ], [ -115.1935425, 36.2404287 ], [ -115.1935506, 36.2404287 ], [ -115.1935506, 36.240426 ], [ -115.1935614, 36.240426 ], [ -115.1935614, 36.2404233 ], [ -115.1935641, 36.2404233 ], [ -115.1935641, 36.2404044 ], [ -115.1935668, 36.2404044 ], [ -115.1935668, 36.2404017 ], [ -115.1935695, 36.2404017 ], [ -115.1935695, 36.240399 ], [ -115.1935965, 36.240399 ], [ -115.1935965, 36.2403963 ], [ -115.19361, 36.2403963 ], [ -115.19361, 36.240399 ], [ -115.1936181, 36.240399 ], [ -115.1936181, 36.2403963 ], [ -115.1936316, 36.2403963 ], [ -115.1936316, 36.2403936 ], [ -115.1936505, 36.2403936 ], [ -115.1936505, 36.2403909 ], [ -115.1936937, 36.2403909 ], [ -115.1936937, 36.2403936 ], [ -115.1937099, 36.2403936 ], [ -115.1937099, 36.240399 ], [ -115.1937126, 36.240399 ], [ -115.1937126, 36.2404098 ], [ -115.1937153, 36.2404098 ], [ -115.1937153, 36.2404152 ], [ -115.193718, 36.2404152 ], [ -115.193718, 36.2404179 ], [ -115.1937207, 36.2404179 ], [ -115.1937207, 36.2404206 ], [ -115.1937234, 36.2404206 ], [ -115.1937234, 36.240426 ], [ -115.1937261, 36.240426 ], [ -115.1937261, 36.2404287 ], [ -115.1937234, 36.2404287 ], [ -115.1937234, 36.2404908 ], [ -115.1937261, 36.2404908 ], [ -115.1937261, 36.2405151 ], [ -115.1937288, 36.2405151 ], [ -115.1937288, 36.2405637 ], [ -115.1937315, 36.2405637 ], [ -115.1937315, 36.2405718 ], [ -115.1937288, 36.2405718 ], [ -115.1937288, 36.2405772 ], [ -115.1937261, 36.2405772 ], [ -115.1937261, 36.2405799 ], [ -115.1937018, 36.2405799 ], [ -115.1937018, 36.2405772 ], [ -115.1936694, 36.2405772 ], [ -115.1936694, 36.2405799 ], [ -115.1936451, 36.2405799 ], [ -115.1936451, 36.2405772 ], [ -115.19361, 36.2405772 ], [ -115.19361, 36.2405799 ], [ -115.1935884, 36.2405799 ], [ -115.1935884, 36.2405826 ] ] ] } },
{ "type": "Feature", "properties": { "value": 255.0 }, "geometry": { "type": "Polygon", "coordinates": [ [ [ -115.1941797, 36.2405394 ], [ -115.1941392, 36.2405394 ], [ -115.1941392, 36.2405367 ], [ -115.1941338, 36.2405367 ], [ -115.1941338, 36.240534 ], [ -115.1941311, 36.240534 ], [ -115.1941311, 36.2405313 ], [ -115.1941284, 36.2405313 ], [ -115.1941284, 36.2405259 ], [ -115.1941257, 36.2405259 ], [ -115.1941257, 36.2405232 ], [ -115.1941176, 36.2405232 ], [ -115.1941176, 36.2405205 ], [ -115.1941014, 36.2405205 ], [ -115.1941014, 36.2405178 ], [ -115.1940663, 36.2405178 ], [ -115.1940663, 36.2405151 ], [ -115.1940636, 36.2405151 ], [ -115.1940636, 36.2405097 ], [ -115.1940609, 36.2405097 ], [ -115.1940609, 36.2404935 ], [ -115.1940582, 36.2404935 ], [ -115.1940582, 36.2404368 ], [ -115.1940555, 36.2404368 ], [ -115.1940555, 36.2404044 ], [ -115.1940582, 36.2404044 ], [ -115.1940582, 36.2403774 ], [ -115.1940609, 36.2403774 ], [ -115.1940609, 36.2403747 ], [ -115.1940663, 36.2403747 ], [ -115.1940663, 36.240372 ], [ -115.1941014, 36.240372 ], [ -115.1941014, 36.2403747 ], [ -115.194123, 36.2403747 ], [ -115.194123, 36.240372 ], [ -115.1941419, 36.240372 ], [ -115.1941419, 36.2403693 ], [ -115.1941581, 36.2403693 ], [ -115.1941581, 36.2403666 ], [ -115.1941878, 36.2403666 ], [ -115.1941878, 36.2403693 ], [ -115.1941905, 36.2403693 ], [ -115.1941905, 36.240372 ], [ -115.1941932, 36.240372 ], [ -115.1941932, 36.2403774 ], [ -115.1941959, 36.2403774 ], [ -115.1941959, 36.2403855 ], [ -115.1941986, 36.2403855 ], [ -115.1941986, 36.2403936 ], [ -115.1942013, 36.2403936 ], [ -115.1942013, 36.240399 ], [ -115.194204, 36.240399 ], [ -115.194204, 36.2404017 ], [ -115.1942175, 36.2404017 ], [ -115.1942175, 36.2404044 ], [ -115.1942202, 36.2404044 ], [ -115.1942202, 36.2404152 ], [ -115.1942175, 36.2404152 ], [ -115.1942175, 36.2404233 ], [ -115.1942202, 36.2404233 ], [ -115.1942202, 36.2404449 ], [ -115.1942229, 36.2404449 ], [ -115.1942229, 36.2404584 ], [ -115.1942256, 36.2404584 ], [ -115.1942256, 36.2404611 ], [ -115.1942283, 36.2404611 ], [ -115.1942283, 36.2404638 ], [ -115.194231, 36.2404638 ], [ -115.194231, 36.2404665 ], [ -115.1942337, 36.2404665 ], [ -115.1942337, 36.2404773 ], [ -115.1942364, 36.2404773 ], [ -115.1942364, 36.2404935 ], [ -115.1942391, 36.2404935 ], [ -115.1942391, 36.2405313 ], [ -115.194231, 36.2405313 ], [ -115.194231, 36.240534 ], [ -115.1941959, 36.240534 ], [ -115.1941959, 36.2405367 ], [ -115.1941797, 36.2405367 ], [ -115.1941797, 36.2405394 ] ] ] } },
{ "type": "Feature", "properties": { "value": 255.0 }, "geometry": { "type": "Polygon", "coordinates": [ [ [ -115.1937477, 36.2403855 ], [ -115.193745, 36.2403855 ], [ -115.193745, 36.2403828 ], [ -115.1937396, 36.2403828 ], [ -115.1937396, 36.2403855 ], [ -115.1937261, 36.2403855 ], [ -115.1937261, 36.2403774 ], [ -115.1937315, 36.2403774 ], [ -115.1937315, 36.2403747 ], [ -115.1937342, 36.2403747 ], [ -115.1937342, 36.2403774 ], [ -115.1937396, 36.2403774 ], [ -115.1937396, 36.2403747 ], [ -115.193745, 36.2403747 ], [ -115.193745, 36.240372 ], [ -115.1937477, 36.240372 ], [ -115.1937477, 36.2403747 ], [ -115.1937504, 36.2403747 ], [ -115.1937504, 36.2403828 ], [ -115.1937477, 36.2403828 ], [ -115.1937477, 36.2403855 ] ] ] } },
{ "type": "Feature", "properties": { "value": 255.0 }, "geometry": { "type": "Polygon", "coordinates": [ [ [ -115.1951976, 36.2404449 ], [ -115.1951598, 36.2404449 ], [ -115.1951598, 36.2404422 ], [ -115.1951409, 36.2404422 ], [ -115.1951409, 36.2404395 ], [ -115.1951355, 36.2404395 ], [ -115.1951355, 36.2404368 ], [ -115.1951328, 36.2404368 ], [ -115.1951328, 36.2404341 ], [ -115.1951301, 36.2404341 ], [ -115.1951301, 36.2404233 ], [ -115.1951274, 36.2404233 ], [ -115.1951274, 36.2404017 ], [ -115.1951301, 36.2404017 ], [ -115.1951301, 36.2403666 ], [ -115.1951328, 36.2403666 ], [ -115.1951328, 36.2403639 ], [ -115.1951355, 36.2403639 ], [ -115.1951355, 36.2403612 ], [ -115.1951976, 36.2403612 ], [ -115.1951976, 36.2404449 ] ] ] } },
{ "type": "Feature", "properties": { "value": 255.0 }, "geometry": { "type": "Polygon", "coordinates": [ [ [ -115.194366, 36.240534 ], [ -115.1942715, 36.240534 ], [ -115.1942715, 36.2405313 ], [ -115.1942688, 36.2405313 ], [ -115.1942688, 36.2405151 ], [ -115.1942661, 36.2405151 ], [ -115.1942661, 36.2404962 ], [ -115.1942634, 36.2404962 ], [ -115.1942634, 36.2404881 ], [ -115.1942607, 36.2404881 ], [ -115.1942607, 36.2404584 ], [ -115.1942634, 36.2404584 ], [ -115.1942634, 36.2403801 ], [ -115.1942661, 36.2403801 ], [ -115.1942661, 36.2403585 ], [ -115.1942688, 36.2403585 ], [ -115.1942688, 36.2403558 ], [ -115.1942769, 36.2403558 ], [ -115.1942769, 36.2403531 ], [ -115.1943093, 36.2403531 ], [ -115.1943093, 36.2403558 ], [ -115.1943309, 36.2403558 ], [ -115.1943309, 36.2403585 ], [ -115.194339, 36.2403585 ], [ -115.194339, 36.2403612 ], [ -115.1943444, 36.2403612 ], [ -115.1943444, 36.2403639 ], [ -115.1943552, 36.2403639 ], [ -115.1943552, 36.2403666 ], [ -115.1944227, 36.2403666 ], [ -115.1944227, 36.2403639 ], [ -115.1944362, 36.2403639 ], [ -115.1944362, 36.2403666 ], [ -115.1944389, 36.2403666 ], [ -115.1944389, 36.240372 ], [ -115.1944416, 36.240372 ], [ -115.1944416, 36.2403801 ], [ -115.1944443, 36.2403801 ], [ -115.1944443, 36.2404233 ], [ -115.194447, 36.2404233 ], [ -115.194447, 36.2404341 ], [ -115.1944443, 36.2404341 ], [ -115.1944443, 36.240453 ], [ -115.194447, 36.240453 ], [ -115.194447, 36.2405016 ], [ -115.1944416, 36.2405016 ], [ -115.1944416, 36.2405043 ], [ -115.1944254, 36.2405043 ], [ -115.1944254, 36.240507 ], [ -115.1944146, 36.240507 ], [ -115.1944146, 36.2405097 ], [ -115.1943822, 36.2405097 ], [ -115.1943822, 36.240507 ], [ -115.1943795, 36.240507 ], [ -115.1943795, 36.2405043 ], [ -115.1943741, 36.2405043 ], [ -115.1943741, 36.2405178 ], [ -115.1943768, 36.2405178 ], [ -115.1943768, 36.2405286 ], [ -115.1943741, 36.2405286 ], [ -115.1943741, 36.2405313 ], [ -115.194366, 36.2405313 ], [ -115.194366, 36.240534 ] ] ] } },
{ "type": "Feature", "properties": { "value": 255.0 }, "geometry": { "type": "Polygon", "coordinates": [ [ [ -115.1937936, 36.2403747 ], [ -115.1937855, 36.2403747 ], [ -115.1937855, 36.240372 ], [ -115.1937828, 36.240372 ], [ -115.1937828, 36.2403612 ], [ -115.1937855, 36.2403612 ], [ -115.1937855, 36.2403585 ], [ -115.1937963, 36.2403585 ], [ -115.1937963, 36.2403612 ], [ -115.1938044, 36.2403612 ], [ -115.1938044, 36.2403639 ], [ -115.1938098, 36.2403639 ], [ -115.1938098, 36.2403666 ], [ -115.1938125, 36.2403666 ], [ -115.1938125, 36.2403693 ], [ -115.1938098, 36.2403693 ], [ -115.1938098, 36.240372 ], [ -115.1937936, 36.240372 ], [ -115.1937936, 36.2403747 ] ] ] } },
{ "type": "Feature", "properties": { "value": 255.0 }, "geometry": { "type": "Polygon", "coordinates": [ [ [ -115.1946333, 36.2405205 ], [ -115.1945712, 36.2405205 ], [ -115.1945712, 36.2405178 ], [ -115.1945631, 36.2405178 ], [ -115.1945631, 36.2405151 ], [ -115.1945388, 36.2405151 ], [ -115.1945388, 36.2405178 ], [ -115.1945118, 36.2405178 ], [ -115.1945118, 36.2405151 ], [ -115.1945037, 36.2405151 ], [ -115.1945037, 36.2405124 ], [ -115.1944983, 36.2405124 ], [ -115.1944983, 36.2405097 ], [ -115.1944902, 36.2405097 ], [ -115.1944902, 36.240507 ], [ -115.1944767, 36.240507 ], [ -115.1944767, 36.2405097 ], [ -115.1944659, 36.2405097 ], [ -115.1944659, 36.240507 ], [ -115.1944632, 36.240507 ], [ -115.1944632, 36.2404908 ], [ -115.1944659, 36.2404908 ], [ -115.1944659, 36.2404179 ], [ -115.1944686, 36.2404179 ], [ -115.1944686, 36.2403693 ], [ -115.1944713, 36.2403693 ], [ -115.1944713, 36.2403666 ], [ -115.1944794, 36.2403666 ], [ -115.1944794, 36.2403639 ], [ -115.1944848, 36.2403639 ], [ -115.1944848, 36.2403477 ], [ -115.1944875, 36.2403477 ], [ -115.1944875, 36.2403423 ], [ -115.1944929, 36.2403423 ], [ -115.1944929, 36.2403396 ], [ -115.1945172, 36.2403396 ], [ -115.1945172, 36.2403369 ], [ -115.1945199, 36.2403369 ], [ -115.1945199, 36.2403396 ], [ -115.1945523, 36.2403396 ], [ -115.1945523, 36.2403423 ], [ -115.194555, 36.2403423 ], [ -115.194555, 36.240345 ], [ -115.1945604, 36.240345 ], [ -115.1945604, 36.2403477 ], [ -115.1945631, 36.2403477 ], [ -115.1945631, 36.2403504 ], [ -115.1945658, 36.2403504 ], [ -115.1945658, 36.2403531 ], [ -115.1945685, 36.2403531 ], [ -115.1945685, 36.2403558 ], [ -115.1945712, 36.2403558 ], [ -115.1945712, 36.2403585 ], [ -115.1945766, 36.2403585 ], [ -115.1945766, 36.2403612 ], [ -115.1946117, 36.2403612 ], [ -115.1946117, 36.2403585 ], [ -115.1946387, 36.2403585 ], [ -115.1946387, 36.2403612 ], [ -115.1946414, 36.2403612 ], [ -115.1946414, 36.2403639 ], [ -115.1946441, 36.2403639 ], [ -115.1946441, 36.2403693 ], [ -115.1946468, 36.2403693 ], [ -115.1946468, 36.2404314 ], [ -115.1946495, 36.2404314 ], [ -115.1946495, 36.2404746 ], [ -115.1946522, 36.2404746 ], [ -115.1946522, 36.2405097 ], [ -115.1946495, 36.2405097 ], [ -115.1946495, 36.2405124 ], [ -115.1946468, 36.2405124 ], [ -115.1946468, 36.2405151 ], [ -115.1946441, 36.2405151 ], [ -115.1946441, 36.2405178 ], [ -115.1946333, 36.2405178 ], [ -115.1946333, 36.2405205 ] ] ] } },
{ "type": "Feature", "properties": { "value": 255.0 }, "geometry": { "type": "Polygon", "coordinates": [ [ [ -115.1947791, 36.2405178 ], [ -115.194771, 36.2405178 ], [ -115.194771, 36.2405151 ], [ -115.1947008, 36.2405151 ], [ -115.1947008, 36.2405124 ], [ -115.1946981, 36.2405124 ], [ -115.1946981, 36.2405097 ], [ -115.1946954, 36.2405097 ], [ -115.1946954, 36.2404638 ], [ -115.1946927, 36.2404638 ], [ -115.1946927, 36.2404611 ], [ -115.1946954, 36.2404611 ], [ -115.1946954, 36.2404557 ], [ -115.1946981, 36.2404557 ], [ -115.1946981, 36.240453 ], [ -115.1947035, 36.240453 ], [ -115.1947035, 36.2404503 ], [ -115.1947224, 36.2404503 ], [ -115.1947224, 36.2404476 ], [ -115.1947251, 36.2404476 ], [ -115.1947251, 36.2403963 ], [ -115.1947224, 36.2403963 ], [ -115.1947224, 36.2403855 ], [ -115.1947197, 36.2403855 ], [ -115.1947197, 36.2403585 ], [ -115.1947224, 36.2403585 ], [ -115.1947224, 36.2403504 ], [ -115.1947251, 36.2403504 ], [ -115.1947251, 36.2403477 ], [ -115.1947332, 36.2403477 ], [ -115.1947332, 36.240345 ], [ -115.1947926, 36.240345 ], [ -115.1947926, 36.2403477 ], [ -115.1948196, 36.2403477 ], [ -115.1948196, 36.240345 ], [ -115.1948466, 36.240345 ], [ -115.1948466, 36.2403423 ], [ -115.1948574, 36.2403423 ], [ -115.1948574, 36.240345 ], [ -115.1948628, 36.240345 ], [ -115.1948628, 36.2403477 ], [ -115.1948655, 36.2403477 ], [ -115.1948655, 36.2404125 ], [ -115.1948682, 36.2404125 ], [ -115.1948682, 36.2404476 ], [ -115.1948709, 36.2404476 ], [ -115.1948709, 36.2404827 ], [ -115.1948682, 36.2404827 ], [ -115.1948682, 36.2404854 ], [ -115.1948628, 36.2404854 ], [ -115.1948628, 36.2404881 ], [ -115.194825, 36.2404881 ], [ -115.194825, 36.2404908 ], [ -115.1948169, 36.2404908 ], [ -115.1948169, 36.2404935 ], [ -115.1948088, 36.2404935 ], [ -115.1948088, 36.2404962 ], [ -115.1948034, 36.2404962 ], [ -115.1948034, 36.2405016 ], [ -115.1948007, 36.2405016 ], [ -115.1948007, 36.2405097 ], [ -115.194798, 36.2405097 ], [ -115.194798, 36.2405124 ], [ -115.1947926, 36.2405124 ], [ -115.1947926, 36.2405151 ], [ -115.1947791, 36.2405151 ], [ -115.1947791, 36.2405178 ] ] ] } },
{ "type": "Feature", "properties": { "value": 255.0 }, "geometry": { "type": "Polygon", "coordinates": [ [ [ -115.1935749, 36.240183 ], [ -115.1935236, 36.240183 ], [ -115.1935236, 36.2401803 ], [ -115.1934426, 36.2401803 ], [ -115.1934426, 36.2399805 ], [ -115.1934885, 36.2399805 ], [ -115.1934885, 36.2399832 ], [ -115.1935128, 36.2399832 ], [ -115.1935128, 36.2399859 ], [ -115.1935425, 36.2399859 ], [ -115.1935425, 36.2399832 ], [ -115.1935614, 36.2399832 ], [ -115.1935614, 36.2399859 ], [ -115.1935857, 36.2399859 ], [ -115.1935857, 36.2399832 ], [ -115.1936424, 36.2399832 ], [ -115.1936424, 36.2399805 ], [ -115.1936586, 36.2399805 ], [ -115.1936586, 36.2399832 ], [ -115.1936829, 36.2399832 ], [ -115.1936829, 36.2399805 ], [ -115.1937126, 36.2399805 ], [ -115.1937126, 36.2399832 ], [ -115.1937288, 36.2399832 ], [ -115.1937288, 36.2399859 ], [ -115.1937423, 36.2399859 ], [ -115.1937423, 36.2399886 ], [ -115.1937585, 36.2399886 ], [ -115.1937585, 36.2399913 ], [ -115.1937747, 36.2399913 ], [ -115.1937747, 36.239994 ], [ -115.1937855, 36.239994 ], [ -115.1937855, 36.2399967 ], [ -115.1937963, 36.2399967 ], [ -115.1937963, 36.2399994 ], [ -115.1938152, 36.2399994 ], [ -115.1938152, 36.2400021 ], [ -115.193826, 36.2400021 ], [ -115.193826, 36.2400048 ], [ -115.1938422, 36.2400048 ], [ -115.1938422, 36.2400075 ], [ -115.1938476, 36.2400075 ], [ -115.1938476, 36.2400102 ], [ -115.193853, 36.2400102 ], [ -115.193853, 36.2400183 ], [ -115.1938557, 36.2400183 ], [ -115.1938557, 36.2400318 ], [ -115.193853, 36.2400318 ], [ -115.193853, 36.2400372 ], [ -115.1938503, 36.2400372 ], [ -115.1938503, 36.2400426 ], [ -115.1938476, 36.2400426 ], [ -115.1938476, 36.2400561 ], [ -115.1938503, 36.2400561 ], [ -115.1938503, 36.2400777 ], [ -115.193853, 36.2400777 ], [ -115.193853, 36.2401182 ], [ -115.1938503, 36.2401182 ], [ -115.1938503, 36.2401695 ], [ -115.1938476, 36.2401695 ], [ -115.1938476, 36.2401722 ], [ -115.1938422, 36.2401722 ], [ -115.1938422, 36.2401749 ], [ -115.1938152, 36.2401749 ], [ -115.1938152, 36.2401695 ], [ -115.1938125, 36.2401695 ], [ -115.1938125, 36.2401722 ], [ -115.1937801, 36.2401722 ], [ -115.1937801, 36.2401749 ], [ -115.1937612, 36.2401749 ], [ -115.1937612, 36.2401776 ], [ -115.1937018, 36.2401776 ], [ -115.1937018, 36.2401749 ], [ -115.1936613, 36.2401749 ], [ -115.1936613, 36.2401776 ], [ -115.1935992, 36.2401776 ], [ -115.1935992, 36.2401803 ], [ -115.1935749, 36.2401803 ], [ -115.1935749, 36.240183 ] ] ] } },
{ "type": "Feature", "properties": { "value": 255.0 }, "geometry": { "type": "Polygon", "coordinates": [ [ [ -115.193961, 36.2401695 ], [ -115.1939367, 36.2401695 ], [ -115.1939367, 36.2401668 ], [ -115.193934, 36.2401668 ], [ -115.193934, 36.2401641 ], [ -115.1939313, 36.2401641 ], [ -115.1939313, 36.2401587 ], [ -115.1939286, 36.2401587 ], [ -115.1939286, 36.2401533 ], [ -115.1939259, 36.2401533 ], [ -115.1939259, 36.2401452 ], [ -115.1939232, 36.2401452 ], [ -115.1939232, 36.2401209 ], [ -115.1939259, 36.2401209 ], [ -115.1939259, 36.2400723 ], [ -115.1939232, 36.2400723 ], [ -115.1939232, 36.2400318 ], [ -115.1939205, 36.2400318 ], [ -115.1939205, 36.240021 ], [ -115.1939178, 36.240021 ], [ -115.1939178, 36.239994 ], [ -115.1939205, 36.239994 ], [ -115.1939205, 36.2399886 ], [ -115.1939232, 36.2399886 ], [ -115.1939232, 36.2399859 ], [ -115.1939286, 36.2399859 ], [ -115.1939286, 36.2399886 ], [ -115.193934, 36.2399886 ], [ -115.193934, 36.2399913 ], [ -115.1939583, 36.2399913 ], [ -115.1939583, 36.2399886 ], [ -115.1939772, 36.2399886 ], [ -115.1939772, 36.2399859 ], [ -115.1939961, 36.2399859 ], [ -115.1939961, 36.2399832 ], [ -115.1940096, 36.2399832 ], [ -115.1940096, 36.2399805 ], [ -115.1940231, 36.2399805 ], [ -115.1940231, 36.2399778 ], [ -115.1940312, 36.2399778 ], [ -115.1940312, 36.2399751 ], [ -115.194042, 36.2399751 ], [ -115.194042, 36.2399724 ], [ -115.1940528, 36.2399724 ], [ -115.1940528, 36.2399697 ], [ -115.1940609, 36.2399697 ], [ -115.1940609, 36.239967 ], [ -115.1940987, 36.239967 ], [ -115.1940987, 36.2399643 ], [ -115.1941203, 36.2399643 ], [ -115.1941203, 36.239967 ], [ -115.1941257, 36.239967 ], [ -115.1941257, 36.2399643 ], [ -115.1941446, 36.2399643 ], [ -115.1941446, 36.2399616 ], [ -115.1941635, 36.2399616 ], [ -115.1941635, 36.2399643 ], [ -115.1941797, 36.2399643 ], [ -115.1941797, 36.2399616 ], [ -115.1941959, 36.2399616 ], [ -115.1941959, 36.2399589 ], [ -115.1942067, 36.2399589 ], [ -115.1942067, 36.2399616 ], [ -115.1942364, 36.2399616 ], [ -115.1942364, 36.2399589 ], [ -115.1942472, 36.2399589 ], [ -115.1942472, 36.2399562 ], [ -115.1942742, 36.2399562 ], [ -115.1942742, 36.2399535 ], [ -115.194339, 36.2399535 ], [ -115.194339, 36.2399508 ], [ -115.1944119, 36.2399508 ], [ -115.1944119, 36.2399481 ], [ -115.1944983, 36.2399481 ], [ -115.1944983, 36.2399508 ], [ -115.1945172, 36.2399508 ], [ -115.1945172, 36.2399481 ], [ -115.1945226, 36.2399481 ], [ -115.1945226, 36.2399454 ], [ -115.1945253, 36.2399454 ], [ -115.1945253, 36.2399427 ], [ -115.194528, 36.2399427 ], [ -115.194528, 36.23994 ], [ -115.1945712, 36.23994 ], [ -115.1945712, 36.2399373 ], [ -115.1945847, 36.2399373 ], [ -115.1945847, 36.2399346 ], [ -115.1945955, 36.2399346 ], [ -115.1945955, 36.2399373 ], [ -115.1946009, 36.2399373 ], [ -115.1946009, 36.23994 ], [ -115.1946063, 36.23994 ], [ -115.1946063, 36.2399427 ], [ -115.1946252, 36.2399427 ], [ -115.1946252, 36.2399454 ], [ -115.1946738, 36.2399454 ], [ -115.1946738, 36.2399427 ], [ -115.1946927, 36.2399427 ], [ -115.1946927, 36.23994 ], [ -115.194744, 36.23994 ], [ -115.194744, 36.2399373 ], [ -115.1948007, 36.2399373 ], [ -115.1948007, 36.2399346 ], [ -115.1948412, 36.2399346 ], [ -115.1948412, 36.2399319 ], [ -115.1948655, 36.2399319 ], [ -115.1948655, 36.2399292 ], [ -115.1948952, 36.2399292 ], [ -115.1948952, 36.2399319 ], [ -115.194906, 36.2399319 ], [ -115.194906, 36.2399292 ], [ -115.19496, 36.2399292 ], [ -115.19496, 36.2399319 ], [ -115.1949843, 36.2399319 ], [ -115.1949843, 36.2399292 ], [ -115.1950302, 36.2399292 ], [ -115.1950302, 36.2399265 ], [ -115.195068, 36.2399265 ], [ -115.195068, 36.2399238 ], [ -115.1950761, 36.2399238 ], [ -115.1950761, 36.2399265 ], [ -115.1951139, 36.2399265 ], [ -115.1951139, 36.2399238 ], [ -115.1951193, 36.2399238 ], [ -115.1951193, 36.2399265 ], [ -115.1951409, 36.2399265 ], [ -115.1951409, 36.2399238 ], [ -115.1951733, 36.2399238 ], [ -115.1951733, 36.2399211 ], [ -115.1951841, 36.2399211 ], [ -115.1951841, 36.2399184 ], [ -115.1951868, 36.2399184 ], [ -115.1951868, 36.2399157 ], [ -115.1951949, 36.2399157 ], [ -115.1951949, 36.239913 ], [ -115.1951976, 36.239913 ], [ -115.1951976, 36.240129 ], [ -115.1951949, 36.240129 ], [ -115.1951949, 36.2401263 ], [ -115.1951571, 36.2401263 ], [ -115.1951571, 36.2401236 ], [ -115.1950923, 36.2401236 ], [ -115.1950923, 36.2401263 ], [ -115.1950599, 36.2401263 ], [ -115.1950599, 36.240129 ], [ -115.1949951, 36.240129 ], [ -115.1949951, 36.2401263 ], [ -115.1949735, 36.2401263 ], [ -115.1949735, 36.240129 ], [ -115.1949168, 36.240129 ], [ -115.1949168, 36.2401317 ], [ -115.1948898, 36.2401317 ], [ -115.1948898, 36.240129 ], [ -115.1948871, 36.240129 ], [ -115.1948871, 36.2401317 ], [ -115.1948277, 36.2401317 ], [ -115.1948277, 36.2401344 ], [ -115.194798, 36.2401344 ], [ -115.194798, 36.2401371 ], [ -115.1946657, 36.2401371 ], [ -115.1946657, 36.2401398 ], [ -115.1946117, 36.2401398 ], [ -115.1946117, 36.2401425 ], [ -115.194582, 36.2401425 ], [ -115.194582, 36.2401452 ], [ -115.1945523, 36.2401452 ], [ -115.1945523, 36.2401479 ], [ -115.1943714, 36.2401479 ], [ -115.1943714, 36.2401506 ], [ -115.1943093, 36.2401506 ], [ -115.1943093, 36.2401533 ], [ -115.1942661, 36.2401533 ], [ -115.1942661, 36.240156 ], [ -115.1942391, 36.240156 ], [ -115.1942391, 36.2401587 ], [ -115.1942148, 36.2401587 ], [ -115.1942148, 36.240156 ], [ -115.194177, 36.240156 ], [ -115.194177, 36.2401587 ], [ -115.1941041, 36.2401587 ], [ -115.1941041, 36.2401614 ], [ -115.1940852, 36.2401614 ], [ -115.1940852, 36.2401641 ], [ -115.194069, 36.2401641 ], [ -115.194069, 36.2401668 ], [ -115.1940123, 36.2401668 ], [ -115.1940123, 36.2401641 ], [ -115.1940042, 36.2401641 ], [ -115.1940042, 36.2401668 ], [ -115.193961, 36.2401668 ], [ -115.193961, 36.2401695 ] ] ] } },
{ "type": "Feature", "properties": { "value": 255.0 }, "geometry": { "type": "Polygon", "coordinates": [ [ [ -115.1951976, 36.2397888 ], [ -115.1951922, 36.2397888 ], [ -115.1951922, 36.2397861 ], [ -115.1951652, 36.2397861 ], [ -115.1951652, 36.2397888 ], [ -115.1951166, 36.2397888 ], [ -115.1951166, 36.2397861 ], [ -115.1951112, 36.2397861 ], [ -115.1951112, 36.2397807 ], [ -115.1951085, 36.2397807 ], [ -115.1951085, 36.2397726 ], [ -115.1951058, 36.2397726 ], [ -115.1951058, 36.2397645 ], [ -115.1951031, 36.2397645 ], [ -115.1951031, 36.2397429 ], [ -115.1951004, 36.2397429 ], [ -115.1951004, 36.2396835 ], [ -115.1950977, 36.2396835 ], [ -115.1950977, 36.2396106 ], [ -115.1951004, 36.2396106 ], [ -115.1951004, 36.2395971 ], [ -115.1950977, 36.2395971 ], [ -115.1950977, 36.2395917 ], [ -115.1951004, 36.2395917 ], [ -115.1951004, 36.2395836 ], [ -115.1951031, 36.2395836 ], [ -115.1951031, 36.2395755 ], [ -115.1951004, 36.2395755 ], [ -115.1951004, 36.2395728 ], [ -115.1950977, 36.2395728 ], [ -115.1950977, 36.2395674 ], [ -115.195095, 36.2395674 ], [ -115.195095, 36.2395647 ], [ -115.1950923, 36.2395647 ], [ -115.1950923, 36.239562 ], [ -115.1950896, 36.239562 ], [ -115.1950896, 36.2395566 ], [ -115.1950869, 36.2395566 ], [ -115.1950869, 36.2395485 ], [ -115.1950842, 36.2395485 ], [ -115.1950842, 36.2395404 ], [ -115.1950815, 36.2395404 ], [ -115.1950815, 36.2395323 ], [ -115.1950788, 36.2395323 ], [ -115.1950788, 36.2395215 ], [ -115.1950761, 36.2395215 ], [ -115.1950761, 36.2395107 ], [ -115.1950788, 36.2395107 ], [ -115.1950788, 36.2395053 ], [ -115.1950815, 36.2395053 ], [ -115.1950815, 36.2394999 ], [ -115.1950842, 36.2394999 ], [ -115.1950842, 36.2394918 ], [ -115.1950869, 36.2394918 ], [ -115.1950869, 36.2394837 ], [ -115.1950896, 36.2394837 ], [ -115.1950896, 36.2394756 ], [ -115.1950923, 36.2394756 ], [ -115.1950923, 36.2394729 ], [ -115.1951247, 36.2394729 ], [ -115.1951247, 36.2394702 ], [ -115.1951355, 36.2394702 ], [ -115.1951355, 36.2394675 ], [ -115.1951517, 36.2394675 ], [ -115.1951517, 36.2394648 ], [ -115.1951625, 36.2394648 ], [ -115.1951625, 36.2394675 ], [ -115.1951976, 36.2394675 ], [ -115.1951976, 36.2397888 ] ] ] } }
]
}
