{
"type": "FeatureCollection",
"crs": { "type": "name", "properties": { "name": "urn:ogc:def:crs:OGC:1.3:CRS84" } },
"features": [
{ "type": "Feature", "properties": { "value": 255.0 }, "geometry": { "type": "Polygon", "coordinates": [ [ [ -115.2524943, 36.208941299899998 ], [ -115.2524808, 36.208941299899998 ], [ -115.2524808, 36.208938599900002 ], [ -115.2524295, 36.208938599900002 ], [ -115.2524295, 36.208941299899998 ], [ -115.2524106, 36.208941299899998 ], [ -115.2524106, 36.208938599900002 ], [ -115.2524079, 36.208938599900002 ], [ -115.2524079, 36.208935899899998 ], [ -115.2524052, 36.208935899899998 ], [ -115.2524052, 36.208933199899995 ], [ -115.2524025, 36.208933199899995 ], [ -115.2524025, 36.208927799899996 ], [ -115.2523998, 36.208927799899996 ], [ -115.2523998, 36.2089250999 ], [ -115.2523971, 36.2089250999 ], [ -115.2523971, 36.208919699900001 ], [ -115.2523944, 36.208919699900001 ], [ -115.2523944, 36.208892699899998 ], [ -115.2523971, 36.208892699899998 ], [ -115.2523971, 36.2088818999 ], [ -115.2523998, 36.2088818999 ], [ -115.2523998, 36.208868399899998 ], [ -115.2523971, 36.208868399899998 ], [ -115.2523971, 36.208854899899997 ], [ -115.2523998, 36.208854899899997 ], [ -115.2523998, 36.208841399899995 ], [ -115.2524025, 36.208841399899995 ], [ -115.2524025, 36.208830599899997 ], [ -115.2524052, 36.208830599899997 ], [ -115.2524052, 36.208817099899996 ], [ -115.2524079, 36.208817099899996 ], [ -115.2524079, 36.208803599900001 ], [ -115.2524052, 36.208803599900001 ], [ -115.2524052, 36.208795499899999 ], [ -115.2524025, 36.208795499899999 ], [ -115.2524025, 36.208736099900001 ], [ -115.2524052, 36.208736099900001 ], [ -115.2524052, 36.208725299899996 ], [ -115.2524079, 36.208725299899996 ], [ -115.2524079, 36.208717199900001 ], [ -115.2524106, 36.208717199900001 ], [ -115.2524106, 36.208714499899997 ], [ -115.2524214, 36.208714499899997 ], [ -115.2524214, 36.208711799900001 ], [ -115.2525807, 36.208711799900001 ], [ -115.2525807, 36.208714499899997 ], [ -115.2526536, 36.208714499899997 ], [ -115.2526536, 36.208711799900001 ], [ -115.2526644, 36.208711799900001 ], [ -115.2526644, 36.208714499899997 ], [ -115.2526995, 36.208714499899997 ], [ -115.2526995, 36.208717199900001 ], [ -115.2527049, 36.208717199900001 ], [ -115.2527049, 36.208714499899997 ], [ -115.2527238, 36.208714499899997 ], [ -115.2527238, 36.208717199900001 ], [ -115.252767, 36.208717199900001 ], [ -115.252767, 36.208714499899997 ], [ -115.2527805, 36.208714499899997 ], [ -115.2527805, 36.208711799900001 ], [ -115.2527913, 36.208711799900001 ], [ -115.2527913, 36.208709099899998 ], [ -115.2528453, 36.208709099899998 ], [ -115.2528453, 36.208711799900001 ], [ -115.2528561, 36.208711799900001 ], [ -115.2528561, 36.208709099899998 ], [ -115.2528615, 36.208709099899998 ], [ -115.2528615, 36.208711799900001 ], [ -115.2528777, 36.208711799900001 ], [ -115.2528777, 36.208714499899997 ], [ -115.252893899999989, 36.208714499899997 ], [ -115.252893899999989, 36.208717199900001 ], [ -115.2528993, 36.208717199900001 ], [ -115.2528993, 36.208719899899997 ], [ -115.252902, 36.208719899899997 ], [ -115.252902, 36.2087225999 ], [ -115.2529047, 36.2087225999 ], [ -115.2529047, 36.208727999899999 ], [ -115.2529074, 36.208727999899999 ], [ -115.2529074, 36.208738799899997 ], [ -115.2529101, 36.208738799899997 ], [ -115.2529101, 36.208781999899998 ], [ -115.2529074, 36.208781999899998 ], [ -115.2529074, 36.208787399899997 ], [ -115.2529047, 36.208787399899997 ], [ -115.2529047, 36.2087900999 ], [ -115.252902, 36.2087900999 ], [ -115.252902, 36.208792799899996 ], [ -115.2528966, 36.208792799899996 ], [ -115.2528966, 36.208795499899999 ], [ -115.252893899999989, 36.208795499899999 ], [ -115.252893899999989, 36.2088089999 ], [ -115.2528966, 36.2088089999 ], [ -115.2528966, 36.208868399899998 ], [ -115.252893899999989, 36.208868399899998 ], [ -115.252893899999989, 36.208879199899997 ], [ -115.2528912, 36.208879199899997 ], [ -115.2528912, 36.208889999900002 ], [ -115.2528885, 36.208889999900002 ], [ -115.2528885, 36.208898099899997 ], [ -115.2528858, 36.208898099899997 ], [ -115.2528858, 36.2089007999 ], [ -115.2528804, 36.2089007999 ], [ -115.2528804, 36.208903499899996 ], [ -115.2527562, 36.208903499899996 ], [ -115.2527562, 36.208906199899999 ], [ -115.25274, 36.208906199899999 ], [ -115.25274, 36.208911599899999 ], [ -115.2527346, 36.208911599899999 ], [ -115.2527346, 36.208908899899996 ], [ -115.2527292, 36.208908899899996 ], [ -115.2527292, 36.208911599899999 ], [ -115.2527238, 36.208911599899999 ], [ -115.2527238, 36.208914299900002 ], [ -115.2527184, 36.208914299900002 ], [ -115.2527184, 36.208919699900001 ], [ -115.2527157, 36.208919699900001 ], [ -115.2527157, 36.208922399899997 ], [ -115.2527103, 36.208922399899997 ], [ -115.2527103, 36.2089250999 ], [ -115.2527049, 36.2089250999 ], [ -115.2527049, 36.208922399899997 ], [ -115.2526752, 36.208922399899997 ], [ -115.2526752, 36.208919699900001 ], [ -115.252659, 36.208919699900001 ], [ -115.252659, 36.208922399899997 ], [ -115.2526185, 36.208922399899997 ], [ -115.2526185, 36.2089250999 ], [ -115.2526131, 36.2089250999 ], [ -115.2526131, 36.208922399899997 ], [ -115.2526077, 36.208922399899997 ], [ -115.2526077, 36.208919699900001 ], [ -115.252605, 36.208919699900001 ], [ -115.252605, 36.208916999899998 ], [ -115.2526023, 36.208916999899998 ], [ -115.2526023, 36.208914299900002 ], [ -115.2525996, 36.208914299900002 ], [ -115.2525996, 36.208911599899999 ], [ -115.2525915, 36.208911599899999 ], [ -115.2525915, 36.208908899899996 ], [ -115.252578, 36.208908899899996 ], [ -115.252578, 36.208906199899999 ], [ -115.2525483, 36.208906199899999 ], [ -115.2525483, 36.208908899899996 ], [ -115.2525267, 36.208908899899996 ], [ -115.2525267, 36.208911599899999 ], [ -115.2525159, 36.208911599899999 ], [ -115.2525159, 36.208914299900002 ], [ -115.2525078, 36.208914299900002 ], [ -115.2525078, 36.208916999899998 ], [ -115.2525051, 36.208916999899998 ], [ -115.2525051, 36.208922399899997 ], [ -115.2525024, 36.208922399899997 ], [ -115.2525024, 36.2089250999 ], [ -115.2524997, 36.2089250999 ], [ -115.2524997, 36.208935899899998 ], [ -115.252497, 36.208935899899998 ], [ -115.252497, 36.208938599900002 ], [ -115.2524943, 36.208938599900002 ], [ -115.2524943, 36.208941299899998 ] ] ] } },
{ "type": "Feature", "properties": { "value": 255.0 }, "geometry": { "type": "Polygon", "coordinates": [ [ [ -115.2521757, 36.208641599899998 ], [ -115.2521568, 36.208641599899998 ], [ -115.2521568, 36.208638899900002 ], [ -115.2521541, 36.208638899900002 ], [ -115.2521541, 36.208636199899999 ], [ -115.2521514, 36.208636199899999 ], [ -115.2521514, 36.208619999900002 ], [ -115.2521541, 36.208619999900002 ], [ -115.2521541, 36.208614599900002 ], [ -115.2521568, 36.208614599900002 ], [ -115.2521568, 36.208611899899999 ], [ -115.2521595, 36.208611899899999 ], [ -115.2521595, 36.208609199899996 ], [ -115.2521649, 36.208609199899996 ], [ -115.2521649, 36.208611899899999 ], [ -115.2521757, 36.208611899899999 ], [ -115.2521757, 36.208614599900002 ], [ -115.2521865, 36.208614599900002 ], [ -115.2521865, 36.208617299899998 ], [ -115.2521973, 36.208617299899998 ], [ -115.2521973, 36.208619999900002 ], [ -115.2522027, 36.208619999900002 ], [ -115.2522027, 36.208622699899998 ], [ -115.2522054, 36.208622699899998 ], [ -115.2522054, 36.2086307999 ], [ -115.2522027, 36.2086307999 ], [ -115.2522027, 36.208633499899996 ], [ -115.2521946, 36.208633499899996 ], [ -115.2521946, 36.208636199899999 ], [ -115.2521865, 36.208636199899999 ], [ -115.2521865, 36.208638899900002 ], [ -115.2521757, 36.208638899900002 ], [ -115.2521757, 36.208641599899998 ] ] ] } },
{ "type": "Feature", "properties": { "value": 255.0 }, "geometry": { "type": "Polygon", "coordinates": [ [ [ -115.2517275, 36.208633499899996 ], [ -115.2517167, 36.208633499899996 ], [ -115.2517167, 36.2086307999 ], [ -115.2517113, 36.2086307999 ], [ -115.2517113, 36.208628099899997 ], [ -115.2517086, 36.208628099899997 ], [ -115.2517086, 36.208625399900001 ], [ -115.2517059, 36.208625399900001 ], [ -115.2517059, 36.208622699899998 ], [ -115.2517032, 36.208622699899998 ], [ -115.2517032, 36.208619999900002 ], [ -115.2517005, 36.208619999900002 ], [ -115.2517005, 36.208617299899998 ], [ -115.2516978, 36.208617299899998 ], [ -115.2516978, 36.208603799899997 ], [ -115.2517005, 36.208603799899997 ], [ -115.2517005, 36.208601099900001 ], [ -115.2517032, 36.208601099900001 ], [ -115.2517032, 36.208598399899998 ], [ -115.2517221, 36.208598399899998 ], [ -115.2517221, 36.208601099900001 ], [ -115.2517275, 36.208601099900001 ], [ -115.2517275, 36.208603799899997 ], [ -115.2517302, 36.208603799899997 ], [ -115.2517302, 36.2086064999 ], [ -115.2517329, 36.2086064999 ], [ -115.2517329, 36.208609199899996 ], [ -115.2517383, 36.208609199899996 ], [ -115.2517383, 36.208611899899999 ], [ -115.251741, 36.208611899899999 ], [ -115.251741, 36.208614599900002 ], [ -115.2517437, 36.208614599900002 ], [ -115.2517437, 36.208617299899998 ], [ -115.251741, 36.208617299899998 ], [ -115.251741, 36.208622699899998 ], [ -115.2517383, 36.208622699899998 ], [ -115.2517383, 36.208625399900001 ], [ -115.2517356, 36.208625399900001 ], [ -115.2517356, 36.208628099899997 ], [ -115.2517302, 36.208628099899997 ], [ -115.2517302, 36.2086307999 ], [ -115.2517275, 36.2086307999 ], [ -115.2517275, 36.208633499899996 ] ] ] } },
{ "type": "Feature", "properties": { "value": 255.0 }, "geometry": { "type": "Polygon", "coordinates": [ [ [ -115.2530343, 36.208522799900003 ], [ -115.2529614, 36.208522799900003 ], [ -115.2529614, 36.208520099899999 ], [ -115.2529236, 36.208520099899999 ], [ -115.2529236, 36.208517399899996 ], [ -115.2529209, 36.208517399899996 ], [ -115.2529209, 36.208425599899996 ], [ -115.2529236, 36.208425599899996 ], [ -115.2529236, 36.208420199899997 ], [ -115.2529263, 36.208420199899997 ], [ -115.2529263, 36.208417499900001 ], [ -115.2529398, 36.208417499900001 ], [ -115.2529398, 36.208420199899997 ], [ -115.2529452, 36.208420199899997 ], [ -115.2529452, 36.2084228999 ], [ -115.2530343, 36.2084228999 ], [ -115.2530343, 36.208425599899996 ], [ -115.253039699999988, 36.208425599899996 ], [ -115.253039699999988, 36.208520099899999 ], [ -115.2530343, 36.208520099899999 ], [ -115.2530343, 36.208522799900003 ] ] ] } },
{ "type": "Feature", "properties": { "value": 255.0 }, "geometry": { "type": "Polygon", "coordinates": [ [ [ -115.2530316, 36.208406699900003 ], [ -115.2529992, 36.208406699900003 ], [ -115.2529992, 36.2084039999 ], [ -115.2529803, 36.2084039999 ], [ -115.2529803, 36.208395899899998 ], [ -115.2529776, 36.208395899899998 ], [ -115.2529776, 36.208368899900002 ], [ -115.2529803, 36.208368899900002 ], [ -115.2529803, 36.208347299899998 ], [ -115.252983, 36.208347299899998 ], [ -115.252983, 36.208341899899999 ], [ -115.2529857, 36.208341899899999 ], [ -115.2529857, 36.2083364999 ], [ -115.2529884, 36.2083364999 ], [ -115.2529884, 36.208333799899997 ], [ -115.2529938, 36.208333799899997 ], [ -115.2529938, 36.208331099900001 ], [ -115.2530046, 36.208331099900001 ], [ -115.2530046, 36.208328399899997 ], [ -115.2530208, 36.208328399899997 ], [ -115.2530208, 36.208331099900001 ], [ -115.2530289, 36.208331099900001 ], [ -115.2530289, 36.208333799899997 ], [ -115.2530343, 36.208333799899997 ], [ -115.2530343, 36.2083364999 ], [ -115.253037, 36.2083364999 ], [ -115.253037, 36.208352699899997 ], [ -115.253039699999988, 36.208352699899997 ], [ -115.253039699999988, 36.208371599899998 ], [ -115.2530424, 36.208371599899998 ], [ -115.2530424, 36.208376999899997 ], [ -115.253039699999988, 36.208376999899997 ], [ -115.253039699999988, 36.2084039999 ], [ -115.2530316, 36.2084039999 ], [ -115.2530316, 36.208406699900003 ] ] ] } },
{ "type": "Feature", "properties": { "value": 255.0 }, "geometry": { "type": "Polygon", "coordinates": [ [ [ -115.2517221, 36.208444499899997 ], [ -115.2516951, 36.208444499899997 ], [ -115.2516951, 36.208441799900001 ], [ -115.2516897, 36.208441799900001 ], [ -115.2516897, 36.208439099899998 ], [ -115.251687, 36.208439099899998 ], [ -115.251687, 36.208425599899996 ], [ -115.2516843, 36.208425599899996 ], [ -115.2516843, 36.208387799900002 ], [ -115.251687, 36.208387799900002 ], [ -115.251687, 36.208339199900003 ], [ -115.2516843, 36.208339199900003 ], [ -115.2516843, 36.208309499899997 ], [ -115.251687, 36.208309499899997 ], [ -115.251687, 36.208301399900002 ], [ -115.2516897, 36.208301399900002 ], [ -115.2516897, 36.208298699899998 ], [ -115.2516951, 36.208298699899998 ], [ -115.2516951, 36.208295999900002 ], [ -115.251741, 36.208295999900002 ], [ -115.251741, 36.208298699899998 ], [ -115.2517437, 36.208298699899998 ], [ -115.2517437, 36.208436399900002 ], [ -115.251741, 36.208436399900002 ], [ -115.251741, 36.208441799900001 ], [ -115.2517221, 36.208441799900001 ], [ -115.2517221, 36.208444499899997 ] ] ] } },
{ "type": "Feature", "properties": { "value": 255.0 }, "geometry": { "type": "Polygon", "coordinates": [ [ [ -115.2523296, 36.208457999899998 ], [ -115.2522972, 36.208457999899998 ], [ -115.2522972, 36.208455299900002 ], [ -115.2520731, 36.208455299900002 ], [ -115.2520731, 36.208457999899998 ], [ -115.2520245, 36.208457999899998 ], [ -115.2520245, 36.208455299900002 ], [ -115.2519381, 36.208455299900002 ], [ -115.2519381, 36.208457999899998 ], [ -115.2519192, 36.208457999899998 ], [ -115.2519192, 36.208455299900002 ], [ -115.2519138, 36.208455299900002 ], [ -115.2519138, 36.208452599899999 ], [ -115.2519111, 36.208452599899999 ], [ -115.2519111, 36.2084471999 ], [ -115.2519084, 36.2084471999 ], [ -115.2519084, 36.208439099899998 ], [ -115.2519057, 36.208439099899998 ], [ -115.2519057, 36.208406699900003 ], [ -115.2519084, 36.208406699900003 ], [ -115.2519084, 36.208349999900001 ], [ -115.2519057, 36.208349999900001 ], [ -115.2519057, 36.208331099900001 ], [ -115.251903, 36.208331099900001 ], [ -115.251903, 36.208328399899997 ], [ -115.2519057, 36.208328399899997 ], [ -115.2519057, 36.208271699900003 ], [ -115.2519084, 36.208271699900003 ], [ -115.2519084, 36.2082635999 ], [ -115.2519111, 36.2082635999 ], [ -115.2519111, 36.208260899899997 ], [ -115.2519327, 36.208260899899997 ], [ -115.2519327, 36.2082635999 ], [ -115.2520029, 36.2082635999 ], [ -115.2520029, 36.208260899899997 ], [ -115.2521541, 36.208260899899997 ], [ -115.2521541, 36.2082635999 ], [ -115.2522216, 36.2082635999 ], [ -115.2522216, 36.208260899899997 ], [ -115.2522486, 36.208260899899997 ], [ -115.2522486, 36.2082635999 ], [ -115.2523134, 36.2082635999 ], [ -115.2523134, 36.208266299900004 ], [ -115.2523161, 36.208266299900004 ], [ -115.2523161, 36.2082689999 ], [ -115.2523215, 36.2082689999 ], [ -115.2523215, 36.208271699900003 ], [ -115.2523242, 36.208271699900003 ], [ -115.2523242, 36.208274399899999 ], [ -115.2523269, 36.208274399899999 ], [ -115.2523269, 36.208277099900002 ], [ -115.2523377, 36.208277099900002 ], [ -115.2523377, 36.208279799899998 ], [ -115.2523458, 36.208279799899998 ], [ -115.2523458, 36.208282499900001 ], [ -115.2523512, 36.208282499900001 ], [ -115.2523512, 36.208285199899997 ], [ -115.2523539, 36.208285199899997 ], [ -115.2523539, 36.2082878999 ], [ -115.2523566, 36.2082878999 ], [ -115.2523566, 36.208290599900003 ], [ -115.2523593, 36.208290599900003 ], [ -115.2523593, 36.208293299899999 ], [ -115.252362, 36.208293299899999 ], [ -115.252362, 36.208298699899998 ], [ -115.2523647, 36.208298699899998 ], [ -115.2523647, 36.208301399900002 ], [ -115.2523674, 36.208301399900002 ], [ -115.2523674, 36.208304099899998 ], [ -115.2523701, 36.208304099899998 ], [ -115.2523701, 36.208306799900001 ], [ -115.2523728, 36.208306799900001 ], [ -115.2523728, 36.208309499899997 ], [ -115.2523755, 36.208309499899997 ], [ -115.2523755, 36.2083121999 ], [ -115.2523782, 36.2083121999 ], [ -115.2523782, 36.208314899900003 ], [ -115.2523809, 36.208314899900003 ], [ -115.2523809, 36.208320299900002 ], [ -115.2523836, 36.208320299900002 ], [ -115.2523836, 36.208347299899998 ], [ -115.2523809, 36.208347299899998 ], [ -115.2523809, 36.208360799899999 ], [ -115.2523782, 36.208360799899999 ], [ -115.2523782, 36.208395899899998 ], [ -115.2523755, 36.208395899899998 ], [ -115.2523755, 36.208412099900002 ], [ -115.2523782, 36.208412099900002 ], [ -115.2523782, 36.2084282999 ], [ -115.2523755, 36.2084282999 ], [ -115.2523755, 36.208430999900003 ], [ -115.2523728, 36.208430999900003 ], [ -115.2523728, 36.208433699899999 ], [ -115.2523701, 36.208433699899999 ], [ -115.2523701, 36.208436399900002 ], [ -115.2523647, 36.208436399900002 ], [ -115.2523647, 36.208439099899998 ], [ -115.252362, 36.208439099899998 ], [ -115.252362, 36.208444499899997 ], [ -115.2523593, 36.208444499899997 ], [ -115.2523593, 36.208449899899996 ], [ -115.2523566, 36.208449899899996 ], [ -115.2523566, 36.208452599899999 ], [ -115.2523512, 36.208452599899999 ], [ -115.2523512, 36.208455299900002 ], [ -115.2523296, 36.208455299900002 ], [ -115.2523296, 36.208457999899998 ] ] ] } },
{ "type": "Feature", "properties": { "value": 255.0 }, "geometry": { "type": "Polygon", "coordinates": [ [ [ -115.2519705, 36.208179899900003 ], [ -115.2519192, 36.208179899900003 ], [ -115.2519192, 36.2081771999 ], [ -115.2519138, 36.2081771999 ], [ -115.2519138, 36.208169099899997 ], [ -115.2519111, 36.208169099899997 ], [ -115.2519111, 36.208144799899998 ], [ -115.2519084, 36.208144799899998 ], [ -115.2519084, 36.208139399899999 ], [ -115.2519111, 36.208139399899999 ], [ -115.2519111, 36.208115099899999 ], [ -115.2519084, 36.208115099899999 ], [ -115.2519084, 36.208098899900001 ], [ -115.2519111, 36.208098899900001 ], [ -115.2519111, 36.208090799899999 ], [ -115.2519084, 36.208090799899999 ], [ -115.2519084, 36.208015199900004 ], [ -115.2519111, 36.208015199900004 ], [ -115.2519111, 36.207982799900002 ], [ -115.2519138, 36.207982799900002 ], [ -115.2519138, 36.207980099899999 ], [ -115.2520164, 36.207980099899999 ], [ -115.2520164, 36.207982799900002 ], [ -115.2520326, 36.207982799900002 ], [ -115.2520326, 36.207980099899999 ], [ -115.2520488, 36.207980099899999 ], [ -115.2520488, 36.207982799900002 ], [ -115.2520785, 36.207982799900002 ], [ -115.2520785, 36.207980099899999 ], [ -115.252254, 36.207980099899999 ], [ -115.252254, 36.207982799900002 ], [ -115.2522756, 36.207982799900002 ], [ -115.2522756, 36.207980099899999 ], [ -115.2523404, 36.207980099899999 ], [ -115.2523404, 36.207982799900002 ], [ -115.2523485, 36.207982799900002 ], [ -115.2523485, 36.207985499899998 ], [ -115.2523512, 36.207985499899998 ], [ -115.2523512, 36.207988199900001 ], [ -115.2523566, 36.207988199900001 ], [ -115.2523566, 36.207990899900004 ], [ -115.2523593, 36.207990899900004 ], [ -115.2523593, 36.2079935999 ], [ -115.252362, 36.2079935999 ], [ -115.252362, 36.207998999899999 ], [ -115.2523647, 36.207998999899999 ], [ -115.2523647, 36.208001699900002 ], [ -115.2523674, 36.208001699900002 ], [ -115.2523674, 36.208009799899997 ], [ -115.2523701, 36.208009799899997 ], [ -115.2523701, 36.208015199900004 ], [ -115.2523728, 36.208015199900004 ], [ -115.2523728, 36.2080178999 ], [ -115.2523755, 36.2080178999 ], [ -115.2523755, 36.208025999900002 ], [ -115.2523782, 36.208025999900002 ], [ -115.2523782, 36.208031399900001 ], [ -115.2523755, 36.208031399900001 ], [ -115.2523755, 36.2080421999 ], [ -115.2523728, 36.2080421999 ], [ -115.2523728, 36.208117799900002 ], [ -115.2523701, 36.208117799900002 ], [ -115.2523701, 36.208123199900001 ], [ -115.2523674, 36.208123199900001 ], [ -115.2523674, 36.208125899899997 ], [ -115.2523647, 36.208125899899997 ], [ -115.2523647, 36.2081285999 ], [ -115.252362, 36.2081285999 ], [ -115.252362, 36.208131299900003 ], [ -115.2523593, 36.208131299900003 ], [ -115.2523593, 36.208133999899999 ], [ -115.2523566, 36.208133999899999 ], [ -115.2523566, 36.208136699900002 ], [ -115.2523539, 36.208136699900002 ], [ -115.2523539, 36.208144799899998 ], [ -115.2523512, 36.208144799899998 ], [ -115.2523512, 36.208150199900004 ], [ -115.2523485, 36.208150199900004 ], [ -115.2523485, 36.208155599900003 ], [ -115.2523431, 36.208155599900003 ], [ -115.2523431, 36.208158299899999 ], [ -115.2523323, 36.208158299899999 ], [ -115.2523323, 36.208160999900002 ], [ -115.2523269, 36.208160999900002 ], [ -115.2523269, 36.208163699899998 ], [ -115.2523215, 36.208163699899998 ], [ -115.2523215, 36.208166399900001 ], [ -115.2523188, 36.208166399900001 ], [ -115.2523188, 36.208169099899997 ], [ -115.2523161, 36.208169099899997 ], [ -115.2523161, 36.208171799900001 ], [ -115.2523107, 36.208171799900001 ], [ -115.2523107, 36.208174499900004 ], [ -115.2522837, 36.208174499900004 ], [ -115.2522837, 36.2081771999 ], [ -115.2519705, 36.2081771999 ], [ -115.2519705, 36.208179899900003 ] ] ] } },
{ "type": "Feature", "properties": { "value": 255.0 }, "geometry": { "type": "Polygon", "coordinates": [ [ [ -115.2517275, 36.208125899899997 ], [ -115.2517113, 36.208125899899997 ], [ -115.2517113, 36.208123199900001 ], [ -115.2516951, 36.208123199900001 ], [ -115.2516951, 36.208120499899998 ], [ -115.2516897, 36.208120499899998 ], [ -115.2516897, 36.208117799900002 ], [ -115.251687, 36.208117799900002 ], [ -115.251687, 36.2081096999 ], [ -115.2516843, 36.2081096999 ], [ -115.2516843, 36.208039499900003 ], [ -115.251687, 36.208039499900003 ], [ -115.251687, 36.207977399900003 ], [ -115.25169240000001, 36.207977399900003 ], [ -115.25169240000001, 36.207974699899999 ], [ -115.2516978, 36.207974699899999 ], [ -115.2516978, 36.207977399900003 ], [ -115.251741, 36.207977399900003 ], [ -115.251741, 36.207980099899999 ], [ -115.2517437, 36.207980099899999 ], [ -115.2517437, 36.208120499899998 ], [ -115.251741, 36.208120499899998 ], [ -115.251741, 36.208123199900001 ], [ -115.2517275, 36.208123199900001 ], [ -115.2517275, 36.208125899899997 ] ] ] } },
{ "type": "Feature", "properties": { "value": 255.0 }, "geometry": { "type": "Polygon", "coordinates": [ [ [ -115.2531045, 36.2079260999 ], [ -115.2531018, 36.2079260999 ], [ -115.2531018, 36.207923399900004 ], [ -115.2530991, 36.207923399900004 ], [ -115.2530991, 36.207920699900001 ], [ -115.2531018, 36.207920699900001 ], [ -115.2531018, 36.207912599899998 ], [ -115.253107199999988, 36.207912599899998 ], [ -115.253107199999988, 36.207909899900002 ], [ -115.2531126, 36.207909899900002 ], [ -115.2531126, 36.207917999899998 ], [ -115.2531099, 36.207917999899998 ], [ -115.2531099, 36.207915299900002 ], [ -115.253107199999988, 36.207915299900002 ], [ -115.253107199999988, 36.207923399900004 ], [ -115.2531045, 36.207923399900004 ], [ -115.2531045, 36.2079260999 ] ] ] } },
{ "type": "Feature", "properties": { "value": 255.0 }, "geometry": { "type": "Polygon", "coordinates": [ [ [ -115.2517302, 36.207850499900005 ], [ -115.2517221, 36.207850499900005 ], [ -115.2517221, 36.207847799900001 ], [ -115.2517194, 36.207847799900001 ], [ -115.2517194, 36.207845099899998 ], [ -115.2517221, 36.207845099899998 ], [ -115.2517221, 36.207839699899999 ], [ -115.2517248, 36.207839699899999 ], [ -115.2517248, 36.2078342999 ], [ -115.2517275, 36.2078342999 ], [ -115.2517275, 36.207831599900004 ], [ -115.2517302, 36.207831599900004 ], [ -115.2517302, 36.207850499900005 ] ] ] } },
{ "type": "Feature", "properties": { "value": 255.0 }, "geometry": { "type": "Polygon", "coordinates": [ [ [ -115.2524673, 36.2078774999 ], [ -115.2524565, 36.2078774999 ], [ -115.2524565, 36.207874799900004 ], [ -115.2524052, 36.207874799900004 ], [ -115.2524052, 36.207872099900001 ], [ -115.2523755, 36.207872099900001 ], [ -115.2523755, 36.207869399899998 ], [ -115.2523593, 36.207869399899998 ], [ -115.2523593, 36.207866699900002 ], [ -115.2523512, 36.207866699900002 ], [ -115.2523512, 36.207863999899999 ], [ -115.2523431, 36.207863999899999 ], [ -115.2523431, 36.207861299900003 ], [ -115.252308, 36.207861299900003 ], [ -115.252308, 36.2078585999 ], [ -115.2522675, 36.2078585999 ], [ -115.2522675, 36.207855899900004 ], [ -115.2522405, 36.207855899900004 ], [ -115.2522405, 36.207853199900001 ], [ -115.2522108, 36.207853199900001 ], [ -115.2522108, 36.207850499900005 ], [ -115.2521838, 36.207850499900005 ], [ -115.2521838, 36.207847799900001 ], [ -115.2521595, 36.207847799900001 ], [ -115.2521595, 36.207845099899998 ], [ -115.2521514, 36.207845099899998 ], [ -115.2521514, 36.207815399899999 ], [ -115.2521541, 36.207815399899999 ], [ -115.2521541, 36.207807299900004 ], [ -115.2521568, 36.207807299900004 ], [ -115.2521568, 36.207804599900001 ], [ -115.2521649, 36.207804599900001 ], [ -115.2521649, 36.207801899899998 ], [ -115.2522027, 36.207801899899998 ], [ -115.2522027, 36.207804599900001 ], [ -115.2522135, 36.207804599900001 ], [ -115.2522135, 36.207807299900004 ], [ -115.252227, 36.207807299900004 ], [ -115.252227, 36.2078099999 ], [ -115.2522432, 36.2078099999 ], [ -115.2522432, 36.207812699900003 ], [ -115.2522621, 36.207812699900003 ], [ -115.2522621, 36.207815399899999 ], [ -115.2522945, 36.207815399899999 ], [ -115.2522945, 36.207818099900003 ], [ -115.2523161, 36.207818099900003 ], [ -115.2523161, 36.207820799899999 ], [ -115.2523269, 36.207820799899999 ], [ -115.2523269, 36.207823499900002 ], [ -115.2523431, 36.207823499900002 ], [ -115.2523431, 36.207826199899998 ], [ -115.2524187, 36.207826199899998 ], [ -115.2524187, 36.207828899900001 ], [ -115.2524403, 36.207828899900001 ], [ -115.2524403, 36.207831599900004 ], [ -115.2524565, 36.207831599900004 ], [ -115.2524565, 36.2078342999 ], [ -115.2524646, 36.2078342999 ], [ -115.2524646, 36.207836999900003 ], [ -115.2524673, 36.207836999900003 ], [ -115.2524673, 36.207839699899999 ], [ -115.25247, 36.207839699899999 ], [ -115.25247, 36.207845099899998 ], [ -115.2524727, 36.207845099899998 ], [ -115.2524727, 36.207855899900004 ], [ -115.2524754, 36.207855899900004 ], [ -115.2524754, 36.207869399899998 ], [ -115.2524727, 36.207869399899998 ], [ -115.2524727, 36.207874799900004 ], [ -115.2524673, 36.207874799900004 ], [ -115.2524673, 36.2078774999 ] ] ] } },
{ "type": "Feature", "properties": { "value": 255.0 }, "geometry": { "type": "Polygon", "coordinates": [ [ [ -115.251508800000011, 36.2080421999 ], [ -115.2514548, 36.2080421999 ], [ -115.2514548, 36.2078828999 ], [ -115.2514521, 36.2078828999 ], [ -115.2514521, 36.207872099900001 ], [ -115.2514548, 36.207872099900001 ], [ -115.2514548, 36.207831599900004 ], [ -115.2514521, 36.207831599900004 ], [ -115.2514521, 36.207793799900003 ], [ -115.2514494, 36.207793799900003 ], [ -115.2514494, 36.207780299900001 ], [ -115.2514467, 36.207780299900001 ], [ -115.2514467, 36.207769499900003 ], [ -115.2514494, 36.207769499900003 ], [ -115.2514494, 36.2077667999 ], [ -115.2514656, 36.2077667999 ], [ -115.2514656, 36.207769499900003 ], [ -115.2514872, 36.207769499900003 ], [ -115.2514872, 36.207772199899999 ], [ -115.2515115, 36.207772199899999 ], [ -115.2515115, 36.207774899900002 ], [ -115.2515142, 36.207774899900002 ], [ -115.2515142, 36.2080367999 ], [ -115.2515115, 36.2080367999 ], [ -115.2515115, 36.208039499900003 ], [ -115.251508800000011, 36.208039499900003 ], [ -115.251508800000011, 36.2080421999 ] ] ] } },
{ "type": "Feature", "properties": { "value": 255.0 }, "geometry": { "type": "Polygon", "coordinates": [ [ [ -115.2529803, 36.207639899900002 ], [ -115.2529722, 36.207639899900002 ], [ -115.2529722, 36.207637199899999 ], [ -115.252956, 36.207637199899999 ], [ -115.252956, 36.207634499900003 ], [ -115.2529371, 36.207634499900003 ], [ -115.2529371, 36.2076317999 ], [ -115.2529182, 36.2076317999 ], [ -115.2529182, 36.207629099900004 ], [ -115.252893899999989, 36.207629099900004 ], [ -115.252893899999989, 36.207626399900001 ], [ -115.2528669, 36.207626399900001 ], [ -115.2528669, 36.207623699900005 ], [ -115.2528237, 36.207623699900005 ], [ -115.2528237, 36.207620999900001 ], [ -115.2528075, 36.207620999900001 ], [ -115.2528075, 36.207618299899998 ], [ -115.2527616, 36.207618299899998 ], [ -115.2527616, 36.207615599900002 ], [ -115.2527373, 36.207615599900002 ], [ -115.2527373, 36.207612899899999 ], [ -115.2527265, 36.207612899899999 ], [ -115.2527265, 36.207610199900003 ], [ -115.2527157, 36.207610199900003 ], [ -115.2527157, 36.2076074999 ], [ -115.2527022, 36.2076074999 ], [ -115.2527022, 36.207604799900004 ], [ -115.252659, 36.207604799900004 ], [ -115.252659, 36.207602099900001 ], [ -115.2526347, 36.207602099900001 ], [ -115.2526347, 36.207599399900005 ], [ -115.2525942, 36.207599399900005 ], [ -115.2525942, 36.207596699900002 ], [ -115.2525753, 36.207596699900002 ], [ -115.2525753, 36.207593999899998 ], [ -115.252551, 36.207593999899998 ], [ -115.252551, 36.207591299900002 ], [ -115.2525267, 36.207591299900002 ], [ -115.2525267, 36.207588599899999 ], [ -115.2525078, 36.207588599899999 ], [ -115.2525078, 36.207585899900003 ], [ -115.2524916, 36.207585899900003 ], [ -115.2524916, 36.2075831999 ], [ -115.2524754, 36.2075831999 ], [ -115.2524754, 36.207580499900004 ], [ -115.2524538, 36.207580499900004 ], [ -115.2524538, 36.207577799900001 ], [ -115.2524241, 36.207577799900001 ], [ -115.2524241, 36.207575099900005 ], [ -115.252389, 36.207575099900005 ], [ -115.252389, 36.207572399900002 ], [ -115.2523647, 36.207572399900002 ], [ -115.2523647, 36.207569699899999 ], [ -115.252335, 36.207569699899999 ], [ -115.252335, 36.207566999900003 ], [ -115.2523161, 36.207566999900003 ], [ -115.2523161, 36.2075642999 ], [ -115.2523026, 36.2075642999 ], [ -115.2523026, 36.207561599900004 ], [ -115.2522837, 36.207561599900004 ], [ -115.2522837, 36.2075588999 ], [ -115.2522513, 36.2075588999 ], [ -115.2522513, 36.207556199900004 ], [ -115.2522324, 36.207556199900004 ], [ -115.2522324, 36.207553499900001 ], [ -115.2522108, 36.207553499900001 ], [ -115.2522108, 36.207550799900005 ], [ -115.2521892, 36.207550799900005 ], [ -115.2521892, 36.207548099900002 ], [ -115.2521676, 36.207548099900002 ], [ -115.2521676, 36.207545399899999 ], [ -115.2521487, 36.207545399899999 ], [ -115.2521487, 36.207542699900003 ], [ -115.2521271, 36.207542699900003 ], [ -115.2521271, 36.2075399999 ], [ -115.2520812, 36.2075399999 ], [ -115.2520812, 36.207537299900004 ], [ -115.252065, 36.207537299900004 ], [ -115.252065, 36.207534599900001 ], [ -115.2520542, 36.207534599900001 ], [ -115.2520542, 36.207531899900005 ], [ -115.2520299, 36.207531899900005 ], [ -115.2520299, 36.207529199900002 ], [ -115.2520164, 36.207529199900002 ], [ -115.2520164, 36.207526499899998 ], [ -115.2519786, 36.207526499899998 ], [ -115.2519786, 36.207523799900002 ], [ -115.2519543, 36.207523799900002 ], [ -115.2519543, 36.207521099899999 ], [ -115.251903, 36.207521099899999 ], [ -115.251903, 36.207518399900003 ], [ -115.2518706, 36.207518399900003 ], [ -115.2518706, 36.2075156999 ], [ -115.2518463, 36.2075156999 ], [ -115.2518463, 36.207512999900004 ], [ -115.2518355, 36.207512999900004 ], [ -115.2518355, 36.207510299900001 ], [ -115.2518301, 36.207510299900001 ], [ -115.2518301, 36.207507599900005 ], [ -115.2518274, 36.207507599900005 ], [ -115.2518274, 36.207504899900002 ], [ -115.2518247, 36.207504899900002 ], [ -115.2518247, 36.207461699900001 ], [ -115.251822, 36.207461699900001 ], [ -115.251822, 36.207415799900005 ], [ -115.2518193, 36.207415799900005 ], [ -115.2518193, 36.207410399899999 ], [ -115.2518166, 36.207410399899999 ], [ -115.2518166, 36.2073995999 ], [ -115.2518193, 36.2073995999 ], [ -115.2518193, 36.207386099899999 ], [ -115.251822, 36.207386099899999 ], [ -115.251822, 36.2073374999 ], [ -115.2518247, 36.2073374999 ], [ -115.2518247, 36.2073131999 ], [ -115.251822, 36.2073131999 ], [ -115.251822, 36.207272699900003 ], [ -115.2531126, 36.207272699900003 ], [ -115.2531126, 36.207623699900005 ], [ -115.2530991, 36.207623699900005 ], [ -115.2530991, 36.207620999900001 ], [ -115.2530613, 36.207620999900001 ], [ -115.2530613, 36.207618299899998 ], [ -115.2530559, 36.207618299899998 ], [ -115.2530559, 36.207615599900002 ], [ -115.2530532, 36.207615599900002 ], [ -115.2530532, 36.207612899899999 ], [ -115.2530505, 36.207612899899999 ], [ -115.2530505, 36.207610199900003 ], [ -115.2530451, 36.207610199900003 ], [ -115.2530451, 36.207612899899999 ], [ -115.2530424, 36.207612899899999 ], [ -115.2530424, 36.207615599900002 ], [ -115.253037, 36.207615599900002 ], [ -115.253037, 36.207620999900001 ], [ -115.2530343, 36.207620999900001 ], [ -115.2530343, 36.207623699900005 ], [ -115.2530316, 36.207623699900005 ], [ -115.2530316, 36.207626399900001 ], [ -115.2530235, 36.207626399900001 ], [ -115.2530235, 36.207623699900005 ], [ -115.2530208, 36.207623699900005 ], [ -115.2530208, 36.207620999900001 ], [ -115.2530181, 36.207620999900001 ], [ -115.2530181, 36.207618299899998 ], [ -115.2530127, 36.207618299899998 ], [ -115.2530127, 36.207612899899999 ], [ -115.25301, 36.207612899899999 ], [ -115.25301, 36.2076074999 ], [ -115.2530073, 36.2076074999 ], [ -115.2530073, 36.207599399900005 ], [ -115.2530046, 36.207599399900005 ], [ -115.2530046, 36.207585899900003 ], [ -115.2530073, 36.207585899900003 ], [ -115.2530073, 36.207569699899999 ], [ -115.25301, 36.207569699899999 ], [ -115.25301, 36.207534599900001 ], [ -115.2530073, 36.207534599900001 ], [ -115.2530073, 36.207537299900004 ], [ -115.2530046, 36.207537299900004 ], [ -115.2530046, 36.207545399899999 ], [ -115.2530019, 36.207545399899999 ], [ -115.2530019, 36.207561599900004 ], [ -115.2529992, 36.207561599900004 ], [ -115.2529992, 36.207585899900003 ], [ -115.2529965, 36.207585899900003 ], [ -115.2529965, 36.207596699900002 ], [ -115.2529938, 36.207596699900002 ], [ -115.2529938, 36.2076074999 ], [ -115.252991099999988, 36.2076074999 ], [ -115.252991099999988, 36.207620999900001 ], [ -115.2529884, 36.207620999900001 ], [ -115.2529884, 36.2076317999 ], [ -115.2529857, 36.2076317999 ], [ -115.2529857, 36.207637199899999 ], [ -115.2529803, 36.207637199899999 ], [ -115.2529803, 36.207639899900002 ] ] ] } }
]
}
