{
"type": "FeatureCollection",
"crs": { "type": "name", "properties": { "name": "urn:ogc:def:crs:OGC:1.3:CRS84" } },
"features": [
{ "type": "Feature", "properties": { "value": 255.0 }, "geometry": { "type": "Polygon", "coordinates": [ [ [ -115.1849214, 36.163397699800001 ], [ -115.1847567, 36.163397699800001 ], [ -115.1847567, 36.163392299800002 ], [ -115.184754, 36.163392299800002 ], [ -115.184754, 36.163389599799999 ], [ -115.1847513, 36.163389599799999 ], [ -115.1847513, 36.1633787998 ], [ -115.1847486, 36.1633787998 ], [ -115.1847486, 36.163297799799999 ], [ -115.1847513, 36.163297799799999 ], [ -115.1847513, 36.163295099800003 ], [ -115.184754, 36.163295099800003 ], [ -115.184754, 36.1632923998 ], [ -115.1847567, 36.1632923998 ], [ -115.1847567, 36.163289699800004 ], [ -115.1847621, 36.163289699800004 ], [ -115.1847621, 36.1632869998 ], [ -115.1847675, 36.1632869998 ], [ -115.1847675, 36.163284299799997 ], [ -115.1847729, 36.163284299799997 ], [ -115.1847729, 36.163281599800001 ], [ -115.184781, 36.163281599800001 ], [ -115.184781, 36.163278899799998 ], [ -115.1848053, 36.163278899799998 ], [ -115.1848053, 36.163276199800002 ], [ -115.1848161, 36.163276199800002 ], [ -115.1848161, 36.163273499799999 ], [ -115.1848215, 36.163273499799999 ], [ -115.1848215, 36.163270799800003 ], [ -115.1848188, 36.163270799800003 ], [ -115.1848188, 36.163262699800001 ], [ -115.1848242, 36.163262699800001 ], [ -115.1848242, 36.163259999799998 ], [ -115.184835, 36.163259999799998 ], [ -115.184835, 36.163257299800001 ], [ -115.1848674, 36.163257299800001 ], [ -115.1848674, 36.163259999799998 ], [ -115.1848701, 36.163259999799998 ], [ -115.1848701, 36.163262699800001 ], [ -115.1848755, 36.163262699800001 ], [ -115.1848755, 36.163265399800004 ], [ -115.1848782, 36.163265399800004 ], [ -115.1848782, 36.1632680998 ], [ -115.1848809, 36.1632680998 ], [ -115.1848809, 36.163270799800003 ], [ -115.1848836, 36.163270799800003 ], [ -115.1848836, 36.163273499799999 ], [ -115.1848863, 36.163273499799999 ], [ -115.1848863, 36.163276199800002 ], [ -115.1848971, 36.163276199800002 ], [ -115.1848971, 36.163273499799999 ], [ -115.1849025, 36.163273499799999 ], [ -115.1849025, 36.163270799800003 ], [ -115.1849079, 36.163270799800003 ], [ -115.1849079, 36.1632680998 ], [ -115.1849106, 36.1632680998 ], [ -115.1849106, 36.163265399800004 ], [ -115.1849133, 36.163265399800004 ], [ -115.1849133, 36.163262699800001 ], [ -115.184916, 36.163262699800001 ], [ -115.184916, 36.163259999799998 ], [ -115.1849187, 36.163259999799998 ], [ -115.1849187, 36.163257299800001 ], [ -115.1849268, 36.163257299800001 ], [ -115.1849268, 36.163254599799998 ], [ -115.1849619, 36.163254599799998 ], [ -115.1849619, 36.163257299800001 ], [ -115.1849754, 36.163257299800001 ], [ -115.1849754, 36.163259999799998 ], [ -115.1849781, 36.163259999799998 ], [ -115.1849781, 36.163262699800001 ], [ -115.1849808, 36.163262699800001 ], [ -115.1849808, 36.163330199800001 ], [ -115.1849781, 36.163330199800001 ], [ -115.1849781, 36.163332899800004 ], [ -115.1849754, 36.163332899800004 ], [ -115.1849754, 36.1633355998 ], [ -115.1849241, 36.1633355998 ], [ -115.1849241, 36.163338299800003 ], [ -115.1849187, 36.163338299800003 ], [ -115.1849187, 36.163346399799998 ], [ -115.1849214, 36.163346399799998 ], [ -115.1849214, 36.163381499800003 ], [ -115.1849187, 36.163381499800003 ], [ -115.1849187, 36.163386899800003 ], [ -115.1849214, 36.163386899800003 ], [ -115.1849214, 36.163392299800002 ], [ -115.1849187, 36.163392299800002 ], [ -115.1849187, 36.163394999799998 ], [ -115.1849214, 36.163394999799998 ], [ -115.1849214, 36.163397699800001 ] ] ] } },
{ "type": "Feature", "properties": { "value": 255.0 }, "geometry": { "type": "Polygon", "coordinates": [ [ [ -115.1856369, 36.163397699800001 ], [ -115.1854965, 36.163397699800001 ], [ -115.1854965, 36.163389599799999 ], [ -115.1854938, 36.163389599799999 ], [ -115.1854938, 36.163381499800003 ], [ -115.1854911, 36.163381499800003 ], [ -115.1854911, 36.163376099800004 ], [ -115.1854884, 36.163376099800004 ], [ -115.1854884, 36.1633355998 ], [ -115.1854857, 36.1633355998 ], [ -115.1854857, 36.163319399800002 ], [ -115.1854884, 36.163319399800002 ], [ -115.1854884, 36.163308599800004 ], [ -115.1854911, 36.163308599800004 ], [ -115.1854911, 36.163300499800002 ], [ -115.1854884, 36.163300499800002 ], [ -115.1854884, 36.1632869998 ], [ -115.1854911, 36.1632869998 ], [ -115.1854911, 36.163241099800004 ], [ -115.1854938, 36.163241099800004 ], [ -115.1854938, 36.163235699799998 ], [ -115.1854965, 36.163235699799998 ], [ -115.1854965, 36.163232999800002 ], [ -115.1855019, 36.163232999800002 ], [ -115.1855019, 36.163230299799999 ], [ -115.1855235, 36.163230299799999 ], [ -115.1855235, 36.163227599800003 ], [ -115.1855343, 36.163227599800003 ], [ -115.1855343, 36.163230299799999 ], [ -115.1855937, 36.163230299799999 ], [ -115.1855937, 36.163232999800002 ], [ -115.1855991, 36.163232999800002 ], [ -115.1855991, 36.163235699799998 ], [ -115.1856018, 36.163235699799998 ], [ -115.1856018, 36.163238399800001 ], [ -115.1856045, 36.163238399800001 ], [ -115.1856045, 36.163249199799999 ], [ -115.1856072, 36.163249199799999 ], [ -115.1856072, 36.163270799800003 ], [ -115.1856045, 36.163270799800003 ], [ -115.1856045, 36.163319399800002 ], [ -115.1856072, 36.163319399800002 ], [ -115.1856072, 36.163324799800002 ], [ -115.1856315, 36.163324799800002 ], [ -115.1856315, 36.163327499799998 ], [ -115.1856342, 36.163327499799998 ], [ -115.1856342, 36.163332899800004 ], [ -115.1856369, 36.163332899800004 ], [ -115.1856369, 36.163365299799999 ], [ -115.1856396, 36.163365299799999 ], [ -115.1856396, 36.163386899800003 ], [ -115.1856369, 36.163386899800003 ], [ -115.1856369, 36.163397699800001 ] ] ] } },
{ "type": "Feature", "properties": { "value": 255.0 }, "geometry": { "type": "Polygon", "coordinates": [ [ [ -115.1859636, 36.163241099800004 ], [ -115.185942, 36.163241099800004 ], [ -115.185942, 36.163238399800001 ], [ -115.1859393, 36.163238399800001 ], [ -115.1859393, 36.163230299799999 ], [ -115.1859582, 36.163230299799999 ], [ -115.1859582, 36.163232999800002 ], [ -115.1859636, 36.163232999800002 ], [ -115.1859636, 36.163241099800004 ] ] ] } },
{ "type": "Feature", "properties": { "value": 255.0 }, "geometry": { "type": "Polygon", "coordinates": [ [ [ -115.1857827, 36.163235699799998 ], [ -115.1857584, 36.163235699799998 ], [ -115.1857584, 36.163232999800002 ], [ -115.1857557, 36.163232999800002 ], [ -115.1857557, 36.163224899799999 ], [ -115.1857584, 36.163224899799999 ], [ -115.1857584, 36.163222199800003 ], [ -115.1857638, 36.163222199800003 ], [ -115.1857638, 36.1632194998 ], [ -115.1857719, 36.1632194998 ], [ -115.1857719, 36.163222199800003 ], [ -115.1857854, 36.163222199800003 ], [ -115.1857854, 36.1632194998 ], [ -115.1857935, 36.1632194998 ], [ -115.1857935, 36.163222199800003 ], [ -115.1857962, 36.163222199800003 ], [ -115.1857962, 36.163230299799999 ], [ -115.1857908, 36.163230299799999 ], [ -115.1857908, 36.163232999800002 ], [ -115.1857827, 36.163232999800002 ], [ -115.1857827, 36.163235699799998 ] ] ] } },
{ "type": "Feature", "properties": { "value": 255.0 }, "geometry": { "type": "Polygon", "coordinates": [ [ [ -115.1856909, 36.163154699800003 ], [ -115.1856585, 36.163154699800003 ], [ -115.1856585, 36.1631519998 ], [ -115.1856558, 36.1631519998 ], [ -115.1856558, 36.1631330998 ], [ -115.1856585, 36.1631330998 ], [ -115.1856585, 36.1631276998 ], [ -115.1856612, 36.1631276998 ], [ -115.1856612, 36.163122299800001 ], [ -115.1856639, 36.163122299800001 ], [ -115.1856639, 36.163119599799998 ], [ -115.1856666, 36.163119599799998 ], [ -115.1856666, 36.163116899800002 ], [ -115.1856747, 36.163116899800002 ], [ -115.1856747, 36.163114199799999 ], [ -115.1856855, 36.163114199799999 ], [ -115.1856855, 36.163116899800002 ], [ -115.1856882, 36.163116899800002 ], [ -115.1856882, 36.163122299800001 ], [ -115.1856909, 36.163122299800001 ], [ -115.1856909, 36.163130399800004 ], [ -115.1856936, 36.163130399800004 ], [ -115.1856936, 36.163149299799997 ], [ -115.1856909, 36.163149299799997 ], [ -115.1856909, 36.163154699800003 ] ] ] } },
{ "type": "Feature", "properties": { "value": 255.0 }, "geometry": { "type": "Polygon", "coordinates": [ [ [ -115.1855964, 36.163173599800004 ], [ -115.1855424, 36.163173599800004 ], [ -115.1855424, 36.163143899799998 ], [ -115.1855397, 36.163143899799998 ], [ -115.1855397, 36.163116899800002 ], [ -115.1855424, 36.163116899800002 ], [ -115.1855424, 36.1630601998 ], [ -115.1855397, 36.1630601998 ], [ -115.1855397, 36.163057499799997 ], [ -115.185537, 36.163057499799997 ], [ -115.185537, 36.163054799800001 ], [ -115.1855343, 36.163054799800001 ], [ -115.1855343, 36.163052099799998 ], [ -115.1855316, 36.163052099799998 ], [ -115.1855316, 36.163049399800002 ], [ -115.1855289, 36.163049399800002 ], [ -115.1855289, 36.163046699799999 ], [ -115.1855262, 36.163046699799999 ], [ -115.1855262, 36.1630412998 ], [ -115.1855235, 36.1630412998 ], [ -115.1855235, 36.163038599800004 ], [ -115.1855181, 36.163038599800004 ], [ -115.1855181, 36.163035899800001 ], [ -115.1854992, 36.163035899800001 ], [ -115.1854992, 36.163033199799997 ], [ -115.1854938, 36.163033199799997 ], [ -115.1854938, 36.163025099800002 ], [ -115.1854911, 36.163025099800002 ], [ -115.1854911, 36.163011599800001 ], [ -115.1854938, 36.163011599800001 ], [ -115.1854938, 36.163000799800002 ], [ -115.1854965, 36.163000799800002 ], [ -115.1854965, 36.162998099799999 ], [ -115.1855019, 36.162998099799999 ], [ -115.1855019, 36.162995399800003 ], [ -115.1855289, 36.162995399800003 ], [ -115.1855289, 36.1629926998 ], [ -115.1855829, 36.1629926998 ], [ -115.1855829, 36.162995399800003 ], [ -115.1855937, 36.162995399800003 ], [ -115.1855937, 36.162998099799999 ], [ -115.1856018, 36.162998099799999 ], [ -115.1856018, 36.163000799800002 ], [ -115.1856099, 36.163000799800002 ], [ -115.1856099, 36.163003499799999 ], [ -115.1856288, 36.163003499799999 ], [ -115.1856288, 36.163006199800002 ], [ -115.1856396, 36.163006199800002 ], [ -115.1856396, 36.163008899799998 ], [ -115.1856423, 36.163008899799998 ], [ -115.1856423, 36.163011599800001 ], [ -115.185645, 36.163011599800001 ], [ -115.185645, 36.163014299799997 ], [ -115.1856477, 36.163014299799997 ], [ -115.1856477, 36.163027799799998 ], [ -115.1856504, 36.163027799799998 ], [ -115.1856504, 36.163030499800001 ], [ -115.1856531, 36.163030499800001 ], [ -115.1856531, 36.163033199799997 ], [ -115.1856666, 36.163033199799997 ], [ -115.1856666, 36.163035899800001 ], [ -115.185672, 36.163035899800001 ], [ -115.185672, 36.163038599800004 ], [ -115.1856747, 36.163038599800004 ], [ -115.1856747, 36.1630412998 ], [ -115.1856774, 36.1630412998 ], [ -115.1856774, 36.163065599799999 ], [ -115.1856747, 36.163065599799999 ], [ -115.1856747, 36.163079099800001 ], [ -115.185672, 36.163079099800001 ], [ -115.185672, 36.163081799799997 ], [ -115.1856504, 36.163081799799997 ], [ -115.1856504, 36.1630844998 ], [ -115.1856477, 36.1630844998 ], [ -115.1856477, 36.163135799800003 ], [ -115.1856504, 36.163135799800003 ], [ -115.1856504, 36.163154699800003 ], [ -115.1856477, 36.163154699800003 ], [ -115.1856477, 36.163162799799998 ], [ -115.1856423, 36.163162799799998 ], [ -115.1856423, 36.163165499800002 ], [ -115.1856288, 36.163165499800002 ], [ -115.1856288, 36.163162799799998 ], [ -115.185618, 36.163162799799998 ], [ -115.185618, 36.163165499800002 ], [ -115.1856045, 36.163165499800002 ], [ -115.1856045, 36.163168199799998 ], [ -115.1856018, 36.163168199799998 ], [ -115.1856018, 36.163170899800001 ], [ -115.1855964, 36.163170899800001 ], [ -115.1855964, 36.163173599800004 ] ] ] } },
{ "type": "Feature", "properties": { "value": 255.0 }, "geometry": { "type": "Polygon", "coordinates": [ [ [ -115.1863065, 36.163054799800001 ], [ -115.1862606, 36.163054799800001 ], [ -115.1862606, 36.163052099799998 ], [ -115.1862444, 36.163052099799998 ], [ -115.1862444, 36.163054799800001 ], [ -115.186185, 36.163054799800001 ], [ -115.186185, 36.163052099799998 ], [ -115.1861823, 36.163052099799998 ], [ -115.1861823, 36.163025099800002 ], [ -115.186185, 36.163025099800002 ], [ -115.186185, 36.163019699800003 ], [ -115.1861823, 36.163019699800003 ], [ -115.1861823, 36.162987299800001 ], [ -115.186185, 36.162987299800001 ], [ -115.186185, 36.162981899800002 ], [ -115.1862822, 36.162981899800002 ], [ -115.1862822, 36.162979199799999 ], [ -115.1863443, 36.162979199799999 ], [ -115.1863443, 36.162981899800002 ], [ -115.186347, 36.162981899800002 ], [ -115.186347, 36.162984599799998 ], [ -115.1863497, 36.162984599799998 ], [ -115.1863497, 36.163049399800002 ], [ -115.186347, 36.163049399800002 ], [ -115.186347, 36.163052099799998 ], [ -115.1863065, 36.163052099799998 ], [ -115.1863065, 36.163054799800001 ] ] ] } },
{ "type": "Feature", "properties": { "value": 255.0 }, "geometry": { "type": "Polygon", "coordinates": [ [ [ -115.1848701, 36.163184399800002 ], [ -115.1848539, 36.163184399800002 ], [ -115.1848539, 36.163181699799999 ], [ -115.184835, 36.163181699799999 ], [ -115.184835, 36.163178999800003 ], [ -115.1848323, 36.163178999800003 ], [ -115.1848323, 36.163146599800001 ], [ -115.1848296, 36.163146599800001 ], [ -115.1848296, 36.163143899799998 ], [ -115.1848242, 36.163143899799998 ], [ -115.1848242, 36.163141199800002 ], [ -115.1847972, 36.163141199800002 ], [ -115.1847972, 36.163138499799999 ], [ -115.184781, 36.163138499799999 ], [ -115.184781, 36.163135799800003 ], [ -115.1847783, 36.163135799800003 ], [ -115.1847783, 36.163130399800004 ], [ -115.1847756, 36.163130399800004 ], [ -115.1847756, 36.1631087998 ], [ -115.1847729, 36.1631087998 ], [ -115.1847729, 36.163095299799998 ], [ -115.1847756, 36.163095299799998 ], [ -115.1847756, 36.1630844998 ], [ -115.1847783, 36.1630844998 ], [ -115.1847783, 36.163081799799997 ], [ -115.184781, 36.163081799799997 ], [ -115.184781, 36.163079099800001 ], [ -115.1847837, 36.163079099800001 ], [ -115.1847837, 36.163073699800002 ], [ -115.1847864, 36.163073699800002 ], [ -115.1847864, 36.163068299800003 ], [ -115.1847891, 36.163068299800003 ], [ -115.1847891, 36.163062899800003 ], [ -115.1847918, 36.163062899800003 ], [ -115.1847918, 36.163052099799998 ], [ -115.1847945, 36.163052099799998 ], [ -115.1847945, 36.163049399800002 ], [ -115.1847972, 36.163049399800002 ], [ -115.1847972, 36.163046699799999 ], [ -115.1848026, 36.163046699799999 ], [ -115.1848026, 36.163043999800003 ], [ -115.1848053, 36.163043999800003 ], [ -115.1848053, 36.1630412998 ], [ -115.1848107, 36.1630412998 ], [ -115.1848107, 36.163038599800004 ], [ -115.1848161, 36.163038599800004 ], [ -115.1848161, 36.163035899800001 ], [ -115.1848242, 36.163035899800001 ], [ -115.1848242, 36.163033199799997 ], [ -115.1848377, 36.163033199799997 ], [ -115.1848377, 36.163035899800001 ], [ -115.1848458, 36.163035899800001 ], [ -115.1848458, 36.163038599800004 ], [ -115.1848593, 36.163038599800004 ], [ -115.1848593, 36.1630412998 ], [ -115.1848971, 36.1630412998 ], [ -115.1848971, 36.163038599800004 ], [ -115.1849079, 36.163038599800004 ], [ -115.1849079, 36.163035899800001 ], [ -115.1849106, 36.163035899800001 ], [ -115.1849106, 36.163033199799997 ], [ -115.1849133, 36.163033199799997 ], [ -115.1849133, 36.163025099800002 ], [ -115.184916, 36.163025099800002 ], [ -115.184916, 36.163019699800003 ], [ -115.1849187, 36.163019699800003 ], [ -115.1849187, 36.1629926998 ], [ -115.184916, 36.1629926998 ], [ -115.184916, 36.162987299800001 ], [ -115.1849187, 36.162987299800001 ], [ -115.1849187, 36.162981899800002 ], [ -115.1849214, 36.162981899800002 ], [ -115.1849214, 36.162979199799999 ], [ -115.1849268, 36.162979199799999 ], [ -115.1849268, 36.162976499800003 ], [ -115.18497, 36.162976499800003 ], [ -115.18497, 36.162979199799999 ], [ -115.1849754, 36.162979199799999 ], [ -115.1849754, 36.162981899800002 ], [ -115.1849781, 36.162981899800002 ], [ -115.1849781, 36.163022399799999 ], [ -115.1849808, 36.163022399799999 ], [ -115.1849808, 36.163025099800002 ], [ -115.1849781, 36.163025099800002 ], [ -115.1849781, 36.163065599799999 ], [ -115.1849754, 36.163065599799999 ], [ -115.1849754, 36.1631087998 ], [ -115.1849727, 36.1631087998 ], [ -115.1849727, 36.163111499800003 ], [ -115.1849457, 36.163111499800003 ], [ -115.1849457, 36.163114199799999 ], [ -115.1849241, 36.163114199799999 ], [ -115.1849241, 36.163116899800002 ], [ -115.184916, 36.163116899800002 ], [ -115.184916, 36.163119599799998 ], [ -115.1849133, 36.163119599799998 ], [ -115.1849133, 36.163122299800001 ], [ -115.1849106, 36.163122299800001 ], [ -115.1849106, 36.163178999800003 ], [ -115.1849079, 36.163178999800003 ], [ -115.1849079, 36.163181699799999 ], [ -115.1848701, 36.163181699799999 ], [ -115.1848701, 36.163184399800002 ] ] ] } },
{ "type": "Feature", "properties": { "value": 255.0 }, "geometry": { "type": "Polygon", "coordinates": [ [ [ -115.186212, 36.162954899799999 ], [ -115.1861904, 36.162954899799999 ], [ -115.1861904, 36.162952199800003 ], [ -115.1861877, 36.162952199800003 ], [ -115.1861877, 36.162941399799998 ], [ -115.186185, 36.162941399799998 ], [ -115.186185, 36.162933299800002 ], [ -115.1861877, 36.162933299800002 ], [ -115.1861877, 36.162927899800003 ], [ -115.1861904, 36.162927899800003 ], [ -115.1861904, 36.1629251998 ], [ -115.1862174, 36.1629251998 ], [ -115.1862174, 36.162927899800003 ], [ -115.1862201, 36.162927899800003 ], [ -115.1862201, 36.162933299800002 ], [ -115.1862228, 36.162933299800002 ], [ -115.1862228, 36.162935999799998 ], [ -115.1862201, 36.162935999799998 ], [ -115.1862201, 36.1629494998 ], [ -115.1862174, 36.1629494998 ], [ -115.1862174, 36.162952199800003 ], [ -115.186212, 36.162952199800003 ], [ -115.186212, 36.162954899799999 ] ] ] } },
{ "type": "Feature", "properties": { "value": 255.0 }, "geometry": { "type": "Polygon", "coordinates": [ [ [ -115.1862849, 36.162908999800003 ], [ -115.1862336, 36.162908999800003 ], [ -115.1862336, 36.162906299799999 ], [ -115.1862309, 36.162906299799999 ], [ -115.1862309, 36.1629008998 ], [ -115.1862282, 36.1629008998 ], [ -115.1862282, 36.162865799800002 ], [ -115.1862255, 36.162865799800002 ], [ -115.1862255, 36.162830699799997 ], [ -115.1862309, 36.162830699799997 ], [ -115.1862309, 36.162827999800001 ], [ -115.1863254, 36.162827999800001 ], [ -115.1863254, 36.162830699799997 ], [ -115.1863281, 36.162830699799997 ], [ -115.1863281, 36.1628333998 ], [ -115.1863308, 36.1628333998 ], [ -115.1863308, 36.162838799799999 ], [ -115.1863335, 36.162838799799999 ], [ -115.1863335, 36.162865799800002 ], [ -115.1863362, 36.162865799800002 ], [ -115.1863362, 36.162903599800003 ], [ -115.1863335, 36.162903599800003 ], [ -115.1863335, 36.162906299799999 ], [ -115.1862849, 36.162906299799999 ], [ -115.1862849, 36.162908999800003 ] ] ] } },
{ "type": "Feature", "properties": { "value": 255.0 }, "geometry": { "type": "Polygon", "coordinates": [ [ [ -115.18497, 36.162914399800002 ], [ -115.1849376, 36.162914399800002 ], [ -115.1849376, 36.162911699799999 ], [ -115.1849295, 36.162911699799999 ], [ -115.1849295, 36.162908999800003 ], [ -115.184835, 36.162908999800003 ], [ -115.184835, 36.162906299799999 ], [ -115.1848269, 36.162906299799999 ], [ -115.1848269, 36.162903599800003 ], [ -115.1848242, 36.162903599800003 ], [ -115.1848242, 36.162892799799998 ], [ -115.1848215, 36.162892799799998 ], [ -115.1848215, 36.162884699800003 ], [ -115.1848161, 36.162884699800003 ], [ -115.1848161, 36.1628819998 ], [ -115.1847999, 36.1628819998 ], [ -115.1847999, 36.162879299799997 ], [ -115.184781, 36.162879299799997 ], [ -115.184781, 36.162876599800001 ], [ -115.1847756, 36.162876599800001 ], [ -115.1847756, 36.162871199800001 ], [ -115.1847729, 36.162871199800001 ], [ -115.1847729, 36.162863099799999 ], [ -115.1847756, 36.162863099799999 ], [ -115.1847756, 36.162803699800001 ], [ -115.1847783, 36.162803699800001 ], [ -115.1847783, 36.162798299800002 ], [ -115.184781, 36.162798299800002 ], [ -115.184781, 36.162795599799999 ], [ -115.1847864, 36.162795599799999 ], [ -115.1847864, 36.162792899800003 ], [ -115.1848134, 36.162792899800003 ], [ -115.1848134, 36.1627901998 ], [ -115.1848188, 36.1627901998 ], [ -115.1848188, 36.162787499799997 ], [ -115.1848215, 36.162787499799997 ], [ -115.1848215, 36.162784799800001 ], [ -115.1848242, 36.162784799800001 ], [ -115.1848242, 36.162782099799998 ], [ -115.1848269, 36.162782099799998 ], [ -115.1848269, 36.162779399800002 ], [ -115.1848323, 36.162779399800002 ], [ -115.1848323, 36.162776699799998 ], [ -115.1848566, 36.162776699799998 ], [ -115.1848566, 36.162773999800002 ], [ -115.184889, 36.162773999800002 ], [ -115.184889, 36.162771299799999 ], [ -115.1849484, 36.162771299799999 ], [ -115.1849484, 36.162773999800002 ], [ -115.1849565, 36.162773999800002 ], [ -115.1849565, 36.162776699799998 ], [ -115.1849592, 36.162776699799998 ], [ -115.1849592, 36.162779399800002 ], [ -115.1849619, 36.162779399800002 ], [ -115.1849619, 36.162782099799998 ], [ -115.1849646, 36.162782099799998 ], [ -115.1849646, 36.162787499799997 ], [ -115.1849673, 36.162787499799997 ], [ -115.1849673, 36.162798299800002 ], [ -115.1849646, 36.162798299800002 ], [ -115.1849646, 36.162806399799997 ], [ -115.1849673, 36.162806399799997 ], [ -115.1849673, 36.1628144998 ], [ -115.18497, 36.1628144998 ], [ -115.18497, 36.162819899799999 ], [ -115.1849727, 36.162819899799999 ], [ -115.1849727, 36.162825299799998 ], [ -115.1849754, 36.162825299799998 ], [ -115.1849754, 36.162830699799997 ], [ -115.1849781, 36.162830699799997 ], [ -115.1849781, 36.162841499800003 ], [ -115.1849808, 36.162841499800003 ], [ -115.1849808, 36.162906299799999 ], [ -115.1849781, 36.162906299799999 ], [ -115.1849781, 36.162911699799999 ], [ -115.18497, 36.162911699799999 ], [ -115.18497, 36.162914399800002 ] ] ] } },
{ "type": "Feature", "properties": { "value": 255.0 }, "geometry": { "type": "Polygon", "coordinates": [ [ [ -115.1856045, 36.162946799799997 ], [ -115.1855532, 36.162946799799997 ], [ -115.1855532, 36.162944099800001 ], [ -115.18551, 36.162944099800001 ], [ -115.18551, 36.162941399799998 ], [ -115.1855019, 36.162941399799998 ], [ -115.1855019, 36.162938699800002 ], [ -115.1854965, 36.162938699800002 ], [ -115.1854965, 36.162935999799998 ], [ -115.1854938, 36.162935999799998 ], [ -115.1854938, 36.162933299800002 ], [ -115.1854884, 36.162933299800002 ], [ -115.1854884, 36.162930599799999 ], [ -115.1854857, 36.162930599799999 ], [ -115.1854857, 36.162927899800003 ], [ -115.1854803, 36.162927899800003 ], [ -115.1854803, 36.1629251998 ], [ -115.1854776, 36.1629251998 ], [ -115.1854776, 36.162917099799998 ], [ -115.1854749, 36.162917099799998 ], [ -115.1854749, 36.162911699799999 ], [ -115.1854722, 36.162911699799999 ], [ -115.1854722, 36.162908999800003 ], [ -115.1854668, 36.162908999800003 ], [ -115.1854668, 36.162911699799999 ], [ -115.1854587, 36.162911699799999 ], [ -115.1854587, 36.162908999800003 ], [ -115.1854506, 36.162908999800003 ], [ -115.1854506, 36.162906299799999 ], [ -115.1854479, 36.162906299799999 ], [ -115.1854479, 36.162903599800003 ], [ -115.1854452, 36.162903599800003 ], [ -115.1854452, 36.1629008998 ], [ -115.1854371, 36.1629008998 ], [ -115.1854371, 36.162895499800001 ], [ -115.1854344, 36.162895499800001 ], [ -115.1854344, 36.162873899799997 ], [ -115.1854398, 36.162873899799997 ], [ -115.1854398, 36.162871199800001 ], [ -115.1854506, 36.162871199800001 ], [ -115.1854506, 36.162873899799997 ], [ -115.1854614, 36.162873899799997 ], [ -115.1854614, 36.162871199800001 ], [ -115.1854803, 36.162871199800001 ], [ -115.1854803, 36.162868499799998 ], [ -115.185483, 36.162868499799998 ], [ -115.185483, 36.162865799800002 ], [ -115.1854857, 36.162865799800002 ], [ -115.1854857, 36.162852299800001 ], [ -115.1854884, 36.162852299800001 ], [ -115.1854884, 36.162846899800002 ], [ -115.1854911, 36.162846899800002 ], [ -115.1854911, 36.162844199799999 ], [ -115.1854992, 36.162844199799999 ], [ -115.1854992, 36.162841499800003 ], [ -115.1855181, 36.162841499800003 ], [ -115.1855181, 36.162838799799999 ], [ -115.1855289, 36.162838799799999 ], [ -115.1855289, 36.162836099800003 ], [ -115.1855343, 36.162836099800003 ], [ -115.1855343, 36.1628333998 ], [ -115.185537, 36.1628333998 ], [ -115.185537, 36.162830699799997 ], [ -115.1855397, 36.162830699799997 ], [ -115.1855397, 36.162827999800001 ], [ -115.1855424, 36.162827999800001 ], [ -115.1855424, 36.162825299799998 ], [ -115.1855451, 36.162825299799998 ], [ -115.1855451, 36.162817199800003 ], [ -115.1855424, 36.162817199800003 ], [ -115.1855424, 36.1628144998 ], [ -115.1855397, 36.1628144998 ], [ -115.1855397, 36.162811799799996 ], [ -115.185537, 36.162811799799996 ], [ -115.185537, 36.1628090998 ], [ -115.1855343, 36.1628090998 ], [ -115.1855343, 36.162806399799997 ], [ -115.1855316, 36.162806399799997 ], [ -115.1855316, 36.162803699800001 ], [ -115.1855289, 36.162803699800001 ], [ -115.1855289, 36.162800999799998 ], [ -115.1855262, 36.162800999799998 ], [ -115.1855262, 36.162798299800002 ], [ -115.1855208, 36.162798299800002 ], [ -115.1855208, 36.162795599799999 ], [ -115.1855181, 36.162795599799999 ], [ -115.1855181, 36.162792899800003 ], [ -115.1855154, 36.162792899800003 ], [ -115.1855154, 36.1627901998 ], [ -115.18551, 36.1627901998 ], [ -115.18551, 36.162787499799997 ], [ -115.1855073, 36.162787499799997 ], [ -115.1855073, 36.162784799800001 ], [ -115.1855046, 36.162784799800001 ], [ -115.1855046, 36.162779399800002 ], [ -115.1855019, 36.162779399800002 ], [ -115.1855019, 36.1627658998 ], [ -115.1855046, 36.1627658998 ], [ -115.1855046, 36.162757799799998 ], [ -115.1855073, 36.162757799799998 ], [ -115.1855073, 36.162755099800002 ], [ -115.18551, 36.162755099800002 ], [ -115.18551, 36.162752399799999 ], [ -115.1855127, 36.162752399799999 ], [ -115.1855127, 36.162749699800003 ], [ -115.1855154, 36.162749699800003 ], [ -115.1855154, 36.1627469998 ], [ -115.1855208, 36.1627469998 ], [ -115.1855208, 36.162744299799996 ], [ -115.1855289, 36.162744299799996 ], [ -115.1855289, 36.1627415998 ], [ -115.1855802, 36.1627415998 ], [ -115.1855802, 36.162744299799996 ], [ -115.1856018, 36.162744299799996 ], [ -115.1856018, 36.1627469998 ], [ -115.1856261, 36.1627469998 ], [ -115.1856261, 36.162749699800003 ], [ -115.1856639, 36.162749699800003 ], [ -115.1856639, 36.162752399799999 ], [ -115.1856855, 36.162752399799999 ], [ -115.1856855, 36.162749699800003 ], [ -115.1856963, 36.162749699800003 ], [ -115.1856963, 36.162752399799999 ], [ -115.1857098, 36.162752399799999 ], [ -115.1857098, 36.162755099800002 ], [ -115.185726, 36.162755099800002 ], [ -115.185726, 36.162757799799998 ], [ -115.1857611, 36.162757799799998 ], [ -115.1857611, 36.162760499800001 ], [ -115.1858286, 36.162760499800001 ], [ -115.1858286, 36.162763199799997 ], [ -115.1858367, 36.162763199799997 ], [ -115.1858367, 36.1627658998 ], [ -115.1858502, 36.1627658998 ], [ -115.1858502, 36.162768599800003 ], [ -115.185861, 36.162768599800003 ], [ -115.185861, 36.162771299799999 ], [ -115.1858691, 36.162771299799999 ], [ -115.1858691, 36.162773999800002 ], [ -115.1858745, 36.162773999800002 ], [ -115.1858745, 36.162776699799998 ], [ -115.1858772, 36.162776699799998 ], [ -115.1858772, 36.162779399800002 ], [ -115.1858799, 36.162779399800002 ], [ -115.1858799, 36.162782099799998 ], [ -115.1858826, 36.162782099799998 ], [ -115.1858826, 36.162784799800001 ], [ -115.1858853, 36.162784799800001 ], [ -115.1858853, 36.1627901998 ], [ -115.185888, 36.1627901998 ], [ -115.185888, 36.162798299800002 ], [ -115.1858853, 36.162798299800002 ], [ -115.1858853, 36.162817199800003 ], [ -115.1858826, 36.162817199800003 ], [ -115.1858826, 36.162819899799999 ], [ -115.1858799, 36.162819899799999 ], [ -115.1858799, 36.162822599800002 ], [ -115.1858772, 36.162822599800002 ], [ -115.1858772, 36.162825299799998 ], [ -115.1858718, 36.162825299799998 ], [ -115.1858718, 36.162827999800001 ], [ -115.1857935, 36.162827999800001 ], [ -115.1857935, 36.162825299799998 ], [ -115.1857854, 36.162825299799998 ], [ -115.1857854, 36.162822599800002 ], [ -115.1857827, 36.162822599800002 ], [ -115.1857827, 36.162819899799999 ], [ -115.1857773, 36.162819899799999 ], [ -115.1857773, 36.162817199800003 ], [ -115.1857692, 36.162817199800003 ], [ -115.1857692, 36.162819899799999 ], [ -115.1857665, 36.162819899799999 ], [ -115.1857665, 36.162822599800002 ], [ -115.1857638, 36.162822599800002 ], [ -115.1857638, 36.162825299799998 ], [ -115.1857611, 36.162825299799998 ], [ -115.1857611, 36.162827999800001 ], [ -115.1857584, 36.162827999800001 ], [ -115.1857584, 36.162830699799997 ], [ -115.1857557, 36.162830699799997 ], [ -115.1857557, 36.1628333998 ], [ -115.185753, 36.1628333998 ], [ -115.185753, 36.1628819998 ], [ -115.1857503, 36.1628819998 ], [ -115.1857503, 36.162892799799998 ], [ -115.1857476, 36.162892799799998 ], [ -115.1857476, 36.162898199799997 ], [ -115.1857449, 36.162898199799997 ], [ -115.1857449, 36.1629008998 ], [ -115.1857422, 36.1629008998 ], [ -115.1857422, 36.162903599800003 ], [ -115.1857395, 36.162903599800003 ], [ -115.1857395, 36.162906299799999 ], [ -115.1857368, 36.162906299799999 ], [ -115.1857368, 36.162908999800003 ], [ -115.1857314, 36.162908999800003 ], [ -115.1857314, 36.162911699799999 ], [ -115.1856936, 36.162911699799999 ], [ -115.1856936, 36.162914399800002 ], [ -115.1856909, 36.162914399800002 ], [ -115.1856909, 36.162919799800001 ], [ -115.1856882, 36.162919799800001 ], [ -115.1856882, 36.162930599799999 ], [ -115.1856855, 36.162930599799999 ], [ -115.1856855, 36.162935999799998 ], [ -115.1856801, 36.162935999799998 ], [ -115.1856801, 36.162938699800002 ], [ -115.185645, 36.162938699800002 ], [ -115.185645, 36.162941399799998 ], [ -115.1856099, 36.162941399799998 ], [ -115.1856099, 36.162944099800001 ], [ -115.1856045, 36.162944099800001 ], [ -115.1856045, 36.162946799799997 ] ] ] } },
{ "type": "Feature", "properties": { "value": 255.0 }, "geometry": { "type": "Polygon", "coordinates": [ [ [ -115.1862363, 36.162533699800001 ], [ -115.1862282, 36.162533699800001 ], [ -115.1862282, 36.162530999799998 ], [ -115.1862147, 36.162530999799998 ], [ -115.1862147, 36.162533699800001 ], [ -115.1861796, 36.162533699800001 ], [ -115.1861796, 36.162530999799998 ], [ -115.1861742, 36.162530999799998 ], [ -115.1861742, 36.162525599799999 ], [ -115.1861715, 36.162525599799999 ], [ -115.1861715, 36.1625147998 ], [ -115.1861742, 36.1625147998 ], [ -115.1861742, 36.1624958998 ], [ -115.1861769, 36.1624958998 ], [ -115.1861769, 36.162374399800001 ], [ -115.1861796, 36.162374399800001 ], [ -115.1861796, 36.162371699799998 ], [ -115.1861823, 36.162371699799998 ], [ -115.1861823, 36.162368999800002 ], [ -115.1861904, 36.162368999800002 ], [ -115.1861904, 36.162366299799999 ], [ -115.1862174, 36.162366299799999 ], [ -115.1862174, 36.162368999800002 ], [ -115.1863119, 36.162368999800002 ], [ -115.1863119, 36.162371699799998 ], [ -115.1863146, 36.162371699799998 ], [ -115.1863146, 36.162374399800001 ], [ -115.1863173, 36.162374399800001 ], [ -115.1863173, 36.162377099799997 ], [ -115.18632, 36.162377099799997 ], [ -115.18632, 36.162382499799996 ], [ -115.1863173, 36.162382499799996 ], [ -115.1863173, 36.162412199800002 ], [ -115.1863146, 36.162412199800002 ], [ -115.1863146, 36.1624229998 ], [ -115.1863173, 36.1624229998 ], [ -115.1863173, 36.162455399800002 ], [ -115.1863146, 36.162455399800002 ], [ -115.1863146, 36.162458099799998 ], [ -115.1863065, 36.162458099799998 ], [ -115.1863065, 36.162460799800002 ], [ -115.1862984, 36.162460799800002 ], [ -115.1862984, 36.162463499799998 ], [ -115.1862957, 36.162463499799998 ], [ -115.1862957, 36.1624958998 ], [ -115.186293, 36.1624958998 ], [ -115.186293, 36.162498599800003 ], [ -115.1862903, 36.162498599800003 ], [ -115.1862903, 36.162501299799999 ], [ -115.1862822, 36.162501299799999 ], [ -115.1862822, 36.162503999800002 ], [ -115.1862768, 36.162503999800002 ], [ -115.1862768, 36.162512099799997 ], [ -115.1862795, 36.162512099799997 ], [ -115.1862795, 36.162522899800003 ], [ -115.1862768, 36.162522899800003 ], [ -115.1862768, 36.162528299800002 ], [ -115.1862714, 36.162528299800002 ], [ -115.1862714, 36.162530999799998 ], [ -115.1862363, 36.162530999799998 ], [ -115.1862363, 36.162533699800001 ] ] ] } },
{ "type": "Feature", "properties": { "value": 255.0 }, "geometry": { "type": "Polygon", "coordinates": [ [ [ -115.1858286, 36.162501299799999 ], [ -115.1858151, 36.162501299799999 ], [ -115.1858151, 36.162498599800003 ], [ -115.1857989, 36.162498599800003 ], [ -115.1857989, 36.1624958998 ], [ -115.1856639, 36.1624958998 ], [ -115.1856639, 36.162493199799997 ], [ -115.1856585, 36.162493199799997 ], [ -115.1856585, 36.162490499800001 ], [ -115.1856504, 36.162490499800001 ], [ -115.1856504, 36.162487799799997 ], [ -115.185645, 36.162487799799997 ], [ -115.185645, 36.162485099800001 ], [ -115.1855883, 36.162485099800001 ], [ -115.1855883, 36.162487799799997 ], [ -115.1855829, 36.162487799799997 ], [ -115.1855829, 36.162490499800001 ], [ -115.1855802, 36.162490499800001 ], [ -115.1855802, 36.162493199799997 ], [ -115.1855748, 36.162493199799997 ], [ -115.1855748, 36.1624958998 ], [ -115.185564, 36.1624958998 ], [ -115.185564, 36.162498599800003 ], [ -115.1855343, 36.162498599800003 ], [ -115.1855343, 36.1624958998 ], [ -115.1855208, 36.1624958998 ], [ -115.1855208, 36.162493199799997 ], [ -115.1855154, 36.162493199799997 ], [ -115.1855154, 36.162490499800001 ], [ -115.18551, 36.162490499800001 ], [ -115.18551, 36.162485099800001 ], [ -115.1855073, 36.162485099800001 ], [ -115.1855073, 36.162452699799999 ], [ -115.18551, 36.162452699799999 ], [ -115.18551, 36.162436499800002 ], [ -115.1855127, 36.162436499800002 ], [ -115.1855127, 36.1624229998 ], [ -115.1855154, 36.1624229998 ], [ -115.1855154, 36.162406799799996 ], [ -115.1855181, 36.162406799799996 ], [ -115.1855181, 36.162395999799998 ], [ -115.1855208, 36.162395999799998 ], [ -115.1855208, 36.162385199799999 ], [ -115.1855235, 36.162385199799999 ], [ -115.1855235, 36.162371699799998 ], [ -115.1855262, 36.162371699799998 ], [ -115.1855262, 36.162352799799997 ], [ -115.1855235, 36.162352799799997 ], [ -115.1855235, 36.162325799800001 ], [ -115.1855262, 36.162325799800001 ], [ -115.1855262, 36.162317699799999 ], [ -115.1855289, 36.162317699799999 ], [ -115.1855289, 36.162314999799996 ], [ -115.1855316, 36.162314999799996 ], [ -115.1855316, 36.1623122998 ], [ -115.1855343, 36.1623122998 ], [ -115.1855343, 36.162309599799997 ], [ -115.1855397, 36.162309599799997 ], [ -115.1855397, 36.162306899800001 ], [ -115.1855424, 36.162306899800001 ], [ -115.1855424, 36.162304199799998 ], [ -115.1855505, 36.162304199799998 ], [ -115.1855505, 36.162301499800002 ], [ -115.1855775, 36.162301499800002 ], [ -115.1855775, 36.162304199799998 ], [ -115.1856504, 36.162304199799998 ], [ -115.1856504, 36.162301499800002 ], [ -115.1856774, 36.162301499800002 ], [ -115.1856774, 36.162304199799998 ], [ -115.1856963, 36.162304199799998 ], [ -115.1856963, 36.162306899800001 ], [ -115.1857044, 36.162306899800001 ], [ -115.1857044, 36.162309599799997 ], [ -115.1857098, 36.162309599799997 ], [ -115.1857098, 36.1623122998 ], [ -115.1857152, 36.1623122998 ], [ -115.1857152, 36.162314999799996 ], [ -115.1857206, 36.162314999799996 ], [ -115.1857206, 36.162317699799999 ], [ -115.1857314, 36.162317699799999 ], [ -115.1857314, 36.162320399800002 ], [ -115.1857341, 36.162320399800002 ], [ -115.1857341, 36.162323099799998 ], [ -115.1857368, 36.162323099799998 ], [ -115.1857368, 36.162328499799997 ], [ -115.1857395, 36.162328499799997 ], [ -115.1857395, 36.162395999799998 ], [ -115.1857368, 36.162395999799998 ], [ -115.1857368, 36.1624040998 ], [ -115.1857341, 36.1624040998 ], [ -115.1857341, 36.162398699800001 ], [ -115.1857314, 36.162398699800001 ], [ -115.1857314, 36.162390599799998 ], [ -115.1857287, 36.162390599799998 ], [ -115.1857287, 36.162382499799996 ], [ -115.185726, 36.162382499799996 ], [ -115.185726, 36.162377099799997 ], [ -115.1857233, 36.162377099799997 ], [ -115.1857233, 36.162374399800001 ], [ -115.1857071, 36.162374399800001 ], [ -115.1857071, 36.162371699799998 ], [ -115.1857044, 36.162371699799998 ], [ -115.1857044, 36.162366299799999 ], [ -115.1857017, 36.162366299799999 ], [ -115.1857017, 36.162360899799999 ], [ -115.185699, 36.162360899799999 ], [ -115.185699, 36.162358199799996 ], [ -115.1856963, 36.162358199799996 ], [ -115.1856963, 36.162360899799999 ], [ -115.1856936, 36.162360899799999 ], [ -115.1856936, 36.162366299799999 ], [ -115.1856909, 36.162366299799999 ], [ -115.1856909, 36.162382499799996 ], [ -115.1856882, 36.162382499799996 ], [ -115.1856882, 36.162420299799997 ], [ -115.1856909, 36.162420299799997 ], [ -115.1856909, 36.1624229998 ], [ -115.1857017, 36.1624229998 ], [ -115.1857017, 36.162425699799996 ], [ -115.1857098, 36.162425699799996 ], [ -115.1857098, 36.1624229998 ], [ -115.1857152, 36.1624229998 ], [ -115.1857152, 36.162420299799997 ], [ -115.1857206, 36.162420299799997 ], [ -115.1857206, 36.162417599800001 ], [ -115.185726, 36.162417599800001 ], [ -115.185726, 36.162414899799998 ], [ -115.1857287, 36.162414899799998 ], [ -115.1857287, 36.162412199800002 ], [ -115.1857314, 36.162412199800002 ], [ -115.1857314, 36.162409499799999 ], [ -115.1857368, 36.162409499799999 ], [ -115.1857368, 36.162412199800002 ], [ -115.1857395, 36.162412199800002 ], [ -115.1857395, 36.162420299799997 ], [ -115.1857422, 36.162420299799997 ], [ -115.1857422, 36.1624229998 ], [ -115.1857476, 36.1624229998 ], [ -115.1857476, 36.162425699799996 ], [ -115.1857557, 36.162425699799996 ], [ -115.1857557, 36.1624229998 ], [ -115.1857746, 36.1624229998 ], [ -115.1857746, 36.162425699799996 ], [ -115.1858232, 36.162425699799996 ], [ -115.1858232, 36.1624283998 ], [ -115.1858286, 36.1624283998 ], [ -115.1858286, 36.162433799799999 ], [ -115.1858313, 36.162433799799999 ], [ -115.1858313, 36.162449999799996 ], [ -115.1858286, 36.162449999799996 ], [ -115.1858286, 36.1624715998 ], [ -115.1858313, 36.1624715998 ], [ -115.1858313, 36.162498599800003 ], [ -115.1858286, 36.162498599800003 ], [ -115.1858286, 36.162501299799999 ] ] ] } },
{ "type": "Feature", "properties": { "value": 255.0 }, "geometry": { "type": "Polygon", "coordinates": [ [ [ -115.1847783, 36.162474299799996 ], [ -115.1847675, 36.162474299799996 ], [ -115.1847675, 36.1624715998 ], [ -115.1847567, 36.1624715998 ], [ -115.1847567, 36.162468899799997 ], [ -115.1847459, 36.162468899799997 ], [ -115.1847459, 36.162466199800001 ], [ -115.184727, 36.162466199800001 ], [ -115.184727, 36.162463499799998 ], [ -115.1847189, 36.162463499799998 ], [ -115.1847189, 36.162466199800001 ], [ -115.1846676, 36.162466199800001 ], [ -115.1846676, 36.162371699799998 ], [ -115.1846784, 36.162371699799998 ], [ -115.1846784, 36.162374399800001 ], [ -115.1846838, 36.162374399800001 ], [ -115.1846838, 36.162371699799998 ], [ -115.184727, 36.162371699799998 ], [ -115.184727, 36.162368999800002 ], [ -115.1847405, 36.162368999800002 ], [ -115.1847405, 36.162371699799998 ], [ -115.1847459, 36.162371699799998 ], [ -115.1847459, 36.162368999800002 ], [ -115.184754, 36.162368999800002 ], [ -115.184754, 36.162371699799998 ], [ -115.1847567, 36.162371699799998 ], [ -115.1847567, 36.162368999800002 ], [ -115.1847675, 36.162368999800002 ], [ -115.1847675, 36.162363599800003 ], [ -115.1847702, 36.162363599800003 ], [ -115.1847702, 36.162358199799996 ], [ -115.1847729, 36.162358199799996 ], [ -115.1847729, 36.162339299799996 ], [ -115.1847756, 36.162339299799996 ], [ -115.1847756, 36.162301499800002 ], [ -115.1847783, 36.162301499800002 ], [ -115.1847783, 36.162298799799999 ], [ -115.184781, 36.162298799799999 ], [ -115.184781, 36.162296099800002 ], [ -115.1847837, 36.162296099800002 ], [ -115.1847837, 36.162293399799999 ], [ -115.1848782, 36.162293399799999 ], [ -115.1848782, 36.162290699799996 ], [ -115.1849592, 36.162290699799996 ], [ -115.1849592, 36.162293399799999 ], [ -115.1849646, 36.162293399799999 ], [ -115.1849646, 36.162358199799996 ], [ -115.1849619, 36.162358199799996 ], [ -115.1849619, 36.162360899799999 ], [ -115.1849376, 36.162360899799999 ], [ -115.1849376, 36.162358199799996 ], [ -115.1849322, 36.162358199799996 ], [ -115.1849322, 36.162360899799999 ], [ -115.1849241, 36.162360899799999 ], [ -115.1849241, 36.162363599800003 ], [ -115.1849214, 36.162363599800003 ], [ -115.1849214, 36.162382499799996 ], [ -115.1849187, 36.162382499799996 ], [ -115.1849187, 36.162385199799999 ], [ -115.184916, 36.162385199799999 ], [ -115.184916, 36.162387899800002 ], [ -115.1849052, 36.162387899800002 ], [ -115.1849052, 36.162390599799998 ], [ -115.1849025, 36.162390599799998 ], [ -115.1849025, 36.162393299800002 ], [ -115.1848998, 36.162393299800002 ], [ -115.1848998, 36.162444599799997 ], [ -115.1848971, 36.162444599799997 ], [ -115.1848971, 36.162466199800001 ], [ -115.1848917, 36.162466199800001 ], [ -115.1848917, 36.162468899799997 ], [ -115.1848134, 36.162468899799997 ], [ -115.1848134, 36.1624715998 ], [ -115.1847783, 36.1624715998 ], [ -115.1847783, 36.162474299799996 ] ] ] } },
{ "type": "Feature", "properties": { "value": 255.0 }, "geometry": { "type": "Polygon", "coordinates": [ [ [ -115.1860176, 36.1622690998 ], [ -115.185996, 36.1622690998 ], [ -115.185996, 36.162266399799996 ], [ -115.1859825, 36.162266399799996 ], [ -115.1859825, 36.1622636998 ], [ -115.1859798, 36.1622636998 ], [ -115.1859798, 36.1622447998 ], [ -115.1859825, 36.1622447998 ], [ -115.1859825, 36.162236699799998 ], [ -115.1859852, 36.162236699799998 ], [ -115.1859852, 36.162233999800002 ], [ -115.1860311, 36.162233999800002 ], [ -115.1860311, 36.162236699799998 ], [ -115.1860392, 36.162236699799998 ], [ -115.1860392, 36.162239399800001 ], [ -115.1860419, 36.162239399800001 ], [ -115.1860419, 36.162242099799997 ], [ -115.1860446, 36.162242099799997 ], [ -115.1860446, 36.162247499799996 ], [ -115.1860419, 36.162247499799996 ], [ -115.1860419, 36.162260999799997 ], [ -115.1860392, 36.162260999799997 ], [ -115.1860392, 36.162266399799996 ], [ -115.1860176, 36.162266399799996 ], [ -115.1860176, 36.1622690998 ] ] ] } },
{ "type": "Feature", "properties": { "value": 255.0 }, "geometry": { "type": "Polygon", "coordinates": [ [ [ -115.1856126, 36.162255599799998 ], [ -115.1856018, 36.162255599799998 ], [ -115.1856018, 36.162252899800002 ], [ -115.1855262, 36.162252899800002 ], [ -115.1855262, 36.162255599799998 ], [ -115.1855073, 36.162255599799998 ], [ -115.1855073, 36.162252899800002 ], [ -115.1855046, 36.162252899800002 ], [ -115.1855046, 36.162250199799999 ], [ -115.1855019, 36.162250199799999 ], [ -115.1855019, 36.162193499799997 ], [ -115.1855046, 36.162193499799997 ], [ -115.1855046, 36.162179999799996 ], [ -115.1855073, 36.162179999799996 ], [ -115.1855073, 36.1621529998 ], [ -115.1855046, 36.1621529998 ], [ -115.1855046, 36.162144899799998 ], [ -115.1855019, 36.162144899799998 ], [ -115.1855019, 36.162142199800002 ], [ -115.1854992, 36.162142199800002 ], [ -115.1854992, 36.162139499799999 ], [ -115.1854965, 36.162139499799999 ], [ -115.1854965, 36.162134099799999 ], [ -115.1854938, 36.162134099799999 ], [ -115.1854938, 36.162055799800001 ], [ -115.1854965, 36.162055799800001 ], [ -115.1854965, 36.162053099799998 ], [ -115.1856099, 36.162053099799998 ], [ -115.1856099, 36.162055799800001 ], [ -115.1856153, 36.162055799800001 ], [ -115.1856153, 36.1620611998 ], [ -115.185618, 36.1620611998 ], [ -115.185618, 36.162077399799998 ], [ -115.1856207, 36.162077399799998 ], [ -115.1856207, 36.162082799799997 ], [ -115.1856234, 36.162082799799997 ], [ -115.1856234, 36.1620854998 ], [ -115.1856288, 36.1620854998 ], [ -115.1856288, 36.162088199799996 ], [ -115.1856315, 36.162088199799996 ], [ -115.1856315, 36.162090899799999 ], [ -115.1856342, 36.162090899799999 ], [ -115.1856342, 36.162096299799998 ], [ -115.1856369, 36.162096299799998 ], [ -115.1856369, 36.162201599799999 ], [ -115.1856342, 36.162201599799999 ], [ -115.1856342, 36.162204299799996 ], [ -115.1856315, 36.162204299799996 ], [ -115.1856315, 36.162206999799999 ], [ -115.1856261, 36.162206999799999 ], [ -115.1856261, 36.162209699800002 ], [ -115.1856207, 36.162209699800002 ], [ -115.1856207, 36.162212399799998 ], [ -115.185618, 36.162212399799998 ], [ -115.185618, 36.162247499799996 ], [ -115.1856153, 36.162247499799996 ], [ -115.1856153, 36.162252899800002 ], [ -115.1856126, 36.162252899800002 ], [ -115.1856126, 36.162255599799998 ] ] ] } },
{ "type": "Feature", "properties": { "value": 255.0 }, "geometry": { "type": "Polygon", "coordinates": [ [ [ -115.1849052, 36.1622690998 ], [ -115.1848269, 36.1622690998 ], [ -115.1848269, 36.162266399799996 ], [ -115.1848215, 36.162266399799996 ], [ -115.1848215, 36.1622636998 ], [ -115.1848188, 36.1622636998 ], [ -115.1848188, 36.162260999799997 ], [ -115.1848161, 36.162260999799997 ], [ -115.1848161, 36.162250199799999 ], [ -115.1848188, 36.162250199799999 ], [ -115.1848188, 36.162223199799996 ], [ -115.1848215, 36.162223199799996 ], [ -115.1848215, 36.1621529998 ], [ -115.1848188, 36.1621529998 ], [ -115.1848188, 36.162131399799996 ], [ -115.1848161, 36.162131399799996 ], [ -115.1848161, 36.162107099799996 ], [ -115.1848134, 36.162107099799996 ], [ -115.1848134, 36.162093599800002 ], [ -115.1848161, 36.162093599800002 ], [ -115.1848161, 36.162082799799997 ], [ -115.1848188, 36.162082799799997 ], [ -115.1848188, 36.162058499799997 ], [ -115.1848215, 36.162058499799997 ], [ -115.1848215, 36.162053099799998 ], [ -115.1848242, 36.162053099799998 ], [ -115.1848242, 36.162050399800002 ], [ -115.1848296, 36.162050399800002 ], [ -115.1848296, 36.162047699799999 ], [ -115.1848377, 36.162047699799999 ], [ -115.1848377, 36.162050399800002 ], [ -115.1849241, 36.162050399800002 ], [ -115.1849241, 36.162053099799998 ], [ -115.1849268, 36.162053099799998 ], [ -115.1849268, 36.162055799800001 ], [ -115.1849295, 36.162055799800001 ], [ -115.1849295, 36.162066599799999 ], [ -115.1849322, 36.162066599799999 ], [ -115.1849322, 36.162125999799997 ], [ -115.1849295, 36.162125999799997 ], [ -115.1849295, 36.162131399799996 ], [ -115.1849241, 36.162131399799996 ], [ -115.1849241, 36.162134099799999 ], [ -115.1849214, 36.162134099799999 ], [ -115.1849214, 36.162139499799999 ], [ -115.1849187, 36.162139499799999 ], [ -115.1849187, 36.162158399799999 ], [ -115.184916, 36.162158399799999 ], [ -115.184916, 36.162161099800002 ], [ -115.1849187, 36.162161099800002 ], [ -115.1849187, 36.162209699800002 ], [ -115.184916, 36.162209699800002 ], [ -115.184916, 36.1622204998 ], [ -115.1849187, 36.1622204998 ], [ -115.1849187, 36.162260999799997 ], [ -115.184916, 36.162260999799997 ], [ -115.184916, 36.162266399799996 ], [ -115.1849052, 36.162266399799996 ], [ -115.1849052, 36.1622690998 ] ] ] } },
{ "type": "Feature", "properties": { "value": 255.0 }, "geometry": { "type": "Polygon", "coordinates": [ [ [ -115.1864226, 36.162012599800001 ], [ -115.1864172, 36.162012599800001 ], [ -115.1864172, 36.162009899799997 ], [ -115.1864145, 36.162009899799997 ], [ -115.1864145, 36.162012599800001 ], [ -115.1864091, 36.162012599800001 ], [ -115.1864091, 36.162009899799997 ], [ -115.1863416, 36.162009899799997 ], [ -115.1863416, 36.162007199800001 ], [ -115.1863389, 36.162007199800001 ], [ -115.1863389, 36.1619936998 ], [ -115.1863362, 36.1619936998 ], [ -115.1863362, 36.161961299799998 ], [ -115.1863389, 36.161961299799998 ], [ -115.1863389, 36.161958599800002 ], [ -115.1863416, 36.161958599800002 ], [ -115.1863416, 36.161955899799999 ], [ -115.1863794, 36.161955899799999 ], [ -115.1863794, 36.161953199799996 ], [ -115.1864226, 36.161953199799996 ], [ -115.1864226, 36.162012599800001 ] ] ] } },
{ "type": "Feature", "properties": { "value": 255.0 }, "geometry": { "type": "Polygon", "coordinates": [ [ [ -115.1859771, 36.162012599800001 ], [ -115.1858907, 36.162012599800001 ], [ -115.1858907, 36.162009899799997 ], [ -115.185888, 36.162009899799997 ], [ -115.185888, 36.162007199800001 ], [ -115.1858853, 36.162007199800001 ], [ -115.1858853, 36.161990999799997 ], [ -115.1858826, 36.161990999799997 ], [ -115.1858826, 36.1619504998 ], [ -115.1858853, 36.1619504998 ], [ -115.1858853, 36.1619450998 ], [ -115.1858961, 36.1619450998 ], [ -115.1858961, 36.161942399799997 ], [ -115.1859069, 36.161942399799997 ], [ -115.1859069, 36.1619450998 ], [ -115.1859339, 36.1619450998 ], [ -115.1859339, 36.161947799799997 ], [ -115.1859609, 36.161947799799997 ], [ -115.1859609, 36.1619450998 ], [ -115.185969, 36.1619450998 ], [ -115.185969, 36.161947799799997 ], [ -115.1859771, 36.161947799799997 ], [ -115.1859771, 36.1619504998 ], [ -115.1859798, 36.1619504998 ], [ -115.1859798, 36.161955899799999 ], [ -115.1859825, 36.161955899799999 ], [ -115.1859825, 36.161985599799998 ], [ -115.1859852, 36.161985599799998 ], [ -115.1859852, 36.162004499799998 ], [ -115.1859825, 36.162004499799998 ], [ -115.1859825, 36.162009899799997 ], [ -115.1859771, 36.162009899799997 ], [ -115.1859771, 36.162012599800001 ] ] ] } },
{ "type": "Feature", "properties": { "value": 255.0 }, "geometry": { "type": "Polygon", "coordinates": [ [ [ -115.1857098, 36.161996399799996 ], [ -115.1855802, 36.161996399799996 ], [ -115.1855802, 36.1619936998 ], [ -115.1855694, 36.1619936998 ], [ -115.1855694, 36.161990999799997 ], [ -115.1855667, 36.161990999799997 ], [ -115.1855667, 36.161988299800001 ], [ -115.185564, 36.161988299800001 ], [ -115.185564, 36.161985599799998 ], [ -115.1855613, 36.161985599799998 ], [ -115.1855613, 36.161982899800002 ], [ -115.1855586, 36.161982899800002 ], [ -115.1855586, 36.161974799799999 ], [ -115.1855559, 36.161974799799999 ], [ -115.1855559, 36.161966699799997 ], [ -115.1855532, 36.161966699799997 ], [ -115.1855532, 36.1619504998 ], [ -115.1855505, 36.1619504998 ], [ -115.1855505, 36.161931599799999 ], [ -115.1855478, 36.161931599799999 ], [ -115.1855478, 36.1619261998 ], [ -115.1855451, 36.1619261998 ], [ -115.1855451, 36.161920799800001 ], [ -115.1855424, 36.161920799800001 ], [ -115.1855424, 36.161915399800002 ], [ -115.1855397, 36.161915399800002 ], [ -115.1855397, 36.161912699799998 ], [ -115.185537, 36.161912699799998 ], [ -115.185537, 36.161907299799999 ], [ -115.1855343, 36.161907299799999 ], [ -115.1855343, 36.1619018998 ], [ -115.1855316, 36.1619018998 ], [ -115.1855316, 36.161896499800001 ], [ -115.1855289, 36.161896499800001 ], [ -115.1855289, 36.161891099800002 ], [ -115.1855262, 36.161891099800002 ], [ -115.1855262, 36.1618829998 ], [ -115.1855235, 36.1618829998 ], [ -115.1855235, 36.1618775998 ], [ -115.1855208, 36.1618775998 ], [ -115.1855208, 36.161874899799997 ], [ -115.1855181, 36.161874899799997 ], [ -115.1855181, 36.161872199800001 ], [ -115.1855154, 36.161872199800001 ], [ -115.1855154, 36.161869499799998 ], [ -115.1855127, 36.161869499799998 ], [ -115.1855127, 36.161866799799995 ], [ -115.18551, 36.161866799799995 ], [ -115.18551, 36.161864099799999 ], [ -115.1855073, 36.161864099799999 ], [ -115.1855073, 36.161861399799996 ], [ -115.1855046, 36.161861399799996 ], [ -115.1855046, 36.161855999799997 ], [ -115.1855019, 36.161855999799997 ], [ -115.1855019, 36.161850599799997 ], [ -115.1854992, 36.161850599799997 ], [ -115.1854992, 36.161847899800001 ], [ -115.1854965, 36.161847899800001 ], [ -115.1854965, 36.161842499799995 ], [ -115.1854938, 36.161842499799995 ], [ -115.1854938, 36.161815499799999 ], [ -115.1854965, 36.161815499799999 ], [ -115.1854965, 36.161812799799996 ], [ -115.1855019, 36.161812799799996 ], [ -115.1855019, 36.1618100998 ], [ -115.1856558, 36.1618100998 ], [ -115.1856558, 36.161812799799996 ], [ -115.1857017, 36.161812799799996 ], [ -115.1857017, 36.161815499799999 ], [ -115.1857071, 36.161815499799999 ], [ -115.1857071, 36.161818199799995 ], [ -115.1857098, 36.161818199799995 ], [ -115.1857098, 36.161980199799999 ], [ -115.1857125, 36.161980199799999 ], [ -115.1857125, 36.161990999799997 ], [ -115.1857098, 36.161990999799997 ], [ -115.1857098, 36.161996399799996 ] ] ] } },
{ "type": "Feature", "properties": { "value": 255.0 }, "geometry": { "type": "Polygon", "coordinates": [ [ [ -115.1863983, 36.161872199800001 ], [ -115.1863551, 36.161872199800001 ], [ -115.1863551, 36.161869499799998 ], [ -115.186347, 36.161869499799998 ], [ -115.186347, 36.161866799799995 ], [ -115.1863443, 36.161866799799995 ], [ -115.1863443, 36.161864099799999 ], [ -115.1863416, 36.161864099799999 ], [ -115.1863416, 36.1618586998 ], [ -115.1863389, 36.1618586998 ], [ -115.1863389, 36.161850599799997 ], [ -115.1863362, 36.161850599799997 ], [ -115.1863362, 36.161812799799996 ], [ -115.1863389, 36.161812799799996 ], [ -115.1863389, 36.1618100998 ], [ -115.1863443, 36.1618100998 ], [ -115.1863443, 36.161807399799997 ], [ -115.1864226, 36.161807399799997 ], [ -115.1864226, 36.161869499799998 ], [ -115.1863983, 36.161869499799998 ], [ -115.1863983, 36.161872199800001 ] ] ] } },
{ "type": "Feature", "properties": { "value": 255.0 }, "geometry": { "type": "Polygon", "coordinates": [ [ [ -115.1862039, 36.161842499799995 ], [ -115.186185, 36.161842499799995 ], [ -115.186185, 36.161839799799999 ], [ -115.1861823, 36.161839799799999 ], [ -115.1861823, 36.161820899799999 ], [ -115.186185, 36.161820899799999 ], [ -115.186185, 36.161815499799999 ], [ -115.1861985, 36.161815499799999 ], [ -115.1861985, 36.161818199799995 ], [ -115.1862039, 36.161818199799995 ], [ -115.1862039, 36.161828999800001 ], [ -115.1862066, 36.161828999800001 ], [ -115.1862066, 36.161839799799999 ], [ -115.1862039, 36.161839799799999 ], [ -115.1862039, 36.161842499799995 ] ] ] } },
{ "type": "Feature", "properties": { "value": 255.0 }, "geometry": { "type": "Polygon", "coordinates": [ [ [ -115.1847054, 36.162015299799997 ], [ -115.1846919, 36.162015299799997 ], [ -115.1846919, 36.162012599800001 ], [ -115.1846676, 36.162012599800001 ], [ -115.1846676, 36.161853299800001 ], [ -115.1846757, 36.161853299800001 ], [ -115.1846757, 36.161855999799997 ], [ -115.1847027, 36.161855999799997 ], [ -115.1847027, 36.161853299800001 ], [ -115.1847081, 36.161853299800001 ], [ -115.1847081, 36.161850599799997 ], [ -115.1847108, 36.161850599799997 ], [ -115.1847108, 36.161831699799997 ], [ -115.1847135, 36.161831699799997 ], [ -115.1847135, 36.161820899799999 ], [ -115.1847108, 36.161820899799999 ], [ -115.1847108, 36.161812799799996 ], [ -115.1847135, 36.161812799799996 ], [ -115.1847135, 36.161804699800001 ], [ -115.1847162, 36.161804699800001 ], [ -115.1847162, 36.161801999799998 ], [ -115.1847216, 36.161801999799998 ], [ -115.1847216, 36.161799299799995 ], [ -115.1847378, 36.161799299799995 ], [ -115.1847378, 36.161796599799999 ], [ -115.1847756, 36.161796599799999 ], [ -115.1847756, 36.161799299799995 ], [ -115.1847891, 36.161799299799995 ], [ -115.1847891, 36.161796599799999 ], [ -115.1848377, 36.161796599799999 ], [ -115.1848377, 36.161799299799995 ], [ -115.1848512, 36.161799299799995 ], [ -115.1848512, 36.161801999799998 ], [ -115.1848593, 36.161801999799998 ], [ -115.1848593, 36.161804699800001 ], [ -115.1848755, 36.161804699800001 ], [ -115.1848755, 36.161801999799998 ], [ -115.1848863, 36.161801999799998 ], [ -115.1848863, 36.161799299799995 ], [ -115.1849052, 36.161799299799995 ], [ -115.1849052, 36.161796599799999 ], [ -115.1849538, 36.161796599799999 ], [ -115.1849538, 36.161799299799995 ], [ -115.1849592, 36.161799299799995 ], [ -115.1849592, 36.161801999799998 ], [ -115.1849619, 36.161801999799998 ], [ -115.1849619, 36.161807399799997 ], [ -115.1849646, 36.161807399799997 ], [ -115.1849646, 36.161812799799996 ], [ -115.1849673, 36.161812799799996 ], [ -115.1849673, 36.161820899799999 ], [ -115.18497, 36.161820899799999 ], [ -115.18497, 36.161869499799998 ], [ -115.1849646, 36.161869499799998 ], [ -115.1849646, 36.161872199800001 ], [ -115.1849484, 36.161872199800001 ], [ -115.1849484, 36.161874899799997 ], [ -115.184943, 36.161874899799997 ], [ -115.184943, 36.1618775998 ], [ -115.1849403, 36.1618775998 ], [ -115.1849403, 36.161885699799996 ], [ -115.184943, 36.161885699799996 ], [ -115.184943, 36.161888399799999 ], [ -115.1849673, 36.161888399799999 ], [ -115.1849673, 36.161891099800002 ], [ -115.18497, 36.161891099800002 ], [ -115.18497, 36.161893799799998 ], [ -115.1849727, 36.161893799799998 ], [ -115.1849727, 36.1619693998 ], [ -115.18497, 36.1619693998 ], [ -115.18497, 36.161972099799996 ], [ -115.1849673, 36.161972099799996 ], [ -115.1849673, 36.161974799799999 ], [ -115.1849511, 36.161974799799999 ], [ -115.1849511, 36.161972099799996 ], [ -115.1848647, 36.161972099799996 ], [ -115.1848647, 36.1619693998 ], [ -115.184862, 36.1619693998 ], [ -115.184862, 36.161966699799997 ], [ -115.1848593, 36.161966699799997 ], [ -115.1848593, 36.161963999800001 ], [ -115.1848566, 36.161963999800001 ], [ -115.1848566, 36.161961299799998 ], [ -115.1848539, 36.161961299799998 ], [ -115.1848539, 36.161958599800002 ], [ -115.1848512, 36.161958599800002 ], [ -115.1848512, 36.161955899799999 ], [ -115.1848458, 36.161955899799999 ], [ -115.1848458, 36.161953199799996 ], [ -115.1848431, 36.161953199799996 ], [ -115.1848431, 36.1619504998 ], [ -115.1848377, 36.1619504998 ], [ -115.1848377, 36.161947799799997 ], [ -115.1848188, 36.161947799799997 ], [ -115.1848188, 36.1619504998 ], [ -115.1848161, 36.1619504998 ], [ -115.1848161, 36.161953199799996 ], [ -115.1848134, 36.161953199799996 ], [ -115.1848134, 36.161955899799999 ], [ -115.1848107, 36.161955899799999 ], [ -115.1848107, 36.161958599800002 ], [ -115.184808, 36.161958599800002 ], [ -115.184808, 36.161961299799998 ], [ -115.1847999, 36.161961299799998 ], [ -115.1847999, 36.161963999800001 ], [ -115.1847648, 36.161963999800001 ], [ -115.1847648, 36.161966699799997 ], [ -115.1847405, 36.161966699799997 ], [ -115.1847405, 36.161963999800001 ], [ -115.1847135, 36.161963999800001 ], [ -115.1847135, 36.161966699799997 ], [ -115.1847108, 36.161966699799997 ], [ -115.1847108, 36.162009899799997 ], [ -115.1847081, 36.162009899799997 ], [ -115.1847081, 36.162012599800001 ], [ -115.1847054, 36.162012599800001 ], [ -115.1847054, 36.162015299799997 ] ] ] } },
{ "type": "Feature", "properties": { "value": 255.0 }, "geometry": { "type": "Polygon", "coordinates": [ [ [ -115.1863794, 36.161774999799995 ], [ -115.186374, 36.161774999799995 ], [ -115.186374, 36.161772299799999 ], [ -115.1863632, 36.161772299799999 ], [ -115.1863632, 36.161769599799996 ], [ -115.1863605, 36.161769599799996 ], [ -115.1863605, 36.161729099799999 ], [ -115.1863632, 36.161729099799999 ], [ -115.1863632, 36.1617236998 ], [ -115.1863659, 36.1617236998 ], [ -115.1863659, 36.161720999799996 ], [ -115.1863794, 36.161720999799996 ], [ -115.1863794, 36.1617236998 ], [ -115.1863848, 36.1617236998 ], [ -115.1863848, 36.161726399799996 ], [ -115.1863875, 36.161726399799996 ], [ -115.1863875, 36.161769599799996 ], [ -115.1863848, 36.161769599799996 ], [ -115.1863848, 36.161772299799999 ], [ -115.1863794, 36.161772299799999 ], [ -115.1863794, 36.161774999799995 ] ] ] } },
{ "type": "Feature", "properties": { "value": 255.0 }, "geometry": { "type": "Polygon", "coordinates": [ [ [ -115.1863281, 36.161772299799999 ], [ -115.1863065, 36.161772299799999 ], [ -115.1863065, 36.161753399799998 ], [ -115.1863092, 36.161753399799998 ], [ -115.1863092, 36.161739899799997 ], [ -115.1863146, 36.161739899799997 ], [ -115.1863146, 36.1617425998 ], [ -115.1863281, 36.1617425998 ], [ -115.1863281, 36.161747999799999 ], [ -115.1863308, 36.161747999799999 ], [ -115.1863308, 36.161764199799997 ], [ -115.1863281, 36.161764199799997 ], [ -115.1863281, 36.161772299799999 ] ] ] } },
{ "type": "Feature", "properties": { "value": 255.0 }, "geometry": { "type": "Polygon", "coordinates": [ [ [ -115.1848053, 36.161764199799997 ], [ -115.1847972, 36.161764199799997 ], [ -115.1847972, 36.161761499800001 ], [ -115.184781, 36.161761499800001 ], [ -115.184781, 36.161758799799998 ], [ -115.1847783, 36.161758799799998 ], [ -115.1847783, 36.161756099800002 ], [ -115.1847756, 36.161756099800002 ], [ -115.1847756, 36.161753399799998 ], [ -115.1847729, 36.161753399799998 ], [ -115.1847729, 36.161734499799998 ], [ -115.1847702, 36.161734499799998 ], [ -115.1847702, 36.161693999800001 ], [ -115.1847729, 36.161693999800001 ], [ -115.1847729, 36.161688599800001 ], [ -115.1847702, 36.161688599800001 ], [ -115.1847702, 36.161669699800001 ], [ -115.1847675, 36.161669699800001 ], [ -115.1847675, 36.161656199799999 ], [ -115.1847648, 36.161656199799999 ], [ -115.1847648, 36.161642699799998 ], [ -115.1848971, 36.161642699799998 ], [ -115.1848971, 36.161648099799997 ], [ -115.1848998, 36.161648099799997 ], [ -115.1848998, 36.161753399799998 ], [ -115.1848971, 36.161753399799998 ], [ -115.1848971, 36.161758799799998 ], [ -115.1848917, 36.161758799799998 ], [ -115.1848917, 36.161761499800001 ], [ -115.1848053, 36.161761499800001 ], [ -115.1848053, 36.161764199799997 ] ] ] } },
{ "type": "Feature", "properties": { "value": 255.0 }, "geometry": { "type": "Polygon", "coordinates": [ [ [ -115.1856126, 36.161761499800001 ], [ -115.1854965, 36.161761499800001 ], [ -115.1854965, 36.161758799799998 ], [ -115.1854911, 36.161758799799998 ], [ -115.1854911, 36.161756099800002 ], [ -115.1854884, 36.161756099800002 ], [ -115.1854884, 36.161753399799998 ], [ -115.1854857, 36.161753399799998 ], [ -115.1854857, 36.161750699799995 ], [ -115.1854803, 36.161750699799995 ], [ -115.1854803, 36.161747999799999 ], [ -115.1854749, 36.161747999799999 ], [ -115.1854749, 36.161745299799996 ], [ -115.1854695, 36.161745299799996 ], [ -115.1854695, 36.1617425998 ], [ -115.1854641, 36.1617425998 ], [ -115.1854641, 36.161739899799997 ], [ -115.1854614, 36.161739899799997 ], [ -115.1854614, 36.161734499799998 ], [ -115.1854587, 36.161734499799998 ], [ -115.1854587, 36.1617236998 ], [ -115.1854614, 36.1617236998 ], [ -115.1854614, 36.161715599799997 ], [ -115.1854641, 36.161715599799997 ], [ -115.1854641, 36.161710199799998 ], [ -115.1854668, 36.161710199799998 ], [ -115.1854668, 36.161707499799995 ], [ -115.1854722, 36.161707499799995 ], [ -115.1854722, 36.161704799799999 ], [ -115.1854776, 36.161704799799999 ], [ -115.1854776, 36.1616993998 ], [ -115.1854803, 36.1616993998 ], [ -115.1854803, 36.161693999800001 ], [ -115.185483, 36.161693999800001 ], [ -115.185483, 36.1616750998 ], [ -115.1854803, 36.1616750998 ], [ -115.1854803, 36.161669699800001 ], [ -115.1854776, 36.161669699800001 ], [ -115.1854776, 36.161664299799995 ], [ -115.1854749, 36.161664299799995 ], [ -115.1854749, 36.161661599799999 ], [ -115.1854722, 36.161661599799999 ], [ -115.1854722, 36.161658899799995 ], [ -115.1854695, 36.161658899799995 ], [ -115.1854695, 36.161653499799996 ], [ -115.1854668, 36.161653499799996 ], [ -115.1854668, 36.161645399800001 ], [ -115.1854695, 36.161645399800001 ], [ -115.1854695, 36.161642699799998 ], [ -115.185672, 36.161642699799998 ], [ -115.185672, 36.161683199799995 ], [ -115.1856693, 36.161683199799995 ], [ -115.1856693, 36.161696699799997 ], [ -115.1856666, 36.161696699799997 ], [ -115.1856666, 36.161704799799999 ], [ -115.1856639, 36.161704799799999 ], [ -115.1856639, 36.161707499799995 ], [ -115.1856315, 36.161707499799995 ], [ -115.1856315, 36.161710199799998 ], [ -115.1856261, 36.161710199799998 ], [ -115.1856261, 36.161712899800001 ], [ -115.1856234, 36.161712899800001 ], [ -115.1856234, 36.161747999799999 ], [ -115.1856207, 36.161747999799999 ], [ -115.1856207, 36.161753399799998 ], [ -115.185618, 36.161753399799998 ], [ -115.185618, 36.161756099800002 ], [ -115.1856153, 36.161756099800002 ], [ -115.1856153, 36.161758799799998 ], [ -115.1856126, 36.161758799799998 ], [ -115.1856126, 36.161761499800001 ] ] ] } },
{ "type": "Feature", "properties": { "value": 255.0 }, "geometry": { "type": "Polygon", "coordinates": [ [ [ -115.185915, 36.161747999799999 ], [ -115.1858637, 36.161747999799999 ], [ -115.1858637, 36.161745299799996 ], [ -115.185834, 36.161745299799996 ], [ -115.185834, 36.161747999799999 ], [ -115.1858259, 36.161747999799999 ], [ -115.1858259, 36.161745299799996 ], [ -115.1858205, 36.161745299799996 ], [ -115.1858205, 36.161691299799998 ], [ -115.1858178, 36.161691299799998 ], [ -115.1858178, 36.161666999799998 ], [ -115.1858205, 36.161666999799998 ], [ -115.1858205, 36.161656199799999 ], [ -115.1858232, 36.161656199799999 ], [ -115.1858232, 36.1616507998 ], [ -115.1858286, 36.1616507998 ], [ -115.1858286, 36.161648099799997 ], [ -115.185834, 36.161648099799997 ], [ -115.185834, 36.161645399800001 ], [ -115.1858367, 36.161645399800001 ], [ -115.1858367, 36.161642699799998 ], [ -115.1859231, 36.161642699799998 ], [ -115.1859231, 36.161648099799997 ], [ -115.1859204, 36.161648099799997 ], [ -115.1859204, 36.161658899799995 ], [ -115.1859231, 36.161658899799995 ], [ -115.1859231, 36.161693999800001 ], [ -115.1859204, 36.161693999800001 ], [ -115.1859204, 36.161745299799996 ], [ -115.185915, 36.161745299799996 ], [ -115.185915, 36.161747999799999 ] ] ] } }
]
}
