{
"type": "FeatureCollection",
"crs": { "type": "name", "properties": { "name": "urn:ogc:def:crs:OGC:1.3:CRS84" } },
"features": [
{ "type": "Feature", "properties": { "value": 255.0 }, "geometry": { "type": "Polygon", "coordinates": [ [ [ -115.2142731, 36.202007699900001 ], [ -115.2139815, 36.202007699900001 ], [ -115.2139815, 36.202004999899998 ], [ -115.2139788, 36.202004999899998 ], [ -115.2139788, 36.201959099900002 ], [ -115.2139815, 36.201959099900002 ], [ -115.2139815, 36.201937499899998 ], [ -115.2139788, 36.201937499899998 ], [ -115.2139788, 36.201934799900002 ], [ -115.2139815, 36.201934799900002 ], [ -115.2139815, 36.2019266999 ], [ -115.2139842, 36.2019266999 ], [ -115.2139842, 36.2019212999 ], [ -115.2139869, 36.2019212999 ], [ -115.2139869, 36.201918599900004 ], [ -115.2139923, 36.201918599900004 ], [ -115.2139923, 36.201915899900001 ], [ -115.2140004, 36.201915899900001 ], [ -115.2140004, 36.201913199899998 ], [ -115.2140274, 36.201913199899998 ], [ -115.2140274, 36.201915899900001 ], [ -115.2140544, 36.201915899900001 ], [ -115.2140544, 36.201913199899998 ], [ -115.214076, 36.201913199899998 ], [ -115.214076, 36.201910499900002 ], [ -115.2140895, 36.201910499900002 ], [ -115.2140895, 36.201913199899998 ], [ -115.2140976, 36.201913199899998 ], [ -115.2140976, 36.201915899900001 ], [ -115.2141084, 36.201915899900001 ], [ -115.2141084, 36.201913199899998 ], [ -115.21413, 36.201913199899998 ], [ -115.21413, 36.201918599900004 ], [ -115.2141489, 36.201918599900004 ], [ -115.2141489, 36.201915899900001 ], [ -115.214157, 36.201915899900001 ], [ -115.214157, 36.201913199899998 ], [ -115.2141678, 36.201913199899998 ], [ -115.2141678, 36.201910499900002 ], [ -115.2141975, 36.201910499900002 ], [ -115.2141975, 36.201907799899999 ], [ -115.214211, 36.201907799899999 ], [ -115.214211, 36.201910499900002 ], [ -115.2142704, 36.201910499900002 ], [ -115.2142704, 36.201913199899998 ], [ -115.2142731, 36.201913199899998 ], [ -115.2142731, 36.201986099900004 ], [ -115.2142758, 36.201986099900004 ], [ -115.2142758, 36.202002299900002 ], [ -115.2142731, 36.202002299900002 ], [ -115.2142731, 36.202007699900001 ] ] ] } },
{ "type": "Feature", "properties": { "value": 255.0 }, "geometry": { "type": "Polygon", "coordinates": [ [ [ -115.2145026, 36.202007699900001 ], [ -115.2143595, 36.202007699900001 ], [ -115.2143595, 36.202002299900002 ], [ -115.2143568, 36.202002299900002 ], [ -115.2143568, 36.201999599899999 ], [ -115.2143541, 36.201999599899999 ], [ -115.2143541, 36.2019941999 ], [ -115.2143514, 36.2019941999 ], [ -115.2143514, 36.201986099900004 ], [ -115.2143487, 36.201986099900004 ], [ -115.2143487, 36.201967199900004 ], [ -115.214346, 36.201967199900004 ], [ -115.214346, 36.2019455999 ], [ -115.2143487, 36.2019455999 ], [ -115.2143487, 36.201923999900004 ], [ -115.2143514, 36.201923999900004 ], [ -115.2143514, 36.201913199899998 ], [ -115.2143541, 36.201913199899998 ], [ -115.2143541, 36.201905099900003 ], [ -115.2143568, 36.201905099900003 ], [ -115.2143568, 36.2019023999 ], [ -115.2143622, 36.2019023999 ], [ -115.2143622, 36.201899699900004 ], [ -115.2143811, 36.201899699900004 ], [ -115.2143811, 36.2019023999 ], [ -115.2143973, 36.2019023999 ], [ -115.2143973, 36.201905099900003 ], [ -115.2144054, 36.201905099900003 ], [ -115.2144054, 36.2019023999 ], [ -115.214427, 36.2019023999 ], [ -115.214427, 36.201899699900004 ], [ -115.2144351, 36.201899699900004 ], [ -115.2144351, 36.201896999900001 ], [ -115.2144621, 36.201896999900001 ], [ -115.2144621, 36.201894299899998 ], [ -115.2145026, 36.201894299899998 ], [ -115.2145026, 36.202007699900001 ] ] ] } },
{ "type": "Feature", "properties": { "value": 255.0 }, "geometry": { "type": "Polygon", "coordinates": [ [ [ -115.2134334, 36.202007699900001 ], [ -115.2131607, 36.202007699900001 ], [ -115.2131607, 36.202004999899998 ], [ -115.2131634, 36.202004999899998 ], [ -115.2131634, 36.202002299900002 ], [ -115.2131661, 36.202002299900002 ], [ -115.2131661, 36.201999599899999 ], [ -115.2131715, 36.201999599899999 ], [ -115.2131715, 36.201996899900003 ], [ -115.2131823, 36.201996899900003 ], [ -115.2131823, 36.2019941999 ], [ -115.2131958, 36.2019941999 ], [ -115.2131958, 36.201991499900004 ], [ -115.2131985, 36.201991499900004 ], [ -115.2131985, 36.201988799900001 ], [ -115.2132012, 36.201988799900001 ], [ -115.2132012, 36.201986099900004 ], [ -115.2132039, 36.201986099900004 ], [ -115.2132039, 36.201980699899998 ], [ -115.2132066, 36.201980699899998 ], [ -115.2132066, 36.201975299899999 ], [ -115.2132093, 36.201975299899999 ], [ -115.2132093, 36.201929399900003 ], [ -115.213212, 36.201929399900003 ], [ -115.213212, 36.2019266999 ], [ -115.2132147, 36.2019266999 ], [ -115.2132147, 36.201923999900004 ], [ -115.2132174, 36.201923999900004 ], [ -115.2132174, 36.2019212999 ], [ -115.213239, 36.2019212999 ], [ -115.213239, 36.201918599900004 ], [ -115.2132606, 36.201918599900004 ], [ -115.2132606, 36.201915899900001 ], [ -115.2132633, 36.201915899900001 ], [ -115.2132633, 36.201910499900002 ], [ -115.213266, 36.201910499900002 ], [ -115.213266, 36.201905099900003 ], [ -115.2132687, 36.201905099900003 ], [ -115.2132687, 36.2019023999 ], [ -115.2132741, 36.2019023999 ], [ -115.2132741, 36.201899699900004 ], [ -115.2132903, 36.201899699900004 ], [ -115.2132903, 36.2019023999 ], [ -115.2133335, 36.2019023999 ], [ -115.2133335, 36.201899699900004 ], [ -115.2133632, 36.201899699900004 ], [ -115.2133632, 36.2019023999 ], [ -115.2133713, 36.2019023999 ], [ -115.2133713, 36.201899699900004 ], [ -115.2133767, 36.201899699900004 ], [ -115.2133767, 36.2019023999 ], [ -115.2133956, 36.2019023999 ], [ -115.2133956, 36.201899699900004 ], [ -115.2133983, 36.201899699900004 ], [ -115.2133983, 36.2019023999 ], [ -115.2134037, 36.2019023999 ], [ -115.2134037, 36.201899699900004 ], [ -115.2134145, 36.201899699900004 ], [ -115.2134145, 36.201896999900001 ], [ -115.2134199, 36.201896999900001 ], [ -115.2134199, 36.201899699900004 ], [ -115.2134253, 36.201899699900004 ], [ -115.2134253, 36.201905099900003 ], [ -115.213428, 36.201905099900003 ], [ -115.213428, 36.201934799900002 ], [ -115.2134307, 36.201934799900002 ], [ -115.2134307, 36.202004999899998 ], [ -115.2134334, 36.202004999899998 ], [ -115.2134334, 36.202007699900001 ] ] ] } },
{ "type": "Feature", "properties": { "value": 255.0 }, "geometry": { "type": "Polygon", "coordinates": [ [ [ -115.213023, 36.201988799900001 ], [ -115.2129177, 36.201988799900001 ], [ -115.2129177, 36.201986099900004 ], [ -115.2129123, 36.201986099900004 ], [ -115.2129123, 36.201983399900001 ], [ -115.2129096, 36.201983399900001 ], [ -115.2129096, 36.201980699899998 ], [ -115.2129069, 36.201980699899998 ], [ -115.2129069, 36.201975299899999 ], [ -115.2129042, 36.201975299899999 ], [ -115.2129042, 36.201961799899998 ], [ -115.2129015, 36.201961799899998 ], [ -115.2129015, 36.201915899900001 ], [ -115.2129042, 36.201915899900001 ], [ -115.2129042, 36.201910499900002 ], [ -115.2129069, 36.201910499900002 ], [ -115.2129069, 36.201907799899999 ], [ -115.2129096, 36.201907799899999 ], [ -115.2129096, 36.201905099900003 ], [ -115.212915, 36.201905099900003 ], [ -115.212915, 36.201907799899999 ], [ -115.2129231, 36.201907799899999 ], [ -115.2129231, 36.201910499900002 ], [ -115.2129339, 36.201910499900002 ], [ -115.2129339, 36.201907799899999 ], [ -115.212942, 36.201907799899999 ], [ -115.212942, 36.201905099900003 ], [ -115.212996, 36.201905099900003 ], [ -115.212996, 36.201907799899999 ], [ -115.2130095, 36.201907799899999 ], [ -115.2130095, 36.201910499900002 ], [ -115.2130122, 36.201910499900002 ], [ -115.2130122, 36.201913199899998 ], [ -115.2130149, 36.201913199899998 ], [ -115.2130149, 36.201915899900001 ], [ -115.2130176, 36.201915899900001 ], [ -115.2130176, 36.201918599900004 ], [ -115.2130203, 36.201918599900004 ], [ -115.2130203, 36.201923999900004 ], [ -115.213023, 36.201923999900004 ], [ -115.213023, 36.2019266999 ], [ -115.2130257, 36.2019266999 ], [ -115.2130257, 36.201929399900003 ], [ -115.2130284, 36.201929399900003 ], [ -115.2130284, 36.201986099900004 ], [ -115.213023, 36.201986099900004 ], [ -115.213023, 36.201988799900001 ] ] ] } },
{ "type": "Feature", "properties": { "value": 255.0 }, "geometry": { "type": "Polygon", "coordinates": [ [ [ -115.2139491, 36.202007699900001 ], [ -115.213536, 36.202007699900001 ], [ -115.213536, 36.201972599900003 ], [ -115.2135387, 36.201972599900003 ], [ -115.2135387, 36.201948299900003 ], [ -115.2135414, 36.201948299900003 ], [ -115.2135414, 36.201918599900004 ], [ -115.2135441, 36.201918599900004 ], [ -115.2135441, 36.201907799899999 ], [ -115.2135468, 36.201907799899999 ], [ -115.2135468, 36.2019023999 ], [ -115.2135495, 36.2019023999 ], [ -115.2135495, 36.201899699900004 ], [ -115.2135549, 36.201899699900004 ], [ -115.2135549, 36.201896999900001 ], [ -115.2135711, 36.201896999900001 ], [ -115.2135711, 36.201894299899998 ], [ -115.2136089, 36.201894299899998 ], [ -115.2136089, 36.201896999900001 ], [ -115.2136764, 36.201896999900001 ], [ -115.2136764, 36.201894299899998 ], [ -115.2137142, 36.201894299899998 ], [ -115.2137142, 36.201896999900001 ], [ -115.2137385, 36.201896999900001 ], [ -115.2137385, 36.201899699900004 ], [ -115.2137574, 36.201899699900004 ], [ -115.2137574, 36.201896999900001 ], [ -115.2137763, 36.201896999900001 ], [ -115.2137763, 36.201899699900004 ], [ -115.2137925, 36.201899699900004 ], [ -115.2137925, 36.2019023999 ], [ -115.2138006, 36.2019023999 ], [ -115.2138006, 36.201905099900003 ], [ -115.2138195, 36.201905099900003 ], [ -115.2138195, 36.2019023999 ], [ -115.2138411, 36.2019023999 ], [ -115.2138411, 36.201905099900003 ], [ -115.2138492, 36.201905099900003 ], [ -115.2138492, 36.201907799899999 ], [ -115.21386, 36.201907799899999 ], [ -115.21386, 36.201910499900002 ], [ -115.2138897, 36.201910499900002 ], [ -115.2138897, 36.201907799899999 ], [ -115.2139032, 36.201907799899999 ], [ -115.2139032, 36.201910499900002 ], [ -115.213914, 36.201910499900002 ], [ -115.213914, 36.201907799899999 ], [ -115.2139194, 36.201907799899999 ], [ -115.2139194, 36.201910499900002 ], [ -115.213941, 36.201910499900002 ], [ -115.213941, 36.201913199899998 ], [ -115.2139437, 36.201913199899998 ], [ -115.2139437, 36.201915899900001 ], [ -115.2139464, 36.201915899900001 ], [ -115.2139464, 36.201918599900004 ], [ -115.2139491, 36.201918599900004 ], [ -115.2139491, 36.2019212999 ], [ -115.2139518, 36.2019212999 ], [ -115.2139518, 36.201950999899999 ], [ -115.2139491, 36.201950999899999 ], [ -115.2139491, 36.202007699900001 ] ] ] } },
{ "type": "Feature", "properties": { "value": 255.0 }, "geometry": { "type": "Polygon", "coordinates": [ [ [ -115.2144972, 36.201478499899999 ], [ -115.2144891, 36.201478499899999 ], [ -115.2144891, 36.201475799900003 ], [ -115.2144864, 36.201475799900003 ], [ -115.2144864, 36.201456899900002 ], [ -115.2144891, 36.201456899900002 ], [ -115.2144891, 36.201451499900003 ], [ -115.2144918, 36.201451499900003 ], [ -115.2144918, 36.2014487999 ], [ -115.2145026, 36.2014487999 ], [ -115.2145026, 36.201475799900003 ], [ -115.2144972, 36.201475799900003 ], [ -115.2144972, 36.201478499899999 ] ] ] } },
{ "type": "Feature", "properties": { "value": 255.0 }, "geometry": { "type": "Polygon", "coordinates": [ [ [ -115.2139437, 36.2014487999 ], [ -115.2139248, 36.2014487999 ], [ -115.2139248, 36.201446099900004 ], [ -115.2139221, 36.201446099900004 ], [ -115.2139221, 36.2014433999 ], [ -115.2139194, 36.2014433999 ], [ -115.2139194, 36.201421799899997 ], [ -115.2139221, 36.201421799899997 ], [ -115.2139221, 36.201419099900001 ], [ -115.2139248, 36.201419099900001 ], [ -115.2139248, 36.201416399899998 ], [ -115.2139383, 36.201416399899998 ], [ -115.2139383, 36.201419099900001 ], [ -115.213941, 36.201419099900001 ], [ -115.213941, 36.2014244999 ], [ -115.2139437, 36.2014244999 ], [ -115.2139437, 36.201437999900001 ], [ -115.2139464, 36.201437999900001 ], [ -115.2139464, 36.201446099900004 ], [ -115.2139437, 36.201446099900004 ], [ -115.2139437, 36.2014487999 ] ] ] } },
{ "type": "Feature", "properties": { "value": 255.0 }, "geometry": { "type": "Polygon", "coordinates": [ [ [ -115.2138735, 36.201475799900003 ], [ -115.21386, 36.201475799900003 ], [ -115.21386, 36.201473099899999 ], [ -115.2138411, 36.201473099899999 ], [ -115.2138411, 36.201470399900003 ], [ -115.2138276, 36.201470399900003 ], [ -115.2138276, 36.2014676999 ], [ -115.2138195, 36.2014676999 ], [ -115.2138195, 36.201470399900003 ], [ -115.2136899, 36.201470399900003 ], [ -115.2136899, 36.2014676999 ], [ -115.2136845, 36.2014676999 ], [ -115.2136845, 36.201464999899997 ], [ -115.2136791, 36.201464999899997 ], [ -115.2136791, 36.201462299900001 ], [ -115.2136737, 36.201462299900001 ], [ -115.2136737, 36.201459599899998 ], [ -115.213671, 36.201459599899998 ], [ -115.213671, 36.201456899900002 ], [ -115.2136683, 36.201456899900002 ], [ -115.2136683, 36.201410999899998 ], [ -115.213671, 36.201410999899998 ], [ -115.213671, 36.201405599899999 ], [ -115.2136737, 36.201405599899999 ], [ -115.2136737, 36.201383999900003 ], [ -115.2136764, 36.201383999900003 ], [ -115.2136764, 36.201378599900004 ], [ -115.2137142, 36.201378599900004 ], [ -115.2137142, 36.2013812999 ], [ -115.2137331, 36.2013812999 ], [ -115.2137331, 36.201378599900004 ], [ -115.2138087, 36.201378599900004 ], [ -115.2138087, 36.2013812999 ], [ -115.2138492, 36.2013812999 ], [ -115.2138492, 36.201378599900004 ], [ -115.2138546, 36.201378599900004 ], [ -115.2138546, 36.2013812999 ], [ -115.2138816, 36.2013812999 ], [ -115.2138816, 36.201383999900003 ], [ -115.2138951, 36.201383999900003 ], [ -115.2138951, 36.2013812999 ], [ -115.2139005, 36.2013812999 ], [ -115.2139005, 36.201383999900003 ], [ -115.2139086, 36.201383999900003 ], [ -115.2139086, 36.201386699899999 ], [ -115.2139113, 36.201386699899999 ], [ -115.2139113, 36.201392099899998 ], [ -115.213914, 36.201392099899998 ], [ -115.213914, 36.201421799899997 ], [ -115.2139167, 36.201421799899997 ], [ -115.2139167, 36.201429899899999 ], [ -115.213914, 36.201429899899999 ], [ -115.213914, 36.201462299900001 ], [ -115.2139113, 36.201462299900001 ], [ -115.2139113, 36.2014676999 ], [ -115.2139086, 36.2014676999 ], [ -115.2139086, 36.201470399900003 ], [ -115.2138924, 36.201470399900003 ], [ -115.2138924, 36.201473099899999 ], [ -115.2138735, 36.201473099899999 ], [ -115.2138735, 36.201475799900003 ] ] ] } },
{ "type": "Feature", "properties": { "value": 255.0 }, "geometry": { "type": "Polygon", "coordinates": [ [ [ -115.2142623, 36.201475799900003 ], [ -115.2142326, 36.201475799900003 ], [ -115.2142326, 36.201473099899999 ], [ -115.2141651, 36.201473099899999 ], [ -115.2141651, 36.201470399900003 ], [ -115.2141327, 36.201470399900003 ], [ -115.2141327, 36.201473099899999 ], [ -115.21413, 36.201473099899999 ], [ -115.21413, 36.201464999899997 ], [ -115.2141192, 36.201464999899997 ], [ -115.2141192, 36.2014676999 ], [ -115.2141111, 36.2014676999 ], [ -115.2141111, 36.201464999899997 ], [ -115.2140706, 36.201464999899997 ], [ -115.2140706, 36.201462299900001 ], [ -115.2140598, 36.201462299900001 ], [ -115.2140598, 36.201459599899998 ], [ -115.214049, 36.201459599899998 ], [ -115.214049, 36.201456899900002 ], [ -115.2140301, 36.201456899900002 ], [ -115.2140301, 36.201454199899999 ], [ -115.2140193, 36.201454199899999 ], [ -115.2140193, 36.201451499900003 ], [ -115.2140166, 36.201451499900003 ], [ -115.2140166, 36.2014487999 ], [ -115.2139923, 36.2014487999 ], [ -115.2139923, 36.201446099900004 ], [ -115.2139707, 36.201446099900004 ], [ -115.2139707, 36.201440699899997 ], [ -115.213968, 36.201440699899997 ], [ -115.213968, 36.201419099900001 ], [ -115.2139653, 36.201419099900001 ], [ -115.2139653, 36.201405599899999 ], [ -115.2139626, 36.201405599899999 ], [ -115.2139626, 36.201394799900001 ], [ -115.2139653, 36.201394799900001 ], [ -115.2139653, 36.201392099899998 ], [ -115.213968, 36.201392099899998 ], [ -115.213968, 36.201389399900002 ], [ -115.2140193, 36.201389399900002 ], [ -115.2140193, 36.201386699899999 ], [ -115.214022, 36.201386699899999 ], [ -115.214022, 36.2013812999 ], [ -115.2140247, 36.2013812999 ], [ -115.2140247, 36.201348899899997 ], [ -115.214022, 36.201348899899997 ], [ -115.214022, 36.201343499899998 ], [ -115.2140247, 36.201343499899998 ], [ -115.2140247, 36.201340799900002 ], [ -115.2141111, 36.201340799900002 ], [ -115.2141111, 36.201343499899998 ], [ -115.2141273, 36.201343499899998 ], [ -115.2141273, 36.201340799900002 ], [ -115.2142515, 36.201340799900002 ], [ -115.2142515, 36.201343499899998 ], [ -115.2142596, 36.201343499899998 ], [ -115.2142596, 36.201346199900001 ], [ -115.2142623, 36.201346199900001 ], [ -115.2142623, 36.201348899899997 ], [ -115.214265, 36.201348899899997 ], [ -115.214265, 36.201365099900002 ], [ -115.2142677, 36.201365099900002 ], [ -115.2142677, 36.201410999899998 ], [ -115.214265, 36.201410999899998 ], [ -115.214265, 36.201473099899999 ], [ -115.2142623, 36.201473099899999 ], [ -115.2142623, 36.201475799900003 ] ] ] } },
{ "type": "Feature", "properties": { "value": 255.0 }, "geometry": { "type": "Polygon", "coordinates": [ [ [ -115.2130419, 36.201456899900002 ], [ -115.2129663, 36.201456899900002 ], [ -115.2129663, 36.201454199899999 ], [ -115.2129366, 36.201454199899999 ], [ -115.2129366, 36.201451499900003 ], [ -115.2129312, 36.201451499900003 ], [ -115.2129312, 36.2014487999 ], [ -115.2129285, 36.2014487999 ], [ -115.2129285, 36.2014433999 ], [ -115.2129258, 36.2014433999 ], [ -115.2129258, 36.201440699899997 ], [ -115.2129231, 36.201440699899997 ], [ -115.2129231, 36.201437999900001 ], [ -115.2129204, 36.201437999900001 ], [ -115.2129204, 36.201429899899999 ], [ -115.2129177, 36.201429899899999 ], [ -115.2129177, 36.2014244999 ], [ -115.2129204, 36.2014244999 ], [ -115.2129204, 36.2014001999 ], [ -115.2129231, 36.2014001999 ], [ -115.2129231, 36.201392099899998 ], [ -115.2129258, 36.201392099899998 ], [ -115.2129258, 36.201383999900003 ], [ -115.2129285, 36.201383999900003 ], [ -115.2129285, 36.201378599900004 ], [ -115.2129312, 36.201378599900004 ], [ -115.2129312, 36.201373199899997 ], [ -115.2129339, 36.201373199899997 ], [ -115.2129339, 36.201370499900001 ], [ -115.2129366, 36.201370499900001 ], [ -115.2129366, 36.201367799899998 ], [ -115.2129393, 36.201367799899998 ], [ -115.2129393, 36.201365099900002 ], [ -115.212942, 36.201365099900002 ], [ -115.212942, 36.201362399899999 ], [ -115.2129474, 36.201362399899999 ], [ -115.2129474, 36.201359699900003 ], [ -115.2129555, 36.201359699900003 ], [ -115.2129555, 36.2013569999 ], [ -115.2130419, 36.2013569999 ], [ -115.2130419, 36.201354299899997 ], [ -115.2130473, 36.201354299899997 ], [ -115.2130473, 36.201348899899997 ], [ -115.21305, 36.201348899899997 ], [ -115.21305, 36.201335399900003 ], [ -115.2130527, 36.201335399900003 ], [ -115.2130527, 36.201324599899998 ], [ -115.2130554, 36.201324599899998 ], [ -115.2130554, 36.201321899900002 ], [ -115.2130581, 36.201321899900002 ], [ -115.2130581, 36.201319199899999 ], [ -115.2130797, 36.201319199899999 ], [ -115.2130797, 36.201321899900002 ], [ -115.2131013, 36.201321899900002 ], [ -115.2131013, 36.201324599899998 ], [ -115.2131148, 36.201324599899998 ], [ -115.2131148, 36.201327299900001 ], [ -115.2131202, 36.201327299900001 ], [ -115.2131202, 36.2013326999 ], [ -115.213131, 36.2013326999 ], [ -115.213131, 36.201329999899997 ], [ -115.2131823, 36.201329999899997 ], [ -115.2131823, 36.2013326999 ], [ -115.2131904, 36.2013326999 ], [ -115.2131904, 36.201335399900003 ], [ -115.2131958, 36.201335399900003 ], [ -115.2131958, 36.201402899900003 ], [ -115.2131931, 36.201402899900003 ], [ -115.2131931, 36.201427199900003 ], [ -115.2131958, 36.201427199900003 ], [ -115.2131958, 36.201429899899999 ], [ -115.2131931, 36.201429899899999 ], [ -115.2131931, 36.201440699899997 ], [ -115.2131904, 36.201440699899997 ], [ -115.2131904, 36.2014433999 ], [ -115.213185, 36.2014433999 ], [ -115.213185, 36.201446099900004 ], [ -115.2131553, 36.201446099900004 ], [ -115.2131553, 36.2014487999 ], [ -115.2131526, 36.2014487999 ], [ -115.2131526, 36.201446099900004 ], [ -115.2131445, 36.201446099900004 ], [ -115.2131445, 36.2014487999 ], [ -115.2131202, 36.2014487999 ], [ -115.2131202, 36.201446099900004 ], [ -115.2131175, 36.201446099900004 ], [ -115.2131175, 36.2014433999 ], [ -115.2130932, 36.2014433999 ], [ -115.2130932, 36.201446099900004 ], [ -115.2130716, 36.201446099900004 ], [ -115.2130716, 36.2014487999 ], [ -115.2130662, 36.2014487999 ], [ -115.2130662, 36.201451499900003 ], [ -115.2130608, 36.201451499900003 ], [ -115.2130608, 36.201454199899999 ], [ -115.2130419, 36.201454199899999 ], [ -115.2130419, 36.201456899900002 ] ] ] } },
{ "type": "Feature", "properties": { "value": 255.0 }, "geometry": { "type": "Polygon", "coordinates": [ [ [ -115.212834, 36.201454199899999 ], [ -115.2127908, 36.201454199899999 ], [ -115.2127908, 36.201451499900003 ], [ -115.2127476, 36.201451499900003 ], [ -115.2127476, 36.201321899900002 ], [ -115.2127503, 36.201321899900002 ], [ -115.2127503, 36.201324599899998 ], [ -115.2127665, 36.201324599899998 ], [ -115.2127665, 36.201327299900001 ], [ -115.2127692, 36.201327299900001 ], [ -115.2127692, 36.201329999899997 ], [ -115.2127719, 36.201329999899997 ], [ -115.2127719, 36.2013326999 ], [ -115.2127773, 36.2013326999 ], [ -115.2127773, 36.201335399900003 ], [ -115.2128016, 36.201335399900003 ], [ -115.2128016, 36.201338099899999 ], [ -115.2128043, 36.201338099899999 ], [ -115.2128043, 36.201340799900002 ], [ -115.2128097, 36.201340799900002 ], [ -115.2128097, 36.201343499899998 ], [ -115.2128124, 36.201343499899998 ], [ -115.2128124, 36.201346199900001 ], [ -115.2128205, 36.201346199900001 ], [ -115.2128205, 36.201348899899997 ], [ -115.2128313, 36.201348899899997 ], [ -115.2128313, 36.201351599900001 ], [ -115.2128502, 36.201351599900001 ], [ -115.2128502, 36.201354299899997 ], [ -115.2128556, 36.201354299899997 ], [ -115.2128556, 36.2013569999 ], [ -115.2128583, 36.2013569999 ], [ -115.2128583, 36.201359699900003 ], [ -115.212861, 36.201359699900003 ], [ -115.212861, 36.201362399899999 ], [ -115.2128637, 36.201362399899999 ], [ -115.2128637, 36.201367799899998 ], [ -115.2128664, 36.201367799899998 ], [ -115.2128664, 36.201373199899997 ], [ -115.2128691, 36.201373199899997 ], [ -115.2128691, 36.201394799900001 ], [ -115.2128664, 36.201394799900001 ], [ -115.2128664, 36.201410999899998 ], [ -115.2128637, 36.201410999899998 ], [ -115.2128637, 36.201427199900003 ], [ -115.212861, 36.201427199900003 ], [ -115.212861, 36.201437999900001 ], [ -115.2128583, 36.201437999900001 ], [ -115.2128583, 36.201446099900004 ], [ -115.2128556, 36.201446099900004 ], [ -115.2128556, 36.2014487999 ], [ -115.2128529, 36.2014487999 ], [ -115.2128529, 36.201451499900003 ], [ -115.212834, 36.201451499900003 ], [ -115.212834, 36.201454199899999 ] ] ] } },
{ "type": "Feature", "properties": { "value": 255.0 }, "geometry": { "type": "Polygon", "coordinates": [ [ [ -115.2144729, 36.201392099899998 ], [ -115.2144513, 36.201392099899998 ], [ -115.2144513, 36.201389399900002 ], [ -115.2144486, 36.201389399900002 ], [ -115.2144486, 36.201386699899999 ], [ -115.2144459, 36.201386699899999 ], [ -115.2144459, 36.201362399899999 ], [ -115.2144486, 36.201362399899999 ], [ -115.2144486, 36.201335399900003 ], [ -115.2144513, 36.201335399900003 ], [ -115.2144513, 36.2013326999 ], [ -115.214454, 36.2013326999 ], [ -115.214454, 36.201329999899997 ], [ -115.2144756, 36.201329999899997 ], [ -115.2144756, 36.201327299900001 ], [ -115.2144783, 36.201327299900001 ], [ -115.2144783, 36.201324599899998 ], [ -115.214481, 36.201324599899998 ], [ -115.214481, 36.201316499900003 ], [ -115.2144837, 36.201316499900003 ], [ -115.2144837, 36.201313799899999 ], [ -115.2144864, 36.201313799899999 ], [ -115.2144864, 36.201311099900003 ], [ -115.2145026, 36.201311099900003 ], [ -115.2145026, 36.201383999900003 ], [ -115.2144945, 36.201383999900003 ], [ -115.2144945, 36.201386699899999 ], [ -115.214481, 36.201386699899999 ], [ -115.214481, 36.201389399900002 ], [ -115.2144729, 36.201389399900002 ], [ -115.2144729, 36.201392099899998 ] ] ] } },
{ "type": "Feature", "properties": { "value": 255.0 }, "geometry": { "type": "Polygon", "coordinates": [ [ [ -115.213374, 36.2014676999 ], [ -115.2133146, 36.2014676999 ], [ -115.2133146, 36.201464999899997 ], [ -115.2133038, 36.201464999899997 ], [ -115.2133038, 36.201462299900001 ], [ -115.2132984, 36.201462299900001 ], [ -115.2132984, 36.201459599899998 ], [ -115.213293, 36.201459599899998 ], [ -115.213293, 36.201456899900002 ], [ -115.2132876, 36.201456899900002 ], [ -115.2132876, 36.201454199899999 ], [ -115.2132822, 36.201454199899999 ], [ -115.2132822, 36.201451499900003 ], [ -115.2132768, 36.201451499900003 ], [ -115.2132768, 36.2014487999 ], [ -115.2132633, 36.2014487999 ], [ -115.2132633, 36.201446099900004 ], [ -115.2132552, 36.201446099900004 ], [ -115.2132552, 36.201440699899997 ], [ -115.2132525, 36.201440699899997 ], [ -115.2132525, 36.201416399899998 ], [ -115.2132552, 36.201416399899998 ], [ -115.2132552, 36.201408299900002 ], [ -115.2132579, 36.201408299900002 ], [ -115.2132579, 36.201405599899999 ], [ -115.2132633, 36.201405599899999 ], [ -115.2132633, 36.201402899900003 ], [ -115.2132714, 36.201402899900003 ], [ -115.2132714, 36.2014001999 ], [ -115.2132741, 36.2014001999 ], [ -115.2132741, 36.201394799900001 ], [ -115.2132714, 36.201394799900001 ], [ -115.2132714, 36.201392099899998 ], [ -115.2132687, 36.201392099899998 ], [ -115.2132687, 36.201389399900002 ], [ -115.213266, 36.201389399900002 ], [ -115.213266, 36.2013758999 ], [ -115.2132633, 36.2013758999 ], [ -115.2132633, 36.201365099900002 ], [ -115.2132606, 36.201365099900002 ], [ -115.2132606, 36.201362399899999 ], [ -115.2132633, 36.201362399899999 ], [ -115.2132633, 36.2013569999 ], [ -115.213266, 36.2013569999 ], [ -115.213266, 36.201354299899997 ], [ -115.2132687, 36.201354299899997 ], [ -115.2132687, 36.201351599900001 ], [ -115.2132741, 36.201351599900001 ], [ -115.2132741, 36.201348899899997 ], [ -115.2132795, 36.201348899899997 ], [ -115.2132795, 36.201346199900001 ], [ -115.2132822, 36.201346199900001 ], [ -115.2132822, 36.201340799900002 ], [ -115.2132849, 36.201340799900002 ], [ -115.2132849, 36.2013326999 ], [ -115.2132822, 36.2013326999 ], [ -115.2132822, 36.201327299900001 ], [ -115.2132849, 36.201327299900001 ], [ -115.2132849, 36.201321899900002 ], [ -115.2132876, 36.201321899900002 ], [ -115.2132876, 36.201316499900003 ], [ -115.213293, 36.201316499900003 ], [ -115.213293, 36.201313799899999 ], [ -115.2133011, 36.201313799899999 ], [ -115.2133011, 36.201311099900003 ], [ -115.2133119, 36.201311099900003 ], [ -115.2133119, 36.2013083999 ], [ -115.2133308, 36.2013083999 ], [ -115.2133308, 36.201305699899997 ], [ -115.2133632, 36.201305699899997 ], [ -115.2133632, 36.201302999900001 ], [ -115.213374, 36.201302999900001 ], [ -115.213374, 36.201300299899998 ], [ -115.2133821, 36.201300299899998 ], [ -115.2133821, 36.201297599900002 ], [ -115.2133902, 36.201297599900002 ], [ -115.2133902, 36.201294899899999 ], [ -115.213401, 36.201294899899999 ], [ -115.213401, 36.201292199900003 ], [ -115.2134064, 36.201292199900003 ], [ -115.2134064, 36.2012894999 ], [ -115.2134118, 36.2012894999 ], [ -115.2134118, 36.201286799899997 ], [ -115.2134388, 36.201286799899997 ], [ -115.2134388, 36.2012894999 ], [ -115.2134469, 36.2012894999 ], [ -115.2134469, 36.201292199900003 ], [ -115.2134874, 36.201292199900003 ], [ -115.2134874, 36.201294899899999 ], [ -115.2134928, 36.201294899899999 ], [ -115.2134928, 36.201297599900002 ], [ -115.2134982, 36.201297599900002 ], [ -115.2134982, 36.201300299899998 ], [ -115.2135063, 36.201300299899998 ], [ -115.2135063, 36.201302999900001 ], [ -115.2135279, 36.201302999900001 ], [ -115.2135279, 36.2013083999 ], [ -115.2135306, 36.2013083999 ], [ -115.2135306, 36.201351599900001 ], [ -115.2135333, 36.201351599900001 ], [ -115.2135333, 36.2013758999 ], [ -115.2135306, 36.2013758999 ], [ -115.2135306, 36.201394799900001 ], [ -115.2135279, 36.201394799900001 ], [ -115.2135279, 36.201410999899998 ], [ -115.2135252, 36.201410999899998 ], [ -115.2135252, 36.201416399899998 ], [ -115.2134577, 36.201416399899998 ], [ -115.2134577, 36.201419099900001 ], [ -115.2134334, 36.201419099900001 ], [ -115.2134334, 36.201416399899998 ], [ -115.2133956, 36.201416399899998 ], [ -115.2133956, 36.201421799899997 ], [ -115.2133929, 36.201421799899997 ], [ -115.2133929, 36.201459599899998 ], [ -115.2133902, 36.201459599899998 ], [ -115.2133902, 36.201462299900001 ], [ -115.2133875, 36.201462299900001 ], [ -115.2133875, 36.201464999899997 ], [ -115.213374, 36.201464999899997 ], [ -115.213374, 36.2014676999 ] ] ] } },
{ "type": "Feature", "properties": { "value": 255.0 }, "geometry": { "type": "Polygon", "coordinates": [ [ [ -115.2136575, 36.201311099900003 ], [ -115.2136521, 36.201311099900003 ], [ -115.2136521, 36.2013083999 ], [ -115.2136413, 36.2013083999 ], [ -115.2136413, 36.201305699899997 ], [ -115.2136386, 36.201305699899997 ], [ -115.2136386, 36.201300299899998 ], [ -115.2136413, 36.201300299899998 ], [ -115.2136413, 36.201297599900002 ], [ -115.2136467, 36.201297599900002 ], [ -115.2136467, 36.201300299899998 ], [ -115.2136494, 36.201300299899998 ], [ -115.2136494, 36.201297599900002 ], [ -115.2136575, 36.201297599900002 ], [ -115.2136575, 36.201300299899998 ], [ -115.2136602, 36.201300299899998 ], [ -115.2136602, 36.201305699899997 ], [ -115.2136575, 36.201305699899997 ], [ -115.2136575, 36.201311099900003 ] ] ] } },
{ "type": "Feature", "properties": { "value": 255.0 }, "geometry": { "type": "Polygon", "coordinates": [ [ [ -115.2144405, 36.201275999899998 ], [ -115.2144324, 36.201275999899998 ], [ -115.2144324, 36.201270599899999 ], [ -115.2144297, 36.201270599899999 ], [ -115.2144297, 36.201251699899998 ], [ -115.214427, 36.201251699899998 ], [ -115.214427, 36.201243599900003 ], [ -115.2144405, 36.201243599900003 ], [ -115.2144405, 36.201248999900002 ], [ -115.2144432, 36.201248999900002 ], [ -115.2144432, 36.201273299900002 ], [ -115.2144405, 36.201273299900002 ], [ -115.2144405, 36.201275999899998 ] ] ] } },
{ "type": "Feature", "properties": { "value": 255.0 }, "geometry": { "type": "Polygon", "coordinates": [ [ [ -115.2132255, 36.201254399900002 ], [ -115.2132093, 36.201254399900002 ], [ -115.2132093, 36.201248999900002 ], [ -115.2132066, 36.201248999900002 ], [ -115.2132066, 36.2012165999 ], [ -115.2132147, 36.2012165999 ], [ -115.2132147, 36.201219299899996 ], [ -115.2132201, 36.201219299899996 ], [ -115.2132201, 36.2012219999 ], [ -115.2132228, 36.2012219999 ], [ -115.2132228, 36.201227399899999 ], [ -115.2132255, 36.201227399899999 ], [ -115.2132255, 36.201232799899998 ], [ -115.2132282, 36.201232799899998 ], [ -115.2132282, 36.201248999900002 ], [ -115.2132255, 36.201248999900002 ], [ -115.2132255, 36.201254399900002 ] ] ] } },
{ "type": "Feature", "properties": { "value": 255.0 }, "geometry": { "type": "Polygon", "coordinates": [ [ [ -115.2140598, 36.201243599900003 ], [ -115.2140517, 36.201243599900003 ], [ -115.2140517, 36.2012408999 ], [ -115.2140463, 36.2012408999 ], [ -115.2140463, 36.201238199899997 ], [ -115.2140436, 36.201238199899997 ], [ -115.2140436, 36.201235499900001 ], [ -115.2140463, 36.201235499900001 ], [ -115.2140463, 36.201232799899998 ], [ -115.2140598, 36.201232799899998 ], [ -115.2140598, 36.201243599900003 ] ] ] } },
{ "type": "Feature", "properties": { "value": 255.0 }, "geometry": { "type": "Polygon", "coordinates": [ [ [ -115.2140706, 36.201208499899998 ], [ -115.2139923, 36.201208499899998 ], [ -115.2139923, 36.201205799900002 ], [ -115.2139788, 36.201205799900002 ], [ -115.2139788, 36.201203099899999 ], [ -115.2139761, 36.201203099899999 ], [ -115.2139761, 36.2011976999 ], [ -115.2139734, 36.2011976999 ], [ -115.2139734, 36.201167999900001 ], [ -115.2139761, 36.201167999900001 ], [ -115.2139761, 36.201159899899999 ], [ -115.2139788, 36.201159899899999 ], [ -115.2139788, 36.201157199900003 ], [ -115.2139815, 36.201157199900003 ], [ -115.2139815, 36.201154499899999 ], [ -115.213995, 36.201154499899999 ], [ -115.213995, 36.201151799899996 ], [ -115.2140058, 36.201151799899996 ], [ -115.2140058, 36.2011490999 ], [ -115.2140112, 36.2011490999 ], [ -115.2140112, 36.201146399899997 ], [ -115.2140166, 36.201146399899997 ], [ -115.2140166, 36.201143699900001 ], [ -115.2140247, 36.201143699900001 ], [ -115.2140247, 36.201140999899998 ], [ -115.2140868, 36.201140999899998 ], [ -115.2140868, 36.201143699900001 ], [ -115.2140949, 36.201143699900001 ], [ -115.2140949, 36.201146399899997 ], [ -115.2140976, 36.201146399899997 ], [ -115.2140976, 36.201162599900002 ], [ -115.2141003, 36.201162599900002 ], [ -115.2141003, 36.201178799899999 ], [ -115.2140976, 36.201178799899999 ], [ -115.2140976, 36.201203099899999 ], [ -115.2140949, 36.201203099899999 ], [ -115.2140949, 36.201205799900002 ], [ -115.2140706, 36.201205799900002 ], [ -115.2140706, 36.201208499899998 ] ] ] } },
{ "type": "Feature", "properties": { "value": 255.0 }, "geometry": { "type": "Polygon", "coordinates": [ [ [ -115.2132309, 36.2011733999 ], [ -115.2131607, 36.2011733999 ], [ -115.2131607, 36.201170699899997 ], [ -115.2131553, 36.201170699899997 ], [ -115.2131553, 36.201165299899998 ], [ -115.2131526, 36.201165299899998 ], [ -115.2131526, 36.2011490999 ], [ -115.2131553, 36.2011490999 ], [ -115.2131553, 36.201127499899997 ], [ -115.213158, 36.201127499899997 ], [ -115.213158, 36.201103199899997 ], [ -115.2131607, 36.201103199899997 ], [ -115.2131607, 36.201100499900001 ], [ -115.2131688, 36.201100499900001 ], [ -115.2131688, 36.201097799899998 ], [ -115.2131904, 36.201097799899998 ], [ -115.2131904, 36.201100499900001 ], [ -115.213212, 36.201100499900001 ], [ -115.213212, 36.201103199899997 ], [ -115.2132201, 36.201103199899997 ], [ -115.2132201, 36.2011058999 ], [ -115.2132255, 36.2011058999 ], [ -115.2132255, 36.201108599900003 ], [ -115.2132282, 36.201108599900003 ], [ -115.2132282, 36.201111299899999 ], [ -115.2132309, 36.201111299899999 ], [ -115.2132309, 36.201124799900001 ], [ -115.2132336, 36.201124799900001 ], [ -115.2132336, 36.201170699899997 ], [ -115.2132309, 36.201170699899997 ], [ -115.2132309, 36.2011733999 ] ] ] } },
{ "type": "Feature", "properties": { "value": 255.0 }, "geometry": { "type": "Polygon", "coordinates": [ [ [ -115.2129717, 36.2011490999 ], [ -115.2129474, 36.2011490999 ], [ -115.2129474, 36.201146399899997 ], [ -115.2129447, 36.201146399899997 ], [ -115.2129447, 36.201143699900001 ], [ -115.212942, 36.201143699900001 ], [ -115.212942, 36.201138299900002 ], [ -115.2129393, 36.201138299900002 ], [ -115.2129393, 36.201124799900001 ], [ -115.2129366, 36.201124799900001 ], [ -115.2129366, 36.201113999900002 ], [ -115.2129339, 36.201113999900002 ], [ -115.2129339, 36.201103199899997 ], [ -115.2129366, 36.201103199899997 ], [ -115.2129366, 36.201100499900001 ], [ -115.2129393, 36.201100499900001 ], [ -115.2129393, 36.201103199899997 ], [ -115.2129555, 36.201103199899997 ], [ -115.2129555, 36.201100499900001 ], [ -115.212969, 36.201100499900001 ], [ -115.212969, 36.201097799899998 ], [ -115.2129879, 36.201097799899998 ], [ -115.2129879, 36.201095099900002 ], [ -115.2130014, 36.201095099900002 ], [ -115.2130014, 36.201092399899998 ], [ -115.2130122, 36.201092399899998 ], [ -115.2130122, 36.201089699900002 ], [ -115.2130392, 36.201089699900002 ], [ -115.2130392, 36.201092399899998 ], [ -115.2130824, 36.201092399899998 ], [ -115.2130824, 36.201095099900002 ], [ -115.2130851, 36.201095099900002 ], [ -115.2130851, 36.201097799899998 ], [ -115.2130878, 36.201097799899998 ], [ -115.2130878, 36.201108599900003 ], [ -115.2130851, 36.201108599900003 ], [ -115.2130851, 36.201132899900003 ], [ -115.2130824, 36.201132899900003 ], [ -115.2130824, 36.201135599899999 ], [ -115.21305, 36.201135599899999 ], [ -115.21305, 36.201132899900003 ], [ -115.2130392, 36.201132899900003 ], [ -115.2130392, 36.2011301999 ], [ -115.213023, 36.2011301999 ], [ -115.213023, 36.201127499899997 ], [ -115.2130095, 36.201127499899997 ], [ -115.2130095, 36.2011301999 ], [ -115.2129987, 36.2011301999 ], [ -115.2129987, 36.201132899900003 ], [ -115.2129933, 36.201132899900003 ], [ -115.2129933, 36.201135599899999 ], [ -115.2129906, 36.201135599899999 ], [ -115.2129906, 36.201138299900002 ], [ -115.2129879, 36.201138299900002 ], [ -115.2129879, 36.201140999899998 ], [ -115.2129852, 36.201140999899998 ], [ -115.2129852, 36.201143699900001 ], [ -115.2129798, 36.201143699900001 ], [ -115.2129798, 36.201146399899997 ], [ -115.2129717, 36.201146399899997 ], [ -115.2129717, 36.2011490999 ] ] ] } },
{ "type": "Feature", "properties": { "value": 255.0 }, "geometry": { "type": "Polygon", "coordinates": [ [ [ -115.21359, 36.201181499900002 ], [ -115.2135522, 36.201181499900002 ], [ -115.2135522, 36.201178799899999 ], [ -115.2135063, 36.201178799899999 ], [ -115.2135063, 36.201176099900003 ], [ -115.2134577, 36.201176099900003 ], [ -115.2134577, 36.201151799899996 ], [ -115.213455, 36.201151799899996 ], [ -115.213455, 36.201140999899998 ], [ -115.2134577, 36.201140999899998 ], [ -115.2134577, 36.201127499899997 ], [ -115.2134604, 36.201127499899997 ], [ -115.2134604, 36.201113999900002 ], [ -115.2134631, 36.201113999900002 ], [ -115.2134631, 36.201108599900003 ], [ -115.2134658, 36.201108599900003 ], [ -115.2134658, 36.201103199899997 ], [ -115.2134685, 36.201103199899997 ], [ -115.2134685, 36.201100499900001 ], [ -115.2134712, 36.201100499900001 ], [ -115.2134712, 36.201097799899998 ], [ -115.2134766, 36.201097799899998 ], [ -115.2134766, 36.201095099900002 ], [ -115.213482, 36.201095099900002 ], [ -115.213482, 36.201092399899998 ], [ -115.2134901, 36.201092399899998 ], [ -115.2134901, 36.201089699900002 ], [ -115.2134955, 36.201089699900002 ], [ -115.2134955, 36.201086999899999 ], [ -115.2135036, 36.201086999899999 ], [ -115.2135036, 36.201084299899996 ], [ -115.2135198, 36.201084299899996 ], [ -115.2135198, 36.2010815999 ], [ -115.2135873, 36.2010815999 ], [ -115.2135873, 36.201084299899996 ], [ -115.2135981, 36.201084299899996 ], [ -115.2135981, 36.201086999899999 ], [ -115.2136008, 36.201086999899999 ], [ -115.2136008, 36.201167999900001 ], [ -115.2135981, 36.201167999900001 ], [ -115.2135981, 36.201176099900003 ], [ -115.2135954, 36.201176099900003 ], [ -115.2135954, 36.201178799899999 ], [ -115.21359, 36.201178799899999 ], [ -115.21359, 36.201181499900002 ] ] ] } },
{ "type": "Feature", "properties": { "value": 255.0 }, "geometry": { "type": "Polygon", "coordinates": [ [ [ -115.2133713, 36.201143699900001 ], [ -115.21332, 36.201143699900001 ], [ -115.21332, 36.201140999899998 ], [ -115.2133065, 36.201140999899998 ], [ -115.2133065, 36.201143699900001 ], [ -115.2132849, 36.201143699900001 ], [ -115.2132849, 36.201140999899998 ], [ -115.2132795, 36.201140999899998 ], [ -115.2132795, 36.201138299900002 ], [ -115.2132768, 36.201138299900002 ], [ -115.2132768, 36.201132899900003 ], [ -115.2132741, 36.201132899900003 ], [ -115.2132741, 36.201097799899998 ], [ -115.2132768, 36.201097799899998 ], [ -115.2132768, 36.201086999899999 ], [ -115.2132795, 36.201086999899999 ], [ -115.2132795, 36.2010815999 ], [ -115.2132822, 36.2010815999 ], [ -115.2132822, 36.201078899899997 ], [ -115.2132903, 36.201078899899997 ], [ -115.2132903, 36.201076199900001 ], [ -115.2132984, 36.201076199900001 ], [ -115.2132984, 36.201073499899998 ], [ -115.21332, 36.201073499899998 ], [ -115.21332, 36.201076199900001 ], [ -115.2133443, 36.201076199900001 ], [ -115.2133443, 36.201078899899997 ], [ -115.2133578, 36.201078899899997 ], [ -115.2133578, 36.2010815999 ], [ -115.2133659, 36.2010815999 ], [ -115.2133659, 36.201084299899996 ], [ -115.2133686, 36.201084299899996 ], [ -115.2133686, 36.201086999899999 ], [ -115.2133713, 36.201086999899999 ], [ -115.2133713, 36.201089699900002 ], [ -115.213374, 36.201089699900002 ], [ -115.213374, 36.201140999899998 ], [ -115.2133713, 36.201140999899998 ], [ -115.2133713, 36.201143699900001 ] ] ] } },
{ "type": "Feature", "properties": { "value": 255.0 }, "geometry": { "type": "Polygon", "coordinates": [ [ [ -115.213725, 36.201192299900001 ], [ -115.2136359, 36.201192299900001 ], [ -115.2136359, 36.201189599899998 ], [ -115.2136278, 36.201189599899998 ], [ -115.2136278, 36.201186899900001 ], [ -115.2136251, 36.201186899900001 ], [ -115.2136251, 36.201181499900002 ], [ -115.2136224, 36.201181499900002 ], [ -115.2136224, 36.201159899899999 ], [ -115.2136251, 36.201159899899999 ], [ -115.2136251, 36.201154499899999 ], [ -115.2136278, 36.201154499899999 ], [ -115.2136278, 36.201143699900001 ], [ -115.2136305, 36.201143699900001 ], [ -115.2136305, 36.201122099899997 ], [ -115.2136278, 36.201122099899997 ], [ -115.2136278, 36.201103199899997 ], [ -115.2136251, 36.201103199899997 ], [ -115.2136251, 36.201089699900002 ], [ -115.2136278, 36.201089699900002 ], [ -115.2136278, 36.201086999899999 ], [ -115.2136305, 36.201086999899999 ], [ -115.2136305, 36.201084299899996 ], [ -115.2136494, 36.201084299899996 ], [ -115.2136494, 36.201086999899999 ], [ -115.2136899, 36.201086999899999 ], [ -115.2136899, 36.201084299899996 ], [ -115.213698, 36.201084299899996 ], [ -115.213698, 36.201086999899999 ], [ -115.213725, 36.201086999899999 ], [ -115.213725, 36.201089699900002 ], [ -115.2137331, 36.201089699900002 ], [ -115.2137331, 36.201092399899998 ], [ -115.2137385, 36.201092399899998 ], [ -115.2137385, 36.201097799899998 ], [ -115.2137412, 36.201097799899998 ], [ -115.2137412, 36.201135599899999 ], [ -115.2137385, 36.201135599899999 ], [ -115.2137385, 36.201178799899999 ], [ -115.2137358, 36.201178799899999 ], [ -115.2137358, 36.201181499900002 ], [ -115.2137331, 36.201181499900002 ], [ -115.2137331, 36.201184199899998 ], [ -115.2137304, 36.201184199899998 ], [ -115.2137304, 36.201186899900001 ], [ -115.2137277, 36.201186899900001 ], [ -115.2137277, 36.201189599899998 ], [ -115.213725, 36.201189599899998 ], [ -115.213725, 36.201192299900001 ] ] ] } },
{ "type": "Feature", "properties": { "value": 255.0 }, "geometry": { "type": "Polygon", "coordinates": [ [ [ -115.2141867, 36.2010626999 ], [ -115.2141786, 36.2010626999 ], [ -115.2141786, 36.201059999899996 ], [ -115.2141759, 36.201059999899996 ], [ -115.2141759, 36.201049199899998 ], [ -115.2141786, 36.201049199899998 ], [ -115.2141786, 36.201046499900002 ], [ -115.2141867, 36.201046499900002 ], [ -115.2141867, 36.201049199899998 ], [ -115.2141948, 36.201049199899998 ], [ -115.2141948, 36.201051899900001 ], [ -115.2142056, 36.201051899900001 ], [ -115.2142056, 36.201049199899998 ], [ -115.2142137, 36.201049199899998 ], [ -115.2142137, 36.201046499900002 ], [ -115.2142218, 36.201046499900002 ], [ -115.2142218, 36.201049199899998 ], [ -115.2142191, 36.201049199899998 ], [ -115.2142191, 36.201054599899997 ], [ -115.2142164, 36.201054599899997 ], [ -115.2142164, 36.2010572999 ], [ -115.2142002, 36.2010572999 ], [ -115.2142002, 36.201059999899996 ], [ -115.2141867, 36.201059999899996 ], [ -115.2141867, 36.2010626999 ] ] ] } },
{ "type": "Feature", "properties": { "value": 255.0 }, "geometry": { "type": "Polygon", "coordinates": [ [ [ -115.212888, 36.201022199900002 ], [ -115.2128286, 36.201022199900002 ], [ -115.2128286, 36.201019499899999 ], [ -115.2128205, 36.201019499899999 ], [ -115.2128205, 36.201022199900002 ], [ -115.2128124, 36.201022199900002 ], [ -115.2128124, 36.201019499899999 ], [ -115.2128043, 36.201019499899999 ], [ -115.2128043, 36.2010140999 ], [ -115.2128016, 36.2010140999 ], [ -115.2128016, 36.200924999899996 ], [ -115.2128043, 36.200924999899996 ], [ -115.2128043, 36.2009222999 ], [ -115.212807, 36.2009222999 ], [ -115.212807, 36.200919599899997 ], [ -115.2128097, 36.200919599899997 ], [ -115.2128097, 36.200916899900001 ], [ -115.2128853, 36.200916899900001 ], [ -115.2128853, 36.200919599899997 ], [ -115.2128934, 36.200919599899997 ], [ -115.2128934, 36.2009222999 ], [ -115.2128961, 36.2009222999 ], [ -115.2128961, 36.200992499899996 ], [ -115.2128934, 36.200992499899996 ], [ -115.2128934, 36.201003299900002 ], [ -115.2128961, 36.201003299900002 ], [ -115.2128961, 36.2010140999 ], [ -115.2128934, 36.2010140999 ], [ -115.2128934, 36.201019499899999 ], [ -115.212888, 36.201019499899999 ], [ -115.212888, 36.201022199900002 ] ] ] } },
{ "type": "Feature", "properties": { "value": 255.0 }, "geometry": { "type": "Polygon", "coordinates": [ [ [ -115.2142056, 36.201035699899997 ], [ -115.2142029, 36.201035699899997 ], [ -115.2142029, 36.201032999900001 ], [ -115.214184, 36.201032999900001 ], [ -115.214184, 36.201035699899997 ], [ -115.2141759, 36.201035699899997 ], [ -115.2141759, 36.2010140999 ], [ -115.2141786, 36.2010140999 ], [ -115.2141786, 36.201008699900001 ], [ -115.2141759, 36.201008699900001 ], [ -115.2141759, 36.201003299900002 ], [ -115.2141732, 36.201003299900002 ], [ -115.2141732, 36.200997899900003 ], [ -115.2141705, 36.200997899900003 ], [ -115.2141705, 36.200995199899999 ], [ -115.2141678, 36.200995199899999 ], [ -115.2141678, 36.200987099899997 ], [ -115.2141651, 36.200987099899997 ], [ -115.2141651, 36.200962799899997 ], [ -115.2141678, 36.200962799899997 ], [ -115.2141678, 36.2009465999 ], [ -115.2141705, 36.2009465999 ], [ -115.2141705, 36.2009222999 ], [ -115.2141732, 36.2009222999 ], [ -115.2141732, 36.200852099899997 ], [ -115.2141759, 36.200852099899997 ], [ -115.2141759, 36.200843999900002 ], [ -115.2141786, 36.200843999900002 ], [ -115.2141786, 36.200841299899999 ], [ -115.2141867, 36.200841299899999 ], [ -115.2141867, 36.200838599900003 ], [ -115.2142002, 36.200838599900003 ], [ -115.2142002, 36.200841299899999 ], [ -115.2142488, 36.200841299899999 ], [ -115.2142488, 36.200843999900002 ], [ -115.2142542, 36.200843999900002 ], [ -115.2142542, 36.200846699899998 ], [ -115.2142569, 36.200846699899998 ], [ -115.2142569, 36.200852099899997 ], [ -115.2142596, 36.200852099899997 ], [ -115.2142596, 36.200868299900002 ], [ -115.2142623, 36.200868299900002 ], [ -115.2142623, 36.200924999899996 ], [ -115.2142596, 36.200924999899996 ], [ -115.2142596, 36.200973599900003 ], [ -115.2142569, 36.200973599900003 ], [ -115.2142569, 36.200997899900003 ], [ -115.2142542, 36.200997899900003 ], [ -115.2142542, 36.201000599899999 ], [ -115.2142488, 36.201000599899999 ], [ -115.2142488, 36.201003299900002 ], [ -115.2142029, 36.201003299900002 ], [ -115.2142029, 36.201005999899998 ], [ -115.2141948, 36.201005999899998 ], [ -115.2141948, 36.201008699900001 ], [ -115.2141894, 36.201008699900001 ], [ -115.2141894, 36.201011399899997 ], [ -115.2141921, 36.201011399899997 ], [ -115.2141921, 36.2010140999 ], [ -115.2142002, 36.2010140999 ], [ -115.2142002, 36.201016799899996 ], [ -115.2142083, 36.201016799899996 ], [ -115.2142083, 36.201032999900001 ], [ -115.2142056, 36.201032999900001 ], [ -115.2142056, 36.201035699899997 ] ] ] } },
{ "type": "Feature", "properties": { "value": 255.0 }, "geometry": { "type": "Polygon", "coordinates": [ [ [ -115.2144945, 36.2008979999 ], [ -115.2144459, 36.2008979999 ], [ -115.2144459, 36.200895299899997 ], [ -115.2144405, 36.200895299899997 ], [ -115.2144405, 36.2008304999 ], [ -115.2144432, 36.2008304999 ], [ -115.2144432, 36.200814299899996 ], [ -115.2144459, 36.200814299899996 ], [ -115.2144459, 36.200808899899997 ], [ -115.2144486, 36.200808899899997 ], [ -115.2144486, 36.200803499899997 ], [ -115.2144513, 36.200803499899997 ], [ -115.2144513, 36.200798099899998 ], [ -115.214454, 36.200798099899998 ], [ -115.214454, 36.200730599899998 ], [ -115.2144567, 36.200730599899998 ], [ -115.2144567, 36.200725199899999 ], [ -115.21445940000001, 36.200725199899999 ], [ -115.21445940000001, 36.2007197999 ], [ -115.2144621, 36.2007197999 ], [ -115.2144621, 36.200708999900002 ], [ -115.2144648, 36.200708999900002 ], [ -115.2144648, 36.200703599900002 ], [ -115.2144675, 36.200703599900002 ], [ -115.2144675, 36.200700899899999 ], [ -115.2144783, 36.200700899899999 ], [ -115.2144783, 36.200698199899996 ], [ -115.214481, 36.200698199899996 ], [ -115.214481, 36.200700899899999 ], [ -115.2144945, 36.200700899899999 ], [ -115.2144945, 36.200703599900002 ], [ -115.2144972, 36.200703599900002 ], [ -115.2144972, 36.200708999900002 ], [ -115.2145026, 36.200708999900002 ], [ -115.2145026, 36.200892599900001 ], [ -115.2144972, 36.200892599900001 ], [ -115.2144972, 36.200895299899997 ], [ -115.2144945, 36.200895299899997 ], [ -115.2144945, 36.2008979999 ] ] ] } },
{ "type": "Feature", "properties": { "value": 255.0 }, "geometry": { "type": "Polygon", "coordinates": [ [ [ -115.2138465, 36.200900699899996 ], [ -115.2138033, 36.200900699899996 ], [ -115.2138033, 36.2008979999 ], [ -115.2137898, 36.2008979999 ], [ -115.2137898, 36.200895299899997 ], [ -115.2137871, 36.200895299899997 ], [ -115.2137871, 36.200889899899998 ], [ -115.2137844, 36.200889899899998 ], [ -115.2137844, 36.200860199899999 ], [ -115.2137817, 36.200860199899999 ], [ -115.2137817, 36.200857499899996 ], [ -115.2137763, 36.200857499899996 ], [ -115.2137763, 36.2008547999 ], [ -115.2137547, 36.2008547999 ], [ -115.2137547, 36.200852099899997 ], [ -115.2137223, 36.200852099899997 ], [ -115.2137223, 36.2008547999 ], [ -115.2137061, 36.2008547999 ], [ -115.2137061, 36.200852099899997 ], [ -115.213698, 36.200852099899997 ], [ -115.213698, 36.200849399900001 ], [ -115.2136926, 36.200849399900001 ], [ -115.2136926, 36.200846699899998 ], [ -115.2136899, 36.200846699899998 ], [ -115.2136899, 36.200843999900002 ], [ -115.2136872, 36.200843999900002 ], [ -115.2136872, 36.200841299899999 ], [ -115.2136845, 36.200841299899999 ], [ -115.2136845, 36.200789999899996 ], [ -115.2136818, 36.200789999899996 ], [ -115.2136818, 36.200760299899997 ], [ -115.2136791, 36.200760299899997 ], [ -115.2136791, 36.200752199900002 ], [ -115.2136818, 36.200752199900002 ], [ -115.2136818, 36.200681999899999 ], [ -115.2136845, 36.200681999899999 ], [ -115.2136845, 36.2006765999 ], [ -115.2137709, 36.2006765999 ], [ -115.2137709, 36.200679299899996 ], [ -115.2137817, 36.200679299899996 ], [ -115.2137817, 36.200681999899999 ], [ -115.2137844, 36.200681999899999 ], [ -115.2137844, 36.200684699900002 ], [ -115.2137871, 36.200684699900002 ], [ -115.2137871, 36.2006954999 ], [ -115.2137925, 36.2006954999 ], [ -115.2137925, 36.200698199899996 ], [ -115.2138465, 36.200698199899996 ], [ -115.2138465, 36.200700899899999 ], [ -115.2138681, 36.200700899899999 ], [ -115.2138681, 36.200703599900002 ], [ -115.2138762, 36.200703599900002 ], [ -115.2138762, 36.200706299899998 ], [ -115.2139032, 36.200706299899998 ], [ -115.2139032, 36.200708999900002 ], [ -115.2139113, 36.200708999900002 ], [ -115.2139113, 36.200711699899998 ], [ -115.213914, 36.200711699899998 ], [ -115.213914, 36.200714399900001 ], [ -115.2139167, 36.200714399900001 ], [ -115.2139167, 36.200717099899997 ], [ -115.2139194, 36.200717099899997 ], [ -115.2139194, 36.2007197999 ], [ -115.2139221, 36.2007197999 ], [ -115.2139221, 36.200725199899999 ], [ -115.2139248, 36.200725199899999 ], [ -115.2139248, 36.200730599899998 ], [ -115.2139275, 36.200730599899998 ], [ -115.2139275, 36.200735999899997 ], [ -115.2139302, 36.200735999899997 ], [ -115.2139302, 36.2007440999 ], [ -115.2139329, 36.2007440999 ], [ -115.2139329, 36.200814299899996 ], [ -115.2139302, 36.200814299899996 ], [ -115.2139302, 36.200849399900001 ], [ -115.2139275, 36.200849399900001 ], [ -115.2139275, 36.200852099899997 ], [ -115.2138924, 36.200852099899997 ], [ -115.2138924, 36.2008547999 ], [ -115.2138762, 36.2008547999 ], [ -115.2138762, 36.200857499899996 ], [ -115.2138735, 36.200857499899996 ], [ -115.2138735, 36.200892599900001 ], [ -115.2138708, 36.200892599900001 ], [ -115.2138708, 36.200895299899997 ], [ -115.2138654, 36.200895299899997 ], [ -115.2138654, 36.2008979999 ], [ -115.2138465, 36.2008979999 ], [ -115.2138465, 36.200900699899996 ] ] ] } },
{ "type": "Feature", "properties": { "value": 255.0 }, "geometry": { "type": "Polygon", "coordinates": [ [ [ -115.2141219, 36.200833199899996 ], [ -115.2140598, 36.200833199899996 ], [ -115.2140598, 36.2008304999 ], [ -115.214049, 36.2008304999 ], [ -115.214049, 36.200792699899999 ], [ -115.2140463, 36.200792699899999 ], [ -115.2140463, 36.200784599899997 ], [ -115.2140409, 36.200784599899997 ], [ -115.2140409, 36.200781899900001 ], [ -115.2140382, 36.200781899900001 ], [ -115.2140382, 36.200779199899998 ], [ -115.2140301, 36.200779199899998 ], [ -115.2140301, 36.200776499900002 ], [ -115.2139896, 36.200776499900002 ], [ -115.2139896, 36.200773799899999 ], [ -115.2139869, 36.200773799899999 ], [ -115.2139869, 36.200771099900003 ], [ -115.2139842, 36.200771099900003 ], [ -115.2139842, 36.200733299900001 ], [ -115.2139869, 36.200733299900001 ], [ -115.2139869, 36.200730599899998 ], [ -115.2139923, 36.200730599899998 ], [ -115.2139923, 36.200727899900002 ], [ -115.2139977, 36.200727899900002 ], [ -115.2139977, 36.200725199899999 ], [ -115.2140193, 36.200725199899999 ], [ -115.2140193, 36.200722499899996 ], [ -115.2140247, 36.200722499899996 ], [ -115.2140247, 36.2007197999 ], [ -115.2140274, 36.2007197999 ], [ -115.2140274, 36.200714399900001 ], [ -115.2140301, 36.200714399900001 ], [ -115.2140301, 36.200706299899998 ], [ -115.2140328, 36.200706299899998 ], [ -115.2140328, 36.200692799899997 ], [ -115.2140355, 36.200692799899997 ], [ -115.2140355, 36.200681999899999 ], [ -115.2140382, 36.200681999899999 ], [ -115.2140382, 36.200679299899996 ], [ -115.2140436, 36.200679299899996 ], [ -115.2140436, 36.2006765999 ], [ -115.2141138, 36.2006765999 ], [ -115.2141138, 36.200679299899996 ], [ -115.2141246, 36.200679299899996 ], [ -115.2141246, 36.200681999899999 ], [ -115.21413, 36.200681999899999 ], [ -115.21413, 36.200684699900002 ], [ -115.2141435, 36.200684699900002 ], [ -115.2141435, 36.200687399899998 ], [ -115.214157, 36.200687399899998 ], [ -115.214157, 36.200690099900001 ], [ -115.2141705, 36.200690099900001 ], [ -115.2141705, 36.200692799899997 ], [ -115.2141894, 36.200692799899997 ], [ -115.2141894, 36.200690099900001 ], [ -115.2142731, 36.200690099900001 ], [ -115.2142731, 36.200692799899997 ], [ -115.2142785, 36.200692799899997 ], [ -115.2142785, 36.2006954999 ], [ -115.2142812, 36.2006954999 ], [ -115.2142812, 36.200698199899996 ], [ -115.2142839, 36.200698199899996 ], [ -115.2142839, 36.200711699899998 ], [ -115.2142812, 36.200711699899998 ], [ -115.2142812, 36.2007629999 ], [ -115.2142839, 36.2007629999 ], [ -115.2142839, 36.200792699899999 ], [ -115.2142785, 36.200792699899999 ], [ -115.2142785, 36.200795399900002 ], [ -115.2141867, 36.200795399900002 ], [ -115.2141867, 36.200792699899999 ], [ -115.2141732, 36.200792699899999 ], [ -115.2141732, 36.200795399900002 ], [ -115.2141705, 36.200795399900002 ], [ -115.2141705, 36.200803499899997 ], [ -115.2141678, 36.200803499899997 ], [ -115.2141678, 36.200827799899997 ], [ -115.2141624, 36.200827799899997 ], [ -115.2141624, 36.2008304999 ], [ -115.2141219, 36.2008304999 ], [ -115.2141219, 36.200833199899996 ] ] ] } },
{ "type": "Feature", "properties": { "value": 255.0 }, "geometry": { "type": "Polygon", "coordinates": [ [ [ -115.2135657, 36.200889899899998 ], [ -115.2135117, 36.200889899899998 ], [ -115.2135117, 36.200887199900002 ], [ -115.2134847, 36.200887199900002 ], [ -115.2134847, 36.200884499899999 ], [ -115.213482, 36.200884499899999 ], [ -115.213482, 36.200881799899996 ], [ -115.2134793, 36.200881799899996 ], [ -115.2134793, 36.200825099900001 ], [ -115.2134766, 36.200825099900001 ], [ -115.2134766, 36.200822399899998 ], [ -115.2134604, 36.200822399899998 ], [ -115.2134604, 36.200819699900002 ], [ -115.2134334, 36.200819699900002 ], [ -115.2134334, 36.200822399899998 ], [ -115.2134199, 36.200822399899998 ], [ -115.2134199, 36.200825099900001 ], [ -115.2134172, 36.200825099900001 ], [ -115.2134172, 36.200827799899997 ], [ -115.2134145, 36.200827799899997 ], [ -115.2134145, 36.2008358999 ], [ -115.2134118, 36.2008358999 ], [ -115.2134118, 36.200838599900003 ], [ -115.2133983, 36.200838599900003 ], [ -115.2133983, 36.2008358999 ], [ -115.2133929, 36.2008358999 ], [ -115.2133929, 36.200833199899996 ], [ -115.2133875, 36.200833199899996 ], [ -115.2133875, 36.2008304999 ], [ -115.2133848, 36.2008304999 ], [ -115.2133848, 36.200819699900002 ], [ -115.2133875, 36.200819699900002 ], [ -115.2133875, 36.200814299899996 ], [ -115.2133929, 36.200814299899996 ], [ -115.2133929, 36.2008115999 ], [ -115.2133983, 36.2008115999 ], [ -115.2133983, 36.200808899899997 ], [ -115.213401, 36.200808899899997 ], [ -115.213401, 36.200806199900001 ], [ -115.2134037, 36.200806199900001 ], [ -115.2134037, 36.200789999899996 ], [ -115.2134064, 36.200789999899996 ], [ -115.2134064, 36.200771099900003 ], [ -115.2134037, 36.200771099900003 ], [ -115.2134037, 36.200768399899999 ], [ -115.213401, 36.200768399899999 ], [ -115.213401, 36.200765699899996 ], [ -115.2133983, 36.200765699899996 ], [ -115.2133983, 36.2007629999 ], [ -115.2133875, 36.2007629999 ], [ -115.2133875, 36.200765699899996 ], [ -115.2133443, 36.200765699899996 ], [ -115.2133443, 36.2007629999 ], [ -115.2133389, 36.2007629999 ], [ -115.2133389, 36.200757599900001 ], [ -115.2133362, 36.200757599900001 ], [ -115.2133362, 36.200752199900002 ], [ -115.2133335, 36.200752199900002 ], [ -115.2133335, 36.200703599900002 ], [ -115.2133308, 36.200703599900002 ], [ -115.2133308, 36.200684699900002 ], [ -115.2133335, 36.200684699900002 ], [ -115.2133335, 36.200681999899999 ], [ -115.2133362, 36.200681999899999 ], [ -115.2133362, 36.200679299899996 ], [ -115.2133632, 36.200679299899996 ], [ -115.2133632, 36.2006765999 ], [ -115.2133767, 36.2006765999 ], [ -115.2133767, 36.200673899899996 ], [ -115.2134064, 36.200673899899996 ], [ -115.2134064, 36.2006765999 ], [ -115.2134361, 36.2006765999 ], [ -115.2134361, 36.200679299899996 ], [ -115.2134469, 36.200679299899996 ], [ -115.2134469, 36.200681999899999 ], [ -115.213455, 36.200681999899999 ], [ -115.213455, 36.200684699900002 ], [ -115.2134793, 36.200684699900002 ], [ -115.2134793, 36.200687399899998 ], [ -115.2135522, 36.200687399899998 ], [ -115.2135522, 36.200690099900001 ], [ -115.2135657, 36.200690099900001 ], [ -115.2135657, 36.200692799899997 ], [ -115.2135684, 36.200692799899997 ], [ -115.2135684, 36.200760299899997 ], [ -115.2135711, 36.200760299899997 ], [ -115.2135711, 36.200771099900003 ], [ -115.2135738, 36.200771099900003 ], [ -115.2135738, 36.200781899900001 ], [ -115.2135765, 36.200781899900001 ], [ -115.2135765, 36.200792699899999 ], [ -115.2135738, 36.200792699899999 ], [ -115.2135738, 36.200838599900003 ], [ -115.2135711, 36.200838599900003 ], [ -115.2135711, 36.200881799899996 ], [ -115.2135684, 36.200881799899996 ], [ -115.2135684, 36.200887199900002 ], [ -115.2135657, 36.200887199900002 ], [ -115.2135657, 36.200889899899998 ] ] ] } },
{ "type": "Feature", "properties": { "value": 255.0 }, "geometry": { "type": "Polygon", "coordinates": [ [ [ -115.2132255, 36.200773799899999 ], [ -115.2131985, 36.200773799899999 ], [ -115.2131985, 36.200771099900003 ], [ -115.2131418, 36.200771099900003 ], [ -115.2131418, 36.200768399899999 ], [ -115.2131229, 36.200768399899999 ], [ -115.2131229, 36.200771099900003 ], [ -115.2130905, 36.200771099900003 ], [ -115.2130905, 36.200768399899999 ], [ -115.2130311, 36.200768399899999 ], [ -115.2130311, 36.200765699899996 ], [ -115.2130257, 36.200765699899996 ], [ -115.2130257, 36.2007629999 ], [ -115.2130203, 36.2007629999 ], [ -115.2130203, 36.200760299899997 ], [ -115.2130095, 36.200760299899997 ], [ -115.2130095, 36.200757599900001 ], [ -115.2129609, 36.200757599900001 ], [ -115.2129609, 36.200754899899998 ], [ -115.2129582, 36.200754899899998 ], [ -115.2129582, 36.200752199900002 ], [ -115.2129555, 36.200752199900002 ], [ -115.2129555, 36.200725199899999 ], [ -115.2129582, 36.200725199899999 ], [ -115.2129582, 36.200714399900001 ], [ -115.2129609, 36.200714399900001 ], [ -115.2129609, 36.200698199899996 ], [ -115.2129636, 36.200698199899996 ], [ -115.2129636, 36.200690099900001 ], [ -115.2129663, 36.200690099900001 ], [ -115.2129663, 36.200687399899998 ], [ -115.212969, 36.200687399899998 ], [ -115.212969, 36.200684699900002 ], [ -115.2129744, 36.200684699900002 ], [ -115.2129744, 36.200681999899999 ], [ -115.2129771, 36.200681999899999 ], [ -115.2129771, 36.200679299899996 ], [ -115.2129825, 36.200679299899996 ], [ -115.2129825, 36.2006765999 ], [ -115.2129906, 36.2006765999 ], [ -115.2129906, 36.200673899899996 ], [ -115.2130014, 36.200673899899996 ], [ -115.2130014, 36.2006711999 ], [ -115.2130743, 36.2006711999 ], [ -115.2130743, 36.200673899899996 ], [ -115.2130905, 36.200673899899996 ], [ -115.2130905, 36.2006765999 ], [ -115.2131202, 36.2006765999 ], [ -115.2131202, 36.200681999899999 ], [ -115.2131418, 36.200681999899999 ], [ -115.2131418, 36.200684699900002 ], [ -115.2132201, 36.200684699900002 ], [ -115.2132201, 36.200687399899998 ], [ -115.2132309, 36.200687399899998 ], [ -115.2132309, 36.200690099900001 ], [ -115.213239, 36.200690099900001 ], [ -115.213239, 36.200692799899997 ], [ -115.2132417, 36.200692799899997 ], [ -115.2132417, 36.2006954999 ], [ -115.2132471, 36.2006954999 ], [ -115.2132471, 36.200706299899998 ], [ -115.2132444, 36.200706299899998 ], [ -115.2132444, 36.200711699899998 ], [ -115.2132417, 36.200711699899998 ], [ -115.2132417, 36.2007197999 ], [ -115.213239, 36.2007197999 ], [ -115.213239, 36.200722499899996 ], [ -115.2132363, 36.200722499899996 ], [ -115.2132363, 36.200727899900002 ], [ -115.2132336, 36.200727899900002 ], [ -115.2132336, 36.200735999899997 ], [ -115.2132309, 36.200735999899997 ], [ -115.2132309, 36.2007629999 ], [ -115.2132282, 36.2007629999 ], [ -115.2132282, 36.200771099900003 ], [ -115.2132255, 36.200771099900003 ], [ -115.2132255, 36.200773799899999 ] ] ] } },
{ "type": "Feature", "properties": { "value": 255.0 }, "geometry": { "type": "Polygon", "coordinates": [ [ [ -115.212834, 36.200800799900001 ], [ -115.2127476, 36.200800799900001 ], [ -115.2127476, 36.200684699900002 ], [ -115.2127584, 36.200684699900002 ], [ -115.2127584, 36.200681999899999 ], [ -115.2127692, 36.200681999899999 ], [ -115.2127692, 36.200679299899996 ], [ -115.2128043, 36.200679299899996 ], [ -115.2128043, 36.2006765999 ], [ -115.2128124, 36.2006765999 ], [ -115.2128124, 36.200673899899996 ], [ -115.2128367, 36.200673899899996 ], [ -115.2128367, 36.2006765999 ], [ -115.2128394, 36.2006765999 ], [ -115.2128394, 36.200681999899999 ], [ -115.2128421, 36.200681999899999 ], [ -115.2128421, 36.200703599900002 ], [ -115.2128394, 36.200703599900002 ], [ -115.2128394, 36.200757599900001 ], [ -115.2128367, 36.200757599900001 ], [ -115.2128367, 36.200798099899998 ], [ -115.212834, 36.200798099899998 ], [ -115.212834, 36.200800799900001 ] ] ] } },
{ "type": "Feature", "properties": { "value": 255.0 }, "geometry": { "type": "Polygon", "coordinates": [ [ [ -115.2144756, 36.200325599899998 ], [ -115.2144108, 36.200325599899998 ], [ -115.2144108, 36.200322899900002 ], [ -115.2143541, 36.200322899900002 ], [ -115.2143541, 36.200320199899998 ], [ -115.2143487, 36.200320199899998 ], [ -115.2143487, 36.200298599900002 ], [ -115.2143514, 36.200298599900002 ], [ -115.2143514, 36.200282399899997 ], [ -115.2143541, 36.200282399899997 ], [ -115.2143541, 36.200252699899998 ], [ -115.2144864, 36.200252699899998 ], [ -115.2144864, 36.200298599900002 ], [ -115.2144837, 36.200298599900002 ], [ -115.2144837, 36.200320199899998 ], [ -115.214481, 36.200320199899998 ], [ -115.214481, 36.200322899900002 ], [ -115.2144756, 36.200322899900002 ], [ -115.2144756, 36.200325599899998 ] ] ] } }
]
}
