{
"type": "FeatureCollection",
"crs": { "type": "name", "properties": { "name": "urn:ogc:def:crs:OGC:1.3:CRS84" } },
"features": [
{ "type": "Feature", "properties": { "value": 255.0 }, "geometry": { "type": "Polygon", "coordinates": [ [ [ -115.1641341, 36.237958199948459 ], [ -115.1641206, 36.237958199948459 ], [ -115.1641206, 36.237955499948306 ], [ -115.1641152, 36.237955499948306 ], [ -115.1641152, 36.237952799948154 ], [ -115.1641098, 36.237952799948154 ], [ -115.1641098, 36.237950099948002 ], [ -115.16410710000001, 36.237950099948002 ], [ -115.16410710000001, 36.237947399947849 ], [ -115.1641044, 36.237947399947849 ], [ -115.1641044, 36.237928499946769 ], [ -115.1641017, 36.237928499946769 ], [ -115.1641017, 36.237923099946464 ], [ -115.1640963, 36.237923099946464 ], [ -115.1640963, 36.237920399946304 ], [ -115.1640747, 36.237920399946304 ], [ -115.1640747, 36.237923099946464 ], [ -115.164072, 36.237923099946464 ], [ -115.164072, 36.237928499946769 ], [ -115.1640747, 36.237928499946769 ], [ -115.1640747, 36.237931199946921 ], [ -115.1640774, 36.237931199946921 ], [ -115.1640774, 36.237933899947073 ], [ -115.1640801, 36.237933899947073 ], [ -115.1640801, 36.237941999947537 ], [ -115.1640774, 36.237941999947537 ], [ -115.1640774, 36.237947399947849 ], [ -115.1640747, 36.237947399947849 ], [ -115.1640747, 36.237950099948002 ], [ -115.164072, 36.237950099948002 ], [ -115.164072, 36.237952799948154 ], [ -115.1640693, 36.237952799948154 ], [ -115.1640693, 36.237955499948306 ], [ -115.1640666, 36.237955499948306 ], [ -115.1640666, 36.237958199948459 ], [ -115.164045, 36.237958199948459 ], [ -115.164045, 36.237955499948306 ], [ -115.1640423, 36.237955499948306 ], [ -115.1640423, 36.237952799948154 ], [ -115.1640369, 36.237952799948154 ], [ -115.1640369, 36.237950099948002 ], [ -115.1640288, 36.237950099948002 ], [ -115.1640288, 36.23794469994769 ], [ -115.1640234, 36.23794469994769 ], [ -115.1640234, 36.237941999947537 ], [ -115.1640207, 36.237941999947537 ], [ -115.1640207, 36.237939299947385 ], [ -115.1640126, 36.237939299947385 ], [ -115.1640126, 36.237941999947537 ], [ -115.1639802, 36.237941999947537 ], [ -115.1639802, 36.237933899947073 ], [ -115.1639775, 36.237933899947073 ], [ -115.1639775, 36.237931199946921 ], [ -115.1639748, 36.237931199946921 ], [ -115.1639748, 36.237928499946769 ], [ -115.1639694, 36.237928499946769 ], [ -115.1639694, 36.237931199946921 ], [ -115.163964, 36.237931199946921 ], [ -115.163964, 36.237936599947233 ], [ -115.1639559, 36.237936599947233 ], [ -115.1639559, 36.237933899947073 ], [ -115.1639505, 36.237933899947073 ], [ -115.1639505, 36.237931199946921 ], [ -115.1639478, 36.237931199946921 ], [ -115.1639478, 36.237928499946769 ], [ -115.16394240000001, 36.237928499946769 ], [ -115.16394240000001, 36.237925799946616 ], [ -115.163937, 36.237925799946616 ], [ -115.163937, 36.237923099946464 ], [ -115.1639316, 36.237923099946464 ], [ -115.1639316, 36.237920399946304 ], [ -115.1639262, 36.237920399946304 ], [ -115.1639262, 36.237917699946152 ], [ -115.1639181, 36.237917699946152 ], [ -115.1639181, 36.237920399946304 ], [ -115.16391, 36.237920399946304 ], [ -115.16391, 36.237923099946464 ], [ -115.1639046, 36.237923099946464 ], [ -115.1639046, 36.237925799946616 ], [ -115.1638992, 36.237925799946616 ], [ -115.1638992, 36.237928499946769 ], [ -115.163893800000011, 36.237928499946769 ], [ -115.163893800000011, 36.237931199946921 ], [ -115.163883, 36.237931199946921 ], [ -115.163883, 36.237933899947073 ], [ -115.1638695, 36.237933899947073 ], [ -115.1638695, 36.237931199946921 ], [ -115.163856, 36.237931199946921 ], [ -115.163856, 36.237933899947073 ], [ -115.1638479, 36.237933899947073 ], [ -115.1638479, 36.237931199946921 ], [ -115.1638236, 36.237931199946921 ], [ -115.1638236, 36.237928499946769 ], [ -115.16380740000001, 36.237928499946769 ], [ -115.16380740000001, 36.237925799946616 ], [ -115.163802, 36.237925799946616 ], [ -115.163802, 36.237923099946464 ], [ -115.1637993, 36.237923099946464 ], [ -115.1637993, 36.237920399946304 ], [ -115.1637966, 36.237920399946304 ], [ -115.1637966, 36.237917699946152 ], [ -115.1637912, 36.237917699946152 ], [ -115.1637912, 36.237914999946 ], [ -115.163777700000011, 36.237914999946 ], [ -115.163777700000011, 36.237917699946152 ], [ -115.1637696, 36.237917699946152 ], [ -115.1637696, 36.237914999946 ], [ -115.1637669, 36.237914999946 ], [ -115.1637669, 36.237912299945847 ], [ -115.1637642, 36.237912299945847 ], [ -115.1637642, 36.237909599945695 ], [ -115.1637615, 36.237909599945695 ], [ -115.1637615, 36.237906899945536 ], [ -115.1637534, 36.237906899945536 ], [ -115.1637534, 36.237909599945695 ], [ -115.163748, 36.237909599945695 ], [ -115.163748, 36.237912299945847 ], [ -115.1637372, 36.237912299945847 ], [ -115.1637372, 36.237914999946 ], [ -115.1637318, 36.237914999946 ], [ -115.1637318, 36.237917699946152 ], [ -115.1637264, 36.237917699946152 ], [ -115.1637264, 36.237920399946304 ], [ -115.163721, 36.237920399946304 ], [ -115.163721, 36.237923099946464 ], [ -115.1637129, 36.237923099946464 ], [ -115.1637129, 36.237925799946616 ], [ -115.1637075, 36.237925799946616 ], [ -115.1637075, 36.237928499946769 ], [ -115.1637021, 36.237928499946769 ], [ -115.1637021, 36.237931199946921 ], [ -115.1636994, 36.237931199946921 ], [ -115.1636994, 36.237933899947073 ], [ -115.1636967, 36.237933899947073 ], [ -115.1636967, 36.237936599947233 ], [ -115.163694, 36.237936599947233 ], [ -115.163694, 36.237939299947385 ], [ -115.1636886, 36.237939299947385 ], [ -115.1636886, 36.237941999947537 ], [ -115.1636859, 36.237941999947537 ], [ -115.1636859, 36.23794469994769 ], [ -115.1636751, 36.23794469994769 ], [ -115.1636751, 36.237947399947849 ], [ -115.1636697, 36.237947399947849 ], [ -115.1636697, 36.237950099948002 ], [ -115.1636643, 36.237950099948002 ], [ -115.1636643, 36.237952799948154 ], [ -115.1636562, 36.237952799948154 ], [ -115.1636562, 36.237950099948002 ], [ -115.1636535, 36.237950099948002 ], [ -115.1636535, 36.237947399947849 ], [ -115.1636508, 36.237947399947849 ], [ -115.1636508, 36.23794469994769 ], [ -115.1636481, 36.23794469994769 ], [ -115.1636481, 36.237939299947385 ], [ -115.1636508, 36.237939299947385 ], [ -115.1636508, 36.237925799946616 ], [ -115.1636481, 36.237925799946616 ], [ -115.1636481, 36.237923099946464 ], [ -115.1636454, 36.237923099946464 ], [ -115.1636454, 36.237920399946304 ], [ -115.16364, 36.237920399946304 ], [ -115.16364, 36.237917699946152 ], [ -115.1636076, 36.237917699946152 ], [ -115.1636076, 36.237531599924154 ], [ -115.1636103, 36.237531599924154 ], [ -115.1636103, 36.23751269992308 ], [ -115.163613, 36.23751269992308 ], [ -115.163613, 36.237488399921695 ], [ -115.1636157, 36.237488399921695 ], [ -115.1636157, 36.237485699921542 ], [ -115.163667, 36.237485699921542 ], [ -115.163667, 36.237488399921695 ], [ -115.1636697, 36.237488399921695 ], [ -115.1636697, 36.237491099921847 ], [ -115.1636643, 36.237491099921847 ], [ -115.1636643, 36.237493799921999 ], [ -115.1636589, 36.237493799921999 ], [ -115.1636589, 36.237496499922152 ], [ -115.1636346, 36.237496499922152 ], [ -115.1636346, 36.237493799921999 ], [ -115.1636265, 36.237493799921999 ], [ -115.1636265, 36.237496499922152 ], [ -115.163623800000011, 36.237496499922152 ], [ -115.163623800000011, 36.237501899922464 ], [ -115.1636265, 36.237501899922464 ], [ -115.1636265, 36.237504599922616 ], [ -115.163642700000011, 36.237504599922616 ], [ -115.163642700000011, 36.237501899922464 ], [ -115.163661600000012, 36.237501899922464 ], [ -115.163661600000012, 36.237504599922616 ], [ -115.1636697, 36.237504599922616 ], [ -115.1636697, 36.237507299922768 ], [ -115.1636778, 36.237507299922768 ], [ -115.1636778, 36.237509999922921 ], [ -115.1636832, 36.237509999922921 ], [ -115.1636832, 36.23751269992308 ], [ -115.163694, 36.23751269992308 ], [ -115.163694, 36.237515399923232 ], [ -115.163748, 36.237515399923232 ], [ -115.163748, 36.23751269992308 ], [ -115.1637615, 36.23751269992308 ], [ -115.1637615, 36.237509999922921 ], [ -115.1637696, 36.237509999922921 ], [ -115.1637696, 36.237507299922768 ], [ -115.1637804, 36.237507299922768 ], [ -115.1637804, 36.237504599922616 ], [ -115.1637966, 36.237504599922616 ], [ -115.1637966, 36.237501899922464 ], [ -115.16380740000001, 36.237501899922464 ], [ -115.16380740000001, 36.237499199922311 ], [ -115.163826300000011, 36.237499199922311 ], [ -115.163826300000011, 36.237501899922464 ], [ -115.1638371, 36.237501899922464 ], [ -115.1638371, 36.237504599922616 ], [ -115.163845200000011, 36.237504599922616 ], [ -115.163845200000011, 36.237507299922768 ], [ -115.163856, 36.237507299922768 ], [ -115.163856, 36.237509999922921 ], [ -115.1638695, 36.237509999922921 ], [ -115.1638695, 36.23751269992308 ], [ -115.1638911, 36.23751269992308 ], [ -115.1638911, 36.237515399923232 ], [ -115.163937, 36.237515399923232 ], [ -115.163937, 36.23751269992308 ], [ -115.1639613, 36.23751269992308 ], [ -115.1639613, 36.237509999922921 ], [ -115.1639748, 36.237509999922921 ], [ -115.1639748, 36.237507299922768 ], [ -115.1639802, 36.237507299922768 ], [ -115.1639802, 36.237509999922921 ], [ -115.1639829, 36.237509999922921 ], [ -115.1639829, 36.237507299922768 ], [ -115.1640126, 36.237507299922768 ], [ -115.1640126, 36.237509999922921 ], [ -115.1640207, 36.237509999922921 ], [ -115.1640207, 36.23751269992308 ], [ -115.1640558, 36.23751269992308 ], [ -115.1640558, 36.237509999922921 ], [ -115.1640612, 36.237509999922921 ], [ -115.1640612, 36.237507299922768 ], [ -115.1640639, 36.237507299922768 ], [ -115.1640639, 36.237504599922616 ], [ -115.1640666, 36.237504599922616 ], [ -115.1640666, 36.237501899922464 ], [ -115.1640693, 36.237501899922464 ], [ -115.1640693, 36.237499199922311 ], [ -115.164072, 36.237499199922311 ], [ -115.164072, 36.237496499922152 ], [ -115.1640774, 36.237496499922152 ], [ -115.1640774, 36.237493799921999 ], [ -115.1640882, 36.237493799921999 ], [ -115.1640882, 36.237491099921847 ], [ -115.1640936, 36.237491099921847 ], [ -115.1640936, 36.237493799921999 ], [ -115.1640963, 36.237493799921999 ], [ -115.1640963, 36.237501899922464 ], [ -115.1640936, 36.237501899922464 ], [ -115.1640936, 36.237504599922616 ], [ -115.1640882, 36.237504599922616 ], [ -115.1640882, 36.237507299922768 ], [ -115.1640774, 36.237507299922768 ], [ -115.1640774, 36.23751269992308 ], [ -115.1640801, 36.23751269992308 ], [ -115.1640801, 36.237515399923232 ], [ -115.1640936, 36.237515399923232 ], [ -115.1640936, 36.23751269992308 ], [ -115.1640963, 36.23751269992308 ], [ -115.1640963, 36.237509999922921 ], [ -115.164099, 36.237509999922921 ], [ -115.164099, 36.237507299922768 ], [ -115.1641017, 36.237507299922768 ], [ -115.1641017, 36.237504599922616 ], [ -115.1641044, 36.237504599922616 ], [ -115.1641044, 36.237501899922464 ], [ -115.16410710000001, 36.237501899922464 ], [ -115.16410710000001, 36.237499199922311 ], [ -115.1641125, 36.237499199922311 ], [ -115.1641125, 36.237496499922152 ], [ -115.1641152, 36.237496499922152 ], [ -115.1641152, 36.237493799921999 ], [ -115.1641125, 36.237493799921999 ], [ -115.1641125, 36.237491099921847 ], [ -115.16410710000001, 36.237491099921847 ], [ -115.16410710000001, 36.237488399921695 ], [ -115.1641098, 36.237488399921695 ], [ -115.1641098, 36.237485699921542 ], [ -115.1641179, 36.237485699921542 ], [ -115.1641179, 36.237482999921383 ], [ -115.1641233, 36.237482999921383 ], [ -115.1641233, 36.237485699921542 ], [ -115.1641476, 36.237485699921542 ], [ -115.1641476, 36.237482999921383 ], [ -115.1641503, 36.237482999921383 ], [ -115.1641503, 36.237480299921231 ], [ -115.1640936, 36.237480299921231 ], [ -115.1640936, 36.237482999921383 ], [ -115.1640801, 36.237482999921383 ], [ -115.1640801, 36.237480299921231 ], [ -115.1636184, 36.237480299921231 ], [ -115.1636184, 36.237482999921383 ], [ -115.1636076, 36.237482999921383 ], [ -115.1636076, 36.237364199914616 ], [ -115.1636184, 36.237364199914616 ], [ -115.1636184, 36.237366899914768 ], [ -115.1636481, 36.237366899914768 ], [ -115.1636481, 36.237369599914921 ], [ -115.163667, 36.237369599914921 ], [ -115.163667, 36.237366899914768 ], [ -115.163748, 36.237366899914768 ], [ -115.163748, 36.237369599914921 ], [ -115.16380740000001, 36.237369599914921 ], [ -115.16380740000001, 36.237366899914768 ], [ -115.1638101, 36.237366899914768 ], [ -115.1638101, 36.237347999913695 ], [ -115.1638128, 36.237347999913695 ], [ -115.1638128, 36.237312899911693 ], [ -115.1638155, 36.237312899911693 ], [ -115.1638155, 36.237307499911388 ], [ -115.1638182, 36.237307499911388 ], [ -115.1638182, 36.237304799911229 ], [ -115.1638236, 36.237304799911229 ], [ -115.1638236, 36.237302099911076 ], [ -115.1638317, 36.237302099911076 ], [ -115.1638317, 36.237299399910924 ], [ -115.163883, 36.237299399910924 ], [ -115.163883, 36.237302099911076 ], [ -115.1638992, 36.237302099911076 ], [ -115.1638992, 36.237304799911229 ], [ -115.1639046, 36.237304799911229 ], [ -115.1639046, 36.237307499911388 ], [ -115.1639073, 36.237307499911388 ], [ -115.1639073, 36.237310199911541 ], [ -115.16391, 36.237310199911541 ], [ -115.16391, 36.237320999912157 ], [ -115.1639073, 36.237320999912157 ], [ -115.1639073, 36.237331799912766 ], [ -115.16391, 36.237331799912766 ], [ -115.16391, 36.237337199913078 ], [ -115.1639127, 36.237337199913078 ], [ -115.1639127, 36.237345299913542 ], [ -115.1639154, 36.237345299913542 ], [ -115.1639154, 36.237356099914152 ], [ -115.1639181, 36.237356099914152 ], [ -115.1639181, 36.237361499914464 ], [ -115.1639208, 36.237361499914464 ], [ -115.1639208, 36.237364199914616 ], [ -115.1639451, 36.237364199914616 ], [ -115.1639451, 36.237361499914464 ], [ -115.1639937, 36.237361499914464 ], [ -115.1639937, 36.237358799914311 ], [ -115.1639991, 36.237358799914311 ], [ -115.1639991, 36.237356099914152 ], [ -115.1640018, 36.237356099914152 ], [ -115.1640018, 36.237353399913999 ], [ -115.1640045, 36.237353399913999 ], [ -115.1640045, 36.237350699913847 ], [ -115.1640072, 36.237350699913847 ], [ -115.1640072, 36.237347999913695 ], [ -115.1640342, 36.237347999913695 ], [ -115.1640342, 36.237345299913542 ], [ -115.164045, 36.237345299913542 ], [ -115.164045, 36.237347999913695 ], [ -115.1640558, 36.237347999913695 ], [ -115.1640558, 36.237350699913847 ], [ -115.1640693, 36.237350699913847 ], [ -115.1640693, 36.237353399913999 ], [ -115.1640747, 36.237353399913999 ], [ -115.1640747, 36.237356099914152 ], [ -115.1640774, 36.237356099914152 ], [ -115.1640774, 36.237358799914311 ], [ -115.1640801, 36.237358799914311 ], [ -115.1640801, 36.237361499914464 ], [ -115.1641233, 36.237361499914464 ], [ -115.1641233, 36.237364199914616 ], [ -115.1641881, 36.237364199914616 ], [ -115.1641881, 36.237366899914768 ], [ -115.1643069, 36.237366899914768 ], [ -115.1643069, 36.237369599914921 ], [ -115.164315, 36.237369599914921 ], [ -115.164315, 36.23737229991508 ], [ -115.1643231, 36.23737229991508 ], [ -115.1643231, 36.237374999915232 ], [ -115.1643285, 36.237374999915232 ], [ -115.1643285, 36.237377699915385 ], [ -115.1643312, 36.237377699915385 ], [ -115.1643312, 36.237380399915537 ], [ -115.1643339, 36.237380399915537 ], [ -115.1643339, 36.237391199916154 ], [ -115.1643366, 36.237391199916154 ], [ -115.1643366, 36.237434399918619 ], [ -115.1643339, 36.237434399918619 ], [ -115.1643339, 36.237477599921078 ], [ -115.1643312, 36.237477599921078 ], [ -115.1643312, 36.237480299921231 ], [ -115.1641989, 36.237480299921231 ], [ -115.1641989, 36.237482999921383 ], [ -115.1642043, 36.237482999921383 ], [ -115.1642043, 36.237485699921542 ], [ -115.1642097, 36.237485699921542 ], [ -115.1642097, 36.237488399921695 ], [ -115.1642124, 36.237488399921695 ], [ -115.1642124, 36.237496499922152 ], [ -115.1642151, 36.237496499922152 ], [ -115.1642151, 36.237499199922311 ], [ -115.1642205, 36.237499199922311 ], [ -115.1642205, 36.237501899922464 ], [ -115.1642286, 36.237501899922464 ], [ -115.1642286, 36.237504599922616 ], [ -115.1642394, 36.237504599922616 ], [ -115.1642394, 36.237507299922768 ], [ -115.1642502, 36.237507299922768 ], [ -115.1642502, 36.237509999922921 ], [ -115.1642664, 36.237509999922921 ], [ -115.1642664, 36.23751269992308 ], [ -115.1642907, 36.23751269992308 ], [ -115.1642907, 36.237509999922921 ], [ -115.1643042, 36.237509999922921 ], [ -115.1643042, 36.237507299922768 ], [ -115.1643204, 36.237507299922768 ], [ -115.1643204, 36.237509999922921 ], [ -115.1643231, 36.237509999922921 ], [ -115.1643231, 36.237515399923232 ], [ -115.1643258, 36.237515399923232 ], [ -115.1643258, 36.237518099923385 ], [ -115.1643285, 36.237518099923385 ], [ -115.1643285, 36.237528899924001 ], [ -115.1643312, 36.237528899924001 ], [ -115.1643312, 36.237555899925539 ], [ -115.1643339, 36.237555899925539 ], [ -115.1643339, 36.237588299927388 ], [ -115.1643366, 36.237588299927388 ], [ -115.1643366, 36.237650399930921 ], [ -115.1643393, 36.237650399930921 ], [ -115.1643393, 36.237674699932306 ], [ -115.164342, 36.237674699932306 ], [ -115.164342, 36.23768279993277 ], [ -115.1643447, 36.23768279993277 ], [ -115.1643447, 36.237685499932923 ], [ -115.1643474, 36.237685499932923 ], [ -115.1643474, 36.237688199933075 ], [ -115.1643501, 36.237688199933075 ], [ -115.1643501, 36.237690899933234 ], [ -115.1643528, 36.237690899933234 ], [ -115.1643528, 36.237693599933387 ], [ -115.1643555, 36.237693599933387 ], [ -115.1643555, 36.237701699933844 ], [ -115.1643582, 36.237701699933844 ], [ -115.1643582, 36.237704399934003 ], [ -115.1643609, 36.237704399934003 ], [ -115.1643609, 36.237707099934156 ], [ -115.164369, 36.237707099934156 ], [ -115.164369, 36.237709799934308 ], [ -115.1644878, 36.237709799934308 ], [ -115.1644878, 36.23771249993446 ], [ -115.1645715, 36.23771249993446 ], [ -115.1645715, 36.237709799934308 ], [ -115.1645904, 36.237709799934308 ], [ -115.1645904, 36.237707099934156 ], [ -115.1646093, 36.237707099934156 ], [ -115.1646093, 36.237704399934003 ], [ -115.1646201, 36.237704399934003 ], [ -115.1646201, 36.237707099934156 ], [ -115.1646471, 36.237707099934156 ], [ -115.1646471, 36.237709799934308 ], [ -115.1647011, 36.237709799934308 ], [ -115.1647011, 36.23771249993446 ], [ -115.1647767, 36.23771249993446 ], [ -115.1647767, 36.237709799934308 ], [ -115.1649225, 36.237709799934308 ], [ -115.1649225, 36.237707099934156 ], [ -115.1649252, 36.237707099934156 ], [ -115.1649252, 36.237704399934003 ], [ -115.1649279, 36.237704399934003 ], [ -115.1649279, 36.237677399932458 ], [ -115.1649252, 36.237677399932458 ], [ -115.1649252, 36.237528899924001 ], [ -115.1649279, 36.237528899924001 ], [ -115.1649279, 36.237523499923689 ], [ -115.16499, 36.237523499923689 ], [ -115.16499, 36.237520799923537 ], [ -115.1650602, 36.237520799923537 ], [ -115.1650602, 36.237523499923689 ], [ -115.165287, 36.237523499923689 ], [ -115.165287, 36.237526199923849 ], [ -115.1652924, 36.237526199923849 ], [ -115.1652924, 36.237528899924001 ], [ -115.1652951, 36.237528899924001 ], [ -115.1652951, 36.237531599924154 ], [ -115.1652978, 36.237531599924154 ], [ -115.1652978, 36.237547799925075 ], [ -115.1652951, 36.237547799925075 ], [ -115.1652951, 36.237677399932458 ], [ -115.1652978, 36.237677399932458 ], [ -115.1652978, 36.237690899933234 ], [ -115.1653005, 36.237690899933234 ], [ -115.1653005, 36.237696299933539 ], [ -115.1653032, 36.237696299933539 ], [ -115.1653032, 36.237701699933844 ], [ -115.1653059, 36.237701699933844 ], [ -115.1653059, 36.237707099934156 ], [ -115.165308599999989, 36.237707099934156 ], [ -115.165308599999989, 36.237709799934308 ], [ -115.165341, 36.237709799934308 ], [ -115.165341, 36.23771249993446 ], [ -115.1653599, 36.23771249993446 ], [ -115.1653599, 36.237709799934308 ], [ -115.1653626, 36.237709799934308 ], [ -115.1653626, 36.237914999946 ], [ -115.165357199999988, 36.237914999946 ], [ -115.165357199999988, 36.237912299945847 ], [ -115.1653437, 36.237912299945847 ], [ -115.1653437, 36.237909599945695 ], [ -115.1651061, 36.237909599945695 ], [ -115.1651061, 36.237912299945847 ], [ -115.1650305, 36.237912299945847 ], [ -115.1650305, 36.237909599945695 ], [ -115.16499, 36.237909599945695 ], [ -115.16499, 36.237906899945536 ], [ -115.1649009, 36.237906899945536 ], [ -115.1649009, 36.237909599945695 ], [ -115.164882, 36.237909599945695 ], [ -115.164882, 36.237906899945536 ], [ -115.1648739, 36.237906899945536 ], [ -115.1648739, 36.237909599945695 ], [ -115.1648415, 36.237909599945695 ], [ -115.1648415, 36.237912299945847 ], [ -115.1647821, 36.237912299945847 ], [ -115.1647821, 36.237909599945695 ], [ -115.1647551, 36.237909599945695 ], [ -115.1647551, 36.237912299945847 ], [ -115.1647254, 36.237912299945847 ], [ -115.1647254, 36.237914999946 ], [ -115.1647065, 36.237914999946 ], [ -115.1647065, 36.237917699946152 ], [ -115.1646957, 36.237917699946152 ], [ -115.1646957, 36.237920399946304 ], [ -115.1646903, 36.237920399946304 ], [ -115.1646903, 36.237923099946464 ], [ -115.1646876, 36.237923099946464 ], [ -115.1646876, 36.237925799946616 ], [ -115.1646849, 36.237925799946616 ], [ -115.1646849, 36.237933899947073 ], [ -115.1646822, 36.237933899947073 ], [ -115.1646822, 36.237939299947385 ], [ -115.1646795, 36.237939299947385 ], [ -115.1646795, 36.237941999947537 ], [ -115.1646444, 36.237941999947537 ], [ -115.1646444, 36.237939299947385 ], [ -115.1646363, 36.237939299947385 ], [ -115.1646363, 36.237941999947537 ], [ -115.1646012, 36.237941999947537 ], [ -115.1646012, 36.237939299947385 ], [ -115.1645958, 36.237939299947385 ], [ -115.1645958, 36.237936599947233 ], [ -115.1645931, 36.237936599947233 ], [ -115.1645931, 36.237933899947073 ], [ -115.1645904, 36.237933899947073 ], [ -115.1645904, 36.237928499946769 ], [ -115.1645877, 36.237928499946769 ], [ -115.1645877, 36.237925799946616 ], [ -115.1645823, 36.237925799946616 ], [ -115.1645823, 36.237923099946464 ], [ -115.1645688, 36.237923099946464 ], [ -115.1645688, 36.237920399946304 ], [ -115.1645607, 36.237920399946304 ], [ -115.1645607, 36.237917699946152 ], [ -115.1645499, 36.237917699946152 ], [ -115.1645499, 36.237914999946 ], [ -115.1645337, 36.237914999946 ], [ -115.1645337, 36.237912299945847 ], [ -115.1644419, 36.237912299945847 ], [ -115.1644419, 36.237914999946 ], [ -115.1644149, 36.237914999946 ], [ -115.1644149, 36.237917699946152 ], [ -115.1643528, 36.237917699946152 ], [ -115.1643528, 36.237914999946 ], [ -115.1643096, 36.237914999946 ], [ -115.1643096, 36.237912299945847 ], [ -115.1642799, 36.237912299945847 ], [ -115.1642799, 36.237914999946 ], [ -115.1642124, 36.237914999946 ], [ -115.1642124, 36.237917699946152 ], [ -115.1641854, 36.237917699946152 ], [ -115.1641854, 36.237920399946304 ], [ -115.1641746, 36.237920399946304 ], [ -115.1641746, 36.237923099946464 ], [ -115.1641719, 36.237923099946464 ], [ -115.1641719, 36.237925799946616 ], [ -115.1641665, 36.237925799946616 ], [ -115.1641665, 36.237928499946769 ], [ -115.1641557, 36.237928499946769 ], [ -115.1641557, 36.237931199946921 ], [ -115.1641476, 36.237931199946921 ], [ -115.1641476, 36.237933899947073 ], [ -115.1641422, 36.237933899947073 ], [ -115.1641422, 36.237936599947233 ], [ -115.1641395, 36.237936599947233 ], [ -115.1641395, 36.237941999947537 ], [ -115.1641368, 36.237941999947537 ], [ -115.1641368, 36.237952799948154 ], [ -115.1641341, 36.237952799948154 ], [ -115.1641341, 36.237958199948459 ] ], [ [ -115.1637858, 36.237860999942924 ], [ -115.1637858, 36.237858299942772 ], [ -115.16378850000001, 36.237858299942772 ], [ -115.16378850000001, 36.23785289994246 ], [ -115.1637912, 36.23785289994246 ], [ -115.1637912, 36.237839399941691 ], [ -115.16378850000001, 36.237839399941691 ], [ -115.16378850000001, 36.237836699941539 ], [ -115.1637858, 36.237836699941539 ], [ -115.1637858, 36.237833999941387 ], [ -115.1637831, 36.237833999941387 ], [ -115.1637831, 36.237836699941539 ], [ -115.163777700000011, 36.237836699941539 ], [ -115.163777700000011, 36.237844799942003 ], [ -115.163775, 36.237844799942003 ], [ -115.163775, 36.237850199942308 ], [ -115.163777700000011, 36.237850199942308 ], [ -115.163777700000011, 36.237855599942613 ], [ -115.1637804, 36.237855599942613 ], [ -115.1637804, 36.237858299942772 ], [ -115.1637831, 36.237858299942772 ], [ -115.1637831, 36.237860999942924 ], [ -115.1637858, 36.237860999942924 ] ], [ [ -115.1638965, 36.237439799918924 ], [ -115.1638965, 36.237437099918772 ], [ -115.1639073, 36.237437099918772 ], [ -115.1639073, 36.237434399918619 ], [ -115.1639208, 36.237434399918619 ], [ -115.1639208, 36.23743169991846 ], [ -115.16392350000001, 36.23743169991846 ], [ -115.16392350000001, 36.237428999918308 ], [ -115.1639262, 36.237428999918308 ], [ -115.1639262, 36.237420899917844 ], [ -115.1639289, 36.237420899917844 ], [ -115.1639289, 36.237412799917387 ], [ -115.1639262, 36.237412799917387 ], [ -115.1639262, 36.237407399917075 ], [ -115.1639127, 36.237407399917075 ], [ -115.1639127, 36.237410099917234 ], [ -115.16391, 36.237410099917234 ], [ -115.16391, 36.237407399917075 ], [ -115.1639019, 36.237407399917075 ], [ -115.1639019, 36.237404699916922 ], [ -115.1638992, 36.237404699916922 ], [ -115.1638992, 36.237396599916465 ], [ -115.163893800000011, 36.237396599916465 ], [ -115.163893800000011, 36.237399299916618 ], [ -115.1638884, 36.237399299916618 ], [ -115.1638884, 36.23740199991677 ], [ -115.163883, 36.23740199991677 ], [ -115.163883, 36.237404699916922 ], [ -115.1638803, 36.237404699916922 ], [ -115.1638803, 36.237407399917075 ], [ -115.1638776, 36.237407399917075 ], [ -115.1638776, 36.23743169991846 ], [ -115.1638803, 36.23743169991846 ], [ -115.1638803, 36.237434399918619 ], [ -115.163883, 36.237434399918619 ], [ -115.163883, 36.237437099918772 ], [ -115.1638911, 36.237437099918772 ], [ -115.1638911, 36.237439799918924 ], [ -115.1638965, 36.237439799918924 ] ] ] } }
]
}
