{
"type": "FeatureCollection",
"crs": { "type": "name", "properties": { "name": "urn:ogc:def:crs:OGC:1.3:CRS84" } },
"features": [
{ "type": "Feature", "properties": { "value": 255.0 }, "geometry": { "type": "Polygon", "coordinates": [ [ [ -115.152975, 36.152603099799997 ], [ -115.1529723, 36.152603099799997 ], [ -115.1529723, 36.152600399800001 ], [ -115.1529696, 36.152600399800001 ], [ -115.1529696, 36.152597699799998 ], [ -115.15296690000001, 36.152597699799998 ], [ -115.15296690000001, 36.152592299799998 ], [ -115.1529642, 36.152592299799998 ], [ -115.1529642, 36.152549099799998 ], [ -115.15296690000001, 36.152549099799998 ], [ -115.15296690000001, 36.152546399800002 ], [ -115.1529696, 36.152546399800002 ], [ -115.1529696, 36.152543699799999 ], [ -115.1529723, 36.152543699799999 ], [ -115.1529723, 36.152540999799996 ], [ -115.152975, 36.152540999799996 ], [ -115.152975, 36.1525382998 ], [ -115.1529723, 36.1525382998 ], [ -115.1529723, 36.152532899800001 ], [ -115.1529696, 36.152532899800001 ], [ -115.1529696, 36.152530199799997 ], [ -115.15296690000001, 36.152530199799997 ], [ -115.15296690000001, 36.152524799799998 ], [ -115.1529642, 36.152524799799998 ], [ -115.1529642, 36.152508599800001 ], [ -115.15296690000001, 36.152508599800001 ], [ -115.15296690000001, 36.152505899799998 ], [ -115.152975, 36.152505899799998 ], [ -115.152975, 36.152508599800001 ], [ -115.1529777, 36.152508599800001 ], [ -115.1529777, 36.152511299799997 ], [ -115.1529804, 36.152511299799997 ], [ -115.1529804, 36.152516699799996 ], [ -115.1529831, 36.152516699799996 ], [ -115.1529831, 36.152527499800001 ], [ -115.1529804, 36.152527499800001 ], [ -115.1529804, 36.152532899800001 ], [ -115.1529777, 36.152532899800001 ], [ -115.1529777, 36.152546399800002 ], [ -115.1529804, 36.152546399800002 ], [ -115.1529804, 36.152554499799997 ], [ -115.1529831, 36.152554499799997 ], [ -115.1529831, 36.152565299799996 ], [ -115.1529858, 36.152565299799996 ], [ -115.1529858, 36.152576099800001 ], [ -115.1529831, 36.152576099800001 ], [ -115.1529831, 36.152589599799995 ], [ -115.1529804, 36.152589599799995 ], [ -115.1529804, 36.152594999800002 ], [ -115.1529777, 36.152594999800002 ], [ -115.1529777, 36.152600399800001 ], [ -115.152975, 36.152600399800001 ], [ -115.152975, 36.152603099799997 ] ] ] } },
{ "type": "Feature", "properties": { "value": 255.0 }, "geometry": { "type": "Polygon", "coordinates": [ [ [ -115.1529858, 36.152495099799999 ], [ -115.1529615, 36.152495099799999 ], [ -115.1529615, 36.1524896998 ], [ -115.1529642, 36.1524896998 ], [ -115.1529642, 36.152484299800001 ], [ -115.152975, 36.152484299800001 ], [ -115.152975, 36.152486999799997 ], [ -115.1529804, 36.152486999799997 ], [ -115.1529804, 36.1524896998 ], [ -115.1529831, 36.1524896998 ], [ -115.1529831, 36.152492399799996 ], [ -115.1529858, 36.152492399799996 ], [ -115.1529858, 36.152495099799999 ] ] ] } },
{ "type": "Feature", "properties": { "value": 255.0 }, "geometry": { "type": "Polygon", "coordinates": [ [ [ -115.152975, 36.152454599800002 ], [ -115.1529642, 36.152454599800002 ], [ -115.1529642, 36.152451899799999 ], [ -115.1529615, 36.152451899799999 ], [ -115.1529615, 36.152449199799996 ], [ -115.1529588, 36.152449199799996 ], [ -115.1529588, 36.152416799800001 ], [ -115.1529615, 36.152416799800001 ], [ -115.1529615, 36.152414099799998 ], [ -115.15296690000001, 36.152414099799998 ], [ -115.15296690000001, 36.152411399800002 ], [ -115.1529696, 36.152411399800002 ], [ -115.1529696, 36.152414099799998 ], [ -115.1529723, 36.152414099799998 ], [ -115.1529723, 36.152416799800001 ], [ -115.152975, 36.152416799800001 ], [ -115.152975, 36.152419499799997 ], [ -115.1529777, 36.152419499799997 ], [ -115.1529777, 36.152427599799999 ], [ -115.1529804, 36.152427599799999 ], [ -115.1529804, 36.152449199799996 ], [ -115.1529777, 36.152449199799996 ], [ -115.1529777, 36.152451899799999 ], [ -115.152975, 36.152451899799999 ], [ -115.152975, 36.152454599800002 ] ] ] } }
]
}
