{
"type": "FeatureCollection",
"crs": { "type": "name", "properties": { "name": "urn:ogc:def:crs:OGC:1.3:CRS84" } },
"features": [
{ "type": "Feature", "properties": { "value": 255.0 }, "geometry": { "type": "Polygon", "coordinates": [ [ [ -115.2736758, 36.151112699800002 ], [ -115.2735111, 36.151112699800002 ], [ -115.2735111, 36.151101899800004 ], [ -115.2735138, 36.151101899800004 ], [ -115.2735138, 36.151099199800001 ], [ -115.2735165, 36.151099199800001 ], [ -115.2735165, 36.151093799800002 ], [ -115.2735192, 36.151093799800002 ], [ -115.2735192, 36.151091099800006 ], [ -115.2735273, 36.151091099800006 ], [ -115.2735273, 36.151093799800002 ], [ -115.2735489, 36.151093799800002 ], [ -115.2735489, 36.151091099800006 ], [ -115.2735624, 36.151091099800006 ], [ -115.2735624, 36.151088399800003 ], [ -115.2735786, 36.151088399800003 ], [ -115.2735786, 36.151091099800006 ], [ -115.273611, 36.151091099800006 ], [ -115.273611, 36.151088399800003 ], [ -115.2736407, 36.151088399800003 ], [ -115.2736407, 36.151091099800006 ], [ -115.2736596, 36.151091099800006 ], [ -115.2736596, 36.151093799800002 ], [ -115.2736677, 36.151093799800002 ], [ -115.2736677, 36.151096499800005 ], [ -115.2736704, 36.151096499800005 ], [ -115.2736704, 36.151099199800001 ], [ -115.2736731, 36.151099199800001 ], [ -115.2736731, 36.151101899800004 ], [ -115.2736758, 36.151101899800004 ], [ -115.2736758, 36.151112699800002 ] ] ] } },
{ "type": "Feature", "properties": { "value": 255.0 }, "geometry": { "type": "Polygon", "coordinates": [ [ [ -115.2739458, 36.151112699800002 ], [ -115.2737406, 36.151112699800002 ], [ -115.2737406, 36.151109999799999 ], [ -115.2737433, 36.151109999799999 ], [ -115.2737433, 36.151107299800003 ], [ -115.273746, 36.151107299800003 ], [ -115.273746, 36.151096499800005 ], [ -115.2737433, 36.151096499800005 ], [ -115.2737433, 36.151091099800006 ], [ -115.2737406, 36.151091099800006 ], [ -115.2737406, 36.151088399800003 ], [ -115.2737379, 36.151088399800003 ], [ -115.2737379, 36.151074899800001 ], [ -115.2737406, 36.151074899800001 ], [ -115.2737406, 36.151072199800005 ], [ -115.2737433, 36.151072199800005 ], [ -115.2737433, 36.151069499800002 ], [ -115.273746, 36.151069499800002 ], [ -115.273746, 36.151066799799999 ], [ -115.2737487, 36.151066799799999 ], [ -115.2737487, 36.151064099800003 ], [ -115.2737541, 36.151064099800003 ], [ -115.2737541, 36.1510613998 ], [ -115.2737568, 36.1510613998 ], [ -115.2737568, 36.151058699800004 ], [ -115.2737676, 36.151058699800004 ], [ -115.2737676, 36.151055999800001 ], [ -115.2737946, 36.151055999800001 ], [ -115.2737946, 36.151053299800004 ], [ -115.2738, 36.151053299800004 ], [ -115.2738, 36.151055999800001 ], [ -115.2738027, 36.151055999800001 ], [ -115.2738027, 36.151069499800002 ], [ -115.2738054, 36.151069499800002 ], [ -115.2738054, 36.151101899800004 ], [ -115.2738081, 36.151101899800004 ], [ -115.2738081, 36.1511045998 ], [ -115.2738108, 36.1511045998 ], [ -115.2738108, 36.151107299800003 ], [ -115.2738162, 36.151107299800003 ], [ -115.2738162, 36.151109999799999 ], [ -115.2738216, 36.151109999799999 ], [ -115.2738216, 36.151107299800003 ], [ -115.2738243, 36.151107299800003 ], [ -115.2738243, 36.1511045998 ], [ -115.273827, 36.1511045998 ], [ -115.273827, 36.151099199800001 ], [ -115.2738297, 36.151099199800001 ], [ -115.2738297, 36.151093799800002 ], [ -115.273827, 36.151093799800002 ], [ -115.273827, 36.151074899800001 ], [ -115.2738243, 36.151074899800001 ], [ -115.2738243, 36.151055999800001 ], [ -115.273827, 36.151055999800001 ], [ -115.273827, 36.151045199800002 ], [ -115.2738297, 36.151045199800002 ], [ -115.2738297, 36.151042499799999 ], [ -115.2738351, 36.151042499799999 ], [ -115.2738351, 36.151039799800003 ], [ -115.273854, 36.151039799800003 ], [ -115.273854, 36.1510370998 ], [ -115.2738621, 36.1510370998 ], [ -115.2738621, 36.151034399800004 ], [ -115.2738675, 36.151034399800004 ], [ -115.2738675, 36.151031699800001 ], [ -115.2738756, 36.151031699800001 ], [ -115.2738756, 36.151028999800005 ], [ -115.2738837, 36.151028999800005 ], [ -115.2738837, 36.151026299800002 ], [ -115.2739161, 36.151026299800002 ], [ -115.2739161, 36.151028999800005 ], [ -115.2739215, 36.151028999800005 ], [ -115.2739215, 36.151034399800004 ], [ -115.2739242, 36.151034399800004 ], [ -115.2739242, 36.151042499799999 ], [ -115.2739269, 36.151042499799999 ], [ -115.2739269, 36.151047899800005 ], [ -115.2739296, 36.151047899800005 ], [ -115.2739296, 36.151050599800001 ], [ -115.2739323, 36.151050599800001 ], [ -115.2739323, 36.151055999800001 ], [ -115.273935, 36.151055999800001 ], [ -115.273935, 36.1510613998 ], [ -115.2739377, 36.1510613998 ], [ -115.2739377, 36.151088399800003 ], [ -115.2739404, 36.151088399800003 ], [ -115.2739404, 36.151093799800002 ], [ -115.2739431, 36.151093799800002 ], [ -115.2739431, 36.151101899800004 ], [ -115.2739458, 36.151101899800004 ], [ -115.2739458, 36.151112699800002 ] ] ] } },
{ "type": "Feature", "properties": { "value": 255.0 }, "geometry": { "type": "Polygon", "coordinates": [ [ [ -115.2735273, 36.151058699800004 ], [ -115.2735219, 36.151058699800004 ], [ -115.2735219, 36.151047899800005 ], [ -115.2735192, 36.151047899800005 ], [ -115.2735192, 36.151034399800004 ], [ -115.2735219, 36.151034399800004 ], [ -115.2735219, 36.151026299800002 ], [ -115.2735246, 36.151026299800002 ], [ -115.2735246, 36.151023599800006 ], [ -115.2735273, 36.151023599800006 ], [ -115.2735273, 36.151020899800002 ], [ -115.2735381, 36.151020899800002 ], [ -115.2735381, 36.151023599800006 ], [ -115.2735435, 36.151023599800006 ], [ -115.2735435, 36.151026299800002 ], [ -115.2735489, 36.151026299800002 ], [ -115.2735489, 36.151028999800005 ], [ -115.2735516, 36.151028999800005 ], [ -115.2735516, 36.151039799800003 ], [ -115.2735489, 36.151039799800003 ], [ -115.2735489, 36.151042499799999 ], [ -115.2735462, 36.151042499799999 ], [ -115.2735462, 36.151045199800002 ], [ -115.2735435, 36.151045199800002 ], [ -115.2735435, 36.151047899800005 ], [ -115.2735408, 36.151047899800005 ], [ -115.2735408, 36.151050599800001 ], [ -115.2735354, 36.151050599800001 ], [ -115.2735354, 36.151053299800004 ], [ -115.2735327, 36.151053299800004 ], [ -115.2735327, 36.151055999800001 ], [ -115.2735273, 36.151055999800001 ], [ -115.2735273, 36.151058699800004 ] ] ] } },
{ "type": "Feature", "properties": { "value": 255.0 }, "geometry": { "type": "Polygon", "coordinates": [ [ [ -115.2734058, 36.151112699800002 ], [ -115.2730251, 36.151112699800002 ], [ -115.2730251, 36.1510613998 ], [ -115.2730278, 36.1510613998 ], [ -115.2730278, 36.151050599800001 ], [ -115.2730251, 36.151050599800001 ], [ -115.2730251, 36.151026299800002 ], [ -115.2730278, 36.151026299800002 ], [ -115.2730278, 36.151018199799999 ], [ -115.2730332, 36.151018199799999 ], [ -115.2730332, 36.151015499800003 ], [ -115.2730791, 36.151015499800003 ], [ -115.2730791, 36.1510127998 ], [ -115.2730818, 36.1510127998 ], [ -115.2730818, 36.151015499800003 ], [ -115.2731007, 36.151015499800003 ], [ -115.2731007, 36.151018199799999 ], [ -115.2731196, 36.151018199799999 ], [ -115.2731196, 36.151020899800002 ], [ -115.2731385, 36.151020899800002 ], [ -115.2731385, 36.151023599800006 ], [ -115.2731574, 36.151023599800006 ], [ -115.2731574, 36.151020899800002 ], [ -115.2731655, 36.151020899800002 ], [ -115.2731655, 36.151023599800006 ], [ -115.2732087, 36.151023599800006 ], [ -115.2732087, 36.151020899800002 ], [ -115.2732222, 36.151020899800002 ], [ -115.2732222, 36.151018199799999 ], [ -115.273233, 36.151018199799999 ], [ -115.273233, 36.151015499800003 ], [ -115.2732519, 36.151015499800003 ], [ -115.2732519, 36.1510127998 ], [ -115.2732735, 36.1510127998 ], [ -115.2732735, 36.151010099800004 ], [ -115.2732843, 36.151010099800004 ], [ -115.2732843, 36.151007399800001 ], [ -115.2732978, 36.151007399800001 ], [ -115.2732978, 36.151004699800005 ], [ -115.2733194, 36.151004699800005 ], [ -115.2733194, 36.151001999800002 ], [ -115.2733356, 36.151001999800002 ], [ -115.2733356, 36.150999299799999 ], [ -115.2733491, 36.150999299799999 ], [ -115.2733491, 36.150996599800003 ], [ -115.2733653, 36.150996599800003 ], [ -115.2733653, 36.150999299799999 ], [ -115.2733842, 36.150999299799999 ], [ -115.2733842, 36.151004699800005 ], [ -115.2733869, 36.151004699800005 ], [ -115.2733869, 36.151007399800001 ], [ -115.2733896, 36.151007399800001 ], [ -115.2733896, 36.151015499800003 ], [ -115.2733923, 36.151015499800003 ], [ -115.2733923, 36.151020899800002 ], [ -115.273395, 36.151020899800002 ], [ -115.273395, 36.151031699800001 ], [ -115.2733977, 36.151031699800001 ], [ -115.2733977, 36.151055999800001 ], [ -115.2734004, 36.151055999800001 ], [ -115.2734004, 36.151069499800002 ], [ -115.2734031, 36.151069499800002 ], [ -115.2734031, 36.151093799800002 ], [ -115.2734058, 36.151093799800002 ], [ -115.2734058, 36.151107299800003 ], [ -115.2734031, 36.151107299800003 ], [ -115.2734031, 36.151109999799999 ], [ -115.2734058, 36.151109999799999 ], [ -115.2734058, 36.151112699800002 ] ] ] } },
{ "type": "Feature", "properties": { "value": 255.0 }, "geometry": { "type": "Polygon", "coordinates": [ [ [ -115.2724932, 36.151015499800003 ], [ -115.2724824, 36.151015499800003 ], [ -115.2724824, 36.1510127998 ], [ -115.2724176, 36.1510127998 ], [ -115.2724176, 36.150942599800004 ], [ -115.2724203, 36.150942599800004 ], [ -115.2724203, 36.150939899800001 ], [ -115.2724392, 36.150939899800001 ], [ -115.2724392, 36.150937199800005 ], [ -115.2725094, 36.150937199800005 ], [ -115.2725094, 36.150939899800001 ], [ -115.2725175, 36.150939899800001 ], [ -115.2725175, 36.150942599800004 ], [ -115.2725229, 36.150942599800004 ], [ -115.2725229, 36.1509452998 ], [ -115.2725256, 36.1509452998 ], [ -115.2725256, 36.150950699799999 ], [ -115.2725283, 36.150950699799999 ], [ -115.2725283, 36.151004699800005 ], [ -115.2725256, 36.151004699800005 ], [ -115.2725256, 36.151010099800004 ], [ -115.2725175, 36.151010099800004 ], [ -115.2725175, 36.1510127998 ], [ -115.2724932, 36.1510127998 ], [ -115.2724932, 36.151015499800003 ] ] ] } },
{ "type": "Feature", "properties": { "value": 255.0 }, "geometry": { "type": "Polygon", "coordinates": [ [ [ -115.2741726, 36.151010099800004 ], [ -115.2741672, 36.151010099800004 ], [ -115.2741672, 36.151007399800001 ], [ -115.2741618, 36.151007399800001 ], [ -115.2741618, 36.151004699800005 ], [ -115.2741537, 36.151004699800005 ], [ -115.2741537, 36.151001999800002 ], [ -115.2741159, 36.151001999800002 ], [ -115.2741159, 36.151004699800005 ], [ -115.2741105, 36.151004699800005 ], [ -115.2741105, 36.151001999800002 ], [ -115.2741051, 36.151001999800002 ], [ -115.2741051, 36.150999299799999 ], [ -115.2741024, 36.150999299799999 ], [ -115.2741024, 36.1509938998 ], [ -115.2740997, 36.1509938998 ], [ -115.2740997, 36.1509695998 ], [ -115.274097, 36.1509695998 ], [ -115.274097, 36.150961499800005 ], [ -115.2740916, 36.150961499800005 ], [ -115.2740916, 36.150958799800001 ], [ -115.2740808, 36.150958799800001 ], [ -115.2740808, 36.150961499800005 ], [ -115.2740673, 36.150961499800005 ], [ -115.2740673, 36.150958799800001 ], [ -115.2740646, 36.150958799800001 ], [ -115.2740646, 36.150950699799999 ], [ -115.2740619, 36.150950699799999 ], [ -115.2740619, 36.150942599800004 ], [ -115.2740646, 36.150942599800004 ], [ -115.2740646, 36.150931799799999 ], [ -115.2740673, 36.150931799799999 ], [ -115.2740673, 36.150926399799999 ], [ -115.2740727, 36.150926399799999 ], [ -115.2740727, 36.150923699800003 ], [ -115.2740754, 36.150923699800003 ], [ -115.2740754, 36.1509209998 ], [ -115.2740781, 36.1509209998 ], [ -115.2740781, 36.150918299800004 ], [ -115.2740808, 36.150918299800004 ], [ -115.2740808, 36.150912899800005 ], [ -115.2740835, 36.150912899800005 ], [ -115.2740835, 36.150907499799999 ], [ -115.2740754, 36.150907499799999 ], [ -115.2740754, 36.150904799800003 ], [ -115.2740673, 36.150904799800003 ], [ -115.2740673, 36.1509020998 ], [ -115.2740646, 36.1509020998 ], [ -115.2740646, 36.150899399800004 ], [ -115.2740619, 36.150899399800004 ], [ -115.2740619, 36.150893999800005 ], [ -115.2740592, 36.150893999800005 ], [ -115.2740592, 36.150869699800005 ], [ -115.2740565, 36.150869699800005 ], [ -115.2740565, 36.150848099800001 ], [ -115.2740592, 36.150848099800001 ], [ -115.2740592, 36.150839999799999 ], [ -115.2740565, 36.150839999799999 ], [ -115.2740565, 36.1508291998 ], [ -115.2740592, 36.1508291998 ], [ -115.2740592, 36.150821099800005 ], [ -115.2740619, 36.150821099800005 ], [ -115.2740619, 36.150818399800002 ], [ -115.2740646, 36.150818399800002 ], [ -115.2740646, 36.150815699799999 ], [ -115.2740835, 36.150815699799999 ], [ -115.2740835, 36.150812999800003 ], [ -115.2741726, 36.150812999800003 ], [ -115.2741726, 36.151010099800004 ] ] ] } },
{ "type": "Feature", "properties": { "value": 255.0 }, "geometry": { "type": "Polygon", "coordinates": [ [ [ -115.2724392, 36.150788699800003 ], [ -115.2724176, 36.150788699800003 ], [ -115.2724176, 36.150713099800001 ], [ -115.2724338, 36.150713099800001 ], [ -115.2724338, 36.150715799800004 ], [ -115.2724392, 36.150715799800004 ], [ -115.2724392, 36.1507184998 ], [ -115.2724446, 36.1507184998 ], [ -115.2724446, 36.150721199800003 ], [ -115.27245, 36.150721199800003 ], [ -115.27245, 36.150726599800002 ], [ -115.2724527, 36.150726599800002 ], [ -115.2724527, 36.150731999800001 ], [ -115.27245, 36.150731999800001 ], [ -115.27245, 36.150740099800004 ], [ -115.2724527, 36.150740099800004 ], [ -115.2724527, 36.150748199799999 ], [ -115.27245, 36.150748199799999 ], [ -115.27245, 36.150753599800005 ], [ -115.2724473, 36.150753599800005 ], [ -115.2724473, 36.1507616998 ], [ -115.2724446, 36.1507616998 ], [ -115.2724446, 36.150780599800001 ], [ -115.2724419, 36.150780599800001 ], [ -115.2724419, 36.1507859998 ], [ -115.2724392, 36.1507859998 ], [ -115.2724392, 36.150788699800003 ] ] ] } },
{ "type": "Feature", "properties": { "value": 255.0 }, "geometry": { "type": "Polygon", "coordinates": [ [ [ -115.2735327, 36.150572699800001 ], [ -115.2735219, 36.150572699800001 ], [ -115.2735219, 36.150569999799998 ], [ -115.2735138, 36.150569999799998 ], [ -115.2735138, 36.150567299800002 ], [ -115.2735084, 36.150567299800002 ], [ -115.2735084, 36.150561899800003 ], [ -115.2735057, 36.150561899800003 ], [ -115.2735057, 36.150556499800004 ], [ -115.273503, 36.150556499800004 ], [ -115.273503, 36.150551099800005 ], [ -115.2734976, 36.150551099800005 ], [ -115.2734976, 36.150548399800002 ], [ -115.2734949, 36.150548399800002 ], [ -115.2734949, 36.150545699799999 ], [ -115.2734922, 36.150545699799999 ], [ -115.2734922, 36.150542999800003 ], [ -115.2734895, 36.150542999800003 ], [ -115.2734895, 36.150537599800003 ], [ -115.2734868, 36.150537599800003 ], [ -115.2734868, 36.150507899800004 ], [ -115.2734895, 36.150507899800004 ], [ -115.2734895, 36.150505199800001 ], [ -115.2734922, 36.150505199800001 ], [ -115.2734922, 36.150502499799998 ], [ -115.2734976, 36.150502499799998 ], [ -115.2734976, 36.150499799800002 ], [ -115.27353, 36.150499799800002 ], [ -115.27353, 36.150502499799998 ], [ -115.2735381, 36.150502499799998 ], [ -115.2735381, 36.150505199800001 ], [ -115.2735435, 36.150505199800001 ], [ -115.2735435, 36.150507899800004 ], [ -115.2735489, 36.150507899800004 ], [ -115.2735489, 36.150513299800004 ], [ -115.2735516, 36.150513299800004 ], [ -115.2735516, 36.1505159998 ], [ -115.2735543, 36.1505159998 ], [ -115.2735543, 36.150521399799999 ], [ -115.273557, 36.150521399799999 ], [ -115.273557, 36.150524099800002 ], [ -115.2735597, 36.150524099800002 ], [ -115.2735597, 36.150526799799998 ], [ -115.2735624, 36.150526799799998 ], [ -115.2735624, 36.150529499800001 ], [ -115.2735651, 36.150529499800001 ], [ -115.2735651, 36.150537599800003 ], [ -115.2735678, 36.150537599800003 ], [ -115.2735678, 36.150545699799999 ], [ -115.2735651, 36.150545699799999 ], [ -115.2735651, 36.150553799800001 ], [ -115.2735624, 36.150553799800001 ], [ -115.2735624, 36.150556499800004 ], [ -115.2735597, 36.150556499800004 ], [ -115.2735597, 36.1505591998 ], [ -115.273557, 36.1505591998 ], [ -115.273557, 36.150561899800003 ], [ -115.2735543, 36.150561899800003 ], [ -115.2735543, 36.150564599799999 ], [ -115.2735516, 36.150564599799999 ], [ -115.2735516, 36.150567299800002 ], [ -115.2735462, 36.150567299800002 ], [ -115.2735462, 36.150569999799998 ], [ -115.2735327, 36.150569999799998 ], [ -115.2735327, 36.150572699800001 ] ] ] } },
{ "type": "Feature", "properties": { "value": 255.0 }, "geometry": { "type": "Polygon", "coordinates": [ [ [ -115.2741726, 36.1506266998 ], [ -115.2741348, 36.1506266998 ], [ -115.2741348, 36.150623999800004 ], [ -115.2741321, 36.150623999800004 ], [ -115.2741321, 36.150621299800001 ], [ -115.2741294, 36.150621299800001 ], [ -115.2741294, 36.1506023998 ], [ -115.2741321, 36.1506023998 ], [ -115.2741321, 36.150599699800004 ], [ -115.2741348, 36.150599699800004 ], [ -115.2741348, 36.150596999800001 ], [ -115.2741375, 36.150596999800001 ], [ -115.2741375, 36.150594299799998 ], [ -115.2741402, 36.150594299799998 ], [ -115.2741402, 36.150591599800002 ], [ -115.2741429, 36.150591599800002 ], [ -115.2741429, 36.150588899799999 ], [ -115.2741456, 36.150588899799999 ], [ -115.2741456, 36.150580799800004 ], [ -115.2741429, 36.150580799800004 ], [ -115.2741429, 36.150578099800001 ], [ -115.2741375, 36.150578099800001 ], [ -115.2741375, 36.150575399800005 ], [ -115.274124, 36.150575399800005 ], [ -115.274124, 36.150572699800001 ], [ -115.2741132, 36.150572699800001 ], [ -115.2741132, 36.150575399800005 ], [ -115.2740808, 36.150575399800005 ], [ -115.2740808, 36.150578099800001 ], [ -115.2740781, 36.150578099800001 ], [ -115.2740781, 36.150575399800005 ], [ -115.27407, 36.150575399800005 ], [ -115.27407, 36.150578099800001 ], [ -115.2740646, 36.150578099800001 ], [ -115.2740646, 36.150575399800005 ], [ -115.2740133, 36.150575399800005 ], [ -115.2740133, 36.150567299800002 ], [ -115.2740106, 36.150567299800002 ], [ -115.2740106, 36.150526799799998 ], [ -115.2740079, 36.150526799799998 ], [ -115.2740079, 36.150518699800003 ], [ -115.2740106, 36.150518699800003 ], [ -115.2740106, 36.150505199800001 ], [ -115.2740079, 36.150505199800001 ], [ -115.2740079, 36.150470099800003 ], [ -115.2740106, 36.150470099800003 ], [ -115.2740106, 36.1504673998 ], [ -115.2740133, 36.1504673998 ], [ -115.2740133, 36.150464699800004 ], [ -115.2740187, 36.150464699800004 ], [ -115.2740187, 36.150461999800001 ], [ -115.2740511, 36.150461999800001 ], [ -115.2740511, 36.150459299799998 ], [ -115.2740538, 36.150459299799998 ], [ -115.2740538, 36.150421499800004 ], [ -115.2740565, 36.150421499800004 ], [ -115.2740565, 36.150418799800001 ], [ -115.2740619, 36.150418799800001 ], [ -115.2740619, 36.150416099800005 ], [ -115.2740808, 36.150416099800005 ], [ -115.2740808, 36.150413399800001 ], [ -115.2741024, 36.150413399800001 ], [ -115.2741024, 36.150410699799998 ], [ -115.274124, 36.150410699799998 ], [ -115.274124, 36.150407999800002 ], [ -115.2741321, 36.150407999800002 ], [ -115.2741321, 36.150410699799998 ], [ -115.2741591, 36.150410699799998 ], [ -115.2741591, 36.150407999800002 ], [ -115.2741645, 36.150407999800002 ], [ -115.2741645, 36.150410699799998 ], [ -115.2741726, 36.150410699799998 ], [ -115.2741726, 36.1506266998 ] ] ] } },
{ "type": "Feature", "properties": { "value": 255.0 }, "geometry": { "type": "Polygon", "coordinates": [ [ [ -115.2725148, 36.150453899799999 ], [ -115.272423, 36.150453899799999 ], [ -115.272423, 36.150451199800003 ], [ -115.2724176, 36.150451199800003 ], [ -115.2724176, 36.1503566998 ], [ -115.2724203, 36.1503566998 ], [ -115.2724203, 36.150353999800004 ], [ -115.2724365, 36.150353999800004 ], [ -115.2724365, 36.1503566998 ], [ -115.2724716, 36.1503566998 ], [ -115.2724716, 36.150359399800003 ], [ -115.2725121, 36.150359399800003 ], [ -115.2725121, 36.1503566998 ], [ -115.2725202, 36.1503566998 ], [ -115.2725202, 36.150359399800003 ], [ -115.2725283, 36.150359399800003 ], [ -115.2725283, 36.150364799800002 ], [ -115.272531, 36.150364799800002 ], [ -115.272531, 36.150389099800002 ], [ -115.2725283, 36.150389099800002 ], [ -115.2725283, 36.150394499800001 ], [ -115.2725256, 36.150394499800001 ], [ -115.2725256, 36.150397199800004 ], [ -115.2725229, 36.150397199800004 ], [ -115.2725229, 36.150410699799998 ], [ -115.2725202, 36.150410699799998 ], [ -115.2725202, 36.1504484998 ], [ -115.2725175, 36.1504484998 ], [ -115.2725175, 36.150451199800003 ], [ -115.2725148, 36.150451199800003 ], [ -115.2725148, 36.150453899799999 ] ] ] } },
{ "type": "Feature", "properties": { "value": 255.0 }, "geometry": { "type": "Polygon", "coordinates": [ [ [ -115.272531, 36.150218999800003 ], [ -115.2724905, 36.150218999800003 ], [ -115.2724905, 36.1502162998 ], [ -115.2724743, 36.1502162998 ], [ -115.2724743, 36.150213599800004 ], [ -115.2724689, 36.150213599800004 ], [ -115.2724689, 36.150210899800001 ], [ -115.2724635, 36.150210899800001 ], [ -115.2724635, 36.150208199799998 ], [ -115.2724257, 36.150208199799998 ], [ -115.2724257, 36.150205499800002 ], [ -115.272423, 36.150205499800002 ], [ -115.272423, 36.150202799799999 ], [ -115.2724176, 36.150202799799999 ], [ -115.2724176, 36.150113699800002 ], [ -115.2724203, 36.150113699800002 ], [ -115.2724203, 36.150102899800004 ], [ -115.272423, 36.150102899800004 ], [ -115.272423, 36.150100199800001 ], [ -115.2724257, 36.150100199800001 ], [ -115.2724257, 36.150097499799998 ], [ -115.2724284, 36.150097499799998 ], [ -115.2724284, 36.150094799800002 ], [ -115.2725202, 36.150094799800002 ], [ -115.2725202, 36.150097499799998 ], [ -115.2725229, 36.150097499799998 ], [ -115.2725229, 36.150100199800001 ], [ -115.2725256, 36.150100199800001 ], [ -115.2725256, 36.150143399800001 ], [ -115.2725283, 36.150143399800001 ], [ -115.2725283, 36.150156899800002 ], [ -115.272531, 36.150156899800002 ], [ -115.272531, 36.150167699800001 ], [ -115.2725337, 36.150167699800001 ], [ -115.2725337, 36.1502162998 ], [ -115.272531, 36.1502162998 ], [ -115.272531, 36.150218999800003 ] ] ] } },
{ "type": "Feature", "properties": { "value": 255.0 }, "geometry": { "type": "Polygon", "coordinates": [ [ [ -115.2739458, 36.150073199799998 ], [ -115.273908, 36.150073199799998 ], [ -115.273908, 36.150070499800002 ], [ -115.2739053, 36.150070499800002 ], [ -115.2739053, 36.150040799800003 ], [ -115.2739026, 36.150040799800003 ], [ -115.2739026, 36.150032699800001 ], [ -115.2738999, 36.150032699800001 ], [ -115.2738999, 36.150016499800003 ], [ -115.2738972, 36.150016499800003 ], [ -115.2738972, 36.149992199800003 ], [ -115.2738945, 36.149992199800003 ], [ -115.2738945, 36.149954399800002 ], [ -115.2738972, 36.149954399800002 ], [ -115.2738972, 36.149948999800003 ], [ -115.2738999, 36.149948999800003 ], [ -115.2738999, 36.1499462998 ], [ -115.2739566, 36.1499462998 ], [ -115.2739566, 36.149948999800003 ], [ -115.273962, 36.149948999800003 ], [ -115.273962, 36.149954399800002 ], [ -115.2739647, 36.149954399800002 ], [ -115.2739647, 36.149957099799998 ], [ -115.2739674, 36.149957099799998 ], [ -115.2739674, 36.149959799800001 ], [ -115.2739701, 36.149959799800001 ], [ -115.2739701, 36.149962499799997 ], [ -115.2739755, 36.149962499799997 ], [ -115.2739755, 36.1499651998 ], [ -115.2739782, 36.1499651998 ], [ -115.2739782, 36.1499705998 ], [ -115.2739809, 36.1499705998 ], [ -115.2739809, 36.150011099800004 ], [ -115.2739836, 36.150011099800004 ], [ -115.2739836, 36.1500380998 ], [ -115.2739809, 36.1500380998 ], [ -115.2739809, 36.150067799799999 ], [ -115.2739782, 36.150067799799999 ], [ -115.2739782, 36.150070499800002 ], [ -115.2739458, 36.150070499800002 ], [ -115.2739458, 36.150073199799998 ] ] ] } },
{ "type": "Feature", "properties": { "value": 255.0 }, "geometry": { "type": "Polygon", "coordinates": [ [ [ -115.2741051, 36.150302699800001 ], [ -115.2740322, 36.150302699800001 ], [ -115.2740322, 36.150299999799998 ], [ -115.2740295, 36.150299999799998 ], [ -115.2740295, 36.150291899800003 ], [ -115.2740268, 36.150291899800003 ], [ -115.2740268, 36.150256799799998 ], [ -115.2740295, 36.150256799799998 ], [ -115.2740295, 36.150243299800003 ], [ -115.2740322, 36.150243299800003 ], [ -115.2740322, 36.150232499799998 ], [ -115.2740349, 36.150232499799998 ], [ -115.2740349, 36.150229799800002 ], [ -115.2740376, 36.150229799800002 ], [ -115.2740376, 36.150227099799999 ], [ -115.2740403, 36.150227099799999 ], [ -115.2740403, 36.150224399800003 ], [ -115.274043, 36.150224399800003 ], [ -115.274043, 36.1502162998 ], [ -115.2740403, 36.1502162998 ], [ -115.2740403, 36.150210899800001 ], [ -115.2740376, 36.150210899800001 ], [ -115.2740376, 36.150208199799998 ], [ -115.2740349, 36.150208199799998 ], [ -115.2740349, 36.150205499800002 ], [ -115.2740295, 36.150205499800002 ], [ -115.2740295, 36.150202799799999 ], [ -115.2740268, 36.150202799799999 ], [ -115.2740268, 36.150200099800003 ], [ -115.2740241, 36.150200099800003 ], [ -115.2740241, 36.150191999800001 ], [ -115.2740214, 36.150191999800001 ], [ -115.2740214, 36.1501730998 ], [ -115.2740187, 36.1501730998 ], [ -115.2740187, 36.150156899800002 ], [ -115.274016, 36.150156899800002 ], [ -115.274016, 36.1501244998 ], [ -115.2740187, 36.1501244998 ], [ -115.2740187, 36.150113699800002 ], [ -115.2740214, 36.150113699800002 ], [ -115.2740214, 36.150108299800003 ], [ -115.2740241, 36.150108299800003 ], [ -115.2740241, 36.150075899800001 ], [ -115.2740214, 36.150075899800001 ], [ -115.2740214, 36.150065099800003 ], [ -115.2740187, 36.150065099800003 ], [ -115.2740187, 36.150059699800003 ], [ -115.274016, 36.150059699800003 ], [ -115.274016, 36.1500569998 ], [ -115.2740133, 36.1500569998 ], [ -115.2740133, 36.150032699800001 ], [ -115.274016, 36.150032699800001 ], [ -115.274016, 36.150024599799998 ], [ -115.2740187, 36.150024599799998 ], [ -115.2740187, 36.150011099800004 ], [ -115.2740214, 36.150011099800004 ], [ -115.2740214, 36.149992199800003 ], [ -115.2740187, 36.149992199800003 ], [ -115.2740187, 36.149973299800003 ], [ -115.2740214, 36.149973299800003 ], [ -115.2740214, 36.1499705998 ], [ -115.2740241, 36.1499705998 ], [ -115.2740241, 36.149967899800004 ], [ -115.2740268, 36.149967899800004 ], [ -115.2740268, 36.1499651998 ], [ -115.2740295, 36.1499651998 ], [ -115.2740295, 36.149962499799997 ], [ -115.2740322, 36.149962499799997 ], [ -115.2740322, 36.149954399800002 ], [ -115.2740349, 36.149954399800002 ], [ -115.2740349, 36.149938199799998 ], [ -115.2740376, 36.149938199799998 ], [ -115.2740376, 36.149935499800002 ], [ -115.2740403, 36.149935499800002 ], [ -115.2740403, 36.149932799799998 ], [ -115.274043, 36.149932799799998 ], [ -115.274043, 36.149930099800002 ], [ -115.2740538, 36.149930099800002 ], [ -115.2740538, 36.149932799799998 ], [ -115.2740646, 36.149932799799998 ], [ -115.2740646, 36.149935499800002 ], [ -115.2740808, 36.149935499800002 ], [ -115.2740808, 36.149938199799998 ], [ -115.2740997, 36.149938199799998 ], [ -115.2740997, 36.149940899800001 ], [ -115.2741078, 36.149940899800001 ], [ -115.2741078, 36.149943599800004 ], [ -115.2741132, 36.149943599800004 ], [ -115.2741132, 36.1499462998 ], [ -115.2741159, 36.1499462998 ], [ -115.2741159, 36.149948999800003 ], [ -115.2741186, 36.149948999800003 ], [ -115.2741186, 36.149951699799999 ], [ -115.274124, 36.149951699799999 ], [ -115.274124, 36.149954399800002 ], [ -115.2741267, 36.149954399800002 ], [ -115.2741267, 36.149957099799998 ], [ -115.2741402, 36.149957099799998 ], [ -115.2741402, 36.149954399800002 ], [ -115.2741537, 36.149954399800002 ], [ -115.2741537, 36.149951699799999 ], [ -115.2741645, 36.149951699799999 ], [ -115.2741645, 36.149954399800002 ], [ -115.2741672, 36.149954399800002 ], [ -115.2741672, 36.149957099799998 ], [ -115.2741726, 36.149957099799998 ], [ -115.2741726, 36.150040799800003 ], [ -115.2741672, 36.150040799800003 ], [ -115.2741672, 36.150043499799999 ], [ -115.2741645, 36.150043499799999 ], [ -115.2741645, 36.150048899799998 ], [ -115.2741618, 36.150048899799998 ], [ -115.2741618, 36.150062399799999 ], [ -115.2741591, 36.150062399799999 ], [ -115.2741591, 36.150067799799999 ], [ -115.2741564, 36.150067799799999 ], [ -115.2741564, 36.150073199799998 ], [ -115.2741591, 36.150073199799998 ], [ -115.2741591, 36.150075899800001 ], [ -115.2741618, 36.150075899800001 ], [ -115.2741618, 36.150078599800004 ], [ -115.2741726, 36.150078599800004 ], [ -115.2741726, 36.150291899800003 ], [ -115.2741672, 36.150291899800003 ], [ -115.2741672, 36.150294599799999 ], [ -115.274151, 36.150294599799999 ], [ -115.274151, 36.150297299800002 ], [ -115.2741375, 36.150297299800002 ], [ -115.2741375, 36.150299999799998 ], [ -115.2741051, 36.150299999799998 ], [ -115.2741051, 36.150302699800001 ] ] ] } },
{ "type": "Feature", "properties": { "value": 255.0 }, "geometry": { "type": "Polygon", "coordinates": [ [ [ -115.27245, 36.150035399800004 ], [ -115.2724473, 36.150035399800004 ], [ -115.2724473, 36.150032699800001 ], [ -115.2724176, 36.150032699800001 ], [ -115.2724176, 36.149924699800003 ], [ -115.27245, 36.149924699800003 ], [ -115.27245, 36.149927399799999 ], [ -115.2724554, 36.149927399799999 ], [ -115.2724554, 36.149938199799998 ], [ -115.2724581, 36.149938199799998 ], [ -115.2724581, 36.149940899800001 ], [ -115.2724554, 36.149940899800001 ], [ -115.2724554, 36.150002999800002 ], [ -115.2724581, 36.150002999800002 ], [ -115.2724581, 36.150029999799997 ], [ -115.2724554, 36.150029999799997 ], [ -115.2724554, 36.150032699800001 ], [ -115.27245, 36.150032699800001 ], [ -115.27245, 36.150035399800004 ] ] ] } },
{ "type": "Feature", "properties": { "value": 255.0 }, "geometry": { "type": "Polygon", "coordinates": [ [ [ -115.2736812, 36.149876099800004 ], [ -115.2736731, 36.149876099800004 ], [ -115.2736731, 36.149873399800001 ], [ -115.2736677, 36.149873399800001 ], [ -115.2736677, 36.149870699799997 ], [ -115.273665, 36.149870699799997 ], [ -115.273665, 36.149865299799998 ], [ -115.2736677, 36.149865299799998 ], [ -115.2736677, 36.149862599800002 ], [ -115.2736704, 36.149862599800002 ], [ -115.2736704, 36.149859899799999 ], [ -115.2736758, 36.149859899799999 ], [ -115.2736758, 36.149857199800003 ], [ -115.2736812, 36.149857199800003 ], [ -115.2736812, 36.1498544998 ], [ -115.2736839, 36.1498544998 ], [ -115.2736839, 36.149857199800003 ], [ -115.2736866, 36.149857199800003 ], [ -115.2736866, 36.149862599800002 ], [ -115.2736893, 36.149862599800002 ], [ -115.2736893, 36.149865299799998 ], [ -115.2736866, 36.149865299799998 ], [ -115.2736866, 36.149870699799997 ], [ -115.2736839, 36.149870699799997 ], [ -115.2736839, 36.149873399800001 ], [ -115.2736812, 36.149873399800001 ], [ -115.2736812, 36.149876099800004 ] ] ] } },
{ "type": "Feature", "properties": { "value": 255.0 }, "geometry": { "type": "Polygon", "coordinates": [ [ [ -115.2736056, 36.150024599799998 ], [ -115.2735354, 36.150024599799998 ], [ -115.2735354, 36.150021899800002 ], [ -115.2735327, 36.150021899800002 ], [ -115.2735327, 36.150016499800003 ], [ -115.27353, 36.150016499800003 ], [ -115.27353, 36.149994899799999 ], [ -115.2735273, 36.149994899799999 ], [ -115.2735273, 36.1499894998 ], [ -115.2735246, 36.1499894998 ], [ -115.2735246, 36.149986799799997 ], [ -115.2735192, 36.149986799799997 ], [ -115.2735192, 36.149984099800001 ], [ -115.2735084, 36.149984099800001 ], [ -115.2735084, 36.149981399799998 ], [ -115.2734949, 36.149981399799998 ], [ -115.2734949, 36.149984099800001 ], [ -115.273476, 36.149984099800001 ], [ -115.273476, 36.149986799799997 ], [ -115.2734706, 36.149986799799997 ], [ -115.2734706, 36.1499894998 ], [ -115.2734679, 36.1499894998 ], [ -115.2734679, 36.149992199800003 ], [ -115.2734652, 36.149992199800003 ], [ -115.2734652, 36.150000299799999 ], [ -115.2734625, 36.150000299799999 ], [ -115.2734625, 36.150005699799998 ], [ -115.2734598, 36.150005699799998 ], [ -115.2734598, 36.150008399800001 ], [ -115.2734571, 36.150008399800001 ], [ -115.2734571, 36.150011099800004 ], [ -115.2734517, 36.150011099800004 ], [ -115.2734517, 36.1500137998 ], [ -115.2734463, 36.1500137998 ], [ -115.2734463, 36.150011099800004 ], [ -115.2734328, 36.150011099800004 ], [ -115.2734328, 36.150008399800001 ], [ -115.2734139, 36.150008399800001 ], [ -115.2734139, 36.150005699799998 ], [ -115.2734085, 36.150005699799998 ], [ -115.2734085, 36.150002999800002 ], [ -115.2734058, 36.150002999800002 ], [ -115.2734058, 36.149994899799999 ], [ -115.2734031, 36.149994899799999 ], [ -115.2734031, 36.149984099800001 ], [ -115.2734058, 36.149984099800001 ], [ -115.2734058, 36.149978699800002 ], [ -115.2734085, 36.149978699800002 ], [ -115.2734085, 36.149962499799997 ], [ -115.2734058, 36.149962499799997 ], [ -115.2734058, 36.149957099799998 ], [ -115.2734085, 36.149957099799998 ], [ -115.2734085, 36.149938199799998 ], [ -115.2734058, 36.149938199799998 ], [ -115.2734058, 36.149894999799997 ], [ -115.2734085, 36.149894999799997 ], [ -115.2734085, 36.1498787998 ], [ -115.2734112, 36.1498787998 ], [ -115.2734112, 36.149867999800001 ], [ -115.2734139, 36.149867999800001 ], [ -115.2734139, 36.149857199800003 ], [ -115.2734166, 36.149857199800003 ], [ -115.2734166, 36.1498112998 ], [ -115.2734193, 36.1498112998 ], [ -115.2734193, 36.149808599800004 ], [ -115.273422, 36.149808599800004 ], [ -115.273422, 36.1498058998 ], [ -115.2734274, 36.1498058998 ], [ -115.2734274, 36.149803199799997 ], [ -115.2734409, 36.149803199799997 ], [ -115.2734409, 36.1498058998 ], [ -115.2734868, 36.1498058998 ], [ -115.2734868, 36.149808599800004 ], [ -115.2734976, 36.149808599800004 ], [ -115.2734976, 36.149813999800003 ], [ -115.2735003, 36.149813999800003 ], [ -115.2735003, 36.149832899800003 ], [ -115.273503, 36.149832899800003 ], [ -115.273503, 36.149840999799999 ], [ -115.2735003, 36.149840999799999 ], [ -115.2735003, 36.149865299799998 ], [ -115.273503, 36.149865299799998 ], [ -115.273503, 36.149867999800001 ], [ -115.2735084, 36.149867999800001 ], [ -115.2735084, 36.149865299799998 ], [ -115.2735111, 36.149865299799998 ], [ -115.2735111, 36.149862599800002 ], [ -115.2735138, 36.149862599800002 ], [ -115.2735138, 36.149857199800003 ], [ -115.2735165, 36.149857199800003 ], [ -115.2735165, 36.1498544998 ], [ -115.2735192, 36.1498544998 ], [ -115.2735192, 36.149851799799997 ], [ -115.2735219, 36.149851799799997 ], [ -115.2735219, 36.149835599799999 ], [ -115.2735246, 36.149835599799999 ], [ -115.2735246, 36.149832899800003 ], [ -115.2735273, 36.149832899800003 ], [ -115.2735273, 36.1498301998 ], [ -115.2735408, 36.1498301998 ], [ -115.2735408, 36.149827499799997 ], [ -115.2735705, 36.149827499799997 ], [ -115.2735705, 36.1498301998 ], [ -115.2735894, 36.1498301998 ], [ -115.2735894, 36.149832899800003 ], [ -115.2735975, 36.149832899800003 ], [ -115.2735975, 36.149835599799999 ], [ -115.2736083, 36.149835599799999 ], [ -115.2736083, 36.149838299800003 ], [ -115.2736272, 36.149838299800003 ], [ -115.2736272, 36.149840999799999 ], [ -115.2736245, 36.149840999799999 ], [ -115.2736245, 36.149843699800002 ], [ -115.2736191, 36.149843699800002 ], [ -115.2736191, 36.149849099800001 ], [ -115.2736164, 36.149849099800001 ], [ -115.2736164, 36.149862599800002 ], [ -115.2736191, 36.149862599800002 ], [ -115.2736191, 36.149865299799998 ], [ -115.2736245, 36.149865299799998 ], [ -115.2736245, 36.149862599800002 ], [ -115.2736299, 36.149862599800002 ], [ -115.2736299, 36.149859899799999 ], [ -115.273638, 36.149859899799999 ], [ -115.273638, 36.149862599800002 ], [ -115.2736434, 36.149862599800002 ], [ -115.2736434, 36.149865299799998 ], [ -115.2736542, 36.149865299799998 ], [ -115.2736542, 36.149867999800001 ], [ -115.2736623, 36.149867999800001 ], [ -115.2736623, 36.149870699799997 ], [ -115.2736596, 36.149870699799997 ], [ -115.2736596, 36.149873399800001 ], [ -115.2736542, 36.149873399800001 ], [ -115.2736542, 36.149876099800004 ], [ -115.2736461, 36.149876099800004 ], [ -115.2736461, 36.1498787998 ], [ -115.2736434, 36.1498787998 ], [ -115.2736434, 36.149881499800003 ], [ -115.273638, 36.149881499800003 ], [ -115.273638, 36.149884199799999 ], [ -115.2736353, 36.149884199799999 ], [ -115.2736353, 36.149889599799998 ], [ -115.273638, 36.149889599799998 ], [ -115.273638, 36.149892299800001 ], [ -115.2736731, 36.149892299800001 ], [ -115.2736731, 36.149889599799998 ], [ -115.2736866, 36.149889599799998 ], [ -115.2736866, 36.149886899800002 ], [ -115.2736893, 36.149886899800002 ], [ -115.2736893, 36.149884199799999 ], [ -115.273692, 36.149884199799999 ], [ -115.273692, 36.1498787998 ], [ -115.2736974, 36.1498787998 ], [ -115.2736974, 36.149876099800004 ], [ -115.2737028, 36.149876099800004 ], [ -115.2737028, 36.149873399800001 ], [ -115.2737163, 36.149873399800001 ], [ -115.2737163, 36.149870699799997 ], [ -115.2737298, 36.149870699799997 ], [ -115.2737298, 36.149867999800001 ], [ -115.2737676, 36.149867999800001 ], [ -115.2737676, 36.149870699799997 ], [ -115.273773, 36.149870699799997 ], [ -115.273773, 36.149873399800001 ], [ -115.2737757, 36.149873399800001 ], [ -115.2737757, 36.149876099800004 ], [ -115.2737784, 36.149876099800004 ], [ -115.2737784, 36.149884199799999 ], [ -115.2737811, 36.149884199799999 ], [ -115.2737811, 36.149903099799999 ], [ -115.2737784, 36.149903099799999 ], [ -115.2737784, 36.149916599800001 ], [ -115.2737811, 36.149916599800001 ], [ -115.2737811, 36.149919299799997 ], [ -115.2737838, 36.149919299799997 ], [ -115.2737838, 36.1499219998 ], [ -115.2738, 36.1499219998 ], [ -115.2738, 36.149919299799997 ], [ -115.2738081, 36.149919299799997 ], [ -115.2738081, 36.1499219998 ], [ -115.2738216, 36.1499219998 ], [ -115.2738216, 36.149924699800003 ], [ -115.2738243, 36.149924699800003 ], [ -115.2738243, 36.149927399799999 ], [ -115.273827, 36.149927399799999 ], [ -115.273827, 36.149932799799998 ], [ -115.2738297, 36.149932799799998 ], [ -115.2738297, 36.149940899800001 ], [ -115.273827, 36.149940899800001 ], [ -115.273827, 36.149951699799999 ], [ -115.2738243, 36.149951699799999 ], [ -115.2738243, 36.149962499799997 ], [ -115.273827, 36.149962499799997 ], [ -115.273827, 36.149973299800003 ], [ -115.2738243, 36.149973299800003 ], [ -115.2738243, 36.149975999799999 ], [ -115.2738216, 36.149975999799999 ], [ -115.2738216, 36.149981399799998 ], [ -115.2738189, 36.149981399799998 ], [ -115.2738189, 36.149984099800001 ], [ -115.2738162, 36.149984099800001 ], [ -115.2738162, 36.149986799799997 ], [ -115.2738081, 36.149986799799997 ], [ -115.2738081, 36.1499894998 ], [ -115.2738, 36.1499894998 ], [ -115.2738, 36.149992199800003 ], [ -115.2737676, 36.149992199800003 ], [ -115.2737676, 36.149994899799999 ], [ -115.2737406, 36.149994899799999 ], [ -115.2737406, 36.149997599800002 ], [ -115.2737352, 36.149997599800002 ], [ -115.2737352, 36.150000299799999 ], [ -115.2737325, 36.150000299799999 ], [ -115.2737325, 36.150005699799998 ], [ -115.2737298, 36.150005699799998 ], [ -115.2737298, 36.150011099800004 ], [ -115.2737271, 36.150011099800004 ], [ -115.2737271, 36.1500137998 ], [ -115.2737244, 36.1500137998 ], [ -115.2737244, 36.150016499800003 ], [ -115.2737163, 36.150016499800003 ], [ -115.2737163, 36.150019199799999 ], [ -115.2736947, 36.150019199799999 ], [ -115.2736947, 36.150016499800003 ], [ -115.2736893, 36.150016499800003 ], [ -115.2736893, 36.1500137998 ], [ -115.2736839, 36.1500137998 ], [ -115.2736839, 36.150011099800004 ], [ -115.2736812, 36.150011099800004 ], [ -115.2736812, 36.150008399800001 ], [ -115.2736785, 36.150008399800001 ], [ -115.2736785, 36.150005699799998 ], [ -115.2736731, 36.150005699799998 ], [ -115.2736731, 36.150002999800002 ], [ -115.2736704, 36.150002999800002 ], [ -115.2736704, 36.150005699799998 ], [ -115.2736677, 36.150005699799998 ], [ -115.2736677, 36.150008399800001 ], [ -115.273665, 36.150008399800001 ], [ -115.273665, 36.1500137998 ], [ -115.2736623, 36.1500137998 ], [ -115.2736623, 36.150016499800003 ], [ -115.2736542, 36.150016499800003 ], [ -115.2736542, 36.150019199799999 ], [ -115.2736353, 36.150019199799999 ], [ -115.2736353, 36.150021899800002 ], [ -115.2736056, 36.150021899800002 ], [ -115.2736056, 36.150024599799998 ] ] ] } },
{ "type": "Feature", "properties": { "value": 255.0 }, "geometry": { "type": "Polygon", "coordinates": [ [ [ -115.2731412, 36.150002999800002 ], [ -115.2731223, 36.150002999800002 ], [ -115.2731223, 36.150000299799999 ], [ -115.2731061, 36.150000299799999 ], [ -115.2731061, 36.150002999800002 ], [ -115.2731007, 36.150002999800002 ], [ -115.2731007, 36.150000299799999 ], [ -115.2730926, 36.150000299799999 ], [ -115.2730926, 36.149975999799999 ], [ -115.2730953, 36.149975999799999 ], [ -115.2730953, 36.1499651998 ], [ -115.2730926, 36.1499651998 ], [ -115.2730926, 36.149962499799997 ], [ -115.2730872, 36.149962499799997 ], [ -115.2730872, 36.149959799800001 ], [ -115.2730818, 36.149959799800001 ], [ -115.2730818, 36.149957099799998 ], [ -115.2730791, 36.149957099799998 ], [ -115.2730791, 36.149954399800002 ], [ -115.2730764, 36.149954399800002 ], [ -115.2730764, 36.1499462998 ], [ -115.2730737, 36.1499462998 ], [ -115.2730737, 36.149943599800004 ], [ -115.273071, 36.149943599800004 ], [ -115.273071, 36.149940899800001 ], [ -115.2730656, 36.149940899800001 ], [ -115.2730656, 36.149938199799998 ], [ -115.2730575, 36.149938199799998 ], [ -115.2730575, 36.149940899800001 ], [ -115.2730548, 36.149940899800001 ], [ -115.2730548, 36.149943599800004 ], [ -115.2730521, 36.149943599800004 ], [ -115.2730521, 36.149959799800001 ], [ -115.2730494, 36.149959799800001 ], [ -115.2730494, 36.1499705998 ], [ -115.2730467, 36.1499705998 ], [ -115.2730467, 36.149973299800003 ], [ -115.273044, 36.149973299800003 ], [ -115.273044, 36.149975999799999 ], [ -115.2730116, 36.149975999799999 ], [ -115.2730116, 36.149973299800003 ], [ -115.2729927, 36.149973299800003 ], [ -115.2729927, 36.1499705998 ], [ -115.2729441, 36.1499705998 ], [ -115.2729441, 36.1499651998 ], [ -115.2729414, 36.1499651998 ], [ -115.2729414, 36.1499462998 ], [ -115.2729387, 36.1499462998 ], [ -115.2729387, 36.149924699800003 ], [ -115.272936, 36.149924699800003 ], [ -115.272936, 36.1499219998 ], [ -115.2729333, 36.1499219998 ], [ -115.2729333, 36.149919299799997 ], [ -115.2729306, 36.149919299799997 ], [ -115.2729306, 36.149916599800001 ], [ -115.2729279, 36.149916599800001 ], [ -115.2729279, 36.149905799800003 ], [ -115.2729252, 36.149905799800003 ], [ -115.2729252, 36.149870699799997 ], [ -115.2729279, 36.149870699799997 ], [ -115.2729279, 36.149857199800003 ], [ -115.2729306, 36.149857199800003 ], [ -115.2729306, 36.149851799799997 ], [ -115.2729333, 36.149851799799997 ], [ -115.2729333, 36.149846399799998 ], [ -115.272936, 36.149846399799998 ], [ -115.272936, 36.149843699800002 ], [ -115.2729387, 36.149843699800002 ], [ -115.2729387, 36.149838299800003 ], [ -115.2729414, 36.149838299800003 ], [ -115.2729414, 36.149832899800003 ], [ -115.2729441, 36.149832899800003 ], [ -115.2729441, 36.149824799800001 ], [ -115.2729468, 36.149824799800001 ], [ -115.2729468, 36.149813999800003 ], [ -115.2729495, 36.149813999800003 ], [ -115.2729495, 36.149808599800004 ], [ -115.2729522, 36.149808599800004 ], [ -115.2729522, 36.149803199799997 ], [ -115.2729576, 36.149803199799997 ], [ -115.2729576, 36.149800499800001 ], [ -115.2729657, 36.149800499800001 ], [ -115.2729657, 36.149797799799998 ], [ -115.2729684, 36.149797799799998 ], [ -115.2729684, 36.149795099800002 ], [ -115.2729711, 36.149795099800002 ], [ -115.2729711, 36.1497869998 ], [ -115.2729684, 36.1497869998 ], [ -115.2729684, 36.149781599800001 ], [ -115.2729657, 36.149781599800001 ], [ -115.2729657, 36.149773499799998 ], [ -115.2729765, 36.149773499799998 ], [ -115.2729765, 36.149770799800002 ], [ -115.2729819, 36.149770799800002 ], [ -115.2729819, 36.149773499799998 ], [ -115.2729954, 36.149773499799998 ], [ -115.2729954, 36.149770799800002 ], [ -115.2730062, 36.149770799800002 ], [ -115.2730062, 36.149768099799999 ], [ -115.2730251, 36.149768099799999 ], [ -115.2730251, 36.149765399800003 ], [ -115.2730413, 36.149765399800003 ], [ -115.2730413, 36.1497626998 ], [ -115.2730575, 36.1497626998 ], [ -115.2730575, 36.149765399800003 ], [ -115.2730629, 36.149765399800003 ], [ -115.2730629, 36.149776199800002 ], [ -115.2730656, 36.149776199800002 ], [ -115.2730656, 36.149781599800001 ], [ -115.2730683, 36.149781599800001 ], [ -115.2730683, 36.149792399799999 ], [ -115.273071, 36.149792399799999 ], [ -115.273071, 36.149795099800002 ], [ -115.2730737, 36.149795099800002 ], [ -115.2730737, 36.149797799799998 ], [ -115.2730791, 36.149797799799998 ], [ -115.2730791, 36.149800499800001 ], [ -115.2730818, 36.149800499800001 ], [ -115.2730818, 36.149803199799997 ], [ -115.2730845, 36.149803199799997 ], [ -115.2730845, 36.1498058998 ], [ -115.2730872, 36.1498058998 ], [ -115.2730872, 36.149808599800004 ], [ -115.2730899, 36.149808599800004 ], [ -115.2730899, 36.149819399800002 ], [ -115.2730926, 36.149819399800002 ], [ -115.2730926, 36.149822099799998 ], [ -115.2730953, 36.149822099799998 ], [ -115.2730953, 36.149824799800001 ], [ -115.2731061, 36.149824799800001 ], [ -115.2731061, 36.149827499799997 ], [ -115.2731412, 36.149827499799997 ], [ -115.2731412, 36.1498301998 ], [ -115.2731466, 36.1498301998 ], [ -115.2731466, 36.149832899800003 ], [ -115.273152, 36.149832899800003 ], [ -115.273152, 36.149835599799999 ], [ -115.2731601, 36.149835599799999 ], [ -115.2731601, 36.149838299800003 ], [ -115.2731709, 36.149838299800003 ], [ -115.2731709, 36.149840999799999 ], [ -115.2731925, 36.149840999799999 ], [ -115.2731925, 36.149838299800003 ], [ -115.2731952, 36.149838299800003 ], [ -115.2731952, 36.149835599799999 ], [ -115.2731979, 36.149835599799999 ], [ -115.2731979, 36.149816699799999 ], [ -115.2732006, 36.149816699799999 ], [ -115.2732006, 36.149789699800003 ], [ -115.2732033, 36.149789699800003 ], [ -115.2732033, 36.1497869998 ], [ -115.2732168, 36.1497869998 ], [ -115.2732168, 36.149784299799997 ], [ -115.2732276, 36.149784299799997 ], [ -115.2732276, 36.149781599800001 ], [ -115.273233, 36.149781599800001 ], [ -115.273233, 36.149778899799998 ], [ -115.2732357, 36.149778899799998 ], [ -115.2732357, 36.149773499799998 ], [ -115.2732384, 36.149773499799998 ], [ -115.2732384, 36.149770799800002 ], [ -115.2732681, 36.149770799800002 ], [ -115.2732681, 36.149768099799999 ], [ -115.2732762, 36.149768099799999 ], [ -115.2732762, 36.149770799800002 ], [ -115.2732816, 36.149770799800002 ], [ -115.2732816, 36.149773499799998 ], [ -115.2732843, 36.149773499799998 ], [ -115.2732843, 36.149776199800002 ], [ -115.273287, 36.149776199800002 ], [ -115.273287, 36.149781599800001 ], [ -115.2732897, 36.149781599800001 ], [ -115.2732897, 36.149784299799997 ], [ -115.2732924, 36.149784299799997 ], [ -115.2732924, 36.149789699800003 ], [ -115.2732951, 36.149789699800003 ], [ -115.2732951, 36.149795099800002 ], [ -115.2732978, 36.149795099800002 ], [ -115.2732978, 36.149797799799998 ], [ -115.2733005, 36.149797799799998 ], [ -115.2733005, 36.149803199799997 ], [ -115.2733032, 36.149803199799997 ], [ -115.2733032, 36.149813999800003 ], [ -115.2733059, 36.149813999800003 ], [ -115.2733059, 36.149822099799998 ], [ -115.2733086, 36.149822099799998 ], [ -115.2733086, 36.149849099800001 ], [ -115.2733113, 36.149849099800001 ], [ -115.2733113, 36.149911199800002 ], [ -115.2733086, 36.149911199800002 ], [ -115.2733086, 36.149916599800001 ], [ -115.2733059, 36.149916599800001 ], [ -115.2733059, 36.1499219998 ], [ -115.2733032, 36.1499219998 ], [ -115.2733032, 36.149967899800004 ], [ -115.2733005, 36.149967899800004 ], [ -115.2733005, 36.1499705998 ], [ -115.2732762, 36.1499705998 ], [ -115.2732762, 36.149973299800003 ], [ -115.2732681, 36.149973299800003 ], [ -115.2732681, 36.149975999799999 ], [ -115.2732303, 36.149975999799999 ], [ -115.2732303, 36.149973299800003 ], [ -115.2732195, 36.149973299800003 ], [ -115.2732195, 36.1499705998 ], [ -115.2732033, 36.1499705998 ], [ -115.2732033, 36.149967899800004 ], [ -115.2732006, 36.149967899800004 ], [ -115.2732006, 36.1499651998 ], [ -115.2731952, 36.1499651998 ], [ -115.2731952, 36.149962499799997 ], [ -115.2731844, 36.149962499799997 ], [ -115.2731844, 36.149959799800001 ], [ -115.2731763, 36.149959799800001 ], [ -115.2731763, 36.149957099799998 ], [ -115.2731709, 36.149957099799998 ], [ -115.2731709, 36.149951699799999 ], [ -115.2731628, 36.149951699799999 ], [ -115.2731628, 36.149954399800002 ], [ -115.2731601, 36.149954399800002 ], [ -115.2731601, 36.149957099799998 ], [ -115.2731547, 36.149957099799998 ], [ -115.2731547, 36.149959799800001 ], [ -115.2731439, 36.149959799800001 ], [ -115.2731439, 36.149962499799997 ], [ -115.2731412, 36.149962499799997 ], [ -115.2731412, 36.150002999800002 ] ] ] } },
{ "type": "Feature", "properties": { "value": 255.0 }, "geometry": { "type": "Polygon", "coordinates": [ [ [ -115.272612, 36.149803199799997 ], [ -115.2726066, 36.149803199799997 ], [ -115.2726066, 36.149800499800001 ], [ -115.2725904, 36.149800499800001 ], [ -115.2725904, 36.149792399799999 ], [ -115.2725877, 36.149792399799999 ], [ -115.2725877, 36.149776199800002 ], [ -115.2725904, 36.149776199800002 ], [ -115.2725904, 36.149765399800003 ], [ -115.2725931, 36.149765399800003 ], [ -115.2725931, 36.1497626998 ], [ -115.2726039, 36.1497626998 ], [ -115.2726039, 36.149765399800003 ], [ -115.272612, 36.149765399800003 ], [ -115.272612, 36.149768099799999 ], [ -115.2726147, 36.149768099799999 ], [ -115.2726147, 36.149800499800001 ], [ -115.272612, 36.149800499800001 ], [ -115.272612, 36.149803199799997 ] ] ] } },
{ "type": "Feature", "properties": { "value": 255.0 }, "geometry": { "type": "Polygon", "coordinates": [ [ [ -115.2724203, 36.149797799799998 ], [ -115.2724176, 36.149797799799998 ], [ -115.2724176, 36.149687099799998 ], [ -115.2724419, 36.149687099799998 ], [ -115.2724419, 36.149689799800001 ], [ -115.27245, 36.149689799800001 ], [ -115.27245, 36.149692499799997 ], [ -115.2724554, 36.149692499799997 ], [ -115.2724554, 36.1496951998 ], [ -115.2724581, 36.1496951998 ], [ -115.2724581, 36.149697899800003 ], [ -115.2724608, 36.149697899800003 ], [ -115.2724608, 36.1497869998 ], [ -115.2724581, 36.1497869998 ], [ -115.2724581, 36.149795099800002 ], [ -115.2724203, 36.149795099800002 ], [ -115.2724203, 36.149797799799998 ] ] ] } },
{ "type": "Feature", "properties": { "value": 255.0 }, "geometry": { "type": "Polygon", "coordinates": [ [ [ -115.2741726, 36.149778899799998 ], [ -115.2741699, 36.149778899799998 ], [ -115.2741699, 36.149776199800002 ], [ -115.2741645, 36.149776199800002 ], [ -115.2741645, 36.149778899799998 ], [ -115.2741159, 36.149778899799998 ], [ -115.2741159, 36.149776199800002 ], [ -115.2740268, 36.149776199800002 ], [ -115.2740268, 36.149778899799998 ], [ -115.2740106, 36.149778899799998 ], [ -115.2740106, 36.149776199800002 ], [ -115.2740052, 36.149776199800002 ], [ -115.2740052, 36.149773499799998 ], [ -115.2740025, 36.149773499799998 ], [ -115.2740025, 36.149765399800003 ], [ -115.2739998, 36.149765399800003 ], [ -115.2739998, 36.149730299799998 ], [ -115.2739971, 36.149730299799998 ], [ -115.2739971, 36.149697899800003 ], [ -115.2739944, 36.149697899800003 ], [ -115.2739944, 36.1496951998 ], [ -115.2739971, 36.1496951998 ], [ -115.2739971, 36.149689799800001 ], [ -115.2740052, 36.149689799800001 ], [ -115.2740052, 36.149687099799998 ], [ -115.2740241, 36.149687099799998 ], [ -115.2740241, 36.149689799800001 ], [ -115.2740457, 36.149689799800001 ], [ -115.2740457, 36.149692499799997 ], [ -115.27407, 36.149692499799997 ], [ -115.27407, 36.149689799800001 ], [ -115.2741726, 36.149689799800001 ], [ -115.2741726, 36.149778899799998 ] ] ] } },
{ "type": "Feature", "properties": { "value": 255.0 }, "geometry": { "type": "Polygon", "coordinates": [ [ [ -115.2734868, 36.1497869998 ], [ -115.2734247, 36.1497869998 ], [ -115.2734247, 36.149784299799997 ], [ -115.2734193, 36.149784299799997 ], [ -115.2734193, 36.149778899799998 ], [ -115.2734166, 36.149778899799998 ], [ -115.2734166, 36.149741099800003 ], [ -115.2734139, 36.149741099800003 ], [ -115.2734139, 36.149730299799998 ], [ -115.2734112, 36.149730299799998 ], [ -115.2734112, 36.1497194998 ], [ -115.2734085, 36.1497194998 ], [ -115.2734085, 36.149711399799997 ], [ -115.2734058, 36.149711399799997 ], [ -115.2734058, 36.149684399800002 ], [ -115.2734085, 36.149684399800002 ], [ -115.2734085, 36.149681699799999 ], [ -115.2734112, 36.149681699799999 ], [ -115.2734112, 36.149678999800003 ], [ -115.2734247, 36.149678999800003 ], [ -115.2734247, 36.149681699799999 ], [ -115.2734463, 36.149681699799999 ], [ -115.2734463, 36.149684399800002 ], [ -115.2735138, 36.149684399800002 ], [ -115.2735138, 36.149681699799999 ], [ -115.2735867, 36.149681699799999 ], [ -115.2735867, 36.149684399800002 ], [ -115.2735921, 36.149684399800002 ], [ -115.2735921, 36.149689799800001 ], [ -115.2735948, 36.149689799800001 ], [ -115.2735948, 36.149714099800001 ], [ -115.2735975, 36.149714099800001 ], [ -115.2735975, 36.149730299799998 ], [ -115.2735948, 36.149730299799998 ], [ -115.2735948, 36.149741099800003 ], [ -115.2735921, 36.149741099800003 ], [ -115.2735921, 36.1497437998 ], [ -115.2735867, 36.1497437998 ], [ -115.2735867, 36.149746499800003 ], [ -115.2735786, 36.149746499800003 ], [ -115.2735786, 36.149749199799999 ], [ -115.2735732, 36.149749199799999 ], [ -115.2735732, 36.149751899800002 ], [ -115.2735705, 36.149751899800002 ], [ -115.2735705, 36.149754599799998 ], [ -115.2735651, 36.149754599799998 ], [ -115.2735651, 36.149757299800001 ], [ -115.2735624, 36.149757299800001 ], [ -115.2735624, 36.149759999799997 ], [ -115.2735597, 36.149759999799997 ], [ -115.2735597, 36.149773499799998 ], [ -115.273557, 36.149773499799998 ], [ -115.273557, 36.149778899799998 ], [ -115.2735543, 36.149778899799998 ], [ -115.2735543, 36.149781599800001 ], [ -115.2735516, 36.149781599800001 ], [ -115.2735516, 36.149784299799997 ], [ -115.2734868, 36.149784299799997 ], [ -115.2734868, 36.1497869998 ] ] ] } },
{ "type": "Feature", "properties": { "value": 255.0 }, "geometry": { "type": "Polygon", "coordinates": [ [ [ -115.273017, 36.149462999800001 ], [ -115.2730035, 36.149462999800001 ], [ -115.2730035, 36.149460299799998 ], [ -115.2729981, 36.149460299799998 ], [ -115.2729981, 36.149457599800002 ], [ -115.2729927, 36.149457599800002 ], [ -115.2729927, 36.149454899799998 ], [ -115.2729873, 36.149454899799998 ], [ -115.2729873, 36.149452199800002 ], [ -115.2729603, 36.149452199800002 ], [ -115.2729603, 36.149449499799999 ], [ -115.2729198, 36.149449499799999 ], [ -115.2729198, 36.149446799799996 ], [ -115.2728982, 36.149446799799996 ], [ -115.2728982, 36.1494440998 ], [ -115.2728739, 36.1494440998 ], [ -115.2728739, 36.149441399799997 ], [ -115.2728685, 36.149441399799997 ], [ -115.2728685, 36.149438699800001 ], [ -115.2728658, 36.149438699800001 ], [ -115.2728658, 36.149433299800002 ], [ -115.2728631, 36.149433299800002 ], [ -115.2728631, 36.149403599800003 ], [ -115.2728577, 36.149403599800003 ], [ -115.2728577, 36.149398199799997 ], [ -115.272855, 36.149398199799997 ], [ -115.272855, 36.149395499800001 ], [ -115.2728523, 36.149395499800001 ], [ -115.2728523, 36.149373899799997 ], [ -115.272855, 36.149373899799997 ], [ -115.272855, 36.149357699799999 ], [ -115.2730521, 36.149357699799999 ], [ -115.2730521, 36.149403599800003 ], [ -115.2730737, 36.149403599800003 ], [ -115.2730737, 36.149406299799999 ], [ -115.2730764, 36.149406299799999 ], [ -115.2730764, 36.149408999800002 ], [ -115.2730791, 36.149408999800002 ], [ -115.2730791, 36.149454899799998 ], [ -115.2730764, 36.149454899799998 ], [ -115.2730764, 36.149457599800002 ], [ -115.2730737, 36.149457599800002 ], [ -115.2730737, 36.149460299799998 ], [ -115.273017, 36.149460299799998 ], [ -115.273017, 36.149462999800001 ] ] ] } },
{ "type": "Feature", "properties": { "value": 255.0 }, "geometry": { "type": "Polygon", "coordinates": [ [ [ -115.2741726, 36.149414399800001 ], [ -115.2741699, 36.149414399800001 ], [ -115.2741699, 36.149411699799998 ], [ -115.2741645, 36.149411699799998 ], [ -115.2741645, 36.149408999800002 ], [ -115.2741591, 36.149408999800002 ], [ -115.2741591, 36.149406299799999 ], [ -115.2741483, 36.149406299799999 ], [ -115.2741483, 36.149408999800002 ], [ -115.2741213, 36.149408999800002 ], [ -115.2741213, 36.149411699799998 ], [ -115.2740214, 36.149411699799998 ], [ -115.2740214, 36.149408999800002 ], [ -115.2739755, 36.149408999800002 ], [ -115.2739755, 36.149406299799999 ], [ -115.2739674, 36.149406299799999 ], [ -115.2739674, 36.149403599800003 ], [ -115.2739647, 36.149403599800003 ], [ -115.2739647, 36.1494008998 ], [ -115.273962, 36.1494008998 ], [ -115.273962, 36.149395499800001 ], [ -115.2739593, 36.149395499800001 ], [ -115.2739593, 36.149365799800002 ], [ -115.2739566, 36.149365799800002 ], [ -115.2739566, 36.149357699799999 ], [ -115.2741726, 36.149357699799999 ], [ -115.2741726, 36.149414399800001 ] ] ] } },
{ "type": "Feature", "properties": { "value": 255.0 }, "geometry": { "type": "Polygon", "coordinates": [ [ [ -115.2737703, 36.149446799799996 ], [ -115.2737568, 36.149446799799996 ], [ -115.2737568, 36.1494440998 ], [ -115.2737433, 36.1494440998 ], [ -115.2737433, 36.149441399799997 ], [ -115.273692, 36.149441399799997 ], [ -115.273692, 36.149438699800001 ], [ -115.2736893, 36.149438699800001 ], [ -115.2736893, 36.149435999799998 ], [ -115.2736866, 36.149435999799998 ], [ -115.2736866, 36.1494251998 ], [ -115.2736839, 36.1494251998 ], [ -115.2736839, 36.149414399800001 ], [ -115.2736866, 36.149414399800001 ], [ -115.2736866, 36.149398199799997 ], [ -115.2736893, 36.149398199799997 ], [ -115.2736893, 36.149379299799996 ], [ -115.2736866, 36.149379299799996 ], [ -115.2736866, 36.1493765998 ], [ -115.2736731, 36.1493765998 ], [ -115.2736731, 36.149373899799997 ], [ -115.2736704, 36.149373899799997 ], [ -115.2736704, 36.1493765998 ], [ -115.2735786, 36.1493765998 ], [ -115.2735786, 36.149379299799996 ], [ -115.2735759, 36.149379299799996 ], [ -115.2735759, 36.149381999799999 ], [ -115.2735705, 36.149381999799999 ], [ -115.2735705, 36.149411699799998 ], [ -115.2735678, 36.149411699799998 ], [ -115.2735678, 36.149422499799996 ], [ -115.2735651, 36.149422499799996 ], [ -115.2735651, 36.1494251998 ], [ -115.2735624, 36.1494251998 ], [ -115.2735624, 36.149427899800003 ], [ -115.2735597, 36.149427899800003 ], [ -115.2735597, 36.1494251998 ], [ -115.2734544, 36.1494251998 ], [ -115.2734544, 36.149422499799996 ], [ -115.273449, 36.149422499799996 ], [ -115.273449, 36.1494197998 ], [ -115.2734463, 36.1494197998 ], [ -115.2734463, 36.149408999800002 ], [ -115.2734436, 36.149408999800002 ], [ -115.2734436, 36.149384699800002 ], [ -115.2734409, 36.149384699800002 ], [ -115.2734409, 36.1493765998 ], [ -115.2734436, 36.1493765998 ], [ -115.2734436, 36.149360399800003 ], [ -115.2734463, 36.149360399800003 ], [ -115.2734463, 36.149357699799999 ], [ -115.2737973, 36.149357699799999 ], [ -115.2737973, 36.149360399800003 ], [ -115.2738, 36.149360399800003 ], [ -115.2738, 36.149371199800001 ], [ -115.2738027, 36.149371199800001 ], [ -115.2738027, 36.149406299799999 ], [ -115.2738, 36.149406299799999 ], [ -115.2738, 36.149438699800001 ], [ -115.2737973, 36.149438699800001 ], [ -115.2737973, 36.149441399799997 ], [ -115.2737892, 36.149441399799997 ], [ -115.2737892, 36.1494440998 ], [ -115.2737703, 36.1494440998 ], [ -115.2737703, 36.149446799799996 ] ] ] } }
]
}
