{
"type": "FeatureCollection",
"crs": { "type": "name", "properties": { "name": "urn:ogc:def:crs:OGC:1.3:CRS84" } },
"features": [
{ "type": "Feature", "properties": { "value": 255.0 }, "geometry": { "type": "Polygon", "coordinates": [ [ [ -115.1846244, 36.128178899699996 ], [ -115.1846163, 36.128178899699996 ], [ -115.1846163, 36.1281761997 ], [ -115.1846109, 36.1281761997 ], [ -115.1846109, 36.128173499699997 ], [ -115.1846082, 36.128173499699997 ], [ -115.1846082, 36.128165399700002 ], [ -115.1846109, 36.128165399700002 ], [ -115.1846109, 36.128159999700003 ], [ -115.184619, 36.128159999700003 ], [ -115.184619, 36.1281572997 ], [ -115.1846217, 36.1281572997 ], [ -115.1846217, 36.128159999700003 ], [ -115.1846244, 36.128159999700003 ], [ -115.1846244, 36.128165399700002 ], [ -115.1846271, 36.128165399700002 ], [ -115.1846271, 36.1281761997 ], [ -115.1846244, 36.1281761997 ], [ -115.1846244, 36.128178899699996 ] ] ] } },
{ "type": "Feature", "properties": { "value": 255.0 }, "geometry": { "type": "Polygon", "coordinates": [ [ [ -115.1844084, 36.128189699700002 ], [ -115.1844057, 36.128189699700002 ], [ -115.1844057, 36.128186999699999 ], [ -115.184403, 36.128186999699999 ], [ -115.184403, 36.128154599699997 ], [ -115.1844057, 36.128154599699997 ], [ -115.1844057, 36.128151899700001 ], [ -115.1844084, 36.128151899700001 ], [ -115.1844084, 36.128159999700003 ], [ -115.1844111, 36.128159999700003 ], [ -115.1844111, 36.128173499699997 ], [ -115.1844084, 36.128173499699997 ], [ -115.1844084, 36.128189699700002 ] ] ] } },
{ "type": "Feature", "properties": { "value": 255.0 }, "geometry": { "type": "Polygon", "coordinates": [ [ [ -115.1843463, 36.128070899699999 ], [ -115.1843328, 36.128070899699999 ], [ -115.1843328, 36.128068199700003 ], [ -115.184295, 36.128068199700003 ], [ -115.184295, 36.128070899699999 ], [ -115.1842653, 36.128070899699999 ], [ -115.1842653, 36.128068199700003 ], [ -115.1842626, 36.128068199700003 ], [ -115.1842626, 36.127962899700002 ], [ -115.1842653, 36.127962899700002 ], [ -115.1842653, 36.127954799699999 ], [ -115.184268, 36.127954799699999 ], [ -115.184268, 36.1279493997 ], [ -115.1842923, 36.1279493997 ], [ -115.1842923, 36.127946699699997 ], [ -115.1843247, 36.127946699699997 ], [ -115.1843247, 36.127943999700001 ], [ -115.1843382, 36.127943999700001 ], [ -115.1843382, 36.127946699699997 ], [ -115.1843463, 36.127946699699997 ], [ -115.1843463, 36.1279493997 ], [ -115.1843517, 36.1279493997 ], [ -115.1843517, 36.127952099700003 ], [ -115.1843571, 36.127952099700003 ], [ -115.1843571, 36.127946699699997 ], [ -115.1843598, 36.127946699699997 ], [ -115.1843598, 36.1279304997 ], [ -115.1843625, 36.1279304997 ], [ -115.1843625, 36.127925099700001 ], [ -115.1843598, 36.127925099700001 ], [ -115.1843598, 36.127892699699999 ], [ -115.1843571, 36.127892699699999 ], [ -115.1843571, 36.127865699700003 ], [ -115.1843598, 36.127865699700003 ], [ -115.1843598, 36.127817099700003 ], [ -115.1843571, 36.127817099700003 ], [ -115.1843571, 36.127795499699999 ], [ -115.1843598, 36.127795499699999 ], [ -115.1843598, 36.127781999699998 ], [ -115.1843571, 36.127781999699998 ], [ -115.1843571, 36.127773899700003 ], [ -115.1843544, 36.127773899700003 ], [ -115.1843544, 36.127754999700002 ], [ -115.1843571, 36.127754999700002 ], [ -115.1843571, 36.127752299699999 ], [ -115.1843625, 36.127752299699999 ], [ -115.1843625, 36.127749599700003 ], [ -115.1843868, 36.127749599700003 ], [ -115.1843868, 36.127752299699999 ], [ -115.1844165, 36.127752299699999 ], [ -115.1844165, 36.127754999700002 ], [ -115.1844354, 36.127754999700002 ], [ -115.1844354, 36.127757699699998 ], [ -115.1844462, 36.127757699699998 ], [ -115.1844462, 36.127760399700001 ], [ -115.184457, 36.127760399700001 ], [ -115.184457, 36.127763099699997 ], [ -115.1844786, 36.127763099699997 ], [ -115.1844786, 36.127760399700001 ], [ -115.184484, 36.127760399700001 ], [ -115.184484, 36.127757699699998 ], [ -115.1844894, 36.127757699699998 ], [ -115.1844894, 36.127754999700002 ], [ -115.1844948, 36.127754999700002 ], [ -115.1844948, 36.127752299699999 ], [ -115.1845002, 36.127752299699999 ], [ -115.1845002, 36.127749599700003 ], [ -115.1845056, 36.127749599700003 ], [ -115.1845056, 36.1277468997 ], [ -115.1845245, 36.1277468997 ], [ -115.1845245, 36.127744199700004 ], [ -115.1845785, 36.127744199700004 ], [ -115.1845785, 36.1277468997 ], [ -115.1845839, 36.1277468997 ], [ -115.1845839, 36.127749599700003 ], [ -115.1845866, 36.127749599700003 ], [ -115.1845866, 36.127752299699999 ], [ -115.1845893, 36.127752299699999 ], [ -115.1845893, 36.127784699700001 ], [ -115.1845866, 36.127784699700001 ], [ -115.1845866, 36.1278818997 ], [ -115.1845893, 36.1278818997 ], [ -115.1845893, 36.127925099700001 ], [ -115.1845866, 36.127925099700001 ], [ -115.1845866, 36.127933199700003 ], [ -115.1845893, 36.127933199700003 ], [ -115.1845893, 36.127987199700001 ], [ -115.1845866, 36.127987199700001 ], [ -115.1845866, 36.127989899699998 ], [ -115.1845812, 36.127989899699998 ], [ -115.1845812, 36.127992599700001 ], [ -115.1845785, 36.127992599700001 ], [ -115.1845785, 36.127989899699998 ], [ -115.1844786, 36.127989899699998 ], [ -115.1844786, 36.127992599700001 ], [ -115.18443, 36.127992599700001 ], [ -115.18443, 36.127995299699997 ], [ -115.1844003, 36.127995299699997 ], [ -115.1844003, 36.1279979997 ], [ -115.1843841, 36.1279979997 ], [ -115.1843841, 36.128000699700003 ], [ -115.1843679, 36.128000699700003 ], [ -115.1843679, 36.127995299699997 ], [ -115.1843652, 36.127995299699997 ], [ -115.1843652, 36.127987199700001 ], [ -115.1843625, 36.127987199700001 ], [ -115.1843625, 36.127981799700002 ], [ -115.1843598, 36.127981799700002 ], [ -115.1843598, 36.127979099699999 ], [ -115.1843544, 36.127979099699999 ], [ -115.1843544, 36.127987199700001 ], [ -115.1843517, 36.127987199700001 ], [ -115.1843517, 36.1280222997 ], [ -115.184349, 36.1280222997 ], [ -115.184349, 36.128068199700003 ], [ -115.1843463, 36.128068199700003 ], [ -115.1843463, 36.128070899699999 ] ] ] } },
{ "type": "Feature", "properties": { "value": 255.0 }, "geometry": { "type": "Polygon", "coordinates": [ [ [ -115.184133, 36.128297699699999 ], [ -115.1837172, 36.128297699699999 ], [ -115.1837172, 36.1282922997 ], [ -115.1837145, 36.1282922997 ], [ -115.1837145, 36.128289599699997 ], [ -115.1837091, 36.128289599699997 ], [ -115.1837091, 36.128286899700001 ], [ -115.1837064, 36.128286899700001 ], [ -115.1837064, 36.128284199699998 ], [ -115.1837037, 36.128284199699998 ], [ -115.1837037, 36.128278799699999 ], [ -115.1837064, 36.128278799699999 ], [ -115.1837064, 36.128273399699999 ], [ -115.1837091, 36.128273399699999 ], [ -115.1837091, 36.128270699699996 ], [ -115.1837064, 36.128270699699996 ], [ -115.1837064, 36.128246399699997 ], [ -115.1837091, 36.128246399699997 ], [ -115.1837091, 36.128238299700001 ], [ -115.1837064, 36.128238299700001 ], [ -115.1837064, 36.128230199699999 ], [ -115.1837091, 36.128230199699999 ], [ -115.1837091, 36.128227499699996 ], [ -115.1837199, 36.128227499699996 ], [ -115.1837199, 36.1282247997 ], [ -115.1837226, 36.1282247997 ], [ -115.1837226, 36.128222099699997 ], [ -115.1837253, 36.128222099699997 ], [ -115.1837253, 36.128208599700002 ], [ -115.1837226, 36.128208599700002 ], [ -115.1837226, 36.128205899699999 ], [ -115.1837199, 36.128205899699999 ], [ -115.1837199, 36.128203199699996 ], [ -115.1837172, 36.128203199699996 ], [ -115.1837172, 36.1282004997 ], [ -115.1837118, 36.1282004997 ], [ -115.1837118, 36.128197799699997 ], [ -115.1837091, 36.128197799699997 ], [ -115.1837091, 36.128195099700001 ], [ -115.1837064, 36.128195099700001 ], [ -115.1837064, 36.128192399699998 ], [ -115.1837037, 36.128192399699998 ], [ -115.1837037, 36.128184299700003 ], [ -115.183701, 36.128184299700003 ], [ -115.183701, 36.128178899699996 ], [ -115.183698299999989, 36.128178899699996 ], [ -115.183698299999989, 36.1281761997 ], [ -115.1836956, 36.1281761997 ], [ -115.1836956, 36.128173499699997 ], [ -115.1836902, 36.128173499699997 ], [ -115.1836902, 36.128170799700001 ], [ -115.1836659, 36.128170799700001 ], [ -115.1836659, 36.128173499699997 ], [ -115.1836632, 36.128173499699997 ], [ -115.1836632, 36.1281761997 ], [ -115.1836605, 36.1281761997 ], [ -115.1836605, 36.128178899699996 ], [ -115.1836578, 36.128178899699996 ], [ -115.1836578, 36.128195099700001 ], [ -115.1836551, 36.128195099700001 ], [ -115.1836551, 36.128205899699999 ], [ -115.1836524, 36.128205899699999 ], [ -115.1836524, 36.128216699699998 ], [ -115.1836551, 36.128216699699998 ], [ -115.1836551, 36.128235599699998 ], [ -115.1836524, 36.128235599699998 ], [ -115.1836524, 36.128254499699999 ], [ -115.183649699999989, 36.128254499699999 ], [ -115.183649699999989, 36.128270699699996 ], [ -115.183647, 36.128270699699996 ], [ -115.183647, 36.128281499700002 ], [ -115.183649699999989, 36.128281499700002 ], [ -115.183649699999989, 36.128286899700001 ], [ -115.1836578, 36.128286899700001 ], [ -115.1836578, 36.128289599699997 ], [ -115.1836605, 36.128289599699997 ], [ -115.1836605, 36.128294999699996 ], [ -115.1836632, 36.128294999699996 ], [ -115.1836632, 36.128297699699999 ], [ -115.1836416, 36.128297699699999 ], [ -115.1836416, 36.1282922997 ], [ -115.1836362, 36.1282922997 ], [ -115.1836362, 36.128297699699999 ], [ -115.1833473, 36.128297699699999 ], [ -115.1833473, 36.1282922997 ], [ -115.1833446, 36.1282922997 ], [ -115.1833446, 36.128284199699998 ], [ -115.1833473, 36.128284199699998 ], [ -115.1833473, 36.1282490997 ], [ -115.1833446, 36.1282490997 ], [ -115.1833446, 36.128235599699998 ], [ -115.1833473, 36.128235599699998 ], [ -115.1833473, 36.1282247997 ], [ -115.1833446, 36.1282247997 ], [ -115.1833446, 36.128205899699999 ], [ -115.1833419, 36.128205899699999 ], [ -115.1833419, 36.128192399699998 ], [ -115.1833392, 36.128192399699998 ], [ -115.1833392, 36.1281815997 ], [ -115.1833419, 36.1281815997 ], [ -115.1833419, 36.128168099699998 ], [ -115.1833446, 36.128168099699998 ], [ -115.1833446, 36.128162699699999 ], [ -115.18335, 36.128162699699999 ], [ -115.18335, 36.128159999700003 ], [ -115.1833581, 36.128159999700003 ], [ -115.1833581, 36.1281572997 ], [ -115.1833662, 36.1281572997 ], [ -115.1833662, 36.128154599699997 ], [ -115.1834229, 36.128154599699997 ], [ -115.1834229, 36.128151899700001 ], [ -115.1834796, 36.128151899700001 ], [ -115.1834796, 36.128149199699997 ], [ -115.1834823, 36.128149199699997 ], [ -115.1834823, 36.128146499700001 ], [ -115.183485, 36.128146499700001 ], [ -115.183485, 36.128141099700002 ], [ -115.1834877, 36.128141099700002 ], [ -115.1834877, 36.1281329997 ], [ -115.1834904, 36.1281329997 ], [ -115.1834904, 36.128122199700002 ], [ -115.1834877, 36.128122199700002 ], [ -115.1834877, 36.128087099699997 ], [ -115.1834904, 36.128087099699997 ], [ -115.1834904, 36.128084399700001 ], [ -115.1834985, 36.128084399700001 ], [ -115.1834985, 36.128081699699997 ], [ -115.1835039, 36.128081699699997 ], [ -115.1835039, 36.128076299699998 ], [ -115.1835066, 36.128076299699998 ], [ -115.1835066, 36.128073599700002 ], [ -115.1835174, 36.128073599700002 ], [ -115.1835174, 36.128076299699998 ], [ -115.1835255, 36.128076299699998 ], [ -115.1835255, 36.128078999700001 ], [ -115.1835336, 36.128078999700001 ], [ -115.1835336, 36.128081699699997 ], [ -115.1835552, 36.128081699699997 ], [ -115.1835552, 36.128078999700001 ], [ -115.183566, 36.128078999700001 ], [ -115.183566, 36.128076299699998 ], [ -115.1835714, 36.128076299699998 ], [ -115.1835714, 36.128073599700002 ], [ -115.1835768, 36.128073599700002 ], [ -115.1835768, 36.128070899699999 ], [ -115.183582199999989, 36.128070899699999 ], [ -115.183582199999989, 36.128068199700003 ], [ -115.1835849, 36.128068199700003 ], [ -115.1835849, 36.1280654997 ], [ -115.1835795, 36.1280654997 ], [ -115.1835795, 36.128062799699997 ], [ -115.1835741, 36.128062799699997 ], [ -115.1835741, 36.128060099700001 ], [ -115.183563299999989, 36.128060099700001 ], [ -115.183563299999989, 36.128057399699998 ], [ -115.1835444, 36.128057399699998 ], [ -115.1835444, 36.128054699700002 ], [ -115.1835336, 36.128054699700002 ], [ -115.1835336, 36.128051999699998 ], [ -115.1835255, 36.128051999699998 ], [ -115.1835255, 36.128049299700002 ], [ -115.1835066, 36.128049299700002 ], [ -115.1835066, 36.128046599699999 ], [ -115.1834877, 36.128046599699999 ], [ -115.1834877, 36.128043899700003 ], [ -115.1833365, 36.128043899700003 ], [ -115.1833365, 36.128046599699999 ], [ -115.183323, 36.128046599699999 ], [ -115.183323, 36.128043899700003 ], [ -115.1833149, 36.128043899700003 ], [ -115.1833149, 36.128035799700001 ], [ -115.183312199999989, 36.128035799700001 ], [ -115.183312199999989, 36.1280222997 ], [ -115.1833149, 36.1280222997 ], [ -115.1833149, 36.128019599699996 ], [ -115.183312199999989, 36.128019599699996 ], [ -115.183312199999989, 36.127970999699997 ], [ -115.1833095, 36.127970999699997 ], [ -115.1833095, 36.127952099700003 ], [ -115.183312199999989, 36.127952099700003 ], [ -115.183312199999989, 36.127946699699997 ], [ -115.1833149, 36.127946699699997 ], [ -115.1833149, 36.127943999700001 ], [ -115.1833176, 36.127943999700001 ], [ -115.1833176, 36.127941299699998 ], [ -115.1833257, 36.127941299699998 ], [ -115.1833257, 36.127938599700002 ], [ -115.1833689, 36.127938599700002 ], [ -115.1833689, 36.127941299699998 ], [ -115.1833932, 36.127941299699998 ], [ -115.1833932, 36.127943999700001 ], [ -115.1834175, 36.127943999700001 ], [ -115.1834175, 36.127946699699997 ], [ -115.1834985, 36.127946699699997 ], [ -115.1834985, 36.127943999700001 ], [ -115.183582199999989, 36.127943999700001 ], [ -115.183582199999989, 36.127941299699998 ], [ -115.183593, 36.127941299699998 ], [ -115.183593, 36.127943999700001 ], [ -115.1836173, 36.127943999700001 ], [ -115.1836173, 36.127946699699997 ], [ -115.1836281, 36.127946699699997 ], [ -115.1836281, 36.127943999700001 ], [ -115.1836389, 36.127943999700001 ], [ -115.1836389, 36.127941299699998 ], [ -115.183647, 36.127941299699998 ], [ -115.183647, 36.127938599700002 ], [ -115.183649699999989, 36.127938599700002 ], [ -115.183649699999989, 36.127935899699999 ], [ -115.1836551, 36.127935899699999 ], [ -115.1836551, 36.127933199700003 ], [ -115.1836659, 36.127933199700003 ], [ -115.1836659, 36.1279304997 ], [ -115.1836821, 36.1279304997 ], [ -115.1836821, 36.127927799699997 ], [ -115.1836929, 36.127927799699997 ], [ -115.1836929, 36.127925099700001 ], [ -115.1837064, 36.127925099700001 ], [ -115.1837064, 36.127922399699997 ], [ -115.1837118, 36.127922399699997 ], [ -115.1837118, 36.127919699700001 ], [ -115.1837145, 36.127919699700001 ], [ -115.1837145, 36.127916999699998 ], [ -115.1837199, 36.127916999699998 ], [ -115.1837199, 36.127914299700002 ], [ -115.1837226, 36.127914299700002 ], [ -115.1837226, 36.127911599699999 ], [ -115.183728, 36.127911599699999 ], [ -115.183728, 36.127908899700003 ], [ -115.1837307, 36.127908899700003 ], [ -115.1837307, 36.1279061997 ], [ -115.1837334, 36.1279061997 ], [ -115.1837334, 36.127903499699997 ], [ -115.1837361, 36.127903499699997 ], [ -115.1837361, 36.127900799700001 ], [ -115.1837415, 36.127900799700001 ], [ -115.1837415, 36.127898099699998 ], [ -115.1837442, 36.127898099699998 ], [ -115.1837442, 36.127895399700002 ], [ -115.1837469, 36.127895399700002 ], [ -115.1837469, 36.127892699699999 ], [ -115.1837496, 36.127892699699999 ], [ -115.1837496, 36.127889999700002 ], [ -115.183755, 36.127889999700002 ], [ -115.183755, 36.127887299699999 ], [ -115.1837577, 36.127887299699999 ], [ -115.1837577, 36.127884599700003 ], [ -115.1837631, 36.127884599700003 ], [ -115.1837631, 36.1278818997 ], [ -115.183765799999989, 36.1278818997 ], [ -115.183765799999989, 36.127879199699997 ], [ -115.1837685, 36.127879199699997 ], [ -115.1837685, 36.127876499700001 ], [ -115.1837712, 36.127876499700001 ], [ -115.1837712, 36.127873799699998 ], [ -115.1837739, 36.127873799699998 ], [ -115.1837739, 36.127871099700002 ], [ -115.1837766, 36.127871099700002 ], [ -115.1837766, 36.127865699700003 ], [ -115.1837793, 36.127865699700003 ], [ -115.1837793, 36.1278575997 ], [ -115.183782, 36.1278575997 ], [ -115.183782, 36.127846799700002 ], [ -115.1837847, 36.127846799700002 ], [ -115.1837847, 36.1278386997 ], [ -115.1837874, 36.1278386997 ], [ -115.1837874, 36.127835999700004 ], [ -115.1837901, 36.127835999700004 ], [ -115.1837901, 36.127833299700001 ], [ -115.1837928, 36.127833299700001 ], [ -115.1837928, 36.127830599699998 ], [ -115.1838063, 36.127830599699998 ], [ -115.1838063, 36.127827899700002 ], [ -115.183809, 36.127827899700002 ], [ -115.183809, 36.127825199699998 ], [ -115.1838117, 36.127825199699998 ], [ -115.1838117, 36.127822499700002 ], [ -115.1838144, 36.127822499700002 ], [ -115.1838144, 36.127817099700003 ], [ -115.1838171, 36.127817099700003 ], [ -115.1838171, 36.127792799700003 ], [ -115.1838198, 36.127792799700003 ], [ -115.1838198, 36.127736099700002 ], [ -115.1838225, 36.127736099700002 ], [ -115.1838225, 36.127717199700001 ], [ -115.1838252, 36.127717199700001 ], [ -115.1838252, 36.1277036997 ], [ -115.1838279, 36.1277036997 ], [ -115.1838279, 36.127700999700004 ], [ -115.183833299999989, 36.127700999700004 ], [ -115.183833299999989, 36.1276982997 ], [ -115.1839737, 36.1276982997 ], [ -115.1839737, 36.127700999700004 ], [ -115.1839764, 36.127700999700004 ], [ -115.1839764, 36.1277036997 ], [ -115.1839791, 36.1277036997 ], [ -115.1839791, 36.127706399700003 ], [ -115.1839818, 36.127706399700003 ], [ -115.1839818, 36.127709099699999 ], [ -115.1839845, 36.127709099699999 ], [ -115.1839845, 36.127714499699998 ], [ -115.1839872, 36.127714499699998 ], [ -115.1839872, 36.127717199700001 ], [ -115.1839926, 36.127717199700001 ], [ -115.1839926, 36.127719899699997 ], [ -115.1840439, 36.127719899699997 ], [ -115.1840439, 36.127717199700001 ], [ -115.1841033, 36.127717199700001 ], [ -115.1841033, 36.127719899699997 ], [ -115.1841357, 36.127719899699997 ], [ -115.1841357, 36.127717199700001 ], [ -115.1841438, 36.127717199700001 ], [ -115.1841438, 36.127719899699997 ], [ -115.1841546, 36.127719899699997 ], [ -115.1841546, 36.1277225997 ], [ -115.18416, 36.1277225997 ], [ -115.18416, 36.127725299700003 ], [ -115.1841627, 36.127725299700003 ], [ -115.1841627, 36.127730699700003 ], [ -115.1841654, 36.127730699700003 ], [ -115.1841654, 36.127733399699999 ], [ -115.1841627, 36.127733399699999 ], [ -115.1841627, 36.127741499700001 ], [ -115.18416, 36.127741499700001 ], [ -115.18416, 36.1277468997 ], [ -115.1841573, 36.1277468997 ], [ -115.1841573, 36.1278818997 ], [ -115.18416, 36.1278818997 ], [ -115.18416, 36.128043899700003 ], [ -115.1841519, 36.128043899700003 ], [ -115.1841519, 36.128046599699999 ], [ -115.1840169, 36.128046599699999 ], [ -115.1840169, 36.128049299700002 ], [ -115.1840061, 36.128049299700002 ], [ -115.1840061, 36.128051999699998 ], [ -115.183998, 36.128051999699998 ], [ -115.183998, 36.128054699700002 ], [ -115.1839926, 36.128054699700002 ], [ -115.1839926, 36.128060099700001 ], [ -115.1839899, 36.128060099700001 ], [ -115.1839899, 36.1280654997 ], [ -115.1839872, 36.1280654997 ], [ -115.1839872, 36.128070899699999 ], [ -115.1838792, 36.128070899699999 ], [ -115.1838792, 36.128073599700002 ], [ -115.1838657, 36.128073599700002 ], [ -115.1838657, 36.128076299699998 ], [ -115.1838279, 36.128076299699998 ], [ -115.1838279, 36.128078999700001 ], [ -115.1838171, 36.128078999700001 ], [ -115.1838171, 36.128081699699997 ], [ -115.183809, 36.128081699699997 ], [ -115.183809, 36.1280897997 ], [ -115.1838117, 36.1280897997 ], [ -115.1838117, 36.128092499700003 ], [ -115.1838144, 36.128092499700003 ], [ -115.1838144, 36.128097899700002 ], [ -115.1838117, 36.128097899700002 ], [ -115.1838117, 36.128119499699999 ], [ -115.183809, 36.128119499699999 ], [ -115.183809, 36.128138399699999 ], [ -115.1838117, 36.128138399699999 ], [ -115.1838117, 36.128143799699998 ], [ -115.1838144, 36.128143799699998 ], [ -115.1838144, 36.128146499700001 ], [ -115.1838171, 36.128146499700001 ], [ -115.1838171, 36.128149199699997 ], [ -115.1838225, 36.128149199699997 ], [ -115.1838225, 36.128151899700001 ], [ -115.183836, 36.128151899700001 ], [ -115.183836, 36.128154599699997 ], [ -115.1838387, 36.128154599699997 ], [ -115.1838387, 36.1281572997 ], [ -115.1838441, 36.1281572997 ], [ -115.1838441, 36.128159999700003 ], [ -115.183900799999989, 36.128159999700003 ], [ -115.183900799999989, 36.128162699699999 ], [ -115.1839224, 36.128162699699999 ], [ -115.1839224, 36.128165399700002 ], [ -115.183998, 36.128165399700002 ], [ -115.183998, 36.128168099699998 ], [ -115.184025, 36.128168099699998 ], [ -115.184025, 36.128170799700001 ], [ -115.1840493, 36.128170799700001 ], [ -115.1840493, 36.128173499699997 ], [ -115.1840628, 36.128173499699997 ], [ -115.1840628, 36.1281761997 ], [ -115.1840709, 36.1281761997 ], [ -115.1840709, 36.128178899699996 ], [ -115.184079, 36.128178899699996 ], [ -115.184079, 36.1281815997 ], [ -115.1840844, 36.1281815997 ], [ -115.1840844, 36.128184299700003 ], [ -115.1840871, 36.128184299700003 ], [ -115.1840871, 36.128186999699999 ], [ -115.1840925, 36.128186999699999 ], [ -115.1840925, 36.128189699700002 ], [ -115.1841006, 36.128189699700002 ], [ -115.1841006, 36.128192399699998 ], [ -115.1841303, 36.128192399699998 ], [ -115.1841303, 36.128195099700001 ], [ -115.1841357, 36.128195099700001 ], [ -115.1841357, 36.128197799699997 ], [ -115.1841384, 36.128197799699997 ], [ -115.1841384, 36.128232899700002 ], [ -115.1841357, 36.128232899700002 ], [ -115.1841357, 36.128270699699996 ], [ -115.184133, 36.128270699699996 ], [ -115.184133, 36.128297699699999 ] ], [ [ -115.1836524, 36.128078999700001 ], [ -115.1836524, 36.128076299699998 ], [ -115.1836632, 36.128076299699998 ], [ -115.1836632, 36.128073599700002 ], [ -115.1836713, 36.128073599700002 ], [ -115.1836713, 36.128068199700003 ], [ -115.1836659, 36.128068199700003 ], [ -115.1836659, 36.1280654997 ], [ -115.1836578, 36.1280654997 ], [ -115.1836578, 36.128062799699997 ], [ -115.183649699999989, 36.128062799699997 ], [ -115.183649699999989, 36.1280654997 ], [ -115.1836389, 36.1280654997 ], [ -115.1836389, 36.128068199700003 ], [ -115.1836335, 36.128068199700003 ], [ -115.1836335, 36.128070899699999 ], [ -115.1836362, 36.128070899699999 ], [ -115.1836362, 36.128073599700002 ], [ -115.1836389, 36.128073599700002 ], [ -115.1836389, 36.128076299699998 ], [ -115.1836416, 36.128076299699998 ], [ -115.1836416, 36.128078999700001 ], [ -115.1836524, 36.128078999700001 ] ] ] } },
{ "type": "Feature", "properties": { "value": 255.0 }, "geometry": { "type": "Polygon", "coordinates": [ [ [ -115.1829234, 36.127646999699998 ], [ -115.1829126, 36.127646999699998 ], [ -115.1829126, 36.127582199700001 ], [ -115.1829153, 36.127582199700001 ], [ -115.1829153, 36.127584899700004 ], [ -115.1829207, 36.127584899700004 ], [ -115.1829207, 36.1275875997 ], [ -115.182926099999989, 36.1275875997 ], [ -115.182926099999989, 36.127592999699999 ], [ -115.1829288, 36.127592999699999 ], [ -115.1829288, 36.127601099700001 ], [ -115.1829315, 36.127601099700001 ], [ -115.1829315, 36.127638899700003 ], [ -115.1829288, 36.127638899700003 ], [ -115.1829288, 36.127641599699999 ], [ -115.182926099999989, 36.127641599699999 ], [ -115.182926099999989, 36.127644299700002 ], [ -115.1829234, 36.127644299700002 ], [ -115.1829234, 36.127646999699998 ] ] ] } },
{ "type": "Feature", "properties": { "value": 255.0 }, "geometry": { "type": "Polygon", "coordinates": [ [ [ -115.182918, 36.127439099699998 ], [ -115.1829126, 36.127439099699998 ], [ -115.1829126, 36.127368899700002 ], [ -115.1829369, 36.127368899700002 ], [ -115.1829369, 36.127371599699998 ], [ -115.182945, 36.127371599699998 ], [ -115.182945, 36.127374299700001 ], [ -115.1829477, 36.127374299700001 ], [ -115.1829477, 36.127387799700003 ], [ -115.182945, 36.127387799700003 ], [ -115.182945, 36.127395899699998 ], [ -115.1829423, 36.127395899699998 ], [ -115.1829423, 36.127401299700004 ], [ -115.1829396, 36.127401299700004 ], [ -115.1829396, 36.1274039997 ], [ -115.1829369, 36.1274039997 ], [ -115.1829369, 36.127406699700003 ], [ -115.1829396, 36.127406699700003 ], [ -115.1829396, 36.127430999700003 ], [ -115.1829369, 36.127430999700003 ], [ -115.1829369, 36.127433699699999 ], [ -115.182926099999989, 36.127433699699999 ], [ -115.182926099999989, 36.127436399700002 ], [ -115.182918, 36.127436399700002 ], [ -115.182918, 36.127439099699998 ] ] ] } },
{ "type": "Feature", "properties": { "value": 255.0 }, "geometry": { "type": "Polygon", "coordinates": [ [ [ -115.1846406, 36.127387799700003 ], [ -115.1845758, 36.127387799700003 ], [ -115.1845758, 36.1273850997 ], [ -115.1845704, 36.1273850997 ], [ -115.1845704, 36.127352699700005 ], [ -115.1845677, 36.127352699700005 ], [ -115.1845677, 36.127349999700002 ], [ -115.184565, 36.127349999700002 ], [ -115.184565, 36.127347299699998 ], [ -115.1845596, 36.127347299699998 ], [ -115.1845596, 36.127344599700002 ], [ -115.1845488, 36.127344599700002 ], [ -115.1845488, 36.127341899699999 ], [ -115.1845056, 36.127341899699999 ], [ -115.1845056, 36.1273364997 ], [ -115.1845029, 36.1273364997 ], [ -115.1845029, 36.127101599700005 ], [ -115.1845056, 36.127101599700005 ], [ -115.1845056, 36.127058399700005 ], [ -115.1845029, 36.127058399700005 ], [ -115.1845029, 36.127047599699999 ], [ -115.1845056, 36.127047599699999 ], [ -115.1845056, 36.127009799700005 ], [ -115.1846271, 36.127009799700005 ], [ -115.1846271, 36.127012499700001 ], [ -115.1846352, 36.127012499700001 ], [ -115.1846352, 36.127015199700004 ], [ -115.1846406, 36.127015199700004 ], [ -115.1846406, 36.127020599700003 ], [ -115.1846433, 36.127020599700003 ], [ -115.1846433, 36.127050299700002 ], [ -115.1846406, 36.127050299700002 ], [ -115.1846406, 36.127298699699999 ], [ -115.1846433, 36.127298699699999 ], [ -115.1846433, 36.1273850997 ], [ -115.1846406, 36.1273850997 ], [ -115.1846406, 36.127387799700003 ] ] ] } },
{ "type": "Feature", "properties": { "value": 255.0 }, "geometry": { "type": "Polygon", "coordinates": [ [ [ -115.1835039, 36.127344599700002 ], [ -115.183431, 36.127344599700002 ], [ -115.183431, 36.127341899699999 ], [ -115.183428299999989, 36.127341899699999 ], [ -115.183428299999989, 36.127344599700002 ], [ -115.183379699999989, 36.127344599700002 ], [ -115.183379699999989, 36.127341899699999 ], [ -115.1833419, 36.127341899699999 ], [ -115.1833419, 36.127344599700002 ], [ -115.1833068, 36.127344599700002 ], [ -115.1833068, 36.127341899699999 ], [ -115.1833041, 36.127341899699999 ], [ -115.1833041, 36.127339199700003 ], [ -115.1832987, 36.127339199700003 ], [ -115.1832987, 36.127320299700003 ], [ -115.1833014, 36.127320299700003 ], [ -115.1833014, 36.127314899700004 ], [ -115.1833041, 36.127314899700004 ], [ -115.1833041, 36.127185299700002 ], [ -115.1833068, 36.127185299700002 ], [ -115.1833068, 36.1271582997 ], [ -115.1833041, 36.1271582997 ], [ -115.1833041, 36.126947699700004 ], [ -115.1833068, 36.126947699700004 ], [ -115.1833068, 36.126944999700001 ], [ -115.1833095, 36.126944999700001 ], [ -115.1833095, 36.126942299700005 ], [ -115.1833203, 36.126942299700005 ], [ -115.1833203, 36.126944999700001 ], [ -115.1833257, 36.126944999700001 ], [ -115.1833257, 36.126942299700005 ], [ -115.1834256, 36.126942299700005 ], [ -115.1834256, 36.126944999700001 ], [ -115.1834418, 36.126944999700001 ], [ -115.1834418, 36.126947699700004 ], [ -115.183458, 36.126947699700004 ], [ -115.183458, 36.126944999700001 ], [ -115.1834904, 36.126944999700001 ], [ -115.1834904, 36.126947699700004 ], [ -115.1835066, 36.126947699700004 ], [ -115.1835066, 36.1269503997 ], [ -115.1835093, 36.1269503997 ], [ -115.1835093, 36.126982799700002 ], [ -115.183512, 36.126982799700002 ], [ -115.183512, 36.126988199700001 ], [ -115.183514699999989, 36.126988199700001 ], [ -115.183514699999989, 36.126990899700004 ], [ -115.1835174, 36.126990899700004 ], [ -115.1835174, 36.1269935997 ], [ -115.1835228, 36.1269935997 ], [ -115.1835228, 36.126996299700004 ], [ -115.1835282, 36.126996299700004 ], [ -115.1835282, 36.1269989997 ], [ -115.1835309, 36.1269989997 ], [ -115.1835309, 36.127025999700003 ], [ -115.1835282, 36.127025999700003 ], [ -115.1835282, 36.1270421997 ], [ -115.1835255, 36.1270421997 ], [ -115.1835255, 36.127050299700002 ], [ -115.1835228, 36.127050299700002 ], [ -115.1835228, 36.127055699700001 ], [ -115.1835201, 36.127055699700001 ], [ -115.1835201, 36.127058399700005 ], [ -115.1835174, 36.127058399700005 ], [ -115.1835174, 36.127061099700001 ], [ -115.183514699999989, 36.127061099700001 ], [ -115.183514699999989, 36.127063799700004 ], [ -115.183512, 36.127063799700004 ], [ -115.183512, 36.127069199700003 ], [ -115.1835093, 36.127069199700003 ], [ -115.1835093, 36.127112399700003 ], [ -115.1835066, 36.127112399700003 ], [ -115.1835066, 36.127125899700005 ], [ -115.1835039, 36.127125899700005 ], [ -115.1835039, 36.127255499699999 ], [ -115.1835066, 36.127255499699999 ], [ -115.1835066, 36.127341899699999 ], [ -115.1835039, 36.127341899699999 ], [ -115.1835039, 36.127344599700002 ] ] ] } },
{ "type": "Feature", "properties": { "value": 255.0 }, "geometry": { "type": "Polygon", "coordinates": [ [ [ -115.1843139, 36.126901799700001 ], [ -115.1842923, 36.126901799700001 ], [ -115.1842923, 36.126899099700005 ], [ -115.1842518, 36.126899099700005 ], [ -115.1842518, 36.126896399700001 ], [ -115.1842005, 36.126896399700001 ], [ -115.1842005, 36.126893699700005 ], [ -115.1841627, 36.126893699700005 ], [ -115.1841627, 36.126896399700001 ], [ -115.1841465, 36.126896399700001 ], [ -115.1841465, 36.126893699700005 ], [ -115.1841384, 36.126893699700005 ], [ -115.1841384, 36.126890999700002 ], [ -115.1841357, 36.126890999700002 ], [ -115.1841357, 36.1268828997 ], [ -115.184133, 36.1268828997 ], [ -115.184133, 36.126850499700005 ], [ -115.1841357, 36.126850499700005 ], [ -115.1841357, 36.1268153997 ], [ -115.1841384, 36.1268153997 ], [ -115.1841384, 36.126799199700002 ], [ -115.1841411, 36.126799199700002 ], [ -115.1841411, 36.1267910997 ], [ -115.1842437, 36.1267910997 ], [ -115.1842437, 36.126793799700003 ], [ -115.1842869, 36.126793799700003 ], [ -115.1842869, 36.126796499699999 ], [ -115.1843139, 36.126796499699999 ], [ -115.1843139, 36.126799199700002 ], [ -115.1843193, 36.126799199700002 ], [ -115.1843193, 36.126801899700006 ], [ -115.184322, 36.126801899700006 ], [ -115.184322, 36.126804599700002 ], [ -115.1843247, 36.126804599700002 ], [ -115.1843247, 36.126818099700003 ], [ -115.1843274, 36.126818099700003 ], [ -115.1843274, 36.126826199700005 ], [ -115.1843247, 36.126826199700005 ], [ -115.1843247, 36.126893699700005 ], [ -115.184322, 36.126893699700005 ], [ -115.184322, 36.126899099700005 ], [ -115.1843139, 36.126899099700005 ], [ -115.1843139, 36.126901799700001 ] ] ] } },
{ "type": "Feature", "properties": { "value": 255.0 }, "geometry": { "type": "Polygon", "coordinates": [ [ [ -115.1845515, 36.126915299700002 ], [ -115.184538, 36.126915299700002 ], [ -115.184538, 36.126912599700006 ], [ -115.1844462, 36.126912599700006 ], [ -115.1844462, 36.126909899700003 ], [ -115.1844408, 36.126909899700003 ], [ -115.1844408, 36.126904499700004 ], [ -115.1844381, 36.126904499700004 ], [ -115.1844381, 36.126877499700001 ], [ -115.1844408, 36.126877499700001 ], [ -115.1844408, 36.126845099700006 ], [ -115.1844435, 36.126845099700006 ], [ -115.1844435, 36.1268342997 ], [ -115.1844408, 36.1268342997 ], [ -115.1844408, 36.126820799700006 ], [ -115.1844435, 36.126820799700006 ], [ -115.1844435, 36.126809999700001 ], [ -115.1844462, 36.126809999700001 ], [ -115.1844462, 36.126807299700005 ], [ -115.1844543, 36.126807299700005 ], [ -115.1844543, 36.126804599700002 ], [ -115.1844705, 36.126804599700002 ], [ -115.1844705, 36.126807299700005 ], [ -115.184484, 36.126807299700005 ], [ -115.184484, 36.126809999700001 ], [ -115.1844921, 36.126809999700001 ], [ -115.1844921, 36.126812699700004 ], [ -115.1845542, 36.126812699700004 ], [ -115.1845542, 36.1268153997 ], [ -115.184565, 36.1268153997 ], [ -115.184565, 36.126818099700003 ], [ -115.1845704, 36.126818099700003 ], [ -115.1845704, 36.126820799700006 ], [ -115.1845731, 36.126820799700006 ], [ -115.1845731, 36.126818099700003 ], [ -115.1845758, 36.126818099700003 ], [ -115.1845758, 36.126812699700004 ], [ -115.1845785, 36.126812699700004 ], [ -115.1845785, 36.126774899700003 ], [ -115.1845812, 36.126774899700003 ], [ -115.1845812, 36.126753299700006 ], [ -115.1845839, 36.126753299700006 ], [ -115.1845839, 36.1267478997 ], [ -115.1845866, 36.1267478997 ], [ -115.1845866, 36.126745199700004 ], [ -115.1846082, 36.126745199700004 ], [ -115.1846082, 36.1267478997 ], [ -115.1846109, 36.1267478997 ], [ -115.1846109, 36.126785699700001 ], [ -115.1846082, 36.126785699700001 ], [ -115.1846082, 36.126828899700001 ], [ -115.1846055, 36.126828899700001 ], [ -115.1846055, 36.126847799700002 ], [ -115.1846028, 36.126847799700002 ], [ -115.1846028, 36.126850499700005 ], [ -115.1845839, 36.126850499700005 ], [ -115.1845839, 36.126847799700002 ], [ -115.1845812, 36.126847799700002 ], [ -115.1845812, 36.126845099700006 ], [ -115.1845785, 36.126845099700006 ], [ -115.1845785, 36.126836999700004 ], [ -115.1845758, 36.126836999700004 ], [ -115.1845758, 36.1268342997 ], [ -115.1845731, 36.1268342997 ], [ -115.1845731, 36.126836999700004 ], [ -115.1845704, 36.126836999700004 ], [ -115.1845704, 36.126850499700005 ], [ -115.1845677, 36.126850499700005 ], [ -115.1845677, 36.1268585997 ], [ -115.184565, 36.1268585997 ], [ -115.184565, 36.126880199700004 ], [ -115.1845623, 36.126880199700004 ], [ -115.1845623, 36.1269071997 ], [ -115.1845596, 36.1269071997 ], [ -115.1845596, 36.126912599700006 ], [ -115.1845515, 36.126912599700006 ], [ -115.1845515, 36.126915299700002 ] ] ] } },
{ "type": "Feature", "properties": { "value": 255.0 }, "geometry": { "type": "Polygon", "coordinates": [ [ [ -115.1844894, 36.126731699700002 ], [ -115.1844732, 36.126731699700002 ], [ -115.1844732, 36.126728999700006 ], [ -115.1844678, 36.126728999700006 ], [ -115.1844678, 36.126726299700003 ], [ -115.1844651, 36.126726299700003 ], [ -115.1844651, 36.126669599700001 ], [ -115.1844624, 36.126669599700001 ], [ -115.1844624, 36.126661499700006 ], [ -115.1844597, 36.126661499700006 ], [ -115.1844597, 36.126647999700005 ], [ -115.184457, 36.126647999700005 ], [ -115.184457, 36.126626399700001 ], [ -115.1844597, 36.126626399700001 ], [ -115.1844597, 36.126620999700002 ], [ -115.1844624, 36.126620999700002 ], [ -115.1844624, 36.126615599700003 ], [ -115.1844651, 36.126615599700003 ], [ -115.1844651, 36.126610199700004 ], [ -115.1844678, 36.126610199700004 ], [ -115.1844678, 36.126580499700005 ], [ -115.1844651, 36.126580499700005 ], [ -115.1844651, 36.126569699700006 ], [ -115.1844678, 36.126569699700006 ], [ -115.1844678, 36.126566999700003 ], [ -115.1844705, 36.126566999700003 ], [ -115.1844705, 36.1265642997 ], [ -115.1844759, 36.1265642997 ], [ -115.1844759, 36.126561599700004 ], [ -115.1845569, 36.126561599700004 ], [ -115.1845569, 36.1265642997 ], [ -115.1845623, 36.1265642997 ], [ -115.1845623, 36.126566999700003 ], [ -115.184565, 36.126566999700003 ], [ -115.184565, 36.126569699700006 ], [ -115.1845677, 36.126569699700006 ], [ -115.1845677, 36.126577799700001 ], [ -115.1845704, 36.126577799700001 ], [ -115.1845704, 36.1265885997 ], [ -115.1845731, 36.1265885997 ], [ -115.1845731, 36.126593999700006 ], [ -115.1845839, 36.126593999700006 ], [ -115.1845839, 36.126591299700003 ], [ -115.184592, 36.126591299700003 ], [ -115.184592, 36.1265885997 ], [ -115.1845947, 36.1265885997 ], [ -115.1845947, 36.126591299700003 ], [ -115.1846136, 36.126591299700003 ], [ -115.1846136, 36.126596699700002 ], [ -115.1846163, 36.126596699700002 ], [ -115.1846163, 36.126626399700001 ], [ -115.1846136, 36.126626399700001 ], [ -115.1846136, 36.126664199700002 ], [ -115.1846109, 36.126664199700002 ], [ -115.1846109, 36.126707399700003 ], [ -115.1846082, 36.126707399700003 ], [ -115.1846082, 36.126710099700006 ], [ -115.1845839, 36.126710099700006 ], [ -115.1845839, 36.126701999700003 ], [ -115.1845812, 36.126701999700003 ], [ -115.1845812, 36.126677699700004 ], [ -115.1845785, 36.126677699700004 ], [ -115.1845785, 36.126672299700004 ], [ -115.1845704, 36.126672299700004 ], [ -115.1845704, 36.126691199700005 ], [ -115.1845677, 36.126691199700005 ], [ -115.1845677, 36.126726299700003 ], [ -115.184565, 36.126726299700003 ], [ -115.184565, 36.126728999700006 ], [ -115.1844894, 36.126728999700006 ], [ -115.1844894, 36.126731699700002 ] ] ] } },
{ "type": "Feature", "properties": { "value": 255.0 }, "geometry": { "type": "Polygon", "coordinates": [ [ [ -115.183698299999989, 36.126861299700003 ], [ -115.1836389, 36.126861299700003 ], [ -115.1836389, 36.1268585997 ], [ -115.1836092, 36.1268585997 ], [ -115.1836092, 36.126855899700004 ], [ -115.1835768, 36.126855899700004 ], [ -115.1835768, 36.126853199700001 ], [ -115.1835363, 36.126853199700001 ], [ -115.1835363, 36.126850499700005 ], [ -115.1835012, 36.126850499700005 ], [ -115.1835012, 36.126847799700002 ], [ -115.183485, 36.126847799700002 ], [ -115.183485, 36.126845099700006 ], [ -115.1834796, 36.126845099700006 ], [ -115.1834796, 36.126842399700003 ], [ -115.1834769, 36.126842399700003 ], [ -115.1834769, 36.126836999700004 ], [ -115.1834742, 36.126836999700004 ], [ -115.1834742, 36.126831599700004 ], [ -115.1834769, 36.126831599700004 ], [ -115.1834769, 36.126820799700006 ], [ -115.1834796, 36.126820799700006 ], [ -115.1834796, 36.126785699700001 ], [ -115.1834823, 36.126785699700001 ], [ -115.1834823, 36.126774899700003 ], [ -115.183485, 36.126774899700003 ], [ -115.183485, 36.126755999700002 ], [ -115.1834823, 36.126755999700002 ], [ -115.1834823, 36.126745199700004 ], [ -115.1834796, 36.126745199700004 ], [ -115.1834796, 36.126674999700001 ], [ -115.1834769, 36.126674999700001 ], [ -115.1834769, 36.126666899700005 ], [ -115.1834742, 36.126666899700005 ], [ -115.1834742, 36.126647999700005 ], [ -115.1834715, 36.126647999700005 ], [ -115.1834715, 36.126577799700001 ], [ -115.1834742, 36.126577799700001 ], [ -115.1834742, 36.126566999700003 ], [ -115.1834796, 36.126566999700003 ], [ -115.1834796, 36.1265642997 ], [ -115.183495799999989, 36.1265642997 ], [ -115.183495799999989, 36.126566999700003 ], [ -115.1835282, 36.126566999700003 ], [ -115.1835282, 36.126569699700006 ], [ -115.1835525, 36.126569699700006 ], [ -115.1835525, 36.126566999700003 ], [ -115.1835687, 36.126566999700003 ], [ -115.1835687, 36.1265642997 ], [ -115.1835984, 36.1265642997 ], [ -115.1835984, 36.126566999700003 ], [ -115.1836146, 36.126566999700003 ], [ -115.1836146, 36.126569699700006 ], [ -115.183649699999989, 36.126569699700006 ], [ -115.183649699999989, 36.126566999700003 ], [ -115.183698299999989, 36.126566999700003 ], [ -115.183698299999989, 36.126569699700006 ], [ -115.183701, 36.126569699700006 ], [ -115.183701, 36.126575099700005 ], [ -115.1837037, 36.126575099700005 ], [ -115.1837037, 36.126585899700004 ], [ -115.1837064, 36.126585899700004 ], [ -115.1837064, 36.126591299700003 ], [ -115.1837037, 36.126591299700003 ], [ -115.1837037, 36.126604799700004 ], [ -115.183701, 36.126604799700004 ], [ -115.183701, 36.126782999700005 ], [ -115.1837037, 36.126782999700005 ], [ -115.1837037, 36.1268585997 ], [ -115.183698299999989, 36.1268585997 ], [ -115.183698299999989, 36.126861299700003 ] ] ] } },
{ "type": "Feature", "properties": { "value": 255.0 }, "geometry": { "type": "Polygon", "coordinates": [ [ [ -115.1842437, 36.126618299700006 ], [ -115.1841438, 36.126618299700006 ], [ -115.1841438, 36.126615599700003 ], [ -115.1841411, 36.126615599700003 ], [ -115.1841411, 36.126612899700007 ], [ -115.1841384, 36.126612899700007 ], [ -115.1841384, 36.126583199700001 ], [ -115.1841357, 36.126583199700001 ], [ -115.1841357, 36.126575099700005 ], [ -115.184133, 36.126575099700005 ], [ -115.184133, 36.126553499700002 ], [ -115.1841303, 36.126553499700002 ], [ -115.1841303, 36.126542699700003 ], [ -115.1842734, 36.126542699700003 ], [ -115.1842734, 36.1265642997 ], [ -115.1842761, 36.1265642997 ], [ -115.1842761, 36.126577799700001 ], [ -115.1842734, 36.126577799700001 ], [ -115.1842734, 36.1266074997 ], [ -115.1842707, 36.1266074997 ], [ -115.1842707, 36.126610199700004 ], [ -115.184268, 36.126610199700004 ], [ -115.184268, 36.126612899700007 ], [ -115.1842626, 36.126612899700007 ], [ -115.1842626, 36.126615599700003 ], [ -115.1842437, 36.126615599700003 ], [ -115.1842437, 36.126618299700006 ] ] ] } }
]
}
