{
"type": "FeatureCollection",
"crs": { "type": "name", "properties": { "name": "urn:ogc:def:crs:OGC:1.3:CRS84" } },
"features": [
{ "type": "Feature", "properties": { "value": 255.0 }, "geometry": { "type": "Polygon", "coordinates": [ [ [ -115.1934426, 36.210998699900003 ], [ -115.1934399, 36.210998699900003 ], [ -115.1934399, 36.2109959999 ], [ -115.1934372, 36.2109959999 ], [ -115.1934372, 36.210990599900001 ], [ -115.1934318, 36.210990599900001 ], [ -115.1934318, 36.210987899899997 ], [ -115.193421, 36.210987899899997 ], [ -115.193421, 36.210985199900001 ], [ -115.1934102, 36.210985199900001 ], [ -115.1934102, 36.210982499899998 ], [ -115.1934048, 36.210982499899998 ], [ -115.1934048, 36.210979799900002 ], [ -115.1934021, 36.210979799900002 ], [ -115.1934021, 36.210977099899999 ], [ -115.1933994, 36.210977099899999 ], [ -115.1933994, 36.210974399900003 ], [ -115.1933967, 36.210974399900003 ], [ -115.1933967, 36.2109716999 ], [ -115.193394, 36.2109716999 ], [ -115.193394, 36.210968999900004 ], [ -115.1933913, 36.210968999900004 ], [ -115.1933913, 36.210966299900001 ], [ -115.1933886, 36.210966299900001 ], [ -115.1933886, 36.210963599899998 ], [ -115.1933859, 36.210963599899998 ], [ -115.1933859, 36.210960899900002 ], [ -115.1933832, 36.210960899900002 ], [ -115.1933832, 36.210958199899999 ], [ -115.1933805, 36.210958199899999 ], [ -115.1933805, 36.210955499900003 ], [ -115.1933778, 36.210955499900003 ], [ -115.1933778, 36.210952799899999 ], [ -115.1933751, 36.210952799899999 ], [ -115.1933751, 36.210950099900003 ], [ -115.1933697, 36.210950099900003 ], [ -115.1933697, 36.2109473999 ], [ -115.193367, 36.2109473999 ], [ -115.193367, 36.210944699900004 ], [ -115.1933616, 36.210944699900004 ], [ -115.1933616, 36.210941999900001 ], [ -115.1933508, 36.210941999900001 ], [ -115.1933508, 36.210944699900004 ], [ -115.19334, 36.210944699900004 ], [ -115.19334, 36.2109473999 ], [ -115.1933292, 36.2109473999 ], [ -115.1933292, 36.210944699900004 ], [ -115.1933157, 36.210944699900004 ], [ -115.1933157, 36.2109473999 ], [ -115.193313, 36.2109473999 ], [ -115.193313, 36.210950099900003 ], [ -115.193286, 36.210950099900003 ], [ -115.193286, 36.2109473999 ], [ -115.1932833, 36.2109473999 ], [ -115.1932833, 36.210944699900004 ], [ -115.1932806, 36.210944699900004 ], [ -115.1932806, 36.210936599900002 ], [ -115.1932833, 36.210936599900002 ], [ -115.1932833, 36.210933899899999 ], [ -115.1932779, 36.210933899899999 ], [ -115.1932779, 36.210931199900003 ], [ -115.1932644, 36.210931199900003 ], [ -115.1932644, 36.210933899899999 ], [ -115.1932509, 36.210933899899999 ], [ -115.1932509, 36.210931199900003 ], [ -115.1932428, 36.210931199900003 ], [ -115.1932428, 36.2109284999 ], [ -115.1932347, 36.2109284999 ], [ -115.1932347, 36.210925799900004 ], [ -115.1932266, 36.210925799900004 ], [ -115.1932266, 36.2109230999 ], [ -115.1932185, 36.2109230999 ], [ -115.1932185, 36.210920399899997 ], [ -115.1932131, 36.210920399899997 ], [ -115.1932131, 36.210917699900001 ], [ -115.1932077, 36.210917699900001 ], [ -115.1932077, 36.210914999899998 ], [ -115.1932023, 36.210914999899998 ], [ -115.1932023, 36.210912299900002 ], [ -115.1931996, 36.210912299900002 ], [ -115.1931996, 36.210909599899999 ], [ -115.1931942, 36.210909599899999 ], [ -115.1931942, 36.210906899900003 ], [ -115.1931834, 36.210906899900003 ], [ -115.1931834, 36.2109041999 ], [ -115.1931699, 36.2109041999 ], [ -115.1931699, 36.210901499900004 ], [ -115.1931645, 36.210901499900004 ], [ -115.1931645, 36.210898799900001 ], [ -115.1931564, 36.210898799900001 ], [ -115.1931564, 36.210896099899998 ], [ -115.193124, 36.210896099899998 ], [ -115.193124, 36.210893399900002 ], [ -115.1931159, 36.210893399900002 ], [ -115.1931159, 36.210890699899998 ], [ -115.1931132, 36.210890699899998 ], [ -115.1931132, 36.210887999900002 ], [ -115.1931078, 36.210887999900002 ], [ -115.1931078, 36.210885299899999 ], [ -115.1931024, 36.210885299899999 ], [ -115.1931024, 36.210882599900003 ], [ -115.193097, 36.210882599900003 ], [ -115.193097, 36.2108798999 ], [ -115.1930862, 36.2108798999 ], [ -115.1930862, 36.210877199900004 ], [ -115.1930835, 36.210877199900004 ], [ -115.1930835, 36.210874499900001 ], [ -115.1930781, 36.210874499900001 ], [ -115.1930781, 36.210871799899998 ], [ -115.1930754, 36.210871799899998 ], [ -115.1930754, 36.210869099900002 ], [ -115.1930727, 36.210869099900002 ], [ -115.1930727, 36.210866399899999 ], [ -115.19307, 36.210866399899999 ], [ -115.19307, 36.2108609999 ], [ -115.1930673, 36.2108609999 ], [ -115.1930673, 36.2108555999 ], [ -115.1930646, 36.2108555999 ], [ -115.1930646, 36.210852899900004 ], [ -115.1930592, 36.210852899900004 ], [ -115.1930592, 36.210850199900001 ], [ -115.1930511, 36.210850199900001 ], [ -115.1930511, 36.210847499899998 ], [ -115.1930376, 36.210847499899998 ], [ -115.1930376, 36.210844799900002 ], [ -115.1930268, 36.210844799900002 ], [ -115.1930268, 36.210842099899999 ], [ -115.1930187, 36.210842099899999 ], [ -115.1930187, 36.210839399900003 ], [ -115.1930106, 36.210839399900003 ], [ -115.1930106, 36.2108366999 ], [ -115.1930052, 36.2108366999 ], [ -115.1930052, 36.210833999900004 ], [ -115.192989, 36.210833999900004 ], [ -115.192989, 36.210831299900001 ], [ -115.1929809, 36.210831299900001 ], [ -115.1929809, 36.210828599899997 ], [ -115.1929755, 36.210828599899997 ], [ -115.1929755, 36.210825899900001 ], [ -115.1929674, 36.210825899900001 ], [ -115.1929674, 36.210823199899998 ], [ -115.192962, 36.210823199899998 ], [ -115.192962, 36.210820499900002 ], [ -115.1929593, 36.210820499900002 ], [ -115.1929593, 36.210817799899999 ], [ -115.1929566, 36.210817799899999 ], [ -115.1929566, 36.210815099900003 ], [ -115.1929539, 36.210815099900003 ], [ -115.1929539, 36.210804299899998 ], [ -115.1929566, 36.210804299899998 ], [ -115.1929566, 36.210796199900003 ], [ -115.1929512, 36.210796199900003 ], [ -115.1929512, 36.210793499899999 ], [ -115.1929458, 36.210793499899999 ], [ -115.1929458, 36.210790799900003 ], [ -115.1929404, 36.210790799900003 ], [ -115.1929404, 36.210785399900004 ], [ -115.1929431, 36.210785399900004 ], [ -115.1929431, 36.210782699900001 ], [ -115.1934426, 36.210782699900001 ], [ -115.1934426, 36.210998699900003 ] ] ] } }
]
}
