{
"type": "FeatureCollection",
"crs": { "type": "name", "properties": { "name": "urn:ogc:def:crs:OGC:1.3:CRS84" } },
"features": [
{ "type": "Feature", "properties": { "value": 255.0 }, "geometry": { "type": "Polygon", "coordinates": [ [ [ -115.2315612, 36.2564127 ], [ -115.2315288, 36.2564127 ], [ -115.2315288, 36.25641 ], [ -115.2315315, 36.25641 ], [ -115.2315315, 36.2564073 ], [ -115.2315342, 36.2564073 ], [ -115.2315342, 36.2564046 ], [ -115.2315396, 36.2564046 ], [ -115.2315396, 36.2564019 ], [ -115.2315585, 36.2564019 ], [ -115.2315585, 36.25641 ], [ -115.2315612, 36.25641 ], [ -115.2315612, 36.2564127 ] ] ] } },
{ "type": "Feature", "properties": { "value": 255.0 }, "geometry": { "type": "Polygon", "coordinates": [ [ [ -115.2312966, 36.2564127 ], [ -115.2310698, 36.2564127 ], [ -115.2310698, 36.2563803 ], [ -115.2310725, 36.2563803 ], [ -115.2310725, 36.2563479 ], [ -115.2310752, 36.2563479 ], [ -115.2310752, 36.2563452 ], [ -115.2310779, 36.2563452 ], [ -115.2310779, 36.2563425 ], [ -115.2311238, 36.2563425 ], [ -115.2311238, 36.2563452 ], [ -115.2311427, 36.2563452 ], [ -115.2311427, 36.2563479 ], [ -115.2311724, 36.2563479 ], [ -115.2311724, 36.2563506 ], [ -115.2311751, 36.2563506 ], [ -115.2311751, 36.2563479 ], [ -115.2311913, 36.2563479 ], [ -115.2311913, 36.2563506 ], [ -115.2312156, 36.2563506 ], [ -115.2312156, 36.2563479 ], [ -115.2312318, 36.2563479 ], [ -115.2312318, 36.2563452 ], [ -115.2312642, 36.2563452 ], [ -115.2312642, 36.2563479 ], [ -115.2312885, 36.2563479 ], [ -115.2312885, 36.2563506 ], [ -115.2312939, 36.2563506 ], [ -115.2312939, 36.2563614 ], [ -115.2312966, 36.2563614 ], [ -115.2312966, 36.2563857 ], [ -115.2312939, 36.2563857 ], [ -115.2312939, 36.2564046 ], [ -115.2312966, 36.2564046 ], [ -115.2312966, 36.2564127 ] ] ] } },
{ "type": "Feature", "properties": { "value": 255.0 }, "geometry": { "type": "Polygon", "coordinates": [ [ [ -115.2309105, 36.2564127 ], [ -115.2306594, 36.2564127 ], [ -115.2306594, 36.2563992 ], [ -115.2306621, 36.2563992 ], [ -115.2306621, 36.2563803 ], [ -115.2306648, 36.2563803 ], [ -115.2306648, 36.2563479 ], [ -115.2306675, 36.2563479 ], [ -115.2306675, 36.2563398 ], [ -115.2306702, 36.2563398 ], [ -115.2306702, 36.2563344 ], [ -115.2306729, 36.2563344 ], [ -115.2306729, 36.256329 ], [ -115.2306756, 36.256329 ], [ -115.2306756, 36.2563155 ], [ -115.2306783, 36.2563155 ], [ -115.2306783, 36.2563047 ], [ -115.230681, 36.2563047 ], [ -115.230681, 36.256302 ], [ -115.2306837, 36.256302 ], [ -115.2306837, 36.2562993 ], [ -115.2307215, 36.2562993 ], [ -115.2307215, 36.2562966 ], [ -115.2307269, 36.2562966 ], [ -115.2307269, 36.2562939 ], [ -115.2307296, 36.2562939 ], [ -115.2307296, 36.2562912 ], [ -115.230735, 36.2562912 ], [ -115.230735, 36.2562885 ], [ -115.230762, 36.2562885 ], [ -115.230762, 36.2562912 ], [ -115.2307674, 36.2562912 ], [ -115.2307674, 36.2562966 ], [ -115.2307701, 36.2562966 ], [ -115.2307701, 36.256302 ], [ -115.2307728, 36.256302 ], [ -115.2307728, 36.2563047 ], [ -115.2307755, 36.2563047 ], [ -115.2307755, 36.2563074 ], [ -115.2307863, 36.2563074 ], [ -115.2307863, 36.2563101 ], [ -115.2307971, 36.2563101 ], [ -115.2307971, 36.2563047 ], [ -115.2307998, 36.2563047 ], [ -115.2307998, 36.2562939 ], [ -115.2308025, 36.2562939 ], [ -115.2308025, 36.2562912 ], [ -115.2308052, 36.2562912 ], [ -115.2308052, 36.2562885 ], [ -115.2308268, 36.2562885 ], [ -115.2308268, 36.2562912 ], [ -115.2308457, 36.2562912 ], [ -115.2308457, 36.2562885 ], [ -115.2308646, 36.2562885 ], [ -115.2308646, 36.2562912 ], [ -115.2308889, 36.2562912 ], [ -115.2308889, 36.2562939 ], [ -115.2309186, 36.2562939 ], [ -115.2309186, 36.2562966 ], [ -115.230924, 36.2562966 ], [ -115.230924, 36.256302 ], [ -115.2309267, 36.256302 ], [ -115.2309267, 36.2563101 ], [ -115.230924, 36.2563101 ], [ -115.230924, 36.2563317 ], [ -115.2309213, 36.2563317 ], [ -115.2309213, 36.2563479 ], [ -115.2309186, 36.2563479 ], [ -115.2309186, 36.2563614 ], [ -115.2309159, 36.2563614 ], [ -115.2309159, 36.2563776 ], [ -115.2309132, 36.2563776 ], [ -115.2309132, 36.2563965 ], [ -115.2309105, 36.2563965 ], [ -115.2309105, 36.2564127 ] ] ] } },
{ "type": "Feature", "properties": { "value": 255.0 }, "geometry": { "type": "Polygon", "coordinates": [ [ [ -115.2305055, 36.2563992 ], [ -115.2304839, 36.2563992 ], [ -115.2304839, 36.2563965 ], [ -115.2304596, 36.2563965 ], [ -115.2304596, 36.2563938 ], [ -115.2304326, 36.2563938 ], [ -115.2304326, 36.2563911 ], [ -115.230411, 36.2563911 ], [ -115.230411, 36.2563884 ], [ -115.2303921, 36.2563884 ], [ -115.2303921, 36.2563857 ], [ -115.2303705, 36.2563857 ], [ -115.2303705, 36.256383 ], [ -115.2303435, 36.256383 ], [ -115.2303435, 36.2563803 ], [ -115.2303111, 36.2563803 ], [ -115.2303111, 36.2563776 ], [ -115.2303003, 36.2563776 ], [ -115.2303003, 36.2563803 ], [ -115.2302976, 36.2563803 ], [ -115.2302976, 36.2562156 ], [ -115.2303327, 36.2562156 ], [ -115.2303327, 36.2562183 ], [ -115.2303543, 36.2562183 ], [ -115.2303543, 36.256221 ], [ -115.230384, 36.256221 ], [ -115.230384, 36.2562237 ], [ -115.2303921, 36.2562237 ], [ -115.2303921, 36.2562264 ], [ -115.2303948, 36.2562264 ], [ -115.2303948, 36.2562291 ], [ -115.2303975, 36.2562291 ], [ -115.2303975, 36.2562399 ], [ -115.2303948, 36.2562399 ], [ -115.2303948, 36.2562534 ], [ -115.2303921, 36.2562534 ], [ -115.2303921, 36.2562723 ], [ -115.2303894, 36.2562723 ], [ -115.2303894, 36.2562966 ], [ -115.2303921, 36.2562966 ], [ -115.2303921, 36.256302 ], [ -115.2303948, 36.256302 ], [ -115.2303948, 36.2563047 ], [ -115.2304056, 36.2563047 ], [ -115.2304056, 36.256302 ], [ -115.230411, 36.256302 ], [ -115.230411, 36.2562993 ], [ -115.2304191, 36.2562993 ], [ -115.2304191, 36.2562966 ], [ -115.2304299, 36.2562966 ], [ -115.2304299, 36.2562993 ], [ -115.2304353, 36.2562993 ], [ -115.2304353, 36.256302 ], [ -115.2304407, 36.256302 ], [ -115.2304407, 36.2563047 ], [ -115.2304434, 36.2563047 ], [ -115.2304434, 36.2563074 ], [ -115.2304488, 36.2563074 ], [ -115.2304488, 36.2563101 ], [ -115.2304704, 36.2563101 ], [ -115.2304704, 36.2563128 ], [ -115.2305109, 36.2563128 ], [ -115.2305109, 36.2563155 ], [ -115.2305136, 36.2563155 ], [ -115.2305136, 36.2563182 ], [ -115.2305163, 36.2563182 ], [ -115.2305163, 36.256356 ], [ -115.2305136, 36.256356 ], [ -115.2305136, 36.2563749 ], [ -115.2305109, 36.2563749 ], [ -115.2305109, 36.2563938 ], [ -115.2305082, 36.2563938 ], [ -115.2305082, 36.2563965 ], [ -115.2305055, 36.2563965 ], [ -115.2305055, 36.2563992 ] ] ] } },
{ "type": "Feature", "properties": { "value": 255.0 }, "geometry": { "type": "Polygon", "coordinates": [ [ [ -115.2310617, 36.2558889 ], [ -115.2310266, 36.2558889 ], [ -115.2310266, 36.2558862 ], [ -115.2310212, 36.2558862 ], [ -115.2310212, 36.2558835 ], [ -115.2310185, 36.2558835 ], [ -115.2310185, 36.2558808 ], [ -115.2310131, 36.2558808 ], [ -115.2310131, 36.2558781 ], [ -115.2310023, 36.2558781 ], [ -115.2310023, 36.2558754 ], [ -115.2308808, 36.2558754 ], [ -115.2308808, 36.2558727 ], [ -115.2308754, 36.2558727 ], [ -115.2308754, 36.25587 ], [ -115.2308727, 36.25587 ], [ -115.2308727, 36.2557836 ], [ -115.2308754, 36.2557836 ], [ -115.2308754, 36.2557701 ], [ -115.2308781, 36.2557701 ], [ -115.2308781, 36.2557566 ], [ -115.2308808, 36.2557566 ], [ -115.2308808, 36.2557512 ], [ -115.2308835, 36.2557512 ], [ -115.2308835, 36.2557485 ], [ -115.2308862, 36.2557485 ], [ -115.2308862, 36.2557458 ], [ -115.2308916, 36.2557458 ], [ -115.2308916, 36.2557431 ], [ -115.2308997, 36.2557431 ], [ -115.2308997, 36.2557404 ], [ -115.2309267, 36.2557404 ], [ -115.2309267, 36.2557431 ], [ -115.2309402, 36.2557431 ], [ -115.2309402, 36.2557458 ], [ -115.2309753, 36.2557458 ], [ -115.2309753, 36.2557431 ], [ -115.2309834, 36.2557431 ], [ -115.2309834, 36.2557404 ], [ -115.2309888, 36.2557404 ], [ -115.2309888, 36.2557377 ], [ -115.2309969, 36.2557377 ], [ -115.2309969, 36.255735 ], [ -115.2310239, 36.255735 ], [ -115.2310239, 36.2557377 ], [ -115.2310671, 36.2557377 ], [ -115.2310671, 36.255735 ], [ -115.2310779, 36.255735 ], [ -115.2310779, 36.2557377 ], [ -115.2310833, 36.2557377 ], [ -115.2310833, 36.2557431 ], [ -115.231086, 36.2557431 ], [ -115.231086, 36.255762 ], [ -115.2310887, 36.255762 ], [ -115.2310887, 36.2557701 ], [ -115.2310914, 36.2557701 ], [ -115.2310914, 36.2557755 ], [ -115.2310941, 36.2557755 ], [ -115.2310941, 36.2557782 ], [ -115.2310968, 36.2557782 ], [ -115.2310968, 36.2557809 ], [ -115.2310995, 36.2557809 ], [ -115.2310995, 36.2557836 ], [ -115.2311022, 36.2557836 ], [ -115.2311022, 36.255789 ], [ -115.2311049, 36.255789 ], [ -115.2311049, 36.2558187 ], [ -115.2311022, 36.2558187 ], [ -115.2311022, 36.2558322 ], [ -115.2310995, 36.2558322 ], [ -115.2310995, 36.2558538 ], [ -115.2311022, 36.2558538 ], [ -115.2311022, 36.2558781 ], [ -115.2310698, 36.2558781 ], [ -115.2310698, 36.2558808 ], [ -115.2310671, 36.2558808 ], [ -115.2310671, 36.2558835 ], [ -115.2310644, 36.2558835 ], [ -115.2310644, 36.2558862 ], [ -115.2310617, 36.2558862 ], [ -115.2310617, 36.2558889 ] ] ] } },
{ "type": "Feature", "properties": { "value": 255.0 }, "geometry": { "type": "Polygon", "coordinates": [ [ [ -115.2306999, 36.2559159 ], [ -115.2306324, 36.2559159 ], [ -115.2306324, 36.2559132 ], [ -115.2306297, 36.2559132 ], [ -115.2306297, 36.2559105 ], [ -115.230627, 36.2559105 ], [ -115.230627, 36.2558781 ], [ -115.2306243, 36.2558781 ], [ -115.2306243, 36.2558754 ], [ -115.2306027, 36.2558754 ], [ -115.2306027, 36.2558727 ], [ -115.2306, 36.2558727 ], [ -115.2306, 36.25587 ], [ -115.2305973, 36.25587 ], [ -115.2305973, 36.2558646 ], [ -115.2305946, 36.2558646 ], [ -115.2305946, 36.2558619 ], [ -115.2305838, 36.2558619 ], [ -115.2305838, 36.2558592 ], [ -115.2305217, 36.2558592 ], [ -115.2305217, 36.2558565 ], [ -115.230519, 36.2558565 ], [ -115.230519, 36.255816 ], [ -115.2305217, 36.255816 ], [ -115.2305217, 36.2557836 ], [ -115.2305244, 36.2557836 ], [ -115.2305244, 36.2557755 ], [ -115.2305271, 36.2557755 ], [ -115.2305271, 36.2557728 ], [ -115.2305298, 36.2557728 ], [ -115.2305298, 36.2557701 ], [ -115.2305325, 36.2557701 ], [ -115.2305325, 36.2557674 ], [ -115.230546, 36.2557674 ], [ -115.230546, 36.2557647 ], [ -115.2305784, 36.2557647 ], [ -115.2305784, 36.255762 ], [ -115.2305973, 36.255762 ], [ -115.2305973, 36.2557593 ], [ -115.2306189, 36.2557593 ], [ -115.2306189, 36.2557566 ], [ -115.230627, 36.2557566 ], [ -115.230627, 36.2557539 ], [ -115.2306351, 36.2557539 ], [ -115.2306351, 36.2557512 ], [ -115.2306405, 36.2557512 ], [ -115.2306405, 36.2557485 ], [ -115.2306702, 36.2557485 ], [ -115.2306702, 36.2557539 ], [ -115.2307323, 36.2557539 ], [ -115.2307323, 36.2557566 ], [ -115.2307431, 36.2557566 ], [ -115.2307431, 36.2557593 ], [ -115.2307512, 36.2557593 ], [ -115.2307512, 36.255762 ], [ -115.2307782, 36.255762 ], [ -115.2307782, 36.2557647 ], [ -115.2307863, 36.2557647 ], [ -115.2307863, 36.2557674 ], [ -115.2307917, 36.2557674 ], [ -115.2307917, 36.2557701 ], [ -115.2307944, 36.2557701 ], [ -115.2307944, 36.2557755 ], [ -115.2307971, 36.2557755 ], [ -115.2307971, 36.2557836 ], [ -115.2307998, 36.2557836 ], [ -115.2307998, 36.2558106 ], [ -115.2307971, 36.2558106 ], [ -115.2307971, 36.2558268 ], [ -115.2307998, 36.2558268 ], [ -115.2307998, 36.2558376 ], [ -115.2308025, 36.2558376 ], [ -115.2308025, 36.2558781 ], [ -115.2307998, 36.2558781 ], [ -115.2307998, 36.2558835 ], [ -115.2307971, 36.2558835 ], [ -115.2307971, 36.2558862 ], [ -115.2307944, 36.2558862 ], [ -115.2307944, 36.2558889 ], [ -115.2307323, 36.2558889 ], [ -115.2307323, 36.2558916 ], [ -115.2307161, 36.2558916 ], [ -115.2307161, 36.2558943 ], [ -115.2307134, 36.2558943 ], [ -115.2307134, 36.255897 ], [ -115.2307107, 36.255897 ], [ -115.2307107, 36.2559105 ], [ -115.230708, 36.2559105 ], [ -115.230708, 36.2559132 ], [ -115.2306999, 36.2559132 ], [ -115.2306999, 36.2559159 ] ] ] } },
{ "type": "Feature", "properties": { "value": 255.0 }, "geometry": { "type": "Polygon", "coordinates": [ [ [ -115.2305109, 36.2557107 ], [ -115.230492, 36.2557107 ], [ -115.230492, 36.255708 ], [ -115.2304839, 36.255708 ], [ -115.2304839, 36.2557053 ], [ -115.2304812, 36.2557053 ], [ -115.2304812, 36.2557026 ], [ -115.2304785, 36.2557026 ], [ -115.2304785, 36.2556972 ], [ -115.2304758, 36.2556972 ], [ -115.2304758, 36.2556621 ], [ -115.2304785, 36.2556621 ], [ -115.2304785, 36.2556567 ], [ -115.2304812, 36.2556567 ], [ -115.2304812, 36.255654 ], [ -115.2305109, 36.255654 ], [ -115.2305109, 36.2556567 ], [ -115.2305136, 36.2556567 ], [ -115.2305136, 36.255708 ], [ -115.2305109, 36.255708 ], [ -115.2305109, 36.2557107 ] ] ] } },
{ "type": "Feature", "properties": { "value": 255.0 }, "geometry": { "type": "Polygon", "coordinates": [ [ [ -115.2304299, 36.2558241 ], [ -115.2303678, 36.2558241 ], [ -115.2303678, 36.2558214 ], [ -115.2303462, 36.2558214 ], [ -115.2303462, 36.2558187 ], [ -115.2303435, 36.2558187 ], [ -115.2303435, 36.255816 ], [ -115.2303408, 36.255816 ], [ -115.2303408, 36.2558052 ], [ -115.2303381, 36.2558052 ], [ -115.2303381, 36.2557782 ], [ -115.2303354, 36.2557782 ], [ -115.2303354, 36.2557053 ], [ -115.2303381, 36.2557053 ], [ -115.2303381, 36.2556567 ], [ -115.2303408, 36.2556567 ], [ -115.2303408, 36.255654 ], [ -115.2304488, 36.255654 ], [ -115.2304488, 36.2556567 ], [ -115.2304515, 36.2556567 ], [ -115.2304515, 36.2556621 ], [ -115.2304542, 36.2556621 ], [ -115.2304542, 36.255681 ], [ -115.2304515, 36.255681 ], [ -115.2304515, 36.2556918 ], [ -115.2304488, 36.2556918 ], [ -115.2304488, 36.2556945 ], [ -115.2304515, 36.2556945 ], [ -115.2304515, 36.2557107 ], [ -115.2304488, 36.2557107 ], [ -115.2304488, 36.2557134 ], [ -115.2304326, 36.2557134 ], [ -115.2304326, 36.2557161 ], [ -115.2304299, 36.2557161 ], [ -115.2304299, 36.2557242 ], [ -115.2304326, 36.2557242 ], [ -115.2304326, 36.2557404 ], [ -115.2304353, 36.2557404 ], [ -115.2304353, 36.2557836 ], [ -115.2304326, 36.2557836 ], [ -115.2304326, 36.2558187 ], [ -115.2304299, 36.2558187 ], [ -115.2304299, 36.2558241 ] ] ] } },
{ "type": "Feature", "properties": { "value": 255.0 }, "geometry": { "type": "Polygon", "coordinates": [ [ [ -115.2315288, 36.2557755 ], [ -115.2314856, 36.2557755 ], [ -115.2314856, 36.2557728 ], [ -115.231464, 36.2557728 ], [ -115.231464, 36.2557701 ], [ -115.2314424, 36.2557701 ], [ -115.2314424, 36.2557674 ], [ -115.2314181, 36.2557674 ], [ -115.2314181, 36.2557647 ], [ -115.2314127, 36.2557647 ], [ -115.2314127, 36.255762 ], [ -115.23141, 36.255762 ], [ -115.23141, 36.2557512 ], [ -115.2314127, 36.2557512 ], [ -115.2314127, 36.2557404 ], [ -115.2314154, 36.2557404 ], [ -115.2314154, 36.2557296 ], [ -115.2314127, 36.2557296 ], [ -115.2314127, 36.2557215 ], [ -115.2314154, 36.2557215 ], [ -115.2314154, 36.2557134 ], [ -115.2314181, 36.2557134 ], [ -115.2314181, 36.2557107 ], [ -115.231437, 36.2557107 ], [ -115.231437, 36.255708 ], [ -115.2314586, 36.255708 ], [ -115.2314586, 36.2557053 ], [ -115.2314667, 36.2557053 ], [ -115.2314667, 36.2557026 ], [ -115.2314721, 36.2557026 ], [ -115.2314721, 36.2556999 ], [ -115.2314748, 36.2556999 ], [ -115.2314748, 36.2556972 ], [ -115.2314775, 36.2556972 ], [ -115.2314775, 36.2556864 ], [ -115.2314748, 36.2556864 ], [ -115.2314748, 36.2556837 ], [ -115.2314694, 36.2556837 ], [ -115.2314694, 36.255681 ], [ -115.2314613, 36.255681 ], [ -115.2314613, 36.2556783 ], [ -115.2314559, 36.2556783 ], [ -115.2314559, 36.2556756 ], [ -115.2314532, 36.2556756 ], [ -115.2314532, 36.2556594 ], [ -115.2314559, 36.2556594 ], [ -115.2314559, 36.2556324 ], [ -115.2314586, 36.2556324 ], [ -115.2314586, 36.2556297 ], [ -115.2314613, 36.2556297 ], [ -115.2314613, 36.255627 ], [ -115.231464, 36.255627 ], [ -115.231464, 36.2556243 ], [ -115.2314694, 36.2556243 ], [ -115.2314694, 36.2556216 ], [ -115.2314721, 36.2556216 ], [ -115.2314721, 36.2556189 ], [ -115.2314775, 36.2556189 ], [ -115.2314775, 36.2556162 ], [ -115.2314802, 36.2556162 ], [ -115.2314802, 36.2556135 ], [ -115.2314883, 36.2556135 ], [ -115.2314883, 36.2556108 ], [ -115.2315207, 36.2556108 ], [ -115.2315207, 36.2556135 ], [ -115.2315504, 36.2556135 ], [ -115.2315504, 36.2556162 ], [ -115.231572, 36.2556162 ], [ -115.231572, 36.2556189 ], [ -115.2315963, 36.2556189 ], [ -115.2315963, 36.2556216 ], [ -115.2316233, 36.2556216 ], [ -115.2316233, 36.2556243 ], [ -115.2316287, 36.2556243 ], [ -115.2316287, 36.255627 ], [ -115.2316314, 36.255627 ], [ -115.2316314, 36.2556297 ], [ -115.2316341, 36.2556297 ], [ -115.2316341, 36.2556324 ], [ -115.2316368, 36.2556324 ], [ -115.2316368, 36.2556351 ], [ -115.2316395, 36.2556351 ], [ -115.2316395, 36.2556378 ], [ -115.2316422, 36.2556378 ], [ -115.2316422, 36.2556891 ], [ -115.2316395, 36.2556891 ], [ -115.2316395, 36.2557431 ], [ -115.2316368, 36.2557431 ], [ -115.2316368, 36.2557539 ], [ -115.2316341, 36.2557539 ], [ -115.2316341, 36.2557566 ], [ -115.2316071, 36.2557566 ], [ -115.2316071, 36.2557539 ], [ -115.2315531, 36.2557539 ], [ -115.2315531, 36.2557566 ], [ -115.2315504, 36.2557566 ], [ -115.2315504, 36.2557674 ], [ -115.2315477, 36.2557674 ], [ -115.2315477, 36.2557701 ], [ -115.2315423, 36.2557701 ], [ -115.2315423, 36.2557728 ], [ -115.2315288, 36.2557728 ], [ -115.2315288, 36.2557755 ] ] ] } },
{ "type": "Feature", "properties": { "value": 255.0 }, "geometry": { "type": "Polygon", "coordinates": [ [ [ -115.2316935, 36.2555865 ], [ -115.2316854, 36.2555865 ], [ -115.2316854, 36.2555838 ], [ -115.23168, 36.2555838 ], [ -115.23168, 36.2555811 ], [ -115.2316665, 36.2555811 ], [ -115.2316665, 36.2555784 ], [ -115.2316557, 36.2555784 ], [ -115.2316557, 36.2555757 ], [ -115.2316611, 36.2555757 ], [ -115.2316611, 36.255573 ], [ -115.2316746, 36.255573 ], [ -115.2316746, 36.2555703 ], [ -115.2316881, 36.2555703 ], [ -115.2316881, 36.2555676 ], [ -115.2316935, 36.2555676 ], [ -115.2316935, 36.2555703 ], [ -115.2316989, 36.2555703 ], [ -115.2316989, 36.2555838 ], [ -115.2316935, 36.2555838 ], [ -115.2316935, 36.2555865 ] ] ] } },
{ "type": "Feature", "properties": { "value": 255.0 }, "geometry": { "type": "Polygon", "coordinates": [ [ [ -115.2311967, 36.2555784 ], [ -115.2311859, 36.2555784 ], [ -115.2311859, 36.2555757 ], [ -115.2311805, 36.2555757 ], [ -115.2311805, 36.2555649 ], [ -115.2311832, 36.2555649 ], [ -115.2311832, 36.2555622 ], [ -115.2311967, 36.2555622 ], [ -115.2311967, 36.2555649 ], [ -115.2311994, 36.2555649 ], [ -115.2311994, 36.2555757 ], [ -115.2311967, 36.2555757 ], [ -115.2311967, 36.2555784 ] ] ] } },
{ "type": "Feature", "properties": { "value": 255.0 }, "geometry": { "type": "Polygon", "coordinates": [ [ [ -115.230843, 36.2555379 ], [ -115.2308349, 36.2555379 ], [ -115.2308349, 36.2555352 ], [ -115.2308322, 36.2555352 ], [ -115.2308322, 36.2555055 ], [ -115.2308349, 36.2555055 ], [ -115.2308349, 36.2555028 ], [ -115.2308484, 36.2555028 ], [ -115.2308484, 36.2555055 ], [ -115.2308511, 36.2555055 ], [ -115.2308511, 36.2555325 ], [ -115.2308484, 36.2555325 ], [ -115.2308484, 36.2555352 ], [ -115.230843, 36.2555352 ], [ -115.230843, 36.2555379 ] ] ] } },
{ "type": "Feature", "properties": { "value": 255.0 }, "geometry": { "type": "Polygon", "coordinates": [ [ [ -115.2307755, 36.2555406 ], [ -115.2307485, 36.2555406 ], [ -115.2307485, 36.2555379 ], [ -115.2307269, 36.2555379 ], [ -115.2307269, 36.2555352 ], [ -115.2307026, 36.2555352 ], [ -115.2307026, 36.2555325 ], [ -115.2306945, 36.2555325 ], [ -115.2306945, 36.2555298 ], [ -115.2306918, 36.2555298 ], [ -115.2306918, 36.2555082 ], [ -115.2306945, 36.2555082 ], [ -115.2306945, 36.2554704 ], [ -115.2306972, 36.2554704 ], [ -115.2306972, 36.255465 ], [ -115.230735, 36.255465 ], [ -115.230735, 36.2554677 ], [ -115.2307566, 36.2554677 ], [ -115.2307566, 36.2554704 ], [ -115.2307782, 36.2554704 ], [ -115.2307782, 36.2554731 ], [ -115.2307836, 36.2554731 ], [ -115.2307836, 36.2554785 ], [ -115.2307863, 36.2554785 ], [ -115.2307863, 36.2554893 ], [ -115.2307836, 36.2554893 ], [ -115.2307836, 36.2555055 ], [ -115.2307809, 36.2555055 ], [ -115.2307809, 36.2555298 ], [ -115.2307782, 36.2555298 ], [ -115.2307782, 36.2555379 ], [ -115.2307755, 36.2555379 ], [ -115.2307755, 36.2555406 ] ] ] } },
{ "type": "Feature", "properties": { "value": 255.0 }, "geometry": { "type": "Polygon", "coordinates": [ [ [ -115.2306702, 36.2554542 ], [ -115.2306567, 36.2554542 ], [ -115.2306567, 36.2554515 ], [ -115.230654, 36.2554515 ], [ -115.230654, 36.2554326 ], [ -115.2306567, 36.2554326 ], [ -115.2306567, 36.2554299 ], [ -115.2306594, 36.2554299 ], [ -115.2306594, 36.2554272 ], [ -115.2306702, 36.2554272 ], [ -115.2306702, 36.2554542 ] ] ] } },
{ "type": "Feature", "properties": { "value": 255.0 }, "geometry": { "type": "Polygon", "coordinates": [ [ [ -115.2305973, 36.2554515 ], [ -115.2305811, 36.2554515 ], [ -115.2305811, 36.2554488 ], [ -115.2305703, 36.2554488 ], [ -115.2305703, 36.2554461 ], [ -115.2305676, 36.2554461 ], [ -115.2305676, 36.2554434 ], [ -115.2305649, 36.2554434 ], [ -115.2305649, 36.2554218 ], [ -115.2305676, 36.2554218 ], [ -115.2305676, 36.2554191 ], [ -115.2305757, 36.2554191 ], [ -115.2305757, 36.2554164 ], [ -115.2305973, 36.2554164 ], [ -115.2305973, 36.2554191 ], [ -115.2306054, 36.2554191 ], [ -115.2306054, 36.2554218 ], [ -115.2306135, 36.2554218 ], [ -115.2306135, 36.2554191 ], [ -115.2306351, 36.2554191 ], [ -115.2306351, 36.2554245 ], [ -115.2306378, 36.2554245 ], [ -115.2306378, 36.2554434 ], [ -115.2306351, 36.2554434 ], [ -115.2306351, 36.2554461 ], [ -115.2306324, 36.2554461 ], [ -115.2306324, 36.2554488 ], [ -115.2306108, 36.2554488 ], [ -115.2306108, 36.2554461 ], [ -115.2306054, 36.2554461 ], [ -115.2306054, 36.2554488 ], [ -115.2305973, 36.2554488 ], [ -115.2305973, 36.2554515 ] ] ] } },
{ "type": "Feature", "properties": { "value": 255.0 }, "geometry": { "type": "Polygon", "coordinates": [ [ [ -115.2310239, 36.2555406 ], [ -115.2308727, 36.2555406 ], [ -115.2308727, 36.2555379 ], [ -115.23087, 36.2555379 ], [ -115.23087, 36.2555352 ], [ -115.2308673, 36.2555352 ], [ -115.2308673, 36.2555055 ], [ -115.23087, 36.2555055 ], [ -115.23087, 36.2554866 ], [ -115.2308673, 36.2554866 ], [ -115.2308673, 36.2554083 ], [ -115.23087, 36.2554083 ], [ -115.23087, 36.2554029 ], [ -115.230897, 36.2554029 ], [ -115.230897, 36.2554002 ], [ -115.2309483, 36.2554002 ], [ -115.2309483, 36.2554029 ], [ -115.2310212, 36.2554029 ], [ -115.2310212, 36.2554056 ], [ -115.2310671, 36.2554056 ], [ -115.2310671, 36.2554029 ], [ -115.2311022, 36.2554029 ], [ -115.2311022, 36.2554056 ], [ -115.2311103, 36.2554056 ], [ -115.2311103, 36.255411 ], [ -115.231113, 36.255411 ], [ -115.231113, 36.2554893 ], [ -115.2311103, 36.2554893 ], [ -115.2311103, 36.255492 ], [ -115.2310293, 36.255492 ], [ -115.2310293, 36.2554974 ], [ -115.2310266, 36.2554974 ], [ -115.2310266, 36.2555379 ], [ -115.2310239, 36.2555379 ], [ -115.2310239, 36.2555406 ] ] ] } },
{ "type": "Feature", "properties": { "value": 255.0 }, "geometry": { "type": "Polygon", "coordinates": [ [ [ -115.2305649, 36.2553732 ], [ -115.2305595, 36.2553732 ], [ -115.2305595, 36.2553705 ], [ -115.2305514, 36.2553705 ], [ -115.2305514, 36.2553678 ], [ -115.2305541, 36.2553678 ], [ -115.2305541, 36.2553651 ], [ -115.2305595, 36.2553651 ], [ -115.2305595, 36.2553624 ], [ -115.2305622, 36.2553624 ], [ -115.2305622, 36.2553597 ], [ -115.2305649, 36.2553597 ], [ -115.2305649, 36.255357 ], [ -115.2305676, 36.255357 ], [ -115.2305676, 36.2553705 ], [ -115.2305649, 36.2553705 ], [ -115.2305649, 36.2553732 ] ] ] } },
{ "type": "Feature", "properties": { "value": 255.0 }, "geometry": { "type": "Polygon", "coordinates": [ [ [ -115.2314073, 36.2555568 ], [ -115.2313317, 36.2555568 ], [ -115.2313317, 36.2555541 ], [ -115.2313128, 36.2555541 ], [ -115.2313128, 36.2555514 ], [ -115.2313047, 36.2555514 ], [ -115.2313047, 36.2555244 ], [ -115.2313074, 36.2555244 ], [ -115.2313074, 36.2555163 ], [ -115.2313101, 36.2555163 ], [ -115.2313101, 36.2555109 ], [ -115.2313128, 36.2555109 ], [ -115.2313128, 36.2555028 ], [ -115.2313155, 36.2555028 ], [ -115.2313155, 36.2554974 ], [ -115.2313182, 36.2554974 ], [ -115.2313182, 36.2554947 ], [ -115.2313209, 36.2554947 ], [ -115.2313209, 36.255492 ], [ -115.2313263, 36.255492 ], [ -115.2313263, 36.2554893 ], [ -115.2313317, 36.2554893 ], [ -115.2313317, 36.2554866 ], [ -115.2313371, 36.2554866 ], [ -115.2313371, 36.2554839 ], [ -115.231356, 36.2554839 ], [ -115.231356, 36.2554812 ], [ -115.2313695, 36.2554812 ], [ -115.2313695, 36.2554839 ], [ -115.2313884, 36.2554839 ], [ -115.2313884, 36.2554866 ], [ -115.2313992, 36.2554866 ], [ -115.2313992, 36.2554839 ], [ -115.2314019, 36.2554839 ], [ -115.2314019, 36.2554758 ], [ -115.2314046, 36.2554758 ], [ -115.2314046, 36.2554623 ], [ -115.2314073, 36.2554623 ], [ -115.2314073, 36.2554542 ], [ -115.23141, 36.2554542 ], [ -115.23141, 36.2554461 ], [ -115.2314127, 36.2554461 ], [ -115.2314127, 36.2554434 ], [ -115.2314154, 36.2554434 ], [ -115.2314154, 36.2554407 ], [ -115.2314262, 36.2554407 ], [ -115.2314262, 36.255438 ], [ -115.2314478, 36.255438 ], [ -115.2314478, 36.2554353 ], [ -115.2314532, 36.2554353 ], [ -115.2314532, 36.2554326 ], [ -115.2314586, 36.2554326 ], [ -115.2314586, 36.2554299 ], [ -115.2314613, 36.2554299 ], [ -115.2314613, 36.2554272 ], [ -115.231464, 36.2554272 ], [ -115.231464, 36.2554245 ], [ -115.2314694, 36.2554245 ], [ -115.2314694, 36.2554218 ], [ -115.2314721, 36.2554218 ], [ -115.2314721, 36.2554191 ], [ -115.2314775, 36.2554191 ], [ -115.2314775, 36.2554164 ], [ -115.2314802, 36.2554164 ], [ -115.2314802, 36.2554137 ], [ -115.2314829, 36.2554137 ], [ -115.2314829, 36.255411 ], [ -115.2314856, 36.255411 ], [ -115.2314856, 36.2554083 ], [ -115.2314883, 36.2554083 ], [ -115.2314883, 36.2554056 ], [ -115.231491, 36.2554056 ], [ -115.231491, 36.2554029 ], [ -115.2314937, 36.2554029 ], [ -115.2314937, 36.2554002 ], [ -115.2314964, 36.2554002 ], [ -115.2314964, 36.2553975 ], [ -115.2314991, 36.2553975 ], [ -115.2314991, 36.2553948 ], [ -115.2315045, 36.2553948 ], [ -115.2315045, 36.2553921 ], [ -115.2315072, 36.2553921 ], [ -115.2315072, 36.2553894 ], [ -115.2315099, 36.2553894 ], [ -115.2315099, 36.2553867 ], [ -115.2315126, 36.2553867 ], [ -115.2315126, 36.255384 ], [ -115.231518, 36.255384 ], [ -115.231518, 36.2553813 ], [ -115.2315288, 36.2553813 ], [ -115.2315288, 36.2553786 ], [ -115.2315315, 36.2553786 ], [ -115.2315315, 36.2553732 ], [ -115.2315342, 36.2553732 ], [ -115.2315342, 36.2553678 ], [ -115.2315315, 36.2553678 ], [ -115.2315315, 36.2553651 ], [ -115.2315288, 36.2553651 ], [ -115.2315288, 36.2553597 ], [ -115.2315261, 36.2553597 ], [ -115.2315261, 36.2553543 ], [ -115.2315234, 36.2553543 ], [ -115.2315234, 36.2553516 ], [ -115.2315207, 36.2553516 ], [ -115.2315207, 36.2553489 ], [ -115.2315234, 36.2553489 ], [ -115.2315234, 36.2553435 ], [ -115.2315288, 36.2553435 ], [ -115.2315288, 36.2553408 ], [ -115.2315315, 36.2553408 ], [ -115.2315315, 36.2553381 ], [ -115.2315396, 36.2553381 ], [ -115.2315396, 36.2553354 ], [ -115.2315828, 36.2553354 ], [ -115.2315828, 36.2553381 ], [ -115.2316098, 36.2553381 ], [ -115.2316098, 36.2553408 ], [ -115.2316179, 36.2553408 ], [ -115.2316179, 36.2553435 ], [ -115.2316206, 36.2553435 ], [ -115.2316206, 36.2553489 ], [ -115.2316233, 36.2553489 ], [ -115.2316233, 36.2553813 ], [ -115.2316206, 36.2553813 ], [ -115.2316206, 36.2553894 ], [ -115.2316179, 36.2553894 ], [ -115.2316179, 36.2554029 ], [ -115.2316152, 36.2554029 ], [ -115.2316152, 36.2554218 ], [ -115.2316179, 36.2554218 ], [ -115.2316179, 36.2554272 ], [ -115.2316206, 36.2554272 ], [ -115.2316206, 36.2554299 ], [ -115.2316233, 36.2554299 ], [ -115.2316233, 36.2554326 ], [ -115.231626, 36.2554326 ], [ -115.231626, 36.255438 ], [ -115.2316287, 36.255438 ], [ -115.2316287, 36.2554434 ], [ -115.2316314, 36.2554434 ], [ -115.2316314, 36.2554542 ], [ -115.2316341, 36.2554542 ], [ -115.2316341, 36.2554596 ], [ -115.2316314, 36.2554596 ], [ -115.2316314, 36.255465 ], [ -115.2316287, 36.255465 ], [ -115.2316287, 36.2554677 ], [ -115.2316206, 36.2554677 ], [ -115.2316206, 36.255465 ], [ -115.2316044, 36.255465 ], [ -115.2316044, 36.2554677 ], [ -115.2316017, 36.2554677 ], [ -115.2316017, 36.2554704 ], [ -115.231599, 36.2554704 ], [ -115.231599, 36.2554974 ], [ -115.2315963, 36.2554974 ], [ -115.2315963, 36.2555109 ], [ -115.2315936, 36.2555109 ], [ -115.2315936, 36.2555163 ], [ -115.2315882, 36.2555163 ], [ -115.2315882, 36.255519 ], [ -115.2315855, 36.255519 ], [ -115.2315855, 36.2555298 ], [ -115.2315828, 36.2555298 ], [ -115.2315828, 36.2555325 ], [ -115.2315801, 36.2555325 ], [ -115.2315801, 36.2555352 ], [ -115.2315747, 36.2555352 ], [ -115.2315747, 36.2555379 ], [ -115.2315261, 36.2555379 ], [ -115.2315261, 36.2555352 ], [ -115.2315072, 36.2555352 ], [ -115.2315072, 36.2555325 ], [ -115.231491, 36.2555325 ], [ -115.231491, 36.2555298 ], [ -115.2314748, 36.2555298 ], [ -115.2314748, 36.2555271 ], [ -115.2314586, 36.2555271 ], [ -115.2314586, 36.2555244 ], [ -115.2314532, 36.2555244 ], [ -115.2314532, 36.2555217 ], [ -115.2314505, 36.2555217 ], [ -115.2314505, 36.2555136 ], [ -115.2314478, 36.2555136 ], [ -115.2314478, 36.2555109 ], [ -115.2314451, 36.2555109 ], [ -115.2314451, 36.2555082 ], [ -115.2314343, 36.2555082 ], [ -115.2314343, 36.2555055 ], [ -115.2314181, 36.2555055 ], [ -115.2314181, 36.2555109 ], [ -115.2314154, 36.2555109 ], [ -115.2314154, 36.2555325 ], [ -115.2314127, 36.2555325 ], [ -115.2314127, 36.255546 ], [ -115.23141, 36.255546 ], [ -115.23141, 36.2555541 ], [ -115.2314073, 36.2555541 ], [ -115.2314073, 36.2555568 ] ] ] } },
{ "type": "Feature", "properties": { "value": 255.0 }, "geometry": { "type": "Polygon", "coordinates": [ [ [ -115.2309888, 36.2552625 ], [ -115.2309753, 36.2552625 ], [ -115.2309753, 36.2552598 ], [ -115.2309726, 36.2552598 ], [ -115.2309726, 36.2552517 ], [ -115.2309753, 36.2552517 ], [ -115.2309753, 36.255249 ], [ -115.2309861, 36.255249 ], [ -115.2309861, 36.2552517 ], [ -115.2309888, 36.2552517 ], [ -115.2309888, 36.2552625 ] ] ] } },
{ "type": "Feature", "properties": { "value": 255.0 }, "geometry": { "type": "Polygon", "coordinates": [ [ [ -115.2320526, 36.2552787 ], [ -115.2320472, 36.2552787 ], [ -115.2320472, 36.255276 ], [ -115.2320445, 36.255276 ], [ -115.2320445, 36.2552787 ], [ -115.2320337, 36.2552787 ], [ -115.2320337, 36.255276 ], [ -115.232031, 36.255276 ], [ -115.232031, 36.2552571 ], [ -115.2320337, 36.2552571 ], [ -115.2320337, 36.2552544 ], [ -115.2320364, 36.2552544 ], [ -115.2320364, 36.2552517 ], [ -115.2320391, 36.2552517 ], [ -115.2320391, 36.2552463 ], [ -115.2320364, 36.2552463 ], [ -115.2320364, 36.2552436 ], [ -115.2320337, 36.2552436 ], [ -115.2320337, 36.2552382 ], [ -115.232031, 36.2552382 ], [ -115.232031, 36.255222 ], [ -115.2320337, 36.255222 ], [ -115.2320337, 36.2552193 ], [ -115.2320526, 36.2552193 ], [ -115.2320526, 36.2552787 ] ] ] } },
{ "type": "Feature", "properties": { "value": 255.0 }, "geometry": { "type": "Polygon", "coordinates": [ [ [ -115.2304569, 36.2552463 ], [ -115.2304218, 36.2552463 ], [ -115.2304218, 36.2552436 ], [ -115.230411, 36.2552436 ], [ -115.230411, 36.2552409 ], [ -115.2304056, 36.2552409 ], [ -115.2304056, 36.2552274 ], [ -115.2304029, 36.2552274 ], [ -115.2304029, 36.255222 ], [ -115.2304056, 36.255222 ], [ -115.2304056, 36.2552166 ], [ -115.230411, 36.2552166 ], [ -115.230411, 36.2552139 ], [ -115.2304434, 36.2552139 ], [ -115.2304434, 36.2552166 ], [ -115.2304542, 36.2552166 ], [ -115.2304542, 36.2552193 ], [ -115.2304569, 36.2552193 ], [ -115.2304569, 36.2552247 ], [ -115.2304596, 36.2552247 ], [ -115.2304596, 36.2552328 ], [ -115.2304623, 36.2552328 ], [ -115.2304623, 36.2552382 ], [ -115.2304596, 36.2552382 ], [ -115.2304596, 36.2552436 ], [ -115.2304569, 36.2552436 ], [ -115.2304569, 36.2552463 ] ] ] } },
{ "type": "Feature", "properties": { "value": 255.0 }, "geometry": { "type": "Polygon", "coordinates": [ [ [ -115.2307836, 36.2554002 ], [ -115.2307593, 36.2554002 ], [ -115.2307593, 36.2553975 ], [ -115.2307323, 36.2553975 ], [ -115.2307323, 36.2553948 ], [ -115.2307026, 36.2553948 ], [ -115.2307026, 36.2553921 ], [ -115.2306729, 36.2553921 ], [ -115.2306729, 36.2553894 ], [ -115.2306702, 36.2553894 ], [ -115.2306702, 36.2553138 ], [ -115.2306729, 36.2553138 ], [ -115.2306729, 36.2552976 ], [ -115.2306702, 36.2552976 ], [ -115.2306702, 36.2552949 ], [ -115.2306729, 36.2552949 ], [ -115.2306729, 36.2552706 ], [ -115.2306756, 36.2552706 ], [ -115.2306756, 36.2552652 ], [ -115.2306783, 36.2552652 ], [ -115.2306783, 36.2552517 ], [ -115.2306756, 36.2552517 ], [ -115.2306756, 36.2552355 ], [ -115.2306783, 36.2552355 ], [ -115.2306783, 36.2552112 ], [ -115.230681, 36.2552112 ], [ -115.230681, 36.2552085 ], [ -115.2306837, 36.2552085 ], [ -115.2306837, 36.2552058 ], [ -115.2307107, 36.2552058 ], [ -115.2307107, 36.2552085 ], [ -115.2307404, 36.2552085 ], [ -115.2307404, 36.2552112 ], [ -115.2307674, 36.2552112 ], [ -115.2307674, 36.2552139 ], [ -115.2307863, 36.2552139 ], [ -115.2307863, 36.2552166 ], [ -115.2308052, 36.2552166 ], [ -115.2308052, 36.2552193 ], [ -115.2308187, 36.2552193 ], [ -115.2308187, 36.255222 ], [ -115.2308268, 36.255222 ], [ -115.2308268, 36.2552247 ], [ -115.2308295, 36.2552247 ], [ -115.2308295, 36.2552301 ], [ -115.2308322, 36.2552301 ], [ -115.2308322, 36.2552436 ], [ -115.2308295, 36.2552436 ], [ -115.2308295, 36.2552517 ], [ -115.2308268, 36.2552517 ], [ -115.2308268, 36.2552544 ], [ -115.2308106, 36.2552544 ], [ -115.2308106, 36.2552571 ], [ -115.2308079, 36.2552571 ], [ -115.2308079, 36.2552598 ], [ -115.2308052, 36.2552598 ], [ -115.2308052, 36.2552733 ], [ -115.2308025, 36.2552733 ], [ -115.2308025, 36.2552949 ], [ -115.2307998, 36.2552949 ], [ -115.2307998, 36.2553138 ], [ -115.2307971, 36.2553138 ], [ -115.2307971, 36.25533 ], [ -115.2307944, 36.25533 ], [ -115.2307944, 36.2553462 ], [ -115.2307917, 36.2553462 ], [ -115.2307917, 36.2553651 ], [ -115.230789, 36.2553651 ], [ -115.230789, 36.255384 ], [ -115.2307863, 36.255384 ], [ -115.2307863, 36.2553975 ], [ -115.2307836, 36.2553975 ], [ -115.2307836, 36.2554002 ] ] ] } },
{ "type": "Feature", "properties": { "value": 255.0 }, "geometry": { "type": "Polygon", "coordinates": [ [ [ -115.2315612, 36.255276 ], [ -115.2315261, 36.255276 ], [ -115.2315261, 36.2552733 ], [ -115.2314613, 36.2552733 ], [ -115.2314613, 36.2552706 ], [ -115.2314559, 36.2552706 ], [ -115.2314559, 36.2552679 ], [ -115.2314532, 36.2552679 ], [ -115.2314532, 36.2552652 ], [ -115.2314505, 36.2552652 ], [ -115.2314505, 36.2552571 ], [ -115.2314478, 36.2552571 ], [ -115.2314478, 36.2552463 ], [ -115.2314451, 36.2552463 ], [ -115.2314451, 36.2552355 ], [ -115.2314478, 36.2552355 ], [ -115.2314478, 36.2552301 ], [ -115.2314505, 36.2552301 ], [ -115.2314505, 36.2552247 ], [ -115.2314532, 36.2552247 ], [ -115.2314532, 36.2552112 ], [ -115.2314505, 36.2552112 ], [ -115.2314505, 36.2552085 ], [ -115.2314451, 36.2552085 ], [ -115.2314451, 36.2552058 ], [ -115.2314424, 36.2552058 ], [ -115.2314424, 36.2552004 ], [ -115.2314397, 36.2552004 ], [ -115.2314397, 36.2551896 ], [ -115.2314424, 36.2551896 ], [ -115.2314424, 36.2551842 ], [ -115.2314397, 36.2551842 ], [ -115.2314397, 36.2551788 ], [ -115.231437, 36.2551788 ], [ -115.231437, 36.2551761 ], [ -115.2313992, 36.2551761 ], [ -115.2313992, 36.2551734 ], [ -115.2313884, 36.2551734 ], [ -115.2313884, 36.2550924 ], [ -115.2313911, 36.2550924 ], [ -115.2313911, 36.2550627 ], [ -115.2313938, 36.2550627 ], [ -115.2313938, 36.25506 ], [ -115.2313992, 36.25506 ], [ -115.2313992, 36.2550573 ], [ -115.2314559, 36.2550573 ], [ -115.2314559, 36.25506 ], [ -115.231464, 36.25506 ], [ -115.231464, 36.2550627 ], [ -115.2314667, 36.2550627 ], [ -115.2314667, 36.2550654 ], [ -115.2314694, 36.2550654 ], [ -115.2314694, 36.2551248 ], [ -115.2314721, 36.2551248 ], [ -115.2314721, 36.2551302 ], [ -115.2314748, 36.2551302 ], [ -115.2314748, 36.2551356 ], [ -115.2314802, 36.2551356 ], [ -115.2314802, 36.2551383 ], [ -115.2314856, 36.2551383 ], [ -115.2314856, 36.255141 ], [ -115.231518, 36.255141 ], [ -115.231518, 36.2551437 ], [ -115.231572, 36.2551437 ], [ -115.231572, 36.255141 ], [ -115.2316368, 36.255141 ], [ -115.2316368, 36.2551437 ], [ -115.2316395, 36.2551437 ], [ -115.2316395, 36.2551464 ], [ -115.2316422, 36.2551464 ], [ -115.2316422, 36.2551653 ], [ -115.2316395, 36.2551653 ], [ -115.2316395, 36.2551788 ], [ -115.2316368, 36.2551788 ], [ -115.2316368, 36.2551977 ], [ -115.2316395, 36.2551977 ], [ -115.2316395, 36.2552112 ], [ -115.2316422, 36.2552112 ], [ -115.2316422, 36.2552679 ], [ -115.2316395, 36.2552679 ], [ -115.2316395, 36.2552706 ], [ -115.2316368, 36.2552706 ], [ -115.2316368, 36.2552733 ], [ -115.2316044, 36.2552733 ], [ -115.2316044, 36.2552706 ], [ -115.2315963, 36.2552706 ], [ -115.2315963, 36.2552733 ], [ -115.2315612, 36.2552733 ], [ -115.2315612, 36.255276 ] ] ] } },
{ "type": "Feature", "properties": { "value": 255.0 }, "geometry": { "type": "Polygon", "coordinates": [ [ [ -115.2303516, 36.254979 ], [ -115.2303408, 36.254979 ], [ -115.2303408, 36.2549628 ], [ -115.2303435, 36.2549628 ], [ -115.2303435, 36.2549601 ], [ -115.2303516, 36.2549601 ], [ -115.2303516, 36.2549628 ], [ -115.230357, 36.2549628 ], [ -115.230357, 36.2549655 ], [ -115.2303597, 36.2549655 ], [ -115.2303597, 36.2549628 ], [ -115.2303624, 36.2549628 ], [ -115.2303624, 36.2549655 ], [ -115.2303651, 36.2549655 ], [ -115.2303651, 36.2549682 ], [ -115.2303678, 36.2549682 ], [ -115.2303678, 36.2549709 ], [ -115.2303651, 36.2549709 ], [ -115.2303651, 36.2549736 ], [ -115.2303543, 36.2549736 ], [ -115.2303543, 36.2549763 ], [ -115.2303516, 36.2549763 ], [ -115.2303516, 36.254979 ] ] ] } },
{ "type": "Feature", "properties": { "value": 255.0 }, "geometry": { "type": "Polygon", "coordinates": [ [ [ -115.2304731, 36.2549763 ], [ -115.2304353, 36.2549763 ], [ -115.2304353, 36.2549736 ], [ -115.2304272, 36.2549736 ], [ -115.2304272, 36.2549709 ], [ -115.2304245, 36.2549709 ], [ -115.2304245, 36.2549601 ], [ -115.2304272, 36.2549601 ], [ -115.2304272, 36.2549547 ], [ -115.2304299, 36.2549547 ], [ -115.2304299, 36.2549142 ], [ -115.2304326, 36.2549142 ], [ -115.2304326, 36.2549115 ], [ -115.2304785, 36.2549115 ], [ -115.2304785, 36.2549142 ], [ -115.2305136, 36.2549142 ], [ -115.2305136, 36.2549169 ], [ -115.2305325, 36.2549169 ], [ -115.2305325, 36.2549196 ], [ -115.2305433, 36.2549196 ], [ -115.2305433, 36.2549223 ], [ -115.230546, 36.2549223 ], [ -115.230546, 36.2549493 ], [ -115.2305433, 36.2549493 ], [ -115.2305433, 36.254952 ], [ -115.2305406, 36.254952 ], [ -115.2305406, 36.2549547 ], [ -115.2304785, 36.2549547 ], [ -115.2304785, 36.2549574 ], [ -115.2304758, 36.2549574 ], [ -115.2304758, 36.2549628 ], [ -115.2304785, 36.2549628 ], [ -115.2304785, 36.2549709 ], [ -115.2304758, 36.2549709 ], [ -115.2304758, 36.2549736 ], [ -115.2304731, 36.2549736 ], [ -115.2304731, 36.2549763 ] ] ] } },
{ "type": "Feature", "properties": { "value": 255.0 }, "geometry": { "type": "Polygon", "coordinates": [ [ [ -115.2303597, 36.2549331 ], [ -115.2303408, 36.2549331 ], [ -115.2303408, 36.2549304 ], [ -115.2303381, 36.2549304 ], [ -115.2303381, 36.2549142 ], [ -115.2303408, 36.2549142 ], [ -115.2303408, 36.2549115 ], [ -115.230357, 36.2549115 ], [ -115.230357, 36.2549142 ], [ -115.2303597, 36.2549142 ], [ -115.2303597, 36.2549169 ], [ -115.2303624, 36.2549169 ], [ -115.2303624, 36.2549304 ], [ -115.2303597, 36.2549304 ], [ -115.2303597, 36.2549331 ] ] ] } },
{ "type": "Feature", "properties": { "value": 255.0 }, "geometry": { "type": "Polygon", "coordinates": [ [ [ -115.2305676, 36.2549007 ], [ -115.2305487, 36.2549007 ], [ -115.2305487, 36.254898 ], [ -115.2305379, 36.254898 ], [ -115.2305379, 36.2548926 ], [ -115.2305352, 36.2548926 ], [ -115.2305352, 36.2548899 ], [ -115.2305379, 36.2548899 ], [ -115.2305379, 36.2548845 ], [ -115.230546, 36.2548845 ], [ -115.230546, 36.2548818 ], [ -115.2305649, 36.2548818 ], [ -115.2305649, 36.2548845 ], [ -115.2305676, 36.2548845 ], [ -115.2305676, 36.2548872 ], [ -115.2305703, 36.2548872 ], [ -115.2305703, 36.254898 ], [ -115.2305676, 36.254898 ], [ -115.2305676, 36.2549007 ] ] ] } },
{ "type": "Feature", "properties": { "value": 255.0 }, "geometry": { "type": "Polygon", "coordinates": [ [ [ -115.2304785, 36.2548953 ], [ -115.230438, 36.2548953 ], [ -115.230438, 36.2548926 ], [ -115.2304326, 36.2548926 ], [ -115.2304326, 36.2548764 ], [ -115.230438, 36.2548764 ], [ -115.230438, 36.2548737 ], [ -115.2304569, 36.2548737 ], [ -115.2304569, 36.2548764 ], [ -115.2304731, 36.2548764 ], [ -115.2304731, 36.2548791 ], [ -115.2304812, 36.2548791 ], [ -115.2304812, 36.2548818 ], [ -115.2304893, 36.2548818 ], [ -115.2304893, 36.2548845 ], [ -115.230492, 36.2548845 ], [ -115.230492, 36.2548899 ], [ -115.2304866, 36.2548899 ], [ -115.2304866, 36.2548926 ], [ -115.2304785, 36.2548926 ], [ -115.2304785, 36.2548953 ] ] ] } },
{ "type": "Feature", "properties": { "value": 255.0 }, "geometry": { "type": "Polygon", "coordinates": [ [ [ -115.2309186, 36.2548872 ], [ -115.2309024, 36.2548872 ], [ -115.2309024, 36.2548845 ], [ -115.2308943, 36.2548845 ], [ -115.2308943, 36.2548818 ], [ -115.2308916, 36.2548818 ], [ -115.2308916, 36.2548737 ], [ -115.2308889, 36.2548737 ], [ -115.2308889, 36.2548575 ], [ -115.2308916, 36.2548575 ], [ -115.2308916, 36.2548521 ], [ -115.2308943, 36.2548521 ], [ -115.2308943, 36.2548494 ], [ -115.230924, 36.2548494 ], [ -115.230924, 36.2548521 ], [ -115.2309294, 36.2548521 ], [ -115.2309294, 36.2548548 ], [ -115.2309321, 36.2548548 ], [ -115.2309321, 36.2548791 ], [ -115.2309294, 36.2548791 ], [ -115.2309294, 36.2548818 ], [ -115.2309267, 36.2548818 ], [ -115.2309267, 36.2548845 ], [ -115.2309186, 36.2548845 ], [ -115.2309186, 36.2548872 ] ] ] } },
{ "type": "Feature", "properties": { "value": 255.0 }, "geometry": { "type": "Polygon", "coordinates": [ [ [ -115.2311184, 36.2548764 ], [ -115.2310671, 36.2548764 ], [ -115.2310671, 36.2548737 ], [ -115.2310644, 36.2548737 ], [ -115.2310644, 36.254844 ], [ -115.2310671, 36.254844 ], [ -115.2310671, 36.2548413 ], [ -115.2310779, 36.2548413 ], [ -115.2310779, 36.2548386 ], [ -115.2311184, 36.2548386 ], [ -115.2311184, 36.2548413 ], [ -115.2311292, 36.2548413 ], [ -115.2311292, 36.254844 ], [ -115.2311319, 36.254844 ], [ -115.2311319, 36.2548575 ], [ -115.2311292, 36.2548575 ], [ -115.2311292, 36.2548683 ], [ -115.2311265, 36.2548683 ], [ -115.2311265, 36.254871 ], [ -115.2311238, 36.254871 ], [ -115.2311238, 36.2548737 ], [ -115.2311184, 36.2548737 ], [ -115.2311184, 36.2548764 ] ] ] } },
{ "type": "Feature", "properties": { "value": 255.0 }, "geometry": { "type": "Polygon", "coordinates": [ [ [ -115.2315369, 36.2549277 ], [ -115.2315099, 36.2549277 ], [ -115.2315099, 36.254925 ], [ -115.231491, 36.254925 ], [ -115.231491, 36.2549223 ], [ -115.2314586, 36.2549223 ], [ -115.2314586, 36.2549196 ], [ -115.2314316, 36.2549196 ], [ -115.2314316, 36.2549169 ], [ -115.2314073, 36.2549169 ], [ -115.2314073, 36.2549142 ], [ -115.231383, 36.2549142 ], [ -115.231383, 36.2549115 ], [ -115.231356, 36.2549115 ], [ -115.231356, 36.2549088 ], [ -115.2313506, 36.2549088 ], [ -115.2313506, 36.2549061 ], [ -115.2313479, 36.2549061 ], [ -115.2313479, 36.2548872 ], [ -115.2313452, 36.2548872 ], [ -115.2313452, 36.2548683 ], [ -115.2313479, 36.2548683 ], [ -115.2313479, 36.2548602 ], [ -115.2313506, 36.2548602 ], [ -115.2313506, 36.2548575 ], [ -115.2313533, 36.2548575 ], [ -115.2313533, 36.2548521 ], [ -115.231356, 36.2548521 ], [ -115.231356, 36.2548386 ], [ -115.2313587, 36.2548386 ], [ -115.2313587, 36.2548251 ], [ -115.231356, 36.2548251 ], [ -115.231356, 36.2548224 ], [ -115.2313533, 36.2548224 ], [ -115.2313533, 36.2548197 ], [ -115.2313479, 36.2548197 ], [ -115.2313479, 36.254817 ], [ -115.231329, 36.254817 ], [ -115.231329, 36.2548143 ], [ -115.2313236, 36.2548143 ], [ -115.2313236, 36.25479 ], [ -115.2313263, 36.25479 ], [ -115.2313263, 36.2547873 ], [ -115.231329, 36.2547873 ], [ -115.231329, 36.2547846 ], [ -115.2313803, 36.2547846 ], [ -115.2313803, 36.2547873 ], [ -115.2314181, 36.2547873 ], [ -115.2314181, 36.2547819 ], [ -115.2314208, 36.2547819 ], [ -115.2314208, 36.2547765 ], [ -115.2314235, 36.2547765 ], [ -115.2314235, 36.2547738 ], [ -115.2314262, 36.2547738 ], [ -115.2314262, 36.2547711 ], [ -115.2314667, 36.2547711 ], [ -115.2314667, 36.2547738 ], [ -115.2315342, 36.2547738 ], [ -115.2315342, 36.2547765 ], [ -115.2315396, 36.2547765 ], [ -115.2315396, 36.2547792 ], [ -115.2315423, 36.2547792 ], [ -115.2315423, 36.2547846 ], [ -115.231545, 36.2547846 ], [ -115.231545, 36.2548062 ], [ -115.2315477, 36.2548062 ], [ -115.2315477, 36.2548089 ], [ -115.2315828, 36.2548089 ], [ -115.2315828, 36.2548116 ], [ -115.2316071, 36.2548116 ], [ -115.2316071, 36.2548143 ], [ -115.2316125, 36.2548143 ], [ -115.2316125, 36.2548197 ], [ -115.2316152, 36.2548197 ], [ -115.2316152, 36.2548224 ], [ -115.2316125, 36.2548224 ], [ -115.2316125, 36.2548494 ], [ -115.2316098, 36.2548494 ], [ -115.2316098, 36.2548764 ], [ -115.2316071, 36.2548764 ], [ -115.2316071, 36.2548872 ], [ -115.2316044, 36.2548872 ], [ -115.2316044, 36.2548899 ], [ -115.231599, 36.2548899 ], [ -115.231599, 36.2548926 ], [ -115.231572, 36.2548926 ], [ -115.231572, 36.2548899 ], [ -115.2315693, 36.2548899 ], [ -115.2315693, 36.2548926 ], [ -115.2315585, 36.2548926 ], [ -115.2315585, 36.2548953 ], [ -115.2315531, 36.2548953 ], [ -115.2315531, 36.254898 ], [ -115.2315504, 36.254898 ], [ -115.2315504, 36.2549007 ], [ -115.2315477, 36.2549007 ], [ -115.2315477, 36.2549196 ], [ -115.231545, 36.2549196 ], [ -115.231545, 36.2549223 ], [ -115.2315423, 36.2549223 ], [ -115.2315423, 36.254925 ], [ -115.2315369, 36.254925 ], [ -115.2315369, 36.2549277 ] ] ] } },
{ "type": "Feature", "properties": { "value": 255.0 }, "geometry": { "type": "Polygon", "coordinates": [ [ [ -115.23168, 36.2547279 ], [ -115.2316395, 36.2547279 ], [ -115.2316395, 36.2547252 ], [ -115.2316341, 36.2547252 ], [ -115.2316341, 36.2547144 ], [ -115.2316368, 36.2547144 ], [ -115.2316368, 36.2547117 ], [ -115.23168, 36.2547117 ], [ -115.23168, 36.2547279 ] ] ] } },
{ "type": "Feature", "properties": { "value": 255.0 }, "geometry": { "type": "Polygon", "coordinates": [ [ [ -115.2310968, 36.2547603 ], [ -115.231086, 36.2547603 ], [ -115.231086, 36.2547576 ], [ -115.2309429, 36.2547576 ], [ -115.2309429, 36.2547603 ], [ -115.2308997, 36.2547603 ], [ -115.2308997, 36.2547576 ], [ -115.2308943, 36.2547576 ], [ -115.2308943, 36.2546577 ], [ -115.2311076, 36.2546577 ], [ -115.2311076, 36.2546928 ], [ -115.2311049, 36.2546928 ], [ -115.2311049, 36.2547306 ], [ -115.2311022, 36.2547306 ], [ -115.2311022, 36.2547549 ], [ -115.2310995, 36.2547549 ], [ -115.2310995, 36.2547576 ], [ -115.2310968, 36.2547576 ], [ -115.2310968, 36.2547603 ] ] ] } },
{ "type": "Feature", "properties": { "value": 255.0 }, "geometry": { "type": "Polygon", "coordinates": [ [ [ -115.2316341, 36.2547009 ], [ -115.2316287, 36.2547009 ], [ -115.2316287, 36.2546982 ], [ -115.2316044, 36.2546982 ], [ -115.2316044, 36.2546955 ], [ -115.2315828, 36.2546955 ], [ -115.2315828, 36.2546928 ], [ -115.2315612, 36.2546928 ], [ -115.2315612, 36.2546901 ], [ -115.2315099, 36.2546901 ], [ -115.2315099, 36.2546874 ], [ -115.2314883, 36.2546874 ], [ -115.2314883, 36.2546847 ], [ -115.2314721, 36.2546847 ], [ -115.2314721, 36.254682 ], [ -115.2314451, 36.254682 ], [ -115.2314451, 36.2546793 ], [ -115.2314235, 36.2546793 ], [ -115.2314235, 36.2546766 ], [ -115.2314208, 36.2546766 ], [ -115.2314208, 36.2546577 ], [ -115.231653, 36.2546577 ], [ -115.231653, 36.2546739 ], [ -115.2316503, 36.2546739 ], [ -115.2316503, 36.2546874 ], [ -115.2316476, 36.2546874 ], [ -115.2316476, 36.2546928 ], [ -115.2316449, 36.2546928 ], [ -115.2316449, 36.2546955 ], [ -115.2316422, 36.2546955 ], [ -115.2316422, 36.2546982 ], [ -115.2316341, 36.2546982 ], [ -115.2316341, 36.2547009 ] ] ] } },
{ "type": "Feature", "properties": { "value": 255.0 }, "geometry": { "type": "Polygon", "coordinates": [ [ [ -115.2312345, 36.2546982 ], [ -115.2312183, 36.2546982 ], [ -115.2312183, 36.2546955 ], [ -115.2311967, 36.2546955 ], [ -115.2311967, 36.2546928 ], [ -115.2311751, 36.2546928 ], [ -115.2311751, 36.2546901 ], [ -115.2311724, 36.2546901 ], [ -115.2311724, 36.2546874 ], [ -115.2311697, 36.2546874 ], [ -115.2311697, 36.2546793 ], [ -115.2311724, 36.2546793 ], [ -115.2311724, 36.2546577 ], [ -115.2312426, 36.2546577 ], [ -115.2312426, 36.2546712 ], [ -115.2312399, 36.2546712 ], [ -115.2312399, 36.2546928 ], [ -115.2312372, 36.2546928 ], [ -115.2312372, 36.2546955 ], [ -115.2312345, 36.2546955 ], [ -115.2312345, 36.2546982 ] ] ] } }
]
}
