{
"type": "FeatureCollection",
"crs": { "type": "name", "properties": { "name": "urn:ogc:def:crs:OGC:1.3:CRS84" } },
"features": [
{ "type": "Feature", "properties": { "value": 255.0 }, "geometry": { "type": "Polygon", "coordinates": [ [ [ -115.2271035, 36.222956999899999 ], [ -115.2270927, 36.222956999899999 ], [ -115.2270927, 36.222954299899996 ], [ -115.2270819, 36.222954299899996 ], [ -115.2270819, 36.2229515999 ], [ -115.2270792, 36.2229515999 ], [ -115.2270792, 36.222940799900002 ], [ -115.2270819, 36.222940799900002 ], [ -115.2270819, 36.222938099899999 ], [ -115.2270873, 36.222938099899999 ], [ -115.2270873, 36.222935399900003 ], [ -115.2271062, 36.222935399900003 ], [ -115.2271062, 36.222938099899999 ], [ -115.2271089, 36.222938099899999 ], [ -115.2271089, 36.2229515999 ], [ -115.2271062, 36.2229515999 ], [ -115.2271062, 36.222954299899996 ], [ -115.2271035, 36.222954299899996 ], [ -115.2271035, 36.222956999899999 ] ] ] } },
{ "type": "Feature", "properties": { "value": 255.0 }, "geometry": { "type": "Polygon", "coordinates": [ [ [ -115.2285426, 36.222821999899999 ], [ -115.2285399, 36.222821999899999 ], [ -115.2285399, 36.222819299899996 ], [ -115.2285318, 36.222819299899996 ], [ -115.2285318, 36.2228165999 ], [ -115.2285264, 36.2228165999 ], [ -115.2285264, 36.222813899899997 ], [ -115.2285237, 36.222813899899997 ], [ -115.2285237, 36.222811199900001 ], [ -115.228521, 36.222811199900001 ], [ -115.228521, 36.222805799900001 ], [ -115.2285237, 36.222805799900001 ], [ -115.2285237, 36.222803099899998 ], [ -115.2285264, 36.222803099899998 ], [ -115.2285264, 36.222800399900002 ], [ -115.2285291, 36.222800399900002 ], [ -115.2285291, 36.222797699899999 ], [ -115.2285345, 36.222797699899999 ], [ -115.2285345, 36.222794999899996 ], [ -115.2285372, 36.222794999899996 ], [ -115.2285372, 36.2227922999 ], [ -115.2285399, 36.2227922999 ], [ -115.2285399, 36.222789599899997 ], [ -115.2285426, 36.222789599899997 ], [ -115.2285426, 36.222821999899999 ] ] ] } },
{ "type": "Feature", "properties": { "value": 255.0 }, "geometry": { "type": "Polygon", "coordinates": [ [ [ -115.2272196, 36.222781499900002 ], [ -115.2271953, 36.222781499900002 ], [ -115.2271953, 36.222776099900003 ], [ -115.2271926, 36.222776099900003 ], [ -115.2271926, 36.2227679999 ], [ -115.2271953, 36.2227679999 ], [ -115.2271953, 36.222757199900002 ], [ -115.227198, 36.222757199900002 ], [ -115.227198, 36.222754499899999 ], [ -115.2272007, 36.222754499899999 ], [ -115.2272007, 36.222751799899996 ], [ -115.227206099999989, 36.222751799899996 ], [ -115.227206099999989, 36.222754499899999 ], [ -115.2272115, 36.222754499899999 ], [ -115.2272115, 36.222757199900002 ], [ -115.2272142, 36.222757199900002 ], [ -115.2272142, 36.222759899899998 ], [ -115.2272169, 36.222759899899998 ], [ -115.2272169, 36.222762599900001 ], [ -115.2272196, 36.222762599900001 ], [ -115.2272196, 36.2227679999 ], [ -115.2272223, 36.2227679999 ], [ -115.2272223, 36.222778799899999 ], [ -115.2272196, 36.222778799899999 ], [ -115.2272196, 36.222781499900002 ] ] ] } },
{ "type": "Feature", "properties": { "value": 255.0 }, "geometry": { "type": "Polygon", "coordinates": [ [ [ -115.2281808, 36.2229083999 ], [ -115.2281349, 36.2229083999 ], [ -115.2281349, 36.222905699899997 ], [ -115.2281133, 36.222905699899997 ], [ -115.2281133, 36.222902999900001 ], [ -115.2281079, 36.222902999900001 ], [ -115.2281079, 36.222900299899997 ], [ -115.2281052, 36.222900299899997 ], [ -115.2281052, 36.222897599900001 ], [ -115.2281025, 36.222897599900001 ], [ -115.2281025, 36.222873299900002 ], [ -115.2280998, 36.222873299900002 ], [ -115.2280998, 36.222870599899998 ], [ -115.2280971, 36.222870599899998 ], [ -115.2280971, 36.222867899900002 ], [ -115.2280863, 36.222867899900002 ], [ -115.2280863, 36.222870599899998 ], [ -115.2280809, 36.222870599899998 ], [ -115.2280809, 36.222873299900002 ], [ -115.2280728, 36.222873299900002 ], [ -115.2280728, 36.222875999899998 ], [ -115.2280188, 36.222875999899998 ], [ -115.2280188, 36.222873299900002 ], [ -115.2280134, 36.222873299900002 ], [ -115.2280134, 36.222870599899998 ], [ -115.2280107, 36.222870599899998 ], [ -115.2280107, 36.222867899900002 ], [ -115.228008, 36.222867899900002 ], [ -115.228008, 36.2228597999 ], [ -115.2280053, 36.2228597999 ], [ -115.2280053, 36.222808499899998 ], [ -115.2280026, 36.222808499899998 ], [ -115.2280026, 36.222762599900001 ], [ -115.2280053, 36.222762599900001 ], [ -115.2280053, 36.222757199900002 ], [ -115.2280107, 36.222757199900002 ], [ -115.2280107, 36.222754499899999 ], [ -115.2280836, 36.222754499899999 ], [ -115.2280836, 36.222751799899996 ], [ -115.2281187, 36.222751799899996 ], [ -115.2281187, 36.222754499899999 ], [ -115.2281538, 36.222754499899999 ], [ -115.2281538, 36.222757199900002 ], [ -115.2281673, 36.222757199900002 ], [ -115.2281673, 36.222754499899999 ], [ -115.22817, 36.222754499899999 ], [ -115.22817, 36.222743699900001 ], [ -115.2281727, 36.222743699900001 ], [ -115.2281727, 36.222740999899997 ], [ -115.2281808, 36.222740999899997 ], [ -115.2281808, 36.222738299900001 ], [ -115.2281862, 36.222738299900001 ], [ -115.2281862, 36.222735599899998 ], [ -115.2281889, 36.222735599899998 ], [ -115.2281889, 36.222732899900002 ], [ -115.2281916, 36.222732899900002 ], [ -115.2281916, 36.222730199899999 ], [ -115.228197, 36.222730199899999 ], [ -115.228197, 36.222727499899996 ], [ -115.2282078, 36.222727499899996 ], [ -115.2282078, 36.2227247999 ], [ -115.2282645, 36.2227247999 ], [ -115.2282645, 36.222727499899996 ], [ -115.228278, 36.222727499899996 ], [ -115.228278, 36.2227247999 ], [ -115.2282942, 36.2227247999 ], [ -115.2282942, 36.222727499899996 ], [ -115.2282996, 36.222727499899996 ], [ -115.2282996, 36.222732899900002 ], [ -115.228305, 36.222732899900002 ], [ -115.228305, 36.222735599899998 ], [ -115.2283185, 36.222735599899998 ], [ -115.2283185, 36.222738299900001 ], [ -115.2283347, 36.222738299900001 ], [ -115.2283347, 36.222740999899997 ], [ -115.2283428, 36.222740999899997 ], [ -115.2283428, 36.222743699900001 ], [ -115.2283482, 36.222743699900001 ], [ -115.2283482, 36.222746399899997 ], [ -115.2283509, 36.222746399899997 ], [ -115.2283509, 36.2227490999 ], [ -115.2283536, 36.2227490999 ], [ -115.2283536, 36.2228597999 ], [ -115.2283509, 36.2228597999 ], [ -115.2283509, 36.222867899900002 ], [ -115.2282375, 36.222867899900002 ], [ -115.2282375, 36.222870599899998 ], [ -115.2282321, 36.222870599899998 ], [ -115.2282321, 36.222889499899999 ], [ -115.2282294, 36.222889499899999 ], [ -115.2282294, 36.222897599900001 ], [ -115.2282267, 36.222897599900001 ], [ -115.2282267, 36.222900299899997 ], [ -115.228224, 36.222900299899997 ], [ -115.228224, 36.222902999900001 ], [ -115.2282159, 36.222902999900001 ], [ -115.2282159, 36.222905699899997 ], [ -115.2281808, 36.222905699899997 ], [ -115.2281808, 36.2229083999 ] ] ] } },
{ "type": "Feature", "properties": { "value": 255.0 }, "geometry": { "type": "Polygon", "coordinates": [ [ [ -115.227573299999989, 36.222857099899997 ], [ -115.2275193, 36.222857099899997 ], [ -115.2275193, 36.222854399900001 ], [ -115.227505799999989, 36.222854399900001 ], [ -115.227505799999989, 36.222851699899998 ], [ -115.227457199999989, 36.222851699899998 ], [ -115.227457199999989, 36.222848999900002 ], [ -115.2274302, 36.222848999900002 ], [ -115.2274302, 36.222846299899999 ], [ -115.2274248, 36.222846299899999 ], [ -115.2274248, 36.222797699899999 ], [ -115.2274275, 36.222797699899999 ], [ -115.2274275, 36.222786899900001 ], [ -115.2274302, 36.222786899900001 ], [ -115.2274302, 36.222778799899999 ], [ -115.2274329, 36.222778799899999 ], [ -115.2274329, 36.222773399899999 ], [ -115.2274356, 36.222773399899999 ], [ -115.2274356, 36.2227679999 ], [ -115.227438299999989, 36.2227679999 ], [ -115.227438299999989, 36.222738299900001 ], [ -115.2274356, 36.222738299900001 ], [ -115.2274356, 36.222732899900002 ], [ -115.227438299999989, 36.222732899900002 ], [ -115.227438299999989, 36.222730199899999 ], [ -115.227441, 36.222730199899999 ], [ -115.227441, 36.222727499899996 ], [ -115.2275814, 36.222727499899996 ], [ -115.2275814, 36.222730199899999 ], [ -115.2275868, 36.222730199899999 ], [ -115.2275868, 36.222732899900002 ], [ -115.227592199999989, 36.222732899900002 ], [ -115.227592199999989, 36.222738299900001 ], [ -115.2275949, 36.222738299900001 ], [ -115.2275949, 36.222773399899999 ], [ -115.2275976, 36.222773399899999 ], [ -115.2275976, 36.222778799899999 ], [ -115.2276003, 36.222778799899999 ], [ -115.2276003, 36.222781499900002 ], [ -115.227603, 36.222781499900002 ], [ -115.227603, 36.222784199899998 ], [ -115.2276057, 36.222784199899998 ], [ -115.2276057, 36.222789599899997 ], [ -115.2276084, 36.222789599899997 ], [ -115.2276084, 36.222803099899998 ], [ -115.2276111, 36.222803099899998 ], [ -115.2276111, 36.222851699899998 ], [ -115.2276084, 36.222851699899998 ], [ -115.2276084, 36.222854399900001 ], [ -115.227573299999989, 36.222854399900001 ], [ -115.227573299999989, 36.222857099899997 ] ] ] } },
{ "type": "Feature", "properties": { "value": 255.0 }, "geometry": { "type": "Polygon", "coordinates": [ [ [ -115.2273438, 36.222746399899997 ], [ -115.2273195, 36.222746399899997 ], [ -115.2273195, 36.222743699900001 ], [ -115.2273168, 36.222743699900001 ], [ -115.2273168, 36.222740999899997 ], [ -115.2273141, 36.222740999899997 ], [ -115.2273141, 36.222695099900001 ], [ -115.2273114, 36.222695099900001 ], [ -115.2273114, 36.222692399899998 ], [ -115.2273141, 36.222692399899998 ], [ -115.2273141, 36.2226761999 ], [ -115.2273168, 36.2226761999 ], [ -115.2273168, 36.222670799900001 ], [ -115.2273195, 36.222670799900001 ], [ -115.2273195, 36.222668099899998 ], [ -115.2273465, 36.222668099899998 ], [ -115.2273465, 36.222665399900002 ], [ -115.2273573, 36.222665399900002 ], [ -115.2273573, 36.222668099899998 ], [ -115.22736, 36.222668099899998 ], [ -115.22736, 36.222665399900002 ], [ -115.227414, 36.222665399900002 ], [ -115.227414, 36.222668099899998 ], [ -115.2274221, 36.222668099899998 ], [ -115.2274221, 36.222695099900001 ], [ -115.2274194, 36.222695099900001 ], [ -115.2274194, 36.222708599900002 ], [ -115.2274221, 36.222708599900002 ], [ -115.2274221, 36.2227247999 ], [ -115.2274248, 36.2227247999 ], [ -115.2274248, 36.222730199899999 ], [ -115.2274275, 36.222730199899999 ], [ -115.2274275, 36.222738299900001 ], [ -115.2274248, 36.222738299900001 ], [ -115.2274248, 36.222740999899997 ], [ -115.2274194, 36.222740999899997 ], [ -115.2274194, 36.222743699900001 ], [ -115.2273438, 36.222743699900001 ], [ -115.2273438, 36.222746399899997 ] ] ] } },
{ "type": "Feature", "properties": { "value": 255.0 }, "geometry": { "type": "Polygon", "coordinates": [ [ [ -115.226984699999988, 36.222770699899996 ], [ -115.226982, 36.222770699899996 ], [ -115.226982, 36.2227679999 ], [ -115.2269685, 36.2227679999 ], [ -115.2269685, 36.222765299899997 ], [ -115.2269415, 36.222765299899997 ], [ -115.2269415, 36.222762599900001 ], [ -115.2269307, 36.222762599900001 ], [ -115.2269307, 36.222759899899998 ], [ -115.2269253, 36.222759899899998 ], [ -115.2269253, 36.222757199900002 ], [ -115.2269226, 36.222757199900002 ], [ -115.2269226, 36.222754499899999 ], [ -115.2269199, 36.222754499899999 ], [ -115.2269199, 36.2227490999 ], [ -115.226917199999988, 36.2227490999 ], [ -115.226917199999988, 36.222743699900001 ], [ -115.2269145, 36.222743699900001 ], [ -115.2269145, 36.222740999899997 ], [ -115.2269091, 36.222740999899997 ], [ -115.2269091, 36.222738299900001 ], [ -115.2268956, 36.222738299900001 ], [ -115.2268956, 36.222735599899998 ], [ -115.2268848, 36.222735599899998 ], [ -115.2268848, 36.222732899900002 ], [ -115.2268794, 36.222732899900002 ], [ -115.2268794, 36.222730199899999 ], [ -115.2268767, 36.222730199899999 ], [ -115.2268767, 36.222722099899997 ], [ -115.226874, 36.222722099899997 ], [ -115.226874, 36.222695099900001 ], [ -115.2268767, 36.222695099900001 ], [ -115.2268767, 36.222659999899996 ], [ -115.2268794, 36.222659999899996 ], [ -115.2268794, 36.222651899900001 ], [ -115.2268821, 36.222651899900001 ], [ -115.2268821, 36.222649199899998 ], [ -115.2268848, 36.222649199899998 ], [ -115.2268848, 36.222646499900002 ], [ -115.2269685, 36.222646499900002 ], [ -115.2269685, 36.222649199899998 ], [ -115.2269901, 36.222649199899998 ], [ -115.2269901, 36.222651899900001 ], [ -115.2269955, 36.222651899900001 ], [ -115.2269955, 36.222654599899997 ], [ -115.2269982, 36.222654599899997 ], [ -115.2269982, 36.2226572999 ], [ -115.227003599999989, 36.2226572999 ], [ -115.227003599999989, 36.222659999899996 ], [ -115.2270063, 36.222659999899996 ], [ -115.2270063, 36.222662699899999 ], [ -115.227009, 36.222662699899999 ], [ -115.227009, 36.222665399900002 ], [ -115.2270117, 36.222665399900002 ], [ -115.2270117, 36.222668099899998 ], [ -115.2270198, 36.222668099899998 ], [ -115.2270198, 36.222670799900001 ], [ -115.2270549, 36.222670799900001 ], [ -115.2270549, 36.222673499899997 ], [ -115.2270576, 36.222673499899997 ], [ -115.2270576, 36.2226761999 ], [ -115.2270603, 36.2226761999 ], [ -115.2270603, 36.222678899899996 ], [ -115.227063, 36.222678899899996 ], [ -115.227063, 36.222684299899996 ], [ -115.2270657, 36.222684299899996 ], [ -115.2270657, 36.222695099900001 ], [ -115.2270765, 36.222695099900001 ], [ -115.2270765, 36.222738299900001 ], [ -115.2270738, 36.222738299900001 ], [ -115.2270738, 36.222740999899997 ], [ -115.227071099999989, 36.222740999899997 ], [ -115.227071099999989, 36.222743699900001 ], [ -115.2270387, 36.222743699900001 ], [ -115.2270387, 36.222740999899997 ], [ -115.2270171, 36.222740999899997 ], [ -115.2270171, 36.222743699900001 ], [ -115.2269982, 36.222743699900001 ], [ -115.2269982, 36.2227490999 ], [ -115.2269955, 36.2227490999 ], [ -115.2269955, 36.222757199900002 ], [ -115.2269928, 36.222757199900002 ], [ -115.2269928, 36.222765299899997 ], [ -115.2269901, 36.222765299899997 ], [ -115.2269901, 36.2227679999 ], [ -115.226984699999988, 36.2227679999 ], [ -115.226984699999988, 36.222770699899996 ] ] ] } },
{ "type": "Feature", "properties": { "value": 255.0 }, "geometry": { "type": "Polygon", "coordinates": [ [ [ -115.2274545, 36.2224493999 ], [ -115.227414, 36.2224493999 ], [ -115.227414, 36.222446699899997 ], [ -115.2274086, 36.222446699899997 ], [ -115.2274086, 36.2224493999 ], [ -115.2274032, 36.2224493999 ], [ -115.2274032, 36.222446699899997 ], [ -115.2274005, 36.222446699899997 ], [ -115.2274005, 36.2224493999 ], [ -115.2273627, 36.2224493999 ], [ -115.2273627, 36.222446699899997 ], [ -115.2273249, 36.222446699899997 ], [ -115.2273249, 36.2224493999 ], [ -115.2272898, 36.2224493999 ], [ -115.2272898, 36.222446699899997 ], [ -115.2272574, 36.222446699899997 ], [ -115.2272574, 36.222443999900001 ], [ -115.2272385, 36.222443999900001 ], [ -115.2272385, 36.222441299899998 ], [ -115.227235799999988, 36.222441299899998 ], [ -115.227235799999988, 36.222414299899995 ], [ -115.2272331, 36.222414299899995 ], [ -115.2272331, 36.222411599899999 ], [ -115.227235799999988, 36.222411599899999 ], [ -115.227235799999988, 36.222333299900001 ], [ -115.2272385, 36.222333299900001 ], [ -115.2272385, 36.222330599899998 ], [ -115.2272412, 36.222330599899998 ], [ -115.2272412, 36.222327899900002 ], [ -115.2272655, 36.222327899900002 ], [ -115.2272655, 36.222325199899998 ], [ -115.2273465, 36.222325199899998 ], [ -115.2273465, 36.222327899900002 ], [ -115.2273519, 36.222327899900002 ], [ -115.2273519, 36.222330599899998 ], [ -115.2273546, 36.222330599899998 ], [ -115.2273546, 36.222335999899997 ], [ -115.2273573, 36.222335999899997 ], [ -115.2273573, 36.222365699899996 ], [ -115.22736, 36.222365699899996 ], [ -115.22736, 36.222371099900002 ], [ -115.2273627, 36.222371099900002 ], [ -115.2273627, 36.222373799899998 ], [ -115.2273978, 36.222373799899998 ], [ -115.2273978, 36.222376499900001 ], [ -115.2274032, 36.222376499900001 ], [ -115.2274032, 36.222373799899998 ], [ -115.2274545, 36.222373799899998 ], [ -115.2274545, 36.222376499900001 ], [ -115.2274599, 36.222376499900001 ], [ -115.2274599, 36.222379199899997 ], [ -115.2274626, 36.222379199899997 ], [ -115.2274626, 36.222441299899998 ], [ -115.2274599, 36.222441299899998 ], [ -115.2274599, 36.222446699899997 ], [ -115.2274545, 36.222446699899997 ], [ -115.2274545, 36.2224493999 ] ] ] } },
{ "type": "Feature", "properties": { "value": 255.0 }, "geometry": { "type": "Polygon", "coordinates": [ [ [ -115.2272682, 36.222279299899995 ], [ -115.2272574, 36.222279299899995 ], [ -115.2272574, 36.222276599899999 ], [ -115.227252, 36.222276599899999 ], [ -115.227252, 36.222252299899999 ], [ -115.227254699999989, 36.222252299899999 ], [ -115.227254699999989, 36.222249599899996 ], [ -115.2272682, 36.222249599899996 ], [ -115.2272682, 36.222252299899999 ], [ -115.2272736, 36.222252299899999 ], [ -115.2272736, 36.222254999899995 ], [ -115.2272763, 36.222254999899995 ], [ -115.2272763, 36.222276599899999 ], [ -115.2272682, 36.222276599899999 ], [ -115.2272682, 36.222279299899995 ] ] ] } },
{ "type": "Feature", "properties": { "value": 255.0 }, "geometry": { "type": "Polygon", "coordinates": [ [ [ -115.2285345, 36.222206399899996 ], [ -115.2285237, 36.222206399899996 ], [ -115.2285237, 36.2222036999 ], [ -115.228521, 36.2222036999 ], [ -115.228521, 36.222184799899999 ], [ -115.2285237, 36.222184799899999 ], [ -115.2285237, 36.222182099899996 ], [ -115.2285264, 36.222182099899996 ], [ -115.2285264, 36.2221793999 ], [ -115.2285399, 36.2221793999 ], [ -115.2285399, 36.222182099899996 ], [ -115.2285426, 36.222182099899996 ], [ -115.2285426, 36.222200999899997 ], [ -115.2285372, 36.222200999899997 ], [ -115.2285372, 36.2222036999 ], [ -115.2285345, 36.2222036999 ], [ -115.2285345, 36.222206399899996 ] ] ] } },
{ "type": "Feature", "properties": { "value": 255.0 }, "geometry": { "type": "Polygon", "coordinates": [ [ [ -115.2273438, 36.222211799899995 ], [ -115.2272763, 36.222211799899995 ], [ -115.2272763, 36.222209099899999 ], [ -115.2272736, 36.222209099899999 ], [ -115.2272736, 36.2222036999 ], [ -115.2272709, 36.2222036999 ], [ -115.2272709, 36.222195599899997 ], [ -115.2272682, 36.222195599899997 ], [ -115.2272682, 36.222182099899996 ], [ -115.2272655, 36.222182099899996 ], [ -115.2272655, 36.222168599900002 ], [ -115.2272709, 36.222168599900002 ], [ -115.2272709, 36.222165899899998 ], [ -115.2272763, 36.222165899899998 ], [ -115.2272763, 36.222163199899995 ], [ -115.2273087, 36.222163199899995 ], [ -115.2273087, 36.222165899899998 ], [ -115.2273303, 36.222165899899998 ], [ -115.2273303, 36.222168599900002 ], [ -115.2273438, 36.222168599900002 ], [ -115.2273438, 36.222171299899998 ], [ -115.2273465, 36.222171299899998 ], [ -115.2273465, 36.222176699899997 ], [ -115.2273492, 36.222176699899997 ], [ -115.2273492, 36.222200999899997 ], [ -115.2273465, 36.222200999899997 ], [ -115.2273465, 36.222209099899999 ], [ -115.2273438, 36.222209099899999 ], [ -115.2273438, 36.222211799899995 ] ] ] } },
{ "type": "Feature", "properties": { "value": 255.0 }, "geometry": { "type": "Polygon", "coordinates": [ [ [ -115.2275949, 36.222146999899998 ], [ -115.2275868, 36.222146999899998 ], [ -115.2275868, 36.222141599899999 ], [ -115.2275841, 36.222141599899999 ], [ -115.2275841, 36.222128099899997 ], [ -115.2275868, 36.222128099899997 ], [ -115.2275868, 36.222125399900001 ], [ -115.2276003, 36.222125399900001 ], [ -115.2276003, 36.222138899899996 ], [ -115.2275976, 36.222138899899996 ], [ -115.2275976, 36.222144299899995 ], [ -115.2275949, 36.222144299899995 ], [ -115.2275949, 36.222146999899998 ] ] ] } },
{ "type": "Feature", "properties": { "value": 255.0 }, "geometry": { "type": "Polygon", "coordinates": [ [ [ -115.2276381, 36.222138899899996 ], [ -115.2276354, 36.222138899899996 ], [ -115.2276354, 36.2221361999 ], [ -115.2276327, 36.2221361999 ], [ -115.2276327, 36.222128099899997 ], [ -115.22763, 36.222128099899997 ], [ -115.22763, 36.222125399900001 ], [ -115.2276273, 36.222125399900001 ], [ -115.2276273, 36.222122699899998 ], [ -115.2276246, 36.222122699899998 ], [ -115.2276246, 36.222114599899996 ], [ -115.227640799999989, 36.222114599899996 ], [ -115.227640799999989, 36.2221361999 ], [ -115.2276381, 36.2221361999 ], [ -115.2276381, 36.222138899899996 ] ] ] } },
{ "type": "Feature", "properties": { "value": 255.0 }, "geometry": { "type": "Polygon", "coordinates": [ [ [ -115.2272601, 36.2221307999 ], [ -115.2272169, 36.2221307999 ], [ -115.2272169, 36.222128099899997 ], [ -115.2272034, 36.222128099899997 ], [ -115.2272034, 36.222125399900001 ], [ -115.227198, 36.222125399900001 ], [ -115.227198, 36.222106499900001 ], [ -115.2272007, 36.222106499900001 ], [ -115.2272007, 36.222103799899998 ], [ -115.2272034, 36.222103799899998 ], [ -115.2272034, 36.222101099900001 ], [ -115.2272088, 36.222101099900001 ], [ -115.2272088, 36.222098399899998 ], [ -115.2272196, 36.222098399899998 ], [ -115.2272196, 36.222101099900001 ], [ -115.2272574, 36.222101099900001 ], [ -115.2272574, 36.222103799899998 ], [ -115.2272601, 36.222103799899998 ], [ -115.2272601, 36.222106499900001 ], [ -115.2272628, 36.222106499900001 ], [ -115.2272628, 36.222128099899997 ], [ -115.2272601, 36.222128099899997 ], [ -115.2272601, 36.2221307999 ] ] ] } },
{ "type": "Feature", "properties": { "value": 255.0 }, "geometry": { "type": "Polygon", "coordinates": [ [ [ -115.2272628, 36.222074099899999 ], [ -115.2272196, 36.222074099899999 ], [ -115.2272196, 36.222071399899995 ], [ -115.2272088, 36.222071399899995 ], [ -115.2272088, 36.222068699899999 ], [ -115.227206099999989, 36.222068699899999 ], [ -115.227206099999989, 36.2220443999 ], [ -115.2272088, 36.2220443999 ], [ -115.2272088, 36.222041699899997 ], [ -115.2272466, 36.222041699899997 ], [ -115.2272466, 36.2220443999 ], [ -115.2272601, 36.2220443999 ], [ -115.2272601, 36.222047099899996 ], [ -115.2272628, 36.222047099899996 ], [ -115.2272628, 36.222049799899999 ], [ -115.2272655, 36.222049799899999 ], [ -115.2272655, 36.222071399899995 ], [ -115.2272628, 36.222071399899995 ], [ -115.2272628, 36.222074099899999 ] ] ] } },
{ "type": "Feature", "properties": { "value": 255.0 }, "geometry": { "type": "Polygon", "coordinates": [ [ [ -115.2274626, 36.222144299899995 ], [ -115.227387, 36.222144299899995 ], [ -115.227387, 36.222141599899999 ], [ -115.2273681, 36.222141599899999 ], [ -115.2273681, 36.222138899899996 ], [ -115.2273519, 36.222138899899996 ], [ -115.2273519, 36.2221361999 ], [ -115.2273303, 36.2221361999 ], [ -115.2273303, 36.222133499899996 ], [ -115.2273276, 36.222133499899996 ], [ -115.2273276, 36.2221307999 ], [ -115.2273249, 36.2221307999 ], [ -115.2273249, 36.222106499900001 ], [ -115.2273276, 36.222106499900001 ], [ -115.2273276, 36.222052499899995 ], [ -115.2273303, 36.222052499899995 ], [ -115.2273303, 36.222022799899996 ], [ -115.227333, 36.222022799899996 ], [ -115.227333, 36.221979599899996 ], [ -115.2273357, 36.221979599899996 ], [ -115.2273357, 36.2219525999 ], [ -115.2273384, 36.2219525999 ], [ -115.2273384, 36.221939099899998 ], [ -115.2273411, 36.221939099899998 ], [ -115.2273411, 36.221936399899995 ], [ -115.2273438, 36.221936399899995 ], [ -115.2273438, 36.221933699899999 ], [ -115.2273465, 36.221933699899999 ], [ -115.2273465, 36.221930999899996 ], [ -115.2273519, 36.221930999899996 ], [ -115.2273519, 36.2219282999 ], [ -115.2273573, 36.2219282999 ], [ -115.2273573, 36.221925599899997 ], [ -115.2273627, 36.221925599899997 ], [ -115.2273627, 36.221922899900001 ], [ -115.227370799999989, 36.221922899900001 ], [ -115.227370799999989, 36.221920199899998 ], [ -115.2274113, 36.221920199899998 ], [ -115.2274113, 36.221922899900001 ], [ -115.2274518, 36.221922899900001 ], [ -115.2274518, 36.221925599899997 ], [ -115.2274815, 36.221925599899997 ], [ -115.2274815, 36.2219282999 ], [ -115.2274842, 36.2219282999 ], [ -115.2274842, 36.221930999899996 ], [ -115.2274869, 36.221930999899996 ], [ -115.2274869, 36.221987699899998 ], [ -115.2274842, 36.221987699899998 ], [ -115.2274842, 36.2219957999 ], [ -115.2274815, 36.2219957999 ], [ -115.2274815, 36.222017399899997 ], [ -115.2274788, 36.222017399899997 ], [ -115.2274788, 36.222041699899997 ], [ -115.2274761, 36.222041699899997 ], [ -115.2274761, 36.222076799899995 ], [ -115.2274734, 36.222076799899995 ], [ -115.2274734, 36.222084899899997 ], [ -115.2274707, 36.222084899899997 ], [ -115.2274707, 36.222098399899998 ], [ -115.227468, 36.222098399899998 ], [ -115.227468, 36.222114599899996 ], [ -115.2274653, 36.222114599899996 ], [ -115.2274653, 36.222141599899999 ], [ -115.2274626, 36.222141599899999 ], [ -115.2274626, 36.222144299899995 ] ] ] } },
{ "type": "Feature", "properties": { "value": 255.0 }, "geometry": { "type": "Polygon", "coordinates": [ [ [ -115.2276381, 36.221949899899997 ], [ -115.22763, 36.221949899899997 ], [ -115.22763, 36.221947199900001 ], [ -115.2275868, 36.221947199900001 ], [ -115.2275868, 36.221949899899997 ], [ -115.2275814, 36.221949899899997 ], [ -115.2275814, 36.221947199900001 ], [ -115.227576, 36.221947199900001 ], [ -115.227576, 36.221944499899998 ], [ -115.227573299999989, 36.221944499899998 ], [ -115.227573299999989, 36.221930999899996 ], [ -115.227576, 36.221930999899996 ], [ -115.227576, 36.221925599899997 ], [ -115.2275787, 36.221925599899997 ], [ -115.2275787, 36.221922899900001 ], [ -115.2275814, 36.221922899900001 ], [ -115.2275814, 36.221920199899998 ], [ -115.2275868, 36.221920199899998 ], [ -115.2275868, 36.221917499899995 ], [ -115.2276084, 36.221917499899995 ], [ -115.2276084, 36.221920199899998 ], [ -115.2276192, 36.221920199899998 ], [ -115.2276192, 36.221922899900001 ], [ -115.2276354, 36.221922899900001 ], [ -115.2276354, 36.221925599899997 ], [ -115.227640799999989, 36.221925599899997 ], [ -115.227640799999989, 36.2219282999 ], [ -115.2276435, 36.2219282999 ], [ -115.2276435, 36.221936399899995 ], [ -115.2276462, 36.221936399899995 ], [ -115.2276462, 36.221944499899998 ], [ -115.2276435, 36.221944499899998 ], [ -115.2276435, 36.221947199900001 ], [ -115.2276381, 36.221947199900001 ], [ -115.2276381, 36.221949899899997 ] ] ] } },
{ "type": "Feature", "properties": { "value": 255.0 }, "geometry": { "type": "Polygon", "coordinates": [ [ [ -115.2268929, 36.221714999899994 ], [ -115.2268362, 36.221714999899994 ], [ -115.2268362, 36.221712299899998 ], [ -115.2268335, 36.221712299899998 ], [ -115.2268335, 36.221687999899999 ], [ -115.2268362, 36.221687999899999 ], [ -115.2268362, 36.221685299899995 ], [ -115.2268524, 36.221685299899995 ], [ -115.2268524, 36.221682599899999 ], [ -115.226868599999989, 36.221682599899999 ], [ -115.226868599999989, 36.221685299899995 ], [ -115.226898299999988, 36.221685299899995 ], [ -115.226898299999988, 36.221687999899999 ], [ -115.226901, 36.221687999899999 ], [ -115.226901, 36.221709599899995 ], [ -115.226898299999988, 36.221709599899995 ], [ -115.226898299999988, 36.221712299899998 ], [ -115.2268929, 36.221712299899998 ], [ -115.2268929, 36.221714999899994 ] ] ] } },
{ "type": "Feature", "properties": { "value": 255.0 }, "geometry": { "type": "Polygon", "coordinates": [ [ [ -115.2274788, 36.2218607999 ], [ -115.2274248, 36.2218607999 ], [ -115.2274248, 36.221858099899997 ], [ -115.2273978, 36.221858099899997 ], [ -115.2273978, 36.221855399900001 ], [ -115.227389699999989, 36.221855399900001 ], [ -115.227389699999989, 36.221852699899998 ], [ -115.2273843, 36.221852699899998 ], [ -115.2273843, 36.221849999899995 ], [ -115.2273762, 36.221849999899995 ], [ -115.2273762, 36.221847299899999 ], [ -115.2273384, 36.221847299899999 ], [ -115.2273384, 36.221844599899995 ], [ -115.2273303, 36.221844599899995 ], [ -115.2273303, 36.221841899899999 ], [ -115.2273276, 36.221841899899999 ], [ -115.2273276, 36.221806799899994 ], [ -115.2273303, 36.221806799899994 ], [ -115.2273303, 36.221752799899996 ], [ -115.227333, 36.221752799899996 ], [ -115.227333, 36.221723099899997 ], [ -115.2273357, 36.221723099899997 ], [ -115.2273357, 36.221696099900001 ], [ -115.2273384, 36.221696099900001 ], [ -115.2273384, 36.221690699899995 ], [ -115.2273438, 36.221690699899995 ], [ -115.2273438, 36.221687999899999 ], [ -115.2274113, 36.221687999899999 ], [ -115.2274113, 36.221682599899999 ], [ -115.227414, 36.221682599899999 ], [ -115.227414, 36.221647499899994 ], [ -115.2274167, 36.221647499899994 ], [ -115.2274167, 36.221644799899998 ], [ -115.2274194, 36.221644799899998 ], [ -115.2274194, 36.221642099899995 ], [ -115.2274248, 36.221642099899995 ], [ -115.2274248, 36.221639399899999 ], [ -115.2274815, 36.221639399899999 ], [ -115.2274815, 36.221642099899995 ], [ -115.2275031, 36.221642099899995 ], [ -115.2275031, 36.221644799899998 ], [ -115.227505799999989, 36.221644799899998 ], [ -115.227505799999989, 36.221647499899994 ], [ -115.2275085, 36.221647499899994 ], [ -115.2275085, 36.221674499899997 ], [ -115.227505799999989, 36.221674499899997 ], [ -115.227505799999989, 36.221685299899995 ], [ -115.2275031, 36.221685299899995 ], [ -115.2275031, 36.221698799899997 ], [ -115.2275004, 36.221698799899997 ], [ -115.2275004, 36.221712299899998 ], [ -115.2274977, 36.221712299899998 ], [ -115.2274977, 36.2217257999 ], [ -115.227495, 36.2217257999 ], [ -115.227495, 36.221750099899999 ], [ -115.2274923, 36.221750099899999 ], [ -115.2274923, 36.221785199899998 ], [ -115.2274896, 36.221785199899998 ], [ -115.2274896, 36.221795999899996 ], [ -115.2274869, 36.221795999899996 ], [ -115.2274869, 36.221806799899994 ], [ -115.2274842, 36.221806799899994 ], [ -115.2274842, 36.221833799899997 ], [ -115.2274815, 36.221833799899997 ], [ -115.2274815, 36.221847299899999 ], [ -115.2274842, 36.221847299899999 ], [ -115.2274842, 36.221852699899998 ], [ -115.2274815, 36.221852699899998 ], [ -115.2274815, 36.221858099899997 ], [ -115.2274788, 36.221858099899997 ], [ -115.2274788, 36.2218607999 ] ] ] } },
{ "type": "Feature", "properties": { "value": 255.0 }, "geometry": { "type": "Polygon", "coordinates": [ [ [ -115.227206099999989, 36.2215664999 ], [ -115.2271548, 36.2215664999 ], [ -115.2271548, 36.221563799899997 ], [ -115.2271224, 36.221563799899997 ], [ -115.2271224, 36.221561099900001 ], [ -115.2271116, 36.221561099900001 ], [ -115.2271116, 36.221558399899997 ], [ -115.227100799999988, 36.221558399899997 ], [ -115.227100799999988, 36.221555699899994 ], [ -115.2270738, 36.221555699899994 ], [ -115.2270738, 36.221552999899998 ], [ -115.227071099999989, 36.221552999899998 ], [ -115.227071099999989, 36.221550299899995 ], [ -115.2270684, 36.221550299899995 ], [ -115.2270684, 36.221534099899998 ], [ -115.227071099999989, 36.221534099899998 ], [ -115.227071099999989, 36.221504399899999 ], [ -115.2270738, 36.221504399899999 ], [ -115.2270738, 36.2214989999 ], [ -115.2270765, 36.2214989999 ], [ -115.2270765, 36.221496299899997 ], [ -115.2271062, 36.221496299899997 ], [ -115.2271062, 36.2214989999 ], [ -115.2271143, 36.2214989999 ], [ -115.2271143, 36.221493599900001 ], [ -115.227117, 36.221493599900001 ], [ -115.227117, 36.221485499899998 ], [ -115.227119699999989, 36.221485499899998 ], [ -115.227119699999989, 36.221482799899995 ], [ -115.2271224, 36.221482799899995 ], [ -115.2271224, 36.221480099899999 ], [ -115.2271278, 36.221480099899999 ], [ -115.2271278, 36.221477399899996 ], [ -115.2271548, 36.221477399899996 ], [ -115.2271548, 36.2214746999 ], [ -115.2271602, 36.2214746999 ], [ -115.2271602, 36.221471999899997 ], [ -115.2271953, 36.221471999899997 ], [ -115.2271953, 36.2214746999 ], [ -115.2272088, 36.2214746999 ], [ -115.2272088, 36.221477399899996 ], [ -115.2272142, 36.221477399899996 ], [ -115.2272142, 36.221480099899999 ], [ -115.2272169, 36.221480099899999 ], [ -115.2272169, 36.221488199899994 ], [ -115.2272196, 36.221488199899994 ], [ -115.2272196, 36.221501699899996 ], [ -115.2272169, 36.221501699899996 ], [ -115.2272169, 36.221534099899998 ], [ -115.2272142, 36.221534099899998 ], [ -115.2272142, 36.221552999899998 ], [ -115.2272115, 36.221552999899998 ], [ -115.2272115, 36.221561099900001 ], [ -115.2272088, 36.221561099900001 ], [ -115.2272088, 36.221563799899997 ], [ -115.227206099999989, 36.221563799899997 ], [ -115.227206099999989, 36.2215664999 ] ] ] } },
{ "type": "Feature", "properties": { "value": 255.0 }, "geometry": { "type": "Polygon", "coordinates": [ [ [ -115.2275301, 36.221525999899995 ], [ -115.2274788, 36.221525999899995 ], [ -115.2274788, 36.221523299899999 ], [ -115.227441, 36.221523299899999 ], [ -115.227441, 36.221520599899996 ], [ -115.2274248, 36.221520599899996 ], [ -115.2274248, 36.2215178999 ], [ -115.227414, 36.2215178999 ], [ -115.227414, 36.221512499899994 ], [ -115.2274113, 36.221512499899994 ], [ -115.2274113, 36.221496299899997 ], [ -115.2274059, 36.221496299899997 ], [ -115.2274059, 36.221493599900001 ], [ -115.2273762, 36.221493599900001 ], [ -115.2273762, 36.221490899899997 ], [ -115.2273546, 36.221490899899997 ], [ -115.2273546, 36.221488199899994 ], [ -115.2273438, 36.221488199899994 ], [ -115.2273438, 36.221485499899998 ], [ -115.2273384, 36.221485499899998 ], [ -115.2273384, 36.221480099899999 ], [ -115.2273357, 36.221480099899999 ], [ -115.2273357, 36.221461199899998 ], [ -115.2273384, 36.221461199899998 ], [ -115.2273384, 36.2214503999 ], [ -115.2273411, 36.2214503999 ], [ -115.2273411, 36.221423399899997 ], [ -115.2273438, 36.221423399899997 ], [ -115.2273438, 36.2214071999 ], [ -115.2273465, 36.2214071999 ], [ -115.2273465, 36.221355899899997 ], [ -115.2273492, 36.221355899899997 ], [ -115.2273492, 36.221347799899995 ], [ -115.2273519, 36.221347799899995 ], [ -115.2273519, 36.221342399899996 ], [ -115.2273546, 36.221342399899996 ], [ -115.2273546, 36.2213396999 ], [ -115.2273573, 36.2213396999 ], [ -115.2273573, 36.221336999899997 ], [ -115.22736, 36.221336999899997 ], [ -115.22736, 36.221334299899993 ], [ -115.2273654, 36.221334299899993 ], [ -115.2273654, 36.221331599899997 ], [ -115.227370799999989, 36.221331599899997 ], [ -115.227370799999989, 36.221328899899994 ], [ -115.2273762, 36.221328899899994 ], [ -115.2273762, 36.221326199899998 ], [ -115.2273789, 36.221326199899998 ], [ -115.2273789, 36.221323499899995 ], [ -115.227387, 36.221323499899995 ], [ -115.227387, 36.221320799899999 ], [ -115.2274302, 36.221320799899999 ], [ -115.2274302, 36.221323499899995 ], [ -115.2274491, 36.221323499899995 ], [ -115.2274491, 36.221326199899998 ], [ -115.2274518, 36.221326199899998 ], [ -115.2274518, 36.221328899899994 ], [ -115.2274545, 36.221328899899994 ], [ -115.2274545, 36.221334299899993 ], [ -115.227457199999989, 36.221334299899993 ], [ -115.227457199999989, 36.221342399899996 ], [ -115.2274599, 36.221342399899996 ], [ -115.2274599, 36.221361299899996 ], [ -115.2274626, 36.221361299899996 ], [ -115.2274626, 36.221363999899999 ], [ -115.2274653, 36.221363999899999 ], [ -115.2274653, 36.221366699899995 ], [ -115.2274896, 36.221366699899995 ], [ -115.2274896, 36.221363999899999 ], [ -115.2274923, 36.221363999899999 ], [ -115.2274923, 36.2213585999 ], [ -115.227495, 36.2213585999 ], [ -115.227495, 36.221350499899998 ], [ -115.2274977, 36.221350499899998 ], [ -115.2274977, 36.221347799899995 ], [ -115.2275004, 36.221347799899995 ], [ -115.2275004, 36.221345099899999 ], [ -115.2275031, 36.221345099899999 ], [ -115.2275031, 36.221342399899996 ], [ -115.2275328, 36.221342399899996 ], [ -115.2275328, 36.2213396999 ], [ -115.2275841, 36.2213396999 ], [ -115.2275841, 36.221342399899996 ], [ -115.227592199999989, 36.221342399899996 ], [ -115.227592199999989, 36.221345099899999 ], [ -115.2276003, 36.221345099899999 ], [ -115.2276003, 36.221347799899995 ], [ -115.2276246, 36.221347799899995 ], [ -115.2276246, 36.221350499899998 ], [ -115.22763, 36.221350499899998 ], [ -115.22763, 36.221353199899994 ], [ -115.2276327, 36.221353199899994 ], [ -115.2276327, 36.221355899899997 ], [ -115.2276354, 36.221355899899997 ], [ -115.2276354, 36.221366699899995 ], [ -115.2276381, 36.221366699899995 ], [ -115.2276381, 36.221374799899998 ], [ -115.2276354, 36.221374799899998 ], [ -115.2276354, 36.221393699899998 ], [ -115.2276327, 36.221393699899998 ], [ -115.2276327, 36.221415299899995 ], [ -115.22763, 36.221415299899995 ], [ -115.22763, 36.221436899899999 ], [ -115.2276273, 36.221436899899999 ], [ -115.2276273, 36.221455799899999 ], [ -115.2276246, 36.221455799899999 ], [ -115.2276246, 36.221480099899999 ], [ -115.2276219, 36.221480099899999 ], [ -115.2276219, 36.221504399899999 ], [ -115.2276192, 36.221504399899999 ], [ -115.2276192, 36.221507099899995 ], [ -115.2276165, 36.221507099899995 ], [ -115.2276165, 36.221509799899998 ], [ -115.2275868, 36.221509799899998 ], [ -115.2275868, 36.221507099899995 ], [ -115.2275382, 36.221507099899995 ], [ -115.2275382, 36.221509799899998 ], [ -115.2275355, 36.221509799899998 ], [ -115.2275355, 36.221512499899994 ], [ -115.2275328, 36.221512499899994 ], [ -115.2275328, 36.221520599899996 ], [ -115.2275301, 36.221520599899996 ], [ -115.2275301, 36.221525999899995 ] ] ] } },
{ "type": "Feature", "properties": { "value": 255.0 }, "geometry": { "type": "Polygon", "coordinates": [ [ [ -115.2284076, 36.221598899899995 ], [ -115.2283374, 36.221598899899995 ], [ -115.2283374, 36.221596199899999 ], [ -115.2282024, 36.221596199899999 ], [ -115.2282024, 36.221593499899996 ], [ -115.228197, 36.221593499899996 ], [ -115.228197, 36.2215907999 ], [ -115.2281943, 36.2215907999 ], [ -115.2281943, 36.221579999899994 ], [ -115.2281916, 36.221579999899994 ], [ -115.2281916, 36.221528699899999 ], [ -115.2281943, 36.221528699899999 ], [ -115.2281943, 36.221512499899994 ], [ -115.228197, 36.221512499899994 ], [ -115.228197, 36.221504399899999 ], [ -115.2281943, 36.221504399899999 ], [ -115.2281943, 36.221493599900001 ], [ -115.2281916, 36.221493599900001 ], [ -115.2281916, 36.221463899899994 ], [ -115.2281943, 36.221463899899994 ], [ -115.2281943, 36.221385599899996 ], [ -115.228197, 36.221385599899996 ], [ -115.228197, 36.2213585999 ], [ -115.2281943, 36.2213585999 ], [ -115.2281943, 36.221342399899996 ], [ -115.2281916, 36.221342399899996 ], [ -115.2281916, 36.221331599899997 ], [ -115.2281943, 36.221331599899997 ], [ -115.2281943, 36.221326199899998 ], [ -115.228197, 36.221326199899998 ], [ -115.228197, 36.221323499899995 ], [ -115.2281997, 36.221323499899995 ], [ -115.2281997, 36.221320799899999 ], [ -115.2282051, 36.221320799899999 ], [ -115.2282051, 36.221318099899996 ], [ -115.2282105, 36.221318099899996 ], [ -115.2282105, 36.2213153999 ], [ -115.2282132, 36.2213153999 ], [ -115.2282132, 36.221312699899997 ], [ -115.2283563, 36.221312699899997 ], [ -115.2283563, 36.2213153999 ], [ -115.2284076, 36.2213153999 ], [ -115.2284076, 36.221318099899996 ], [ -115.228413, 36.221318099899996 ], [ -115.228413, 36.221320799899999 ], [ -115.2284157, 36.221320799899999 ], [ -115.2284157, 36.221342399899996 ], [ -115.228413, 36.221342399899996 ], [ -115.228413, 36.221385599899996 ], [ -115.2284103, 36.221385599899996 ], [ -115.2284103, 36.221388299899999 ], [ -115.2284076, 36.221388299899999 ], [ -115.2284076, 36.221390999899995 ], [ -115.2283887, 36.221390999899995 ], [ -115.2283887, 36.221388299899999 ], [ -115.2283401, 36.221388299899999 ], [ -115.2283401, 36.221390999899995 ], [ -115.2283347, 36.221390999899995 ], [ -115.2283347, 36.221393699899998 ], [ -115.228332, 36.221393699899998 ], [ -115.228332, 36.221455799899999 ], [ -115.2283293, 36.221455799899999 ], [ -115.2283293, 36.221488199899994 ], [ -115.2283266, 36.221488199899994 ], [ -115.2283266, 36.221493599900001 ], [ -115.2283185, 36.221493599900001 ], [ -115.2283185, 36.221490899899997 ], [ -115.2283104, 36.221490899899997 ], [ -115.2283104, 36.221493599900001 ], [ -115.228305, 36.221493599900001 ], [ -115.228305, 36.2214989999 ], [ -115.2283023, 36.2214989999 ], [ -115.2283023, 36.221512499899994 ], [ -115.228305, 36.221512499899994 ], [ -115.228305, 36.2215178999 ], [ -115.2283077, 36.2215178999 ], [ -115.2283077, 36.221520599899996 ], [ -115.2283104, 36.221520599899996 ], [ -115.2283104, 36.221523299899999 ], [ -115.2283212, 36.221523299899999 ], [ -115.2283212, 36.221525999899995 ], [ -115.2283644, 36.221525999899995 ], [ -115.2283644, 36.221523299899999 ], [ -115.2283725, 36.221523299899999 ], [ -115.2283725, 36.221512499899994 ], [ -115.2283752, 36.221512499899994 ], [ -115.2283752, 36.221509799899998 ], [ -115.2283779, 36.221509799899998 ], [ -115.2283779, 36.221504399899999 ], [ -115.2283806, 36.221504399899999 ], [ -115.2283806, 36.221501699899996 ], [ -115.228386, 36.221501699899996 ], [ -115.228386, 36.2214989999 ], [ -115.2284103, 36.2214989999 ], [ -115.2284103, 36.221501699899996 ], [ -115.228413, 36.221501699899996 ], [ -115.228413, 36.221515199899997 ], [ -115.2284103, 36.221515199899997 ], [ -115.2284103, 36.221596199899999 ], [ -115.2284076, 36.221596199899999 ], [ -115.2284076, 36.221598899899995 ] ] ] } },
{ "type": "Feature", "properties": { "value": 255.0 }, "geometry": { "type": "Polygon", "coordinates": [ [ [ -115.2270603, 36.221471999899997 ], [ -115.2270441, 36.221471999899997 ], [ -115.2270441, 36.221469299899994 ], [ -115.2270387, 36.221469299899994 ], [ -115.2270387, 36.221466599899998 ], [ -115.227036, 36.221466599899998 ], [ -115.227036, 36.221463899899994 ], [ -115.2270306, 36.221463899899994 ], [ -115.2270306, 36.221461199899998 ], [ -115.2270279, 36.221461199899998 ], [ -115.2270279, 36.221458499899995 ], [ -115.2270252, 36.221458499899995 ], [ -115.2270252, 36.221455799899999 ], [ -115.2270225, 36.221455799899999 ], [ -115.2270225, 36.221453099899996 ], [ -115.2270198, 36.221453099899996 ], [ -115.2270198, 36.2214503999 ], [ -115.2270144, 36.2214503999 ], [ -115.2270144, 36.221447699899997 ], [ -115.2270117, 36.221447699899997 ], [ -115.2270117, 36.221444999899994 ], [ -115.227009, 36.221444999899994 ], [ -115.227009, 36.221442299899998 ], [ -115.227003599999989, 36.221442299899998 ], [ -115.227003599999989, 36.221439599899995 ], [ -115.2270009, 36.221439599899995 ], [ -115.2270009, 36.221436899899999 ], [ -115.2269982, 36.221436899899999 ], [ -115.2269982, 36.221434199899996 ], [ -115.2269928, 36.221434199899996 ], [ -115.2269928, 36.2214314999 ], [ -115.2269901, 36.2214314999 ], [ -115.2269901, 36.221428799899996 ], [ -115.2269874, 36.221428799899996 ], [ -115.2269874, 36.2214260999 ], [ -115.226984699999988, 36.2214260999 ], [ -115.226984699999988, 36.221423399899997 ], [ -115.226982, 36.221423399899997 ], [ -115.226982, 36.221420699899994 ], [ -115.2269766, 36.221420699899994 ], [ -115.2269766, 36.221417999899998 ], [ -115.2269739, 36.221417999899998 ], [ -115.2269739, 36.221415299899995 ], [ -115.2269712, 36.221415299899995 ], [ -115.2269712, 36.221412599899999 ], [ -115.2269685, 36.221412599899999 ], [ -115.2269685, 36.221409899899996 ], [ -115.2269631, 36.221409899899996 ], [ -115.2269631, 36.2214071999 ], [ -115.2269604, 36.2214071999 ], [ -115.2269604, 36.221404499899997 ], [ -115.2269577, 36.221404499899997 ], [ -115.2269577, 36.221401799899994 ], [ -115.226955, 36.221401799899994 ], [ -115.226955, 36.221399099899998 ], [ -115.2269523, 36.221399099899998 ], [ -115.2269523, 36.221396399899994 ], [ -115.2269469, 36.221396399899994 ], [ -115.2269469, 36.221393699899998 ], [ -115.2269442, 36.221393699899998 ], [ -115.2269442, 36.221390999899995 ], [ -115.2269415, 36.221390999899995 ], [ -115.2269415, 36.221388299899999 ], [ -115.226936099999989, 36.221388299899999 ], [ -115.226936099999989, 36.221385599899996 ], [ -115.2269334, 36.221385599899996 ], [ -115.2269334, 36.2213828999 ], [ -115.2269307, 36.2213828999 ], [ -115.2269307, 36.221380199899997 ], [ -115.226928, 36.221380199899997 ], [ -115.226928, 36.221377499899994 ], [ -115.2269226, 36.221377499899994 ], [ -115.2269226, 36.221374799899998 ], [ -115.2269199, 36.221374799899998 ], [ -115.2269199, 36.221372099899995 ], [ -115.226917199999988, 36.221372099899995 ], [ -115.226917199999988, 36.221369399899999 ], [ -115.2269145, 36.221369399899999 ], [ -115.2269145, 36.221366699899995 ], [ -115.2269091, 36.221366699899995 ], [ -115.2269091, 36.221363999899999 ], [ -115.2269064, 36.221363999899999 ], [ -115.2269064, 36.221361299899996 ], [ -115.2269037, 36.221361299899996 ], [ -115.2269037, 36.2213585999 ], [ -115.226901, 36.2213585999 ], [ -115.226901, 36.221355899899997 ], [ -115.226898299999988, 36.221355899899997 ], [ -115.226898299999988, 36.221353199899994 ], [ -115.2268929, 36.221353199899994 ], [ -115.2268929, 36.221350499899998 ], [ -115.2268902, 36.221350499899998 ], [ -115.2268902, 36.221347799899995 ], [ -115.226887499999989, 36.221347799899995 ], [ -115.226887499999989, 36.221345099899999 ], [ -115.2268821, 36.221345099899999 ], [ -115.2268821, 36.221342399899996 ], [ -115.2268794, 36.221342399899996 ], [ -115.2268794, 36.2213396999 ], [ -115.2268767, 36.2213396999 ], [ -115.2268767, 36.221336999899997 ], [ -115.226874, 36.221336999899997 ], [ -115.226874, 36.221334299899993 ], [ -115.2268713, 36.221334299899993 ], [ -115.2268713, 36.221331599899997 ], [ -115.2268659, 36.221331599899997 ], [ -115.2268659, 36.221328899899994 ], [ -115.2268632, 36.221328899899994 ], [ -115.2268632, 36.221326199899998 ], [ -115.2268578, 36.221326199899998 ], [ -115.2268578, 36.221323499899995 ], [ -115.2268551, 36.221323499899995 ], [ -115.2268551, 36.221320799899999 ], [ -115.2268524, 36.221320799899999 ], [ -115.2268524, 36.2213153999 ], [ -115.226849699999988, 36.2213153999 ], [ -115.226849699999988, 36.221312699899997 ], [ -115.2271251, 36.221312699899997 ], [ -115.2271251, 36.221318099899996 ], [ -115.2271278, 36.221318099899996 ], [ -115.2271278, 36.221320799899999 ], [ -115.2271305, 36.221320799899999 ], [ -115.2271305, 36.221323499899995 ], [ -115.2271332, 36.221323499899995 ], [ -115.2271332, 36.221326199899998 ], [ -115.2271359, 36.221326199899998 ], [ -115.2271359, 36.221331599899997 ], [ -115.2271332, 36.221331599899997 ], [ -115.2271332, 36.221342399899996 ], [ -115.227144, 36.221342399899996 ], [ -115.227144, 36.221345099899999 ], [ -115.2271521, 36.221345099899999 ], [ -115.2271521, 36.221347799899995 ], [ -115.2271602, 36.221347799899995 ], [ -115.2271602, 36.221361299899996 ], [ -115.2271629, 36.221361299899996 ], [ -115.2271629, 36.221363999899999 ], [ -115.2271656, 36.221363999899999 ], [ -115.2271656, 36.221372099899995 ], [ -115.2271629, 36.221372099899995 ], [ -115.2271629, 36.221385599899996 ], [ -115.2271602, 36.221385599899996 ], [ -115.2271602, 36.221399099899998 ], [ -115.2271575, 36.221399099899998 ], [ -115.2271575, 36.221401799899994 ], [ -115.2271548, 36.221401799899994 ], [ -115.2271548, 36.221404499899997 ], [ -115.2271521, 36.221404499899997 ], [ -115.2271521, 36.2214071999 ], [ -115.2271467, 36.2214071999 ], [ -115.2271467, 36.221409899899996 ], [ -115.227144, 36.221409899899996 ], [ -115.227144, 36.221412599899999 ], [ -115.2271413, 36.221412599899999 ], [ -115.2271413, 36.221415299899995 ], [ -115.227138599999989, 36.221415299899995 ], [ -115.227138599999989, 36.221417999899998 ], [ -115.2271359, 36.221417999899998 ], [ -115.2271359, 36.221420699899994 ], [ -115.2271332, 36.221420699899994 ], [ -115.2271332, 36.2214260999 ], [ -115.2271305, 36.2214260999 ], [ -115.2271305, 36.221428799899996 ], [ -115.2271278, 36.221428799899996 ], [ -115.2271278, 36.2214314999 ], [ -115.2271251, 36.2214314999 ], [ -115.2271251, 36.221434199899996 ], [ -115.2271224, 36.221434199899996 ], [ -115.2271224, 36.221436899899999 ], [ -115.227119699999989, 36.221436899899999 ], [ -115.227119699999989, 36.221439599899995 ], [ -115.2271143, 36.221439599899995 ], [ -115.2271143, 36.221442299899998 ], [ -115.2271089, 36.221442299899998 ], [ -115.2271089, 36.221444999899994 ], [ -115.2271035, 36.221444999899994 ], [ -115.2271035, 36.221447699899997 ], [ -115.227100799999988, 36.221447699899997 ], [ -115.227100799999988, 36.2214503999 ], [ -115.2270954, 36.2214503999 ], [ -115.2270954, 36.221453099899996 ], [ -115.2270927, 36.221453099899996 ], [ -115.2270927, 36.221455799899999 ], [ -115.22709, 36.221455799899999 ], [ -115.22709, 36.221458499899995 ], [ -115.2270846, 36.221458499899995 ], [ -115.2270846, 36.221461199899998 ], [ -115.2270792, 36.221461199899998 ], [ -115.2270792, 36.221463899899994 ], [ -115.2270738, 36.221463899899994 ], [ -115.2270738, 36.221466599899998 ], [ -115.2270684, 36.221466599899998 ], [ -115.2270684, 36.221469299899994 ], [ -115.2270603, 36.221469299899994 ], [ -115.2270603, 36.221471999899997 ] ] ] } }
]
}
