{
"type": "FeatureCollection",
"crs": { "type": "name", "properties": { "name": "urn:ogc:def:crs:OGC:1.3:CRS84" } },
"features": [
{ "type": "Feature", "properties": { "value": 255.0 }, "geometry": { "type": "Polygon", "coordinates": [ [ [ -115.1688375, 36.1614725998 ], [ -115.1688267, 36.1614725998 ], [ -115.1688267, 36.161469899799997 ], [ -115.168824, 36.161469899799997 ], [ -115.168824, 36.161467199800001 ], [ -115.1688213, 36.161467199800001 ], [ -115.1688213, 36.161270099799999 ], [ -115.168824, 36.161270099799999 ], [ -115.168824, 36.161237699799997 ], [ -115.1688213, 36.161237699799997 ], [ -115.1688213, 36.161226899799999 ], [ -115.1688267, 36.161226899799999 ], [ -115.1688267, 36.161224199799996 ], [ -115.1688348, 36.161224199799996 ], [ -115.1688348, 36.161226899799999 ], [ -115.1688726, 36.161226899799999 ], [ -115.1688726, 36.161469899799997 ], [ -115.1688375, 36.161469899799997 ], [ -115.1688375, 36.1614725998 ] ] ] } },
{ "type": "Feature", "properties": { "value": 255.0 }, "geometry": { "type": "Polygon", "coordinates": [ [ [ -115.1687484, 36.1614725998 ], [ -115.1687403, 36.1614725998 ], [ -115.1687403, 36.161469899799997 ], [ -115.1686485, 36.161469899799997 ], [ -115.1686485, 36.1614725998 ], [ -115.1686377, 36.1614725998 ], [ -115.1686377, 36.161469899799997 ], [ -115.1686323, 36.161469899799997 ], [ -115.1686323, 36.161464499799997 ], [ -115.1686296, 36.161464499799997 ], [ -115.1686296, 36.161461799800001 ], [ -115.1686242, 36.161461799800001 ], [ -115.1686242, 36.161459099799998 ], [ -115.1686161, 36.161459099799998 ], [ -115.1686161, 36.161456399799995 ], [ -115.1686134, 36.161456399799995 ], [ -115.1686134, 36.161445599799997 ], [ -115.1686161, 36.161445599799997 ], [ -115.1686161, 36.161437499800002 ], [ -115.1686188, 36.161437499800002 ], [ -115.1686188, 36.161432099799995 ], [ -115.1686215, 36.161432099799995 ], [ -115.1686215, 36.1614239998 ], [ -115.1686242, 36.1614239998 ], [ -115.1686242, 36.161415899799998 ], [ -115.1686269, 36.161415899799998 ], [ -115.1686269, 36.161402399799996 ], [ -115.1686296, 36.161402399799996 ], [ -115.1686296, 36.161310599799997 ], [ -115.1686323, 36.161310599799997 ], [ -115.1686323, 36.161307899800001 ], [ -115.1686296, 36.161307899800001 ], [ -115.1686296, 36.161270099799999 ], [ -115.1686323, 36.161270099799999 ], [ -115.1686323, 36.161232299799998 ], [ -115.168635, 36.161232299799998 ], [ -115.168635, 36.161226899799999 ], [ -115.1686404, 36.161226899799999 ], [ -115.1686404, 36.161224199799996 ], [ -115.1686431, 36.161224199799996 ], [ -115.1686431, 36.1612214998 ], [ -115.1686512, 36.1612214998 ], [ -115.1686512, 36.161218799799997 ], [ -115.1686728, 36.161218799799997 ], [ -115.1686728, 36.1612214998 ], [ -115.1686971, 36.1612214998 ], [ -115.1686971, 36.161224199799996 ], [ -115.1687214, 36.161224199799996 ], [ -115.1687214, 36.161226899799999 ], [ -115.168743, 36.161226899799999 ], [ -115.168743, 36.161229599800002 ], [ -115.1687511, 36.161229599800002 ], [ -115.1687511, 36.1612403998 ], [ -115.1687538, 36.1612403998 ], [ -115.1687538, 36.161256599799998 ], [ -115.1687511, 36.161256599799998 ], [ -115.1687511, 36.161469899799997 ], [ -115.1687484, 36.161469899799997 ], [ -115.1687484, 36.1614725998 ] ] ] } },
{ "type": "Feature", "properties": { "value": 255.0 }, "geometry": { "type": "Polygon", "coordinates": [ [ [ -115.1687781, 36.161175599799996 ], [ -115.168743, 36.161175599799996 ], [ -115.168743, 36.1611728998 ], [ -115.1687214, 36.1611728998 ], [ -115.1687214, 36.161170199799997 ], [ -115.1687187, 36.161170199799997 ], [ -115.1687187, 36.161135099799999 ], [ -115.1687214, 36.161135099799999 ], [ -115.1687214, 36.161132399799996 ], [ -115.1687295, 36.161132399799996 ], [ -115.1687295, 36.1611296998 ], [ -115.168797, 36.1611296998 ], [ -115.168797, 36.161126999799997 ], [ -115.1688132, 36.161126999799997 ], [ -115.1688132, 36.1611296998 ], [ -115.1688618, 36.1611296998 ], [ -115.1688618, 36.161132399799996 ], [ -115.1688726, 36.161132399799996 ], [ -115.1688726, 36.1611728998 ], [ -115.1687781, 36.1611728998 ], [ -115.1687781, 36.161175599799996 ] ] ] } },
{ "type": "Feature", "properties": { "value": 255.0 }, "geometry": { "type": "Polygon", "coordinates": [ [ [ -115.1686674, 36.1611728998 ], [ -115.168635, 36.1611728998 ], [ -115.168635, 36.161170199799997 ], [ -115.1686215, 36.161170199799997 ], [ -115.1686215, 36.161167499800001 ], [ -115.1686134, 36.161167499800001 ], [ -115.1686134, 36.161164799799998 ], [ -115.168608, 36.161164799799998 ], [ -115.168608, 36.161162099800002 ], [ -115.1686026, 36.161162099800002 ], [ -115.1686026, 36.161159399799999 ], [ -115.1685999, 36.161159399799999 ], [ -115.1685999, 36.161156699799996 ], [ -115.1685972, 36.161156699799996 ], [ -115.1685972, 36.161151299799997 ], [ -115.1685945, 36.161151299799997 ], [ -115.1685945, 36.161135099799999 ], [ -115.1685891, 36.161135099799999 ], [ -115.1685891, 36.161132399799996 ], [ -115.168581, 36.161132399799996 ], [ -115.168581, 36.1611296998 ], [ -115.1685729, 36.1611296998 ], [ -115.1685729, 36.161126999799997 ], [ -115.1685702, 36.161126999799997 ], [ -115.1685702, 36.161121599799998 ], [ -115.1686161, 36.161121599799998 ], [ -115.1686161, 36.161118899800002 ], [ -115.1686566, 36.161118899800002 ], [ -115.1686566, 36.161121599799998 ], [ -115.1686647, 36.161121599799998 ], [ -115.1686647, 36.161124299800001 ], [ -115.1686674, 36.161124299800001 ], [ -115.1686674, 36.161126999799997 ], [ -115.1686728, 36.161126999799997 ], [ -115.1686728, 36.1611296998 ], [ -115.1686809, 36.1611296998 ], [ -115.1686809, 36.161132399799996 ], [ -115.168689, 36.161132399799996 ], [ -115.168689, 36.161135099799999 ], [ -115.1687052, 36.161135099799999 ], [ -115.1687052, 36.161137799800002 ], [ -115.1687079, 36.161137799800002 ], [ -115.1687079, 36.161159399799999 ], [ -115.1687052, 36.161159399799999 ], [ -115.1687052, 36.161164799799998 ], [ -115.1687025, 36.161164799799998 ], [ -115.1687025, 36.161167499800001 ], [ -115.1686917, 36.161167499800001 ], [ -115.1686917, 36.161170199799997 ], [ -115.1686674, 36.161170199799997 ], [ -115.1686674, 36.1611728998 ] ] ] } },
{ "type": "Feature", "properties": { "value": 255.0 }, "geometry": { "type": "Polygon", "coordinates": [ [ [ -115.1682219, 36.1614914998 ], [ -115.1682165, 36.1614914998 ], [ -115.1682165, 36.161488799799997 ], [ -115.1681841, 36.161488799799997 ], [ -115.1681841, 36.1614914998 ], [ -115.1681814, 36.1614914998 ], [ -115.1681814, 36.161488799799997 ], [ -115.1681733, 36.161488799799997 ], [ -115.1681733, 36.161486099800001 ], [ -115.168149, 36.161486099800001 ], [ -115.168149, 36.161483399799998 ], [ -115.1681436, 36.161483399799998 ], [ -115.1681436, 36.161486099800001 ], [ -115.1681058, 36.161486099800001 ], [ -115.1681058, 36.161483399799998 ], [ -115.1680977, 36.161483399799998 ], [ -115.1680977, 36.161480699799995 ], [ -115.1680815, 36.161480699799995 ], [ -115.1680815, 36.161477999799999 ], [ -115.1680761, 36.161477999799999 ], [ -115.1680761, 36.161475299799996 ], [ -115.1680707, 36.161475299799996 ], [ -115.1680707, 36.1614725998 ], [ -115.168068, 36.1614725998 ], [ -115.168068, 36.161469899799997 ], [ -115.1680599, 36.161469899799997 ], [ -115.1680599, 36.161467199800001 ], [ -115.1680545, 36.161467199800001 ], [ -115.1680545, 36.161464499799997 ], [ -115.1680518, 36.161464499799997 ], [ -115.1680518, 36.161461799800001 ], [ -115.1680491, 36.161461799800001 ], [ -115.1680491, 36.161459099799998 ], [ -115.1680464, 36.161459099799998 ], [ -115.1680464, 36.161453699799999 ], [ -115.1680437, 36.161453699799999 ], [ -115.1680437, 36.161450999799996 ], [ -115.1680383, 36.161450999799996 ], [ -115.1680383, 36.1614482998 ], [ -115.1680275, 36.1614482998 ], [ -115.1680275, 36.161445599799997 ], [ -115.1680221, 36.161445599799997 ], [ -115.1680221, 36.1614482998 ], [ -115.1680194, 36.1614482998 ], [ -115.1680194, 36.161445599799997 ], [ -115.168014, 36.161445599799997 ], [ -115.168014, 36.161442899800001 ], [ -115.1680113, 36.161442899800001 ], [ -115.1680113, 36.161437499800002 ], [ -115.1680086, 36.161437499800002 ], [ -115.1680086, 36.161432099799995 ], [ -115.1680059, 36.161432099799995 ], [ -115.1680059, 36.161426699799996 ], [ -115.1680032, 36.161426699799996 ], [ -115.1680032, 36.161421299799997 ], [ -115.1680005, 36.161421299799997 ], [ -115.1680005, 36.161418599800001 ], [ -115.1679978, 36.161418599800001 ], [ -115.1679978, 36.161415899799998 ], [ -115.1679951, 36.161415899799998 ], [ -115.1679951, 36.161410499799999 ], [ -115.1679924, 36.161410499799999 ], [ -115.1679924, 36.1614050998 ], [ -115.1679897, 36.1614050998 ], [ -115.1679897, 36.1613996998 ], [ -115.167987, 36.1613996998 ], [ -115.167987, 36.161394299800001 ], [ -115.1679843, 36.161394299800001 ], [ -115.1679843, 36.161388899800002 ], [ -115.1679816, 36.161388899800002 ], [ -115.1679816, 36.161378099799997 ], [ -115.1679789, 36.161378099799997 ], [ -115.1679789, 36.161326799800001 ], [ -115.1679762, 36.161326799800001 ], [ -115.1679762, 36.161324099799998 ], [ -115.1679735, 36.161324099799998 ], [ -115.1679735, 36.161321399800002 ], [ -115.1679546, 36.161321399800002 ], [ -115.1679546, 36.161318699799999 ], [ -115.1679114, 36.161318699799999 ], [ -115.1679114, 36.1613132998 ], [ -115.1679087, 36.1613132998 ], [ -115.1679087, 36.161270099799999 ], [ -115.1679114, 36.161270099799999 ], [ -115.1679114, 36.161243099799997 ], [ -115.1679087, 36.161243099799997 ], [ -115.1679087, 36.161205299800002 ], [ -115.1679114, 36.161205299800002 ], [ -115.1679114, 36.1611782998 ], [ -115.1679141, 36.1611782998 ], [ -115.1679141, 36.161162099800002 ], [ -115.1679168, 36.161162099800002 ], [ -115.1679168, 36.161156699799996 ], [ -115.1679195, 36.161156699799996 ], [ -115.1679195, 36.1611539998 ], [ -115.1679249, 36.1611539998 ], [ -115.1679249, 36.161151299799997 ], [ -115.1679303, 36.161151299799997 ], [ -115.1679303, 36.161148599800001 ], [ -115.167933, 36.161148599800001 ], [ -115.167933, 36.161151299799997 ], [ -115.1679357, 36.161151299799997 ], [ -115.1679357, 36.1611539998 ], [ -115.1679411, 36.1611539998 ], [ -115.1679411, 36.161135099799999 ], [ -115.1679384, 36.161135099799999 ], [ -115.1679384, 36.161132399799996 ], [ -115.1679357, 36.161132399799996 ], [ -115.1679357, 36.1611296998 ], [ -115.1679303, 36.1611296998 ], [ -115.1679303, 36.161126999799997 ], [ -115.1679276, 36.161126999799997 ], [ -115.1679276, 36.161118899800002 ], [ -115.1679303, 36.161118899800002 ], [ -115.1679303, 36.161113499800003 ], [ -115.167933, 36.161113499800003 ], [ -115.167933, 36.161110799799999 ], [ -115.1679357, 36.161110799799999 ], [ -115.1679357, 36.161108099799996 ], [ -115.1679411, 36.161108099799996 ], [ -115.1679411, 36.1611053998 ], [ -115.1679465, 36.1611053998 ], [ -115.1679465, 36.161099999800001 ], [ -115.1679492, 36.161099999800001 ], [ -115.1679492, 36.161094599800002 ], [ -115.1679519, 36.161094599800002 ], [ -115.1679519, 36.161089199800003 ], [ -115.1679546, 36.161089199800003 ], [ -115.1679546, 36.1610864998 ], [ -115.1679573, 36.1610864998 ], [ -115.1679573, 36.161083799799997 ], [ -115.16796, 36.161083799799997 ], [ -115.16796, 36.161081099800001 ], [ -115.1679627, 36.161081099800001 ], [ -115.1679627, 36.161078399799997 ], [ -115.1679654, 36.161078399799997 ], [ -115.1679654, 36.161070299800002 ], [ -115.1679681, 36.161070299800002 ], [ -115.1679681, 36.161059499799997 ], [ -115.1679708, 36.161059499799997 ], [ -115.1679708, 36.161045999800002 ], [ -115.1679681, 36.161045999800002 ], [ -115.1679681, 36.161043299799999 ], [ -115.1679654, 36.161043299799999 ], [ -115.1679654, 36.161040599799996 ], [ -115.1679627, 36.161040599799996 ], [ -115.1679627, 36.1610378998 ], [ -115.1679519, 36.1610378998 ], [ -115.1679519, 36.161035199799997 ], [ -115.1679411, 36.161035199799997 ], [ -115.1679411, 36.161032499800001 ], [ -115.1679384, 36.161032499800001 ], [ -115.1679384, 36.1610189998 ], [ -115.1679411, 36.1610189998 ], [ -115.1679411, 36.161021699800003 ], [ -115.1679438, 36.161021699800003 ], [ -115.1679438, 36.1610189998 ], [ -115.1679519, 36.1610189998 ], [ -115.1679519, 36.1610135998 ], [ -115.1679384, 36.1610135998 ], [ -115.1679384, 36.161008199800001 ], [ -115.1679357, 36.161008199800001 ], [ -115.1679357, 36.161000099799999 ], [ -115.1679384, 36.161000099799999 ], [ -115.1679384, 36.160975799799999 ], [ -115.1679411, 36.160975799799999 ], [ -115.1679411, 36.160989299800001 ], [ -115.1679465, 36.160989299800001 ], [ -115.1679465, 36.160981199799998 ], [ -115.1679492, 36.160981199799998 ], [ -115.1679492, 36.160975799799999 ], [ -115.1679519, 36.160975799799999 ], [ -115.1679519, 36.160967699799997 ], [ -115.1679492, 36.160967699799997 ], [ -115.1679492, 36.160962299799998 ], [ -115.1679465, 36.160962299799998 ], [ -115.1679465, 36.160959599800002 ], [ -115.1679492, 36.160959599800002 ], [ -115.1679492, 36.1609460998 ], [ -115.1679519, 36.1609460998 ], [ -115.1679519, 36.160940699800001 ], [ -115.1679546, 36.160940699800001 ], [ -115.1679546, 36.1609271998 ], [ -115.1679573, 36.1609271998 ], [ -115.1679573, 36.160897499800001 ], [ -115.16796, 36.160897499800001 ], [ -115.16796, 36.160889399799999 ], [ -115.1679627, 36.160889399799999 ], [ -115.1679627, 36.160875899799997 ], [ -115.1679654, 36.160875899799997 ], [ -115.1679654, 36.160873199800001 ], [ -115.1679627, 36.160873199800001 ], [ -115.1679627, 36.1608542998 ], [ -115.1679654, 36.1608542998 ], [ -115.1679654, 36.160840799799999 ], [ -115.1679627, 36.160840799799999 ], [ -115.1679627, 36.160832699799997 ], [ -115.16796, 36.160832699799997 ], [ -115.16796, 36.160827299799998 ], [ -115.1679546, 36.160827299799998 ], [ -115.1679546, 36.160824599800002 ], [ -115.1679519, 36.160824599800002 ], [ -115.1679519, 36.160821899799998 ], [ -115.1679492, 36.160821899799998 ], [ -115.1679492, 36.160813799800003 ], [ -115.1679519, 36.160813799800003 ], [ -115.1679519, 36.160805699800001 ], [ -115.1679492, 36.160805699800001 ], [ -115.1679492, 36.160792199799999 ], [ -115.1679519, 36.160792199799999 ], [ -115.1679519, 36.160789499800003 ], [ -115.1679573, 36.160789499800003 ], [ -115.1679573, 36.1607867998 ], [ -115.1679762, 36.1607867998 ], [ -115.1679762, 36.160784099799997 ], [ -115.1680113, 36.160784099799997 ], [ -115.1680113, 36.160781399800001 ], [ -115.1680167, 36.160781399800001 ], [ -115.1680167, 36.160778699799998 ], [ -115.1680194, 36.160778699799998 ], [ -115.1680194, 36.160775999800002 ], [ -115.1680221, 36.160775999800002 ], [ -115.1680221, 36.1607678998 ], [ -115.1680248, 36.1607678998 ], [ -115.1680248, 36.160748999799999 ], [ -115.1680275, 36.160748999799999 ], [ -115.1680275, 36.160746299800003 ], [ -115.1680302, 36.160746299800003 ], [ -115.1680302, 36.1607435998 ], [ -115.1680329, 36.1607435998 ], [ -115.1680329, 36.160740899799997 ], [ -115.168041, 36.160740899799997 ], [ -115.168041, 36.160738199800001 ], [ -115.1681058, 36.160738199800001 ], [ -115.1681058, 36.160735499799998 ], [ -115.1681814, 36.160735499799998 ], [ -115.1681814, 36.160738199800001 ], [ -115.1682597, 36.160738199800001 ], [ -115.1682597, 36.160735499799998 ], [ -115.1682651, 36.160735499799998 ], [ -115.1682651, 36.160738199800001 ], [ -115.1682894, 36.160738199800001 ], [ -115.1682894, 36.160735499799998 ], [ -115.1683299, 36.160735499799998 ], [ -115.1683299, 36.160732799800002 ], [ -115.1683893, 36.160732799800002 ], [ -115.1683893, 36.160735499799998 ], [ -115.1684811, 36.160735499799998 ], [ -115.1684811, 36.160738199800001 ], [ -115.1685, 36.160738199800001 ], [ -115.1685, 36.160735499799998 ], [ -115.1685756, 36.160735499799998 ], [ -115.1685756, 36.160732799800002 ], [ -115.168608, 36.160732799800002 ], [ -115.168608, 36.160735499799998 ], [ -115.1686593, 36.160735499799998 ], [ -115.1686593, 36.160738199800001 ], [ -115.1686755, 36.160738199800001 ], [ -115.1686755, 36.160740899799997 ], [ -115.1686917, 36.160740899799997 ], [ -115.1686917, 36.1607435998 ], [ -115.1686971, 36.1607435998 ], [ -115.1686971, 36.160746299800003 ], [ -115.1686998, 36.160746299800003 ], [ -115.1686998, 36.160751699800002 ], [ -115.1687025, 36.160751699800002 ], [ -115.1687025, 36.160759799799997 ], [ -115.1687052, 36.160759799799997 ], [ -115.1687052, 36.160765199799997 ], [ -115.1687079, 36.160765199799997 ], [ -115.1687079, 36.160773299799999 ], [ -115.1687106, 36.160773299799999 ], [ -115.1687106, 36.160781399800001 ], [ -115.1687133, 36.160781399800001 ], [ -115.1687133, 36.160784099799997 ], [ -115.168716, 36.160784099799997 ], [ -115.168716, 36.1607867998 ], [ -115.1687187, 36.1607867998 ], [ -115.1687187, 36.160789499800003 ], [ -115.1687349, 36.160789499800003 ], [ -115.1687349, 36.160792199799999 ], [ -115.168743, 36.160792199799999 ], [ -115.168743, 36.160794899800003 ], [ -115.1687457, 36.160794899800003 ], [ -115.1687457, 36.160797599799999 ], [ -115.1687484, 36.160797599799999 ], [ -115.1687484, 36.160800299800002 ], [ -115.1687511, 36.160800299800002 ], [ -115.1687511, 36.160802999799998 ], [ -115.1687538, 36.160802999799998 ], [ -115.1687538, 36.160805699800001 ], [ -115.1687565, 36.160805699800001 ], [ -115.1687565, 36.160813799800003 ], [ -115.1687592, 36.160813799800003 ], [ -115.1687592, 36.160848899800001 ], [ -115.1687565, 36.160848899800001 ], [ -115.1687565, 36.160862399800003 ], [ -115.1687538, 36.160862399800003 ], [ -115.1687538, 36.160881299800003 ], [ -115.1687511, 36.160881299800003 ], [ -115.1687511, 36.1609271998 ], [ -115.1687484, 36.1609271998 ], [ -115.1687484, 36.160940699800001 ], [ -115.1687457, 36.160940699800001 ], [ -115.1687457, 36.160951499799999 ], [ -115.1687484, 36.160951499799999 ], [ -115.1687484, 36.160981199799998 ], [ -115.1687511, 36.160981199799998 ], [ -115.1687511, 36.160986599799998 ], [ -115.1687484, 36.160986599799998 ], [ -115.1687484, 36.161000099799999 ], [ -115.1687457, 36.161000099799999 ], [ -115.1687457, 36.161027099800002 ], [ -115.168743, 36.161027099800002 ], [ -115.168743, 36.161032499800001 ], [ -115.1687403, 36.161032499800001 ], [ -115.1687403, 36.161035199799997 ], [ -115.1687376, 36.161035199799997 ], [ -115.1687376, 36.1610378998 ], [ -115.1687214, 36.1610378998 ], [ -115.1687214, 36.161040599799996 ], [ -115.1687052, 36.161040599799996 ], [ -115.1687052, 36.161043299799999 ], [ -115.1687025, 36.161043299799999 ], [ -115.1687025, 36.161045999800002 ], [ -115.1686998, 36.161045999800002 ], [ -115.1686998, 36.161051399800002 ], [ -115.1686971, 36.161051399800002 ], [ -115.1686971, 36.161056799800001 ], [ -115.1686944, 36.161056799800001 ], [ -115.1686944, 36.1610621998 ], [ -115.168689, 36.1610621998 ], [ -115.168689, 36.161064899799996 ], [ -115.1686863, 36.161064899799996 ], [ -115.1686863, 36.161067599799999 ], [ -115.1686809, 36.161067599799999 ], [ -115.1686809, 36.161070299800002 ], [ -115.1686647, 36.161070299800002 ], [ -115.1686647, 36.161067599799999 ], [ -115.168662, 36.161067599799999 ], [ -115.168662, 36.161064899799996 ], [ -115.1686593, 36.161064899799996 ], [ -115.1686593, 36.1610621998 ], [ -115.1686566, 36.1610621998 ], [ -115.1686566, 36.161059499799997 ], [ -115.1686431, 36.161059499799997 ], [ -115.1686431, 36.1610621998 ], [ -115.1686242, 36.1610621998 ], [ -115.1686242, 36.161059499799997 ], [ -115.1686188, 36.161059499799997 ], [ -115.1686188, 36.1610621998 ], [ -115.1686107, 36.1610621998 ], [ -115.1686107, 36.161059499799997 ], [ -115.1686053, 36.161059499799997 ], [ -115.1686053, 36.1610621998 ], [ -115.1685891, 36.1610621998 ], [ -115.1685891, 36.161064899799996 ], [ -115.168581, 36.161064899799996 ], [ -115.168581, 36.161067599799999 ], [ -115.1685756, 36.161067599799999 ], [ -115.1685756, 36.161070299800002 ], [ -115.1685648, 36.161070299800002 ], [ -115.1685648, 36.161072999799998 ], [ -115.1685513, 36.161072999799998 ], [ -115.1685513, 36.161075699800001 ], [ -115.1685459, 36.161075699800001 ], [ -115.1685459, 36.161078399799997 ], [ -115.1685351, 36.161078399799997 ], [ -115.1685351, 36.161081099800001 ], [ -115.1685324, 36.161081099800001 ], [ -115.1685324, 36.1610864998 ], [ -115.1685297, 36.1610864998 ], [ -115.1685297, 36.161089199800003 ], [ -115.168527, 36.161089199800003 ], [ -115.168527, 36.161091899799999 ], [ -115.1685216, 36.161091899799999 ], [ -115.1685216, 36.161094599800002 ], [ -115.1685189, 36.161094599800002 ], [ -115.1685189, 36.1611053998 ], [ -115.1685216, 36.1611053998 ], [ -115.1685216, 36.161116199799999 ], [ -115.1685243, 36.161116199799999 ], [ -115.1685243, 36.161118899800002 ], [ -115.1685297, 36.161118899800002 ], [ -115.1685297, 36.161121599799998 ], [ -115.1685351, 36.161121599799998 ], [ -115.1685351, 36.161124299800001 ], [ -115.1685378, 36.161124299800001 ], [ -115.1685378, 36.161126999799997 ], [ -115.1685351, 36.161126999799997 ], [ -115.1685351, 36.1611296998 ], [ -115.168527, 36.1611296998 ], [ -115.168527, 36.161126999799997 ], [ -115.1685216, 36.161126999799997 ], [ -115.1685216, 36.161124299800001 ], [ -115.1685162, 36.161124299800001 ], [ -115.1685162, 36.161126999799997 ], [ -115.1685108, 36.161126999799997 ], [ -115.1685108, 36.1611296998 ], [ -115.1685081, 36.1611296998 ], [ -115.1685081, 36.161140499799998 ], [ -115.1685108, 36.161140499799998 ], [ -115.1685108, 36.161143199800001 ], [ -115.1685216, 36.161143199800001 ], [ -115.1685216, 36.161145899799997 ], [ -115.1685297, 36.161145899799997 ], [ -115.1685297, 36.161148599800001 ], [ -115.1685324, 36.161148599800001 ], [ -115.1685324, 36.161151299799997 ], [ -115.1685378, 36.161151299799997 ], [ -115.1685378, 36.1611539998 ], [ -115.1685432, 36.1611539998 ], [ -115.1685432, 36.161156699799996 ], [ -115.1685486, 36.161156699799996 ], [ -115.1685486, 36.161159399799999 ], [ -115.1685513, 36.161159399799999 ], [ -115.1685513, 36.161162099800002 ], [ -115.168554, 36.161162099800002 ], [ -115.168554, 36.161164799799998 ], [ -115.1685567, 36.161164799799998 ], [ -115.1685567, 36.161175599799996 ], [ -115.168554, 36.161175599799996 ], [ -115.168554, 36.161183699799999 ], [ -115.1685567, 36.161183699799999 ], [ -115.1685567, 36.161189099799998 ], [ -115.1685594, 36.161189099799998 ], [ -115.1685594, 36.161194499799997 ], [ -115.1685621, 36.161194499799997 ], [ -115.1685621, 36.161202599799999 ], [ -115.1685648, 36.161202599799999 ], [ -115.1685648, 36.161259299800001 ], [ -115.1685621, 36.161259299800001 ], [ -115.1685621, 36.161291699799996 ], [ -115.1685594, 36.161291699799996 ], [ -115.1685594, 36.161372699799998 ], [ -115.1685567, 36.161372699799998 ], [ -115.1685567, 36.161386199799999 ], [ -115.168554, 36.161386199799999 ], [ -115.168554, 36.161388899800002 ], [ -115.1685513, 36.161388899800002 ], [ -115.1685513, 36.161391599799998 ], [ -115.1685486, 36.161391599799998 ], [ -115.1685486, 36.161396999799997 ], [ -115.1685459, 36.161396999799997 ], [ -115.1685459, 36.1614050998 ], [ -115.1685432, 36.1614050998 ], [ -115.1685432, 36.161410499799999 ], [ -115.1685405, 36.161410499799999 ], [ -115.1685405, 36.161413199800002 ], [ -115.1685378, 36.161413199800002 ], [ -115.1685378, 36.161415899799998 ], [ -115.1685351, 36.161415899799998 ], [ -115.1685351, 36.1614239998 ], [ -115.1685324, 36.1614239998 ], [ -115.1685324, 36.161429399799999 ], [ -115.1685297, 36.161429399799999 ], [ -115.1685297, 36.161426699799996 ], [ -115.168527, 36.161426699799996 ], [ -115.168527, 36.161410499799999 ], [ -115.1685243, 36.161410499799999 ], [ -115.1685243, 36.161391599799998 ], [ -115.1685216, 36.161391599799998 ], [ -115.1685216, 36.1613807998 ], [ -115.1685189, 36.1613807998 ], [ -115.1685189, 36.161375399800001 ], [ -115.1685135, 36.161375399800001 ], [ -115.1685135, 36.161372699799998 ], [ -115.1685108, 36.161372699799998 ], [ -115.1685108, 36.161369999800002 ], [ -115.1685054, 36.161369999800002 ], [ -115.1685054, 36.161375399800001 ], [ -115.1685027, 36.161375399800001 ], [ -115.1685027, 36.1613807998 ], [ -115.1685, 36.1613807998 ], [ -115.1685, 36.161469899799997 ], [ -115.1684973, 36.161469899799997 ], [ -115.1684973, 36.161475299799996 ], [ -115.1684946, 36.161475299799996 ], [ -115.1684946, 36.161477999799999 ], [ -115.1684919, 36.161477999799999 ], [ -115.1684919, 36.161480699799995 ], [ -115.1684838, 36.161480699799995 ], [ -115.1684838, 36.161483399799998 ], [ -115.1684757, 36.161483399799998 ], [ -115.1684757, 36.161480699799995 ], [ -115.1684433, 36.161480699799995 ], [ -115.1684433, 36.161477999799999 ], [ -115.1684406, 36.161477999799999 ], [ -115.1684406, 36.161480699799995 ], [ -115.1684055, 36.161480699799995 ], [ -115.1684055, 36.161477999799999 ], [ -115.1684001, 36.161477999799999 ], [ -115.1684001, 36.161475299799996 ], [ -115.1683677, 36.161475299799996 ], [ -115.1683677, 36.1614725998 ], [ -115.1683623, 36.1614725998 ], [ -115.1683623, 36.161469899799997 ], [ -115.1683542, 36.161469899799997 ], [ -115.1683542, 36.1614725998 ], [ -115.1683461, 36.1614725998 ], [ -115.1683461, 36.161475299799996 ], [ -115.1683272, 36.161475299799996 ], [ -115.1683272, 36.161477999799999 ], [ -115.1683218, 36.161477999799999 ], [ -115.1683218, 36.161480699799995 ], [ -115.168311, 36.161480699799995 ], [ -115.168311, 36.161483399799998 ], [ -115.1682975, 36.161483399799998 ], [ -115.1682975, 36.161480699799995 ], [ -115.1682921, 36.161480699799995 ], [ -115.1682921, 36.161477999799999 ], [ -115.1682867, 36.161477999799999 ], [ -115.1682867, 36.161480699799995 ], [ -115.168284, 36.161480699799995 ], [ -115.168284, 36.161483399799998 ], [ -115.1682651, 36.161483399799998 ], [ -115.1682651, 36.161486099800001 ], [ -115.1682624, 36.161486099800001 ], [ -115.1682624, 36.161488799799997 ], [ -115.1682354, 36.161488799799997 ], [ -115.1682354, 36.161486099800001 ], [ -115.1682273, 36.161486099800001 ], [ -115.1682273, 36.161488799799997 ], [ -115.1682219, 36.161488799799997 ], [ -115.1682219, 36.1614914998 ] ] ] } },
{ "type": "Feature", "properties": { "value": 255.0 }, "geometry": { "type": "Polygon", "coordinates": [ [ [ -115.1679789, 36.160662599799998 ], [ -115.16796, 36.160662599799998 ], [ -115.16796, 36.160659899800002 ], [ -115.1679546, 36.160659899800002 ], [ -115.1679546, 36.160662599799998 ], [ -115.1679519, 36.160662599799998 ], [ -115.1679519, 36.160659899800002 ], [ -115.1679492, 36.160659899800002 ], [ -115.1679492, 36.160657199799999 ], [ -115.1679465, 36.160657199799999 ], [ -115.1679465, 36.1606517998 ], [ -115.1679492, 36.1606517998 ], [ -115.1679492, 36.160643699799998 ], [ -115.1679519, 36.160643699799998 ], [ -115.1679519, 36.160640999800002 ], [ -115.1679546, 36.160640999800002 ], [ -115.1679546, 36.160638299799999 ], [ -115.1679573, 36.160638299799999 ], [ -115.1679573, 36.160635599800003 ], [ -115.1679816, 36.160635599800003 ], [ -115.1679816, 36.160638299799999 ], [ -115.1679843, 36.160638299799999 ], [ -115.1679843, 36.160649099799997 ], [ -115.1679816, 36.160649099799997 ], [ -115.1679816, 36.160659899800002 ], [ -115.1679789, 36.160659899800002 ], [ -115.1679789, 36.160662599799998 ] ] ] } },
{ "type": "Feature", "properties": { "value": 255.0 }, "geometry": { "type": "Polygon", "coordinates": [ [ [ -115.1671905, 36.1606760998 ], [ -115.1671176, 36.1606760998 ], [ -115.1671176, 36.160619399799998 ], [ -115.167123, 36.160619399799998 ], [ -115.167123, 36.160616699800002 ], [ -115.1671878, 36.160616699800002 ], [ -115.1671878, 36.160619399799998 ], [ -115.1671905, 36.160619399799998 ], [ -115.1671905, 36.160622099800001 ], [ -115.1671932, 36.160622099800001 ], [ -115.1671932, 36.160673399800004 ], [ -115.1671905, 36.160673399800004 ], [ -115.1671905, 36.1606760998 ] ] ] } },
{ "type": "Feature", "properties": { "value": 255.0 }, "geometry": { "type": "Polygon", "coordinates": [ [ [ -115.1681625, 36.160662599799998 ], [ -115.1681436, 36.160662599799998 ], [ -115.1681436, 36.160659899800002 ], [ -115.1681409, 36.160659899800002 ], [ -115.1681409, 36.160654499800003 ], [ -115.1681436, 36.160654499800003 ], [ -115.1681436, 36.160635599800003 ], [ -115.1681463, 36.160635599800003 ], [ -115.1681463, 36.1606328998 ], [ -115.1681625, 36.1606328998 ], [ -115.1681625, 36.160635599800003 ], [ -115.1681652, 36.160635599800003 ], [ -115.1681652, 36.160657199799999 ], [ -115.1681625, 36.160657199799999 ], [ -115.1681625, 36.160662599799998 ] ] ] } },
{ "type": "Feature", "properties": { "value": 255.0 }, "geometry": { "type": "Polygon", "coordinates": [ [ [ -115.1683083, 36.160549199800002 ], [ -115.1682921, 36.160549199800002 ], [ -115.1682921, 36.160546499799999 ], [ -115.1682705, 36.160546499799999 ], [ -115.1682705, 36.160543799800003 ], [ -115.1682651, 36.160543799800003 ], [ -115.1682651, 36.1605410998 ], [ -115.1682624, 36.1605410998 ], [ -115.1682624, 36.160538399800004 ], [ -115.1682597, 36.160538399800004 ], [ -115.1682597, 36.1605356998 ], [ -115.168257, 36.1605356998 ], [ -115.168257, 36.160532999799997 ], [ -115.1682543, 36.160532999799997 ], [ -115.1682543, 36.160530299800001 ], [ -115.1682516, 36.160530299800001 ], [ -115.1682516, 36.160527599799998 ], [ -115.1682462, 36.160527599799998 ], [ -115.1682462, 36.160524899800002 ], [ -115.1682408, 36.160524899800002 ], [ -115.1682408, 36.160527599799998 ], [ -115.168095, 36.160527599799998 ], [ -115.168095, 36.160530299800001 ], [ -115.1680653, 36.160530299800001 ], [ -115.1680653, 36.160527599799998 ], [ -115.1680464, 36.160527599799998 ], [ -115.1680464, 36.160524899800002 ], [ -115.168041, 36.160524899800002 ], [ -115.168041, 36.160522199799999 ], [ -115.1680356, 36.160522199799999 ], [ -115.1680356, 36.160519499800003 ], [ -115.1680194, 36.160519499800003 ], [ -115.1680194, 36.160524899800002 ], [ -115.1680167, 36.160524899800002 ], [ -115.1680167, 36.160532999799997 ], [ -115.1680086, 36.160532999799997 ], [ -115.1680086, 36.160530299800001 ], [ -115.1680059, 36.160530299800001 ], [ -115.1680059, 36.160527599799998 ], [ -115.1680032, 36.160527599799998 ], [ -115.1680032, 36.160508699799998 ], [ -115.1680005, 36.160508699799998 ], [ -115.1680005, 36.160497899799999 ], [ -115.1679978, 36.160497899799999 ], [ -115.1679978, 36.160489799800004 ], [ -115.1679951, 36.160489799800004 ], [ -115.1679951, 36.160460099799998 ], [ -115.1679978, 36.160460099799998 ], [ -115.1679978, 36.1604492998 ], [ -115.1680005, 36.1604492998 ], [ -115.1680005, 36.160441199799997 ], [ -115.1680032, 36.160441199799997 ], [ -115.1680032, 36.160430399799999 ], [ -115.1680059, 36.160430399799999 ], [ -115.1680059, 36.160419599800001 ], [ -115.1680086, 36.160419599800001 ], [ -115.1680086, 36.160403399800003 ], [ -115.1680113, 36.160403399800003 ], [ -115.1680113, 36.160392599799998 ], [ -115.1680059, 36.160392599799998 ], [ -115.1680059, 36.160389899800002 ], [ -115.1680032, 36.160389899800002 ], [ -115.1680032, 36.160387199799999 ], [ -115.1679978, 36.160387199799999 ], [ -115.1679978, 36.1603817998 ], [ -115.1680005, 36.1603817998 ], [ -115.1680005, 36.160379099800004 ], [ -115.1680032, 36.160379099800004 ], [ -115.1680032, 36.160370999800001 ], [ -115.1680059, 36.160370999800001 ], [ -115.1680059, 36.160368299799998 ], [ -115.1680086, 36.160368299799998 ], [ -115.1680086, 36.160365599800002 ], [ -115.1680059, 36.160365599800002 ], [ -115.1680059, 36.160362899799999 ], [ -115.1680005, 36.160362899799999 ], [ -115.1680005, 36.160360199800003 ], [ -115.1679735, 36.160360199800003 ], [ -115.1679735, 36.1603574998 ], [ -115.1679681, 36.1603574998 ], [ -115.1679681, 36.160354799800004 ], [ -115.1679654, 36.160354799800004 ], [ -115.1679654, 36.160349399799998 ], [ -115.1679627, 36.160349399799998 ], [ -115.1679627, 36.160343999799998 ], [ -115.16796, 36.160343999799998 ], [ -115.16796, 36.160341299800002 ], [ -115.1679519, 36.160341299800002 ], [ -115.1679519, 36.160338599799999 ], [ -115.1679465, 36.160338599799999 ], [ -115.1679465, 36.160335899800003 ], [ -115.1679195, 36.160335899800003 ], [ -115.1679195, 36.160338599799999 ], [ -115.167879, 36.160338599799999 ], [ -115.167879, 36.160335899800003 ], [ -115.1678736, 36.160335899800003 ], [ -115.1678736, 36.1603331998 ], [ -115.1678574, 36.1603331998 ], [ -115.1678574, 36.160330499800004 ], [ -115.1678466, 36.160330499800004 ], [ -115.1678466, 36.1603331998 ], [ -115.1678439, 36.1603331998 ], [ -115.1678439, 36.160338599799999 ], [ -115.1678412, 36.160338599799999 ], [ -115.1678412, 36.160349399799998 ], [ -115.1678385, 36.160349399799998 ], [ -115.1678385, 36.160368299799998 ], [ -115.1678358, 36.160368299799998 ], [ -115.1678358, 36.160397999800004 ], [ -115.1678331, 36.160397999800004 ], [ -115.1678331, 36.160416899799998 ], [ -115.1678304, 36.160416899799998 ], [ -115.1678304, 36.160427699800003 ], [ -115.1678196, 36.160427699800003 ], [ -115.1678196, 36.160430399799999 ], [ -115.1678115, 36.160430399799999 ], [ -115.1678115, 36.160433099800002 ], [ -115.1678034, 36.160433099800002 ], [ -115.1678034, 36.160435799799998 ], [ -115.1677845, 36.160435799799998 ], [ -115.1677845, 36.160433099800002 ], [ -115.1677764, 36.160433099800002 ], [ -115.1677764, 36.160430399799999 ], [ -115.167771, 36.160430399799999 ], [ -115.167771, 36.160427699800003 ], [ -115.1677629, 36.160427699800003 ], [ -115.1677629, 36.1604249998 ], [ -115.1677602, 36.1604249998 ], [ -115.1677602, 36.160427699800003 ], [ -115.1677467, 36.160427699800003 ], [ -115.1677467, 36.160430399799999 ], [ -115.1677359, 36.160430399799999 ], [ -115.1677359, 36.160433099800002 ], [ -115.1677278, 36.160433099800002 ], [ -115.1677278, 36.160435799799998 ], [ -115.167717, 36.160435799799998 ], [ -115.167717, 36.160438499800001 ], [ -115.1676819, 36.160438499800001 ], [ -115.1676819, 36.160441199799997 ], [ -115.1676684, 36.160441199799997 ], [ -115.1676684, 36.160443899800001 ], [ -115.167609, 36.160443899800001 ], [ -115.167609, 36.160446599800004 ], [ -115.167555, 36.160446599800004 ], [ -115.167555, 36.160443899800001 ], [ -115.1675523, 36.160443899800001 ], [ -115.1675523, 36.160441199799997 ], [ -115.1675469, 36.160441199799997 ], [ -115.1675469, 36.160438499800001 ], [ -115.1675415, 36.160438499800001 ], [ -115.1675415, 36.160435799799998 ], [ -115.1675388, 36.160435799799998 ], [ -115.1675388, 36.160433099800002 ], [ -115.1675334, 36.160433099800002 ], [ -115.1675334, 36.160430399799999 ], [ -115.167528, 36.160430399799999 ], [ -115.167528, 36.160427699800003 ], [ -115.1675226, 36.160427699800003 ], [ -115.1675226, 36.1604249998 ], [ -115.1675145, 36.1604249998 ], [ -115.1675145, 36.160422299800004 ], [ -115.1675064, 36.160422299800004 ], [ -115.1675064, 36.160419599800001 ], [ -115.1674686, 36.160419599800001 ], [ -115.1674686, 36.160416899799998 ], [ -115.1673768, 36.160416899799998 ], [ -115.1673768, 36.160414199800002 ], [ -115.1673633, 36.160414199800002 ], [ -115.1673633, 36.160411499799999 ], [ -115.167339, 36.160411499799999 ], [ -115.167339, 36.160408799800003 ], [ -115.1672256, 36.160408799800003 ], [ -115.1672256, 36.160411499799999 ], [ -115.1671527, 36.160411499799999 ], [ -115.1671527, 36.160414199800002 ], [ -115.1671176, 36.160414199800002 ], [ -115.1671176, 36.160025399799999 ], [ -115.1671446, 36.160025399799999 ], [ -115.1671446, 36.160019999799999 ], [ -115.1671473, 36.160019999799999 ], [ -115.1671473, 36.159960599800002 ], [ -115.16715, 36.159960599800002 ], [ -115.16715, 36.159955199800002 ], [ -115.1671554, 36.159955199800002 ], [ -115.1671554, 36.159952499799999 ], [ -115.1671959, 36.159952499799999 ], [ -115.1671959, 36.159955199800002 ], [ -115.1672418, 36.159955199800002 ], [ -115.1672418, 36.159957899800006 ], [ -115.1672688, 36.159957899800006 ], [ -115.1672688, 36.159955199800002 ], [ -115.1672985, 36.159955199800002 ], [ -115.1672985, 36.159952499799999 ], [ -115.1673174, 36.159952499799999 ], [ -115.1673174, 36.159949799800003 ], [ -115.1673255, 36.159949799800003 ], [ -115.1673255, 36.1599470998 ], [ -115.1673282, 36.1599470998 ], [ -115.1673282, 36.159944399800004 ], [ -115.1673309, 36.159944399800004 ], [ -115.1673309, 36.159941699800001 ], [ -115.1673336, 36.159941699800001 ], [ -115.1673336, 36.159936299800002 ], [ -115.1673363, 36.159936299800002 ], [ -115.1673363, 36.159930899800003 ], [ -115.167339, 36.159930899800003 ], [ -115.167339, 36.1599281998 ], [ -115.1673417, 36.1599281998 ], [ -115.1673417, 36.159925499800003 ], [ -115.1673444, 36.159925499800003 ], [ -115.1673444, 36.159920099800004 ], [ -115.1673471, 36.159920099800004 ], [ -115.1673471, 36.159909299799999 ], [ -115.1673444, 36.159909299799999 ], [ -115.1673444, 36.159906599800003 ], [ -115.1673417, 36.159906599800003 ], [ -115.1673417, 36.1599038998 ], [ -115.167339, 36.1599038998 ], [ -115.167339, 36.159901199800004 ], [ -115.1673363, 36.159901199800004 ], [ -115.1673363, 36.159898499800001 ], [ -115.1673336, 36.159898499800001 ], [ -115.1673336, 36.159893099800001 ], [ -115.1673363, 36.159893099800001 ], [ -115.1673363, 36.159890399800005 ], [ -115.1673417, 36.159890399800005 ], [ -115.1673417, 36.159887699800002 ], [ -115.1678979, 36.159887699800002 ], [ -115.1678979, 36.159890399800005 ], [ -115.1679006, 36.159890399800005 ], [ -115.1679006, 36.159893099800001 ], [ -115.167906, 36.159893099800001 ], [ -115.167906, 36.159895799800005 ], [ -115.1679087, 36.159895799800005 ], [ -115.1679087, 36.1599038998 ], [ -115.167906, 36.1599038998 ], [ -115.167906, 36.159906599800003 ], [ -115.1679087, 36.159906599800003 ], [ -115.1679087, 36.159909299799999 ], [ -115.1679141, 36.159909299799999 ], [ -115.1679141, 36.159911999800002 ], [ -115.1679222, 36.159911999800002 ], [ -115.1679222, 36.159920099800004 ], [ -115.1679249, 36.159920099800004 ], [ -115.1679249, 36.1599281998 ], [ -115.1679222, 36.1599281998 ], [ -115.1679222, 36.159930899800003 ], [ -115.1679195, 36.159930899800003 ], [ -115.1679195, 36.159933599799999 ], [ -115.1679114, 36.159933599799999 ], [ -115.1679114, 36.159936299800002 ], [ -115.1679006, 36.159936299800002 ], [ -115.1679006, 36.159938999800005 ], [ -115.1678682, 36.159938999800005 ], [ -115.1678682, 36.159936299800002 ], [ -115.1678547, 36.159936299800002 ], [ -115.1678547, 36.159944399800004 ], [ -115.1678574, 36.159944399800004 ], [ -115.1678574, 36.1599470998 ], [ -115.1678601, 36.1599470998 ], [ -115.1678601, 36.159949799800003 ], [ -115.1678655, 36.159949799800003 ], [ -115.1678655, 36.159952499799999 ], [ -115.1679168, 36.159952499799999 ], [ -115.1679168, 36.159949799800003 ], [ -115.1679249, 36.159949799800003 ], [ -115.1679249, 36.1599470998 ], [ -115.1679303, 36.1599470998 ], [ -115.1679303, 36.159944399800004 ], [ -115.1679384, 36.159944399800004 ], [ -115.1679384, 36.159941699800001 ], [ -115.1679411, 36.159941699800001 ], [ -115.1679411, 36.159938999800005 ], [ -115.1679438, 36.159938999800005 ], [ -115.1679438, 36.159936299800002 ], [ -115.1679465, 36.159936299800002 ], [ -115.1679465, 36.159930899800003 ], [ -115.1679492, 36.159930899800003 ], [ -115.1679492, 36.1599227998 ], [ -115.1679519, 36.1599227998 ], [ -115.1679519, 36.1599038998 ], [ -115.1679546, 36.1599038998 ], [ -115.1679546, 36.159901199800004 ], [ -115.1679573, 36.159901199800004 ], [ -115.1679573, 36.159898499800001 ], [ -115.16796, 36.159898499800001 ], [ -115.16796, 36.159895799800005 ], [ -115.1679627, 36.159895799800005 ], [ -115.1679627, 36.159887699800002 ], [ -115.1682327, 36.159887699800002 ], [ -115.1682327, 36.159890399800005 ], [ -115.16823, 36.159890399800005 ], [ -115.16823, 36.159898499800001 ], [ -115.1682327, 36.159898499800001 ], [ -115.1682327, 36.159906599800003 ], [ -115.16823, 36.159906599800003 ], [ -115.16823, 36.159933599799999 ], [ -115.1682273, 36.159933599799999 ], [ -115.1682273, 36.159938999800005 ], [ -115.1682246, 36.159938999800005 ], [ -115.1682246, 36.1599470998 ], [ -115.1682273, 36.1599470998 ], [ -115.1682273, 36.159949799800003 ], [ -115.1682327, 36.159949799800003 ], [ -115.1682327, 36.159952499799999 ], [ -115.1682867, 36.159952499799999 ], [ -115.1682867, 36.159949799800003 ], [ -115.1683056, 36.159949799800003 ], [ -115.1683056, 36.1599470998 ], [ -115.1683164, 36.1599470998 ], [ -115.1683164, 36.159944399800004 ], [ -115.1683461, 36.159944399800004 ], [ -115.1683461, 36.1599470998 ], [ -115.1683542, 36.1599470998 ], [ -115.1683542, 36.159944399800004 ], [ -115.1683623, 36.159944399800004 ], [ -115.1683623, 36.159941699800001 ], [ -115.168365, 36.159941699800001 ], [ -115.168365, 36.159936299800002 ], [ -115.1683596, 36.159936299800002 ], [ -115.1683596, 36.159933599799999 ], [ -115.1683569, 36.159933599799999 ], [ -115.1683569, 36.159930899800003 ], [ -115.1683542, 36.159930899800003 ], [ -115.1683542, 36.1599281998 ], [ -115.1683488, 36.1599281998 ], [ -115.1683488, 36.159925499800003 ], [ -115.1683353, 36.159925499800003 ], [ -115.1683353, 36.1599281998 ], [ -115.1683137, 36.1599281998 ], [ -115.1683137, 36.159925499800003 ], [ -115.1683056, 36.159925499800003 ], [ -115.1683056, 36.1599227998 ], [ -115.1682975, 36.1599227998 ], [ -115.1682975, 36.159920099800004 ], [ -115.1682948, 36.159920099800004 ], [ -115.1682948, 36.159917399800001 ], [ -115.1682894, 36.159917399800001 ], [ -115.1682894, 36.159914699800005 ], [ -115.1682867, 36.159914699800005 ], [ -115.1682867, 36.159911999800002 ], [ -115.1682786, 36.159911999800002 ], [ -115.1682786, 36.159909299799999 ], [ -115.1682759, 36.159909299799999 ], [ -115.1682759, 36.159906599800003 ], [ -115.1682732, 36.159906599800003 ], [ -115.1682732, 36.159901199800004 ], [ -115.1682705, 36.159901199800004 ], [ -115.1682705, 36.159898499800001 ], [ -115.1682678, 36.159898499800001 ], [ -115.1682678, 36.159893099800001 ], [ -115.1682651, 36.159893099800001 ], [ -115.1682651, 36.159887699800002 ], [ -115.1683947, 36.159887699800002 ], [ -115.1683947, 36.159893099800001 ], [ -115.1683974, 36.159893099800001 ], [ -115.1683974, 36.159898499800001 ], [ -115.1683947, 36.159898499800001 ], [ -115.1683947, 36.159901199800004 ], [ -115.1684433, 36.159901199800004 ], [ -115.1684433, 36.159898499800001 ], [ -115.1684406, 36.159898499800001 ], [ -115.1684406, 36.159895799800005 ], [ -115.1684379, 36.159895799800005 ], [ -115.1684379, 36.159893099800001 ], [ -115.1684433, 36.159893099800001 ], [ -115.1684433, 36.159890399800005 ], [ -115.1684514, 36.159890399800005 ], [ -115.1684514, 36.159887699800002 ], [ -115.1684595, 36.159887699800002 ], [ -115.1684595, 36.159890399800005 ], [ -115.1684757, 36.159890399800005 ], [ -115.1684757, 36.159887699800002 ], [ -115.1684919, 36.159887699800002 ], [ -115.1684919, 36.159890399800005 ], [ -115.1684973, 36.159890399800005 ], [ -115.1684973, 36.159887699800002 ], [ -115.1685594, 36.159887699800002 ], [ -115.1685594, 36.159895799800005 ], [ -115.1685621, 36.159895799800005 ], [ -115.1685621, 36.159901199800004 ], [ -115.1685648, 36.159901199800004 ], [ -115.1685648, 36.1599038998 ], [ -115.1685675, 36.1599038998 ], [ -115.1685675, 36.159911999800002 ], [ -115.1685648, 36.159911999800002 ], [ -115.1685648, 36.159917399800001 ], [ -115.1685486, 36.159917399800001 ], [ -115.1685486, 36.159920099800004 ], [ -115.1685459, 36.159920099800004 ], [ -115.1685459, 36.1599227998 ], [ -115.1685432, 36.1599227998 ], [ -115.1685432, 36.159925499800003 ], [ -115.1685378, 36.159925499800003 ], [ -115.1685378, 36.1599281998 ], [ -115.1685297, 36.1599281998 ], [ -115.1685297, 36.159930899800003 ], [ -115.1685243, 36.159930899800003 ], [ -115.1685243, 36.159936299800002 ], [ -115.168527, 36.159936299800002 ], [ -115.168527, 36.159938999800005 ], [ -115.1685351, 36.159938999800005 ], [ -115.1685351, 36.159941699800001 ], [ -115.1685594, 36.159941699800001 ], [ -115.1685594, 36.159944399800004 ], [ -115.1685783, 36.159944399800004 ], [ -115.1685783, 36.159941699800001 ], [ -115.1685945, 36.159941699800001 ], [ -115.1685945, 36.159938999800005 ], [ -115.1685999, 36.159938999800005 ], [ -115.1685999, 36.159936299800002 ], [ -115.1686026, 36.159936299800002 ], [ -115.1686026, 36.159933599799999 ], [ -115.1686053, 36.159933599799999 ], [ -115.1686053, 36.159930899800003 ], [ -115.1686107, 36.159930899800003 ], [ -115.1686107, 36.1599281998 ], [ -115.1686161, 36.1599281998 ], [ -115.1686161, 36.159909299799999 ], [ -115.1686134, 36.159909299799999 ], [ -115.1686134, 36.159906599800003 ], [ -115.1686107, 36.159906599800003 ], [ -115.1686107, 36.159898499800001 ], [ -115.168608, 36.159898499800001 ], [ -115.168608, 36.159895799800005 ], [ -115.1686107, 36.159895799800005 ], [ -115.1686107, 36.159893099800001 ], [ -115.1686134, 36.159893099800001 ], [ -115.1686134, 36.159887699800002 ], [ -115.1688726, 36.159887699800002 ], [ -115.1688726, 36.160071299800002 ], [ -115.1688699, 36.160071299800002 ], [ -115.1688699, 36.160068599799999 ], [ -115.1688672, 36.160068599799999 ], [ -115.1688672, 36.160065899800003 ], [ -115.1688213, 36.160065899800003 ], [ -115.1688213, 36.160068599799999 ], [ -115.1688024, 36.160068599799999 ], [ -115.1688024, 36.160071299800002 ], [ -115.1687862, 36.160071299800002 ], [ -115.1687862, 36.160073999800005 ], [ -115.1687781, 36.160073999800005 ], [ -115.1687781, 36.160076699800001 ], [ -115.1687727, 36.160076699800001 ], [ -115.1687727, 36.160079399800004 ], [ -115.16877, 36.160079399800004 ], [ -115.16877, 36.160084799800003 ], [ -115.1687673, 36.160084799800003 ], [ -115.1687673, 36.160087499799999 ], [ -115.1687646, 36.160087499799999 ], [ -115.1687646, 36.160090199800003 ], [ -115.1687592, 36.160090199800003 ], [ -115.1687592, 36.160092899799999 ], [ -115.1687538, 36.160092899799999 ], [ -115.1687538, 36.160095599800002 ], [ -115.1687484, 36.160095599800002 ], [ -115.1687484, 36.160098299800005 ], [ -115.168743, 36.160098299800005 ], [ -115.168743, 36.160100999800001 ], [ -115.1687376, 36.160100999800001 ], [ -115.1687376, 36.1601063998 ], [ -115.168743, 36.1601063998 ], [ -115.168743, 36.160109099800003 ], [ -115.1687457, 36.160109099800003 ], [ -115.1687457, 36.160111799799999 ], [ -115.1687484, 36.160111799799999 ], [ -115.1687484, 36.160117199799998 ], [ -115.1687457, 36.160117199799998 ], [ -115.1687457, 36.160125299800001 ], [ -115.168743, 36.160125299800001 ], [ -115.168743, 36.160133399800003 ], [ -115.1687457, 36.160133399800003 ], [ -115.1687457, 36.160165799800005 ], [ -115.1687484, 36.160165799800005 ], [ -115.1687484, 36.160179299799999 ], [ -115.1687457, 36.160179299799999 ], [ -115.1687457, 36.160187399800002 ], [ -115.168743, 36.160187399800002 ], [ -115.168743, 36.160192799800001 ], [ -115.1687403, 36.160192799800001 ], [ -115.1687403, 36.160195499800004 ], [ -115.1687376, 36.160195499800004 ], [ -115.1687376, 36.1601981998 ], [ -115.1687349, 36.1601981998 ], [ -115.1687349, 36.160200899800003 ], [ -115.1687322, 36.160200899800003 ], [ -115.1687322, 36.160206299800002 ], [ -115.1687295, 36.160206299800002 ], [ -115.1687295, 36.160208999799998 ], [ -115.1687268, 36.160208999799998 ], [ -115.1687268, 36.160211699800001 ], [ -115.1687241, 36.160211699800001 ], [ -115.1687241, 36.160214399800005 ], [ -115.1687214, 36.160214399800005 ], [ -115.1687214, 36.160217099800001 ], [ -115.1687187, 36.160217099800001 ], [ -115.1687187, 36.160219799800004 ], [ -115.168716, 36.160219799800004 ], [ -115.168716, 36.1602224998 ], [ -115.1687079, 36.1602224998 ], [ -115.1687079, 36.160225199800003 ], [ -115.168689, 36.160225199800003 ], [ -115.168689, 36.1602224998 ], [ -115.1686782, 36.1602224998 ], [ -115.1686782, 36.160225199800003 ], [ -115.1686755, 36.160225199800003 ], [ -115.1686755, 36.160235999800001 ], [ -115.1686728, 36.160235999800001 ], [ -115.1686728, 36.1602413998 ], [ -115.1686755, 36.1602413998 ], [ -115.1686755, 36.160254899800002 ], [ -115.1686782, 36.160254899800002 ], [ -115.1686782, 36.160260299800001 ], [ -115.1686809, 36.160260299800001 ], [ -115.1686809, 36.160276499799998 ], [ -115.1686836, 36.160276499799998 ], [ -115.1686836, 36.160284599800001 ], [ -115.1686863, 36.160284599800001 ], [ -115.1686863, 36.160287299800004 ], [ -115.168689, 36.160287299800004 ], [ -115.168689, 36.160292699800003 ], [ -115.1686917, 36.160292699800003 ], [ -115.1686917, 36.160295399799999 ], [ -115.1686944, 36.160295399799999 ], [ -115.1686944, 36.160298099800002 ], [ -115.1686971, 36.160298099800002 ], [ -115.1686971, 36.160300799799998 ], [ -115.1686998, 36.160300799799998 ], [ -115.1686998, 36.160303499800001 ], [ -115.1687052, 36.160303499800001 ], [ -115.1687052, 36.160306199800004 ], [ -115.1687079, 36.160306199800004 ], [ -115.1687079, 36.1603088998 ], [ -115.1687106, 36.1603088998 ], [ -115.1687106, 36.160311599800004 ], [ -115.168716, 36.160311599800004 ], [ -115.168716, 36.1603142998 ], [ -115.1687187, 36.1603142998 ], [ -115.1687187, 36.160316999800003 ], [ -115.1687241, 36.160316999800003 ], [ -115.1687241, 36.160319699799999 ], [ -115.1687268, 36.160319699799999 ], [ -115.1687268, 36.160325099799998 ], [ -115.1687295, 36.160325099799998 ], [ -115.1687295, 36.160327799800001 ], [ -115.1687322, 36.160327799800001 ], [ -115.1687322, 36.160330499800004 ], [ -115.1687349, 36.160330499800004 ], [ -115.1687349, 36.160335899800003 ], [ -115.1687403, 36.160335899800003 ], [ -115.1687403, 36.160341299800002 ], [ -115.168743, 36.160341299800002 ], [ -115.168743, 36.1603817998 ], [ -115.1687403, 36.1603817998 ], [ -115.1687403, 36.1604492998 ], [ -115.1687187, 36.1604492998 ], [ -115.1687187, 36.160451999800003 ], [ -115.1687079, 36.160451999800003 ], [ -115.1687079, 36.160454699799999 ], [ -115.1687025, 36.160454699799999 ], [ -115.1687025, 36.160457399800002 ], [ -115.1686998, 36.160457399800002 ], [ -115.1686998, 36.160460099799998 ], [ -115.1687052, 36.160460099799998 ], [ -115.1687052, 36.1604681998 ], [ -115.1686998, 36.1604681998 ], [ -115.1686998, 36.1604735998 ], [ -115.1686971, 36.1604735998 ], [ -115.1686971, 36.160481699800002 ], [ -115.1686998, 36.160481699800002 ], [ -115.1686998, 36.160487099800001 ], [ -115.1687106, 36.160487099800001 ], [ -115.1687106, 36.160489799800004 ], [ -115.168716, 36.160489799800004 ], [ -115.168716, 36.160495199800003 ], [ -115.1687133, 36.160495199800003 ], [ -115.1687133, 36.160497899799999 ], [ -115.1687079, 36.160497899799999 ], [ -115.1687079, 36.160495199800003 ], [ -115.1687025, 36.160495199800003 ], [ -115.1687025, 36.1604924998 ], [ -115.1686998, 36.1604924998 ], [ -115.1686998, 36.160489799800004 ], [ -115.1686971, 36.160489799800004 ], [ -115.1686971, 36.160487099800001 ], [ -115.1686701, 36.160487099800001 ], [ -115.1686701, 36.160489799800004 ], [ -115.168662, 36.160489799800004 ], [ -115.168662, 36.1604924998 ], [ -115.1686512, 36.1604924998 ], [ -115.1686512, 36.160495199800003 ], [ -115.1686458, 36.160495199800003 ], [ -115.1686458, 36.160497899799999 ], [ -115.1686431, 36.160497899799999 ], [ -115.1686431, 36.160500599800002 ], [ -115.1686404, 36.160500599800002 ], [ -115.1686404, 36.160503299799998 ], [ -115.168635, 36.160503299799998 ], [ -115.168635, 36.160505999800002 ], [ -115.1686296, 36.160505999800002 ], [ -115.1686296, 36.160508699799998 ], [ -115.1686269, 36.160508699799998 ], [ -115.1686269, 36.160514099800004 ], [ -115.1686242, 36.160514099800004 ], [ -115.1686242, 36.1605167998 ], [ -115.1686188, 36.1605167998 ], [ -115.1686188, 36.160519499800003 ], [ -115.168608, 36.160519499800003 ], [ -115.168608, 36.160522199799999 ], [ -115.1685918, 36.160522199799999 ], [ -115.1685918, 36.160524899800002 ], [ -115.1685594, 36.160524899800002 ], [ -115.1685594, 36.160522199799999 ], [ -115.1685432, 36.160522199799999 ], [ -115.1685432, 36.160524899800002 ], [ -115.1685216, 36.160524899800002 ], [ -115.1685216, 36.160527599799998 ], [ -115.1685, 36.160527599799998 ], [ -115.1685, 36.160530299800001 ], [ -115.1684757, 36.160530299800001 ], [ -115.1684757, 36.160527599799998 ], [ -115.1684406, 36.160527599799998 ], [ -115.1684406, 36.160530299800001 ], [ -115.1684352, 36.160530299800001 ], [ -115.1684352, 36.160532999799997 ], [ -115.1684325, 36.160532999799997 ], [ -115.1684325, 36.1605356998 ], [ -115.1684271, 36.1605356998 ], [ -115.1684271, 36.160538399800004 ], [ -115.1684244, 36.160538399800004 ], [ -115.1684244, 36.1605410998 ], [ -115.1684217, 36.1605410998 ], [ -115.1684217, 36.160543799800003 ], [ -115.168419, 36.160543799800003 ], [ -115.168419, 36.160546499799999 ], [ -115.1683083, 36.160546499799999 ], [ -115.1683083, 36.160549199800002 ] ], [ [ -115.1675739, 36.159965999800001 ], [ -115.1675739, 36.159963299800005 ], [ -115.1675766, 36.159963299800005 ], [ -115.1675766, 36.159944399800004 ], [ -115.1675739, 36.159944399800004 ], [ -115.1675739, 36.159941699800001 ], [ -115.1675712, 36.159941699800001 ], [ -115.1675712, 36.159938999800005 ], [ -115.1675604, 36.159938999800005 ], [ -115.1675604, 36.159933599799999 ], [ -115.1675577, 36.159933599799999 ], [ -115.1675577, 36.159930899800003 ], [ -115.1675388, 36.159930899800003 ], [ -115.1675388, 36.159933599799999 ], [ -115.1675361, 36.159933599799999 ], [ -115.1675361, 36.159930899800003 ], [ -115.1675307, 36.159930899800003 ], [ -115.1675307, 36.1599281998 ], [ -115.167528, 36.1599281998 ], [ -115.167528, 36.159925499800003 ], [ -115.1675253, 36.159925499800003 ], [ -115.1675253, 36.1599227998 ], [ -115.1675199, 36.1599227998 ], [ -115.1675199, 36.159925499800003 ], [ -115.1675172, 36.159925499800003 ], [ -115.1675172, 36.1599281998 ], [ -115.1675145, 36.1599281998 ], [ -115.1675145, 36.159930899800003 ], [ -115.1675118, 36.159930899800003 ], [ -115.1675118, 36.159938999800005 ], [ -115.1675145, 36.159938999800005 ], [ -115.1675145, 36.159941699800001 ], [ -115.1675172, 36.159941699800001 ], [ -115.1675172, 36.159944399800004 ], [ -115.1675226, 36.159944399800004 ], [ -115.1675226, 36.1599470998 ], [ -115.1675253, 36.1599470998 ], [ -115.1675253, 36.159949799800003 ], [ -115.167528, 36.159949799800003 ], [ -115.167528, 36.159952499799999 ], [ -115.1675307, 36.159952499799999 ], [ -115.1675307, 36.159955199800002 ], [ -115.1675334, 36.159955199800002 ], [ -115.1675334, 36.159957899800006 ], [ -115.1675361, 36.159957899800006 ], [ -115.1675361, 36.159960599800002 ], [ -115.1675388, 36.159960599800002 ], [ -115.1675388, 36.159963299800005 ], [ -115.1675442, 36.159963299800005 ], [ -115.1675442, 36.159960599800002 ], [ -115.1675496, 36.159960599800002 ], [ -115.1675496, 36.159957899800006 ], [ -115.1675604, 36.159957899800006 ], [ -115.1675604, 36.159960599800002 ], [ -115.1675658, 36.159960599800002 ], [ -115.1675658, 36.159963299800005 ], [ -115.1675712, 36.159963299800005 ], [ -115.1675712, 36.159965999800001 ], [ -115.1675739, 36.159965999800001 ] ], [ [ -115.1683812, 36.159938999800005 ], [ -115.1683812, 36.159933599799999 ], [ -115.1683758, 36.159933599799999 ], [ -115.1683758, 36.159936299800002 ], [ -115.1683731, 36.159936299800002 ], [ -115.1683731, 36.159938999800005 ], [ -115.1683812, 36.159938999800005 ] ], [ [ -115.1683893, 36.159936299800002 ], [ -115.1683893, 36.159933599799999 ], [ -115.1683866, 36.159933599799999 ], [ -115.1683866, 36.159936299800002 ], [ -115.1683893, 36.159936299800002 ] ], [ [ -115.1684433, 36.159944399800004 ], [ -115.1684433, 36.159938999800005 ], [ -115.1684406, 36.159938999800005 ], [ -115.1684406, 36.159933599799999 ], [ -115.1684379, 36.159933599799999 ], [ -115.1684379, 36.159936299800002 ], [ -115.1684298, 36.159936299800002 ], [ -115.1684298, 36.159933599799999 ], [ -115.168419, 36.159933599799999 ], [ -115.168419, 36.159936299800002 ], [ -115.1684163, 36.159936299800002 ], [ -115.1684163, 36.159944399800004 ], [ -115.1684433, 36.159944399800004 ] ], [ [ -115.1684973, 36.1599470998 ], [ -115.1684973, 36.159944399800004 ], [ -115.1685, 36.159944399800004 ], [ -115.1685, 36.159895799800005 ], [ -115.1684973, 36.159895799800005 ], [ -115.1684973, 36.159893099800001 ], [ -115.1684946, 36.159893099800001 ], [ -115.1684946, 36.159898499800001 ], [ -115.1684919, 36.159898499800001 ], [ -115.1684919, 36.159911999800002 ], [ -115.1684784, 36.159911999800002 ], [ -115.1684784, 36.159914699800005 ], [ -115.1684703, 36.159914699800005 ], [ -115.1684703, 36.159920099800004 ], [ -115.1684676, 36.159920099800004 ], [ -115.1684676, 36.1599227998 ], [ -115.1684703, 36.1599227998 ], [ -115.1684703, 36.159938999800005 ], [ -115.1684757, 36.159938999800005 ], [ -115.1684757, 36.159941699800001 ], [ -115.1684838, 36.159941699800001 ], [ -115.1684838, 36.159944399800004 ], [ -115.1684919, 36.159944399800004 ], [ -115.1684919, 36.1599470998 ], [ -115.1684973, 36.1599470998 ] ], [ [ -115.1686188, 36.1599470998 ], [ -115.1686188, 36.159944399800004 ], [ -115.1686215, 36.159944399800004 ], [ -115.1686215, 36.159941699800001 ], [ -115.1686188, 36.159941699800001 ], [ -115.1686188, 36.159933599799999 ], [ -115.1686161, 36.159933599799999 ], [ -115.1686161, 36.159930899800003 ], [ -115.1686134, 36.159930899800003 ], [ -115.1686134, 36.159933599799999 ], [ -115.1686107, 36.159933599799999 ], [ -115.1686107, 36.159936299800002 ], [ -115.1686053, 36.159936299800002 ], [ -115.1686053, 36.159944399800004 ], [ -115.1686134, 36.159944399800004 ], [ -115.1686134, 36.1599470998 ], [ -115.1686188, 36.1599470998 ] ], [ [ -115.1686863, 36.1601495998 ], [ -115.1686863, 36.160144199800001 ], [ -115.168689, 36.160144199800001 ], [ -115.168689, 36.160141499799998 ], [ -115.1686863, 36.160141499799998 ], [ -115.1686863, 36.160138799800002 ], [ -115.1686836, 36.160138799800002 ], [ -115.1686836, 36.160133399800003 ], [ -115.1686863, 36.160133399800003 ], [ -115.1686863, 36.1601306998 ], [ -115.1686917, 36.1601306998 ], [ -115.1686917, 36.160127999800004 ], [ -115.1686971, 36.160127999800004 ], [ -115.1686971, 36.160125299800001 ], [ -115.1686998, 36.160125299800001 ], [ -115.1686998, 36.160122599800005 ], [ -115.1687025, 36.160122599800005 ], [ -115.1687025, 36.160119899800002 ], [ -115.1687052, 36.160119899800002 ], [ -115.1687052, 36.160111799799999 ], [ -115.1687025, 36.160111799799999 ], [ -115.1687025, 36.1601063998 ], [ -115.168689, 36.1601063998 ], [ -115.168689, 36.160103699800004 ], [ -115.1686728, 36.160103699800004 ], [ -115.1686728, 36.1601063998 ], [ -115.1686701, 36.1601063998 ], [ -115.1686701, 36.160111799799999 ], [ -115.1686674, 36.160111799799999 ], [ -115.1686674, 36.160117199799998 ], [ -115.1686647, 36.160117199799998 ], [ -115.1686647, 36.160119899800002 ], [ -115.168662, 36.160119899800002 ], [ -115.168662, 36.160122599800005 ], [ -115.1686593, 36.160122599800005 ], [ -115.1686593, 36.160125299800001 ], [ -115.168662, 36.160125299800001 ], [ -115.168662, 36.1601306998 ], [ -115.1686674, 36.1601306998 ], [ -115.1686674, 36.160133399800003 ], [ -115.1686701, 36.160133399800003 ], [ -115.1686701, 36.160138799800002 ], [ -115.1686728, 36.160138799800002 ], [ -115.1686728, 36.160144199800001 ], [ -115.1686755, 36.160144199800001 ], [ -115.1686755, 36.160146899800004 ], [ -115.1686809, 36.160146899800004 ], [ -115.1686809, 36.1601495998 ], [ -115.1686863, 36.1601495998 ] ], [ [ -115.1687754, 36.159952499799999 ], [ -115.1687754, 36.159949799800003 ], [ -115.1687781, 36.159949799800003 ], [ -115.1687781, 36.1599470998 ], [ -115.1687808, 36.1599470998 ], [ -115.1687808, 36.159944399800004 ], [ -115.1687781, 36.159944399800004 ], [ -115.1687781, 36.159941699800001 ], [ -115.1687727, 36.159941699800001 ], [ -115.1687727, 36.159938999800005 ], [ -115.16877, 36.159938999800005 ], [ -115.16877, 36.159941699800001 ], [ -115.1687673, 36.159941699800001 ], [ -115.1687673, 36.159949799800003 ], [ -115.1687727, 36.159949799800003 ], [ -115.1687727, 36.159952499799999 ], [ -115.1687754, 36.159952499799999 ] ], [ [ -115.1687997, 36.159952499799999 ], [ -115.1687997, 36.159949799800003 ], [ -115.1688078, 36.159949799800003 ], [ -115.1688078, 36.1599470998 ], [ -115.1688105, 36.1599470998 ], [ -115.1688105, 36.159944399800004 ], [ -115.1688132, 36.159944399800004 ], [ -115.1688132, 36.159941699800001 ], [ -115.1688159, 36.159941699800001 ], [ -115.1688159, 36.159936299800002 ], [ -115.1688051, 36.159936299800002 ], [ -115.1688051, 36.159938999800005 ], [ -115.1688024, 36.159938999800005 ], [ -115.1688024, 36.159941699800001 ], [ -115.1687916, 36.159941699800001 ], [ -115.1687916, 36.159944399800004 ], [ -115.1687889, 36.159944399800004 ], [ -115.1687889, 36.159949799800003 ], [ -115.1687916, 36.159949799800003 ], [ -115.1687916, 36.159952499799999 ], [ -115.1687997, 36.159952499799999 ] ] ] } }
]
}
