{
"type": "FeatureCollection",
"crs": { "type": "name", "properties": { "name": "urn:ogc:def:crs:OGC:1.3:CRS84" } },
"features": [
{ "type": "Feature", "properties": { "value": 255.0 }, "geometry": { "type": "Polygon", "coordinates": [ [ [ -115.180164, 36.172172699800001 ], [ -115.1799399, 36.172172699800001 ], [ -115.1799399, 36.172164599799999 ], [ -115.1799426, 36.172164599799999 ], [ -115.1799426, 36.172159199799999 ], [ -115.1799453, 36.172159199799999 ], [ -115.1799453, 36.1721537998 ], [ -115.179948, 36.1721537998 ], [ -115.179948, 36.172145699799998 ], [ -115.1799507, 36.172145699799998 ], [ -115.1799507, 36.172137599800003 ], [ -115.1799534, 36.172137599800003 ], [ -115.1799534, 36.172124099800001 ], [ -115.1799561, 36.172124099800001 ], [ -115.1799561, 36.172121399799998 ], [ -115.1799534, 36.172121399799998 ], [ -115.1799534, 36.172118699800002 ], [ -115.1799507, 36.172118699800002 ], [ -115.1799507, 36.172115999799999 ], [ -115.179948, 36.172115999799999 ], [ -115.179948, 36.172113299800003 ], [ -115.1799426, 36.172113299800003 ], [ -115.1799426, 36.1721105998 ], [ -115.1799372, 36.1721105998 ], [ -115.1799372, 36.172107899800004 ], [ -115.1799345, 36.172107899800004 ], [ -115.1799345, 36.172102499799998 ], [ -115.1799372, 36.172102499799998 ], [ -115.1799372, 36.172094399800002 ], [ -115.1799399, 36.172094399800002 ], [ -115.1799399, 36.172088999800003 ], [ -115.1799426, 36.172088999800003 ], [ -115.1799426, 36.172083599800004 ], [ -115.1799453, 36.172083599800004 ], [ -115.1799453, 36.172080899800001 ], [ -115.179948, 36.172080899800001 ], [ -115.179948, 36.172075499800002 ], [ -115.1799507, 36.172075499800002 ], [ -115.1799507, 36.172072799799999 ], [ -115.1799534, 36.172072799799999 ], [ -115.1799534, 36.1720673998 ], [ -115.1799561, 36.1720673998 ], [ -115.1799561, 36.172064699800003 ], [ -115.1799588, 36.172064699800003 ], [ -115.1799588, 36.1720619998 ], [ -115.1799615, 36.1720619998 ], [ -115.1799615, 36.172056599800001 ], [ -115.1799642, 36.172056599800001 ], [ -115.1799642, 36.172053899799998 ], [ -115.179966900000011, 36.172053899799998 ], [ -115.179966900000011, 36.172048499799999 ], [ -115.1799696, 36.172048499799999 ], [ -115.1799696, 36.172045799800003 ], [ -115.1799723, 36.172045799800003 ], [ -115.1799723, 36.1720430998 ], [ -115.179975, 36.1720430998 ], [ -115.179975, 36.172040399800004 ], [ -115.1799804, 36.172040399800004 ], [ -115.1799804, 36.172037699800001 ], [ -115.1799858, 36.172037699800001 ], [ -115.1799858, 36.172040399800004 ], [ -115.1799939, 36.172040399800004 ], [ -115.1799939, 36.1720430998 ], [ -115.17999660000001, 36.1720430998 ], [ -115.17999660000001, 36.172045799800003 ], [ -115.1799993, 36.172045799800003 ], [ -115.1799993, 36.172048499799999 ], [ -115.180002, 36.172048499799999 ], [ -115.180002, 36.172051199800002 ], [ -115.1800047, 36.172051199800002 ], [ -115.1800047, 36.172053899799998 ], [ -115.1800182, 36.172053899799998 ], [ -115.1800182, 36.172056599800001 ], [ -115.1800236, 36.172056599800001 ], [ -115.1800236, 36.172059299799997 ], [ -115.180029, 36.172059299799997 ], [ -115.180029, 36.1720619998 ], [ -115.1800317, 36.1720619998 ], [ -115.1800317, 36.172064699800003 ], [ -115.1800371, 36.172064699800003 ], [ -115.1800371, 36.1720673998 ], [ -115.1800533, 36.1720673998 ], [ -115.1800533, 36.172070099800003 ], [ -115.1800668, 36.172070099800003 ], [ -115.1800668, 36.172072799799999 ], [ -115.1800776, 36.172072799799999 ], [ -115.1800776, 36.172075499800002 ], [ -115.1800911, 36.172075499800002 ], [ -115.1800911, 36.172078199799998 ], [ -115.180101900000011, 36.172078199799998 ], [ -115.180101900000011, 36.172080899800001 ], [ -115.1801046, 36.172080899800001 ], [ -115.1801046, 36.172083599800004 ], [ -115.18011, 36.172083599800004 ], [ -115.18011, 36.1720862998 ], [ -115.1801154, 36.1720862998 ], [ -115.1801154, 36.172088999800003 ], [ -115.1801208, 36.172088999800003 ], [ -115.1801208, 36.172091699799999 ], [ -115.1801262, 36.172091699799999 ], [ -115.1801262, 36.172094399800002 ], [ -115.18013160000001, 36.172094399800002 ], [ -115.18013160000001, 36.172097099799998 ], [ -115.180137, 36.172097099799998 ], [ -115.180137, 36.172099799800002 ], [ -115.1801424, 36.172099799800002 ], [ -115.1801424, 36.172102499799998 ], [ -115.1801478, 36.172102499799998 ], [ -115.1801478, 36.172105199800001 ], [ -115.1801586, 36.172105199800001 ], [ -115.1801586, 36.172107899800004 ], [ -115.1801613, 36.172107899800004 ], [ -115.1801613, 36.1721105998 ], [ -115.180164, 36.1721105998 ], [ -115.180164, 36.172159199799999 ], [ -115.1801613, 36.172159199799999 ], [ -115.1801613, 36.172169999799998 ], [ -115.180164, 36.172169999799998 ], [ -115.180164, 36.172172699800001 ] ] ] } },
{ "type": "Feature", "properties": { "value": 255.0 }, "geometry": { "type": "Polygon", "coordinates": [ [ [ -115.1811576, 36.171702899800003 ], [ -115.1811522, 36.171702899800003 ], [ -115.1811522, 36.1717001998 ], [ -115.1811495, 36.1717001998 ], [ -115.1811495, 36.171697499799997 ], [ -115.1811468, 36.171697499799997 ], [ -115.1811468, 36.171686699799999 ], [ -115.1811495, 36.171686699799999 ], [ -115.1811495, 36.171681299799999 ], [ -115.1811522, 36.171681299799999 ], [ -115.1811522, 36.171670499800001 ], [ -115.18115490000001, 36.171670499800001 ], [ -115.18115490000001, 36.171665099800002 ], [ -115.1811576, 36.171665099800002 ], [ -115.1811576, 36.171702899800003 ] ] ] } },
{ "type": "Feature", "properties": { "value": 255.0 }, "geometry": { "type": "Polygon", "coordinates": [ [ [ -115.1811576, 36.171629999799997 ], [ -115.1811522, 36.171629999799997 ], [ -115.1811522, 36.171627299800001 ], [ -115.1811495, 36.171627299800001 ], [ -115.1811495, 36.171629999799997 ], [ -115.1811468, 36.171629999799997 ], [ -115.1811468, 36.171627299800001 ], [ -115.181144100000012, 36.171627299800001 ], [ -115.181144100000012, 36.171621899800002 ], [ -115.1811414, 36.171621899800002 ], [ -115.1811414, 36.171619199799999 ], [ -115.181144100000012, 36.171619199799999 ], [ -115.181144100000012, 36.171613799799999 ], [ -115.1811468, 36.171613799799999 ], [ -115.1811468, 36.1716083998 ], [ -115.1811495, 36.1716083998 ], [ -115.1811495, 36.171605699799997 ], [ -115.1811522, 36.171605699799997 ], [ -115.1811522, 36.171602999800001 ], [ -115.18115490000001, 36.171602999800001 ], [ -115.18115490000001, 36.171600299799998 ], [ -115.1811576, 36.171600299799998 ], [ -115.1811576, 36.171629999799997 ] ] ] } },
{ "type": "Feature", "properties": { "value": 255.0 }, "geometry": { "type": "Polygon", "coordinates": [ [ [ -115.1800749, 36.171800099800002 ], [ -115.180029, 36.171800099800002 ], [ -115.180029, 36.171797399799999 ], [ -115.1800236, 36.171797399799999 ], [ -115.1800236, 36.171794699800003 ], [ -115.1800182, 36.171794699800003 ], [ -115.1800182, 36.1717919998 ], [ -115.1800128, 36.1717919998 ], [ -115.1800128, 36.171789299799997 ], [ -115.1800101, 36.171789299799997 ], [ -115.1800101, 36.171786599800001 ], [ -115.1800047, 36.171786599800001 ], [ -115.1800047, 36.171783899799998 ], [ -115.17999660000001, 36.171783899799998 ], [ -115.17999660000001, 36.171786599800001 ], [ -115.1799939, 36.171786599800001 ], [ -115.1799939, 36.171783899799998 ], [ -115.1799777, 36.171783899799998 ], [ -115.1799777, 36.171781199800002 ], [ -115.1799237, 36.171781199800002 ], [ -115.1799237, 36.171778499799998 ], [ -115.179899400000011, 36.171778499799998 ], [ -115.179899400000011, 36.171781199800002 ], [ -115.1798724, 36.171781199800002 ], [ -115.1798724, 36.171778499799998 ], [ -115.1798697, 36.171778499799998 ], [ -115.1798697, 36.171770399800003 ], [ -115.179867, 36.171770399800003 ], [ -115.179867, 36.171710999799998 ], [ -115.1798697, 36.171710999799998 ], [ -115.1798697, 36.171673199799997 ], [ -115.179867, 36.171673199799997 ], [ -115.179867, 36.171665099800002 ], [ -115.1798643, 36.171665099800002 ], [ -115.1798643, 36.171662399799999 ], [ -115.17986160000001, 36.171662399799999 ], [ -115.17986160000001, 36.171659699800003 ], [ -115.1798589, 36.171659699800003 ], [ -115.1798589, 36.1716569998 ], [ -115.1798562, 36.1716569998 ], [ -115.1798562, 36.171654299799997 ], [ -115.1798535, 36.171654299799997 ], [ -115.1798535, 36.171646199800001 ], [ -115.1798562, 36.171646199800001 ], [ -115.1798562, 36.171640799800002 ], [ -115.1798589, 36.171640799800002 ], [ -115.1798589, 36.171638099799999 ], [ -115.17986160000001, 36.171638099799999 ], [ -115.17986160000001, 36.171635399800003 ], [ -115.1798643, 36.171635399800003 ], [ -115.1798643, 36.1716326998 ], [ -115.179867, 36.1716326998 ], [ -115.179867, 36.171627299800001 ], [ -115.1798697, 36.171627299800001 ], [ -115.1798697, 36.171621899800002 ], [ -115.1798724, 36.171621899800002 ], [ -115.1798724, 36.171613799799999 ], [ -115.1798697, 36.171613799799999 ], [ -115.1798697, 36.1716083998 ], [ -115.179867, 36.1716083998 ], [ -115.179867, 36.171602999800001 ], [ -115.1798643, 36.171602999800001 ], [ -115.1798643, 36.171559799800001 ], [ -115.179867, 36.171559799800001 ], [ -115.179867, 36.171532799799998 ], [ -115.1798697, 36.171532799799998 ], [ -115.1798697, 36.171530099800002 ], [ -115.17992910000001, 36.171530099800002 ], [ -115.17992910000001, 36.171532799799998 ], [ -115.1799588, 36.171532799799998 ], [ -115.1799588, 36.171530099800002 ], [ -115.1800128, 36.171530099800002 ], [ -115.1800128, 36.171532799799998 ], [ -115.1800209, 36.171532799799998 ], [ -115.1800209, 36.171535499800001 ], [ -115.1800263, 36.171535499800001 ], [ -115.1800263, 36.171538199799997 ], [ -115.180029, 36.171538199799997 ], [ -115.180029, 36.1715408998 ], [ -115.1800317, 36.1715408998 ], [ -115.1800317, 36.171543599800003 ], [ -115.180034400000011, 36.171543599800003 ], [ -115.180034400000011, 36.171594899799999 ], [ -115.1800317, 36.171594899799999 ], [ -115.1800317, 36.171619199799999 ], [ -115.180034400000011, 36.171619199799999 ], [ -115.180034400000011, 36.171624599799998 ], [ -115.1800371, 36.171624599799998 ], [ -115.1800371, 36.171640799800002 ], [ -115.1800398, 36.171640799800002 ], [ -115.1800398, 36.1716569998 ], [ -115.1800371, 36.1716569998 ], [ -115.1800371, 36.171667799799998 ], [ -115.180034400000011, 36.171667799799998 ], [ -115.180034400000011, 36.1716758998 ], [ -115.1800317, 36.1716758998 ], [ -115.1800317, 36.171727199800003 ], [ -115.180034400000011, 36.171727199800003 ], [ -115.180034400000011, 36.171729899799999 ], [ -115.1800371, 36.171729899799999 ], [ -115.1800371, 36.171732599800002 ], [ -115.1800452, 36.171732599800002 ], [ -115.1800452, 36.171735299799998 ], [ -115.1800776, 36.171735299799998 ], [ -115.1800776, 36.171737999800001 ], [ -115.180083, 36.171737999800001 ], [ -115.180083, 36.1717433998 ], [ -115.1800857, 36.1717433998 ], [ -115.1800857, 36.171773099799999 ], [ -115.180083, 36.171773099799999 ], [ -115.180083, 36.171783899799998 ], [ -115.1800803, 36.171783899799998 ], [ -115.1800803, 36.171789299799997 ], [ -115.1800776, 36.171789299799997 ], [ -115.1800776, 36.171797399799999 ], [ -115.1800749, 36.171797399799999 ], [ -115.1800749, 36.171800099800002 ] ] ] } },
{ "type": "Feature", "properties": { "value": 255.0 }, "geometry": { "type": "Polygon", "coordinates": [ [ [ -115.180536600000011, 36.171794699800003 ], [ -115.1805096, 36.171794699800003 ], [ -115.1805096, 36.1717919998 ], [ -115.1804907, 36.1717919998 ], [ -115.1804907, 36.171789299799997 ], [ -115.1804637, 36.171789299799997 ], [ -115.1804637, 36.171786599800001 ], [ -115.1804448, 36.171786599800001 ], [ -115.1804448, 36.171783899799998 ], [ -115.1804178, 36.171783899799998 ], [ -115.1804178, 36.171781199800002 ], [ -115.1804124, 36.171781199800002 ], [ -115.1804124, 36.171778499799998 ], [ -115.1804097, 36.171778499799998 ], [ -115.1804097, 36.171775799800002 ], [ -115.180407, 36.171775799800002 ], [ -115.180407, 36.171770399800003 ], [ -115.1804043, 36.171770399800003 ], [ -115.1804043, 36.171759599799998 ], [ -115.18040160000001, 36.171759599799998 ], [ -115.18040160000001, 36.171713699800002 ], [ -115.1804043, 36.171713699800002 ], [ -115.1804043, 36.171708299800002 ], [ -115.180407, 36.171708299800002 ], [ -115.180407, 36.171702899800003 ], [ -115.1804097, 36.171702899800003 ], [ -115.1804097, 36.171697499799997 ], [ -115.1804124, 36.171697499799997 ], [ -115.1804124, 36.171692099799998 ], [ -115.1804151, 36.171692099799998 ], [ -115.1804151, 36.171686699799999 ], [ -115.1804178, 36.171686699799999 ], [ -115.1804178, 36.171654299799997 ], [ -115.180420500000011, 36.171654299799997 ], [ -115.180420500000011, 36.1716326998 ], [ -115.1804232, 36.1716326998 ], [ -115.1804232, 36.171627299800001 ], [ -115.1804556, 36.171627299800001 ], [ -115.1804556, 36.171624599799998 ], [ -115.180461, 36.171624599799998 ], [ -115.180461, 36.171621899800002 ], [ -115.1804664, 36.171621899800002 ], [ -115.1804664, 36.171619199799999 ], [ -115.18046910000001, 36.171619199799999 ], [ -115.18046910000001, 36.171613799799999 ], [ -115.1804718, 36.171613799799999 ], [ -115.1804718, 36.171602999800001 ], [ -115.1804745, 36.171602999800001 ], [ -115.1804745, 36.171548999800002 ], [ -115.1804772, 36.171548999800002 ], [ -115.1804772, 36.171538199799997 ], [ -115.1804799, 36.171538199799997 ], [ -115.1804799, 36.171535499800001 ], [ -115.1804853, 36.171535499800001 ], [ -115.1804853, 36.171532799799998 ], [ -115.1804907, 36.171532799799998 ], [ -115.1804907, 36.171530099800002 ], [ -115.1805015, 36.171530099800002 ], [ -115.1805015, 36.171527399799999 ], [ -115.1805339, 36.171527399799999 ], [ -115.1805339, 36.171530099800002 ], [ -115.1805474, 36.171530099800002 ], [ -115.1805474, 36.171532799799998 ], [ -115.1805582, 36.171532799799998 ], [ -115.1805582, 36.171535499800001 ], [ -115.180569, 36.171535499800001 ], [ -115.180569, 36.171538199799997 ], [ -115.1805906, 36.171538199799997 ], [ -115.1805906, 36.1715408998 ], [ -115.1806068, 36.1715408998 ], [ -115.1806068, 36.171543599800003 ], [ -115.1806149, 36.171543599800003 ], [ -115.1806149, 36.171546299799999 ], [ -115.1806203, 36.171546299799999 ], [ -115.1806203, 36.171548999800002 ], [ -115.180623, 36.171548999800002 ], [ -115.180623, 36.171554399800002 ], [ -115.1806257, 36.171554399800002 ], [ -115.1806257, 36.171578699800001 ], [ -115.180623, 36.171578699800001 ], [ -115.180623, 36.1715894998 ], [ -115.1806203, 36.1715894998 ], [ -115.1806203, 36.171597599800002 ], [ -115.1806176, 36.171597599800002 ], [ -115.1806176, 36.1716083998 ], [ -115.1806149, 36.1716083998 ], [ -115.1806149, 36.171619199799999 ], [ -115.1806122, 36.171619199799999 ], [ -115.1806122, 36.171621899800002 ], [ -115.1806095, 36.171621899800002 ], [ -115.1806095, 36.171624599799998 ], [ -115.1806068, 36.171624599799998 ], [ -115.1806068, 36.171627299800001 ], [ -115.1806014, 36.171627299800001 ], [ -115.1806014, 36.1716326998 ], [ -115.1805987, 36.1716326998 ], [ -115.1805987, 36.171643499799998 ], [ -115.180596, 36.171643499799998 ], [ -115.180596, 36.171654299799997 ], [ -115.1805933, 36.171654299799997 ], [ -115.1805933, 36.171667799799998 ], [ -115.1805906, 36.171667799799998 ], [ -115.1805906, 36.171678599800003 ], [ -115.1805879, 36.171678599800003 ], [ -115.1805879, 36.171694799800001 ], [ -115.18058520000001, 36.171694799800001 ], [ -115.18058520000001, 36.171716399799998 ], [ -115.1805879, 36.171716399799998 ], [ -115.1805879, 36.171721799799997 ], [ -115.1805906, 36.171721799799997 ], [ -115.1805906, 36.1717244998 ], [ -115.180596, 36.1717244998 ], [ -115.180596, 36.171727199800003 ], [ -115.1806122, 36.171727199800003 ], [ -115.1806122, 36.171729899799999 ], [ -115.1806284, 36.171729899799999 ], [ -115.1806284, 36.171732599800002 ], [ -115.1806446, 36.171732599800002 ], [ -115.1806446, 36.171735299799998 ], [ -115.1806581, 36.171735299799998 ], [ -115.1806581, 36.171737999800001 ], [ -115.1806635, 36.171737999800001 ], [ -115.1806635, 36.171740699799997 ], [ -115.1806662, 36.171740699799997 ], [ -115.1806662, 36.1717433998 ], [ -115.1806689, 36.1717433998 ], [ -115.1806689, 36.171751499800003 ], [ -115.1806662, 36.171751499800003 ], [ -115.1806662, 36.1717676998 ], [ -115.1806635, 36.1717676998 ], [ -115.1806635, 36.171775799800002 ], [ -115.1806608, 36.171775799800002 ], [ -115.1806608, 36.171778499799998 ], [ -115.1806581, 36.171778499799998 ], [ -115.1806581, 36.171781199800002 ], [ -115.18065, 36.171781199800002 ], [ -115.18065, 36.171783899799998 ], [ -115.1806392, 36.171783899799998 ], [ -115.1806392, 36.171781199800002 ], [ -115.1806257, 36.171781199800002 ], [ -115.1806257, 36.171783899799998 ], [ -115.1806122, 36.171783899799998 ], [ -115.1806122, 36.171786599800001 ], [ -115.1805798, 36.171786599800001 ], [ -115.1805798, 36.171789299799997 ], [ -115.1805528, 36.171789299799997 ], [ -115.1805528, 36.1717919998 ], [ -115.180536600000011, 36.1717919998 ], [ -115.180536600000011, 36.171794699800003 ] ] ] } },
{ "type": "Feature", "properties": { "value": 255.0 }, "geometry": { "type": "Polygon", "coordinates": [ [ [ -115.1806122, 36.171478799799999 ], [ -115.1805528, 36.171478799799999 ], [ -115.1805528, 36.171476099800003 ], [ -115.1805285, 36.171476099800003 ], [ -115.1805285, 36.1714733998 ], [ -115.1804907, 36.1714733998 ], [ -115.1804907, 36.171470699799997 ], [ -115.1804853, 36.171470699799997 ], [ -115.1804853, 36.171467999800001 ], [ -115.1804799, 36.171467999800001 ], [ -115.1804799, 36.171465299799998 ], [ -115.1804745, 36.171465299799998 ], [ -115.1804745, 36.171462599800002 ], [ -115.18046910000001, 36.171462599800002 ], [ -115.18046910000001, 36.171459899799999 ], [ -115.1804583, 36.171459899799999 ], [ -115.1804583, 36.171457199800003 ], [ -115.18045020000001, 36.171457199800003 ], [ -115.18045020000001, 36.171451799799996 ], [ -115.1804475, 36.171451799799996 ], [ -115.1804475, 36.171435599799999 ], [ -115.1804448, 36.171435599799999 ], [ -115.1804448, 36.1714247998 ], [ -115.1804421, 36.1714247998 ], [ -115.1804421, 36.171416699799998 ], [ -115.180439400000012, 36.171416699799998 ], [ -115.180439400000012, 36.171389699800002 ], [ -115.1804367, 36.171389699800002 ], [ -115.1804367, 36.171386999799999 ], [ -115.180439400000012, 36.171386999799999 ], [ -115.180439400000012, 36.171359999799996 ], [ -115.1804367, 36.171359999799996 ], [ -115.1804367, 36.1713572998 ], [ -115.1804286, 36.1713572998 ], [ -115.1804286, 36.171354599799997 ], [ -115.1804097, 36.171354599799997 ], [ -115.1804097, 36.171351899800001 ], [ -115.1804043, 36.171351899800001 ], [ -115.1804043, 36.171349199799998 ], [ -115.18040160000001, 36.171349199799998 ], [ -115.18040160000001, 36.171316799799996 ], [ -115.1804043, 36.171316799799996 ], [ -115.1804043, 36.171305999799998 ], [ -115.18040160000001, 36.171305999799998 ], [ -115.18040160000001, 36.171295199799999 ], [ -115.1803989, 36.171295199799999 ], [ -115.1803989, 36.1712897998 ], [ -115.1803962, 36.1712897998 ], [ -115.1803962, 36.171287099799997 ], [ -115.1803935, 36.171287099799997 ], [ -115.1803935, 36.171281699799998 ], [ -115.1803908, 36.171281699799998 ], [ -115.1803908, 36.171278999800002 ], [ -115.1803854, 36.171278999800002 ], [ -115.1803854, 36.171276299799999 ], [ -115.18038270000001, 36.171276299799999 ], [ -115.18038270000001, 36.171273599800003 ], [ -115.18038, 36.171273599800003 ], [ -115.18038, 36.1712708998 ], [ -115.18038270000001, 36.1712708998 ], [ -115.18038270000001, 36.1712654998 ], [ -115.18038, 36.1712654998 ], [ -115.18038, 36.171262799799997 ], [ -115.1803773, 36.171262799799997 ], [ -115.1803773, 36.171260099800001 ], [ -115.1803746, 36.171260099800001 ], [ -115.1803746, 36.171254699800002 ], [ -115.180371900000011, 36.171254699800002 ], [ -115.180371900000011, 36.1712465998 ], [ -115.1803692, 36.1712465998 ], [ -115.1803692, 36.171241199800001 ], [ -115.1803665, 36.171241199800001 ], [ -115.1803665, 36.171233099799998 ], [ -115.1803638, 36.171233099799998 ], [ -115.1803638, 36.171214199799998 ], [ -115.1803611, 36.171214199799998 ], [ -115.1803611, 36.1712033998 ], [ -115.1803638, 36.1712033998 ], [ -115.1803638, 36.1711979998 ], [ -115.1803665, 36.1711979998 ], [ -115.1803665, 36.171195299799997 ], [ -115.1803908, 36.171195299799997 ], [ -115.1803908, 36.171192599800001 ], [ -115.1804313, 36.171192599800001 ], [ -115.1804313, 36.171189899799998 ], [ -115.1804448, 36.171189899799998 ], [ -115.1804448, 36.171192599800001 ], [ -115.1804772, 36.171192599800001 ], [ -115.1804772, 36.171195299799997 ], [ -115.1804826, 36.171195299799997 ], [ -115.1804826, 36.1711979998 ], [ -115.180488, 36.1711979998 ], [ -115.180488, 36.171200699799996 ], [ -115.1804907, 36.171200699799996 ], [ -115.1804907, 36.1712033998 ], [ -115.1804934, 36.1712033998 ], [ -115.1804934, 36.171206099800003 ], [ -115.1804961, 36.171206099800003 ], [ -115.1804961, 36.171216899800001 ], [ -115.1804934, 36.171216899800001 ], [ -115.1804934, 36.1712222998 ], [ -115.1804961, 36.1712222998 ], [ -115.1804961, 36.171224999799996 ], [ -115.1805015, 36.171224999799996 ], [ -115.1805015, 36.171227699799999 ], [ -115.1805285, 36.171227699799999 ], [ -115.1805285, 36.171224999799996 ], [ -115.1805933, 36.171224999799996 ], [ -115.1805933, 36.171227699799999 ], [ -115.1805987, 36.171227699799999 ], [ -115.1805987, 36.171230399800002 ], [ -115.1806014, 36.171230399800002 ], [ -115.1806014, 36.171233099799998 ], [ -115.180604100000011, 36.171233099799998 ], [ -115.180604100000011, 36.171235799800002 ], [ -115.1806068, 36.171235799800002 ], [ -115.1806068, 36.171241199800001 ], [ -115.1806095, 36.171241199800001 ], [ -115.1806095, 36.171249299799996 ], [ -115.1806068, 36.171249299799996 ], [ -115.1806068, 36.1712708998 ], [ -115.180604100000011, 36.1712708998 ], [ -115.180604100000011, 36.171278999800002 ], [ -115.1806014, 36.171278999800002 ], [ -115.1806014, 36.1712897998 ], [ -115.1805987, 36.1712897998 ], [ -115.1805987, 36.171292499799996 ], [ -115.1806014, 36.171292499799996 ], [ -115.1806014, 36.171300599799999 ], [ -115.1805987, 36.171300599799999 ], [ -115.1805987, 36.171308699800001 ], [ -115.180596, 36.171308699800001 ], [ -115.180596, 36.1713140998 ], [ -115.1805906, 36.1713140998 ], [ -115.1805906, 36.171316799799996 ], [ -115.1805717, 36.171316799799996 ], [ -115.1805717, 36.171319499799999 ], [ -115.1805582, 36.171319499799999 ], [ -115.1805582, 36.171322199800002 ], [ -115.180555500000011, 36.171322199800002 ], [ -115.180555500000011, 36.171330299799997 ], [ -115.1805528, 36.171330299799997 ], [ -115.1805528, 36.171346499800002 ], [ -115.180555500000011, 36.171346499800002 ], [ -115.180555500000011, 36.1713626998 ], [ -115.1805582, 36.1713626998 ], [ -115.1805582, 36.171392399799998 ], [ -115.1805609, 36.171392399799998 ], [ -115.1805609, 36.171400499800001 ], [ -115.1805636, 36.171400499800001 ], [ -115.1805636, 36.1714058998 ], [ -115.180569, 36.1714058998 ], [ -115.180569, 36.171408599800003 ], [ -115.1805906, 36.171408599800003 ], [ -115.1805906, 36.171411299799999 ], [ -115.1806014, 36.171411299799999 ], [ -115.1806014, 36.171413999800002 ], [ -115.1806149, 36.171413999800002 ], [ -115.1806149, 36.171416699799998 ], [ -115.1806203, 36.171416699799998 ], [ -115.1806203, 36.171419399800001 ], [ -115.180623, 36.171419399800001 ], [ -115.180623, 36.171422099799997 ], [ -115.1806257, 36.171422099799997 ], [ -115.1806257, 36.171443699800001 ], [ -115.1806284, 36.171443699800001 ], [ -115.1806284, 36.171465299799998 ], [ -115.1806257, 36.171465299799998 ], [ -115.1806257, 36.171470699799997 ], [ -115.180623, 36.171470699799997 ], [ -115.180623, 36.1714733998 ], [ -115.1806203, 36.1714733998 ], [ -115.1806203, 36.171476099800003 ], [ -115.1806122, 36.171476099800003 ], [ -115.1806122, 36.171478799799999 ] ] ] } },
{ "type": "Feature", "properties": { "value": 255.0 }, "geometry": { "type": "Polygon", "coordinates": [ [ [ -115.1801802, 36.171219599799997 ], [ -115.1801613, 36.171219599799997 ], [ -115.1801613, 36.171216899800001 ], [ -115.1801559, 36.171216899800001 ], [ -115.1801559, 36.171214199799998 ], [ -115.180150500000011, 36.171214199799998 ], [ -115.180150500000011, 36.171211499800002 ], [ -115.1801478, 36.171211499800002 ], [ -115.1801478, 36.171208799799999 ], [ -115.1801451, 36.171208799799999 ], [ -115.1801451, 36.171206099800003 ], [ -115.1801397, 36.171206099800003 ], [ -115.1801397, 36.1712033998 ], [ -115.180137, 36.1712033998 ], [ -115.180137, 36.171200699799996 ], [ -115.1801343, 36.171200699799996 ], [ -115.1801343, 36.1711979998 ], [ -115.1801289, 36.1711979998 ], [ -115.1801289, 36.171192599800001 ], [ -115.1801262, 36.171192599800001 ], [ -115.1801262, 36.171187199800002 ], [ -115.1801289, 36.171187199800002 ], [ -115.1801289, 36.171181799799996 ], [ -115.18013160000001, 36.171181799799996 ], [ -115.18013160000001, 36.1711790998 ], [ -115.1801343, 36.1711790998 ], [ -115.1801343, 36.171176399799997 ], [ -115.1801397, 36.171176399799997 ], [ -115.1801397, 36.171173699800001 ], [ -115.1801451, 36.171173699800001 ], [ -115.1801451, 36.171170999799998 ], [ -115.1801856, 36.171170999799998 ], [ -115.1801856, 36.171173699800001 ], [ -115.1801883, 36.171173699800001 ], [ -115.1801883, 36.1711790998 ], [ -115.180191, 36.1711790998 ], [ -115.180191, 36.171184499799999 ], [ -115.1801937, 36.171184499799999 ], [ -115.1801937, 36.171195299799997 ], [ -115.1801964, 36.171195299799997 ], [ -115.1801964, 36.171200699799996 ], [ -115.1801937, 36.171200699799996 ], [ -115.1801937, 36.171206099800003 ], [ -115.180191, 36.171206099800003 ], [ -115.180191, 36.171208799799999 ], [ -115.1801883, 36.171208799799999 ], [ -115.1801883, 36.171211499800002 ], [ -115.1801856, 36.171211499800002 ], [ -115.1801856, 36.171214199799998 ], [ -115.1801829, 36.171214199799998 ], [ -115.1801829, 36.171216899800001 ], [ -115.1801802, 36.171216899800001 ], [ -115.1801802, 36.171219599799997 ] ] ] } },
{ "type": "Feature", "properties": { "value": 255.0 }, "geometry": { "type": "Polygon", "coordinates": [ [ [ -115.179966900000011, 36.171459899799999 ], [ -115.1799453, 36.171459899799999 ], [ -115.1799453, 36.171457199800003 ], [ -115.1799318, 36.171457199800003 ], [ -115.1799318, 36.171454499799999 ], [ -115.1799183, 36.171454499799999 ], [ -115.1799183, 36.171451799799996 ], [ -115.1799129, 36.171451799799996 ], [ -115.1799129, 36.1714490998 ], [ -115.1799075, 36.1714490998 ], [ -115.1799075, 36.171446399799997 ], [ -115.1799021, 36.171446399799997 ], [ -115.1799021, 36.171440999799998 ], [ -115.179899400000011, 36.171440999799998 ], [ -115.179899400000011, 36.171435599799999 ], [ -115.1798967, 36.171435599799999 ], [ -115.1798967, 36.171432899800003 ], [ -115.179894, 36.171432899800003 ], [ -115.179894, 36.171427499799996 ], [ -115.1798913, 36.171427499799996 ], [ -115.1798913, 36.171368099799999 ], [ -115.1798886, 36.171368099799999 ], [ -115.1798886, 36.171354599799997 ], [ -115.1798859, 36.171354599799997 ], [ -115.1798859, 36.171349199799998 ], [ -115.1798832, 36.171349199799998 ], [ -115.1798832, 36.171341099800003 ], [ -115.1798859, 36.171341099800003 ], [ -115.1798859, 36.171327599800001 ], [ -115.1798832, 36.171327599800001 ], [ -115.1798832, 36.171319499799999 ], [ -115.17988050000001, 36.171319499799999 ], [ -115.17988050000001, 36.171311399799997 ], [ -115.1798778, 36.171311399799997 ], [ -115.1798778, 36.171305999799998 ], [ -115.1798751, 36.171305999799998 ], [ -115.1798751, 36.171297899800003 ], [ -115.1798724, 36.171297899800003 ], [ -115.1798724, 36.171287099799997 ], [ -115.1798697, 36.171287099799997 ], [ -115.1798697, 36.171281699799998 ], [ -115.179867, 36.171281699799998 ], [ -115.179867, 36.171278999800002 ], [ -115.1798643, 36.171278999800002 ], [ -115.1798643, 36.171276299799999 ], [ -115.17986160000001, 36.171276299799999 ], [ -115.17986160000001, 36.171273599800003 ], [ -115.1798589, 36.171273599800003 ], [ -115.1798589, 36.171268199799997 ], [ -115.1798562, 36.171268199799997 ], [ -115.1798562, 36.1711979998 ], [ -115.1798589, 36.1711979998 ], [ -115.1798589, 36.171195299799997 ], [ -115.17986160000001, 36.171195299799997 ], [ -115.17986160000001, 36.171192599800001 ], [ -115.1798643, 36.171192599800001 ], [ -115.1798643, 36.171189899799998 ], [ -115.1798697, 36.171189899799998 ], [ -115.1798697, 36.171187199800002 ], [ -115.1798724, 36.171187199800002 ], [ -115.1798724, 36.171184499799999 ], [ -115.1798751, 36.171184499799999 ], [ -115.1798751, 36.1711790998 ], [ -115.1798778, 36.1711790998 ], [ -115.1798778, 36.171168299800001 ], [ -115.17988050000001, 36.171168299800001 ], [ -115.17988050000001, 36.171165599799998 ], [ -115.1798832, 36.171165599799998 ], [ -115.1798832, 36.171162899800002 ], [ -115.1798886, 36.171162899800002 ], [ -115.1798886, 36.171160199799999 ], [ -115.1799075, 36.171160199799999 ], [ -115.1799075, 36.171157499799996 ], [ -115.1799534, 36.171157499799996 ], [ -115.1799534, 36.171160199799999 ], [ -115.179966900000011, 36.171160199799999 ], [ -115.179966900000011, 36.171162899800002 ], [ -115.1799831, 36.171162899800002 ], [ -115.1799831, 36.171165599799998 ], [ -115.1799939, 36.171165599799998 ], [ -115.1799939, 36.171168299800001 ], [ -115.180002, 36.171168299800001 ], [ -115.180002, 36.171170999799998 ], [ -115.1800074, 36.171170999799998 ], [ -115.1800074, 36.171173699800001 ], [ -115.18001550000001, 36.171173699800001 ], [ -115.18001550000001, 36.171176399799997 ], [ -115.1800209, 36.171176399799997 ], [ -115.1800209, 36.1711790998 ], [ -115.180029, 36.1711790998 ], [ -115.180029, 36.171181799799996 ], [ -115.180034400000011, 36.171181799799996 ], [ -115.180034400000011, 36.171184499799999 ], [ -115.1800371, 36.171184499799999 ], [ -115.1800371, 36.171187199800002 ], [ -115.1800398, 36.171187199800002 ], [ -115.1800398, 36.171189899799998 ], [ -115.1800425, 36.171189899799998 ], [ -115.1800425, 36.171192599800001 ], [ -115.1800452, 36.171192599800001 ], [ -115.1800452, 36.1712033998 ], [ -115.1800479, 36.1712033998 ], [ -115.1800479, 36.171211499800002 ], [ -115.1800452, 36.171211499800002 ], [ -115.1800452, 36.1712222998 ], [ -115.1800425, 36.1712222998 ], [ -115.1800425, 36.171233099799998 ], [ -115.1800398, 36.171233099799998 ], [ -115.1800398, 36.171243899799997 ], [ -115.1800425, 36.171243899799997 ], [ -115.1800425, 36.171251999799999 ], [ -115.1800452, 36.171251999799999 ], [ -115.1800452, 36.171262799799997 ], [ -115.1800479, 36.171262799799997 ], [ -115.1800479, 36.171276299799999 ], [ -115.1800452, 36.171276299799999 ], [ -115.1800452, 36.1712897998 ], [ -115.1800425, 36.1712897998 ], [ -115.1800425, 36.171292499799996 ], [ -115.1800452, 36.171292499799996 ], [ -115.1800452, 36.171330299799997 ], [ -115.1800479, 36.171330299799997 ], [ -115.1800479, 36.171341099800003 ], [ -115.1800506, 36.171341099800003 ], [ -115.1800506, 36.171349199799998 ], [ -115.1800533, 36.171349199799998 ], [ -115.1800533, 36.1713572998 ], [ -115.180056, 36.1713572998 ], [ -115.180056, 36.1713626998 ], [ -115.1800587, 36.1713626998 ], [ -115.1800587, 36.171365399800003 ], [ -115.1800614, 36.171365399800003 ], [ -115.1800614, 36.171368099799999 ], [ -115.1800803, 36.171368099799999 ], [ -115.1800803, 36.171370799800002 ], [ -115.180083, 36.171370799800002 ], [ -115.180083, 36.171373499799998 ], [ -115.1800857, 36.171373499799998 ], [ -115.1800857, 36.171416699799998 ], [ -115.180083, 36.171416699799998 ], [ -115.180083, 36.171422099799997 ], [ -115.1800803, 36.171422099799997 ], [ -115.1800803, 36.1714247998 ], [ -115.1800749, 36.1714247998 ], [ -115.1800749, 36.171427499799996 ], [ -115.1800695, 36.171427499799996 ], [ -115.1800695, 36.1714301998 ], [ -115.18006410000001, 36.1714301998 ], [ -115.18006410000001, 36.171432899800003 ], [ -115.1800614, 36.171432899800003 ], [ -115.1800614, 36.171435599799999 ], [ -115.180056, 36.171435599799999 ], [ -115.180056, 36.171438299800002 ], [ -115.1800506, 36.171438299800002 ], [ -115.1800506, 36.171440999799998 ], [ -115.1800452, 36.171440999799998 ], [ -115.1800452, 36.171443699800001 ], [ -115.1800425, 36.171443699800001 ], [ -115.1800425, 36.171446399799997 ], [ -115.1800398, 36.171446399799997 ], [ -115.1800398, 36.1714490998 ], [ -115.1800371, 36.1714490998 ], [ -115.1800371, 36.171451799799996 ], [ -115.180034400000011, 36.171451799799996 ], [ -115.180034400000011, 36.171454499799999 ], [ -115.180029, 36.171454499799999 ], [ -115.180029, 36.171457199800003 ], [ -115.179966900000011, 36.171457199800003 ], [ -115.179966900000011, 36.171459899799999 ] ] ] } },
{ "type": "Feature", "properties": { "value": 255.0 }, "geometry": { "type": "Polygon", "coordinates": [ [ [ -115.180420500000011, 36.171143999800002 ], [ -115.18040160000001, 36.171143999800002 ], [ -115.18040160000001, 36.171141299799999 ], [ -115.1803935, 36.171141299799999 ], [ -115.1803935, 36.171138599800003 ], [ -115.1803881, 36.171138599800003 ], [ -115.1803881, 36.171135899799999 ], [ -115.18038270000001, 36.171135899799999 ], [ -115.18038270000001, 36.171133199799996 ], [ -115.1803773, 36.171133199799996 ], [ -115.1803773, 36.1711304998 ], [ -115.180371900000011, 36.1711304998 ], [ -115.180371900000011, 36.171127799799997 ], [ -115.1803665, 36.171127799799997 ], [ -115.1803665, 36.171125099800001 ], [ -115.1803611, 36.171125099800001 ], [ -115.1803611, 36.171122399799998 ], [ -115.1803584, 36.171122399799998 ], [ -115.1803584, 36.171119699800002 ], [ -115.1803557, 36.171119699800002 ], [ -115.1803557, 36.171114299799996 ], [ -115.180353, 36.171114299799996 ], [ -115.180353, 36.171106199800001 ], [ -115.1803557, 36.171106199800001 ], [ -115.1803557, 36.171100799800001 ], [ -115.1803584, 36.171100799800001 ], [ -115.1803584, 36.171095399800002 ], [ -115.1803611, 36.171095399800002 ], [ -115.1803611, 36.171089999799996 ], [ -115.1803638, 36.171089999799996 ], [ -115.1803638, 36.1710872998 ], [ -115.1803665, 36.1710872998 ], [ -115.1803665, 36.171081899800001 ], [ -115.1803692, 36.171081899800001 ], [ -115.1803692, 36.171079199799998 ], [ -115.180371900000011, 36.171079199799998 ], [ -115.180371900000011, 36.171076499800002 ], [ -115.1803746, 36.171076499800002 ], [ -115.1803746, 36.171073799799998 ], [ -115.1803773, 36.171073799799998 ], [ -115.1803773, 36.171071099800002 ], [ -115.18038270000001, 36.171071099800002 ], [ -115.18038270000001, 36.171068399799999 ], [ -115.1804097, 36.171068399799999 ], [ -115.1804097, 36.171071099800002 ], [ -115.1804178, 36.171071099800002 ], [ -115.1804178, 36.171073799799998 ], [ -115.1804259, 36.171073799799998 ], [ -115.1804259, 36.171076499800002 ], [ -115.180434, 36.171076499800002 ], [ -115.180434, 36.171079199799998 ], [ -115.180439400000012, 36.171079199799998 ], [ -115.180439400000012, 36.171081899800001 ], [ -115.1804421, 36.171081899800001 ], [ -115.1804421, 36.171084599799997 ], [ -115.1804448, 36.171084599799997 ], [ -115.1804448, 36.1710872998 ], [ -115.1804475, 36.1710872998 ], [ -115.1804475, 36.171098099799998 ], [ -115.1804448, 36.171098099799998 ], [ -115.1804448, 36.171106199800001 ], [ -115.1804421, 36.171106199800001 ], [ -115.1804421, 36.171114299799996 ], [ -115.180439400000012, 36.171114299799996 ], [ -115.180439400000012, 36.171119699800002 ], [ -115.1804367, 36.171119699800002 ], [ -115.1804367, 36.171125099800001 ], [ -115.180434, 36.171125099800001 ], [ -115.180434, 36.171127799799997 ], [ -115.1804313, 36.171127799799997 ], [ -115.1804313, 36.1711304998 ], [ -115.1804286, 36.1711304998 ], [ -115.1804286, 36.171133199799996 ], [ -115.1804259, 36.171133199799996 ], [ -115.1804259, 36.171138599800003 ], [ -115.1804232, 36.171138599800003 ], [ -115.1804232, 36.171141299799999 ], [ -115.180420500000011, 36.171141299799999 ], [ -115.180420500000011, 36.171143999800002 ] ] ] } },
{ "type": "Feature", "properties": { "value": 255.0 }, "geometry": { "type": "Polygon", "coordinates": [ [ [ -115.180604100000011, 36.171157499799996 ], [ -115.1805906, 36.171157499799996 ], [ -115.1805906, 36.1711547998 ], [ -115.1805825, 36.1711547998 ], [ -115.1805825, 36.171152099799997 ], [ -115.180574400000012, 36.171152099799997 ], [ -115.180574400000012, 36.171149399800001 ], [ -115.1805717, 36.171149399800001 ], [ -115.1805717, 36.171146699799998 ], [ -115.18056630000001, 36.171146699799998 ], [ -115.18056630000001, 36.171143999800002 ], [ -115.1805609, 36.171143999800002 ], [ -115.1805609, 36.171141299799999 ], [ -115.180555500000011, 36.171141299799999 ], [ -115.180555500000011, 36.171138599800003 ], [ -115.1805501, 36.171138599800003 ], [ -115.1805501, 36.171135899799999 ], [ -115.180542, 36.171135899799999 ], [ -115.180542, 36.171133199799996 ], [ -115.180536600000011, 36.171133199799996 ], [ -115.180536600000011, 36.1711304998 ], [ -115.1805285, 36.1711304998 ], [ -115.1805285, 36.171127799799997 ], [ -115.1805231, 36.171127799799997 ], [ -115.1805231, 36.171125099800001 ], [ -115.18051770000001, 36.171125099800001 ], [ -115.18051770000001, 36.171122399799998 ], [ -115.1805123, 36.171122399799998 ], [ -115.1805123, 36.171119699800002 ], [ -115.1805096, 36.171119699800002 ], [ -115.1805096, 36.171114299799996 ], [ -115.180506900000012, 36.171114299799996 ], [ -115.180506900000012, 36.171095399800002 ], [ -115.1805096, 36.171095399800002 ], [ -115.1805096, 36.171089999799996 ], [ -115.1805123, 36.171089999799996 ], [ -115.1805123, 36.171084599799997 ], [ -115.180515, 36.171084599799997 ], [ -115.180515, 36.171081899800001 ], [ -115.18051770000001, 36.171081899800001 ], [ -115.18051770000001, 36.171079199799998 ], [ -115.1805204, 36.171079199799998 ], [ -115.1805204, 36.171073799799998 ], [ -115.1805231, 36.171073799799998 ], [ -115.1805231, 36.171071099800002 ], [ -115.1805258, 36.171071099800002 ], [ -115.1805258, 36.171068399799999 ], [ -115.1805285, 36.171068399799999 ], [ -115.1805285, 36.171065699799996 ], [ -115.1805312, 36.171065699799996 ], [ -115.1805312, 36.171057599800001 ], [ -115.1805285, 36.171057599800001 ], [ -115.1805285, 36.171052199800002 ], [ -115.1805231, 36.171052199800002 ], [ -115.1805231, 36.171049499799999 ], [ -115.1805204, 36.171049499799999 ], [ -115.1805204, 36.1710440998 ], [ -115.18051770000001, 36.1710440998 ], [ -115.18051770000001, 36.171027899800002 ], [ -115.1805204, 36.171027899800002 ], [ -115.1805204, 36.1710197998 ], [ -115.1805231, 36.1710197998 ], [ -115.1805231, 36.171014399800001 ], [ -115.1805258, 36.171014399800001 ], [ -115.1805258, 36.171008999800002 ], [ -115.1805285, 36.171008999800002 ], [ -115.1805285, 36.171003599800002 ], [ -115.1805312, 36.171003599800002 ], [ -115.1805312, 36.1709954998 ], [ -115.1805339, 36.1709954998 ], [ -115.1805339, 36.170990099800001 ], [ -115.180536600000011, 36.170990099800001 ], [ -115.180536600000011, 36.170987399799998 ], [ -115.1805393, 36.170987399799998 ], [ -115.1805393, 36.170981999799999 ], [ -115.180542, 36.170981999799999 ], [ -115.180542, 36.170973899799996 ], [ -115.1805447, 36.170973899799996 ], [ -115.1805447, 36.1709711998 ], [ -115.1805474, 36.1709711998 ], [ -115.1805474, 36.170968499799997 ], [ -115.1805501, 36.170968499799997 ], [ -115.1805501, 36.170965799800001 ], [ -115.180555500000011, 36.170965799800001 ], [ -115.180555500000011, 36.170963099799998 ], [ -115.1805636, 36.170963099799998 ], [ -115.1805636, 36.170960399800002 ], [ -115.18065270000001, 36.170960399800002 ], [ -115.18065270000001, 36.170963099799998 ], [ -115.1806581, 36.170963099799998 ], [ -115.1806581, 36.170965799800001 ], [ -115.1806635, 36.170965799800001 ], [ -115.1806635, 36.170968499799997 ], [ -115.1806689, 36.170968499799997 ], [ -115.1806689, 36.1709711998 ], [ -115.180671600000011, 36.1709711998 ], [ -115.180671600000011, 36.170973899799996 ], [ -115.180677, 36.170973899799996 ], [ -115.180677, 36.170976599799999 ], [ -115.1806797, 36.170976599799999 ], [ -115.1806797, 36.170981999799999 ], [ -115.1806824, 36.170981999799999 ], [ -115.1806824, 36.170992799799997 ], [ -115.1806851, 36.170992799799997 ], [ -115.1806851, 36.171000899799999 ], [ -115.1806878, 36.171000899799999 ], [ -115.1806878, 36.171011699799998 ], [ -115.180690500000011, 36.171011699799998 ], [ -115.180690500000011, 36.171030599799998 ], [ -115.1806878, 36.171030599799998 ], [ -115.1806878, 36.171035999799997 ], [ -115.1806851, 36.171035999799997 ], [ -115.1806851, 36.1710386998 ], [ -115.1806824, 36.1710386998 ], [ -115.1806824, 36.1710440998 ], [ -115.1806797, 36.1710440998 ], [ -115.1806797, 36.171052199800002 ], [ -115.180677, 36.171052199800002 ], [ -115.180677, 36.171060299799997 ], [ -115.1806743, 36.171060299799997 ], [ -115.1806743, 36.171065699799996 ], [ -115.180671600000011, 36.171065699799996 ], [ -115.180671600000011, 36.171071099800002 ], [ -115.1806689, 36.171071099800002 ], [ -115.1806689, 36.171079199799998 ], [ -115.1806662, 36.171079199799998 ], [ -115.1806662, 36.1710872998 ], [ -115.1806635, 36.1710872998 ], [ -115.1806635, 36.171092699799999 ], [ -115.1806608, 36.171092699799999 ], [ -115.1806608, 36.171095399800002 ], [ -115.1806554, 36.171095399800002 ], [ -115.1806554, 36.171098099799998 ], [ -115.1806446, 36.171098099799998 ], [ -115.1806446, 36.171100799800001 ], [ -115.180641900000012, 36.171100799800001 ], [ -115.180641900000012, 36.171103499799997 ], [ -115.1806392, 36.171103499799997 ], [ -115.1806392, 36.171108899799997 ], [ -115.1806365, 36.171108899799997 ], [ -115.1806365, 36.171114299799996 ], [ -115.18063380000001, 36.171114299799996 ], [ -115.18063380000001, 36.171119699800002 ], [ -115.1806311, 36.171119699800002 ], [ -115.1806311, 36.171122399799998 ], [ -115.1806284, 36.171122399799998 ], [ -115.1806284, 36.171127799799997 ], [ -115.1806257, 36.171127799799997 ], [ -115.1806257, 36.1711304998 ], [ -115.180623, 36.1711304998 ], [ -115.180623, 36.171133199799996 ], [ -115.1806203, 36.171133199799996 ], [ -115.1806203, 36.171135899799999 ], [ -115.1806176, 36.171135899799999 ], [ -115.1806176, 36.171141299799999 ], [ -115.1806149, 36.171141299799999 ], [ -115.1806149, 36.171146699799998 ], [ -115.1806122, 36.171146699799998 ], [ -115.1806122, 36.171149399800001 ], [ -115.1806095, 36.171149399800001 ], [ -115.1806095, 36.171152099799997 ], [ -115.1806068, 36.171152099799997 ], [ -115.1806068, 36.1711547998 ], [ -115.180604100000011, 36.1711547998 ], [ -115.180604100000011, 36.171157499799996 ] ] ] } },
{ "type": "Feature", "properties": { "value": 255.0 }, "geometry": { "type": "Polygon", "coordinates": [ [ [ -115.1811306, 36.170992799799997 ], [ -115.1811225, 36.170992799799997 ], [ -115.1811225, 36.170990099800001 ], [ -115.18110630000001, 36.170990099800001 ], [ -115.18110630000001, 36.170987399799998 ], [ -115.1811009, 36.170987399799998 ], [ -115.1811009, 36.170984699800002 ], [ -115.1810928, 36.170984699800002 ], [ -115.1810928, 36.170981999799999 ], [ -115.1810901, 36.170981999799999 ], [ -115.1810901, 36.170979299799995 ], [ -115.1810847, 36.170979299799995 ], [ -115.1810847, 36.170976599799999 ], [ -115.181082, 36.170976599799999 ], [ -115.181082, 36.170973899799996 ], [ -115.181076600000011, 36.170973899799996 ], [ -115.181076600000011, 36.1709711998 ], [ -115.1810739, 36.1709711998 ], [ -115.1810739, 36.170968499799997 ], [ -115.1810712, 36.170968499799997 ], [ -115.1810712, 36.170965799800001 ], [ -115.1810685, 36.170965799800001 ], [ -115.1810685, 36.170960399800002 ], [ -115.1810658, 36.170960399800002 ], [ -115.1810658, 36.170954999799996 ], [ -115.1810631, 36.170954999799996 ], [ -115.1810631, 36.170949599799997 ], [ -115.1810604, 36.170949599799997 ], [ -115.1810604, 36.170941499800001 ], [ -115.181057700000011, 36.170941499800001 ], [ -115.181057700000011, 36.1709279998 ], [ -115.1810604, 36.1709279998 ], [ -115.1810604, 36.170925299799997 ], [ -115.1810631, 36.170925299799997 ], [ -115.1810631, 36.170922599800001 ], [ -115.1810658, 36.170922599800001 ], [ -115.1810658, 36.170919899799998 ], [ -115.1810685, 36.170919899799998 ], [ -115.1810685, 36.170917199800002 ], [ -115.1810739, 36.170917199800002 ], [ -115.1810739, 36.170914499799999 ], [ -115.181076600000011, 36.170914499799999 ], [ -115.181076600000011, 36.170911799799995 ], [ -115.181082, 36.170911799799995 ], [ -115.181082, 36.170909099799999 ], [ -115.18108740000001, 36.170909099799999 ], [ -115.18108740000001, 36.170906399799996 ], [ -115.1810901, 36.170906399799996 ], [ -115.1810901, 36.1709036998 ], [ -115.1810928, 36.1709036998 ], [ -115.1810928, 36.170900999799997 ], [ -115.181095500000012, 36.170900999799997 ], [ -115.181095500000012, 36.170898299800001 ], [ -115.1811009, 36.170898299800001 ], [ -115.1811009, 36.170895599799998 ], [ -115.18110630000001, 36.170895599799998 ], [ -115.18110630000001, 36.170892899800002 ], [ -115.1811117, 36.170892899800002 ], [ -115.1811117, 36.170890199799999 ], [ -115.1811171, 36.170890199799999 ], [ -115.1811171, 36.170887499799996 ], [ -115.1811225, 36.170887499799996 ], [ -115.1811225, 36.1708847998 ], [ -115.181125200000011, 36.1708847998 ], [ -115.181125200000011, 36.170882099799996 ], [ -115.1811279, 36.170882099799996 ], [ -115.1811279, 36.1708793998 ], [ -115.1811306, 36.1708793998 ], [ -115.1811306, 36.170876699799997 ], [ -115.181136, 36.170876699799997 ], [ -115.181136, 36.170873999800001 ], [ -115.181144100000012, 36.170873999800001 ], [ -115.181144100000012, 36.170871299799998 ], [ -115.1811576, 36.170871299799998 ], [ -115.1811576, 36.170987399799998 ], [ -115.18115490000001, 36.170987399799998 ], [ -115.18115490000001, 36.170984699800002 ], [ -115.181144100000012, 36.170984699800002 ], [ -115.181144100000012, 36.170987399799998 ], [ -115.1811387, 36.170987399799998 ], [ -115.1811387, 36.170990099800001 ], [ -115.1811306, 36.170990099800001 ], [ -115.1811306, 36.170992799799997 ] ] ] } },
{ "type": "Feature", "properties": { "value": 255.0 }, "geometry": { "type": "Polygon", "coordinates": [ [ [ -115.1799831, 36.171098099799998 ], [ -115.1799426, 36.171098099799998 ], [ -115.1799426, 36.171095399800002 ], [ -115.1799372, 36.171095399800002 ], [ -115.1799372, 36.171098099799998 ], [ -115.1798643, 36.171098099799998 ], [ -115.1798643, 36.171095399800002 ], [ -115.1798589, 36.171095399800002 ], [ -115.1798589, 36.171084599799997 ], [ -115.1798562, 36.171084599799997 ], [ -115.1798562, 36.171073799799998 ], [ -115.1798589, 36.171073799799998 ], [ -115.1798589, 36.171060299799997 ], [ -115.17986160000001, 36.171060299799997 ], [ -115.17986160000001, 36.171057599800001 ], [ -115.1798643, 36.171057599800001 ], [ -115.1798643, 36.171052199800002 ], [ -115.179867, 36.171052199800002 ], [ -115.179867, 36.171046799799996 ], [ -115.1798697, 36.171046799799996 ], [ -115.1798697, 36.171035999799997 ], [ -115.1798724, 36.171035999799997 ], [ -115.1798724, 36.171033299800001 ], [ -115.1798697, 36.171033299800001 ], [ -115.1798697, 36.171014399800001 ], [ -115.1798724, 36.171014399800001 ], [ -115.1798724, 36.171006299799998 ], [ -115.1798751, 36.171006299799998 ], [ -115.1798751, 36.170987399799998 ], [ -115.1798724, 36.170987399799998 ], [ -115.1798724, 36.170976599799999 ], [ -115.1798751, 36.170976599799999 ], [ -115.1798751, 36.170965799800001 ], [ -115.1798724, 36.170965799800001 ], [ -115.1798724, 36.170944199799997 ], [ -115.1798697, 36.170944199799997 ], [ -115.1798697, 36.170941499800001 ], [ -115.179867, 36.170941499800001 ], [ -115.179867, 36.170938799799998 ], [ -115.1798643, 36.170938799799998 ], [ -115.1798643, 36.170936099800002 ], [ -115.17986160000001, 36.170936099800002 ], [ -115.17986160000001, 36.170933399799999 ], [ -115.1798589, 36.170933399799999 ], [ -115.1798589, 36.170930699799996 ], [ -115.1798562, 36.170930699799996 ], [ -115.1798562, 36.170925299799997 ], [ -115.1798535, 36.170925299799997 ], [ -115.1798535, 36.170919899799998 ], [ -115.1798508, 36.170919899799998 ], [ -115.1798508, 36.170898299800001 ], [ -115.1798535, 36.170898299800001 ], [ -115.1798535, 36.170887499799996 ], [ -115.1798562, 36.170887499799996 ], [ -115.1798562, 36.1708793998 ], [ -115.1798589, 36.1708793998 ], [ -115.1798589, 36.170876699799997 ], [ -115.17986160000001, 36.170876699799997 ], [ -115.17986160000001, 36.170873999800001 ], [ -115.1798643, 36.170873999800001 ], [ -115.1798643, 36.170871299799998 ], [ -115.179867, 36.170871299799998 ], [ -115.179867, 36.170868599800002 ], [ -115.1798697, 36.170868599800002 ], [ -115.1798697, 36.170865899799999 ], [ -115.1798724, 36.170865899799999 ], [ -115.1798724, 36.170863199799996 ], [ -115.1798751, 36.170863199799996 ], [ -115.1798751, 36.170857799799997 ], [ -115.1798778, 36.170857799799997 ], [ -115.1798778, 36.170852399799998 ], [ -115.17988050000001, 36.170852399799998 ], [ -115.17988050000001, 36.170846999799998 ], [ -115.1798832, 36.170846999799998 ], [ -115.1798832, 36.170841599799999 ], [ -115.1798886, 36.170841599799999 ], [ -115.1798886, 36.170838899799996 ], [ -115.1799183, 36.170838899799996 ], [ -115.1799183, 36.170841599799999 ], [ -115.1799345, 36.170841599799999 ], [ -115.1799345, 36.170844299799995 ], [ -115.1799453, 36.170844299799995 ], [ -115.1799453, 36.170846999799998 ], [ -115.1799642, 36.170846999799998 ], [ -115.1799642, 36.170849699800002 ], [ -115.1799723, 36.170849699800002 ], [ -115.1799723, 36.170852399799998 ], [ -115.179975, 36.170852399799998 ], [ -115.179975, 36.170855099800001 ], [ -115.1799804, 36.170855099800001 ], [ -115.1799804, 36.170857799799997 ], [ -115.1799831, 36.170857799799997 ], [ -115.1799831, 36.1708604998 ], [ -115.1799858, 36.1708604998 ], [ -115.1799858, 36.170863199799996 ], [ -115.1799912, 36.170863199799996 ], [ -115.1799912, 36.170865899799999 ], [ -115.17999660000001, 36.170865899799999 ], [ -115.17999660000001, 36.170868599800002 ], [ -115.1799993, 36.170868599800002 ], [ -115.1799993, 36.170871299799998 ], [ -115.180002, 36.170871299799998 ], [ -115.180002, 36.170873999800001 ], [ -115.1800047, 36.170873999800001 ], [ -115.1800047, 36.170876699799997 ], [ -115.1800074, 36.170876699799997 ], [ -115.1800074, 36.1708793998 ], [ -115.1800101, 36.1708793998 ], [ -115.1800101, 36.170882099799996 ], [ -115.1800128, 36.170882099799996 ], [ -115.1800128, 36.1708847998 ], [ -115.18001550000001, 36.1708847998 ], [ -115.18001550000001, 36.170887499799996 ], [ -115.1800182, 36.170887499799996 ], [ -115.1800182, 36.170890199799999 ], [ -115.1800209, 36.170890199799999 ], [ -115.1800209, 36.170892899800002 ], [ -115.1800236, 36.170892899800002 ], [ -115.1800236, 36.170895599799998 ], [ -115.1800263, 36.170895599799998 ], [ -115.1800263, 36.170898299800001 ], [ -115.180029, 36.170898299800001 ], [ -115.180029, 36.170900999799997 ], [ -115.1800317, 36.170900999799997 ], [ -115.1800317, 36.1709036998 ], [ -115.180034400000011, 36.1709036998 ], [ -115.180034400000011, 36.170906399799996 ], [ -115.1800371, 36.170906399799996 ], [ -115.1800371, 36.170909099799999 ], [ -115.1800398, 36.170909099799999 ], [ -115.1800398, 36.170914499799999 ], [ -115.1800425, 36.170914499799999 ], [ -115.1800425, 36.170919899799998 ], [ -115.1800452, 36.170919899799998 ], [ -115.1800452, 36.1709279998 ], [ -115.1800479, 36.1709279998 ], [ -115.1800479, 36.170949599799997 ], [ -115.1800506, 36.170949599799997 ], [ -115.1800506, 36.170957699799999 ], [ -115.1800533, 36.170957699799999 ], [ -115.1800533, 36.171003599800002 ], [ -115.180056, 36.171003599800002 ], [ -115.180056, 36.171022499799996 ], [ -115.1800533, 36.171022499799996 ], [ -115.1800533, 36.171025199799999 ], [ -115.1800506, 36.171025199799999 ], [ -115.1800506, 36.171027899800002 ], [ -115.180034400000011, 36.171027899800002 ], [ -115.180034400000011, 36.171030599799998 ], [ -115.1800236, 36.171030599799998 ], [ -115.1800236, 36.171033299800001 ], [ -115.1800209, 36.171033299800001 ], [ -115.1800209, 36.171057599800001 ], [ -115.1800182, 36.171057599800001 ], [ -115.1800182, 36.171068399799999 ], [ -115.18001550000001, 36.171068399799999 ], [ -115.18001550000001, 36.171071099800002 ], [ -115.1800128, 36.171071099800002 ], [ -115.1800128, 36.171076499800002 ], [ -115.1800101, 36.171076499800002 ], [ -115.1800101, 36.171079199799998 ], [ -115.1800074, 36.171079199799998 ], [ -115.1800074, 36.171081899800001 ], [ -115.180002, 36.171081899800001 ], [ -115.180002, 36.171084599799997 ], [ -115.17999660000001, 36.171084599799997 ], [ -115.17999660000001, 36.1710872998 ], [ -115.1799939, 36.1710872998 ], [ -115.1799939, 36.171089999799996 ], [ -115.1799912, 36.171089999799996 ], [ -115.1799912, 36.171092699799999 ], [ -115.1799858, 36.171092699799999 ], [ -115.1799858, 36.171095399800002 ], [ -115.1799831, 36.171095399800002 ], [ -115.1799831, 36.171098099799998 ] ] ] } },
{ "type": "Feature", "properties": { "value": 255.0 }, "geometry": { "type": "Polygon", "coordinates": [ [ [ -115.180555500000011, 36.170760599799998 ], [ -115.1805501, 36.170760599799998 ], [ -115.1805501, 36.170757899800002 ], [ -115.1805285, 36.170757899800002 ], [ -115.1805285, 36.170755199799999 ], [ -115.1804907, 36.170755199799999 ], [ -115.1804907, 36.170752499799995 ], [ -115.1804853, 36.170752499799995 ], [ -115.1804853, 36.170749799799999 ], [ -115.1804826, 36.170749799799999 ], [ -115.1804826, 36.170747099799996 ], [ -115.1804799, 36.170747099799996 ], [ -115.1804799, 36.1707443998 ], [ -115.1804772, 36.1707443998 ], [ -115.1804772, 36.170741699799997 ], [ -115.1804232, 36.170741699799997 ], [ -115.1804232, 36.1707443998 ], [ -115.1804043, 36.1707443998 ], [ -115.1804043, 36.170747099799996 ], [ -115.1803962, 36.170747099799996 ], [ -115.1803962, 36.170749799799999 ], [ -115.1803881, 36.170749799799999 ], [ -115.1803881, 36.170752499799995 ], [ -115.18038270000001, 36.170752499799995 ], [ -115.18038270000001, 36.170755199799999 ], [ -115.1803557, 36.170755199799999 ], [ -115.1803557, 36.170757899800002 ], [ -115.1803449, 36.170757899800002 ], [ -115.1803449, 36.170755199799999 ], [ -115.18033410000001, 36.170755199799999 ], [ -115.18033410000001, 36.170752499799995 ], [ -115.1803287, 36.170752499799995 ], [ -115.1803287, 36.170749799799999 ], [ -115.1803233, 36.170749799799999 ], [ -115.1803233, 36.170747099799996 ], [ -115.1803179, 36.170747099799996 ], [ -115.1803179, 36.1707443998 ], [ -115.1803098, 36.1707443998 ], [ -115.1803098, 36.170741699799997 ], [ -115.1803017, 36.170741699799997 ], [ -115.1803017, 36.170738999800001 ], [ -115.180299, 36.170738999800001 ], [ -115.180299, 36.170736299799998 ], [ -115.1802963, 36.170736299799998 ], [ -115.1802963, 36.170722799799996 ], [ -115.180299, 36.170722799799996 ], [ -115.180299, 36.170714699800001 ], [ -115.1802963, 36.170714699800001 ], [ -115.1802963, 36.170671499800001 ], [ -115.1802936, 36.170671499800001 ], [ -115.1802936, 36.170663399799999 ], [ -115.1802909, 36.170663399799999 ], [ -115.1802909, 36.170628299800001 ], [ -115.1802936, 36.170628299800001 ], [ -115.1802936, 36.1706093998 ], [ -115.1802909, 36.1706093998 ], [ -115.1802909, 36.170598599800002 ], [ -115.1802936, 36.170598599800002 ], [ -115.1802936, 36.170593199799995 ], [ -115.1802963, 36.170593199799995 ], [ -115.1802963, 36.170590499799999 ], [ -115.180304400000011, 36.170590499799999 ], [ -115.180304400000011, 36.170587799799996 ], [ -115.1803557, 36.170587799799996 ], [ -115.1803557, 36.1705850998 ], [ -115.18038270000001, 36.1705850998 ], [ -115.18038270000001, 36.170587799799996 ], [ -115.1803908, 36.170587799799996 ], [ -115.1803908, 36.170590499799999 ], [ -115.1803989, 36.170590499799999 ], [ -115.1803989, 36.170593199799995 ], [ -115.1804286, 36.170593199799995 ], [ -115.1804286, 36.170595899799999 ], [ -115.1804772, 36.170595899799999 ], [ -115.1804772, 36.170593199799995 ], [ -115.1805285, 36.170593199799995 ], [ -115.1805285, 36.170595899799999 ], [ -115.180536600000011, 36.170595899799999 ], [ -115.180536600000011, 36.170598599800002 ], [ -115.18058520000001, 36.170598599800002 ], [ -115.18058520000001, 36.170595899799999 ], [ -115.1805906, 36.170595899799999 ], [ -115.1805906, 36.170598599800002 ], [ -115.1806014, 36.170598599800002 ], [ -115.1806014, 36.170601299799998 ], [ -115.1806068, 36.170601299799998 ], [ -115.1806068, 36.170603999800001 ], [ -115.1806095, 36.170603999800001 ], [ -115.1806095, 36.170606699799997 ], [ -115.1806122, 36.170606699799997 ], [ -115.1806122, 36.170612099799996 ], [ -115.1806149, 36.170612099799996 ], [ -115.1806149, 36.170614799799999 ], [ -115.1806176, 36.170614799799999 ], [ -115.1806176, 36.170668799799998 ], [ -115.1806203, 36.170668799799998 ], [ -115.1806203, 36.170687699799998 ], [ -115.1806176, 36.170687699799998 ], [ -115.1806176, 36.170693099799998 ], [ -115.1806149, 36.170693099799998 ], [ -115.1806149, 36.1707011998 ], [ -115.1806122, 36.1707011998 ], [ -115.1806122, 36.170706599799999 ], [ -115.1806095, 36.170706599799999 ], [ -115.1806095, 36.170722799799996 ], [ -115.1806068, 36.170722799799996 ], [ -115.1806068, 36.170741699799997 ], [ -115.180604100000011, 36.170741699799997 ], [ -115.180604100000011, 36.170747099799996 ], [ -115.1806014, 36.170747099799996 ], [ -115.1806014, 36.170749799799999 ], [ -115.1805987, 36.170749799799999 ], [ -115.1805987, 36.170752499799995 ], [ -115.1805933, 36.170752499799995 ], [ -115.1805933, 36.170755199799999 ], [ -115.1805798, 36.170755199799999 ], [ -115.1805798, 36.170757899800002 ], [ -115.180555500000011, 36.170757899800002 ], [ -115.180555500000011, 36.170760599799998 ] ] ] } },
{ "type": "Feature", "properties": { "value": 255.0 }, "geometry": { "type": "Polygon", "coordinates": [ [ [ -115.1810361, 36.170752499799995 ], [ -115.1808093, 36.170752499799995 ], [ -115.1808093, 36.170749799799999 ], [ -115.1807985, 36.170749799799999 ], [ -115.1807985, 36.170747099799996 ], [ -115.1807958, 36.170747099799996 ], [ -115.1807958, 36.170741699799997 ], [ -115.1807931, 36.170741699799997 ], [ -115.1807931, 36.170728199799996 ], [ -115.1807904, 36.170728199799996 ], [ -115.1807904, 36.170722799799996 ], [ -115.180785, 36.170722799799996 ], [ -115.180785, 36.170679599799996 ], [ -115.1807823, 36.170679599799996 ], [ -115.1807823, 36.1706768998 ], [ -115.1807796, 36.1706768998 ], [ -115.1807796, 36.170666099800002 ], [ -115.1807823, 36.170666099800002 ], [ -115.1807823, 36.170663399799999 ], [ -115.180785, 36.170663399799999 ], [ -115.180785, 36.170598599800002 ], [ -115.18078770000001, 36.170598599800002 ], [ -115.18078770000001, 36.170593199799995 ], [ -115.1807931, 36.170593199799995 ], [ -115.1807931, 36.170590499799999 ], [ -115.1808093, 36.170590499799999 ], [ -115.1808093, 36.170587799799996 ], [ -115.180855200000011, 36.170587799799996 ], [ -115.180855200000011, 36.170590499799999 ], [ -115.1808633, 36.170590499799999 ], [ -115.1808633, 36.170593199799995 ], [ -115.1808876, 36.170593199799995 ], [ -115.1808876, 36.170595899799999 ], [ -115.1809011, 36.170595899799999 ], [ -115.1809011, 36.170593199799995 ], [ -115.1809389, 36.170593199799995 ], [ -115.1809389, 36.170590499799999 ], [ -115.180947, 36.170590499799999 ], [ -115.180947, 36.170587799799996 ], [ -115.1809686, 36.170587799799996 ], [ -115.1809686, 36.1705850998 ], [ -115.1809929, 36.1705850998 ], [ -115.1809929, 36.170582399799997 ], [ -115.18101990000001, 36.170582399799997 ], [ -115.18101990000001, 36.170579699800001 ], [ -115.1810523, 36.170579699800001 ], [ -115.1810523, 36.170576999799998 ], [ -115.1810685, 36.170576999799998 ], [ -115.1810685, 36.170574299799995 ], [ -115.18110630000001, 36.170574299799995 ], [ -115.18110630000001, 36.170576999799998 ], [ -115.1811171, 36.170576999799998 ], [ -115.1811171, 36.170579699800001 ], [ -115.1811576, 36.170579699800001 ], [ -115.1811576, 36.1707254998 ], [ -115.1811468, 36.1707254998 ], [ -115.1811468, 36.170728199799996 ], [ -115.1811387, 36.170728199799996 ], [ -115.1811387, 36.170730899799999 ], [ -115.1811279, 36.170730899799999 ], [ -115.1811279, 36.170733599800002 ], [ -115.1811171, 36.170733599800002 ], [ -115.1811171, 36.170736299799998 ], [ -115.1811036, 36.170736299799998 ], [ -115.1811036, 36.170738999800001 ], [ -115.1810928, 36.170738999800001 ], [ -115.1810928, 36.170741699799997 ], [ -115.1810847, 36.170741699799997 ], [ -115.1810847, 36.1707443998 ], [ -115.1810658, 36.1707443998 ], [ -115.1810658, 36.170747099799996 ], [ -115.1810496, 36.170747099799996 ], [ -115.1810496, 36.170749799799999 ], [ -115.1810361, 36.170749799799999 ], [ -115.1810361, 36.170752499799995 ] ] ] } },
{ "type": "Feature", "properties": { "value": 255.0 }, "geometry": { "type": "Polygon", "coordinates": [ [ [ -115.1799264, 36.170771399799996 ], [ -115.1799021, 36.170771399799996 ], [ -115.1799021, 36.1707686998 ], [ -115.1798697, 36.1707686998 ], [ -115.1798697, 36.170771399799996 ], [ -115.1798481, 36.170771399799996 ], [ -115.1798481, 36.170765999799997 ], [ -115.1798454, 36.170765999799997 ], [ -115.1798454, 36.170698499799997 ], [ -115.1798427, 36.170698499799997 ], [ -115.1798427, 36.170693099799998 ], [ -115.17984, 36.170693099799998 ], [ -115.17984, 36.170687699799998 ], [ -115.1798373, 36.170687699799998 ], [ -115.1798373, 36.170684999799995 ], [ -115.1798346, 36.170684999799995 ], [ -115.1798346, 36.170682299799999 ], [ -115.1798292, 36.170682299799999 ], [ -115.1798292, 36.170679599799996 ], [ -115.1798238, 36.170679599799996 ], [ -115.1798238, 36.1706768998 ], [ -115.1798157, 36.1706768998 ], [ -115.1798157, 36.170674199799997 ], [ -115.1798103, 36.170674199799997 ], [ -115.1798103, 36.170671499800001 ], [ -115.1798076, 36.170671499800001 ], [ -115.1798076, 36.170668799799998 ], [ -115.1798049, 36.170668799799998 ], [ -115.1798049, 36.170666099800002 ], [ -115.1798022, 36.170666099800002 ], [ -115.1798022, 36.170660699799996 ], [ -115.1797995, 36.170660699799996 ], [ -115.1797995, 36.170649899799997 ], [ -115.1797968, 36.170649899799997 ], [ -115.1797968, 36.170639099799999 ], [ -115.1797941, 36.170639099799999 ], [ -115.1797941, 36.170606699799997 ], [ -115.1797914, 36.170606699799997 ], [ -115.1797914, 36.170587799799996 ], [ -115.1797995, 36.170587799799996 ], [ -115.1797995, 36.1705850998 ], [ -115.1798076, 36.1705850998 ], [ -115.1798076, 36.170582399799997 ], [ -115.1798103, 36.170582399799997 ], [ -115.1798103, 36.170579699800001 ], [ -115.1798238, 36.170579699800001 ], [ -115.1798238, 36.170576999799998 ], [ -115.17988050000001, 36.170576999799998 ], [ -115.17988050000001, 36.170574299799995 ], [ -115.1798886, 36.170574299799995 ], [ -115.1798886, 36.170571599799999 ], [ -115.179894, 36.170571599799999 ], [ -115.179894, 36.170568899799996 ], [ -115.179899400000011, 36.170568899799996 ], [ -115.179899400000011, 36.1705661998 ], [ -115.1799102, 36.1705661998 ], [ -115.1799102, 36.170563499799997 ], [ -115.179921, 36.170563499799997 ], [ -115.179921, 36.1705607998 ], [ -115.17992910000001, 36.1705607998 ], [ -115.17992910000001, 36.170558099799997 ], [ -115.1799345, 36.170558099799997 ], [ -115.1799345, 36.170555399800001 ], [ -115.1799426, 36.170555399800001 ], [ -115.1799426, 36.170552699799998 ], [ -115.1800074, 36.170552699799998 ], [ -115.1800074, 36.170555399800001 ], [ -115.1800236, 36.170555399800001 ], [ -115.1800236, 36.170552699799998 ], [ -115.180034400000011, 36.170552699799998 ], [ -115.180034400000011, 36.170549999799995 ], [ -115.1800479, 36.170549999799995 ], [ -115.1800479, 36.170547299799999 ], [ -115.1800533, 36.170547299799999 ], [ -115.1800533, 36.170549999799995 ], [ -115.1801046, 36.170549999799995 ], [ -115.1801046, 36.170552699799998 ], [ -115.1801127, 36.170552699799998 ], [ -115.1801127, 36.170555399800001 ], [ -115.1801208, 36.170555399800001 ], [ -115.1801208, 36.170558099799997 ], [ -115.1801424, 36.170558099799997 ], [ -115.1801424, 36.1705607998 ], [ -115.1801667, 36.1705607998 ], [ -115.1801667, 36.170563499799997 ], [ -115.1801775, 36.170563499799997 ], [ -115.1801775, 36.1705661998 ], [ -115.1801856, 36.1705661998 ], [ -115.1801856, 36.170568899799996 ], [ -115.1801883, 36.170568899799996 ], [ -115.1801883, 36.170571599799999 ], [ -115.180191, 36.170571599799999 ], [ -115.180191, 36.170576999799998 ], [ -115.1801937, 36.170576999799998 ], [ -115.1801937, 36.170579699800001 ], [ -115.1801964, 36.170579699800001 ], [ -115.1801964, 36.1705850998 ], [ -115.18019910000001, 36.1705850998 ], [ -115.18019910000001, 36.170706599799999 ], [ -115.1801964, 36.170706599799999 ], [ -115.1801964, 36.170709299799995 ], [ -115.1801937, 36.170709299799995 ], [ -115.1801937, 36.170711999799998 ], [ -115.1801856, 36.170711999799998 ], [ -115.1801856, 36.170714699800001 ], [ -115.1801775, 36.170714699800001 ], [ -115.1801775, 36.170717399799997 ], [ -115.1801721, 36.170717399799997 ], [ -115.1801721, 36.1707200998 ], [ -115.1801559, 36.1707200998 ], [ -115.1801559, 36.170722799799996 ], [ -115.1801451, 36.170722799799996 ], [ -115.1801451, 36.1707254998 ], [ -115.180137, 36.1707254998 ], [ -115.180137, 36.170728199799996 ], [ -115.1801343, 36.170728199799996 ], [ -115.1801343, 36.170730899799999 ], [ -115.1801289, 36.170730899799999 ], [ -115.1801289, 36.170733599800002 ], [ -115.1801262, 36.170733599800002 ], [ -115.1801262, 36.170736299799998 ], [ -115.1801208, 36.170736299799998 ], [ -115.1801208, 36.170738999800001 ], [ -115.1801154, 36.170738999800001 ], [ -115.1801154, 36.170741699799997 ], [ -115.180083, 36.170741699799997 ], [ -115.180083, 36.170738999800001 ], [ -115.1800803, 36.170738999800001 ], [ -115.1800803, 36.170736299799998 ], [ -115.1800776, 36.170736299799998 ], [ -115.1800776, 36.170733599800002 ], [ -115.1800749, 36.170733599800002 ], [ -115.1800749, 36.170730899799999 ], [ -115.1800722, 36.170730899799999 ], [ -115.1800722, 36.170728199799996 ], [ -115.1800695, 36.170728199799996 ], [ -115.1800695, 36.1707254998 ], [ -115.1800668, 36.1707254998 ], [ -115.1800668, 36.170722799799996 ], [ -115.18006410000001, 36.170722799799996 ], [ -115.18006410000001, 36.1707200998 ], [ -115.1800614, 36.1707200998 ], [ -115.1800614, 36.170717399799997 ], [ -115.1800587, 36.170717399799997 ], [ -115.1800587, 36.170714699800001 ], [ -115.1800533, 36.170714699800001 ], [ -115.1800533, 36.170711999799998 ], [ -115.1800371, 36.170711999799998 ], [ -115.1800371, 36.170709299799995 ], [ -115.1800182, 36.170709299799995 ], [ -115.1800182, 36.170706599799999 ], [ -115.1799777, 36.170706599799999 ], [ -115.1799777, 36.170709299799995 ], [ -115.1799615, 36.170709299799995 ], [ -115.1799615, 36.170706599799999 ], [ -115.1799453, 36.170706599799999 ], [ -115.1799453, 36.170709299799995 ], [ -115.1799372, 36.170709299799995 ], [ -115.1799372, 36.170711999799998 ], [ -115.1799345, 36.170711999799998 ], [ -115.1799345, 36.1707200998 ], [ -115.1799318, 36.1707200998 ], [ -115.1799318, 36.170741699799997 ], [ -115.17992910000001, 36.170741699799997 ], [ -115.17992910000001, 36.1707686998 ], [ -115.1799264, 36.1707686998 ], [ -115.1799264, 36.170771399799996 ] ] ] } }
]
}
