{
"type": "FeatureCollection",
"crs": { "type": "name", "properties": { "name": "urn:ogc:def:crs:OGC:1.3:CRS84" } },
"features": [
{ "type": "Feature", "properties": { "value": 255.0 }, "geometry": { "type": "Polygon", "coordinates": [ [ [ -115.2996984, 36.198497699900003 ], [ -115.2995229, 36.198497699900003 ], [ -115.2995229, 36.198478799900002 ], [ -115.2995256, 36.198478799900002 ], [ -115.2995256, 36.198476099900006 ], [ -115.2995337, 36.198476099900006 ], [ -115.2995337, 36.198473399900003 ], [ -115.2995499, 36.198473399900003 ], [ -115.2995499, 36.1984706999 ], [ -115.2995715, 36.1984706999 ], [ -115.2995715, 36.198467999900004 ], [ -115.2995931, 36.198467999900004 ], [ -115.2995931, 36.198465299900001 ], [ -115.2996255, 36.198465299900001 ], [ -115.2996255, 36.198467999900004 ], [ -115.2996444, 36.198467999900004 ], [ -115.2996444, 36.1984706999 ], [ -115.2996876, 36.1984706999 ], [ -115.2996876, 36.198473399900003 ], [ -115.299693, 36.198473399900003 ], [ -115.299693, 36.198478799900002 ], [ -115.2996957, 36.198478799900002 ], [ -115.2996957, 36.198492299900003 ], [ -115.2996984, 36.198492299900003 ], [ -115.2996984, 36.198497699900003 ] ] ] } },
{ "type": "Feature", "properties": { "value": 255.0 }, "geometry": { "type": "Polygon", "coordinates": [ [ [ -115.2990612, 36.198497699900003 ], [ -115.298883, 36.198497699900003 ], [ -115.298883, 36.198492299900003 ], [ -115.2988857, 36.198492299900003 ], [ -115.2988857, 36.198467999900004 ], [ -115.2988884, 36.198467999900004 ], [ -115.2988884, 36.198465299900001 ], [ -115.2989586, 36.198465299900001 ], [ -115.2989586, 36.198467999900004 ], [ -115.2990072, 36.198467999900004 ], [ -115.2990072, 36.198465299900001 ], [ -115.2990585, 36.198465299900001 ], [ -115.2990585, 36.198467999900004 ], [ -115.2990612, 36.198467999900004 ], [ -115.2990612, 36.198497699900003 ] ] ] } },
{ "type": "Feature", "properties": { "value": 255.0 }, "geometry": { "type": "Polygon", "coordinates": [ [ [ -115.2988425, 36.198497699900003 ], [ -115.2987426, 36.198497699900003 ], [ -115.2987426, 36.198465299900001 ], [ -115.2987453, 36.198465299900001 ], [ -115.2987453, 36.198462599900004 ], [ -115.2987696, 36.198462599900004 ], [ -115.2987696, 36.198465299900001 ], [ -115.2987831, 36.198465299900001 ], [ -115.2987831, 36.198467999900004 ], [ -115.2988371, 36.198467999900004 ], [ -115.2988371, 36.1984706999 ], [ -115.2988425, 36.1984706999 ], [ -115.2988425, 36.198484199900001 ], [ -115.2988398, 36.198484199900001 ], [ -115.2988398, 36.198494999899999 ], [ -115.2988425, 36.198494999899999 ], [ -115.2988425, 36.198497699900003 ] ] ] } },
{ "type": "Feature", "properties": { "value": 255.0 }, "geometry": { "type": "Polygon", "coordinates": [ [ [ -115.3001169, 36.198497699900003 ], [ -115.299936, 36.198497699900003 ], [ -115.299936, 36.198481499900005 ], [ -115.2999387, 36.198481499900005 ], [ -115.2999387, 36.198451799899999 ], [ -115.2999414, 36.198451799899999 ], [ -115.2999414, 36.1984463999 ], [ -115.2999468, 36.1984463999 ], [ -115.2999468, 36.198443699900004 ], [ -115.2999819, 36.198443699900004 ], [ -115.2999819, 36.1984463999 ], [ -115.3001061, 36.1984463999 ], [ -115.3001061, 36.198449099900003 ], [ -115.3001142, 36.198449099900003 ], [ -115.3001142, 36.198451799899999 ], [ -115.3001169, 36.198451799899999 ], [ -115.3001169, 36.198497699900003 ] ] ] } },
{ "type": "Feature", "properties": { "value": 255.0 }, "geometry": { "type": "Polygon", "coordinates": [ [ [ -115.2994851, 36.198497699900003 ], [ -115.2993015, 36.198497699900003 ], [ -115.2993015, 36.198486899900004 ], [ -115.2993042, 36.198486899900004 ], [ -115.2993042, 36.198478799900002 ], [ -115.2993069, 36.198478799900002 ], [ -115.2993069, 36.198476099900006 ], [ -115.2993258, 36.198476099900006 ], [ -115.2993258, 36.198473399900003 ], [ -115.2993312, 36.198473399900003 ], [ -115.2993312, 36.198451799899999 ], [ -115.2993339, 36.198451799899999 ], [ -115.2993339, 36.198449099900003 ], [ -115.2993366, 36.198449099900003 ], [ -115.2993366, 36.1984463999 ], [ -115.2993555, 36.1984463999 ], [ -115.2993555, 36.198449099900003 ], [ -115.2994068, 36.198449099900003 ], [ -115.2994068, 36.198451799899999 ], [ -115.2994149, 36.198451799899999 ], [ -115.2994149, 36.198454499900002 ], [ -115.2994176, 36.198454499900002 ], [ -115.2994176, 36.198476099900006 ], [ -115.2994203, 36.198476099900006 ], [ -115.2994203, 36.198478799900002 ], [ -115.299423, 36.198478799900002 ], [ -115.299423, 36.198481499900005 ], [ -115.2994527, 36.198481499900005 ], [ -115.2994527, 36.198484199900001 ], [ -115.2994797, 36.198484199900001 ], [ -115.2994797, 36.198486899900004 ], [ -115.2994824, 36.198486899900004 ], [ -115.2994824, 36.198494999899999 ], [ -115.2994851, 36.198494999899999 ], [ -115.2994851, 36.198497699900003 ] ] ] } },
{ "type": "Feature", "properties": { "value": 255.0 }, "geometry": { "type": "Polygon", "coordinates": [ [ [ -115.2992772, 36.198497699900003 ], [ -115.2991017, 36.198497699900003 ], [ -115.2991017, 36.198484199900001 ], [ -115.299099, 36.198484199900001 ], [ -115.299099, 36.198467999900004 ], [ -115.2991044, 36.198467999900004 ], [ -115.2991044, 36.198465299900001 ], [ -115.2991152, 36.198465299900001 ], [ -115.2991152, 36.198467999900004 ], [ -115.2991179, 36.198467999900004 ], [ -115.2991179, 36.198465299900001 ], [ -115.299126, 36.198465299900001 ], [ -115.299126, 36.198459899900001 ], [ -115.2991287, 36.198459899900001 ], [ -115.2991287, 36.198451799899999 ], [ -115.2991314, 36.198451799899999 ], [ -115.2991314, 36.198449099900003 ], [ -115.2991341, 36.198449099900003 ], [ -115.2991341, 36.1984463999 ], [ -115.2991476, 36.1984463999 ], [ -115.2991476, 36.198449099900003 ], [ -115.299153, 36.198449099900003 ], [ -115.299153, 36.198451799899999 ], [ -115.2991557, 36.198451799899999 ], [ -115.2991557, 36.198454499900002 ], [ -115.2991584, 36.198454499900002 ], [ -115.2991584, 36.198457199900005 ], [ -115.2991638, 36.198457199900005 ], [ -115.2991638, 36.198459899900001 ], [ -115.2991692, 36.198459899900001 ], [ -115.2991692, 36.198462599900004 ], [ -115.2992124, 36.198462599900004 ], [ -115.2992124, 36.198459899900001 ], [ -115.2992178, 36.198459899900001 ], [ -115.2992178, 36.198457199900005 ], [ -115.2992205, 36.198457199900005 ], [ -115.2992205, 36.198454499900002 ], [ -115.2992232, 36.198454499900002 ], [ -115.2992232, 36.198449099900003 ], [ -115.2992259, 36.198449099900003 ], [ -115.2992259, 36.1984463999 ], [ -115.2992286, 36.1984463999 ], [ -115.2992286, 36.198443699900004 ], [ -115.299234, 36.198443699900004 ], [ -115.299234, 36.198440999900001 ], [ -115.2992529, 36.198440999900001 ], [ -115.2992529, 36.198443699900004 ], [ -115.2992556, 36.198443699900004 ], [ -115.2992556, 36.1984463999 ], [ -115.2992583, 36.1984463999 ], [ -115.2992583, 36.198451799899999 ], [ -115.299261, 36.198451799899999 ], [ -115.299261, 36.198459899900001 ], [ -115.2992637, 36.198459899900001 ], [ -115.2992637, 36.198467999900004 ], [ -115.2992664, 36.198467999900004 ], [ -115.2992664, 36.1984706999 ], [ -115.2992691, 36.1984706999 ], [ -115.2992691, 36.198473399900003 ], [ -115.2992718, 36.198473399900003 ], [ -115.2992718, 36.198481499900005 ], [ -115.2992745, 36.198481499900005 ], [ -115.2992745, 36.198494999899999 ], [ -115.2992772, 36.198494999899999 ], [ -115.2992772, 36.198497699900003 ] ] ] } },
{ "type": "Feature", "properties": { "value": 255.0 }, "geometry": { "type": "Polygon", "coordinates": [ [ [ -115.2999063, 36.198497699900003 ], [ -115.2997416, 36.198497699900003 ], [ -115.2997416, 36.198486899900004 ], [ -115.2997389, 36.198486899900004 ], [ -115.2997389, 36.198467999900004 ], [ -115.2997362, 36.198467999900004 ], [ -115.2997362, 36.198462599900004 ], [ -115.2997335, 36.198462599900004 ], [ -115.2997335, 36.198449099900003 ], [ -115.2997362, 36.198449099900003 ], [ -115.2997362, 36.198443699900004 ], [ -115.2997389, 36.198443699900004 ], [ -115.2997389, 36.198430199900002 ], [ -115.2997416, 36.198430199900002 ], [ -115.2997416, 36.198427499899999 ], [ -115.299747, 36.198427499899999 ], [ -115.299747, 36.198424799900003 ], [ -115.2997659, 36.198424799900003 ], [ -115.2997659, 36.1984220999 ], [ -115.2997875, 36.1984220999 ], [ -115.2997875, 36.198424799900003 ], [ -115.2997956, 36.198424799900003 ], [ -115.2997956, 36.198427499899999 ], [ -115.2997983, 36.198427499899999 ], [ -115.2997983, 36.198430199900002 ], [ -115.299801, 36.198430199900002 ], [ -115.299801, 36.198435599900002 ], [ -115.2998037, 36.198435599900002 ], [ -115.2998037, 36.198443699900004 ], [ -115.2998064, 36.198443699900004 ], [ -115.2998064, 36.1984463999 ], [ -115.2998091, 36.1984463999 ], [ -115.2998091, 36.198449099900003 ], [ -115.2998118, 36.198449099900003 ], [ -115.2998118, 36.198457199900005 ], [ -115.2998145, 36.198457199900005 ], [ -115.2998145, 36.198459899900001 ], [ -115.2999036, 36.198459899900001 ], [ -115.2999036, 36.198462599900004 ], [ -115.2999063, 36.198462599900004 ], [ -115.2999063, 36.198484199900001 ], [ -115.2999036, 36.198484199900001 ], [ -115.2999036, 36.198494999899999 ], [ -115.2999063, 36.198494999899999 ], [ -115.2999063, 36.198497699900003 ] ] ] } },
{ "type": "Feature", "properties": { "value": 255.0 }, "geometry": { "type": "Polygon", "coordinates": [ [ [ -115.2994689, 36.198000899900002 ], [ -115.2994257, 36.198000899900002 ], [ -115.2994257, 36.197998199899999 ], [ -115.299423, 36.197998199899999 ], [ -115.299423, 36.197987399900001 ], [ -115.2994203, 36.197987399900001 ], [ -115.2994203, 36.197906399899999 ], [ -115.2994176, 36.197906399899999 ], [ -115.2994176, 36.197898299900004 ], [ -115.2994203, 36.197898299900004 ], [ -115.2994203, 36.197849699900004 ], [ -115.299423, 36.197849699900004 ], [ -115.299423, 36.197817299900002 ], [ -115.2994257, 36.197817299900002 ], [ -115.2994257, 36.197814599899999 ], [ -115.2994635, 36.197814599899999 ], [ -115.2994635, 36.197817299900002 ], [ -115.2994878, 36.197817299900002 ], [ -115.2994878, 36.197819999899998 ], [ -115.2995445, 36.197819999899998 ], [ -115.2995445, 36.197822699900001 ], [ -115.299558, 36.197822699900001 ], [ -115.299558, 36.197825399900005 ], [ -115.2995661, 36.197825399900005 ], [ -115.2995661, 36.197828099900001 ], [ -115.2996876, 36.197828099900001 ], [ -115.2996876, 36.197830799900004 ], [ -115.2996903, 36.197830799900004 ], [ -115.2996903, 36.197855099900003 ], [ -115.299693, 36.197855099900003 ], [ -115.299693, 36.197860499900003 ], [ -115.2996957, 36.197860499900003 ], [ -115.2996957, 36.197863199899999 ], [ -115.2997038, 36.197863199899999 ], [ -115.2997038, 36.197865899900002 ], [ -115.2997065, 36.197865899900002 ], [ -115.2997065, 36.197873999900004 ], [ -115.2997092, 36.197873999900004 ], [ -115.2997092, 36.197879399900003 ], [ -115.2997119, 36.197879399900003 ], [ -115.2997119, 36.197882099899999 ], [ -115.2997146, 36.197882099899999 ], [ -115.2997146, 36.197884799900002 ], [ -115.2997173, 36.197884799900002 ], [ -115.2997173, 36.197903699900003 ], [ -115.29972, 36.197903699900003 ], [ -115.29972, 36.197911799899998 ], [ -115.2997227, 36.197911799899998 ], [ -115.2997227, 36.197914499900001 ], [ -115.2997254, 36.197914499900001 ], [ -115.2997254, 36.197917199900004 ], [ -115.2997281, 36.197917199900004 ], [ -115.2997281, 36.1979252999 ], [ -115.2997308, 36.1979252999 ], [ -115.2997308, 36.197954999899999 ], [ -115.2997281, 36.197954999899999 ], [ -115.2997281, 36.197957699900002 ], [ -115.2997254, 36.197957699900002 ], [ -115.2997254, 36.197960399900005 ], [ -115.2996579, 36.197960399900005 ], [ -115.2996579, 36.197963099900001 ], [ -115.2996417, 36.197963099900001 ], [ -115.2996417, 36.197965799900004 ], [ -115.299639, 36.197965799900004 ], [ -115.299639, 36.1979684999 ], [ -115.2996363, 36.1979684999 ], [ -115.2996363, 36.197971199900003 ], [ -115.2996336, 36.197971199900003 ], [ -115.2996336, 36.197973899899999 ], [ -115.2995769, 36.197973899899999 ], [ -115.2995769, 36.197976599900002 ], [ -115.2995661, 36.197976599900002 ], [ -115.2995661, 36.197979299899998 ], [ -115.2995607, 36.197979299899998 ], [ -115.2995607, 36.197981999900001 ], [ -115.299558, 36.197981999900001 ], [ -115.299558, 36.197984699900005 ], [ -115.2995553, 36.197984699900005 ], [ -115.2995553, 36.197987399900001 ], [ -115.2995499, 36.197987399900001 ], [ -115.2995499, 36.197990099900004 ], [ -115.2995094, 36.197990099900004 ], [ -115.2995094, 36.1979927999 ], [ -115.299504, 36.1979927999 ], [ -115.299504, 36.197995499900003 ], [ -115.2994986, 36.197995499900003 ], [ -115.2994986, 36.197998199899999 ], [ -115.2994689, 36.197998199899999 ], [ -115.2994689, 36.198000899900002 ] ] ] } },
{ "type": "Feature", "properties": { "value": 255.0 }, "geometry": { "type": "Polygon", "coordinates": [ [ [ -115.2990423, 36.1980359999 ], [ -115.299018, 36.1980359999 ], [ -115.299018, 36.198033299900004 ], [ -115.2989964, 36.198033299900004 ], [ -115.2989964, 36.198030599900001 ], [ -115.2989532, 36.198030599900001 ], [ -115.2989532, 36.198027899900005 ], [ -115.2989451, 36.198027899900005 ], [ -115.2989451, 36.198025199900002 ], [ -115.2989397, 36.198025199900002 ], [ -115.2989397, 36.198022499899999 ], [ -115.2989343, 36.198022499899999 ], [ -115.2989343, 36.198019799900003 ], [ -115.2989289, 36.198019799900003 ], [ -115.2989289, 36.198017099899999 ], [ -115.2989262, 36.198017099899999 ], [ -115.2989262, 36.198014399900003 ], [ -115.2989235, 36.198014399900003 ], [ -115.2989235, 36.1980116999 ], [ -115.2989208, 36.1980116999 ], [ -115.2989208, 36.198008999900004 ], [ -115.2989154, 36.198008999900004 ], [ -115.2989154, 36.198006299900001 ], [ -115.29891, 36.198006299900001 ], [ -115.29891, 36.198003599900005 ], [ -115.2988938, 36.198003599900005 ], [ -115.2988938, 36.198006299900001 ], [ -115.2988884, 36.198006299900001 ], [ -115.2988884, 36.198008999900004 ], [ -115.298883, 36.198008999900004 ], [ -115.298883, 36.1980116999 ], [ -115.2988803, 36.1980116999 ], [ -115.2988803, 36.198014399900003 ], [ -115.2988776, 36.198014399900003 ], [ -115.2988776, 36.198017099899999 ], [ -115.2988749, 36.198017099899999 ], [ -115.2988749, 36.198019799900003 ], [ -115.2988695, 36.198019799900003 ], [ -115.2988695, 36.198022499899999 ], [ -115.2988668, 36.198022499899999 ], [ -115.2988668, 36.198025199900002 ], [ -115.2988614, 36.198025199900002 ], [ -115.2988614, 36.198027899900005 ], [ -115.298856, 36.198027899900005 ], [ -115.298856, 36.198030599900001 ], [ -115.2988452, 36.198030599900001 ], [ -115.2988452, 36.198033299900004 ], [ -115.298829, 36.198033299900004 ], [ -115.298829, 36.1980359999 ], [ -115.2987912, 36.1980359999 ], [ -115.2987912, 36.198033299900004 ], [ -115.2987885, 36.198033299900004 ], [ -115.2987885, 36.198030599900001 ], [ -115.2987858, 36.198030599900001 ], [ -115.2987858, 36.198019799900003 ], [ -115.2987831, 36.198019799900003 ], [ -115.2987831, 36.197995499900003 ], [ -115.2987804, 36.197995499900003 ], [ -115.2987804, 36.197957699900002 ], [ -115.2987831, 36.197957699900002 ], [ -115.2987831, 36.197906399899999 ], [ -115.2987804, 36.197906399899999 ], [ -115.2987804, 36.1979009999 ], [ -115.2987831, 36.1979009999 ], [ -115.2987831, 36.197892899900005 ], [ -115.2987858, 36.197892899900005 ], [ -115.2987858, 36.197890199900002 ], [ -115.2987885, 36.197890199900002 ], [ -115.2987885, 36.197887499899998 ], [ -115.2987912, 36.197887499899998 ], [ -115.2987912, 36.197882099899999 ], [ -115.2987939, 36.197882099899999 ], [ -115.2987939, 36.197873999900004 ], [ -115.2987966, 36.197873999900004 ], [ -115.2987966, 36.197868599900005 ], [ -115.2987993, 36.197868599900005 ], [ -115.2987993, 36.197865899900002 ], [ -115.2988047, 36.197865899900002 ], [ -115.2988047, 36.197863199899999 ], [ -115.2988155, 36.197863199899999 ], [ -115.2988155, 36.197860499900003 ], [ -115.2988344, 36.197860499900003 ], [ -115.2988344, 36.1978577999 ], [ -115.2988425, 36.1978577999 ], [ -115.2988425, 36.197855099900003 ], [ -115.2988533, 36.197855099900003 ], [ -115.2988533, 36.1978523999 ], [ -115.2988803, 36.1978523999 ], [ -115.2988803, 36.197849699900004 ], [ -115.2988911, 36.197849699900004 ], [ -115.2988911, 36.197846999900001 ], [ -115.2988965, 36.197846999900001 ], [ -115.2988965, 36.197841599900002 ], [ -115.2988992, 36.197841599900002 ], [ -115.2988992, 36.1978334999 ], [ -115.2989019, 36.1978334999 ], [ -115.2989019, 36.197822699900001 ], [ -115.2989046, 36.197822699900001 ], [ -115.2989046, 36.197787599900003 ], [ -115.2989073, 36.197787599900003 ], [ -115.2989073, 36.197782199900004 ], [ -115.2989154, 36.197782199900004 ], [ -115.2989154, 36.197779499900001 ], [ -115.2989883, 36.197779499900001 ], [ -115.2989883, 36.197782199900004 ], [ -115.2989937, 36.197782199900004 ], [ -115.2989937, 36.197819999899998 ], [ -115.2989964, 36.197819999899998 ], [ -115.2989964, 36.197830799900004 ], [ -115.2989937, 36.197830799900004 ], [ -115.2989937, 36.197844299899998 ], [ -115.2989964, 36.197844299899998 ], [ -115.2989964, 36.197846999900001 ], [ -115.2989991, 36.197846999900001 ], [ -115.2989991, 36.197849699900004 ], [ -115.2990261, 36.197849699900004 ], [ -115.2990261, 36.1978523999 ], [ -115.2990423, 36.1978523999 ], [ -115.2990423, 36.197855099900003 ], [ -115.2990477, 36.197855099900003 ], [ -115.2990477, 36.1978577999 ], [ -115.2990504, 36.1978577999 ], [ -115.2990504, 36.197863199899999 ], [ -115.2990531, 36.197863199899999 ], [ -115.2990531, 36.197987399900001 ], [ -115.2990558, 36.197987399900001 ], [ -115.2990558, 36.198022499899999 ], [ -115.2990531, 36.198022499899999 ], [ -115.2990531, 36.198025199900002 ], [ -115.2990504, 36.198025199900002 ], [ -115.2990504, 36.198030599900001 ], [ -115.2990477, 36.198030599900001 ], [ -115.2990477, 36.198033299900004 ], [ -115.2990423, 36.198033299900004 ], [ -115.2990423, 36.1980359999 ] ] ] } },
{ "type": "Feature", "properties": { "value": 255.0 }, "geometry": { "type": "Polygon", "coordinates": [ [ [ -115.2993474, 36.1980116999 ], [ -115.2993231, 36.1980116999 ], [ -115.2993231, 36.198008999900004 ], [ -115.2993042, 36.198008999900004 ], [ -115.2993042, 36.198006299900001 ], [ -115.2992934, 36.198006299900001 ], [ -115.2992934, 36.198003599900005 ], [ -115.299288, 36.198003599900005 ], [ -115.299288, 36.198000899900002 ], [ -115.2992853, 36.198000899900002 ], [ -115.2992853, 36.197998199899999 ], [ -115.2992826, 36.197998199899999 ], [ -115.2992826, 36.1979927999 ], [ -115.2992853, 36.1979927999 ], [ -115.2992853, 36.197990099900004 ], [ -115.2992826, 36.197990099900004 ], [ -115.2992826, 36.197987399900001 ], [ -115.2992799, 36.197987399900001 ], [ -115.2992799, 36.197984699900005 ], [ -115.2992745, 36.197984699900005 ], [ -115.2992745, 36.197981999900001 ], [ -115.2992637, 36.197981999900001 ], [ -115.2992637, 36.197979299899998 ], [ -115.2992151, 36.197979299899998 ], [ -115.2992151, 36.197976599900002 ], [ -115.2992124, 36.197976599900002 ], [ -115.2992124, 36.1979684999 ], [ -115.2992097, 36.1979684999 ], [ -115.2992097, 36.197954999899999 ], [ -115.299207, 36.197954999899999 ], [ -115.299207, 36.197949599899999 ], [ -115.2992016, 36.197949599899999 ], [ -115.2992016, 36.197946899900003 ], [ -115.2991935, 36.197946899900003 ], [ -115.2991935, 36.197949599899999 ], [ -115.2991881, 36.197949599899999 ], [ -115.2991881, 36.197952299900003 ], [ -115.2991854, 36.197952299900003 ], [ -115.2991854, 36.197954999899999 ], [ -115.2991827, 36.197954999899999 ], [ -115.2991827, 36.197960399900005 ], [ -115.29918, 36.197960399900005 ], [ -115.29918, 36.197981999900001 ], [ -115.2991827, 36.197981999900001 ], [ -115.2991827, 36.197998199899999 ], [ -115.29918, 36.197998199899999 ], [ -115.29918, 36.198000899900002 ], [ -115.2991341, 36.198000899900002 ], [ -115.2991341, 36.198003599900005 ], [ -115.2991071, 36.198003599900005 ], [ -115.2991071, 36.198000899900002 ], [ -115.2991017, 36.198000899900002 ], [ -115.2991017, 36.197976599900002 ], [ -115.299099, 36.197976599900002 ], [ -115.299099, 36.197965799900004 ], [ -115.2990963, 36.197965799900004 ], [ -115.2990963, 36.1979198999 ], [ -115.299099, 36.1979198999 ], [ -115.299099, 36.197914499900001 ], [ -115.2991017, 36.197914499900001 ], [ -115.2991017, 36.197911799899998 ], [ -115.2991071, 36.197911799899998 ], [ -115.2991071, 36.197909099900002 ], [ -115.2991152, 36.197909099900002 ], [ -115.2991152, 36.197911799899998 ], [ -115.2991206, 36.197911799899998 ], [ -115.2991206, 36.197909099900002 ], [ -115.299126, 36.197909099900002 ], [ -115.299126, 36.197906399899999 ], [ -115.2991287, 36.197906399899999 ], [ -115.2991287, 36.197892899900005 ], [ -115.299126, 36.197892899900005 ], [ -115.299126, 36.197887499899998 ], [ -115.2991233, 36.197887499899998 ], [ -115.2991233, 36.197884799900002 ], [ -115.2991206, 36.197884799900002 ], [ -115.2991206, 36.197882099899999 ], [ -115.2991071, 36.197882099899999 ], [ -115.2991071, 36.1978766999 ], [ -115.2991044, 36.1978766999 ], [ -115.2991044, 36.197822699900001 ], [ -115.2991071, 36.197822699900001 ], [ -115.2991071, 36.197819999899998 ], [ -115.2991152, 36.197819999899998 ], [ -115.2991152, 36.197817299900002 ], [ -115.2991476, 36.197817299900002 ], [ -115.2991476, 36.197814599899999 ], [ -115.299153, 36.197814599899999 ], [ -115.299153, 36.197811899900003 ], [ -115.2991557, 36.197811899900003 ], [ -115.2991557, 36.1978091999 ], [ -115.2991584, 36.1978091999 ], [ -115.2991584, 36.197806499900004 ], [ -115.2991638, 36.197806499900004 ], [ -115.2991638, 36.197803799900001 ], [ -115.2991665, 36.197803799900001 ], [ -115.2991665, 36.197801099900005 ], [ -115.2991746, 36.197801099900005 ], [ -115.2991746, 36.197798399900002 ], [ -115.2991827, 36.197798399900002 ], [ -115.2991827, 36.197795699899999 ], [ -115.2991881, 36.197795699899999 ], [ -115.2991881, 36.197792999900003 ], [ -115.2991908, 36.197792999900003 ], [ -115.2991908, 36.197790299899999 ], [ -115.2991935, 36.197790299899999 ], [ -115.2991935, 36.197787599900003 ], [ -115.2991962, 36.197787599900003 ], [ -115.2991962, 36.1977848999 ], [ -115.2992016, 36.1977848999 ], [ -115.2992016, 36.197782199900004 ], [ -115.2992394, 36.197782199900004 ], [ -115.2992394, 36.197779499900001 ], [ -115.2992421, 36.197779499900001 ], [ -115.2992421, 36.197755199900001 ], [ -115.2992448, 36.197755199900001 ], [ -115.2992448, 36.197744399900003 ], [ -115.2993096, 36.197744399900003 ], [ -115.2993096, 36.197747099899999 ], [ -115.2993231, 36.197747099899999 ], [ -115.2993231, 36.197749799900002 ], [ -115.2993501, 36.197749799900002 ], [ -115.2993501, 36.197752499899998 ], [ -115.2993555, 36.197752499899998 ], [ -115.2993555, 36.1977605999 ], [ -115.2993582, 36.1977605999 ], [ -115.2993582, 36.197771399899999 ], [ -115.2993609, 36.197771399899999 ], [ -115.2993609, 36.1977848999 ], [ -115.2993636, 36.1977848999 ], [ -115.2993636, 36.197825399900005 ], [ -115.2993609, 36.197825399900005 ], [ -115.2993609, 36.197830799900004 ], [ -115.2993582, 36.197830799900004 ], [ -115.2993582, 36.1978334999 ], [ -115.2993555, 36.1978334999 ], [ -115.2993555, 36.197836199900003 ], [ -115.2993528, 36.197836199900003 ], [ -115.2993528, 36.1978523999 ], [ -115.2993555, 36.1978523999 ], [ -115.2993555, 36.197855099900003 ], [ -115.2993582, 36.197855099900003 ], [ -115.2993582, 36.197860499900003 ], [ -115.2993609, 36.197860499900003 ], [ -115.2993609, 36.197903699900003 ], [ -115.2993582, 36.197903699900003 ], [ -115.2993582, 36.197906399899999 ], [ -115.299342, 36.197906399899999 ], [ -115.299342, 36.197903699900003 ], [ -115.2993393, 36.197903699900003 ], [ -115.2993393, 36.197906399899999 ], [ -115.2993123, 36.197906399899999 ], [ -115.2993123, 36.197909099900002 ], [ -115.2993096, 36.197909099900002 ], [ -115.2993096, 36.197922599900004 ], [ -115.2993123, 36.197922599900004 ], [ -115.2993123, 36.197927999900003 ], [ -115.2993177, 36.197927999900003 ], [ -115.2993177, 36.197930699899999 ], [ -115.2993312, 36.197930699899999 ], [ -115.2993312, 36.197933399900002 ], [ -115.2993447, 36.197933399900002 ], [ -115.2993447, 36.197936099900005 ], [ -115.2993582, 36.197936099900005 ], [ -115.2993582, 36.197938799900001 ], [ -115.2993609, 36.197938799900001 ], [ -115.2993609, 36.197941499900004 ], [ -115.2993636, 36.197941499900004 ], [ -115.2993636, 36.197960399900005 ], [ -115.2993609, 36.197960399900005 ], [ -115.2993609, 36.197965799900004 ], [ -115.2993582, 36.197965799900004 ], [ -115.2993582, 36.1979684999 ], [ -115.2993555, 36.1979684999 ], [ -115.2993555, 36.197973899899999 ], [ -115.2993528, 36.197973899899999 ], [ -115.2993528, 36.198003599900005 ], [ -115.2993501, 36.198003599900005 ], [ -115.2993501, 36.198008999900004 ], [ -115.2993474, 36.198008999900004 ], [ -115.2993474, 36.1980116999 ] ] ] } },
{ "type": "Feature", "properties": { "value": 255.0 }, "geometry": { "type": "Polygon", "coordinates": [ [ [ -115.2999576, 36.1980116999 ], [ -115.2999225, 36.1980116999 ], [ -115.2999225, 36.198008999900004 ], [ -115.2999117, 36.198008999900004 ], [ -115.2999117, 36.198006299900001 ], [ -115.2998928, 36.198006299900001 ], [ -115.2998928, 36.198008999900004 ], [ -115.2998847, 36.198008999900004 ], [ -115.2998847, 36.198006299900001 ], [ -115.2998793, 36.198006299900001 ], [ -115.2998793, 36.197998199899999 ], [ -115.2998766, 36.197998199899999 ], [ -115.2998766, 36.197971199900003 ], [ -115.2998739, 36.197971199900003 ], [ -115.2998739, 36.197941499900004 ], [ -115.2998712, 36.197941499900004 ], [ -115.2998712, 36.197938799900001 ], [ -115.2998685, 36.197938799900001 ], [ -115.2998685, 36.197936099900005 ], [ -115.2998199, 36.197936099900005 ], [ -115.2998199, 36.197933399900002 ], [ -115.2998118, 36.197933399900002 ], [ -115.2998118, 36.197930699899999 ], [ -115.2998091, 36.197930699899999 ], [ -115.2998091, 36.197927999900003 ], [ -115.2998037, 36.197927999900003 ], [ -115.2998037, 36.1979252999 ], [ -115.299801, 36.1979252999 ], [ -115.299801, 36.197922599900004 ], [ -115.2997983, 36.197922599900004 ], [ -115.2997983, 36.197917199900004 ], [ -115.2997956, 36.197917199900004 ], [ -115.2997956, 36.1979009999 ], [ -115.2997983, 36.1979009999 ], [ -115.2997983, 36.197895599900001 ], [ -115.2997956, 36.197895599900001 ], [ -115.2997956, 36.197879399900003 ], [ -115.2997929, 36.197879399900003 ], [ -115.2997929, 36.197873999900004 ], [ -115.2997902, 36.197873999900004 ], [ -115.2997902, 36.197855099900003 ], [ -115.2997875, 36.197855099900003 ], [ -115.2997875, 36.197838899899999 ], [ -115.2997902, 36.197838899899999 ], [ -115.2997902, 36.197817299900002 ], [ -115.2997929, 36.197817299900002 ], [ -115.2997929, 36.197811899900003 ], [ -115.2997956, 36.197811899900003 ], [ -115.2997956, 36.197806499900004 ], [ -115.2997983, 36.197806499900004 ], [ -115.2997983, 36.197803799900001 ], [ -115.299801, 36.197803799900001 ], [ -115.299801, 36.197801099900005 ], [ -115.2998064, 36.197801099900005 ], [ -115.2998064, 36.197795699899999 ], [ -115.2998091, 36.197795699899999 ], [ -115.2998091, 36.197792999900003 ], [ -115.2998145, 36.197792999900003 ], [ -115.2998145, 36.197790299899999 ], [ -115.2998172, 36.197790299899999 ], [ -115.2998172, 36.197787599900003 ], [ -115.2998199, 36.197787599900003 ], [ -115.2998199, 36.1977848999 ], [ -115.2998253, 36.1977848999 ], [ -115.2998253, 36.197782199900004 ], [ -115.299828, 36.197782199900004 ], [ -115.299828, 36.197779499900001 ], [ -115.2998334, 36.197779499900001 ], [ -115.2998334, 36.197776799899998 ], [ -115.2998388, 36.197776799899998 ], [ -115.2998388, 36.197774099900002 ], [ -115.2998442, 36.197774099900002 ], [ -115.2998442, 36.197771399899999 ], [ -115.2998469, 36.197771399899999 ], [ -115.2998469, 36.197768699900003 ], [ -115.2998523, 36.197768699900003 ], [ -115.2998523, 36.1977659999 ], [ -115.299855, 36.1977659999 ], [ -115.299855, 36.1977605999 ], [ -115.2998577, 36.1977605999 ], [ -115.2998577, 36.197757899900004 ], [ -115.2998604, 36.197757899900004 ], [ -115.2998604, 36.197755199900001 ], [ -115.2998631, 36.197755199900001 ], [ -115.2998631, 36.197752499899998 ], [ -115.2998658, 36.197752499899998 ], [ -115.2998658, 36.197749799900002 ], [ -115.2998712, 36.197749799900002 ], [ -115.2998712, 36.197747099899999 ], [ -115.2998928, 36.197747099899999 ], [ -115.2998928, 36.197744399900003 ], [ -115.2998982, 36.197744399900003 ], [ -115.2998982, 36.1977416999 ], [ -115.2999009, 36.1977416999 ], [ -115.2999009, 36.197725499900002 ], [ -115.2999036, 36.197725499900002 ], [ -115.2999036, 36.197711999900001 ], [ -115.2999063, 36.197711999900001 ], [ -115.2999063, 36.197709299899998 ], [ -115.2999225, 36.197709299899998 ], [ -115.2999225, 36.197711999900001 ], [ -115.2999252, 36.197711999900001 ], [ -115.2999252, 36.197714699900004 ], [ -115.2999387, 36.197714699900004 ], [ -115.2999387, 36.1977173999 ], [ -115.2999522, 36.1977173999 ], [ -115.2999522, 36.197714699900004 ], [ -115.2999576, 36.197714699900004 ], [ -115.2999576, 36.197711999900001 ], [ -115.299963, 36.197711999900001 ], [ -115.299963, 36.197709299899998 ], [ -115.2999684, 36.197709299899998 ], [ -115.2999684, 36.197706599900002 ], [ -115.2999738, 36.197706599900002 ], [ -115.2999738, 36.197703899899999 ], [ -115.2999792, 36.197703899899999 ], [ -115.2999792, 36.197706599900002 ], [ -115.2999873, 36.197706599900002 ], [ -115.2999873, 36.197703899899999 ], [ -115.3000035, 36.197703899899999 ], [ -115.3000035, 36.197701199900003 ], [ -115.3000116, 36.197701199900003 ], [ -115.3000116, 36.1976984999 ], [ -115.3000251, 36.1976984999 ], [ -115.3000251, 36.197701199900003 ], [ -115.3000305, 36.197701199900003 ], [ -115.3000305, 36.197703899899999 ], [ -115.3000386, 36.197703899899999 ], [ -115.3000386, 36.197706599900002 ], [ -115.3000737, 36.197706599900002 ], [ -115.3000737, 36.197709299899998 ], [ -115.3000791, 36.197709299899998 ], [ -115.3000791, 36.197779499900001 ], [ -115.3000764, 36.197779499900001 ], [ -115.3000764, 36.1978334999 ], [ -115.3000737, 36.1978334999 ], [ -115.3000737, 36.197841599900002 ], [ -115.300071, 36.197841599900002 ], [ -115.300071, 36.197855099900003 ], [ -115.3000683, 36.197855099900003 ], [ -115.3000683, 36.197860499900003 ], [ -115.3000656, 36.197860499900003 ], [ -115.3000656, 36.197865899900002 ], [ -115.3000629, 36.197865899900002 ], [ -115.3000629, 36.197868599900005 ], [ -115.3000602, 36.197868599900005 ], [ -115.3000602, 36.197871299900001 ], [ -115.3000575, 36.197871299900001 ], [ -115.3000575, 36.197873999900004 ], [ -115.3000548, 36.197873999900004 ], [ -115.3000548, 36.197879399900003 ], [ -115.3000521, 36.197879399900003 ], [ -115.3000521, 36.197882099899999 ], [ -115.3000494, 36.197882099899999 ], [ -115.3000494, 36.197887499899998 ], [ -115.3000467, 36.197887499899998 ], [ -115.3000467, 36.197892899900005 ], [ -115.300044, 36.197892899900005 ], [ -115.300044, 36.1979009999 ], [ -115.3000413, 36.1979009999 ], [ -115.3000413, 36.197909099900002 ], [ -115.3000386, 36.197909099900002 ], [ -115.3000386, 36.197914499900001 ], [ -115.3000359, 36.197914499900001 ], [ -115.3000359, 36.197917199900004 ], [ -115.3000332, 36.197917199900004 ], [ -115.3000332, 36.1979198999 ], [ -115.3000305, 36.1979198999 ], [ -115.3000305, 36.1979252999 ], [ -115.3000278, 36.1979252999 ], [ -115.3000278, 36.197927999900003 ], [ -115.3000251, 36.197927999900003 ], [ -115.3000251, 36.197933399900002 ], [ -115.3000197, 36.197933399900002 ], [ -115.3000197, 36.197938799900001 ], [ -115.300017, 36.197938799900001 ], [ -115.300017, 36.197941499900004 ], [ -115.3000143, 36.197941499900004 ], [ -115.3000143, 36.1979441999 ], [ -115.3000116, 36.1979441999 ], [ -115.3000116, 36.197949599899999 ], [ -115.3000089, 36.197949599899999 ], [ -115.3000089, 36.197954999899999 ], [ -115.3000062, 36.197954999899999 ], [ -115.3000062, 36.197957699900002 ], [ -115.3000035, 36.197957699900002 ], [ -115.3000035, 36.197960399900005 ], [ -115.3000008, 36.197960399900005 ], [ -115.3000008, 36.197963099900001 ], [ -115.2999954, 36.197963099900001 ], [ -115.2999954, 36.197965799900004 ], [ -115.29999, 36.197965799900004 ], [ -115.29999, 36.1979684999 ], [ -115.2999846, 36.1979684999 ], [ -115.2999846, 36.197973899899999 ], [ -115.2999819, 36.197973899899999 ], [ -115.2999819, 36.197981999900001 ], [ -115.2999792, 36.197981999900001 ], [ -115.2999792, 36.197987399900001 ], [ -115.2999765, 36.197987399900001 ], [ -115.2999765, 36.197995499900003 ], [ -115.2999738, 36.197995499900003 ], [ -115.2999738, 36.198003599900005 ], [ -115.2999711, 36.198003599900005 ], [ -115.2999711, 36.198006299900001 ], [ -115.2999684, 36.198006299900001 ], [ -115.2999684, 36.198008999900004 ], [ -115.2999576, 36.198008999900004 ], [ -115.2999576, 36.1980116999 ] ] ] } },
{ "type": "Feature", "properties": { "value": 255.0 }, "geometry": { "type": "Polygon", "coordinates": [ [ [ -115.3002816, 36.1976741999 ], [ -115.3002735, 36.1976741999 ], [ -115.3002735, 36.197671499900004 ], [ -115.3002573, 36.197671499900004 ], [ -115.3002573, 36.197668799900001 ], [ -115.300206, 36.197668799900001 ], [ -115.300206, 36.197666099900005 ], [ -115.3002006, 36.197666099900005 ], [ -115.3002006, 36.197663399900001 ], [ -115.3001952, 36.197663399900001 ], [ -115.3001952, 36.197660699899998 ], [ -115.3001898, 36.197660699899998 ], [ -115.3001898, 36.197657999900002 ], [ -115.3001844, 36.197657999900002 ], [ -115.3001844, 36.197655299899999 ], [ -115.3001817, 36.197655299899999 ], [ -115.3001817, 36.197652599900003 ], [ -115.300179, 36.197652599900003 ], [ -115.300179, 36.1976498999 ], [ -115.3001763, 36.1976498999 ], [ -115.3001763, 36.197647199900004 ], [ -115.3001736, 36.197647199900004 ], [ -115.3001736, 36.197644499900001 ], [ -115.3001709, 36.197644499900001 ], [ -115.3001709, 36.197641799899998 ], [ -115.3001682, 36.197641799899998 ], [ -115.3001682, 36.197639099900002 ], [ -115.3001601, 36.197639099900002 ], [ -115.3001601, 36.197636399899999 ], [ -115.300152, 36.197636399899999 ], [ -115.300152, 36.197633699900003 ], [ -115.3001466, 36.197633699900003 ], [ -115.3001466, 36.197630999899999 ], [ -115.3001439, 36.197630999899999 ], [ -115.3001439, 36.1976255999 ], [ -115.3001412, 36.1976255999 ], [ -115.3001412, 36.197622899900004 ], [ -115.3001385, 36.197622899900004 ], [ -115.3001385, 36.197617499899998 ], [ -115.3001358, 36.197617499899998 ], [ -115.3001358, 36.197609399900003 ], [ -115.3001385, 36.197609399900003 ], [ -115.3001385, 36.1976066999 ], [ -115.3001412, 36.1976066999 ], [ -115.3001412, 36.197603999900004 ], [ -115.3001439, 36.197603999900004 ], [ -115.3001439, 36.197601299900001 ], [ -115.3001493, 36.197601299900001 ], [ -115.3001493, 36.197598599900005 ], [ -115.300152, 36.197598599900005 ], [ -115.300152, 36.197595899900001 ], [ -115.3001547, 36.197595899900001 ], [ -115.3001547, 36.197593199899998 ], [ -115.3001655, 36.197593199899998 ], [ -115.3001655, 36.197590499900002 ], [ -115.3001682, 36.197590499900002 ], [ -115.3001682, 36.197587799899999 ], [ -115.3001709, 36.197587799899999 ], [ -115.3001709, 36.1975823999 ], [ -115.3001736, 36.1975823999 ], [ -115.3001736, 36.197579699900004 ], [ -115.3001763, 36.197579699900004 ], [ -115.3001763, 36.197574299899998 ], [ -115.300179, 36.197574299899998 ], [ -115.300179, 36.197563499899999 ], [ -115.3001817, 36.197563499899999 ], [ -115.3001817, 36.197536499900004 ], [ -115.3001844, 36.197536499900004 ], [ -115.3001844, 36.197531099900004 ], [ -115.3002168, 36.197531099900004 ], [ -115.3002168, 36.1975337999 ], [ -115.3002465, 36.1975337999 ], [ -115.3002465, 36.197536499900004 ], [ -115.3002519, 36.197536499900004 ], [ -115.3002519, 36.197541899900003 ], [ -115.3002546, 36.197541899900003 ], [ -115.3002546, 36.197547299900002 ], [ -115.3002573, 36.197547299900002 ], [ -115.3002573, 36.197552699900001 ], [ -115.3002627, 36.197552699900001 ], [ -115.3002627, 36.197555399900004 ], [ -115.3002681, 36.197555399900004 ], [ -115.3002681, 36.1975580999 ], [ -115.3002762, 36.1975580999 ], [ -115.3002762, 36.197560799900003 ], [ -115.3002843, 36.197560799900003 ], [ -115.3002843, 36.197563499899999 ], [ -115.3002897, 36.197563499899999 ], [ -115.3002897, 36.197568899899998 ], [ -115.3002924, 36.197568899899998 ], [ -115.3002924, 36.197617499899998 ], [ -115.3002897, 36.197617499899998 ], [ -115.3002897, 36.197660699899998 ], [ -115.300287, 36.197660699899998 ], [ -115.300287, 36.197671499900004 ], [ -115.3002816, 36.197671499900004 ], [ -115.3002816, 36.1976741999 ] ] ] } },
{ "type": "Feature", "properties": { "value": 255.0 }, "geometry": { "type": "Polygon", "coordinates": [ [ [ -115.2989721, 36.197482499899998 ], [ -115.2989478, 36.197482499899998 ], [ -115.2989478, 36.197479799900002 ], [ -115.2989451, 36.197479799900002 ], [ -115.2989451, 36.197477099899999 ], [ -115.2989397, 36.197477099899999 ], [ -115.2989397, 36.197474399900003 ], [ -115.2989316, 36.197474399900003 ], [ -115.2989316, 36.197471699899999 ], [ -115.29891, 36.197471699899999 ], [ -115.29891, 36.197474399900003 ], [ -115.2988776, 36.197474399900003 ], [ -115.2988776, 36.197477099899999 ], [ -115.2988668, 36.197477099899999 ], [ -115.2988668, 36.197474399900003 ], [ -115.298856, 36.197474399900003 ], [ -115.298856, 36.197471699899999 ], [ -115.2988506, 36.197471699899999 ], [ -115.2988506, 36.197468999900003 ], [ -115.2988371, 36.197468999900003 ], [ -115.2988371, 36.197471699899999 ], [ -115.2988344, 36.197471699899999 ], [ -115.2988344, 36.197474399900003 ], [ -115.2988317, 36.197474399900003 ], [ -115.2988317, 36.197477099899999 ], [ -115.2988047, 36.197477099899999 ], [ -115.2988047, 36.197479799900002 ], [ -115.2987858, 36.197479799900002 ], [ -115.2987858, 36.197477099899999 ], [ -115.2987777, 36.197477099899999 ], [ -115.2987777, 36.197474399900003 ], [ -115.2987696, 36.197474399900003 ], [ -115.2987696, 36.197471699899999 ], [ -115.2987615, 36.197471699899999 ], [ -115.2987615, 36.197468999900003 ], [ -115.2987588, 36.197468999900003 ], [ -115.2987588, 36.197463599900004 ], [ -115.2987561, 36.197463599900004 ], [ -115.2987561, 36.197439299899997 ], [ -115.2987534, 36.197439299899997 ], [ -115.2987534, 36.197404199899999 ], [ -115.2987507, 36.197404199899999 ], [ -115.2987507, 36.1973555999 ], [ -115.298748, 36.1973555999 ], [ -115.298748, 36.197328599900004 ], [ -115.2987453, 36.197328599900004 ], [ -115.2987453, 36.197323199899998 ], [ -115.298748, 36.197323199899998 ], [ -115.298748, 36.197298899899998 ], [ -115.2987507, 36.197298899899998 ], [ -115.2987507, 36.197293499899999 ], [ -115.2987534, 36.197293499899999 ], [ -115.2987534, 36.197290799900003 ], [ -115.2987696, 36.197290799900003 ], [ -115.2987696, 36.1972880999 ], [ -115.298829, 36.1972880999 ], [ -115.298829, 36.197290799900003 ], [ -115.2988479, 36.197290799900003 ], [ -115.2988479, 36.1972880999 ], [ -115.2988722, 36.1972880999 ], [ -115.2988722, 36.197285399900004 ], [ -115.2988884, 36.197285399900004 ], [ -115.2988884, 36.197282699900001 ], [ -115.298937, 36.197282699900001 ], [ -115.298937, 36.197279999899997 ], [ -115.2989532, 36.197279999899997 ], [ -115.2989532, 36.197282699900001 ], [ -115.2989613, 36.197282699900001 ], [ -115.2989613, 36.197285399900004 ], [ -115.2989667, 36.197285399900004 ], [ -115.2989667, 36.197290799900003 ], [ -115.2989694, 36.197290799900003 ], [ -115.2989694, 36.197347499899998 ], [ -115.2989721, 36.197347499899998 ], [ -115.2989721, 36.197352899900004 ], [ -115.2989829, 36.197352899900004 ], [ -115.2989829, 36.1973555999 ], [ -115.2989937, 36.1973555999 ], [ -115.2989937, 36.197358299900003 ], [ -115.2989964, 36.197358299900003 ], [ -115.2989964, 36.197360999899999 ], [ -115.2989991, 36.197360999899999 ], [ -115.2989991, 36.197363699900002 ], [ -115.2990018, 36.197363699900002 ], [ -115.2990018, 36.197369099900001 ], [ -115.2990045, 36.197369099900001 ], [ -115.2990045, 36.1973744999 ], [ -115.2990072, 36.1973744999 ], [ -115.2990072, 36.197382599900003 ], [ -115.2990099, 36.197382599900003 ], [ -115.2990099, 36.197396099900004 ], [ -115.2990126, 36.197396099900004 ], [ -115.2990126, 36.197414999899998 ], [ -115.2990153, 36.197414999899998 ], [ -115.2990153, 36.1974230999 ], [ -115.299018, 36.1974230999 ], [ -115.299018, 36.197433899899998 ], [ -115.2990153, 36.197433899899998 ], [ -115.2990153, 36.197436599900001 ], [ -115.299018, 36.197436599900001 ], [ -115.299018, 36.197444699900004 ], [ -115.2990207, 36.197444699900004 ], [ -115.2990207, 36.197450099900003 ], [ -115.2990234, 36.197450099900003 ], [ -115.2990234, 36.197452799899999 ], [ -115.2990261, 36.197452799899999 ], [ -115.2990261, 36.197455499900002 ], [ -115.2990288, 36.197455499900002 ], [ -115.2990288, 36.1974662999 ], [ -115.2990261, 36.1974662999 ], [ -115.2990261, 36.197468999900003 ], [ -115.2990153, 36.197468999900003 ], [ -115.2990153, 36.197471699899999 ], [ -115.2990126, 36.197471699899999 ], [ -115.2990126, 36.197474399900003 ], [ -115.2990072, 36.197474399900003 ], [ -115.2990072, 36.197477099899999 ], [ -115.2990018, 36.197477099899999 ], [ -115.2990018, 36.197479799900002 ], [ -115.2989721, 36.197479799900002 ], [ -115.2989721, 36.197482499899998 ] ] ] } },
{ "type": "Feature", "properties": { "value": 255.0 }, "geometry": { "type": "Polygon", "coordinates": [ [ [ -115.2991692, 36.197393399900001 ], [ -115.2991557, 36.197393399900001 ], [ -115.2991557, 36.197390699899998 ], [ -115.2991422, 36.197390699899998 ], [ -115.2991422, 36.197387999900002 ], [ -115.2991341, 36.197387999900002 ], [ -115.2991341, 36.197385299899999 ], [ -115.2991287, 36.197385299899999 ], [ -115.2991287, 36.197382599900003 ], [ -115.2991233, 36.197382599900003 ], [ -115.2991233, 36.1973798999 ], [ -115.2991152, 36.1973798999 ], [ -115.2991152, 36.197369099900001 ], [ -115.2991125, 36.197369099900001 ], [ -115.2991125, 36.197363699900002 ], [ -115.2991098, 36.197363699900002 ], [ -115.2991098, 36.197360999899999 ], [ -115.2991071, 36.197360999899999 ], [ -115.2991071, 36.197358299900003 ], [ -115.2991044, 36.197358299900003 ], [ -115.2991044, 36.197352899900004 ], [ -115.2991017, 36.197352899900004 ], [ -115.2991017, 36.197347499899998 ], [ -115.299099, 36.197347499899998 ], [ -115.299099, 36.197344799900002 ], [ -115.2990963, 36.197344799900002 ], [ -115.2990963, 36.197342099899998 ], [ -115.2990909, 36.197342099899998 ], [ -115.2990909, 36.197339399900002 ], [ -115.2990855, 36.197339399900002 ], [ -115.2990855, 36.197336699899999 ], [ -115.2990801, 36.197336699899999 ], [ -115.2990801, 36.197333999900003 ], [ -115.2990747, 36.197333999900003 ], [ -115.2990747, 36.1973312999 ], [ -115.2990693, 36.1973312999 ], [ -115.2990693, 36.197328599900004 ], [ -115.2990666, 36.197328599900004 ], [ -115.2990666, 36.197323199899998 ], [ -115.2990639, 36.197323199899998 ], [ -115.2990639, 36.197317799899999 ], [ -115.2990666, 36.197317799899999 ], [ -115.2990666, 36.197312399899999 ], [ -115.2990639, 36.197312399899999 ], [ -115.2990639, 36.197309699900003 ], [ -115.2990612, 36.197309699900003 ], [ -115.2990612, 36.1973069999 ], [ -115.2990585, 36.1973069999 ], [ -115.2990585, 36.197304299899997 ], [ -115.2990558, 36.197304299899997 ], [ -115.2990558, 36.197301599900001 ], [ -115.2990531, 36.197301599900001 ], [ -115.2990531, 36.197298899899998 ], [ -115.2990504, 36.197298899899998 ], [ -115.2990504, 36.197293499899999 ], [ -115.2990477, 36.197293499899999 ], [ -115.2990477, 36.1972880999 ], [ -115.2990504, 36.1972880999 ], [ -115.2990504, 36.197277299900001 ], [ -115.2990531, 36.197277299900001 ], [ -115.2990531, 36.197274599899998 ], [ -115.2990558, 36.197274599899998 ], [ -115.2990558, 36.197271899900002 ], [ -115.2990585, 36.197271899900002 ], [ -115.2990585, 36.197269199899999 ], [ -115.2990639, 36.197269199899999 ], [ -115.2990639, 36.197266499900003 ], [ -115.2990693, 36.197266499900003 ], [ -115.2990693, 36.1972637999 ], [ -115.2990747, 36.1972637999 ], [ -115.2990747, 36.197261099900004 ], [ -115.2990801, 36.197261099900004 ], [ -115.2990801, 36.197258399900001 ], [ -115.2990855, 36.197258399900001 ], [ -115.2990855, 36.197255699899998 ], [ -115.2990882, 36.197255699899998 ], [ -115.2990882, 36.197247599900003 ], [ -115.2990909, 36.197247599900003 ], [ -115.2990909, 36.197228699900002 ], [ -115.2990936, 36.197228699900002 ], [ -115.2990936, 36.197225999899999 ], [ -115.2990963, 36.197225999899999 ], [ -115.2990963, 36.197223299900003 ], [ -115.2991152, 36.197223299900003 ], [ -115.2991152, 36.1972205999 ], [ -115.2991287, 36.1972205999 ], [ -115.2991287, 36.197217899900004 ], [ -115.2991476, 36.197217899900004 ], [ -115.2991476, 36.1972151999 ], [ -115.2991557, 36.1972151999 ], [ -115.2991557, 36.197212499899997 ], [ -115.2991638, 36.197212499899997 ], [ -115.2991638, 36.197209799900001 ], [ -115.2991881, 36.197209799900001 ], [ -115.2991881, 36.197207099899998 ], [ -115.2992016, 36.197207099899998 ], [ -115.2992016, 36.197204399900002 ], [ -115.2992151, 36.197204399900002 ], [ -115.2992151, 36.197201699899999 ], [ -115.299234, 36.197201699899999 ], [ -115.299234, 36.197204399900002 ], [ -115.2992637, 36.197204399900002 ], [ -115.2992637, 36.197207099899998 ], [ -115.2992772, 36.197207099899998 ], [ -115.2992772, 36.197209799900001 ], [ -115.2992826, 36.197209799900001 ], [ -115.2992826, 36.197212499899997 ], [ -115.299288, 36.197212499899997 ], [ -115.299288, 36.1972151999 ], [ -115.2992907, 36.1972151999 ], [ -115.2992907, 36.197217899900004 ], [ -115.2992934, 36.197217899900004 ], [ -115.2992934, 36.197223299900003 ], [ -115.2992961, 36.197223299900003 ], [ -115.2992961, 36.197225999899999 ], [ -115.2992988, 36.197225999899999 ], [ -115.2992988, 36.197228699900002 ], [ -115.2993015, 36.197228699900002 ], [ -115.2993015, 36.197231399899998 ], [ -115.2993042, 36.197231399899998 ], [ -115.2993042, 36.197234099900001 ], [ -115.2993096, 36.197234099900001 ], [ -115.2993096, 36.197236799899997 ], [ -115.2993123, 36.197236799899997 ], [ -115.2993123, 36.1972394999 ], [ -115.2993177, 36.1972394999 ], [ -115.2993177, 36.197242199900003 ], [ -115.2993231, 36.197242199900003 ], [ -115.2993231, 36.197244899899999 ], [ -115.2993285, 36.197244899899999 ], [ -115.2993285, 36.197247599900003 ], [ -115.2993339, 36.197247599900003 ], [ -115.2993339, 36.197252999900002 ], [ -115.2993366, 36.197252999900002 ], [ -115.2993366, 36.197255699899998 ], [ -115.2993393, 36.197255699899998 ], [ -115.2993393, 36.1972637999 ], [ -115.299342, 36.1972637999 ], [ -115.299342, 36.197285399900004 ], [ -115.2993393, 36.197285399900004 ], [ -115.2993393, 36.1972880999 ], [ -115.2993366, 36.1972880999 ], [ -115.2993366, 36.197290799900003 ], [ -115.2993339, 36.197290799900003 ], [ -115.2993339, 36.197293499899999 ], [ -115.2993312, 36.197293499899999 ], [ -115.2993312, 36.197296199900002 ], [ -115.2993285, 36.197296199900002 ], [ -115.2993285, 36.197301599900001 ], [ -115.2993258, 36.197301599900001 ], [ -115.2993258, 36.197304299899997 ], [ -115.2993231, 36.197304299899997 ], [ -115.2993231, 36.1973069999 ], [ -115.2993204, 36.1973069999 ], [ -115.2993204, 36.197309699900003 ], [ -115.2993177, 36.197309699900003 ], [ -115.2993177, 36.197312399899999 ], [ -115.299315, 36.197312399899999 ], [ -115.299315, 36.197317799899999 ], [ -115.2993123, 36.197317799899999 ], [ -115.2993123, 36.197320499900002 ], [ -115.2993096, 36.197320499900002 ], [ -115.2993096, 36.197325899900001 ], [ -115.2993069, 36.197325899900001 ], [ -115.2993069, 36.197328599900004 ], [ -115.2993042, 36.197328599900004 ], [ -115.2993042, 36.1973312999 ], [ -115.2993015, 36.1973312999 ], [ -115.2993015, 36.197333999900003 ], [ -115.2992988, 36.197333999900003 ], [ -115.2992988, 36.197336699899999 ], [ -115.2992961, 36.197336699899999 ], [ -115.2992961, 36.197339399900002 ], [ -115.2992934, 36.197339399900002 ], [ -115.2992934, 36.197342099899998 ], [ -115.299288, 36.197342099899998 ], [ -115.299288, 36.197344799900002 ], [ -115.2992853, 36.197344799900002 ], [ -115.2992853, 36.197347499899998 ], [ -115.2992799, 36.197347499899998 ], [ -115.2992799, 36.197350199900001 ], [ -115.2992745, 36.197350199900001 ], [ -115.2992745, 36.197352899900004 ], [ -115.299261, 36.197352899900004 ], [ -115.299261, 36.1973555999 ], [ -115.2992394, 36.1973555999 ], [ -115.2992394, 36.197358299900003 ], [ -115.2992313, 36.197358299900003 ], [ -115.2992313, 36.197360999899999 ], [ -115.2992286, 36.197360999899999 ], [ -115.2992286, 36.197363699900002 ], [ -115.2992259, 36.197363699900002 ], [ -115.2992259, 36.197369099900001 ], [ -115.2992232, 36.197369099900001 ], [ -115.2992232, 36.197371799899997 ], [ -115.2992205, 36.197371799899997 ], [ -115.2992205, 36.1973744999 ], [ -115.2992178, 36.1973744999 ], [ -115.2992178, 36.197377199900004 ], [ -115.2992151, 36.197377199900004 ], [ -115.2992151, 36.1973798999 ], [ -115.2992097, 36.1973798999 ], [ -115.2992097, 36.197382599900003 ], [ -115.299207, 36.197382599900003 ], [ -115.299207, 36.197385299899999 ], [ -115.2992016, 36.197385299899999 ], [ -115.2992016, 36.197387999900002 ], [ -115.2991908, 36.197387999900002 ], [ -115.2991908, 36.197390699899998 ], [ -115.2991692, 36.197390699899998 ], [ -115.2991692, 36.197393399900001 ] ] ] } },
{ "type": "Feature", "properties": { "value": 255.0 }, "geometry": { "type": "Polygon", "coordinates": [ [ [ -115.3000197, 36.197512199900004 ], [ -115.2999819, 36.197512199900004 ], [ -115.2999819, 36.197509499900001 ], [ -115.2999792, 36.197509499900001 ], [ -115.2999792, 36.197506799899998 ], [ -115.2999765, 36.197506799899998 ], [ -115.2999765, 36.197504099900002 ], [ -115.2999684, 36.197504099900002 ], [ -115.2999684, 36.197501399899998 ], [ -115.2999468, 36.197501399899998 ], [ -115.2999468, 36.197498699900002 ], [ -115.2999441, 36.197498699900002 ], [ -115.2999441, 36.197458199899998 ], [ -115.2999468, 36.197458199899998 ], [ -115.2999468, 36.197420399900004 ], [ -115.2999441, 36.197420399900004 ], [ -115.2999441, 36.197412299900002 ], [ -115.2999414, 36.197412299900002 ], [ -115.2999414, 36.197409599899999 ], [ -115.2999387, 36.197409599899999 ], [ -115.2999387, 36.197406899900002 ], [ -115.2999198, 36.197406899900002 ], [ -115.2999198, 36.197404199899999 ], [ -115.2999171, 36.197404199899999 ], [ -115.2999171, 36.197396099900004 ], [ -115.2999144, 36.197396099900004 ], [ -115.2999144, 36.1973744999 ], [ -115.2999117, 36.1973744999 ], [ -115.2999117, 36.197371799899997 ], [ -115.2999144, 36.197371799899997 ], [ -115.2999144, 36.197347499899998 ], [ -115.2999171, 36.197347499899998 ], [ -115.2999171, 36.197336699899999 ], [ -115.2999198, 36.197336699899999 ], [ -115.2999198, 36.197325899900001 ], [ -115.2999225, 36.197325899900001 ], [ -115.2999225, 36.197298899899998 ], [ -115.2999198, 36.197298899899998 ], [ -115.2999198, 36.197293499899999 ], [ -115.2999171, 36.197293499899999 ], [ -115.2999171, 36.1972880999 ], [ -115.2999144, 36.1972880999 ], [ -115.2999144, 36.197285399900004 ], [ -115.2999117, 36.197285399900004 ], [ -115.2999117, 36.197282699900001 ], [ -115.299909, 36.197282699900001 ], [ -115.299909, 36.197279999899997 ], [ -115.2999117, 36.197279999899997 ], [ -115.2999117, 36.197277299900001 ], [ -115.2999171, 36.197277299900001 ], [ -115.2999171, 36.197274599899998 ], [ -115.2999198, 36.197274599899998 ], [ -115.2999198, 36.197271899900002 ], [ -115.2999252, 36.197271899900002 ], [ -115.2999252, 36.197266499900003 ], [ -115.2999279, 36.197266499900003 ], [ -115.2999279, 36.197261099900004 ], [ -115.2999306, 36.197261099900004 ], [ -115.2999306, 36.197252999900002 ], [ -115.2999333, 36.197252999900002 ], [ -115.2999333, 36.197250299899999 ], [ -115.2999306, 36.197250299899999 ], [ -115.2999306, 36.1972394999 ], [ -115.2999279, 36.1972394999 ], [ -115.2999279, 36.1972205999 ], [ -115.2999306, 36.1972205999 ], [ -115.2999306, 36.197198999900003 ], [ -115.2999279, 36.197198999900003 ], [ -115.2999279, 36.197185499900002 ], [ -115.2999252, 36.197185499900002 ], [ -115.2999252, 36.197182799899998 ], [ -115.2999225, 36.197182799899998 ], [ -115.2999225, 36.197180099900002 ], [ -115.2999171, 36.197180099900002 ], [ -115.2999171, 36.197177399899999 ], [ -115.2999144, 36.197177399899999 ], [ -115.2999144, 36.197174699900003 ], [ -115.299909, 36.197174699900003 ], [ -115.299909, 36.1971719999 ], [ -115.2998982, 36.1971719999 ], [ -115.2998982, 36.197169299899997 ], [ -115.2998928, 36.197169299899997 ], [ -115.2998928, 36.197166599900001 ], [ -115.2998901, 36.197166599900001 ], [ -115.2998901, 36.197161199900002 ], [ -115.2998874, 36.197161199900002 ], [ -115.2998874, 36.197115299899998 ], [ -115.2998847, 36.197115299899998 ], [ -115.2998847, 36.197093699900002 ], [ -115.2998874, 36.197093699900002 ], [ -115.2998874, 36.197077499899997 ], [ -115.2998901, 36.197077499899997 ], [ -115.2998901, 36.197066699899999 ], [ -115.2998928, 36.197066699899999 ], [ -115.2998928, 36.1970612999 ], [ -115.2998955, 36.1970612999 ], [ -115.2998955, 36.197053199899997 ], [ -115.2998982, 36.197053199899997 ], [ -115.2998982, 36.197047799899998 ], [ -115.2999009, 36.197047799899998 ], [ -115.2999009, 36.197045099900002 ], [ -115.2999036, 36.197045099900002 ], [ -115.2999036, 36.197042399899999 ], [ -115.2999063, 36.197042399899999 ], [ -115.2999063, 36.197039699900003 ], [ -115.299909, 36.197039699900003 ], [ -115.299909, 36.1970369999 ], [ -115.2999144, 36.1970369999 ], [ -115.2999144, 36.197034299899997 ], [ -115.2999225, 36.197034299899997 ], [ -115.2999225, 36.197031599900001 ], [ -115.2999522, 36.197031599900001 ], [ -115.2999522, 36.197034299899997 ], [ -115.3000008, 36.197034299899997 ], [ -115.3000008, 36.197031599900001 ], [ -115.3000143, 36.197031599900001 ], [ -115.3000143, 36.197034299899997 ], [ -115.3000251, 36.197034299899997 ], [ -115.3000251, 36.197039699900003 ], [ -115.3000278, 36.197039699900003 ], [ -115.3000278, 36.197058599900004 ], [ -115.3000251, 36.197058599900004 ], [ -115.3000251, 36.197093699900002 ], [ -115.3000278, 36.197093699900002 ], [ -115.3000278, 36.197096399899998 ], [ -115.3000494, 36.197096399899998 ], [ -115.3000494, 36.197099099900001 ], [ -115.3001385, 36.197099099900001 ], [ -115.3001385, 36.197096399899998 ], [ -115.3001601, 36.197096399899998 ], [ -115.3001601, 36.197099099900001 ], [ -115.3001682, 36.197099099900001 ], [ -115.3001682, 36.197101799899997 ], [ -115.300179, 36.197101799899997 ], [ -115.300179, 36.1971044999 ], [ -115.3002195, 36.1971044999 ], [ -115.3002195, 36.197107199900003 ], [ -115.3002249, 36.197107199900003 ], [ -115.3002249, 36.1971044999 ], [ -115.3002465, 36.1971044999 ], [ -115.3002465, 36.197107199900003 ], [ -115.30026, 36.197107199900003 ], [ -115.30026, 36.197109899899999 ], [ -115.3002654, 36.197109899899999 ], [ -115.3002654, 36.197112599900002 ], [ -115.3002708, 36.197112599900002 ], [ -115.3002708, 36.1971476999 ], [ -115.3002735, 36.1971476999 ], [ -115.3002735, 36.197166599900001 ], [ -115.3002708, 36.197166599900001 ], [ -115.3002708, 36.197174699900003 ], [ -115.3002681, 36.197174699900003 ], [ -115.3002681, 36.197207099899998 ], [ -115.3002654, 36.197207099899998 ], [ -115.3002654, 36.197212499899997 ], [ -115.3002627, 36.197212499899997 ], [ -115.3002627, 36.1972151999 ], [ -115.3001952, 36.1972151999 ], [ -115.3001952, 36.197217899900004 ], [ -115.3001871, 36.197217899900004 ], [ -115.3001871, 36.1972151999 ], [ -115.3001844, 36.1972151999 ], [ -115.3001844, 36.197212499899997 ], [ -115.3001547, 36.197212499899997 ], [ -115.3001547, 36.197209799900001 ], [ -115.300125, 36.197209799900001 ], [ -115.300125, 36.197212499899997 ], [ -115.3001169, 36.197212499899997 ], [ -115.3001169, 36.1972151999 ], [ -115.3001142, 36.1972151999 ], [ -115.3001142, 36.197217899900004 ], [ -115.3001115, 36.197217899900004 ], [ -115.3001115, 36.197247599900003 ], [ -115.3001142, 36.197247599900003 ], [ -115.3001142, 36.197250299899999 ], [ -115.3001169, 36.197250299899999 ], [ -115.3001169, 36.197255699899998 ], [ -115.3001196, 36.197255699899998 ], [ -115.3001196, 36.197279999899997 ], [ -115.3001223, 36.197279999899997 ], [ -115.3001223, 36.197285399900004 ], [ -115.300125, 36.197285399900004 ], [ -115.300125, 36.197290799900003 ], [ -115.3001385, 36.197290799900003 ], [ -115.3001385, 36.197293499899999 ], [ -115.3001493, 36.197293499899999 ], [ -115.3001493, 36.197296199900002 ], [ -115.3001547, 36.197296199900002 ], [ -115.3001547, 36.197298899899998 ], [ -115.3001574, 36.197298899899998 ], [ -115.3001574, 36.197325899900001 ], [ -115.3001547, 36.197325899900001 ], [ -115.3001547, 36.197363699900002 ], [ -115.300152, 36.197363699900002 ], [ -115.300152, 36.197396099900004 ], [ -115.3001493, 36.197396099900004 ], [ -115.3001493, 36.1973987999 ], [ -115.3001412, 36.1973987999 ], [ -115.3001412, 36.197401499900003 ], [ -115.300125, 36.197401499900003 ], [ -115.300125, 36.197441999900001 ], [ -115.3001223, 36.197441999900001 ], [ -115.3001223, 36.197463599900004 ], [ -115.3001196, 36.197463599900004 ], [ -115.3001196, 36.197504099900002 ], [ -115.3001169, 36.197504099900002 ], [ -115.3001169, 36.197506799899998 ], [ -115.3000899, 36.197506799899998 ], [ -115.3000899, 36.197504099900002 ], [ -115.3000386, 36.197504099900002 ], [ -115.3000386, 36.197506799899998 ], [ -115.3000251, 36.197506799899998 ], [ -115.3000251, 36.197509499900001 ], [ -115.3000197, 36.197509499900001 ], [ -115.3000197, 36.197512199900004 ] ] ] } },
{ "type": "Feature", "properties": { "value": 255.0 }, "geometry": { "type": "Polygon", "coordinates": [ [ [ -115.2993879, 36.197188199899998 ], [ -115.2993771, 36.197188199899998 ], [ -115.2993771, 36.197185499900002 ], [ -115.2993636, 36.197185499900002 ], [ -115.2993636, 36.197182799899998 ], [ -115.2993555, 36.197182799899998 ], [ -115.2993555, 36.197180099900002 ], [ -115.2993501, 36.197180099900002 ], [ -115.2993501, 36.197177399899999 ], [ -115.2993447, 36.197177399899999 ], [ -115.2993447, 36.197174699900003 ], [ -115.299342, 36.197174699900003 ], [ -115.299342, 36.1971719999 ], [ -115.2993366, 36.1971719999 ], [ -115.2993366, 36.197169299899997 ], [ -115.2993339, 36.197169299899997 ], [ -115.2993339, 36.197166599900001 ], [ -115.2993312, 36.197166599900001 ], [ -115.2993312, 36.197163899899998 ], [ -115.2993258, 36.197163899899998 ], [ -115.2993258, 36.197161199900002 ], [ -115.2993231, 36.197161199900002 ], [ -115.2993231, 36.197158499899999 ], [ -115.2993204, 36.197158499899999 ], [ -115.2993204, 36.197155799900003 ], [ -115.299315, 36.197155799900003 ], [ -115.299315, 36.1971530999 ], [ -115.2993096, 36.1971530999 ], [ -115.2993096, 36.197150399900003 ], [ -115.2993042, 36.197150399900003 ], [ -115.2993042, 36.1971476999 ], [ -115.2992961, 36.1971476999 ], [ -115.2992961, 36.197144999899997 ], [ -115.2992934, 36.197144999899997 ], [ -115.2992934, 36.197142299900001 ], [ -115.2992907, 36.197142299900001 ], [ -115.2992907, 36.197139599899998 ], [ -115.299288, 36.197139599899998 ], [ -115.299288, 36.197136899900002 ], [ -115.2992853, 36.197136899900002 ], [ -115.2992853, 36.197134199899999 ], [ -115.2992826, 36.197134199899999 ], [ -115.2992826, 36.197131499900003 ], [ -115.2992799, 36.197131499900003 ], [ -115.2992799, 36.1971287999 ], [ -115.2992745, 36.1971287999 ], [ -115.2992745, 36.197126099900004 ], [ -115.2992691, 36.197126099900004 ], [ -115.2992691, 36.197123399900001 ], [ -115.2992637, 36.197123399900001 ], [ -115.2992637, 36.197120699899997 ], [ -115.2992583, 36.197120699899997 ], [ -115.2992583, 36.197117999900001 ], [ -115.2992529, 36.197117999900001 ], [ -115.2992529, 36.197115299899998 ], [ -115.2992421, 36.197115299899998 ], [ -115.2992421, 36.197112599900002 ], [ -115.2992367, 36.197112599900002 ], [ -115.2992367, 36.197109899899999 ], [ -115.2992313, 36.197109899899999 ], [ -115.2992313, 36.197107199900003 ], [ -115.2992286, 36.197107199900003 ], [ -115.2992286, 36.1971044999 ], [ -115.2992259, 36.1971044999 ], [ -115.2992259, 36.197085599899999 ], [ -115.2992286, 36.197085599899999 ], [ -115.2992286, 36.1970801999 ], [ -115.2992313, 36.1970801999 ], [ -115.2992313, 36.197074799900001 ], [ -115.299234, 36.197074799900001 ], [ -115.299234, 36.197072099899998 ], [ -115.2992367, 36.197072099899998 ], [ -115.2992367, 36.197069399900002 ], [ -115.2992394, 36.197069399900002 ], [ -115.2992394, 36.197066699899999 ], [ -115.2992421, 36.197066699899999 ], [ -115.2992421, 36.197058599900004 ], [ -115.2992448, 36.197058599900004 ], [ -115.2992448, 36.197031599900001 ], [ -115.2992475, 36.197031599900001 ], [ -115.2992475, 36.197026199900002 ], [ -115.2992502, 36.197026199900002 ], [ -115.2992502, 36.197020799900002 ], [ -115.2992529, 36.197020799900002 ], [ -115.2992529, 36.197018099899999 ], [ -115.2992556, 36.197018099899999 ], [ -115.2992556, 36.197015399900003 ], [ -115.2992583, 36.197015399900003 ], [ -115.2992583, 36.1970126999 ], [ -115.2992718, 36.1970126999 ], [ -115.2992718, 36.197009999899997 ], [ -115.2993177, 36.197009999899997 ], [ -115.2993177, 36.197007299900001 ], [ -115.2993258, 36.197007299900001 ], [ -115.2993258, 36.197004599899998 ], [ -115.2993285, 36.197004599899998 ], [ -115.2993285, 36.197001899900002 ], [ -115.2993312, 36.197001899900002 ], [ -115.2993312, 36.196999199899999 ], [ -115.2993339, 36.196999199899999 ], [ -115.2993339, 36.196980299899998 ], [ -115.2993366, 36.196980299899998 ], [ -115.2993366, 36.196961399899998 ], [ -115.2993393, 36.196961399899998 ], [ -115.2993393, 36.196953299900002 ], [ -115.299342, 36.196953299900002 ], [ -115.299342, 36.196950599899999 ], [ -115.2993501, 36.196950599899999 ], [ -115.2993501, 36.196947899900003 ], [ -115.2994122, 36.196947899900003 ], [ -115.2994122, 36.196950599899999 ], [ -115.299423, 36.196950599899999 ], [ -115.299423, 36.196953299900002 ], [ -115.2994338, 36.196953299900002 ], [ -115.2994338, 36.196955999899998 ], [ -115.2994473, 36.196955999899998 ], [ -115.2994473, 36.196958699900001 ], [ -115.2994554, 36.196958699900001 ], [ -115.2994554, 36.196961399899998 ], [ -115.2994905, 36.196961399899998 ], [ -115.2994905, 36.196958699900001 ], [ -115.2995121, 36.196958699900001 ], [ -115.2995121, 36.196961399899998 ], [ -115.2995364, 36.196961399899998 ], [ -115.2995364, 36.196964099900001 ], [ -115.2995499, 36.196964099900001 ], [ -115.2995499, 36.196966799899997 ], [ -115.2995526, 36.196966799899997 ], [ -115.2995526, 36.196991099900004 ], [ -115.2995499, 36.196991099900004 ], [ -115.2995499, 36.197001899900002 ], [ -115.2995472, 36.197001899900002 ], [ -115.2995472, 36.1970126999 ], [ -115.2995445, 36.1970126999 ], [ -115.2995445, 36.197034299899997 ], [ -115.2995418, 36.197034299899997 ], [ -115.2995418, 36.197039699900003 ], [ -115.2995094, 36.197039699900003 ], [ -115.2995094, 36.1970369999 ], [ -115.2994932, 36.1970369999 ], [ -115.2994932, 36.197039699900003 ], [ -115.2994743, 36.197039699900003 ], [ -115.2994743, 36.197042399899999 ], [ -115.2994662, 36.197042399899999 ], [ -115.2994662, 36.197045099900002 ], [ -115.2994635, 36.197045099900002 ], [ -115.2994635, 36.197047799899998 ], [ -115.2994608, 36.197047799899998 ], [ -115.2994608, 36.197053199899997 ], [ -115.2994473, 36.197053199899997 ], [ -115.2994473, 36.1970558999 ], [ -115.2994446, 36.1970558999 ], [ -115.2994446, 36.197058599900004 ], [ -115.2994419, 36.197058599900004 ], [ -115.2994419, 36.197063999900003 ], [ -115.2994392, 36.197063999900003 ], [ -115.2994392, 36.197066699899999 ], [ -115.2994365, 36.197066699899999 ], [ -115.2994365, 36.197085599899999 ], [ -115.2994392, 36.197085599899999 ], [ -115.2994392, 36.197093699900002 ], [ -115.2994419, 36.197093699900002 ], [ -115.2994419, 36.197112599900002 ], [ -115.2994392, 36.197112599900002 ], [ -115.2994392, 36.197115299899998 ], [ -115.2994284, 36.197115299899998 ], [ -115.2994284, 36.197120699899997 ], [ -115.2994311, 36.197120699899997 ], [ -115.2994311, 36.197123399900001 ], [ -115.2994338, 36.197123399900001 ], [ -115.2994338, 36.197131499900003 ], [ -115.2994365, 36.197131499900003 ], [ -115.2994365, 36.197155799900003 ], [ -115.2994392, 36.197155799900003 ], [ -115.2994392, 36.197174699900003 ], [ -115.2994365, 36.197174699900003 ], [ -115.2994365, 36.197182799899998 ], [ -115.2994311, 36.197182799899998 ], [ -115.2994311, 36.197185499900002 ], [ -115.2994122, 36.197185499900002 ], [ -115.2994122, 36.197182799899998 ], [ -115.2994041, 36.197182799899998 ], [ -115.2994041, 36.197185499900002 ], [ -115.2993879, 36.197185499900002 ], [ -115.2993879, 36.197188199899998 ] ] ] } },
{ "type": "Feature", "properties": { "value": 255.0 }, "geometry": { "type": "Polygon", "coordinates": [ [ [ -115.2995553, 36.1968776999 ], [ -115.2995337, 36.1968776999 ], [ -115.2995337, 36.196874999899997 ], [ -115.2994689, 36.196874999899997 ], [ -115.2994689, 36.196872299900001 ], [ -115.2994662, 36.196872299900001 ], [ -115.2994662, 36.1968533999 ], [ -115.2994689, 36.1968533999 ], [ -115.2994689, 36.196842599900002 ], [ -115.2994716, 36.196842599900002 ], [ -115.2994716, 36.196839899899999 ], [ -115.2994932, 36.196839899899999 ], [ -115.2994932, 36.196842599900002 ], [ -115.2995013, 36.196842599900002 ], [ -115.2995013, 36.196845299899998 ], [ -115.2995094, 36.196845299899998 ], [ -115.2995094, 36.196842599900002 ], [ -115.2995175, 36.196842599900002 ], [ -115.2995175, 36.196845299899998 ], [ -115.2995202, 36.196845299899998 ], [ -115.2995202, 36.196842599900002 ], [ -115.2995256, 36.196842599900002 ], [ -115.2995256, 36.196839899899999 ], [ -115.299531, 36.196839899899999 ], [ -115.299531, 36.196837199900003 ], [ -115.2995337, 36.196837199900003 ], [ -115.2995337, 36.1968290999 ], [ -115.2995364, 36.1968290999 ], [ -115.2995364, 36.196826399899997 ], [ -115.2995418, 36.196826399899997 ], [ -115.2995418, 36.196823699900001 ], [ -115.2995526, 36.196823699900001 ], [ -115.2995526, 36.196826399899997 ], [ -115.2995553, 36.196826399899997 ], [ -115.2995553, 36.1968290999 ], [ -115.299558, 36.1968290999 ], [ -115.299558, 36.196837199900003 ], [ -115.2995607, 36.196837199900003 ], [ -115.2995607, 36.196874999899997 ], [ -115.2995553, 36.196874999899997 ], [ -115.2995553, 36.1968776999 ] ] ] } },
{ "type": "Feature", "properties": { "value": 255.0 }, "geometry": { "type": "Polygon", "coordinates": [ [ [ -115.2990207, 36.196953299900002 ], [ -115.2989559, 36.196953299900002 ], [ -115.2989559, 36.196950599899999 ], [ -115.298937, 36.196950599899999 ], [ -115.298937, 36.196947899900003 ], [ -115.2989289, 36.196947899900003 ], [ -115.2989289, 36.1969451999 ], [ -115.2989235, 36.1969451999 ], [ -115.2989235, 36.196942499899997 ], [ -115.2989181, 36.196942499899997 ], [ -115.2989181, 36.196939799900001 ], [ -115.2989046, 36.196939799900001 ], [ -115.2989046, 36.196937099899998 ], [ -115.2988803, 36.196937099899998 ], [ -115.2988803, 36.196939799900001 ], [ -115.2988776, 36.196939799900001 ], [ -115.2988776, 36.196942499899997 ], [ -115.2988749, 36.196942499899997 ], [ -115.2988749, 36.196947899900003 ], [ -115.2988722, 36.196947899900003 ], [ -115.2988722, 36.196950599899999 ], [ -115.2988425, 36.196950599899999 ], [ -115.2988425, 36.196947899900003 ], [ -115.298829, 36.196947899900003 ], [ -115.298829, 36.1969451999 ], [ -115.2988182, 36.1969451999 ], [ -115.2988182, 36.196942499899997 ], [ -115.2988074, 36.196942499899997 ], [ -115.2988074, 36.196939799900001 ], [ -115.2987858, 36.196939799900001 ], [ -115.2987858, 36.196937099899998 ], [ -115.2987669, 36.196937099899998 ], [ -115.2987669, 36.196934399900002 ], [ -115.2987561, 36.196934399900002 ], [ -115.2987561, 36.196931699899999 ], [ -115.2987507, 36.196931699899999 ], [ -115.2987507, 36.196928999900003 ], [ -115.2987426, 36.196928999900003 ], [ -115.2987426, 36.196826399899997 ], [ -115.2987453, 36.196826399899997 ], [ -115.2987453, 36.1968290999 ], [ -115.2987561, 36.1968290999 ], [ -115.2987561, 36.196826399899997 ], [ -115.2987615, 36.196826399899997 ], [ -115.2987615, 36.196823699900001 ], [ -115.2987642, 36.196823699900001 ], [ -115.2987642, 36.196820999899998 ], [ -115.2987723, 36.196820999899998 ], [ -115.2987723, 36.196818299900002 ], [ -115.2987777, 36.196818299900002 ], [ -115.2987777, 36.196815599899999 ], [ -115.2987831, 36.196815599899999 ], [ -115.2987831, 36.196812899900003 ], [ -115.2987885, 36.196812899900003 ], [ -115.2987885, 36.1968101999 ], [ -115.2987939, 36.1968101999 ], [ -115.2987939, 36.196807499899997 ], [ -115.2987993, 36.196807499899997 ], [ -115.2987993, 36.196804799900001 ], [ -115.2988047, 36.196804799900001 ], [ -115.2988047, 36.196802099899998 ], [ -115.2988101, 36.196802099899998 ], [ -115.2988101, 36.196799399900002 ], [ -115.2988128, 36.196799399900002 ], [ -115.2988128, 36.196796699899998 ], [ -115.2988182, 36.196796699899998 ], [ -115.2988182, 36.196793999900002 ], [ -115.2988263, 36.196793999900002 ], [ -115.2988263, 36.196791299899999 ], [ -115.2988371, 36.196791299899999 ], [ -115.2988371, 36.196788599900003 ], [ -115.2988452, 36.196788599900003 ], [ -115.2988452, 36.1967858999 ], [ -115.2988479, 36.1967858999 ], [ -115.2988479, 36.196783199899997 ], [ -115.2988533, 36.196783199899997 ], [ -115.2988533, 36.196780499900001 ], [ -115.298856, 36.196780499900001 ], [ -115.298856, 36.196777799899998 ], [ -115.2988614, 36.196777799899998 ], [ -115.2988614, 36.196775099900002 ], [ -115.2988668, 36.196775099900002 ], [ -115.2988668, 36.196772399899999 ], [ -115.2988695, 36.196772399899999 ], [ -115.2988695, 36.196769699900003 ], [ -115.2988722, 36.196769699900003 ], [ -115.2988722, 36.196766999899999 ], [ -115.2988749, 36.196766999899999 ], [ -115.2988749, 36.196764299899996 ], [ -115.2988776, 36.196764299899996 ], [ -115.2988776, 36.1967615999 ], [ -115.298883, 36.1967615999 ], [ -115.298883, 36.196758899899997 ], [ -115.2989154, 36.196758899899997 ], [ -115.2989154, 36.1967615999 ], [ -115.2989397, 36.1967615999 ], [ -115.2989397, 36.196764299899996 ], [ -115.2989532, 36.196764299899996 ], [ -115.2989532, 36.196766999899999 ], [ -115.2989694, 36.196766999899999 ], [ -115.2989694, 36.196769699900003 ], [ -115.2989856, 36.196769699900003 ], [ -115.2989856, 36.196772399899999 ], [ -115.2989937, 36.196772399899999 ], [ -115.2989937, 36.196775099900002 ], [ -115.2989964, 36.196775099900002 ], [ -115.2989964, 36.196780499900001 ], [ -115.2989991, 36.196780499900001 ], [ -115.2989991, 36.1967858999 ], [ -115.2989964, 36.1967858999 ], [ -115.2989964, 36.196799399900002 ], [ -115.2989991, 36.196799399900002 ], [ -115.2989991, 36.196818299900002 ], [ -115.2990018, 36.196818299900002 ], [ -115.2990018, 36.196826399899997 ], [ -115.2990045, 36.196826399899997 ], [ -115.2990045, 36.1968290999 ], [ -115.2990072, 36.1968290999 ], [ -115.2990072, 36.1968533999 ], [ -115.2990099, 36.1968533999 ], [ -115.2990099, 36.196866899900002 ], [ -115.2990126, 36.196866899900002 ], [ -115.2990126, 36.196874999899997 ], [ -115.2990099, 36.196874999899997 ], [ -115.2990099, 36.196899299899997 ], [ -115.2990126, 36.196899299899997 ], [ -115.2990126, 36.196910099900002 ], [ -115.2990153, 36.196910099900002 ], [ -115.2990153, 36.196915499900001 ], [ -115.299018, 36.196915499900001 ], [ -115.299018, 36.196918199899997 ], [ -115.2990234, 36.196918199899997 ], [ -115.2990234, 36.1969208999 ], [ -115.2990261, 36.1969208999 ], [ -115.2990261, 36.196923599900003 ], [ -115.2990288, 36.196923599900003 ], [ -115.2990288, 36.196937099899998 ], [ -115.2990261, 36.196937099899998 ], [ -115.2990261, 36.1969451999 ], [ -115.2990234, 36.1969451999 ], [ -115.2990234, 36.196950599899999 ], [ -115.2990207, 36.196950599899999 ], [ -115.2990207, 36.196953299900002 ] ] ] } },
{ "type": "Feature", "properties": { "value": 255.0 }, "geometry": { "type": "Polygon", "coordinates": [ [ [ -115.2994311, 36.196896599900001 ], [ -115.2993933, 36.196896599900001 ], [ -115.2993933, 36.196893899899997 ], [ -115.2993744, 36.196893899899997 ], [ -115.2993744, 36.196891199900001 ], [ -115.2993312, 36.196891199900001 ], [ -115.2993312, 36.196888499899998 ], [ -115.299288, 36.196888499899998 ], [ -115.299288, 36.196885799900002 ], [ -115.2992745, 36.196885799900002 ], [ -115.2992745, 36.196883099899999 ], [ -115.2992664, 36.196883099899999 ], [ -115.2992664, 36.196880399900003 ], [ -115.2992637, 36.196880399900003 ], [ -115.2992637, 36.1968776999 ], [ -115.299261, 36.1968776999 ], [ -115.299261, 36.196826399899997 ], [ -115.2992637, 36.196826399899997 ], [ -115.2992637, 36.196815599899999 ], [ -115.2992664, 36.196815599899999 ], [ -115.2992664, 36.196799399900002 ], [ -115.2992637, 36.196799399900002 ], [ -115.2992637, 36.196788599900003 ], [ -115.299261, 36.196788599900003 ], [ -115.299261, 36.196783199899997 ], [ -115.2992583, 36.196783199899997 ], [ -115.2992583, 36.196777799899998 ], [ -115.2992556, 36.196777799899998 ], [ -115.2992556, 36.196775099900002 ], [ -115.2992529, 36.196775099900002 ], [ -115.2992529, 36.196766999899999 ], [ -115.2992502, 36.196766999899999 ], [ -115.2992502, 36.196753499899998 ], [ -115.2992475, 36.196753499899998 ], [ -115.2992475, 36.196748099899999 ], [ -115.2992448, 36.196748099899999 ], [ -115.2992448, 36.1967426999 ], [ -115.2994338, 36.1967426999 ], [ -115.2994338, 36.196753499899998 ], [ -115.2994311, 36.196753499899998 ], [ -115.2994311, 36.196758899899997 ], [ -115.2994284, 36.196758899899997 ], [ -115.2994284, 36.196764299899996 ], [ -115.2994257, 36.196764299899996 ], [ -115.2994257, 36.196772399899999 ], [ -115.299423, 36.196772399899999 ], [ -115.299423, 36.196777799899998 ], [ -115.2994203, 36.196777799899998 ], [ -115.2994203, 36.196780499900001 ], [ -115.2994149, 36.196780499900001 ], [ -115.2994149, 36.196783199899997 ], [ -115.2994068, 36.196783199899997 ], [ -115.2994068, 36.1967858999 ], [ -115.2994041, 36.1967858999 ], [ -115.2994041, 36.196791299899999 ], [ -115.2994014, 36.196791299899999 ], [ -115.2994014, 36.196804799900001 ], [ -115.2993987, 36.196804799900001 ], [ -115.2993987, 36.196812899900003 ], [ -115.2994014, 36.196812899900003 ], [ -115.2994014, 36.196818299900002 ], [ -115.2994041, 36.196818299900002 ], [ -115.2994041, 36.196820999899998 ], [ -115.2994095, 36.196820999899998 ], [ -115.2994095, 36.196818299900002 ], [ -115.2994149, 36.196818299900002 ], [ -115.2994149, 36.196815599899999 ], [ -115.2994203, 36.196815599899999 ], [ -115.2994203, 36.196812899900003 ], [ -115.2994284, 36.196812899900003 ], [ -115.2994284, 36.196815599899999 ], [ -115.2994311, 36.196815599899999 ], [ -115.2994311, 36.196820999899998 ], [ -115.2994338, 36.196820999899998 ], [ -115.2994338, 36.1968344999 ], [ -115.2994365, 36.1968344999 ], [ -115.2994365, 36.196842599900002 ], [ -115.2994392, 36.196842599900002 ], [ -115.2994392, 36.196858799899999 ], [ -115.2994365, 36.196858799899999 ], [ -115.2994365, 36.196885799900002 ], [ -115.2994338, 36.196885799900002 ], [ -115.2994338, 36.196893899899997 ], [ -115.2994311, 36.196893899899997 ], [ -115.2994311, 36.196896599900001 ] ] ] } },
{ "type": "Feature", "properties": { "value": 255.0 }, "geometry": { "type": "Polygon", "coordinates": [ [ [ -115.3000845, 36.196845299899998 ], [ -115.3000521, 36.196845299899998 ], [ -115.3000521, 36.196842599900002 ], [ -115.3000413, 36.196842599900002 ], [ -115.3000413, 36.196839899899999 ], [ -115.3000359, 36.196839899899999 ], [ -115.3000359, 36.1968344999 ], [ -115.3000332, 36.1968344999 ], [ -115.3000332, 36.196820999899998 ], [ -115.3000305, 36.196820999899998 ], [ -115.3000305, 36.196804799900001 ], [ -115.3000332, 36.196804799900001 ], [ -115.3000332, 36.196796699899998 ], [ -115.3000359, 36.196796699899998 ], [ -115.3000359, 36.196793999900002 ], [ -115.3000386, 36.196793999900002 ], [ -115.3000386, 36.196791299899999 ], [ -115.3000413, 36.196791299899999 ], [ -115.3000413, 36.1967858999 ], [ -115.300044, 36.1967858999 ], [ -115.300044, 36.1967426999 ], [ -115.3001844, 36.1967426999 ], [ -115.3001844, 36.196745399900003 ], [ -115.3001817, 36.196745399900003 ], [ -115.3001817, 36.196764299899996 ], [ -115.3001844, 36.196764299899996 ], [ -115.3001844, 36.196812899900003 ], [ -115.3001871, 36.196812899900003 ], [ -115.3001871, 36.1968344999 ], [ -115.3001844, 36.1968344999 ], [ -115.3001844, 36.196837199900003 ], [ -115.3001763, 36.196837199900003 ], [ -115.3001763, 36.196839899899999 ], [ -115.3001439, 36.196839899899999 ], [ -115.3001439, 36.196842599900002 ], [ -115.3000845, 36.196842599900002 ], [ -115.3000845, 36.196845299899998 ] ] ] } }
]
}
