{
"type": "FeatureCollection",
"crs": { "type": "name", "properties": { "name": "urn:ogc:def:crs:OGC:1.3:CRS84" } },
"features": [
{ "type": "Feature", "properties": { "value": 255.0 }, "geometry": { "type": "Polygon", "coordinates": [ [ [ -115.1793432, 36.158132699799999 ], [ -115.1792136, 36.158132699799999 ], [ -115.1792136, 36.158092199800002 ], [ -115.1792109, 36.158092199800002 ], [ -115.1792109, 36.158089499799999 ], [ -115.1792136, 36.158089499799999 ], [ -115.1792136, 36.158081399799997 ], [ -115.1792163, 36.158081399799997 ], [ -115.1792163, 36.158078699800001 ], [ -115.1792649, 36.158078699800001 ], [ -115.1792649, 36.158075999799998 ], [ -115.1792838, 36.158075999799998 ], [ -115.1792838, 36.158078699800001 ], [ -115.1792865, 36.158078699800001 ], [ -115.1792865, 36.158081399799997 ], [ -115.1792892, 36.158081399799997 ], [ -115.1792892, 36.1580840998 ], [ -115.17929190000001, 36.1580840998 ], [ -115.17929190000001, 36.158089499799999 ], [ -115.1792946, 36.158089499799999 ], [ -115.1792946, 36.158121899800001 ], [ -115.1792973, 36.158121899800001 ], [ -115.1792973, 36.158124599799997 ], [ -115.1793027, 36.158124599799997 ], [ -115.1793027, 36.158121899800001 ], [ -115.1793351, 36.158121899800001 ], [ -115.1793351, 36.158124599799997 ], [ -115.1793405, 36.158124599799997 ], [ -115.1793405, 36.1581272998 ], [ -115.1793432, 36.1581272998 ], [ -115.1793432, 36.158132699799999 ] ] ] } },
{ "type": "Feature", "properties": { "value": 255.0 }, "geometry": { "type": "Polygon", "coordinates": [ [ [ -115.1780364, 36.158024699800002 ], [ -115.1779392, 36.158024699800002 ], [ -115.1779392, 36.158019299799996 ], [ -115.1779365, 36.158019299799996 ], [ -115.1779365, 36.157997699799999 ], [ -115.1779392, 36.157997699799999 ], [ -115.1779392, 36.157989599799997 ], [ -115.1779365, 36.157989599799997 ], [ -115.1779365, 36.157984199799998 ], [ -115.1779392, 36.157984199799998 ], [ -115.1779392, 36.157978799799999 ], [ -115.1779473, 36.157978799799999 ], [ -115.1779473, 36.157976099800003 ], [ -115.1779932, 36.157976099800003 ], [ -115.1779932, 36.157978799799999 ], [ -115.1780202, 36.157978799799999 ], [ -115.1780202, 36.157976099800003 ], [ -115.1780445, 36.157976099800003 ], [ -115.1780445, 36.157978799799999 ], [ -115.1780526, 36.157978799799999 ], [ -115.1780526, 36.157981499800002 ], [ -115.1780553, 36.157981499800002 ], [ -115.1780553, 36.157984199799998 ], [ -115.178058, 36.157984199799998 ], [ -115.178058, 36.1580165998 ], [ -115.1780553, 36.1580165998 ], [ -115.1780553, 36.158021999799999 ], [ -115.1780364, 36.158021999799999 ], [ -115.1780364, 36.158024699800002 ] ] ] } },
{ "type": "Feature", "properties": { "value": 255.0 }, "geometry": { "type": "Polygon", "coordinates": [ [ [ -115.1778069, 36.157873499799997 ], [ -115.1777799, 36.157873499799997 ], [ -115.1777799, 36.157870799800001 ], [ -115.1777745, 36.157870799800001 ], [ -115.1777745, 36.157859999799996 ], [ -115.1777772, 36.157859999799996 ], [ -115.1777772, 36.1578572998 ], [ -115.1777799, 36.1578572998 ], [ -115.1777799, 36.157854599799997 ], [ -115.177788, 36.157854599799997 ], [ -115.177788, 36.157851899800001 ], [ -115.177815, 36.157851899800001 ], [ -115.177815, 36.157854599799997 ], [ -115.1778177, 36.157854599799997 ], [ -115.1778177, 36.157868099799998 ], [ -115.177815, 36.157868099799998 ], [ -115.177815, 36.157870799800001 ], [ -115.1778069, 36.157870799800001 ], [ -115.1778069, 36.157873499799997 ] ] ] } },
{ "type": "Feature", "properties": { "value": 255.0 }, "geometry": { "type": "Polygon", "coordinates": [ [ [ -115.1793297, 36.157897799799997 ], [ -115.1792433, 36.157897799799997 ], [ -115.1792433, 36.157895099800001 ], [ -115.1792271, 36.157895099800001 ], [ -115.1792271, 36.157892399799998 ], [ -115.1792163, 36.157892399799998 ], [ -115.1792163, 36.157886999799999 ], [ -115.1792136, 36.157886999799999 ], [ -115.1792136, 36.157760099800001 ], [ -115.1792109, 36.157760099800001 ], [ -115.1792109, 36.157757399799998 ], [ -115.1792136, 36.157757399799998 ], [ -115.1792136, 36.1577411998 ], [ -115.1792163, 36.1577411998 ], [ -115.1792163, 36.157733099799998 ], [ -115.179219, 36.157733099799998 ], [ -115.179219, 36.157724999799996 ], [ -115.1792217, 36.157724999799996 ], [ -115.1792217, 36.1577222998 ], [ -115.17922440000001, 36.1577222998 ], [ -115.17922440000001, 36.157719599799997 ], [ -115.1792271, 36.157719599799997 ], [ -115.1792271, 36.1577168998 ], [ -115.1792298, 36.1577168998 ], [ -115.1792298, 36.157714199799997 ], [ -115.1792325, 36.157714199799997 ], [ -115.1792325, 36.157708799799998 ], [ -115.1792352, 36.157708799799998 ], [ -115.1792352, 36.157706099800002 ], [ -115.1792379, 36.157706099800002 ], [ -115.1792379, 36.157703399799999 ], [ -115.1792406, 36.157703399799999 ], [ -115.1792406, 36.157700699799996 ], [ -115.1792433, 36.157700699799996 ], [ -115.1792433, 36.1576979998 ], [ -115.179246, 36.1576979998 ], [ -115.179246, 36.157695299799997 ], [ -115.1792514, 36.157695299799997 ], [ -115.1792514, 36.157692599800001 ], [ -115.1792568, 36.157692599800001 ], [ -115.1792568, 36.157689899799998 ], [ -115.1792649, 36.157689899799998 ], [ -115.1792649, 36.157687199800002 ], [ -115.179273, 36.157687199800002 ], [ -115.179273, 36.157684499799998 ], [ -115.1792865, 36.157684499799998 ], [ -115.1792865, 36.157681799799995 ], [ -115.1793162, 36.157681799799995 ], [ -115.1793162, 36.157684499799998 ], [ -115.1793189, 36.157684499799998 ], [ -115.1793189, 36.157689899799998 ], [ -115.1793216, 36.157689899799998 ], [ -115.1793216, 36.157692599800001 ], [ -115.1793243, 36.157692599800001 ], [ -115.1793243, 36.157695299799997 ], [ -115.179327, 36.157695299799997 ], [ -115.179327, 36.157700699799996 ], [ -115.1793297, 36.157700699799996 ], [ -115.1793297, 36.157703399799999 ], [ -115.1793324, 36.157703399799999 ], [ -115.1793324, 36.157706099800002 ], [ -115.1793351, 36.157706099800002 ], [ -115.1793351, 36.157708799799998 ], [ -115.1793378, 36.157708799799998 ], [ -115.1793378, 36.157711499800001 ], [ -115.1793432, 36.157711499800001 ], [ -115.1793432, 36.157714199799997 ], [ -115.1793459, 36.157714199799997 ], [ -115.1793459, 36.157719599799997 ], [ -115.1793486, 36.157719599799997 ], [ -115.1793486, 36.1577222998 ], [ -115.1793513, 36.1577222998 ], [ -115.1793513, 36.157724999799996 ], [ -115.179354, 36.157724999799996 ], [ -115.179354, 36.157730399800002 ], [ -115.1793567, 36.157730399800002 ], [ -115.1793567, 36.157735799800001 ], [ -115.17935940000001, 36.157735799800001 ], [ -115.17935940000001, 36.157743899799996 ], [ -115.1793621, 36.157743899799996 ], [ -115.1793621, 36.157760099800001 ], [ -115.1793567, 36.157760099800001 ], [ -115.1793567, 36.157762799799997 ], [ -115.179354, 36.157762799799997 ], [ -115.179354, 36.157770899799999 ], [ -115.1793513, 36.157770899799999 ], [ -115.1793513, 36.157776299799998 ], [ -115.1793486, 36.157776299799998 ], [ -115.1793486, 36.157781699799997 ], [ -115.1793459, 36.157781699799997 ], [ -115.1793459, 36.1577897998 ], [ -115.1793432, 36.1577897998 ], [ -115.1793432, 36.157795199799999 ], [ -115.1793405, 36.157795199799999 ], [ -115.1793405, 36.157797899800002 ], [ -115.1793351, 36.157797899800002 ], [ -115.1793351, 36.157800599799998 ], [ -115.179327, 36.157800599799998 ], [ -115.179327, 36.157803299800001 ], [ -115.1793216, 36.157803299800001 ], [ -115.1793216, 36.157805999799997 ], [ -115.1793189, 36.157805999799997 ], [ -115.1793189, 36.1578086998 ], [ -115.1793162, 36.1578086998 ], [ -115.1793162, 36.157811399799996 ], [ -115.1793135, 36.157811399799996 ], [ -115.1793135, 36.157819499799999 ], [ -115.1793162, 36.157819499799999 ], [ -115.1793162, 36.157830299799997 ], [ -115.1793189, 36.157830299799997 ], [ -115.1793189, 36.1578329998 ], [ -115.1793216, 36.1578329998 ], [ -115.1793216, 36.157835699799996 ], [ -115.1793243, 36.157835699799996 ], [ -115.1793243, 36.157838399799999 ], [ -115.179327, 36.157838399799999 ], [ -115.179327, 36.157841099800002 ], [ -115.1793324, 36.157841099800002 ], [ -115.1793324, 36.157843799799998 ], [ -115.1793378, 36.157843799799998 ], [ -115.1793378, 36.157846499800002 ], [ -115.1793432, 36.157846499800002 ], [ -115.1793432, 36.157849199799998 ], [ -115.1793459, 36.157849199799998 ], [ -115.1793459, 36.157851899800001 ], [ -115.1793486, 36.157851899800001 ], [ -115.1793486, 36.157854599799997 ], [ -115.1793513, 36.157854599799997 ], [ -115.1793513, 36.157862699799999 ], [ -115.179354, 36.157862699799999 ], [ -115.179354, 36.1578761998 ], [ -115.1793567, 36.1578761998 ], [ -115.1793567, 36.1578815998 ], [ -115.179354, 36.1578815998 ], [ -115.179354, 36.157886999799999 ], [ -115.1793513, 36.157886999799999 ], [ -115.1793513, 36.157889699800002 ], [ -115.1793486, 36.157889699800002 ], [ -115.1793486, 36.157892399799998 ], [ -115.1793432, 36.157892399799998 ], [ -115.1793432, 36.157895099800001 ], [ -115.1793297, 36.157895099800001 ], [ -115.1793297, 36.157897799799997 ] ] ] } },
{ "type": "Feature", "properties": { "value": 255.0 }, "geometry": { "type": "Polygon", "coordinates": [ [ [ -115.1786628, 36.1579247998 ], [ -115.178598, 36.1579247998 ], [ -115.178598, 36.157922099799997 ], [ -115.1785926, 36.157922099799997 ], [ -115.1785926, 36.157919399800001 ], [ -115.1785872, 36.157919399800001 ], [ -115.1785872, 36.157913999800002 ], [ -115.1785845, 36.157913999800002 ], [ -115.1785845, 36.157908599800002 ], [ -115.1785818, 36.157908599800002 ], [ -115.1785818, 36.1579004998 ], [ -115.1785791, 36.1579004998 ], [ -115.1785791, 36.157895099800001 ], [ -115.1785764, 36.157895099800001 ], [ -115.1785764, 36.157889699800002 ], [ -115.1785737, 36.157889699800002 ], [ -115.1785737, 36.157884299799996 ], [ -115.178571, 36.157884299799996 ], [ -115.178571, 36.157878899799996 ], [ -115.1785683, 36.157878899799996 ], [ -115.1785683, 36.157873499799997 ], [ -115.1785656, 36.157873499799997 ], [ -115.1785656, 36.157859999799996 ], [ -115.1785629, 36.157859999799996 ], [ -115.1785629, 36.157854599799997 ], [ -115.1785602, 36.157854599799997 ], [ -115.1785602, 36.157843799799998 ], [ -115.1785575, 36.157843799799998 ], [ -115.1785575, 36.157838399799999 ], [ -115.1785548, 36.157838399799999 ], [ -115.1785548, 36.1578329998 ], [ -115.1785521, 36.1578329998 ], [ -115.1785521, 36.157830299799997 ], [ -115.1785494, 36.157830299799997 ], [ -115.1785494, 36.157824899799998 ], [ -115.1785467, 36.157824899799998 ], [ -115.1785467, 36.157819499799999 ], [ -115.178544, 36.157819499799999 ], [ -115.178544, 36.157811399799996 ], [ -115.1785413, 36.157811399799996 ], [ -115.1785413, 36.1578086998 ], [ -115.1785386, 36.1578086998 ], [ -115.1785386, 36.157805999799997 ], [ -115.1785359, 36.157805999799997 ], [ -115.1785359, 36.157800599799998 ], [ -115.1785332, 36.157800599799998 ], [ -115.1785332, 36.157787099799997 ], [ -115.1785305, 36.157787099799997 ], [ -115.1785305, 36.157760099800001 ], [ -115.1785332, 36.157760099800001 ], [ -115.1785332, 36.157743899799996 ], [ -115.1785359, 36.157743899799996 ], [ -115.1785359, 36.157733099799998 ], [ -115.1785386, 36.157733099799998 ], [ -115.1785386, 36.1577222998 ], [ -115.1785413, 36.1577222998 ], [ -115.1785413, 36.157708799799998 ], [ -115.178544, 36.157708799799998 ], [ -115.178544, 36.157687199800002 ], [ -115.1785467, 36.157687199800002 ], [ -115.1785467, 36.157684499799998 ], [ -115.1785494, 36.157684499799998 ], [ -115.1785494, 36.157681799799995 ], [ -115.1785521, 36.157681799799995 ], [ -115.1785521, 36.157679099799999 ], [ -115.1785548, 36.157679099799999 ], [ -115.1785548, 36.157676399799996 ], [ -115.1785602, 36.157676399799996 ], [ -115.1785602, 36.1576736998 ], [ -115.1785656, 36.1576736998 ], [ -115.1785656, 36.157670999799997 ], [ -115.1785737, 36.157670999799997 ], [ -115.1785737, 36.157668299800001 ], [ -115.1785791, 36.157668299800001 ], [ -115.1785791, 36.157665599799998 ], [ -115.1785818, 36.157665599799998 ], [ -115.1785818, 36.157662899800002 ], [ -115.1785872, 36.157662899800002 ], [ -115.1785872, 36.157660199799999 ], [ -115.1785953, 36.157660199799999 ], [ -115.1785953, 36.157657499799996 ], [ -115.1786763, 36.157657499799996 ], [ -115.1786763, 36.157660199799999 ], [ -115.1786844, 36.157660199799999 ], [ -115.1786844, 36.157662899800002 ], [ -115.1786871, 36.157662899800002 ], [ -115.1786871, 36.157665599799998 ], [ -115.1786898, 36.157665599799998 ], [ -115.1786898, 36.157695299799997 ], [ -115.1786871, 36.157695299799997 ], [ -115.1786871, 36.157749299799995 ], [ -115.1786844, 36.157749299799995 ], [ -115.1786844, 36.157776299799998 ], [ -115.1786817, 36.157776299799998 ], [ -115.1786817, 36.157778999800001 ], [ -115.178679, 36.157778999800001 ], [ -115.178679, 36.157781699799997 ], [ -115.1786763, 36.157781699799997 ], [ -115.1786763, 36.157784399800001 ], [ -115.1786736, 36.157784399800001 ], [ -115.1786736, 36.157787099799997 ], [ -115.1786709, 36.157787099799997 ], [ -115.1786709, 36.157816799799996 ], [ -115.1786682, 36.157816799799996 ], [ -115.1786682, 36.157919399800001 ], [ -115.1786655, 36.157919399800001 ], [ -115.1786655, 36.157922099799997 ], [ -115.1786628, 36.157922099799997 ], [ -115.1786628, 36.1579247998 ] ] ] } },
{ "type": "Feature", "properties": { "value": 255.0 }, "geometry": { "type": "Polygon", "coordinates": [ [ [ -115.1777367, 36.157522499799995 ], [ -115.1776827, 36.157522499799995 ], [ -115.1776827, 36.157519799799999 ], [ -115.1776584, 36.157519799799999 ], [ -115.1776584, 36.157522499799995 ], [ -115.1776476, 36.157522499799995 ], [ -115.1776476, 36.157333499799996 ], [ -115.177734, 36.157333499799996 ], [ -115.177734, 36.1573361998 ], [ -115.1777367, 36.1573361998 ], [ -115.1777367, 36.157338899799996 ], [ -115.1777394, 36.157338899799996 ], [ -115.1777394, 36.157384799799999 ], [ -115.1777421, 36.157384799799999 ], [ -115.1777421, 36.157406399799996 ], [ -115.1777394, 36.157406399799996 ], [ -115.1777394, 36.157517099799996 ], [ -115.1777367, 36.157517099799996 ], [ -115.1777367, 36.157522499799995 ] ] ] } },
{ "type": "Feature", "properties": { "value": 255.0 }, "geometry": { "type": "Polygon", "coordinates": [ [ [ -115.1793432, 36.157430699799995 ], [ -115.1793162, 36.157430699799995 ], [ -115.1793162, 36.157427999799999 ], [ -115.1793081, 36.157427999799999 ], [ -115.1793081, 36.157425299799996 ], [ -115.1792811, 36.157425299799996 ], [ -115.1792811, 36.1574225998 ], [ -115.179273, 36.1574225998 ], [ -115.179273, 36.157419899799997 ], [ -115.1792676, 36.157419899799997 ], [ -115.1792676, 36.157417199800001 ], [ -115.1792622, 36.157417199800001 ], [ -115.1792622, 36.157414499799998 ], [ -115.1792541, 36.157414499799998 ], [ -115.1792541, 36.157411799799995 ], [ -115.179246, 36.157411799799995 ], [ -115.179246, 36.157409099799999 ], [ -115.1792406, 36.157409099799999 ], [ -115.1792406, 36.157406399799996 ], [ -115.1792325, 36.157406399799996 ], [ -115.1792325, 36.1574036998 ], [ -115.17922440000001, 36.1574036998 ], [ -115.17922440000001, 36.157400999799997 ], [ -115.1792163, 36.157400999799997 ], [ -115.1792163, 36.157398299800001 ], [ -115.1792082, 36.157398299800001 ], [ -115.1792082, 36.157395599799997 ], [ -115.179192, 36.157395599799997 ], [ -115.179192, 36.157392899800001 ], [ -115.1791839, 36.157392899800001 ], [ -115.1791839, 36.157390199799998 ], [ -115.1791812, 36.157390199799998 ], [ -115.1791812, 36.157384799799999 ], [ -115.1791785, 36.157384799799999 ], [ -115.1791785, 36.157382099799996 ], [ -115.1791758, 36.157382099799996 ], [ -115.1791758, 36.1573793998 ], [ -115.1791677, 36.1573793998 ], [ -115.1791677, 36.157382099799996 ], [ -115.1791623, 36.157382099799996 ], [ -115.1791623, 36.157384799799999 ], [ -115.179165, 36.157384799799999 ], [ -115.179165, 36.157387499799995 ], [ -115.1791677, 36.157387499799995 ], [ -115.1791677, 36.157392899800001 ], [ -115.1791704, 36.157392899800001 ], [ -115.1791704, 36.157395599799997 ], [ -115.1791677, 36.157395599799997 ], [ -115.1791677, 36.157400999799997 ], [ -115.179165, 36.157400999799997 ], [ -115.179165, 36.157406399799996 ], [ -115.1791623, 36.157406399799996 ], [ -115.1791623, 36.157409099799999 ], [ -115.17915690000001, 36.157409099799999 ], [ -115.17915690000001, 36.157411799799995 ], [ -115.1791488, 36.157411799799995 ], [ -115.1791488, 36.157414499799998 ], [ -115.1791434, 36.157414499799998 ], [ -115.1791434, 36.157411799799995 ], [ -115.179138, 36.157411799799995 ], [ -115.179138, 36.157409099799999 ], [ -115.1791353, 36.157409099799999 ], [ -115.1791353, 36.157406399799996 ], [ -115.1791326, 36.157406399799996 ], [ -115.1791326, 36.157400999799997 ], [ -115.1791299, 36.157400999799997 ], [ -115.1791299, 36.157398299800001 ], [ -115.1791326, 36.157398299800001 ], [ -115.1791326, 36.157392899800001 ], [ -115.1791353, 36.157392899800001 ], [ -115.1791353, 36.157390199799998 ], [ -115.179138, 36.157390199799998 ], [ -115.179138, 36.157387499799995 ], [ -115.1791407, 36.157387499799995 ], [ -115.1791407, 36.157384799799999 ], [ -115.1791461, 36.157384799799999 ], [ -115.1791461, 36.157371299799998 ], [ -115.1791488, 36.157371299799998 ], [ -115.1791488, 36.157368599800002 ], [ -115.1791515, 36.157368599800002 ], [ -115.1791515, 36.157365899799998 ], [ -115.17915690000001, 36.157365899799998 ], [ -115.17915690000001, 36.157363199799995 ], [ -115.1791596, 36.157363199799995 ], [ -115.1791596, 36.157360499799999 ], [ -115.1791704, 36.157360499799999 ], [ -115.1791704, 36.157357799799996 ], [ -115.1791731, 36.157357799799996 ], [ -115.1791731, 36.1573550998 ], [ -115.1791758, 36.1573550998 ], [ -115.1791758, 36.157352399799997 ], [ -115.1791785, 36.157352399799997 ], [ -115.1791785, 36.157349699800001 ], [ -115.1791812, 36.157349699800001 ], [ -115.1791812, 36.157341599799999 ], [ -115.1791839, 36.157341599799999 ], [ -115.1791839, 36.1573361998 ], [ -115.1791866, 36.1573361998 ], [ -115.1791866, 36.157333499799996 ], [ -115.1791893, 36.157333499799996 ], [ -115.1791893, 36.1573307998 ], [ -115.179192, 36.1573307998 ], [ -115.179192, 36.157328099799997 ], [ -115.1791974, 36.157328099799997 ], [ -115.1791974, 36.157325399800001 ], [ -115.1792109, 36.157325399800001 ], [ -115.1792109, 36.157322699799998 ], [ -115.1792217, 36.157322699799998 ], [ -115.1792217, 36.157319999799995 ], [ -115.1792298, 36.157319999799995 ], [ -115.1792298, 36.157317299799999 ], [ -115.1792514, 36.157317299799999 ], [ -115.1792514, 36.157314599799996 ], [ -115.1792568, 36.157314599799996 ], [ -115.1792568, 36.157317299799999 ], [ -115.179273, 36.157317299799999 ], [ -115.179273, 36.157319999799995 ], [ -115.1792838, 36.157319999799995 ], [ -115.1792838, 36.157322699799998 ], [ -115.1793054, 36.157322699799998 ], [ -115.1793054, 36.157319999799995 ], [ -115.1793216, 36.157319999799995 ], [ -115.1793216, 36.157317299799999 ], [ -115.1793837, 36.157317299799999 ], [ -115.1793837, 36.157319999799995 ], [ -115.1793999, 36.157319999799995 ], [ -115.1793999, 36.157317299799999 ], [ -115.1794026, 36.157317299799999 ], [ -115.1794026, 36.157425299799996 ], [ -115.1793648, 36.157425299799996 ], [ -115.1793648, 36.157427999799999 ], [ -115.1793432, 36.157427999799999 ], [ -115.1793432, 36.157430699799995 ] ] ] } },
{ "type": "Feature", "properties": { "value": 255.0 }, "geometry": { "type": "Polygon", "coordinates": [ [ [ -115.1786682, 36.157571099800002 ], [ -115.1785953, 36.157571099800002 ], [ -115.1785953, 36.157568399799999 ], [ -115.1785926, 36.157568399799999 ], [ -115.1785926, 36.1575629998 ], [ -115.1785899, 36.1575629998 ], [ -115.1785899, 36.157530599799998 ], [ -115.1785926, 36.157530599799998 ], [ -115.1785926, 36.157525199799998 ], [ -115.1785953, 36.157525199799998 ], [ -115.1785953, 36.157522499799995 ], [ -115.178598, 36.157522499799995 ], [ -115.178598, 36.157519799799999 ], [ -115.1786007, 36.157519799799999 ], [ -115.1786007, 36.157517099799996 ], [ -115.1786034, 36.157517099799996 ], [ -115.1786034, 36.1575143998 ], [ -115.1786061, 36.1575143998 ], [ -115.1786061, 36.157511699799997 ], [ -115.1786088, 36.157511699799997 ], [ -115.1786088, 36.157503599800002 ], [ -115.1786061, 36.157503599800002 ], [ -115.1786061, 36.157498199799996 ], [ -115.1786034, 36.157498199799996 ], [ -115.1786034, 36.1574954998 ], [ -115.178598, 36.1574954998 ], [ -115.178598, 36.157492799799996 ], [ -115.1785899, 36.157492799799996 ], [ -115.1785899, 36.1574900998 ], [ -115.1785845, 36.1574900998 ], [ -115.1785845, 36.157487399799997 ], [ -115.1785791, 36.157487399799997 ], [ -115.1785791, 36.157484699800001 ], [ -115.178571, 36.157484699800001 ], [ -115.178571, 36.157481999799998 ], [ -115.1785629, 36.157481999799998 ], [ -115.1785629, 36.157479299799995 ], [ -115.1785413, 36.157479299799995 ], [ -115.1785413, 36.157476599799999 ], [ -115.1785359, 36.157476599799999 ], [ -115.1785359, 36.1574711998 ], [ -115.1785332, 36.1574711998 ], [ -115.1785332, 36.157465799800001 ], [ -115.1785305, 36.157465799800001 ], [ -115.1785305, 36.157457699799998 ], [ -115.1785332, 36.157457699799998 ], [ -115.1785332, 36.157449599799996 ], [ -115.1785305, 36.157449599799996 ], [ -115.1785305, 36.157438799799998 ], [ -115.1785278, 36.157438799799998 ], [ -115.1785278, 36.157430699799995 ], [ -115.1785251, 36.157430699799995 ], [ -115.1785251, 36.157417199800001 ], [ -115.1785224, 36.157417199800001 ], [ -115.1785224, 36.157384799799999 ], [ -115.1785143, 36.157384799799999 ], [ -115.1785143, 36.157382099799996 ], [ -115.1784981, 36.157382099799996 ], [ -115.1784981, 36.157384799799999 ], [ -115.1784819, 36.157384799799999 ], [ -115.1784819, 36.157387499799995 ], [ -115.1784414, 36.157387499799995 ], [ -115.1784414, 36.157384799799999 ], [ -115.178436, 36.157384799799999 ], [ -115.178436, 36.157382099799996 ], [ -115.1784333, 36.157382099799996 ], [ -115.1784333, 36.157376699799997 ], [ -115.1784306, 36.157376699799997 ], [ -115.1784306, 36.157309199799997 ], [ -115.1784333, 36.157309199799997 ], [ -115.1784333, 36.157306499800001 ], [ -115.178436, 36.157306499800001 ], [ -115.178436, 36.157303799799998 ], [ -115.1784387, 36.157303799799998 ], [ -115.1784387, 36.157301099800002 ], [ -115.1784468, 36.157301099800002 ], [ -115.1784468, 36.157298399799998 ], [ -115.1784576, 36.157298399799998 ], [ -115.1784576, 36.157295699799995 ], [ -115.1784603, 36.157295699799995 ], [ -115.1784603, 36.157298399799998 ], [ -115.1784738, 36.157298399799998 ], [ -115.1784738, 36.157301099800002 ], [ -115.1784981, 36.157301099800002 ], [ -115.1784981, 36.157303799799998 ], [ -115.1786304, 36.157303799799998 ], [ -115.1786304, 36.157306499800001 ], [ -115.1786439, 36.157306499800001 ], [ -115.1786439, 36.157309199799997 ], [ -115.1786493, 36.157309199799997 ], [ -115.1786493, 36.1573118998 ], [ -115.178652, 36.1573118998 ], [ -115.178652, 36.157314599799996 ], [ -115.1786547, 36.157314599799996 ], [ -115.1786547, 36.157317299799999 ], [ -115.1786574, 36.157317299799999 ], [ -115.1786574, 36.157319999799995 ], [ -115.1786601, 36.157319999799995 ], [ -115.1786601, 36.157325399800001 ], [ -115.1786655, 36.157325399800001 ], [ -115.1786655, 36.157328099799997 ], [ -115.1786736, 36.157328099799997 ], [ -115.1786736, 36.1573307998 ], [ -115.1786817, 36.1573307998 ], [ -115.1786817, 36.157333499799996 ], [ -115.1786844, 36.157333499799996 ], [ -115.1786844, 36.157346999799998 ], [ -115.1786817, 36.157346999799998 ], [ -115.1786817, 36.157352399799997 ], [ -115.1786763, 36.157352399799997 ], [ -115.1786763, 36.157357799799996 ], [ -115.1786736, 36.157357799799996 ], [ -115.1786736, 36.1573793998 ], [ -115.1786763, 36.1573793998 ], [ -115.1786763, 36.157384799799999 ], [ -115.178679, 36.157384799799999 ], [ -115.178679, 36.157387499799995 ], [ -115.1786817, 36.157387499799995 ], [ -115.1786817, 36.157390199799998 ], [ -115.1786844, 36.157390199799998 ], [ -115.1786844, 36.157392899800001 ], [ -115.1786871, 36.157392899800001 ], [ -115.1786871, 36.157395599799997 ], [ -115.1786952, 36.157395599799997 ], [ -115.1786952, 36.157398299800001 ], [ -115.1787492, 36.157398299800001 ], [ -115.1787492, 36.157400999799997 ], [ -115.1787573, 36.157400999799997 ], [ -115.1787573, 36.1574036998 ], [ -115.17876, 36.1574036998 ], [ -115.17876, 36.157409099799999 ], [ -115.1787627, 36.157409099799999 ], [ -115.1787627, 36.157419899799997 ], [ -115.17876, 36.157419899799997 ], [ -115.17876, 36.157425299799996 ], [ -115.1787627, 36.157425299799996 ], [ -115.1787627, 36.157438799799998 ], [ -115.17876, 36.157438799799998 ], [ -115.17876, 36.157441499800001 ], [ -115.1787033, 36.157441499800001 ], [ -115.1787033, 36.157444199799997 ], [ -115.1786979, 36.157444199799997 ], [ -115.1786979, 36.1574468998 ], [ -115.1786952, 36.1574468998 ], [ -115.1786952, 36.157481999799998 ], [ -115.1786925, 36.157481999799998 ], [ -115.1786925, 36.1574900998 ], [ -115.1786898, 36.1574900998 ], [ -115.1786898, 36.157492799799996 ], [ -115.1786817, 36.157492799799996 ], [ -115.1786817, 36.1574954998 ], [ -115.178679, 36.1574954998 ], [ -115.178679, 36.157498199799996 ], [ -115.1786763, 36.157498199799996 ], [ -115.1786763, 36.157506299799998 ], [ -115.1786736, 36.157506299799998 ], [ -115.1786736, 36.157535999799997 ], [ -115.1786709, 36.157535999799997 ], [ -115.1786709, 36.157565699799996 ], [ -115.1786682, 36.157565699799996 ], [ -115.1786682, 36.157571099800002 ] ] ] } },
{ "type": "Feature", "properties": { "value": 255.0 }, "geometry": { "type": "Polygon", "coordinates": [ [ [ -115.1780202, 36.157473899799996 ], [ -115.1779797, 36.157473899799996 ], [ -115.1779797, 36.1574711998 ], [ -115.177977, 36.1574711998 ], [ -115.177977, 36.157468499799997 ], [ -115.1779743, 36.157468499799997 ], [ -115.1779743, 36.157463099799998 ], [ -115.1779689, 36.157463099799998 ], [ -115.1779689, 36.157460399800001 ], [ -115.1779608, 36.157460399800001 ], [ -115.1779608, 36.157463099799998 ], [ -115.177923, 36.157463099799998 ], [ -115.177923, 36.157460399800001 ], [ -115.177896, 36.157460399800001 ], [ -115.177896, 36.157457699799998 ], [ -115.1778825, 36.157457699799998 ], [ -115.1778825, 36.157454999799995 ], [ -115.1778771, 36.157454999799995 ], [ -115.1778771, 36.157452299799999 ], [ -115.1778717, 36.157452299799999 ], [ -115.1778717, 36.1574468998 ], [ -115.177869, 36.1574468998 ], [ -115.177869, 36.157441499800001 ], [ -115.1778717, 36.157441499800001 ], [ -115.1778717, 36.157419899799997 ], [ -115.177869, 36.157419899799997 ], [ -115.177869, 36.157417199800001 ], [ -115.1778636, 36.157417199800001 ], [ -115.1778636, 36.157414499799998 ], [ -115.1778501, 36.157414499799998 ], [ -115.1778501, 36.157411799799995 ], [ -115.1778393, 36.157411799799995 ], [ -115.1778393, 36.157409099799999 ], [ -115.1778285, 36.157409099799999 ], [ -115.1778285, 36.157406399799996 ], [ -115.1778177, 36.157406399799996 ], [ -115.1778177, 36.1574036998 ], [ -115.1778096, 36.1574036998 ], [ -115.1778096, 36.157400999799997 ], [ -115.1778015, 36.157400999799997 ], [ -115.1778015, 36.157398299800001 ], [ -115.1777961, 36.157398299800001 ], [ -115.1777961, 36.157395599799997 ], [ -115.1777934, 36.157395599799997 ], [ -115.1777934, 36.157392899800001 ], [ -115.1777907, 36.157392899800001 ], [ -115.1777907, 36.157387499799995 ], [ -115.177788, 36.157387499799995 ], [ -115.177788, 36.157382099799996 ], [ -115.1777853, 36.157382099799996 ], [ -115.1777853, 36.157376699799997 ], [ -115.1777826, 36.157376699799997 ], [ -115.1777826, 36.157371299799998 ], [ -115.1777799, 36.157371299799998 ], [ -115.1777799, 36.157365899799998 ], [ -115.1777772, 36.157365899799998 ], [ -115.1777772, 36.157333499799996 ], [ -115.1777799, 36.157333499799996 ], [ -115.1777799, 36.1573118998 ], [ -115.1777826, 36.1573118998 ], [ -115.1777826, 36.157306499800001 ], [ -115.177788, 36.157306499800001 ], [ -115.177788, 36.157303799799998 ], [ -115.1778042, 36.157303799799998 ], [ -115.1778042, 36.157301099800002 ], [ -115.1778744, 36.157301099800002 ], [ -115.1778744, 36.157298399799998 ], [ -115.1778906, 36.157298399799998 ], [ -115.1778906, 36.157295699799995 ], [ -115.1779095, 36.157295699799995 ], [ -115.1779095, 36.157292999799999 ], [ -115.1779203, 36.157292999799999 ], [ -115.1779203, 36.157295699799995 ], [ -115.17795, 36.157295699799995 ], [ -115.17795, 36.157298399799998 ], [ -115.1779635, 36.157298399799998 ], [ -115.1779635, 36.157301099800002 ], [ -115.1779824, 36.157301099800002 ], [ -115.1779824, 36.157303799799998 ], [ -115.1780202, 36.157303799799998 ], [ -115.1780202, 36.157292999799999 ], [ -115.1780256, 36.157292999799999 ], [ -115.1780256, 36.157295699799995 ], [ -115.1780337, 36.157295699799995 ], [ -115.1780337, 36.157298399799998 ], [ -115.1780418, 36.157298399799998 ], [ -115.1780418, 36.157301099800002 ], [ -115.1780499, 36.157301099800002 ], [ -115.1780499, 36.157298399799998 ], [ -115.1780634, 36.157298399799998 ], [ -115.1780634, 36.157295699799995 ], [ -115.1780904, 36.157295699799995 ], [ -115.1780904, 36.157298399799998 ], [ -115.1781363, 36.157298399799998 ], [ -115.1781363, 36.157295699799995 ], [ -115.1781471, 36.157295699799995 ], [ -115.1781471, 36.157298399799998 ], [ -115.1781525, 36.157298399799998 ], [ -115.1781525, 36.157301099800002 ], [ -115.1781552, 36.157301099800002 ], [ -115.1781552, 36.157303799799998 ], [ -115.1781579, 36.157303799799998 ], [ -115.1781579, 36.157314599799996 ], [ -115.1781606, 36.157314599799996 ], [ -115.1781606, 36.157328099799997 ], [ -115.1781579, 36.157328099799997 ], [ -115.1781579, 36.157449599799996 ], [ -115.1781552, 36.157449599799996 ], [ -115.1781552, 36.157452299799999 ], [ -115.1781498, 36.157452299799999 ], [ -115.1781498, 36.157449599799996 ], [ -115.178139, 36.157449599799996 ], [ -115.178139, 36.1574468998 ], [ -115.1780931, 36.1574468998 ], [ -115.1780931, 36.157444199799997 ], [ -115.1780796, 36.157444199799997 ], [ -115.1780796, 36.1574468998 ], [ -115.1780634, 36.1574468998 ], [ -115.1780634, 36.157449599799996 ], [ -115.1780553, 36.157449599799996 ], [ -115.1780553, 36.157452299799999 ], [ -115.1780256, 36.157452299799999 ], [ -115.1780256, 36.157454999799995 ], [ -115.1780229, 36.157454999799995 ], [ -115.1780229, 36.157457699799998 ], [ -115.1780202, 36.157457699799998 ], [ -115.1780202, 36.157473899799996 ] ] ] } },
{ "type": "Feature", "properties": { "value": 255.0 }, "geometry": { "type": "Polygon", "coordinates": [ [ [ -115.1783469, 36.156871799799994 ], [ -115.1783307, 36.156871799799994 ], [ -115.1783307, 36.156869099799998 ], [ -115.178328, 36.156869099799998 ], [ -115.178328, 36.156852899800001 ], [ -115.1783307, 36.156852899800001 ], [ -115.1783307, 36.156842099799995 ], [ -115.1783334, 36.156842099799995 ], [ -115.1783334, 36.156839399799999 ], [ -115.1783361, 36.156839399799999 ], [ -115.1783361, 36.156836699799996 ], [ -115.1783442, 36.156836699799996 ], [ -115.1783442, 36.156839399799999 ], [ -115.1783469, 36.156839399799999 ], [ -115.1783469, 36.156842099799995 ], [ -115.1783496, 36.156842099799995 ], [ -115.1783496, 36.156850199799997 ], [ -115.1783523, 36.156850199799997 ], [ -115.1783523, 36.156866399799995 ], [ -115.1783496, 36.156866399799995 ], [ -115.1783496, 36.156869099799998 ], [ -115.1783469, 36.156869099799998 ], [ -115.1783469, 36.156871799799994 ] ] ] } },
{ "type": "Feature", "properties": { "value": 255.0 }, "geometry": { "type": "Polygon", "coordinates": [ [ [ -115.1792865, 36.156955499799999 ], [ -115.1792352, 36.156955499799999 ], [ -115.1792352, 36.156952799799996 ], [ -115.1792271, 36.156952799799996 ], [ -115.1792271, 36.1569500998 ], [ -115.1792217, 36.1569500998 ], [ -115.1792217, 36.1569446998 ], [ -115.179219, 36.1569446998 ], [ -115.179219, 36.156928499799996 ], [ -115.1792163, 36.156928499799996 ], [ -115.1792163, 36.156896099800001 ], [ -115.1792136, 36.156896099800001 ], [ -115.1792136, 36.156879899799996 ], [ -115.1792109, 36.156879899799996 ], [ -115.1792109, 36.156871799799994 ], [ -115.1792082, 36.156871799799994 ], [ -115.1792082, 36.156866399799995 ], [ -115.1792055, 36.156866399799995 ], [ -115.1792055, 36.1568582998 ], [ -115.1792028, 36.1568582998 ], [ -115.1792028, 36.156852899800001 ], [ -115.1792001, 36.156852899800001 ], [ -115.1792001, 36.156850199799997 ], [ -115.1791974, 36.156850199799997 ], [ -115.1791974, 36.1568339998 ], [ -115.1792001, 36.1568339998 ], [ -115.1792001, 36.156828599800001 ], [ -115.1792055, 36.156828599800001 ], [ -115.1792055, 36.156825899799998 ], [ -115.1792082, 36.156825899799998 ], [ -115.1792082, 36.156823199799994 ], [ -115.1792136, 36.156823199799994 ], [ -115.1792136, 36.156820499799998 ], [ -115.1792271, 36.156820499799998 ], [ -115.1792271, 36.156817799799995 ], [ -115.1792406, 36.156817799799995 ], [ -115.1792406, 36.156815099799999 ], [ -115.179246, 36.156815099799999 ], [ -115.179246, 36.156788099799996 ], [ -115.1792487, 36.156788099799996 ], [ -115.1792487, 36.1567853998 ], [ -115.1792514, 36.1567853998 ], [ -115.1792514, 36.156763799799997 ], [ -115.1792568, 36.156763799799997 ], [ -115.1792568, 36.156761099800001 ], [ -115.1792757, 36.156761099800001 ], [ -115.1792757, 36.156758399799998 ], [ -115.1792811, 36.156758399799998 ], [ -115.1792811, 36.156755699799994 ], [ -115.1792865, 36.156755699799994 ], [ -115.1792865, 36.156752999799998 ], [ -115.1792892, 36.156752999799998 ], [ -115.1792892, 36.156750299799995 ], [ -115.1792838, 36.156750299799995 ], [ -115.1792838, 36.156747599799999 ], [ -115.1792865, 36.156747599799999 ], [ -115.1792865, 36.156744899799996 ], [ -115.1792892, 36.156744899799996 ], [ -115.1792892, 36.1567421998 ], [ -115.17929190000001, 36.1567421998 ], [ -115.17929190000001, 36.156739499799997 ], [ -115.1792973, 36.156739499799997 ], [ -115.1792973, 36.156736799799994 ], [ -115.1793, 36.156736799799994 ], [ -115.1793, 36.156734099799998 ], [ -115.1793135, 36.156734099799998 ], [ -115.1793135, 36.156731399799995 ], [ -115.1793621, 36.156731399799995 ], [ -115.1793621, 36.156734099799998 ], [ -115.1793675, 36.156734099799998 ], [ -115.1793675, 36.156736799799994 ], [ -115.1793702, 36.156736799799994 ], [ -115.1793702, 36.156739499799997 ], [ -115.1793756, 36.156739499799997 ], [ -115.1793756, 36.1567421998 ], [ -115.1793837, 36.1567421998 ], [ -115.1793837, 36.156744899799996 ], [ -115.1794026, 36.156744899799996 ], [ -115.1794026, 36.156885299799995 ], [ -115.1793972, 36.156885299799995 ], [ -115.1793972, 36.156882599799999 ], [ -115.1793945, 36.156882599799999 ], [ -115.1793945, 36.156885299799995 ], [ -115.1793837, 36.156885299799995 ], [ -115.1793837, 36.156887999799999 ], [ -115.1793756, 36.156887999799999 ], [ -115.1793756, 36.156890699799995 ], [ -115.1793621, 36.156890699799995 ], [ -115.1793621, 36.156887999799999 ], [ -115.17929190000001, 36.156887999799999 ], [ -115.17929190000001, 36.156890699799995 ], [ -115.1792892, 36.156890699799995 ], [ -115.1792892, 36.156920399800001 ], [ -115.1792865, 36.156920399800001 ], [ -115.1792865, 36.156955499799999 ] ] ] } },
{ "type": "Feature", "properties": { "value": 255.0 }, "geometry": { "type": "Polygon", "coordinates": [ [ [ -115.1782875, 36.156874499799997 ], [ -115.1782011, 36.156874499799997 ], [ -115.1782011, 36.156871799799994 ], [ -115.1781984, 36.156871799799994 ], [ -115.1781984, 36.156869099799998 ], [ -115.1781957, 36.156869099799998 ], [ -115.1781957, 36.156863699799999 ], [ -115.178193, 36.156863699799999 ], [ -115.178193, 36.156860999799996 ], [ -115.1781903, 36.156860999799996 ], [ -115.1781903, 36.1568582998 ], [ -115.1781876, 36.1568582998 ], [ -115.1781876, 36.156855599799997 ], [ -115.1781498, 36.156855599799997 ], [ -115.1781498, 36.156852899800001 ], [ -115.1781336, 36.156852899800001 ], [ -115.1781336, 36.156855599799997 ], [ -115.1781174, 36.156855599799997 ], [ -115.1781174, 36.1568582998 ], [ -115.1781147, 36.1568582998 ], [ -115.1781147, 36.156860999799996 ], [ -115.178112, 36.156860999799996 ], [ -115.178112, 36.156869099799998 ], [ -115.1781093, 36.156869099799998 ], [ -115.1781093, 36.156874499799997 ], [ -115.1779284, 36.156874499799997 ], [ -115.1779284, 36.156871799799994 ], [ -115.177923, 36.156871799799994 ], [ -115.177923, 36.156869099799998 ], [ -115.1779203, 36.156869099799998 ], [ -115.1779203, 36.156782699799997 ], [ -115.177923, 36.156782699799997 ], [ -115.177923, 36.156777299799998 ], [ -115.1779284, 36.156777299799998 ], [ -115.1779284, 36.156774599799995 ], [ -115.1779689, 36.156774599799995 ], [ -115.1779689, 36.156771899799999 ], [ -115.1779797, 36.156771899799999 ], [ -115.1779797, 36.156769199799996 ], [ -115.1779824, 36.156769199799996 ], [ -115.1779824, 36.1567664998 ], [ -115.1779851, 36.1567664998 ], [ -115.1779851, 36.156752999799998 ], [ -115.1779878, 36.156752999799998 ], [ -115.1779878, 36.156750299799995 ], [ -115.1779905, 36.156750299799995 ], [ -115.1779905, 36.156747599799999 ], [ -115.1779932, 36.156747599799999 ], [ -115.1779932, 36.1567421998 ], [ -115.1779959, 36.1567421998 ], [ -115.1779959, 36.156739499799997 ], [ -115.1780175, 36.156739499799997 ], [ -115.1780175, 36.156736799799994 ], [ -115.1780202, 36.156736799799994 ], [ -115.1780202, 36.156731399799995 ], [ -115.1780472, 36.156731399799995 ], [ -115.1780472, 36.156734099799998 ], [ -115.1780661, 36.156734099799998 ], [ -115.1780661, 36.156736799799994 ], [ -115.1780796, 36.156736799799994 ], [ -115.1780796, 36.156734099799998 ], [ -115.1780904, 36.156734099799998 ], [ -115.1780904, 36.156731399799995 ], [ -115.1780931, 36.156731399799995 ], [ -115.1780931, 36.156728699799999 ], [ -115.1780985, 36.156728699799999 ], [ -115.1780985, 36.156725999799995 ], [ -115.1781093, 36.156725999799995 ], [ -115.1781093, 36.156723299799999 ], [ -115.178139, 36.156723299799999 ], [ -115.178139, 36.156720599799996 ], [ -115.1781471, 36.156720599799996 ], [ -115.1781471, 36.1567178998 ], [ -115.178166, 36.1567178998 ], [ -115.178166, 36.156720599799996 ], [ -115.1781768, 36.156720599799996 ], [ -115.1781768, 36.156723299799999 ], [ -115.1781849, 36.156723299799999 ], [ -115.1781849, 36.156725999799995 ], [ -115.1781903, 36.156725999799995 ], [ -115.1781903, 36.156728699799999 ], [ -115.178193, 36.156728699799999 ], [ -115.178193, 36.156731399799995 ], [ -115.1782011, 36.156731399799995 ], [ -115.1782011, 36.156734099799998 ], [ -115.1782173, 36.156734099799998 ], [ -115.1782173, 36.156736799799994 ], [ -115.1782227, 36.156736799799994 ], [ -115.1782227, 36.156734099799998 ], [ -115.1782497, 36.156734099799998 ], [ -115.1782497, 36.156736799799994 ], [ -115.1782659, 36.156736799799994 ], [ -115.1782659, 36.156739499799997 ], [ -115.1782794, 36.156739499799997 ], [ -115.1782794, 36.1567421998 ], [ -115.1782848, 36.1567421998 ], [ -115.1782848, 36.156747599799999 ], [ -115.1782875, 36.156747599799999 ], [ -115.1782875, 36.156750299799995 ], [ -115.1782929, 36.156750299799995 ], [ -115.1782929, 36.156771899799999 ], [ -115.1782902, 36.156771899799999 ], [ -115.1782902, 36.156842099799995 ], [ -115.1782875, 36.156842099799995 ], [ -115.1782875, 36.156852899800001 ], [ -115.1782902, 36.156852899800001 ], [ -115.1782902, 36.156869099799998 ], [ -115.1782875, 36.156869099799998 ], [ -115.1782875, 36.156874499799997 ] ] ] } },
{ "type": "Feature", "properties": { "value": 255.0 }, "geometry": { "type": "Polygon", "coordinates": [ [ [ -115.1777556, 36.156874499799997 ], [ -115.1776476, 36.156874499799997 ], [ -115.1776476, 36.156671999799997 ], [ -115.1777097, 36.156671999799997 ], [ -115.1777097, 36.1566746998 ], [ -115.1777151, 36.1566746998 ], [ -115.1777151, 36.156677399799996 ], [ -115.1777178, 36.156677399799996 ], [ -115.1777178, 36.156682799799995 ], [ -115.1777205, 36.156682799799995 ], [ -115.1777205, 36.156685499799998 ], [ -115.1777178, 36.156685499799998 ], [ -115.1777178, 36.156709799799998 ], [ -115.1777151, 36.156709799799998 ], [ -115.1777151, 36.156725999799995 ], [ -115.1777178, 36.156725999799995 ], [ -115.1777178, 36.156747599799999 ], [ -115.1777205, 36.156747599799999 ], [ -115.1777205, 36.156750299799995 ], [ -115.1777394, 36.156750299799995 ], [ -115.1777394, 36.156747599799999 ], [ -115.1777664, 36.156747599799999 ], [ -115.1777664, 36.156750299799995 ], [ -115.1777853, 36.156750299799995 ], [ -115.1777853, 36.156752999799998 ], [ -115.177788, 36.156752999799998 ], [ -115.177788, 36.156774599799995 ], [ -115.1777853, 36.156774599799995 ], [ -115.1777853, 36.156782699799997 ], [ -115.1777826, 36.156782699799997 ], [ -115.1777826, 36.156788099799996 ], [ -115.1777799, 36.156788099799996 ], [ -115.1777799, 36.156793499799996 ], [ -115.1777772, 36.156793499799996 ], [ -115.1777772, 36.156801599799998 ], [ -115.1777745, 36.156801599799998 ], [ -115.1777745, 36.156806999799997 ], [ -115.1777718, 36.156806999799997 ], [ -115.1777718, 36.1568096998 ], [ -115.1777691, 36.1568096998 ], [ -115.1777691, 36.156812399799996 ], [ -115.1777637, 36.156812399799996 ], [ -115.1777637, 36.156815099799999 ], [ -115.177761, 36.156815099799999 ], [ -115.177761, 36.156820499799998 ], [ -115.1777583, 36.156820499799998 ], [ -115.1777583, 36.156869099799998 ], [ -115.1777556, 36.156869099799998 ], [ -115.1777556, 36.156874499799997 ] ] ] } },
{ "type": "Feature", "properties": { "value": 255.0 }, "geometry": { "type": "Polygon", "coordinates": [ [ [ -115.1787141, 36.1568771998 ], [ -115.1786547, 36.1568771998 ], [ -115.1786547, 36.156874499799997 ], [ -115.178652, 36.156874499799997 ], [ -115.178652, 36.156852899800001 ], [ -115.1786493, 36.156852899800001 ], [ -115.1786493, 36.156850199799997 ], [ -115.1785791, 36.156850199799997 ], [ -115.1785791, 36.156852899800001 ], [ -115.1785764, 36.156852899800001 ], [ -115.1785764, 36.156871799799994 ], [ -115.1785737, 36.156871799799994 ], [ -115.1785737, 36.156874499799997 ], [ -115.178571, 36.156874499799997 ], [ -115.178571, 36.1568771998 ], [ -115.1785575, 36.1568771998 ], [ -115.1785575, 36.156874499799997 ], [ -115.1785359, 36.156874499799997 ], [ -115.1785359, 36.1568771998 ], [ -115.178517, 36.1568771998 ], [ -115.178517, 36.156874499799997 ], [ -115.1785062, 36.156874499799997 ], [ -115.1785062, 36.156871799799994 ], [ -115.1785035, 36.156871799799994 ], [ -115.1785035, 36.156869099799998 ], [ -115.1785008, 36.156869099799998 ], [ -115.1785008, 36.156866399799995 ], [ -115.1784981, 36.156866399799995 ], [ -115.1784981, 36.156860999799996 ], [ -115.1784954, 36.156860999799996 ], [ -115.1784954, 36.156855599799997 ], [ -115.1784927, 36.156855599799997 ], [ -115.1784927, 36.156850199799997 ], [ -115.17849, 36.156850199799997 ], [ -115.17849, 36.156844799799998 ], [ -115.1784873, 36.156844799799998 ], [ -115.1784873, 36.156839399799999 ], [ -115.1784846, 36.156839399799999 ], [ -115.1784846, 36.1568339998 ], [ -115.1784819, 36.1568339998 ], [ -115.1784819, 36.156777299799998 ], [ -115.1784846, 36.156777299799998 ], [ -115.1784846, 36.156750299799995 ], [ -115.1784819, 36.156750299799995 ], [ -115.1784819, 36.1567421998 ], [ -115.1784792, 36.1567421998 ], [ -115.1784792, 36.156736799799994 ], [ -115.1784765, 36.156736799799994 ], [ -115.1784765, 36.156731399799995 ], [ -115.1784738, 36.156731399799995 ], [ -115.1784738, 36.156725999799995 ], [ -115.1784711, 36.156725999799995 ], [ -115.1784711, 36.156720599799996 ], [ -115.1784684, 36.156720599799996 ], [ -115.1784684, 36.1567178998 ], [ -115.1784711, 36.1567178998 ], [ -115.1784711, 36.156715199799997 ], [ -115.1784738, 36.156715199799997 ], [ -115.1784738, 36.156712499799994 ], [ -115.1784765, 36.156712499799994 ], [ -115.1784765, 36.156709799799998 ], [ -115.1784846, 36.156709799799998 ], [ -115.1784846, 36.156707099799995 ], [ -115.1785008, 36.156707099799995 ], [ -115.1785008, 36.156704399799999 ], [ -115.1785494, 36.156704399799999 ], [ -115.1785494, 36.156701699799996 ], [ -115.1785656, 36.156701699799996 ], [ -115.1785656, 36.1566989998 ], [ -115.1785683, 36.1566989998 ], [ -115.1785683, 36.156690899799997 ], [ -115.178571, 36.156690899799997 ], [ -115.178571, 36.156688199799994 ], [ -115.1785683, 36.156688199799994 ], [ -115.1785683, 36.156647699799997 ], [ -115.178571, 36.156647699799997 ], [ -115.178571, 36.156639599799995 ], [ -115.1785737, 36.156639599799995 ], [ -115.1785737, 36.156636899799999 ], [ -115.1785818, 36.156636899799999 ], [ -115.1785818, 36.156634199799996 ], [ -115.1785899, 36.156634199799996 ], [ -115.1785899, 36.156636899799999 ], [ -115.1786007, 36.156636899799999 ], [ -115.1786007, 36.156639599799995 ], [ -115.1786034, 36.156639599799995 ], [ -115.1786034, 36.156642299799998 ], [ -115.1786061, 36.156642299799998 ], [ -115.1786061, 36.156655799799999 ], [ -115.1786088, 36.156655799799999 ], [ -115.1786088, 36.156658499799995 ], [ -115.1786169, 36.156658499799995 ], [ -115.1786169, 36.156661199799998 ], [ -115.1786412, 36.156661199799998 ], [ -115.1786412, 36.156663899799995 ], [ -115.1786574, 36.156663899799995 ], [ -115.1786574, 36.156666599799998 ], [ -115.1786628, 36.156666599799998 ], [ -115.1786628, 36.156669299799994 ], [ -115.1786682, 36.156669299799994 ], [ -115.1786682, 36.156682799799995 ], [ -115.1786709, 36.156682799799995 ], [ -115.1786709, 36.156685499799998 ], [ -115.1786736, 36.156685499799998 ], [ -115.1786736, 36.156688199799994 ], [ -115.178679, 36.156688199799994 ], [ -115.178679, 36.156690899799997 ], [ -115.1787384, 36.156690899799997 ], [ -115.1787384, 36.156693599800001 ], [ -115.1787465, 36.156693599800001 ], [ -115.1787465, 36.156701699799996 ], [ -115.1787492, 36.156701699799996 ], [ -115.1787492, 36.156704399799999 ], [ -115.1787465, 36.156704399799999 ], [ -115.1787465, 36.156750299799995 ], [ -115.1787492, 36.156750299799995 ], [ -115.1787492, 36.156847499799994 ], [ -115.1787465, 36.156847499799994 ], [ -115.1787465, 36.156850199799997 ], [ -115.1787249, 36.156850199799997 ], [ -115.1787249, 36.156852899800001 ], [ -115.1787195, 36.156852899800001 ], [ -115.1787195, 36.156869099799998 ], [ -115.1787168, 36.156869099799998 ], [ -115.1787168, 36.156874499799997 ], [ -115.1787141, 36.156874499799997 ], [ -115.1787141, 36.1568771998 ] ] ] } },
{ "type": "Feature", "properties": { "value": 255.0 }, "geometry": { "type": "Polygon", "coordinates": [ [ [ -115.1785386, 36.156469499799996 ], [ -115.1785197, 36.156469499799996 ], [ -115.1785197, 36.156466799799993 ], [ -115.1785143, 36.156466799799993 ], [ -115.1785143, 36.156464099799997 ], [ -115.1785116, 36.156464099799997 ], [ -115.1785116, 36.156450599799996 ], [ -115.1785143, 36.156450599799996 ], [ -115.1785143, 36.1564478998 ], [ -115.1785197, 36.1564478998 ], [ -115.1785197, 36.156445199799997 ], [ -115.1785224, 36.156445199799997 ], [ -115.1785224, 36.1564478998 ], [ -115.1785332, 36.1564478998 ], [ -115.1785332, 36.156450599799996 ], [ -115.1785386, 36.156450599799996 ], [ -115.1785386, 36.156453299799999 ], [ -115.1785413, 36.156453299799999 ], [ -115.1785413, 36.156464099799997 ], [ -115.1785386, 36.156464099799997 ], [ -115.1785386, 36.156469499799996 ] ] ] } },
{ "type": "Feature", "properties": { "value": 255.0 }, "geometry": { "type": "Polygon", "coordinates": [ [ [ -115.1794026, 36.156526199799998 ], [ -115.1793999, 36.156526199799998 ], [ -115.1793999, 36.156523499799995 ], [ -115.1793756, 36.156523499799995 ], [ -115.1793756, 36.156520799799999 ], [ -115.1793405, 36.156520799799999 ], [ -115.1793405, 36.156518099799996 ], [ -115.1793324, 36.156518099799996 ], [ -115.1793324, 36.1565153998 ], [ -115.1793189, 36.1565153998 ], [ -115.1793189, 36.156512699799997 ], [ -115.1792703, 36.156512699799997 ], [ -115.1792703, 36.1565153998 ], [ -115.1792568, 36.1565153998 ], [ -115.1792568, 36.156512699799997 ], [ -115.1792487, 36.156512699799997 ], [ -115.1792487, 36.156509999799994 ], [ -115.1792433, 36.156509999799994 ], [ -115.1792433, 36.156507299799998 ], [ -115.1792406, 36.156507299799998 ], [ -115.1792406, 36.156504599799995 ], [ -115.1792352, 36.156504599799995 ], [ -115.1792352, 36.156501899799999 ], [ -115.1792325, 36.156501899799999 ], [ -115.1792325, 36.156493799799996 ], [ -115.1792298, 36.156493799799996 ], [ -115.1792298, 36.156474899799996 ], [ -115.1792271, 36.156474899799996 ], [ -115.1792271, 36.156455999799995 ], [ -115.17922440000001, 36.156455999799995 ], [ -115.17922440000001, 36.156437099799994 ], [ -115.1792271, 36.156437099799994 ], [ -115.1792271, 36.156434399799998 ], [ -115.1792298, 36.156434399799998 ], [ -115.1792298, 36.156431699799995 ], [ -115.1792325, 36.156431699799995 ], [ -115.1792325, 36.156426299799996 ], [ -115.1792298, 36.156426299799996 ], [ -115.1792298, 36.1564235998 ], [ -115.1792271, 36.1564235998 ], [ -115.1792271, 36.156420899799997 ], [ -115.17922440000001, 36.156420899799997 ], [ -115.17922440000001, 36.156418199799994 ], [ -115.1792271, 36.156418199799994 ], [ -115.1792271, 36.156415499799998 ], [ -115.1792298, 36.156415499799998 ], [ -115.1792298, 36.156412799799995 ], [ -115.1792379, 36.156412799799995 ], [ -115.1792379, 36.156410099799999 ], [ -115.1792865, 36.156410099799999 ], [ -115.1792865, 36.156404699799999 ], [ -115.1792892, 36.156404699799999 ], [ -115.1792892, 36.156391199799998 ], [ -115.1792838, 36.156391199799998 ], [ -115.1792838, 36.156388499799995 ], [ -115.179273, 36.156388499799995 ], [ -115.179273, 36.156385799799999 ], [ -115.1792568, 36.156385799799999 ], [ -115.1792568, 36.156388499799995 ], [ -115.1792352, 36.156388499799995 ], [ -115.1792352, 36.156385799799999 ], [ -115.1792325, 36.156385799799999 ], [ -115.1792325, 36.156377699799997 ], [ -115.1794026, 36.156377699799997 ], [ -115.1794026, 36.156526199799998 ] ] ] } },
{ "type": "Feature", "properties": { "value": 255.0 }, "geometry": { "type": "Polygon", "coordinates": [ [ [ -115.1787357, 36.156464099799997 ], [ -115.1787276, 36.156464099799997 ], [ -115.1787276, 36.156461399799994 ], [ -115.1787006, 36.156461399799994 ], [ -115.1787006, 36.156464099799997 ], [ -115.1786196, 36.156464099799997 ], [ -115.1786196, 36.156461399799994 ], [ -115.1785953, 36.156461399799994 ], [ -115.1785953, 36.156458699799998 ], [ -115.1785791, 36.156458699799998 ], [ -115.1785791, 36.156455999799995 ], [ -115.1785764, 36.156455999799995 ], [ -115.1785764, 36.156393899799994 ], [ -115.1785791, 36.156393899799994 ], [ -115.1785791, 36.156388499799995 ], [ -115.1785818, 36.156388499799995 ], [ -115.1785818, 36.156383099799996 ], [ -115.1785872, 36.156383099799996 ], [ -115.1785872, 36.156377699799997 ], [ -115.1787492, 36.156377699799997 ], [ -115.1787492, 36.156401999799996 ], [ -115.1787465, 36.156401999799996 ], [ -115.1787465, 36.156420899799997 ], [ -115.1787492, 36.156420899799997 ], [ -115.1787492, 36.156426299799996 ], [ -115.1787573, 36.156426299799996 ], [ -115.1787573, 36.1564235998 ], [ -115.1787681, 36.1564235998 ], [ -115.1787681, 36.156426299799996 ], [ -115.1787708, 36.156426299799996 ], [ -115.1787708, 36.156445199799997 ], [ -115.1787681, 36.156445199799997 ], [ -115.1787681, 36.156453299799999 ], [ -115.1787627, 36.156453299799999 ], [ -115.1787627, 36.156455999799995 ], [ -115.1787465, 36.156455999799995 ], [ -115.1787465, 36.156458699799998 ], [ -115.1787411, 36.156458699799998 ], [ -115.1787411, 36.156461399799994 ], [ -115.1787357, 36.156461399799994 ], [ -115.1787357, 36.156464099799997 ] ] ] } },
{ "type": "Feature", "properties": { "value": 255.0 }, "geometry": { "type": "Polygon", "coordinates": [ [ [ -115.1782119, 36.156396599799997 ], [ -115.1781957, 36.156396599799997 ], [ -115.1781957, 36.156393899799994 ], [ -115.1781903, 36.156393899799994 ], [ -115.1781903, 36.156396599799997 ], [ -115.1781876, 36.156396599799997 ], [ -115.1781876, 36.156393899799994 ], [ -115.1781714, 36.156393899799994 ], [ -115.1781714, 36.156391199799998 ], [ -115.1781687, 36.156391199799998 ], [ -115.1781687, 36.156388499799995 ], [ -115.178166, 36.156388499799995 ], [ -115.178166, 36.156377699799997 ], [ -115.1782146, 36.156377699799997 ], [ -115.1782146, 36.156393899799994 ], [ -115.1782119, 36.156393899799994 ], [ -115.1782119, 36.156396599799997 ] ] ] } }
]
}
