{
"type": "FeatureCollection",
"crs": { "type": "name", "properties": { "name": "urn:ogc:def:crs:OGC:1.3:CRS84" } },
"features": [
{ "type": "Feature", "properties": { "value": 255.0 }, "geometry": { "type": "Polygon", "coordinates": [ [ [ -115.1554563, 36.2523087 ], [ -115.1553564, 36.2523087 ], [ -115.1553564, 36.252306 ], [ -115.1553429, 36.252306 ], [ -115.1553429, 36.2522979 ], [ -115.1553402, 36.2522979 ], [ -115.1553402, 36.2522871 ], [ -115.1553429, 36.2522871 ], [ -115.1553429, 36.2522466 ], [ -115.1553456, 36.2522466 ], [ -115.1553456, 36.2522277 ], [ -115.1553483, 36.2522277 ], [ -115.1553483, 36.2522196 ], [ -115.155351, 36.2522196 ], [ -115.155351, 36.2522142 ], [ -115.1553537, 36.2522142 ], [ -115.1553537, 36.2522115 ], [ -115.1553591, 36.2522115 ], [ -115.1553591, 36.2522088 ], [ -115.1553645, 36.2522088 ], [ -115.1553645, 36.2522061 ], [ -115.1553726, 36.2522061 ], [ -115.1553726, 36.2522034 ], [ -115.1553834, 36.2522034 ], [ -115.1553834, 36.2522007 ], [ -115.1553969, 36.2522007 ], [ -115.1553969, 36.252198 ], [ -115.1554374, 36.252198 ], [ -115.1554374, 36.2522007 ], [ -115.1554536, 36.2522007 ], [ -115.1554536, 36.2522034 ], [ -115.1555562, 36.2522034 ], [ -115.1555562, 36.2522007 ], [ -115.155567, 36.2522007 ], [ -115.155567, 36.252198 ], [ -115.1556507, 36.252198 ], [ -115.1556507, 36.2522007 ], [ -115.1556642, 36.2522007 ], [ -115.1556642, 36.2522034 ], [ -115.1556669, 36.2522034 ], [ -115.1556669, 36.2523006 ], [ -115.1556642, 36.2523006 ], [ -115.1556642, 36.2523033 ], [ -115.1556048, 36.2523033 ], [ -115.1556048, 36.252306 ], [ -115.1555589, 36.252306 ], [ -115.1555589, 36.2523033 ], [ -115.1555535, 36.2523033 ], [ -115.1555535, 36.2522979 ], [ -115.1555508, 36.2522979 ], [ -115.1555508, 36.2522952 ], [ -115.1555481, 36.2522952 ], [ -115.1555481, 36.2522898 ], [ -115.1555454, 36.2522898 ], [ -115.1555454, 36.2522871 ], [ -115.1555427, 36.2522871 ], [ -115.1555427, 36.2522844 ], [ -115.1555373, 36.2522844 ], [ -115.1555373, 36.2522817 ], [ -115.1554671, 36.2522817 ], [ -115.1554671, 36.2522844 ], [ -115.1554644, 36.2522844 ], [ -115.1554644, 36.2522871 ], [ -115.1554617, 36.2522871 ], [ -115.1554617, 36.2523033 ], [ -115.155459, 36.2523033 ], [ -115.155459, 36.252306 ], [ -115.1554563, 36.252306 ], [ -115.1554563, 36.2523087 ] ] ] } },
{ "type": "Feature", "properties": { "value": 255.0 }, "geometry": { "type": "Polygon", "coordinates": [ [ [ -115.1562312, 36.2522871 ], [ -115.1561205, 36.2522871 ], [ -115.1561205, 36.2522844 ], [ -115.1561151, 36.2522844 ], [ -115.1561151, 36.2522817 ], [ -115.1561124, 36.2522817 ], [ -115.1561124, 36.2522709 ], [ -115.1561097, 36.2522709 ], [ -115.1561097, 36.2522655 ], [ -115.1561124, 36.2522655 ], [ -115.1561124, 36.2522385 ], [ -115.1561151, 36.2522385 ], [ -115.1561151, 36.252198 ], [ -115.1561124, 36.252198 ], [ -115.1561124, 36.2521845 ], [ -115.1561151, 36.2521845 ], [ -115.1561151, 36.2521818 ], [ -115.1562636, 36.2521818 ], [ -115.1562636, 36.2521845 ], [ -115.1563068, 36.2521845 ], [ -115.1563068, 36.2521818 ], [ -115.1563446, 36.2521818 ], [ -115.1563446, 36.2521791 ], [ -115.1564229, 36.2521791 ], [ -115.1564229, 36.2521818 ], [ -115.1564337, 36.2521818 ], [ -115.1564337, 36.2521845 ], [ -115.1564364, 36.2521845 ], [ -115.1564364, 36.2521899 ], [ -115.1564391, 36.2521899 ], [ -115.1564391, 36.2522817 ], [ -115.1564256, 36.2522817 ], [ -115.1564256, 36.2522844 ], [ -115.1563284, 36.2522844 ], [ -115.1563284, 36.2522817 ], [ -115.1563257, 36.2522817 ], [ -115.1563257, 36.2522736 ], [ -115.156323, 36.2522736 ], [ -115.156323, 36.2522682 ], [ -115.1563203, 36.2522682 ], [ -115.1563203, 36.2522628 ], [ -115.1563149, 36.2522628 ], [ -115.1563149, 36.2522601 ], [ -115.156242, 36.2522601 ], [ -115.156242, 36.2522628 ], [ -115.1562366, 36.2522628 ], [ -115.1562366, 36.2522709 ], [ -115.1562339, 36.2522709 ], [ -115.1562339, 36.2522844 ], [ -115.1562312, 36.2522844 ], [ -115.1562312, 36.2522871 ] ] ] } },
{ "type": "Feature", "properties": { "value": 255.0 }, "geometry": { "type": "Polygon", "coordinates": [ [ [ -115.1558424, 36.2522925 ], [ -115.1557371, 36.2522925 ], [ -115.1557371, 36.2522898 ], [ -115.1557317, 36.2522898 ], [ -115.1557317, 36.2522871 ], [ -115.155729, 36.2522871 ], [ -115.155729, 36.2522142 ], [ -115.1557263, 36.2522142 ], [ -115.1557263, 36.2521953 ], [ -115.1557236, 36.2521953 ], [ -115.1557236, 36.2521926 ], [ -115.1557263, 36.2521926 ], [ -115.1557263, 36.2521872 ], [ -115.1558289, 36.2521872 ], [ -115.1558289, 36.2521899 ], [ -115.1558424, 36.2521899 ], [ -115.1558424, 36.2521872 ], [ -115.1559693, 36.2521872 ], [ -115.1559693, 36.2521845 ], [ -115.1560071, 36.2521845 ], [ -115.1560071, 36.2521818 ], [ -115.1560503, 36.2521818 ], [ -115.1560503, 36.2521845 ], [ -115.156053, 36.2521845 ], [ -115.156053, 36.2522709 ], [ -115.1560557, 36.2522709 ], [ -115.1560557, 36.252279 ], [ -115.156053, 36.252279 ], [ -115.156053, 36.2522871 ], [ -115.1560233, 36.2522871 ], [ -115.1560233, 36.2522898 ], [ -115.1559423, 36.2522898 ], [ -115.1559423, 36.2522844 ], [ -115.1559396, 36.2522844 ], [ -115.1559396, 36.2522763 ], [ -115.1559369, 36.2522763 ], [ -115.1559369, 36.2522709 ], [ -115.1559342, 36.2522709 ], [ -115.1559342, 36.2522682 ], [ -115.1559315, 36.2522682 ], [ -115.1559315, 36.2522655 ], [ -115.1558559, 36.2522655 ], [ -115.1558559, 36.2522682 ], [ -115.1558532, 36.2522682 ], [ -115.1558532, 36.2522709 ], [ -115.1558505, 36.2522709 ], [ -115.1558505, 36.252279 ], [ -115.1558478, 36.252279 ], [ -115.1558478, 36.2522871 ], [ -115.1558451, 36.2522871 ], [ -115.1558451, 36.2522898 ], [ -115.1558424, 36.2522898 ], [ -115.1558424, 36.2522925 ] ] ] } },
{ "type": "Feature", "properties": { "value": 255.0 }, "geometry": { "type": "Polygon", "coordinates": [ [ [ -115.1565876, 36.2526219 ], [ -115.156514699999988, 36.2526219 ], [ -115.156514699999988, 36.2526192 ], [ -115.156512, 36.2526192 ], [ -115.156512, 36.2526165 ], [ -115.1565093, 36.2526165 ], [ -115.1565093, 36.2526138 ], [ -115.1565066, 36.2526138 ], [ -115.1565066, 36.2526057 ], [ -115.1565039, 36.2526057 ], [ -115.1565039, 36.2525976 ], [ -115.1565012, 36.2525976 ], [ -115.1565012, 36.2525895 ], [ -115.1564985, 36.2525895 ], [ -115.1564985, 36.2525868 ], [ -115.1564958, 36.2525868 ], [ -115.1564958, 36.2525814 ], [ -115.1564931, 36.2525814 ], [ -115.1564931, 36.2525787 ], [ -115.1564904, 36.2525787 ], [ -115.1564904, 36.252576 ], [ -115.1564877, 36.252576 ], [ -115.1564877, 36.2525733 ], [ -115.156485, 36.2525733 ], [ -115.156485, 36.2525706 ], [ -115.1564823, 36.2525706 ], [ -115.1564823, 36.2525571 ], [ -115.1564796, 36.2525571 ], [ -115.1564796, 36.2525409 ], [ -115.1564823, 36.2525409 ], [ -115.1564823, 36.2525301 ], [ -115.1564904, 36.2525301 ], [ -115.1564904, 36.2525247 ], [ -115.1564877, 36.2525247 ], [ -115.1564877, 36.2525031 ], [ -115.156485, 36.2525031 ], [ -115.156485, 36.2524653 ], [ -115.1564877, 36.2524653 ], [ -115.1564877, 36.2524356 ], [ -115.1564904, 36.2524356 ], [ -115.1564904, 36.2524275 ], [ -115.1564931, 36.2524275 ], [ -115.1564931, 36.2524221 ], [ -115.1564958, 36.2524221 ], [ -115.1564958, 36.2524167 ], [ -115.1564985, 36.2524167 ], [ -115.1564985, 36.2524113 ], [ -115.1565012, 36.2524113 ], [ -115.1565012, 36.2524086 ], [ -115.1565093, 36.2524086 ], [ -115.1565093, 36.2524059 ], [ -115.156514699999988, 36.2524059 ], [ -115.156514699999988, 36.2524032 ], [ -115.1565174, 36.2524032 ], [ -115.1565174, 36.2523951 ], [ -115.156514699999988, 36.2523951 ], [ -115.156514699999988, 36.2523924 ], [ -115.156512, 36.2523924 ], [ -115.156512, 36.2523843 ], [ -115.1565093, 36.2523843 ], [ -115.1565093, 36.2523654 ], [ -115.156512, 36.2523654 ], [ -115.156512, 36.2523303 ], [ -115.1565093, 36.2523303 ], [ -115.1565093, 36.2522979 ], [ -115.156512, 36.2522979 ], [ -115.156512, 36.2522871 ], [ -115.1565093, 36.2522871 ], [ -115.1565093, 36.2522466 ], [ -115.1565066, 36.2522466 ], [ -115.1565066, 36.2522169 ], [ -115.1565039, 36.2522169 ], [ -115.1565039, 36.2522061 ], [ -115.1565012, 36.2522061 ], [ -115.1565012, 36.2521953 ], [ -115.1565066, 36.2521953 ], [ -115.1565066, 36.2521926 ], [ -115.1565876, 36.2521926 ], [ -115.1565876, 36.2522655 ], [ -115.1565849, 36.2522655 ], [ -115.1565849, 36.2522628 ], [ -115.1565768, 36.2522628 ], [ -115.1565768, 36.2522601 ], [ -115.1565471, 36.2522601 ], [ -115.1565471, 36.2522628 ], [ -115.1565417, 36.2522628 ], [ -115.1565417, 36.2522655 ], [ -115.156539, 36.2522655 ], [ -115.156539, 36.2522682 ], [ -115.1565417, 36.2522682 ], [ -115.1565417, 36.2522709 ], [ -115.1565471, 36.2522709 ], [ -115.1565471, 36.2522736 ], [ -115.1565849, 36.2522736 ], [ -115.1565849, 36.2522709 ], [ -115.1565876, 36.2522709 ], [ -115.1565876, 36.2526219 ] ] ] } },
{ "type": "Feature", "properties": { "value": 255.0 }, "geometry": { "type": "Polygon", "coordinates": [ [ [ -115.1548515, 36.2521602 ], [ -115.1548326, 36.2521602 ], [ -115.1548326, 36.2520927 ], [ -115.1548704, 36.2520927 ], [ -115.1548704, 36.25209 ], [ -115.1548812, 36.25209 ], [ -115.1548812, 36.2520873 ], [ -115.1548839, 36.2520873 ], [ -115.1548839, 36.2520819 ], [ -115.154886600000012, 36.2520819 ], [ -115.154886600000012, 36.2520495 ], [ -115.1548893, 36.2520495 ], [ -115.1548893, 36.2520306 ], [ -115.154892, 36.2520306 ], [ -115.154892, 36.2520279 ], [ -115.1548947, 36.2520279 ], [ -115.1548947, 36.2520252 ], [ -115.15489740000001, 36.2520252 ], [ -115.15489740000001, 36.2520225 ], [ -115.154954100000012, 36.2520225 ], [ -115.154954100000012, 36.2520198 ], [ -115.1549595, 36.2520198 ], [ -115.1549595, 36.2520225 ], [ -115.1549676, 36.2520225 ], [ -115.1549676, 36.2520252 ], [ -115.1549703, 36.2520252 ], [ -115.1549703, 36.2520306 ], [ -115.154973, 36.2520306 ], [ -115.154973, 36.2520468 ], [ -115.1549757, 36.2520468 ], [ -115.1549757, 36.2520495 ], [ -115.1549784, 36.2520495 ], [ -115.1549784, 36.2520522 ], [ -115.1549865, 36.2520522 ], [ -115.1549865, 36.2520495 ], [ -115.1549973, 36.2520495 ], [ -115.1549973, 36.2520468 ], [ -115.1550216, 36.2520468 ], [ -115.1550216, 36.2520441 ], [ -115.1550297, 36.2520441 ], [ -115.1550297, 36.2520414 ], [ -115.1550405, 36.2520414 ], [ -115.1550405, 36.2520387 ], [ -115.1550567, 36.2520387 ], [ -115.1550567, 36.252036 ], [ -115.155070200000011, 36.252036 ], [ -115.155070200000011, 36.2520333 ], [ -115.155081, 36.2520333 ], [ -115.155081, 36.2520306 ], [ -115.1550891, 36.2520306 ], [ -115.1550891, 36.2520279 ], [ -115.1550945, 36.2520279 ], [ -115.1550945, 36.2520252 ], [ -115.15509990000001, 36.2520252 ], [ -115.15509990000001, 36.2520225 ], [ -115.1551107, 36.2520225 ], [ -115.1551107, 36.2520252 ], [ -115.1551161, 36.2520252 ], [ -115.1551161, 36.2520279 ], [ -115.155118800000011, 36.2520279 ], [ -115.155118800000011, 36.2520495 ], [ -115.1551215, 36.2520495 ], [ -115.1551215, 36.2520522 ], [ -115.1551242, 36.2520522 ], [ -115.1551242, 36.2520549 ], [ -115.1551269, 36.2520549 ], [ -115.1551269, 36.2520576 ], [ -115.1551296, 36.2520576 ], [ -115.1551296, 36.2520603 ], [ -115.1551323, 36.2520603 ], [ -115.1551323, 36.2521035 ], [ -115.155135, 36.2521035 ], [ -115.155135, 36.2521251 ], [ -115.1551323, 36.2521251 ], [ -115.1551323, 36.2521413 ], [ -115.155135, 36.2521413 ], [ -115.155135, 36.2521467 ], [ -115.1551323, 36.2521467 ], [ -115.1551323, 36.2521521 ], [ -115.1551269, 36.2521521 ], [ -115.1551269, 36.2521548 ], [ -115.1550108, 36.2521548 ], [ -115.1550108, 36.2521521 ], [ -115.155002700000011, 36.2521521 ], [ -115.155002700000011, 36.2521494 ], [ -115.1549946, 36.2521494 ], [ -115.1549946, 36.2521467 ], [ -115.1549811, 36.2521467 ], [ -115.1549811, 36.252144 ], [ -115.1549676, 36.252144 ], [ -115.1549676, 36.2521413 ], [ -115.154954100000012, 36.2521413 ], [ -115.154954100000012, 36.252144 ], [ -115.154946, 36.252144 ], [ -115.154946, 36.2521467 ], [ -115.154935200000011, 36.2521467 ], [ -115.154935200000011, 36.2521494 ], [ -115.1549325, 36.2521494 ], [ -115.1549325, 36.2521521 ], [ -115.1549298, 36.2521521 ], [ -115.1549298, 36.2521548 ], [ -115.1549271, 36.2521548 ], [ -115.1549271, 36.2521575 ], [ -115.1548515, 36.2521575 ], [ -115.1548515, 36.2521602 ] ] ] } },
{ "type": "Feature", "properties": { "value": 255.0 }, "geometry": { "type": "Polygon", "coordinates": [ [ [ -115.1548407, 36.2520765 ], [ -115.1548326, 36.2520765 ], [ -115.1548326, 36.2520117 ], [ -115.154838, 36.2520117 ], [ -115.154838, 36.2520144 ], [ -115.1548434, 36.2520144 ], [ -115.1548434, 36.2520171 ], [ -115.154856900000013, 36.2520171 ], [ -115.154856900000013, 36.2520198 ], [ -115.1548623, 36.2520198 ], [ -115.1548623, 36.2520657 ], [ -115.1548596, 36.2520657 ], [ -115.1548596, 36.2520711 ], [ -115.154856900000013, 36.2520711 ], [ -115.154856900000013, 36.2520738 ], [ -115.1548407, 36.2520738 ], [ -115.1548407, 36.2520765 ] ] ] } },
{ "type": "Feature", "properties": { "value": 255.0 }, "geometry": { "type": "Polygon", "coordinates": [ [ [ -115.1555562, 36.2519766 ], [ -115.1555292, 36.2519766 ], [ -115.1555292, 36.2519739 ], [ -115.1554833, 36.2519739 ], [ -115.1554833, 36.2519712 ], [ -115.1554617, 36.2519712 ], [ -115.1554617, 36.2519685 ], [ -115.155459, 36.2519685 ], [ -115.155459, 36.2519631 ], [ -115.1554563, 36.2519631 ], [ -115.1554563, 36.2519226 ], [ -115.155459, 36.2519226 ], [ -115.155459, 36.2518821 ], [ -115.1554563, 36.2518821 ], [ -115.1554563, 36.251874 ], [ -115.155459, 36.251874 ], [ -115.155459, 36.2518713 ], [ -115.1554617, 36.2518713 ], [ -115.1554617, 36.2518686 ], [ -115.1555346, 36.2518686 ], [ -115.1555346, 36.2518659 ], [ -115.1555508, 36.2518659 ], [ -115.1555508, 36.2518686 ], [ -115.1555697, 36.2518686 ], [ -115.1555697, 36.2518713 ], [ -115.1555751, 36.2518713 ], [ -115.1555751, 36.251874 ], [ -115.1555778, 36.251874 ], [ -115.1555778, 36.2518767 ], [ -115.1555805, 36.2518767 ], [ -115.1555805, 36.2518902 ], [ -115.1555832, 36.2518902 ], [ -115.1555832, 36.2518956 ], [ -115.1556156, 36.2518956 ], [ -115.1556156, 36.2518983 ], [ -115.1556183, 36.2518983 ], [ -115.1556183, 36.251901 ], [ -115.155621, 36.251901 ], [ -115.155621, 36.2519091 ], [ -115.1556237, 36.2519091 ], [ -115.1556237, 36.2519631 ], [ -115.155621, 36.2519631 ], [ -115.155621, 36.2519685 ], [ -115.1556102, 36.2519685 ], [ -115.1556102, 36.2519712 ], [ -115.1555616, 36.2519712 ], [ -115.1555616, 36.2519739 ], [ -115.1555562, 36.2519739 ], [ -115.1555562, 36.2519766 ] ] ] } },
{ "type": "Feature", "properties": { "value": 255.0 }, "geometry": { "type": "Polygon", "coordinates": [ [ [ -115.1563365, 36.2519901 ], [ -115.1563014, 36.2519901 ], [ -115.1563014, 36.2519874 ], [ -115.1562717, 36.2519874 ], [ -115.1562717, 36.2519847 ], [ -115.156269, 36.2519847 ], [ -115.156269, 36.2519685 ], [ -115.1562663, 36.2519685 ], [ -115.1562663, 36.251928 ], [ -115.1562636, 36.251928 ], [ -115.1562636, 36.2519064 ], [ -115.1562609, 36.2519064 ], [ -115.1562609, 36.251901 ], [ -115.1562636, 36.251901 ], [ -115.1562636, 36.2518956 ], [ -115.1562663, 36.2518956 ], [ -115.1562663, 36.2518929 ], [ -115.1563041, 36.2518929 ], [ -115.1563041, 36.2518902 ], [ -115.1563068, 36.2518902 ], [ -115.1563068, 36.2518875 ], [ -115.1563095, 36.2518875 ], [ -115.1563095, 36.2518173 ], [ -115.1563068, 36.2518173 ], [ -115.1563068, 36.2518092 ], [ -115.1563095, 36.2518092 ], [ -115.1563095, 36.2518065 ], [ -115.1563122, 36.2518065 ], [ -115.1563122, 36.2518038 ], [ -115.1563257, 36.2518038 ], [ -115.1563257, 36.2518011 ], [ -115.15635, 36.2518011 ], [ -115.15635, 36.2517984 ], [ -115.156377, 36.2517984 ], [ -115.156377, 36.2517957 ], [ -115.156431, 36.2517957 ], [ -115.156431, 36.2517984 ], [ -115.1564337, 36.2517984 ], [ -115.1564337, 36.2518011 ], [ -115.1564364, 36.2518011 ], [ -115.1564364, 36.2518524 ], [ -115.1564337, 36.2518524 ], [ -115.1564337, 36.2518551 ], [ -115.1564256, 36.2518551 ], [ -115.1564256, 36.2518578 ], [ -115.1563959, 36.2518578 ], [ -115.1563959, 36.2518605 ], [ -115.1563932, 36.2518605 ], [ -115.1563932, 36.2518686 ], [ -115.1563959, 36.2518686 ], [ -115.1563959, 36.2518794 ], [ -115.1563932, 36.2518794 ], [ -115.1563932, 36.2518929 ], [ -115.1563959, 36.2518929 ], [ -115.1563959, 36.2519145 ], [ -115.1563986, 36.2519145 ], [ -115.1563986, 36.2519199 ], [ -115.1564013, 36.2519199 ], [ -115.1564013, 36.2519226 ], [ -115.156404, 36.2519226 ], [ -115.156404, 36.2519253 ], [ -115.1564121, 36.2519253 ], [ -115.1564121, 36.251928 ], [ -115.1564229, 36.251928 ], [ -115.1564229, 36.2519307 ], [ -115.1564283, 36.2519307 ], [ -115.1564283, 36.2519334 ], [ -115.156431, 36.2519334 ], [ -115.156431, 36.2519415 ], [ -115.1564337, 36.2519415 ], [ -115.1564337, 36.2519658 ], [ -115.156431, 36.2519658 ], [ -115.156431, 36.2519739 ], [ -115.1564256, 36.2519739 ], [ -115.1564256, 36.2519766 ], [ -115.1564013, 36.2519766 ], [ -115.1564013, 36.2519793 ], [ -115.1563905, 36.2519793 ], [ -115.1563905, 36.251982 ], [ -115.1563878, 36.251982 ], [ -115.1563878, 36.2519847 ], [ -115.1563824, 36.2519847 ], [ -115.1563824, 36.2519874 ], [ -115.1563365, 36.2519874 ], [ -115.1563365, 36.2519901 ] ] ] } },
{ "type": "Feature", "properties": { "value": 255.0 }, "geometry": { "type": "Polygon", "coordinates": [ [ [ -115.1549136, 36.251874 ], [ -115.1549028, 36.251874 ], [ -115.1549028, 36.2518713 ], [ -115.1548947, 36.2518713 ], [ -115.1548947, 36.2518686 ], [ -115.154886600000012, 36.2518686 ], [ -115.154886600000012, 36.2518659 ], [ -115.1548839, 36.2518659 ], [ -115.1548839, 36.2518632 ], [ -115.1548812, 36.2518632 ], [ -115.1548812, 36.2518497 ], [ -115.1548785, 36.2518497 ], [ -115.1548785, 36.2518254 ], [ -115.1548758, 36.2518254 ], [ -115.1548758, 36.2518227 ], [ -115.1548785, 36.2518227 ], [ -115.1548785, 36.25182 ], [ -115.1548812, 36.25182 ], [ -115.1548812, 36.2518173 ], [ -115.1548839, 36.2518173 ], [ -115.1548839, 36.2518146 ], [ -115.154886600000012, 36.2518146 ], [ -115.154886600000012, 36.2518092 ], [ -115.1548893, 36.2518092 ], [ -115.1548893, 36.2517984 ], [ -115.154886600000012, 36.2517984 ], [ -115.154886600000012, 36.2517957 ], [ -115.1548785, 36.2517957 ], [ -115.1548785, 36.251793 ], [ -115.1548434, 36.251793 ], [ -115.1548434, 36.2517957 ], [ -115.1548326, 36.2517957 ], [ -115.1548326, 36.2517282 ], [ -115.154838, 36.2517282 ], [ -115.154838, 36.2517309 ], [ -115.1549244, 36.2517309 ], [ -115.1549244, 36.2517336 ], [ -115.1549298, 36.2517336 ], [ -115.1549298, 36.2517363 ], [ -115.1549325, 36.2517363 ], [ -115.1549325, 36.251739 ], [ -115.1549298, 36.251739 ], [ -115.1549298, 36.2517471 ], [ -115.1549271, 36.2517471 ], [ -115.1549271, 36.2517498 ], [ -115.1549298, 36.2517498 ], [ -115.1549298, 36.2517552 ], [ -115.1549325, 36.2517552 ], [ -115.1549325, 36.2517579 ], [ -115.1549379, 36.2517579 ], [ -115.1549379, 36.2517606 ], [ -115.154983800000011, 36.2517606 ], [ -115.154983800000011, 36.2517579 ], [ -115.1549892, 36.2517579 ], [ -115.1549892, 36.2517552 ], [ -115.1549919, 36.2517552 ], [ -115.1549919, 36.2517525 ], [ -115.1549946, 36.2517525 ], [ -115.1549946, 36.2517417 ], [ -115.1549919, 36.2517417 ], [ -115.1549919, 36.2517363 ], [ -115.1549946, 36.2517363 ], [ -115.1549946, 36.2517336 ], [ -115.1549973, 36.2517336 ], [ -115.1549973, 36.2517309 ], [ -115.1550054, 36.2517309 ], [ -115.1550054, 36.2517282 ], [ -115.1551215, 36.2517282 ], [ -115.1551215, 36.2517309 ], [ -115.1551242, 36.2517309 ], [ -115.1551242, 36.2517363 ], [ -115.1551269, 36.2517363 ], [ -115.1551269, 36.2518146 ], [ -115.1551242, 36.2518146 ], [ -115.1551242, 36.25182 ], [ -115.1551215, 36.25182 ], [ -115.1551215, 36.2518227 ], [ -115.155118800000011, 36.2518227 ], [ -115.155118800000011, 36.2518281 ], [ -115.1551161, 36.2518281 ], [ -115.1551161, 36.2518362 ], [ -115.1551134, 36.2518362 ], [ -115.1551134, 36.2518605 ], [ -115.1551107, 36.2518605 ], [ -115.1551107, 36.2518632 ], [ -115.1550594, 36.2518632 ], [ -115.1550594, 36.2518605 ], [ -115.1550567, 36.2518605 ], [ -115.1550567, 36.2518497 ], [ -115.155054, 36.2518497 ], [ -115.155054, 36.251847 ], [ -115.155051300000011, 36.251847 ], [ -115.155051300000011, 36.2518443 ], [ -115.1550432, 36.2518443 ], [ -115.1550432, 36.2518416 ], [ -115.1550297, 36.2518416 ], [ -115.1550297, 36.2518389 ], [ -115.1550243, 36.2518389 ], [ -115.1550243, 36.2518362 ], [ -115.1550108, 36.2518362 ], [ -115.1550108, 36.2518335 ], [ -115.1549703, 36.2518335 ], [ -115.1549703, 36.2518362 ], [ -115.1549676, 36.2518362 ], [ -115.1549676, 36.2518416 ], [ -115.15496490000001, 36.2518416 ], [ -115.15496490000001, 36.251847 ], [ -115.1549676, 36.251847 ], [ -115.1549676, 36.2518659 ], [ -115.15496490000001, 36.2518659 ], [ -115.15496490000001, 36.2518686 ], [ -115.1549595, 36.2518686 ], [ -115.1549595, 36.2518713 ], [ -115.1549136, 36.2518713 ], [ -115.1549136, 36.251874 ] ] ] } },
{ "type": "Feature", "properties": { "value": 255.0 }, "geometry": { "type": "Polygon", "coordinates": [ [ [ -115.1557587, 36.2519982 ], [ -115.1557128, 36.2519982 ], [ -115.1557128, 36.2519955 ], [ -115.1556885, 36.2519955 ], [ -115.1556885, 36.2519928 ], [ -115.1556858, 36.2519928 ], [ -115.1556858, 36.2519901 ], [ -115.1556831, 36.2519901 ], [ -115.1556831, 36.2519847 ], [ -115.1556804, 36.2519847 ], [ -115.1556804, 36.2519739 ], [ -115.1556777, 36.2519739 ], [ -115.1556777, 36.2519064 ], [ -115.1556804, 36.2519064 ], [ -115.1556804, 36.251901 ], [ -115.1557047, 36.251901 ], [ -115.1557047, 36.2518983 ], [ -115.1557209, 36.2518983 ], [ -115.1557209, 36.2518956 ], [ -115.1557236, 36.2518956 ], [ -115.1557236, 36.2518389 ], [ -115.1557209, 36.2518389 ], [ -115.1557209, 36.2518362 ], [ -115.1557155, 36.2518362 ], [ -115.1557155, 36.2518335 ], [ -115.1556966, 36.2518335 ], [ -115.1556966, 36.2518308 ], [ -115.1556858, 36.2518308 ], [ -115.1556858, 36.2518281 ], [ -115.1556831, 36.2518281 ], [ -115.1556831, 36.2518254 ], [ -115.1556804, 36.2518254 ], [ -115.1556804, 36.2518227 ], [ -115.1556777, 36.2518227 ], [ -115.1556777, 36.2518173 ], [ -115.155675, 36.2518173 ], [ -115.155675, 36.2518011 ], [ -115.1556723, 36.2518011 ], [ -115.1556723, 36.2517795 ], [ -115.1556696, 36.2517795 ], [ -115.1556696, 36.2517687 ], [ -115.1556669, 36.2517687 ], [ -115.1556669, 36.251766 ], [ -115.1556588, 36.251766 ], [ -115.1556588, 36.2517633 ], [ -115.1556561, 36.2517633 ], [ -115.1556561, 36.2517579 ], [ -115.1556534, 36.2517579 ], [ -115.1556534, 36.2517471 ], [ -115.1556507, 36.2517471 ], [ -115.1556507, 36.2517012 ], [ -115.1556534, 36.2517012 ], [ -115.1556534, 36.2516904 ], [ -115.1556561, 36.2516904 ], [ -115.1556561, 36.2516823 ], [ -115.1556588, 36.2516823 ], [ -115.1556588, 36.2516796 ], [ -115.1556615, 36.2516796 ], [ -115.1556615, 36.2516769 ], [ -115.1556723, 36.2516769 ], [ -115.1556723, 36.2516742 ], [ -115.1557479, 36.2516742 ], [ -115.1557479, 36.2516769 ], [ -115.1557533, 36.2516769 ], [ -115.1557533, 36.2517201 ], [ -115.155756, 36.2517201 ], [ -115.155756, 36.2517714 ], [ -115.1557587, 36.2517714 ], [ -115.1557587, 36.2518038 ], [ -115.1557614, 36.2518038 ], [ -115.1557614, 36.2518065 ], [ -115.1557884, 36.2518065 ], [ -115.1557884, 36.2518038 ], [ -115.1558046, 36.2518038 ], [ -115.1558046, 36.2518011 ], [ -115.1558532, 36.2518011 ], [ -115.1558532, 36.2518038 ], [ -115.1558559, 36.2518038 ], [ -115.1558559, 36.2518605 ], [ -115.1558532, 36.2518605 ], [ -115.1558532, 36.2518632 ], [ -115.1558451, 36.2518632 ], [ -115.1558451, 36.2518659 ], [ -115.1558127, 36.2518659 ], [ -115.1558127, 36.2518686 ], [ -115.1558073, 36.2518686 ], [ -115.1558073, 36.2518713 ], [ -115.15581, 36.2518713 ], [ -115.15581, 36.2518767 ], [ -115.1558127, 36.2518767 ], [ -115.1558127, 36.2518956 ], [ -115.1558154, 36.2518956 ], [ -115.1558154, 36.2519037 ], [ -115.1558127, 36.2519037 ], [ -115.1558127, 36.2519145 ], [ -115.1558154, 36.2519145 ], [ -115.1558154, 36.2519226 ], [ -115.1558181, 36.2519226 ], [ -115.1558181, 36.251928 ], [ -115.1558235, 36.251928 ], [ -115.1558235, 36.2519307 ], [ -115.1558316, 36.2519307 ], [ -115.1558316, 36.2519334 ], [ -115.1558397, 36.2519334 ], [ -115.1558397, 36.2519361 ], [ -115.1558451, 36.2519361 ], [ -115.1558451, 36.2519388 ], [ -115.1558478, 36.2519388 ], [ -115.1558478, 36.2519577 ], [ -115.1558505, 36.2519577 ], [ -115.1558505, 36.2519739 ], [ -115.1558478, 36.2519739 ], [ -115.1558478, 36.251982 ], [ -115.1558424, 36.251982 ], [ -115.1558424, 36.2519847 ], [ -115.1558181, 36.2519847 ], [ -115.1558181, 36.2519874 ], [ -115.15581, 36.2519874 ], [ -115.15581, 36.2519901 ], [ -115.1558046, 36.2519901 ], [ -115.1558046, 36.2519928 ], [ -115.1557992, 36.2519928 ], [ -115.1557992, 36.2519955 ], [ -115.1557587, 36.2519955 ], [ -115.1557587, 36.2519982 ] ] ] } },
{ "type": "Feature", "properties": { "value": 255.0 }, "geometry": { "type": "Polygon", "coordinates": [ [ [ -115.1564634, 36.2517741 ], [ -115.1564418, 36.2517741 ], [ -115.1564418, 36.2517714 ], [ -115.1564337, 36.2517714 ], [ -115.1564337, 36.2517687 ], [ -115.1563905, 36.2517687 ], [ -115.1563905, 36.251766 ], [ -115.1563635, 36.251766 ], [ -115.1563635, 36.2517633 ], [ -115.1563608, 36.2517633 ], [ -115.1563608, 36.2517606 ], [ -115.1563581, 36.2517606 ], [ -115.1563581, 36.2517336 ], [ -115.1563608, 36.2517336 ], [ -115.1563608, 36.2517228 ], [ -115.1563581, 36.2517228 ], [ -115.1563581, 36.2516796 ], [ -115.1563554, 36.2516796 ], [ -115.1563554, 36.2516715 ], [ -115.1563581, 36.2516715 ], [ -115.1563581, 36.2516688 ], [ -115.1563608, 36.2516688 ], [ -115.1563608, 36.2516661 ], [ -115.1564202, 36.2516661 ], [ -115.1564202, 36.2516634 ], [ -115.1564391, 36.2516634 ], [ -115.1564391, 36.2516661 ], [ -115.1564526, 36.2516661 ], [ -115.1564526, 36.2516634 ], [ -115.1564715, 36.2516634 ], [ -115.1564715, 36.2516661 ], [ -115.1564796, 36.2516661 ], [ -115.1564796, 36.2516688 ], [ -115.1564823, 36.2516688 ], [ -115.1564823, 36.2516715 ], [ -115.156485, 36.2516715 ], [ -115.156485, 36.251685 ], [ -115.1564877, 36.251685 ], [ -115.1564877, 36.2516904 ], [ -115.1564904, 36.2516904 ], [ -115.1564904, 36.2516931 ], [ -115.1564985, 36.2516931 ], [ -115.1564985, 36.2516958 ], [ -115.1565093, 36.2516958 ], [ -115.1565093, 36.2516931 ], [ -115.156566, 36.2516931 ], [ -115.156566, 36.2516904 ], [ -115.1565687, 36.2516904 ], [ -115.1565687, 36.2516877 ], [ -115.1565714, 36.2516877 ], [ -115.1565714, 36.2516661 ], [ -115.1565741, 36.2516661 ], [ -115.1565741, 36.2516634 ], [ -115.1565876, 36.2516634 ], [ -115.1565876, 36.251766 ], [ -115.1564769, 36.251766 ], [ -115.1564769, 36.2517687 ], [ -115.156466099999989, 36.2517687 ], [ -115.156466099999989, 36.2517714 ], [ -115.1564634, 36.2517714 ], [ -115.1564634, 36.2517741 ] ] ] } },
{ "type": "Feature", "properties": { "value": 255.0 }, "geometry": { "type": "Polygon", "coordinates": [ [ [ -115.1563311, 36.2517633 ], [ -115.1563284, 36.2517633 ], [ -115.1563284, 36.2517606 ], [ -115.1563257, 36.2517606 ], [ -115.1563257, 36.2517579 ], [ -115.1563095, 36.2517579 ], [ -115.1563095, 36.2517552 ], [ -115.1563068, 36.2517552 ], [ -115.1563068, 36.2517525 ], [ -115.1563041, 36.2517525 ], [ -115.1563041, 36.2517498 ], [ -115.1563014, 36.2517498 ], [ -115.1563014, 36.2517471 ], [ -115.1562987, 36.2517471 ], [ -115.1562987, 36.2517444 ], [ -115.156296, 36.2517444 ], [ -115.156296, 36.2517417 ], [ -115.1562933, 36.2517417 ], [ -115.1562933, 36.2517363 ], [ -115.1562906, 36.2517363 ], [ -115.1562906, 36.2517336 ], [ -115.1562879, 36.2517336 ], [ -115.1562879, 36.2517255 ], [ -115.1562852, 36.2517255 ], [ -115.1562852, 36.251712 ], [ -115.1562879, 36.251712 ], [ -115.1562879, 36.2517039 ], [ -115.1562906, 36.2517039 ], [ -115.1562906, 36.2516958 ], [ -115.1562933, 36.2516958 ], [ -115.1562933, 36.2516742 ], [ -115.1563014, 36.2516742 ], [ -115.1563014, 36.2516715 ], [ -115.1563311, 36.2516715 ], [ -115.1563311, 36.251685 ], [ -115.1563338, 36.251685 ], [ -115.1563338, 36.2516958 ], [ -115.1563365, 36.2516958 ], [ -115.1563365, 36.2517471 ], [ -115.1563338, 36.2517471 ], [ -115.1563338, 36.2517606 ], [ -115.1563311, 36.2517606 ], [ -115.1563311, 36.2517633 ] ] ] } },
{ "type": "Feature", "properties": { "value": 255.0 }, "geometry": { "type": "Polygon", "coordinates": [ [ [ -115.1555265, 36.2517174 ], [ -115.1554779, 36.2517174 ], [ -115.1554779, 36.2517147 ], [ -115.1554752, 36.2517147 ], [ -115.1554752, 36.251712 ], [ -115.1554725, 36.251712 ], [ -115.1554725, 36.2516742 ], [ -115.1554752, 36.2516742 ], [ -115.1554752, 36.2516715 ], [ -115.1554779, 36.2516715 ], [ -115.1554779, 36.2516688 ], [ -115.1555238, 36.2516688 ], [ -115.1555238, 36.2516715 ], [ -115.1555292, 36.2516715 ], [ -115.1555292, 36.2516769 ], [ -115.1555319, 36.2516769 ], [ -115.1555319, 36.2516796 ], [ -115.1555346, 36.2516796 ], [ -115.1555346, 36.251712 ], [ -115.1555319, 36.251712 ], [ -115.1555319, 36.2517147 ], [ -115.1555265, 36.2517147 ], [ -115.1555265, 36.2517174 ] ] ] } },
{ "type": "Feature", "properties": { "value": 255.0 }, "geometry": { "type": "Polygon", "coordinates": [ [ [ -115.1561988, 36.2519901 ], [ -115.1560935, 36.2519901 ], [ -115.1560935, 36.2519874 ], [ -115.1560881, 36.2519874 ], [ -115.1560881, 36.2519847 ], [ -115.1560827, 36.2519847 ], [ -115.1560827, 36.251982 ], [ -115.1560611, 36.251982 ], [ -115.1560611, 36.2519793 ], [ -115.1560557, 36.2519793 ], [ -115.1560557, 36.2519766 ], [ -115.156053, 36.2519766 ], [ -115.156053, 36.2519739 ], [ -115.1560503, 36.2519739 ], [ -115.1560503, 36.2519712 ], [ -115.1560476, 36.2519712 ], [ -115.1560476, 36.2519658 ], [ -115.1560449, 36.2519658 ], [ -115.1560449, 36.2519604 ], [ -115.1560422, 36.2519604 ], [ -115.1560422, 36.2519469 ], [ -115.1560395, 36.2519469 ], [ -115.1560395, 36.2519442 ], [ -115.1560422, 36.2519442 ], [ -115.1560422, 36.2519388 ], [ -115.1560449, 36.2519388 ], [ -115.1560449, 36.2519361 ], [ -115.156053, 36.2519361 ], [ -115.156053, 36.2519334 ], [ -115.1560557, 36.2519334 ], [ -115.1560557, 36.2519307 ], [ -115.1560584, 36.2519307 ], [ -115.1560584, 36.251928 ], [ -115.1560611, 36.251928 ], [ -115.1560611, 36.2519253 ], [ -115.1560638, 36.2519253 ], [ -115.1560638, 36.2519199 ], [ -115.1560665, 36.2519199 ], [ -115.1560665, 36.2519172 ], [ -115.1560692, 36.2519172 ], [ -115.1560692, 36.2519118 ], [ -115.1560719, 36.2519118 ], [ -115.1560719, 36.2519091 ], [ -115.1560746, 36.2519091 ], [ -115.1560746, 36.251901 ], [ -115.1560773, 36.251901 ], [ -115.1560773, 36.2518659 ], [ -115.1560746, 36.2518659 ], [ -115.1560746, 36.2518632 ], [ -115.1560476, 36.2518632 ], [ -115.1560476, 36.2518605 ], [ -115.1560422, 36.2518605 ], [ -115.1560422, 36.2518551 ], [ -115.1560395, 36.2518551 ], [ -115.1560395, 36.2518443 ], [ -115.1560368, 36.2518443 ], [ -115.1560368, 36.2518038 ], [ -115.1560395, 36.2518038 ], [ -115.1560395, 36.2518011 ], [ -115.1560422, 36.2518011 ], [ -115.1560422, 36.2517984 ], [ -115.1561151, 36.2517984 ], [ -115.1561151, 36.251793 ], [ -115.1561178, 36.251793 ], [ -115.1561178, 36.2517579 ], [ -115.1561151, 36.2517579 ], [ -115.1561151, 36.2517525 ], [ -115.1561097, 36.2517525 ], [ -115.1561097, 36.2517579 ], [ -115.156107, 36.2517579 ], [ -115.156107, 36.251766 ], [ -115.1561043, 36.251766 ], [ -115.1561043, 36.2517687 ], [ -115.1561016, 36.2517687 ], [ -115.1561016, 36.2517714 ], [ -115.1560611, 36.2517714 ], [ -115.1560611, 36.2517741 ], [ -115.1560368, 36.2517741 ], [ -115.1560368, 36.2517768 ], [ -115.1560071, 36.2517768 ], [ -115.1560071, 36.2517741 ], [ -115.1558937, 36.2517741 ], [ -115.1558937, 36.2517768 ], [ -115.1558829, 36.2517768 ], [ -115.1558829, 36.2517795 ], [ -115.1558775, 36.2517795 ], [ -115.1558775, 36.2517822 ], [ -115.1558613, 36.2517822 ], [ -115.1558613, 36.2517795 ], [ -115.1558478, 36.2517795 ], [ -115.1558478, 36.2517768 ], [ -115.155783, 36.2517768 ], [ -115.155783, 36.2517741 ], [ -115.1557776, 36.2517741 ], [ -115.1557776, 36.2517687 ], [ -115.1557749, 36.2517687 ], [ -115.1557749, 36.2516742 ], [ -115.1557803, 36.2516742 ], [ -115.1557803, 36.2516715 ], [ -115.1558964, 36.2516715 ], [ -115.1558964, 36.2516742 ], [ -115.1559018, 36.2516742 ], [ -115.1559018, 36.2516796 ], [ -115.1559045, 36.2516796 ], [ -115.1559045, 36.2516904 ], [ -115.1559072, 36.2516904 ], [ -115.1559072, 36.2516958 ], [ -115.1559099, 36.2516958 ], [ -115.1559099, 36.2516985 ], [ -115.1559369, 36.2516985 ], [ -115.1559369, 36.2517012 ], [ -115.1559774, 36.2517012 ], [ -115.1559774, 36.2516985 ], [ -115.1559828, 36.2516985 ], [ -115.1559828, 36.2516958 ], [ -115.1559855, 36.2516958 ], [ -115.1559855, 36.2516796 ], [ -115.1559882, 36.2516796 ], [ -115.1559882, 36.2516715 ], [ -115.1559963, 36.2516715 ], [ -115.1559963, 36.2516688 ], [ -115.1561988, 36.2516688 ], [ -115.1561988, 36.2516715 ], [ -115.1562015, 36.2516715 ], [ -115.1562015, 36.2516769 ], [ -115.1562042, 36.2516769 ], [ -115.1562042, 36.2516823 ], [ -115.1562015, 36.2516823 ], [ -115.1562015, 36.2517795 ], [ -115.1562042, 36.2517795 ], [ -115.1562042, 36.2518227 ], [ -115.1562015, 36.2518227 ], [ -115.1562015, 36.2518254 ], [ -115.1561853, 36.2518254 ], [ -115.1561853, 36.2518281 ], [ -115.1561745, 36.2518281 ], [ -115.1561745, 36.2518308 ], [ -115.1561718, 36.2518308 ], [ -115.1561718, 36.2518362 ], [ -115.1561691, 36.2518362 ], [ -115.1561691, 36.2518416 ], [ -115.1561718, 36.2518416 ], [ -115.1561718, 36.2518605 ], [ -115.1561691, 36.2518605 ], [ -115.1561691, 36.2518686 ], [ -115.1561718, 36.2518686 ], [ -115.1561718, 36.2518767 ], [ -115.1561691, 36.2518767 ], [ -115.1561691, 36.2518875 ], [ -115.1561718, 36.2518875 ], [ -115.1561718, 36.2518929 ], [ -115.1561745, 36.2518929 ], [ -115.1561745, 36.2518956 ], [ -115.1561988, 36.2518956 ], [ -115.1561988, 36.2518983 ], [ -115.1562042, 36.2518983 ], [ -115.1562042, 36.251901 ], [ -115.1562069, 36.251901 ], [ -115.1562069, 36.2519766 ], [ -115.1562096, 36.2519766 ], [ -115.1562096, 36.251982 ], [ -115.1562069, 36.251982 ], [ -115.1562069, 36.2519874 ], [ -115.1561988, 36.2519874 ], [ -115.1561988, 36.2519901 ] ] ] } },
{ "type": "Feature", "properties": { "value": 255.0 }, "geometry": { "type": "Polygon", "coordinates": [ [ [ -115.1549325, 36.251685 ], [ -115.154919, 36.251685 ], [ -115.154919, 36.2516823 ], [ -115.1549136, 36.2516823 ], [ -115.1549136, 36.2516796 ], [ -115.1549109, 36.2516796 ], [ -115.1549109, 36.2516661 ], [ -115.1549082, 36.2516661 ], [ -115.1549082, 36.2516607 ], [ -115.1549028, 36.2516607 ], [ -115.1549028, 36.251658 ], [ -115.1548434, 36.251658 ], [ -115.1548434, 36.2516607 ], [ -115.1548326, 36.2516607 ], [ -115.1548326, 36.2515851 ], [ -115.154848800000011, 36.2515851 ], [ -115.154848800000011, 36.2515824 ], [ -115.154905500000012, 36.2515824 ], [ -115.154905500000012, 36.2515797 ], [ -115.1549298, 36.2515797 ], [ -115.1549298, 36.251577 ], [ -115.1549514, 36.251577 ], [ -115.1549514, 36.2515743 ], [ -115.155, 36.2515743 ], [ -115.155, 36.2515716 ], [ -115.1550081, 36.2515716 ], [ -115.1550081, 36.2515743 ], [ -115.155027, 36.2515743 ], [ -115.155027, 36.251577 ], [ -115.1550297, 36.251577 ], [ -115.1550297, 36.2515932 ], [ -115.155027, 36.2515932 ], [ -115.155027, 36.2516796 ], [ -115.1550243, 36.2516796 ], [ -115.1550243, 36.2516823 ], [ -115.1549325, 36.2516823 ], [ -115.1549325, 36.251685 ] ] ] } },
{ "type": "Feature", "properties": { "value": 255.0 }, "geometry": { "type": "Polygon", "coordinates": [ [ [ -115.1564742, 36.2515986 ], [ -115.1563689, 36.2515986 ], [ -115.1563689, 36.2515959 ], [ -115.1563635, 36.2515959 ], [ -115.1563635, 36.2515932 ], [ -115.1563608, 36.2515932 ], [ -115.1563608, 36.2515203 ], [ -115.1563581, 36.2515203 ], [ -115.1563581, 36.2514987 ], [ -115.1563608, 36.2514987 ], [ -115.1563608, 36.251496 ], [ -115.1563662, 36.251496 ], [ -115.1563662, 36.2514933 ], [ -115.156377, 36.2514933 ], [ -115.156377, 36.2514906 ], [ -115.1564418, 36.2514906 ], [ -115.1564418, 36.2514933 ], [ -115.1564607, 36.2514933 ], [ -115.1564607, 36.251496 ], [ -115.1565039, 36.251496 ], [ -115.1565039, 36.2514933 ], [ -115.156566, 36.2514933 ], [ -115.156566, 36.251496 ], [ -115.1565876, 36.251496 ], [ -115.1565876, 36.2515959 ], [ -115.1565741, 36.2515959 ], [ -115.1565741, 36.2515932 ], [ -115.1565714, 36.2515932 ], [ -115.1565714, 36.2515905 ], [ -115.1565687, 36.2515905 ], [ -115.1565687, 36.2515797 ], [ -115.156566, 36.2515797 ], [ -115.156566, 36.2515716 ], [ -115.1565606, 36.2515716 ], [ -115.1565606, 36.2515689 ], [ -115.1565255, 36.2515689 ], [ -115.1565255, 36.2515716 ], [ -115.156485, 36.2515716 ], [ -115.156485, 36.2515743 ], [ -115.1564823, 36.2515743 ], [ -115.1564823, 36.251577 ], [ -115.1564796, 36.251577 ], [ -115.1564796, 36.2515905 ], [ -115.1564769, 36.2515905 ], [ -115.1564769, 36.2515959 ], [ -115.1564742, 36.2515959 ], [ -115.1564742, 36.2515986 ] ] ] } },
{ "type": "Feature", "properties": { "value": 255.0 }, "geometry": { "type": "Polygon", "coordinates": [ [ [ -115.1558856, 36.251604 ], [ -115.155783, 36.251604 ], [ -115.155783, 36.2516013 ], [ -115.1557749, 36.2516013 ], [ -115.1557749, 36.2515986 ], [ -115.1557722, 36.2515986 ], [ -115.1557722, 36.2515959 ], [ -115.1557695, 36.2515959 ], [ -115.1557695, 36.2515635 ], [ -115.1557722, 36.2515635 ], [ -115.1557722, 36.2515014 ], [ -115.1557749, 36.2515014 ], [ -115.1557749, 36.2514987 ], [ -115.1557857, 36.2514987 ], [ -115.1557857, 36.251496 ], [ -115.1558478, 36.251496 ], [ -115.1558478, 36.2514987 ], [ -115.1558775, 36.2514987 ], [ -115.1558775, 36.2515014 ], [ -115.1558964, 36.2515014 ], [ -115.1558964, 36.2515041 ], [ -115.1559153, 36.2515041 ], [ -115.1559153, 36.2515014 ], [ -115.1559207, 36.2515014 ], [ -115.1559207, 36.2515041 ], [ -115.1559936, 36.2515041 ], [ -115.1559936, 36.2515014 ], [ -115.1560071, 36.2515014 ], [ -115.1560071, 36.2514987 ], [ -115.1560179, 36.2514987 ], [ -115.1560179, 36.251496 ], [ -115.1560341, 36.251496 ], [ -115.1560341, 36.2514933 ], [ -115.1560557, 36.2514933 ], [ -115.1560557, 36.2514906 ], [ -115.1560908, 36.2514906 ], [ -115.1560908, 36.2514933 ], [ -115.1560962, 36.2514933 ], [ -115.1560962, 36.251496 ], [ -115.1560989, 36.251496 ], [ -115.1560989, 36.2515203 ], [ -115.1560962, 36.2515203 ], [ -115.1560962, 36.2515284 ], [ -115.1560989, 36.2515284 ], [ -115.1560989, 36.2515365 ], [ -115.1560962, 36.2515365 ], [ -115.1560962, 36.2515473 ], [ -115.1560989, 36.2515473 ], [ -115.1560989, 36.2515932 ], [ -115.1560962, 36.2515932 ], [ -115.1560962, 36.2515959 ], [ -115.1560935, 36.2515959 ], [ -115.1560935, 36.2515986 ], [ -115.1560179, 36.2515986 ], [ -115.1560179, 36.2516013 ], [ -115.1559882, 36.2516013 ], [ -115.1559882, 36.2515986 ], [ -115.1559855, 36.2515986 ], [ -115.1559855, 36.2515932 ], [ -115.1559828, 36.2515932 ], [ -115.1559828, 36.2515824 ], [ -115.1559801, 36.2515824 ], [ -115.1559801, 36.2515797 ], [ -115.1559774, 36.2515797 ], [ -115.1559774, 36.251577 ], [ -115.1558991, 36.251577 ], [ -115.1558991, 36.2515797 ], [ -115.1558937, 36.2515797 ], [ -115.1558937, 36.2515878 ], [ -115.155891, 36.2515878 ], [ -115.155891, 36.2516013 ], [ -115.1558856, 36.2516013 ], [ -115.1558856, 36.251604 ] ] ] } },
{ "type": "Feature", "properties": { "value": 255.0 }, "geometry": { "type": "Polygon", "coordinates": [ [ [ -115.1551215, 36.2516823 ], [ -115.155054, 36.2516823 ], [ -115.155054, 36.2516796 ], [ -115.155051300000011, 36.2516796 ], [ -115.155051300000011, 36.2516769 ], [ -115.1550486, 36.2516769 ], [ -115.1550486, 36.2516715 ], [ -115.1550459, 36.2516715 ], [ -115.1550459, 36.2516283 ], [ -115.1550432, 36.2516283 ], [ -115.1550432, 36.2516067 ], [ -115.1550459, 36.2516067 ], [ -115.1550459, 36.251577 ], [ -115.1550486, 36.251577 ], [ -115.1550486, 36.2515743 ], [ -115.155051300000011, 36.2515743 ], [ -115.155051300000011, 36.2515689 ], [ -115.155054, 36.2515689 ], [ -115.155054, 36.2515635 ], [ -115.155051300000011, 36.2515635 ], [ -115.155051300000011, 36.2515608 ], [ -115.1550486, 36.2515608 ], [ -115.1550486, 36.2515581 ], [ -115.1550432, 36.2515581 ], [ -115.1550432, 36.2515554 ], [ -115.1550162, 36.2515554 ], [ -115.1550162, 36.2515527 ], [ -115.1549784, 36.2515527 ], [ -115.1549784, 36.2515554 ], [ -115.1549703, 36.2515554 ], [ -115.1549703, 36.2515527 ], [ -115.1549622, 36.2515527 ], [ -115.1549622, 36.25155 ], [ -115.1549595, 36.25155 ], [ -115.1549595, 36.2515446 ], [ -115.1549568, 36.2515446 ], [ -115.1549568, 36.251523 ], [ -115.154954100000012, 36.251523 ], [ -115.154954100000012, 36.2515203 ], [ -115.1549514, 36.2515203 ], [ -115.1549514, 36.2515149 ], [ -115.1549487, 36.2515149 ], [ -115.1549487, 36.2515122 ], [ -115.154946, 36.2515122 ], [ -115.154946, 36.2515095 ], [ -115.154935200000011, 36.2515095 ], [ -115.154935200000011, 36.2515122 ], [ -115.1549298, 36.2515122 ], [ -115.1549298, 36.2515095 ], [ -115.1549271, 36.2515095 ], [ -115.1549271, 36.2515041 ], [ -115.1549514, 36.2515041 ], [ -115.1549514, 36.2515014 ], [ -115.1549568, 36.2515014 ], [ -115.1549568, 36.2514987 ], [ -115.1549595, 36.2514987 ], [ -115.1549595, 36.2514933 ], [ -115.1549622, 36.2514933 ], [ -115.1549622, 36.2514879 ], [ -115.15496490000001, 36.2514879 ], [ -115.15496490000001, 36.2514852 ], [ -115.1549676, 36.2514852 ], [ -115.1549676, 36.2514825 ], [ -115.154973, 36.2514825 ], [ -115.154973, 36.2514798 ], [ -115.154983800000011, 36.2514798 ], [ -115.154983800000011, 36.2514771 ], [ -115.1549892, 36.2514771 ], [ -115.1549892, 36.2514717 ], [ -115.1549919, 36.2514717 ], [ -115.1549919, 36.2514447 ], [ -115.1549892, 36.2514447 ], [ -115.1549892, 36.251442 ], [ -115.1549865, 36.251442 ], [ -115.1549865, 36.2514393 ], [ -115.154983800000011, 36.2514393 ], [ -115.154983800000011, 36.2514339 ], [ -115.1549811, 36.2514339 ], [ -115.1549811, 36.2514258 ], [ -115.1549784, 36.2514258 ], [ -115.1549784, 36.2514231 ], [ -115.1549757, 36.2514231 ], [ -115.1549757, 36.2514204 ], [ -115.154973, 36.2514204 ], [ -115.154973, 36.2514177 ], [ -115.1549595, 36.2514177 ], [ -115.1549595, 36.251415 ], [ -115.1549568, 36.251415 ], [ -115.1549568, 36.2514123 ], [ -115.154954100000012, 36.2514123 ], [ -115.154954100000012, 36.2514096 ], [ -115.1549514, 36.2514096 ], [ -115.1549514, 36.2514069 ], [ -115.1549487, 36.2514069 ], [ -115.1549487, 36.2513934 ], [ -115.1549514, 36.2513934 ], [ -115.1549514, 36.2513745 ], [ -115.154954100000012, 36.2513745 ], [ -115.154954100000012, 36.2513718 ], [ -115.1549703, 36.2513718 ], [ -115.1549703, 36.2513691 ], [ -115.155, 36.2513691 ], [ -115.155, 36.2513664 ], [ -115.155002700000011, 36.2513664 ], [ -115.155002700000011, 36.2513637 ], [ -115.1550081, 36.2513637 ], [ -115.1550081, 36.251361 ], [ -115.1550162, 36.251361 ], [ -115.1550162, 36.2513583 ], [ -115.155054, 36.2513583 ], [ -115.155054, 36.251361 ], [ -115.155081, 36.251361 ], [ -115.155081, 36.2513583 ], [ -115.1551134, 36.2513583 ], [ -115.1551134, 36.251361 ], [ -115.155118800000011, 36.251361 ], [ -115.155118800000011, 36.2513664 ], [ -115.1551215, 36.2513664 ], [ -115.1551215, 36.2514555 ], [ -115.155118800000011, 36.2514555 ], [ -115.155118800000011, 36.2514582 ], [ -115.1550972, 36.2514582 ], [ -115.1550972, 36.2514609 ], [ -115.1550891, 36.2514609 ], [ -115.1550891, 36.2514663 ], [ -115.1550864, 36.2514663 ], [ -115.1550864, 36.2514906 ], [ -115.1550891, 36.2514906 ], [ -115.1550891, 36.2514987 ], [ -115.1550918, 36.2514987 ], [ -115.1550918, 36.2515014 ], [ -115.1551107, 36.2515014 ], [ -115.1551107, 36.2515041 ], [ -115.1551134, 36.2515041 ], [ -115.1551134, 36.251523 ], [ -115.1551161, 36.251523 ], [ -115.1551161, 36.2515257 ], [ -115.155118800000011, 36.2515257 ], [ -115.155118800000011, 36.2515284 ], [ -115.1551215, 36.2515284 ], [ -115.1551215, 36.2515311 ], [ -115.1551242, 36.2515311 ], [ -115.1551242, 36.2516715 ], [ -115.1551269, 36.2516715 ], [ -115.1551269, 36.2516742 ], [ -115.1551242, 36.2516742 ], [ -115.1551242, 36.2516796 ], [ -115.1551215, 36.2516796 ], [ -115.1551215, 36.2516823 ] ] ] } },
{ "type": "Feature", "properties": { "value": 255.0 }, "geometry": { "type": "Polygon", "coordinates": [ [ [ -115.1557425, 36.2516067 ], [ -115.1556804, 36.2516067 ], [ -115.1556804, 36.251604 ], [ -115.155675, 36.251604 ], [ -115.155675, 36.2516013 ], [ -115.1556723, 36.2516013 ], [ -115.1556723, 36.2515662 ], [ -115.1556696, 36.2515662 ], [ -115.1556696, 36.2515338 ], [ -115.1556669, 36.2515338 ], [ -115.1556669, 36.2515122 ], [ -115.1556642, 36.2515122 ], [ -115.1556642, 36.2514528 ], [ -115.1556669, 36.2514528 ], [ -115.1556669, 36.2514447 ], [ -115.1556696, 36.2514447 ], [ -115.1556696, 36.2514285 ], [ -115.1556723, 36.2514285 ], [ -115.1556723, 36.2514258 ], [ -115.155675, 36.2514258 ], [ -115.155675, 36.2514231 ], [ -115.1556831, 36.2514231 ], [ -115.1556831, 36.2514204 ], [ -115.1556993, 36.2514204 ], [ -115.1556993, 36.2514231 ], [ -115.1557047, 36.2514231 ], [ -115.1557047, 36.2514204 ], [ -115.1557101, 36.2514204 ], [ -115.1557101, 36.2514069 ], [ -115.1557074, 36.2514069 ], [ -115.1557074, 36.2514015 ], [ -115.1557047, 36.2514015 ], [ -115.1557047, 36.2513934 ], [ -115.155702, 36.2513934 ], [ -115.155702, 36.2513907 ], [ -115.1556885, 36.2513907 ], [ -115.1556885, 36.251388 ], [ -115.1556777, 36.251388 ], [ -115.1556777, 36.2513853 ], [ -115.1556696, 36.2513853 ], [ -115.1556696, 36.2513826 ], [ -115.1556669, 36.2513826 ], [ -115.1556669, 36.2513745 ], [ -115.1556642, 36.2513745 ], [ -115.1556642, 36.2513664 ], [ -115.1556669, 36.2513664 ], [ -115.1556669, 36.251307 ], [ -115.1556642, 36.251307 ], [ -115.1556642, 36.2512989 ], [ -115.1556615, 36.2512989 ], [ -115.1556615, 36.2512935 ], [ -115.1556588, 36.2512935 ], [ -115.1556588, 36.2512908 ], [ -115.1556615, 36.2512908 ], [ -115.1556615, 36.2512881 ], [ -115.1556669, 36.2512881 ], [ -115.1556669, 36.2512854 ], [ -115.1556723, 36.2512854 ], [ -115.1556723, 36.2512827 ], [ -115.1556885, 36.2512827 ], [ -115.1556885, 36.25128 ], [ -115.1557074, 36.25128 ], [ -115.1557074, 36.2512827 ], [ -115.1557479, 36.2512827 ], [ -115.1557479, 36.25128 ], [ -115.1557614, 36.25128 ], [ -115.1557614, 36.2512827 ], [ -115.1557803, 36.2512827 ], [ -115.1557803, 36.2512854 ], [ -115.1557857, 36.2512854 ], [ -115.1557857, 36.2512881 ], [ -115.1557965, 36.2512881 ], [ -115.1557965, 36.2512908 ], [ -115.1558289, 36.2512908 ], [ -115.1558289, 36.2512935 ], [ -115.1558316, 36.2512935 ], [ -115.1558316, 36.2512962 ], [ -115.1558343, 36.2512962 ], [ -115.1558343, 36.251334 ], [ -115.1558316, 36.251334 ], [ -115.1558316, 36.2513367 ], [ -115.1558262, 36.2513367 ], [ -115.1558262, 36.2513394 ], [ -115.1558154, 36.2513394 ], [ -115.1558154, 36.2513421 ], [ -115.1558127, 36.2513421 ], [ -115.1558127, 36.2513502 ], [ -115.15581, 36.2513502 ], [ -115.15581, 36.2513583 ], [ -115.1558073, 36.2513583 ], [ -115.1558073, 36.2513637 ], [ -115.1558046, 36.2513637 ], [ -115.1558046, 36.2513664 ], [ -115.1558019, 36.2513664 ], [ -115.1558019, 36.2513772 ], [ -115.1557992, 36.2513772 ], [ -115.1557992, 36.2514042 ], [ -115.1558019, 36.2514042 ], [ -115.1558019, 36.2514096 ], [ -115.1558127, 36.2514096 ], [ -115.1558127, 36.2514123 ], [ -115.155837, 36.2514123 ], [ -115.155837, 36.251415 ], [ -115.1558397, 36.251415 ], [ -115.1558397, 36.2514204 ], [ -115.1558424, 36.2514204 ], [ -115.1558424, 36.251442 ], [ -115.1558451, 36.251442 ], [ -115.1558451, 36.2514636 ], [ -115.1558424, 36.2514636 ], [ -115.1558424, 36.251469 ], [ -115.155837, 36.251469 ], [ -115.155837, 36.2514717 ], [ -115.1558235, 36.2514717 ], [ -115.1558235, 36.2514744 ], [ -115.1557668, 36.2514744 ], [ -115.1557668, 36.2514771 ], [ -115.1557506, 36.2514771 ], [ -115.1557506, 36.2514798 ], [ -115.1557479, 36.2514798 ], [ -115.1557479, 36.2514825 ], [ -115.1557452, 36.2514825 ], [ -115.1557452, 36.2514906 ], [ -115.1557479, 36.2514906 ], [ -115.1557479, 36.2515824 ], [ -115.1557506, 36.2515824 ], [ -115.1557506, 36.2516013 ], [ -115.1557479, 36.2516013 ], [ -115.1557479, 36.251604 ], [ -115.1557425, 36.251604 ], [ -115.1557425, 36.2516067 ] ] ] } },
{ "type": "Feature", "properties": { "value": 255.0 }, "geometry": { "type": "Polygon", "coordinates": [ [ [ -115.1563284, 36.2516013 ], [ -115.1562663, 36.2516013 ], [ -115.1562663, 36.2515986 ], [ -115.1562609, 36.2515986 ], [ -115.1562609, 36.2515959 ], [ -115.1562582, 36.2515959 ], [ -115.1562582, 36.2515689 ], [ -115.1562555, 36.2515689 ], [ -115.1562555, 36.2514798 ], [ -115.1562528, 36.2514798 ], [ -115.1562528, 36.2514501 ], [ -115.1562555, 36.2514501 ], [ -115.1562555, 36.2514393 ], [ -115.1562582, 36.2514393 ], [ -115.1562582, 36.2514312 ], [ -115.1562555, 36.2514312 ], [ -115.1562555, 36.2514258 ], [ -115.1562582, 36.2514258 ], [ -115.1562582, 36.2514231 ], [ -115.1562609, 36.2514231 ], [ -115.1562609, 36.2514204 ], [ -115.1562825, 36.2514204 ], [ -115.1562825, 36.2514231 ], [ -115.1562933, 36.2514231 ], [ -115.1562933, 36.2514204 ], [ -115.156296, 36.2514204 ], [ -115.156296, 36.2514069 ], [ -115.1562987, 36.2514069 ], [ -115.1562987, 36.2513826 ], [ -115.156296, 36.2513826 ], [ -115.156296, 36.2513799 ], [ -115.1562933, 36.2513799 ], [ -115.1562933, 36.2513772 ], [ -115.1562609, 36.2513772 ], [ -115.1562609, 36.2513745 ], [ -115.1562582, 36.2513745 ], [ -115.1562582, 36.2513718 ], [ -115.1562555, 36.2513718 ], [ -115.1562555, 36.2513259 ], [ -115.1562528, 36.2513259 ], [ -115.1562528, 36.2512881 ], [ -115.1562555, 36.2512881 ], [ -115.1562555, 36.2512773 ], [ -115.1562636, 36.2512773 ], [ -115.1562636, 36.2512746 ], [ -115.1563689, 36.2512746 ], [ -115.1563689, 36.2512773 ], [ -115.1563743, 36.2512773 ], [ -115.1563743, 36.25128 ], [ -115.1563797, 36.25128 ], [ -115.1563797, 36.2512827 ], [ -115.1563878, 36.2512827 ], [ -115.1563878, 36.2512854 ], [ -115.156404, 36.2512854 ], [ -115.156404, 36.2512881 ], [ -115.1564148, 36.2512881 ], [ -115.1564148, 36.2512908 ], [ -115.156417499999989, 36.2512908 ], [ -115.156417499999989, 36.2513016 ], [ -115.1564202, 36.2513016 ], [ -115.1564202, 36.2513286 ], [ -115.156417499999989, 36.2513286 ], [ -115.156417499999989, 36.2513313 ], [ -115.1564094, 36.2513313 ], [ -115.1564094, 36.251334 ], [ -115.1564013, 36.251334 ], [ -115.1564013, 36.2513367 ], [ -115.1563986, 36.2513367 ], [ -115.1563986, 36.2513421 ], [ -115.1563959, 36.2513421 ], [ -115.1563959, 36.2513529 ], [ -115.1563932, 36.2513529 ], [ -115.1563932, 36.2513556 ], [ -115.1563905, 36.2513556 ], [ -115.1563905, 36.2513583 ], [ -115.1563878, 36.2513583 ], [ -115.1563878, 36.251361 ], [ -115.1563851, 36.251361 ], [ -115.1563851, 36.2514042 ], [ -115.1563905, 36.2514042 ], [ -115.1563905, 36.2514069 ], [ -115.1564202, 36.2514069 ], [ -115.1564202, 36.2514096 ], [ -115.1564229, 36.2514096 ], [ -115.1564229, 36.2514123 ], [ -115.1564256, 36.2514123 ], [ -115.1564256, 36.2514231 ], [ -115.1564283, 36.2514231 ], [ -115.1564283, 36.2514393 ], [ -115.156431, 36.2514393 ], [ -115.156431, 36.2514609 ], [ -115.1564283, 36.2514609 ], [ -115.1564283, 36.2514636 ], [ -115.1564229, 36.2514636 ], [ -115.1564229, 36.2514663 ], [ -115.1563986, 36.2514663 ], [ -115.1563986, 36.251469 ], [ -115.1563635, 36.251469 ], [ -115.1563635, 36.2514717 ], [ -115.1563365, 36.2514717 ], [ -115.1563365, 36.2514744 ], [ -115.1563311, 36.2514744 ], [ -115.1563311, 36.2514906 ], [ -115.1563338, 36.2514906 ], [ -115.1563338, 36.2515986 ], [ -115.1563284, 36.2515986 ], [ -115.1563284, 36.2516013 ] ] ] } },
{ "type": "Feature", "properties": { "value": 255.0 }, "geometry": { "type": "Polygon", "coordinates": [ [ [ -115.156188, 36.2516013 ], [ -115.1561367, 36.2516013 ], [ -115.1561367, 36.2515986 ], [ -115.1561286, 36.2515986 ], [ -115.1561286, 36.2515959 ], [ -115.1561259, 36.2515959 ], [ -115.1561259, 36.2515878 ], [ -115.1561232, 36.2515878 ], [ -115.1561232, 36.2515608 ], [ -115.1561205, 36.2515608 ], [ -115.1561205, 36.2514906 ], [ -115.1561232, 36.2514906 ], [ -115.1561232, 36.2514852 ], [ -115.1561259, 36.2514852 ], [ -115.1561259, 36.2514798 ], [ -115.1561232, 36.2514798 ], [ -115.1561232, 36.2514744 ], [ -115.1561178, 36.2514744 ], [ -115.1561178, 36.2514717 ], [ -115.1560935, 36.2514717 ], [ -115.1560935, 36.251469 ], [ -115.1560773, 36.251469 ], [ -115.1560773, 36.2514717 ], [ -115.1560692, 36.2514717 ], [ -115.1560692, 36.251469 ], [ -115.1560368, 36.251469 ], [ -115.1560368, 36.2514663 ], [ -115.1560287, 36.2514663 ], [ -115.1560287, 36.2514609 ], [ -115.156026, 36.2514609 ], [ -115.156026, 36.2514501 ], [ -115.1560287, 36.2514501 ], [ -115.1560287, 36.2514474 ], [ -115.156026, 36.2514474 ], [ -115.156026, 36.2514123 ], [ -115.1560287, 36.2514123 ], [ -115.1560287, 36.2514096 ], [ -115.1560422, 36.2514096 ], [ -115.1560422, 36.2514069 ], [ -115.1560665, 36.2514069 ], [ -115.1560665, 36.2514042 ], [ -115.1560692, 36.2514042 ], [ -115.1560692, 36.2513853 ], [ -115.1560665, 36.2513853 ], [ -115.1560665, 36.251361 ], [ -115.1560638, 36.251361 ], [ -115.1560638, 36.2513583 ], [ -115.1560611, 36.2513583 ], [ -115.1560611, 36.2513556 ], [ -115.1560557, 36.2513556 ], [ -115.1560557, 36.2513502 ], [ -115.156053, 36.2513502 ], [ -115.156053, 36.2513421 ], [ -115.1560503, 36.2513421 ], [ -115.1560503, 36.2513394 ], [ -115.1560476, 36.2513394 ], [ -115.1560476, 36.2513367 ], [ -115.1560449, 36.2513367 ], [ -115.1560449, 36.251334 ], [ -115.1560395, 36.251334 ], [ -115.1560395, 36.2513286 ], [ -115.1560368, 36.2513286 ], [ -115.1560368, 36.2513232 ], [ -115.1560341, 36.2513232 ], [ -115.1560341, 36.2513205 ], [ -115.1560314, 36.2513205 ], [ -115.1560314, 36.2513178 ], [ -115.1560287, 36.2513178 ], [ -115.1560287, 36.2512908 ], [ -115.1560341, 36.2512908 ], [ -115.1560341, 36.2512881 ], [ -115.156053, 36.2512881 ], [ -115.156053, 36.2512854 ], [ -115.1560611, 36.2512854 ], [ -115.1560611, 36.2512827 ], [ -115.1560692, 36.2512827 ], [ -115.1560692, 36.25128 ], [ -115.1560773, 36.25128 ], [ -115.1560773, 36.2512773 ], [ -115.1560854, 36.2512773 ], [ -115.1560854, 36.2512746 ], [ -115.1561853, 36.2512746 ], [ -115.1561853, 36.2512773 ], [ -115.1561934, 36.2512773 ], [ -115.1561934, 36.25128 ], [ -115.1561988, 36.25128 ], [ -115.1561988, 36.2512962 ], [ -115.1561961, 36.2512962 ], [ -115.1561961, 36.2513718 ], [ -115.1561934, 36.2513718 ], [ -115.1561934, 36.2513745 ], [ -115.1561664, 36.2513745 ], [ -115.1561664, 36.2513772 ], [ -115.156161, 36.2513772 ], [ -115.156161, 36.2513853 ], [ -115.1561583, 36.2513853 ], [ -115.1561583, 36.251388 ], [ -115.156161, 36.251388 ], [ -115.156161, 36.251442 ], [ -115.1561637, 36.251442 ], [ -115.1561637, 36.2514447 ], [ -115.1561934, 36.2514447 ], [ -115.1561934, 36.2514474 ], [ -115.1561961, 36.2514474 ], [ -115.1561961, 36.2514501 ], [ -115.1561988, 36.2514501 ], [ -115.1561988, 36.2515959 ], [ -115.1561961, 36.2515959 ], [ -115.1561961, 36.2515986 ], [ -115.156188, 36.2515986 ], [ -115.156188, 36.2516013 ] ] ] } }
]
}
