{
"type": "FeatureCollection",
"crs": { "type": "name", "properties": { "name": "urn:ogc:def:crs:OGC:1.3:CRS84" } },
"features": [
{ "type": "Feature", "properties": { "value": 255.0 }, "geometry": { "type": "Polygon", "coordinates": [ [ [ -115.1536122, 36.2370455999 ], [ -115.1534772, 36.2370455999 ], [ -115.1534772, 36.237042899900004 ], [ -115.1534745, 36.237042899900004 ], [ -115.1534745, 36.237040199900001 ], [ -115.1534718, 36.237040199900001 ], [ -115.1534718, 36.2370212999 ], [ -115.1534691, 36.2370212999 ], [ -115.1534691, 36.236996999900001 ], [ -115.1534718, 36.236996999900001 ], [ -115.1534718, 36.236988899899998 ], [ -115.1534691, 36.236988899899998 ], [ -115.1534691, 36.236983499899999 ], [ -115.1534664, 36.236983499899999 ], [ -115.1534664, 36.236980799900003 ], [ -115.153461, 36.236980799900003 ], [ -115.153461, 36.2369780999 ], [ -115.1534502, 36.2369780999 ], [ -115.1534502, 36.236983499899999 ], [ -115.1534421, 36.236983499899999 ], [ -115.1534421, 36.236980799900003 ], [ -115.153439400000011, 36.236980799900003 ], [ -115.153439400000011, 36.236961899900002 ], [ -115.1534367, 36.236961899900002 ], [ -115.1534367, 36.2369294999 ], [ -115.153439400000011, 36.2369294999 ], [ -115.153439400000011, 36.236926799899997 ], [ -115.1534421, 36.236926799899997 ], [ -115.1534421, 36.236924099900001 ], [ -115.1534475, 36.236924099900001 ], [ -115.1534475, 36.236921399899998 ], [ -115.1534502, 36.236921399899998 ], [ -115.1534502, 36.236926799899997 ], [ -115.1534529, 36.236926799899997 ], [ -115.1534529, 36.236924099900001 ], [ -115.1534583, 36.236924099900001 ], [ -115.1534583, 36.236921399899998 ], [ -115.1535339, 36.236921399899998 ], [ -115.1535339, 36.236924099900001 ], [ -115.153542, 36.236924099900001 ], [ -115.153542, 36.236926799899997 ], [ -115.1535447, 36.236926799899997 ], [ -115.1535447, 36.2369294999 ], [ -115.1535474, 36.2369294999 ], [ -115.1535474, 36.2369348999 ], [ -115.1535501, 36.2369348999 ], [ -115.1535501, 36.236940299899999 ], [ -115.1535528, 36.236940299899999 ], [ -115.1535528, 36.236942999900002 ], [ -115.15355550000001, 36.236942999900002 ], [ -115.15355550000001, 36.236945699899998 ], [ -115.1536068, 36.236945699899998 ], [ -115.1536068, 36.236948399900001 ], [ -115.1536095, 36.236948399900001 ], [ -115.1536095, 36.236951099900004 ], [ -115.1536122, 36.236951099900004 ], [ -115.1536122, 36.236972699900001 ], [ -115.1536149, 36.236972699900001 ], [ -115.1536149, 36.237042899900004 ], [ -115.1536122, 36.237042899900004 ], [ -115.1536122, 36.2370455999 ] ] ] } },
{ "type": "Feature", "properties": { "value": 255.0 }, "geometry": { "type": "Polygon", "coordinates": [ [ [ -115.1537553, 36.2370887999 ], [ -115.1537148, 36.2370887999 ], [ -115.1537148, 36.237086099900004 ], [ -115.1536878, 36.237086099900004 ], [ -115.1536878, 36.237083399900001 ], [ -115.1536743, 36.237083399900001 ], [ -115.1536743, 36.237080699899998 ], [ -115.1536689, 36.237080699899998 ], [ -115.1536689, 36.237077999900002 ], [ -115.1536662, 36.237077999900002 ], [ -115.1536662, 36.237075299899999 ], [ -115.1536635, 36.237075299899999 ], [ -115.1536635, 36.237067199900004 ], [ -115.1536662, 36.237067199900004 ], [ -115.1536662, 36.237015899900001 ], [ -115.1536635, 36.237015899900001 ], [ -115.1536635, 36.2369348999 ], [ -115.1536608, 36.2369348999 ], [ -115.1536608, 36.236921399899998 ], [ -115.1536635, 36.236921399899998 ], [ -115.1536635, 36.236918699900002 ], [ -115.1536662, 36.236918699900002 ], [ -115.1536662, 36.236915999899999 ], [ -115.1536743, 36.236915999899999 ], [ -115.1536743, 36.236913299900003 ], [ -115.1536932, 36.236913299900003 ], [ -115.1536932, 36.2369105999 ], [ -115.1537256, 36.2369105999 ], [ -115.1537256, 36.236913299900003 ], [ -115.1537418, 36.236913299900003 ], [ -115.1537418, 36.236915999899999 ], [ -115.1538039, 36.236915999899999 ], [ -115.1538039, 36.236918699900002 ], [ -115.15380660000001, 36.236918699900002 ], [ -115.15380660000001, 36.236924099900001 ], [ -115.1538093, 36.236924099900001 ], [ -115.1538093, 36.237080699899998 ], [ -115.1538039, 36.237080699899998 ], [ -115.1538039, 36.237083399900001 ], [ -115.1537877, 36.237083399900001 ], [ -115.1537877, 36.237086099900004 ], [ -115.1537553, 36.237086099900004 ], [ -115.1537553, 36.2370887999 ] ] ] } },
{ "type": "Feature", "properties": { "value": 255.0 }, "geometry": { "type": "Polygon", "coordinates": [ [ [ -115.154325, 36.237096899900003 ], [ -115.1543196, 36.237096899900003 ], [ -115.1543196, 36.2370941999 ], [ -115.1542872, 36.2370941999 ], [ -115.1542872, 36.2370887999 ], [ -115.1542845, 36.2370887999 ], [ -115.1542845, 36.237075299899999 ], [ -115.1542818, 36.237075299899999 ], [ -115.1542818, 36.236983499899999 ], [ -115.154279100000011, 36.236983499899999 ], [ -115.154279100000011, 36.236980799900003 ], [ -115.1542737, 36.236980799900003 ], [ -115.1542737, 36.2369780999 ], [ -115.1542656, 36.2369780999 ], [ -115.1542656, 36.236980799900003 ], [ -115.1542521, 36.236980799900003 ], [ -115.1542521, 36.2369780999 ], [ -115.154249400000012, 36.2369780999 ], [ -115.154249400000012, 36.236975399900004 ], [ -115.1542467, 36.236975399900004 ], [ -115.1542467, 36.236956499900003 ], [ -115.154244, 36.236956499900003 ], [ -115.154244, 36.236926799899997 ], [ -115.1542467, 36.236926799899997 ], [ -115.1542467, 36.236921399899998 ], [ -115.154249400000012, 36.236921399899998 ], [ -115.154249400000012, 36.236918699900002 ], [ -115.1542656, 36.236918699900002 ], [ -115.1542656, 36.236915999899999 ], [ -115.1542818, 36.236915999899999 ], [ -115.1542818, 36.236913299900003 ], [ -115.1543493, 36.236913299900003 ], [ -115.1543493, 36.236915999899999 ], [ -115.154352, 36.236915999899999 ], [ -115.154352, 36.236918699900002 ], [ -115.1543547, 36.236918699900002 ], [ -115.1543547, 36.236921399899998 ], [ -115.1543574, 36.236921399899998 ], [ -115.1543574, 36.236924099900001 ], [ -115.1543601, 36.236924099900001 ], [ -115.1543601, 36.236926799899997 ], [ -115.1543628, 36.236926799899997 ], [ -115.1543628, 36.2369294999 ], [ -115.1543709, 36.2369294999 ], [ -115.1543709, 36.236932199900004 ], [ -115.154379, 36.236932199900004 ], [ -115.154379, 36.2369348999 ], [ -115.1543871, 36.2369348999 ], [ -115.1543871, 36.236937599900003 ], [ -115.15439520000001, 36.236937599900003 ], [ -115.15439520000001, 36.2369348999 ], [ -115.1544195, 36.2369348999 ], [ -115.1544195, 36.236937599900003 ], [ -115.1544222, 36.236937599900003 ], [ -115.1544222, 36.236948399900001 ], [ -115.1544249, 36.236948399900001 ], [ -115.1544249, 36.2370698999 ], [ -115.1544222, 36.2370698999 ], [ -115.1544222, 36.237072599900003 ], [ -115.1544033, 36.237072599900003 ], [ -115.1544033, 36.237075299899999 ], [ -115.1543439, 36.237075299899999 ], [ -115.1543439, 36.237077999900002 ], [ -115.1543412, 36.237077999900002 ], [ -115.1543412, 36.2370887999 ], [ -115.1543385, 36.2370887999 ], [ -115.1543385, 36.2370941999 ], [ -115.154325, 36.2370941999 ], [ -115.154325, 36.237096899900003 ] ] ] } },
{ "type": "Feature", "properties": { "value": 255.0 }, "geometry": { "type": "Polygon", "coordinates": [ [ [ -115.1540172, 36.2370698999 ], [ -115.1538849, 36.2370698999 ], [ -115.1538849, 36.237067199900004 ], [ -115.1538822, 36.237067199900004 ], [ -115.1538822, 36.237064499900001 ], [ -115.1538795, 36.237064499900001 ], [ -115.1538795, 36.237056399899998 ], [ -115.1538768, 36.237056399899998 ], [ -115.1538768, 36.237010499900002 ], [ -115.15387410000001, 36.237010499900002 ], [ -115.15387410000001, 36.237007799899999 ], [ -115.1538768, 36.237007799899999 ], [ -115.1538768, 36.236991599900001 ], [ -115.15387410000001, 36.236991599900001 ], [ -115.15387410000001, 36.236988899899998 ], [ -115.1538687, 36.236988899899998 ], [ -115.1538687, 36.236986199900002 ], [ -115.1538633, 36.236986199900002 ], [ -115.1538633, 36.236988899899998 ], [ -115.1538471, 36.236988899899998 ], [ -115.1538471, 36.236986199900002 ], [ -115.1538417, 36.236986199900002 ], [ -115.1538417, 36.236980799900003 ], [ -115.153839, 36.236980799900003 ], [ -115.153839, 36.236969999899998 ], [ -115.1538363, 36.236969999899998 ], [ -115.1538363, 36.236945699899998 ], [ -115.153839, 36.236945699899998 ], [ -115.153839, 36.236932199900004 ], [ -115.1538363, 36.236932199900004 ], [ -115.1538363, 36.236926799899997 ], [ -115.153839, 36.236926799899997 ], [ -115.153839, 36.236921399899998 ], [ -115.1538417, 36.236921399899998 ], [ -115.1538417, 36.236918699900002 ], [ -115.1538687, 36.236918699900002 ], [ -115.1538687, 36.236921399899998 ], [ -115.1538903, 36.236921399899998 ], [ -115.1538903, 36.236924099900001 ], [ -115.1539443, 36.236924099900001 ], [ -115.1539443, 36.236926799899997 ], [ -115.153947, 36.236926799899997 ], [ -115.153947, 36.2369294999 ], [ -115.1539497, 36.2369294999 ], [ -115.1539497, 36.2369348999 ], [ -115.1539524, 36.2369348999 ], [ -115.1539524, 36.236940299899999 ], [ -115.1539551, 36.236940299899999 ], [ -115.1539551, 36.236942999900002 ], [ -115.1539578, 36.236942999900002 ], [ -115.1539578, 36.236945699899998 ], [ -115.153960500000011, 36.236945699899998 ], [ -115.153960500000011, 36.236948399900001 ], [ -115.1539767, 36.236948399900001 ], [ -115.1539767, 36.236951099900004 ], [ -115.1539821, 36.236951099900004 ], [ -115.1539821, 36.2369537999 ], [ -115.1539875, 36.2369537999 ], [ -115.1539875, 36.236956499900003 ], [ -115.1539929, 36.236956499900003 ], [ -115.1539929, 36.236959199899999 ], [ -115.1540118, 36.236959199899999 ], [ -115.1540118, 36.236961899900002 ], [ -115.1540145, 36.236961899900002 ], [ -115.1540145, 36.236967299900002 ], [ -115.1540172, 36.236967299900002 ], [ -115.1540172, 36.237007799899999 ], [ -115.1540199, 36.237007799899999 ], [ -115.1540199, 36.237067199900004 ], [ -115.1540172, 36.237067199900004 ], [ -115.1540172, 36.2370698999 ] ] ] } },
{ "type": "Feature", "properties": { "value": 255.0 }, "geometry": { "type": "Polygon", "coordinates": [ [ [ -115.1533692, 36.237107699900001 ], [ -115.1533287, 36.237107699900001 ], [ -115.1533287, 36.237099599899999 ], [ -115.153326, 36.237099599899999 ], [ -115.153326, 36.237086099900004 ], [ -115.1533233, 36.237086099900004 ], [ -115.1533233, 36.237083399900001 ], [ -115.1533206, 36.237083399900001 ], [ -115.1533206, 36.237080699899998 ], [ -115.1533152, 36.237080699899998 ], [ -115.1533152, 36.237077999900002 ], [ -115.1533017, 36.237077999900002 ], [ -115.1533017, 36.237080699899998 ], [ -115.1532612, 36.237080699899998 ], [ -115.1532612, 36.237077999900002 ], [ -115.1532396, 36.237077999900002 ], [ -115.1532396, 36.237075299899999 ], [ -115.1532342, 36.237075299899999 ], [ -115.1532342, 36.2370698999 ], [ -115.1532315, 36.2370698999 ], [ -115.1532315, 36.237037499899998 ], [ -115.1532342, 36.237037499899998 ], [ -115.1532342, 36.237005099900003 ], [ -115.15323690000001, 36.237005099900003 ], [ -115.15323690000001, 36.236961899900002 ], [ -115.1532342, 36.236961899900002 ], [ -115.1532342, 36.2369537999 ], [ -115.15323690000001, 36.2369537999 ], [ -115.15323690000001, 36.236945699899998 ], [ -115.1532396, 36.236945699899998 ], [ -115.1532396, 36.236942999900002 ], [ -115.1532423, 36.236942999900002 ], [ -115.1532423, 36.236940299899999 ], [ -115.1532477, 36.236940299899999 ], [ -115.1532477, 36.236937599900003 ], [ -115.1532585, 36.236937599900003 ], [ -115.1532585, 36.2369348999 ], [ -115.1532666, 36.2369348999 ], [ -115.1532666, 36.236932199900004 ], [ -115.153272, 36.236932199900004 ], [ -115.153272, 36.2369294999 ], [ -115.1532801, 36.2369294999 ], [ -115.1532801, 36.236926799899997 ], [ -115.1532882, 36.236926799899997 ], [ -115.1532882, 36.236924099900001 ], [ -115.1532936, 36.236924099900001 ], [ -115.1532936, 36.236921399899998 ], [ -115.1532963, 36.236921399899998 ], [ -115.1532963, 36.236918699900002 ], [ -115.1533611, 36.236918699900002 ], [ -115.1533611, 36.236921399899998 ], [ -115.1533989, 36.236921399899998 ], [ -115.1533989, 36.236924099900001 ], [ -115.1534016, 36.236924099900001 ], [ -115.1534016, 36.236926799899997 ], [ -115.1534043, 36.236926799899997 ], [ -115.1534043, 36.236980799900003 ], [ -115.1534016, 36.236980799900003 ], [ -115.1534016, 36.236983499899999 ], [ -115.1533962, 36.236983499899999 ], [ -115.1533962, 36.236986199900002 ], [ -115.1533881, 36.236986199900002 ], [ -115.1533881, 36.236983499899999 ], [ -115.1533827, 36.236983499899999 ], [ -115.1533827, 36.236986199900002 ], [ -115.15338, 36.236986199900002 ], [ -115.15338, 36.236991599900001 ], [ -115.1533773, 36.236991599900001 ], [ -115.1533773, 36.237048299900003 ], [ -115.1533746, 36.237048299900003 ], [ -115.1533746, 36.2370887999 ], [ -115.15337190000001, 36.2370887999 ], [ -115.15337190000001, 36.237102299900002 ], [ -115.1533692, 36.237102299900002 ], [ -115.1533692, 36.237107699900001 ] ] ] } },
{ "type": "Feature", "properties": { "value": 255.0 }, "geometry": { "type": "Polygon", "coordinates": [ [ [ -115.1545923, 36.237048299900003 ], [ -115.15446, 36.237048299900003 ], [ -115.15446, 36.237040199900001 ], [ -115.1544573, 36.237040199900001 ], [ -115.1544573, 36.237034799900002 ], [ -115.1544546, 36.237034799900002 ], [ -115.1544546, 36.236942999900002 ], [ -115.1544573, 36.236942999900002 ], [ -115.1544573, 36.236940299899999 ], [ -115.15446, 36.236940299899999 ], [ -115.15446, 36.2369348999 ], [ -115.1544735, 36.2369348999 ], [ -115.1544735, 36.236932199900004 ], [ -115.154481600000011, 36.236932199900004 ], [ -115.154481600000011, 36.2369294999 ], [ -115.1544924, 36.2369294999 ], [ -115.1544924, 36.236926799899997 ], [ -115.154514, 36.236926799899997 ], [ -115.154514, 36.236924099900001 ], [ -115.1545167, 36.236924099900001 ], [ -115.1545167, 36.236921399899998 ], [ -115.154519400000012, 36.236921399899998 ], [ -115.154519400000012, 36.236907899900004 ], [ -115.1545221, 36.236907899900004 ], [ -115.1545221, 36.236902499899998 ], [ -115.1545896, 36.236902499899998 ], [ -115.1545896, 36.236905199900001 ], [ -115.1546058, 36.236905199900001 ], [ -115.1546058, 36.236907899900004 ], [ -115.1546139, 36.236907899900004 ], [ -115.1546139, 36.2369105999 ], [ -115.154616600000011, 36.2369105999 ], [ -115.154616600000011, 36.236913299900003 ], [ -115.1546193, 36.236913299900003 ], [ -115.1546193, 36.236918699900002 ], [ -115.154622, 36.236918699900002 ], [ -115.154622, 36.236926799899997 ], [ -115.1546247, 36.236926799899997 ], [ -115.1546247, 36.236956499900003 ], [ -115.154622, 36.236956499900003 ], [ -115.154622, 36.236959199899999 ], [ -115.154616600000011, 36.236959199899999 ], [ -115.154616600000011, 36.236956499900003 ], [ -115.1546085, 36.236956499900003 ], [ -115.1546085, 36.2369537999 ], [ -115.1546058, 36.2369537999 ], [ -115.1546058, 36.236951099900004 ], [ -115.1546004, 36.236951099900004 ], [ -115.1546004, 36.236959199899999 ], [ -115.154597700000011, 36.236959199899999 ], [ -115.154597700000011, 36.237040199900001 ], [ -115.154595, 36.237040199900001 ], [ -115.154595, 36.2370455999 ], [ -115.1545923, 36.2370455999 ], [ -115.1545923, 36.237048299900003 ] ] ] } },
{ "type": "Feature", "properties": { "value": 255.0 }, "geometry": { "type": "Polygon", "coordinates": [ [ [ -115.1541873, 36.2370455999 ], [ -115.1540523, 36.2370455999 ], [ -115.1540523, 36.237042899900004 ], [ -115.1540496, 36.237042899900004 ], [ -115.1540496, 36.237040199900001 ], [ -115.154046900000012, 36.237040199900001 ], [ -115.154046900000012, 36.237037499899998 ], [ -115.1540442, 36.237037499899998 ], [ -115.1540442, 36.237034799900002 ], [ -115.1540415, 36.237034799900002 ], [ -115.1540415, 36.237029399900003 ], [ -115.1540388, 36.237029399900003 ], [ -115.1540388, 36.237013199899998 ], [ -115.1540361, 36.237013199899998 ], [ -115.1540361, 36.236983499899999 ], [ -115.1540388, 36.236983499899999 ], [ -115.1540388, 36.236956499900003 ], [ -115.1540415, 36.236956499900003 ], [ -115.1540415, 36.236945699899998 ], [ -115.1540442, 36.236945699899998 ], [ -115.1540442, 36.236942999900002 ], [ -115.1540874, 36.236942999900002 ], [ -115.1540874, 36.236940299899999 ], [ -115.1540982, 36.236940299899999 ], [ -115.1540982, 36.236937599900003 ], [ -115.1541036, 36.236937599900003 ], [ -115.1541036, 36.236932199900004 ], [ -115.1541063, 36.236932199900004 ], [ -115.1541063, 36.236926799899997 ], [ -115.154109, 36.236926799899997 ], [ -115.154109, 36.236924099900001 ], [ -115.1541117, 36.236924099900001 ], [ -115.1541117, 36.236921399899998 ], [ -115.1541981, 36.236921399899998 ], [ -115.1541981, 36.236918699900002 ], [ -115.1542143, 36.236918699900002 ], [ -115.1542143, 36.236921399899998 ], [ -115.1542197, 36.236921399899998 ], [ -115.1542197, 36.2369294999 ], [ -115.1542224, 36.2369294999 ], [ -115.1542224, 36.236937599900003 ], [ -115.1542197, 36.236937599900003 ], [ -115.1542197, 36.2369780999 ], [ -115.154217, 36.2369780999 ], [ -115.154217, 36.236980799900003 ], [ -115.1541954, 36.236980799900003 ], [ -115.1541954, 36.236983499899999 ], [ -115.15419270000001, 36.236983499899999 ], [ -115.15419270000001, 36.236986199900002 ], [ -115.15419, 36.236986199900002 ], [ -115.15419, 36.237040199900001 ], [ -115.1541873, 36.237040199900001 ], [ -115.1541873, 36.2370455999 ] ] ] } },
{ "type": "Feature", "properties": { "value": 255.0 }, "geometry": { "type": "Polygon", "coordinates": [ [ [ -115.1547462, 36.237064499900001 ], [ -115.1546976, 36.237064499900001 ], [ -115.1546976, 36.237061799899998 ], [ -115.15469490000001, 36.237061799899998 ], [ -115.15469490000001, 36.237059099900002 ], [ -115.1546922, 36.237059099900002 ], [ -115.1546922, 36.237023999900003 ], [ -115.1546895, 36.237023999900003 ], [ -115.1546895, 36.2369537999 ], [ -115.1546868, 36.2369537999 ], [ -115.1546868, 36.236951099900004 ], [ -115.1546814, 36.236951099900004 ], [ -115.1546814, 36.236948399900001 ], [ -115.1546598, 36.236948399900001 ], [ -115.1546598, 36.236945699899998 ], [ -115.1546571, 36.236945699899998 ], [ -115.1546571, 36.236932199900004 ], [ -115.154654400000013, 36.236932199900004 ], [ -115.154654400000013, 36.236899799900002 ], [ -115.1546571, 36.236899799900002 ], [ -115.1546571, 36.236888999900003 ], [ -115.1546598, 36.236888999900003 ], [ -115.1546598, 36.2368862999 ], [ -115.154665200000011, 36.2368862999 ], [ -115.154665200000011, 36.236883599900004 ], [ -115.1546868, 36.236883599900004 ], [ -115.1546868, 36.236880899900001 ], [ -115.15469490000001, 36.236880899900001 ], [ -115.15469490000001, 36.236883599900004 ], [ -115.154757, 36.236883599900004 ], [ -115.154757, 36.2368862999 ], [ -115.1547678, 36.2368862999 ], [ -115.1547678, 36.236888999900003 ], [ -115.15478130000001, 36.236888999900003 ], [ -115.15478130000001, 36.236891699899999 ], [ -115.1547948, 36.236891699899999 ], [ -115.1547948, 36.236894399900002 ], [ -115.154800200000011, 36.236894399900002 ], [ -115.154800200000011, 36.236897099899998 ], [ -115.1548029, 36.236897099899998 ], [ -115.1548029, 36.236899799900002 ], [ -115.154811, 36.236899799900002 ], [ -115.154811, 36.236902499899998 ], [ -115.1548137, 36.236902499899998 ], [ -115.1548137, 36.236899799900002 ], [ -115.1548245, 36.236899799900002 ], [ -115.1548245, 36.236902499899998 ], [ -115.1548326, 36.236902499899998 ], [ -115.1548326, 36.237042899900004 ], [ -115.15482990000001, 36.237042899900004 ], [ -115.15482990000001, 36.237040199900001 ], [ -115.1548245, 36.237040199900001 ], [ -115.1548245, 36.237042899900004 ], [ -115.1547651, 36.237042899900004 ], [ -115.1547651, 36.2370455999 ], [ -115.1547543, 36.2370455999 ], [ -115.1547543, 36.237048299900003 ], [ -115.154751600000012, 36.237048299900003 ], [ -115.154751600000012, 36.237050999899999 ], [ -115.1547489, 36.237050999899999 ], [ -115.1547489, 36.237061799899998 ], [ -115.1547462, 36.237061799899998 ], [ -115.1547462, 36.237064499900001 ] ] ] } },
{ "type": "Feature", "properties": { "value": 255.0 }, "geometry": { "type": "Polygon", "coordinates": [ [ [ -115.1533908, 36.236640599899999 ], [ -115.1533854, 36.236640599899999 ], [ -115.1533854, 36.236637899900003 ], [ -115.1533827, 36.236637899900003 ], [ -115.1533827, 36.236610899900001 ], [ -115.1533854, 36.236610899900001 ], [ -115.1533854, 36.236608199899997 ], [ -115.1533881, 36.236608199899997 ], [ -115.1533881, 36.236610899900001 ], [ -115.1533908, 36.236610899900001 ], [ -115.1533908, 36.236613599900004 ], [ -115.1533935, 36.236613599900004 ], [ -115.1533935, 36.236618999900003 ], [ -115.1533962, 36.236618999900003 ], [ -115.1533962, 36.2366351999 ], [ -115.1533935, 36.2366351999 ], [ -115.1533935, 36.236637899900003 ], [ -115.1533908, 36.236637899900003 ], [ -115.1533908, 36.236640599899999 ] ] ] } },
{ "type": "Feature", "properties": { "value": 255.0 }, "geometry": { "type": "Polygon", "coordinates": [ [ [ -115.1537985, 36.2366351999 ], [ -115.1537931, 36.2366351999 ], [ -115.1537931, 36.236632499899997 ], [ -115.1537904, 36.236632499899997 ], [ -115.1537904, 36.236627099899998 ], [ -115.1537877, 36.236627099899998 ], [ -115.1537877, 36.236618999900003 ], [ -115.1537904, 36.236618999900003 ], [ -115.1537904, 36.2366162999 ], [ -115.1537931, 36.2366162999 ], [ -115.1537931, 36.236613599900004 ], [ -115.1537958, 36.236613599900004 ], [ -115.1537958, 36.2366162999 ], [ -115.1537985, 36.2366162999 ], [ -115.1537985, 36.236618999900003 ], [ -115.1538012, 36.236618999900003 ], [ -115.1538012, 36.236632499899997 ], [ -115.1537985, 36.236632499899997 ], [ -115.1537985, 36.2366351999 ] ] ] } },
{ "type": "Feature", "properties": { "value": 255.0 }, "geometry": { "type": "Polygon", "coordinates": [ [ [ -115.1539335, 36.236681099900004 ], [ -115.1538795, 36.236681099900004 ], [ -115.1538795, 36.236678399900001 ], [ -115.15387410000001, 36.236678399900001 ], [ -115.15387410000001, 36.236675699899997 ], [ -115.1538714, 36.236675699899997 ], [ -115.1538714, 36.236672999900001 ], [ -115.1538687, 36.236672999900001 ], [ -115.1538687, 36.236670299899998 ], [ -115.1538579, 36.236670299899998 ], [ -115.1538579, 36.236667599900002 ], [ -115.1538309, 36.236667599900002 ], [ -115.1538309, 36.236664899899999 ], [ -115.1538282, 36.236664899899999 ], [ -115.1538282, 36.236662199900003 ], [ -115.153825500000011, 36.236662199900003 ], [ -115.153825500000011, 36.2366594999 ], [ -115.1538228, 36.2366594999 ], [ -115.1538228, 36.236654099900001 ], [ -115.1538201, 36.236654099900001 ], [ -115.1538201, 36.236621699899999 ], [ -115.1538228, 36.236621699899999 ], [ -115.1538228, 36.236602799899998 ], [ -115.153825500000011, 36.236602799899998 ], [ -115.153825500000011, 36.2365919999 ], [ -115.1538282, 36.2365919999 ], [ -115.1538282, 36.236564999899997 ], [ -115.1538309, 36.236564999899997 ], [ -115.1538309, 36.236554199899999 ], [ -115.1538363, 36.236554199899999 ], [ -115.1538363, 36.236551499900003 ], [ -115.1538417, 36.236551499900003 ], [ -115.1538417, 36.2365487999 ], [ -115.1538498, 36.2365487999 ], [ -115.1538498, 36.236546099900004 ], [ -115.15387410000001, 36.236546099900004 ], [ -115.15387410000001, 36.2365487999 ], [ -115.1538876, 36.2365487999 ], [ -115.1538876, 36.236551499900003 ], [ -115.1539983, 36.236551499900003 ], [ -115.1539983, 36.2365487999 ], [ -115.1540064, 36.2365487999 ], [ -115.1540064, 36.236551499900003 ], [ -115.1540118, 36.236551499900003 ], [ -115.1540118, 36.236559599899998 ], [ -115.1540145, 36.236559599899998 ], [ -115.1540145, 36.236643299900003 ], [ -115.1540118, 36.236643299900003 ], [ -115.1540118, 36.236654099900001 ], [ -115.15400910000001, 36.236654099900001 ], [ -115.15400910000001, 36.236656799899997 ], [ -115.1539497, 36.236656799899997 ], [ -115.1539497, 36.2366594999 ], [ -115.153947, 36.2366594999 ], [ -115.153947, 36.236675699899997 ], [ -115.1539443, 36.236675699899997 ], [ -115.1539443, 36.236678399900001 ], [ -115.1539335, 36.236678399900001 ], [ -115.1539335, 36.236681099900004 ] ] ] } },
{ "type": "Feature", "properties": { "value": 255.0 }, "geometry": { "type": "Polygon", "coordinates": [ [ [ -115.1544249, 36.236689199899999 ], [ -115.1544114, 36.236689199899999 ], [ -115.1544114, 36.236686499900003 ], [ -115.154352, 36.236686499900003 ], [ -115.154352, 36.236689199899999 ], [ -115.1543115, 36.236689199899999 ], [ -115.1543115, 36.236686499900003 ], [ -115.1543061, 36.236686499900003 ], [ -115.1543061, 36.2366837999 ], [ -115.1543034, 36.2366837999 ], [ -115.1543034, 36.236678399900001 ], [ -115.1543007, 36.236678399900001 ], [ -115.1543007, 36.236662199900003 ], [ -115.1543034, 36.236662199900003 ], [ -115.1543034, 36.236651399899998 ], [ -115.1543061, 36.236651399899998 ], [ -115.1543061, 36.236640599899999 ], [ -115.1543034, 36.236640599899999 ], [ -115.1543034, 36.236637899900003 ], [ -115.1542953, 36.236637899900003 ], [ -115.1542953, 36.2366351999 ], [ -115.1542818, 36.2366351999 ], [ -115.1542818, 36.236632499899997 ], [ -115.154279100000011, 36.236632499899997 ], [ -115.154279100000011, 36.236627099899998 ], [ -115.1542764, 36.236627099899998 ], [ -115.1542764, 36.236594699900003 ], [ -115.1542737, 36.236594699900003 ], [ -115.1542737, 36.236575799900002 ], [ -115.1542764, 36.236575799900002 ], [ -115.1542764, 36.236573099899999 ], [ -115.154279100000011, 36.236573099899999 ], [ -115.154279100000011, 36.236546099900004 ], [ -115.1542818, 36.236546099900004 ], [ -115.1542818, 36.2365433999 ], [ -115.1543061, 36.2365433999 ], [ -115.1543061, 36.236546099900004 ], [ -115.154316900000012, 36.236546099900004 ], [ -115.154316900000012, 36.2365487999 ], [ -115.1543196, 36.2365487999 ], [ -115.1543196, 36.236551499900003 ], [ -115.154316900000012, 36.236551499900003 ], [ -115.154316900000012, 36.236554199899999 ], [ -115.1543142, 36.236554199899999 ], [ -115.1543142, 36.236556899900002 ], [ -115.1543115, 36.236556899900002 ], [ -115.1543115, 36.236559599899998 ], [ -115.1543061, 36.236559599899998 ], [ -115.1543061, 36.236562299900001 ], [ -115.1543034, 36.236562299900001 ], [ -115.1543034, 36.236564999899997 ], [ -115.1543007, 36.236564999899997 ], [ -115.1543007, 36.236570399900003 ], [ -115.1543061, 36.236570399900003 ], [ -115.1543061, 36.236573099899999 ], [ -115.154316900000012, 36.236573099899999 ], [ -115.154316900000012, 36.236575799900002 ], [ -115.15437630000001, 36.236575799900002 ], [ -115.15437630000001, 36.236573099899999 ], [ -115.1544168, 36.236573099899999 ], [ -115.1544168, 36.236575799900002 ], [ -115.1544222, 36.236575799900002 ], [ -115.1544222, 36.236578499899998 ], [ -115.1544249, 36.236578499899998 ], [ -115.1544249, 36.236583899899998 ], [ -115.1544276, 36.236583899899998 ], [ -115.1544276, 36.236686499900003 ], [ -115.1544249, 36.236686499900003 ], [ -115.1544249, 36.236689199899999 ] ] ] } },
{ "type": "Feature", "properties": { "value": 255.0 }, "geometry": { "type": "Polygon", "coordinates": [ [ [ -115.1537499, 36.2366594999 ], [ -115.1537202, 36.2366594999 ], [ -115.1537202, 36.236656799899997 ], [ -115.1537067, 36.236656799899997 ], [ -115.1537067, 36.236654099900001 ], [ -115.153704, 36.236654099900001 ], [ -115.153704, 36.236648699900002 ], [ -115.1537013, 36.236648699900002 ], [ -115.1537013, 36.236640599899999 ], [ -115.1536986, 36.236640599899999 ], [ -115.1536986, 36.236637899900003 ], [ -115.1536959, 36.236637899900003 ], [ -115.1536959, 36.2366351999 ], [ -115.15367160000001, 36.2366351999 ], [ -115.15367160000001, 36.236632499899997 ], [ -115.1536554, 36.236632499899997 ], [ -115.1536554, 36.2366351999 ], [ -115.1536392, 36.2366351999 ], [ -115.1536392, 36.236632499899997 ], [ -115.1536338, 36.236632499899997 ], [ -115.1536338, 36.236629799900001 ], [ -115.1536311, 36.236629799900001 ], [ -115.1536311, 36.236627099899998 ], [ -115.1536284, 36.236627099899998 ], [ -115.1536284, 36.236594699900003 ], [ -115.1536257, 36.236594699900003 ], [ -115.1536257, 36.236546099900004 ], [ -115.1536284, 36.236546099900004 ], [ -115.1536284, 36.236537999900001 ], [ -115.1536311, 36.236537999900001 ], [ -115.1536311, 36.236532599900002 ], [ -115.1536338, 36.236532599900002 ], [ -115.1536338, 36.236529899899999 ], [ -115.1536446, 36.236529899899999 ], [ -115.1536446, 36.236532599900002 ], [ -115.153731, 36.236532599900002 ], [ -115.153731, 36.236529899899999 ], [ -115.1537634, 36.236529899899999 ], [ -115.1537634, 36.236532599900002 ], [ -115.1537688, 36.236532599900002 ], [ -115.1537688, 36.236535299899998 ], [ -115.1537715, 36.236535299899998 ], [ -115.1537715, 36.236537999900001 ], [ -115.1537742, 36.236537999900001 ], [ -115.1537742, 36.236551499900003 ], [ -115.153776900000011, 36.236551499900003 ], [ -115.153776900000011, 36.236564999899997 ], [ -115.1537796, 36.236564999899997 ], [ -115.1537796, 36.236608199899997 ], [ -115.1537823, 36.236608199899997 ], [ -115.1537823, 36.236629799900001 ], [ -115.1537796, 36.236629799900001 ], [ -115.1537796, 36.236645999899999 ], [ -115.153776900000011, 36.236645999899999 ], [ -115.153776900000011, 36.236654099900001 ], [ -115.1537742, 36.236654099900001 ], [ -115.1537742, 36.236656799899997 ], [ -115.1537499, 36.236656799899997 ], [ -115.1537499, 36.2366594999 ] ] ] } },
{ "type": "Feature", "properties": { "value": 255.0 }, "geometry": { "type": "Polygon", "coordinates": [ [ [ -115.1548326, 36.236627099899998 ], [ -115.15482990000001, 36.236627099899998 ], [ -115.15482990000001, 36.236624399900002 ], [ -115.1546895, 36.236624399900002 ], [ -115.1546895, 36.236621699899999 ], [ -115.1546868, 36.236621699899999 ], [ -115.1546868, 36.236618999900003 ], [ -115.154684100000011, 36.236618999900003 ], [ -115.154684100000011, 36.236605499900001 ], [ -115.1546868, 36.236605499900001 ], [ -115.1546868, 36.2365919999 ], [ -115.154684100000011, 36.2365919999 ], [ -115.154684100000011, 36.236589299899997 ], [ -115.1546814, 36.236589299899997 ], [ -115.1546814, 36.236586599900001 ], [ -115.154676, 36.236586599900001 ], [ -115.154676, 36.236589299899997 ], [ -115.1546679, 36.236589299899997 ], [ -115.1546679, 36.236586599900001 ], [ -115.154665200000011, 36.236586599900001 ], [ -115.154665200000011, 36.236583899899998 ], [ -115.1546625, 36.236583899899998 ], [ -115.1546625, 36.236578499899998 ], [ -115.1546598, 36.236578499899998 ], [ -115.1546598, 36.236554199899999 ], [ -115.1546571, 36.236554199899999 ], [ -115.1546571, 36.236508299900002 ], [ -115.1546598, 36.236508299900002 ], [ -115.1546598, 36.236505599899999 ], [ -115.154732700000011, 36.236505599899999 ], [ -115.154732700000011, 36.236502899900003 ], [ -115.15478130000001, 36.236502899900003 ], [ -115.15478130000001, 36.236505599899999 ], [ -115.1547975, 36.236505599899999 ], [ -115.1547975, 36.236508299900002 ], [ -115.1548245, 36.236508299900002 ], [ -115.1548245, 36.236505599899999 ], [ -115.1548326, 36.236505599899999 ], [ -115.1548326, 36.236627099899998 ] ] ] } },
{ "type": "Feature", "properties": { "value": 255.0 }, "geometry": { "type": "Polygon", "coordinates": [ [ [ -115.1535285, 36.236654099900001 ], [ -115.1534691, 36.236654099900001 ], [ -115.1534691, 36.236651399899998 ], [ -115.1534664, 36.236651399899998 ], [ -115.1534664, 36.236648699900002 ], [ -115.1534637, 36.236648699900002 ], [ -115.1534637, 36.236645999899999 ], [ -115.1534583, 36.236645999899999 ], [ -115.1534583, 36.236643299900003 ], [ -115.1534367, 36.236643299900003 ], [ -115.1534367, 36.236645999899999 ], [ -115.1534313, 36.236645999899999 ], [ -115.1534313, 36.236643299900003 ], [ -115.1534178, 36.236643299900003 ], [ -115.1534178, 36.236640599899999 ], [ -115.1534151, 36.236640599899999 ], [ -115.1534151, 36.236632499899997 ], [ -115.1534124, 36.236632499899997 ], [ -115.1534124, 36.236594699900003 ], [ -115.1534151, 36.236594699900003 ], [ -115.1534151, 36.236583899899998 ], [ -115.1534178, 36.236583899899998 ], [ -115.1534178, 36.236581199900002 ], [ -115.15342050000001, 36.236581199900002 ], [ -115.15342050000001, 36.236578499899998 ], [ -115.1534232, 36.236578499899998 ], [ -115.1534232, 36.236575799900002 ], [ -115.1534286, 36.236575799900002 ], [ -115.1534286, 36.236573099899999 ], [ -115.1534448, 36.236573099899999 ], [ -115.1534448, 36.236570399900003 ], [ -115.1534502, 36.236570399900003 ], [ -115.1534502, 36.2365676999 ], [ -115.1534529, 36.2365676999 ], [ -115.1534529, 36.2365433999 ], [ -115.1534556, 36.2365433999 ], [ -115.1534556, 36.236537999900001 ], [ -115.1534583, 36.236537999900001 ], [ -115.1534583, 36.236508299900002 ], [ -115.153461, 36.236508299900002 ], [ -115.153461, 36.236505599899999 ], [ -115.1534637, 36.236505599899999 ], [ -115.1534637, 36.236502899900003 ], [ -115.153488, 36.236502899900003 ], [ -115.153488, 36.236505599899999 ], [ -115.153506900000011, 36.236505599899999 ], [ -115.153506900000011, 36.236508299900002 ], [ -115.1535528, 36.236508299900002 ], [ -115.1535528, 36.236505599899999 ], [ -115.1535798, 36.236505599899999 ], [ -115.1535798, 36.236502899900003 ], [ -115.1535906, 36.236502899900003 ], [ -115.1535906, 36.2365001999 ], [ -115.153596, 36.2365001999 ], [ -115.153596, 36.236502899900003 ], [ -115.1536014, 36.236502899900003 ], [ -115.1536014, 36.236505599899999 ], [ -115.15360410000001, 36.236505599899999 ], [ -115.15360410000001, 36.236510999899998 ], [ -115.1536068, 36.236510999899998 ], [ -115.1536068, 36.236613599900004 ], [ -115.15360410000001, 36.236613599900004 ], [ -115.15360410000001, 36.236618999900003 ], [ -115.1535906, 36.236618999900003 ], [ -115.1535906, 36.236621699899999 ], [ -115.1535825, 36.236621699899999 ], [ -115.1535825, 36.236624399900002 ], [ -115.1535798, 36.236624399900002 ], [ -115.1535798, 36.236627099899998 ], [ -115.153574400000011, 36.236627099899998 ], [ -115.153574400000011, 36.236629799900001 ], [ -115.1535582, 36.236629799900001 ], [ -115.1535582, 36.236632499899997 ], [ -115.1535474, 36.236632499899997 ], [ -115.1535474, 36.2366351999 ], [ -115.153542, 36.2366351999 ], [ -115.153542, 36.236640599899999 ], [ -115.1535393, 36.236640599899999 ], [ -115.1535393, 36.236648699900002 ], [ -115.15353660000001, 36.236648699900002 ], [ -115.15353660000001, 36.236651399899998 ], [ -115.1535285, 36.236651399899998 ], [ -115.1535285, 36.236654099900001 ] ] ] } },
{ "type": "Feature", "properties": { "value": 255.0 }, "geometry": { "type": "Polygon", "coordinates": [ [ [ -115.1533665, 36.236654099900001 ], [ -115.153299, 36.236654099900001 ], [ -115.153299, 36.236651399899998 ], [ -115.1532963, 36.236651399899998 ], [ -115.1532963, 36.236640599899999 ], [ -115.1532936, 36.236640599899999 ], [ -115.1532936, 36.236637899900003 ], [ -115.1532909, 36.236637899900003 ], [ -115.1532909, 36.2366351999 ], [ -115.1532882, 36.2366351999 ], [ -115.1532882, 36.236632499899997 ], [ -115.1532774, 36.236632499899997 ], [ -115.1532774, 36.236629799900001 ], [ -115.1532612, 36.236629799900001 ], [ -115.1532612, 36.236627099899998 ], [ -115.1532558, 36.236627099899998 ], [ -115.1532558, 36.236624399900002 ], [ -115.1532531, 36.236624399900002 ], [ -115.1532531, 36.236621699899999 ], [ -115.1532342, 36.236621699899999 ], [ -115.1532342, 36.236618999900003 ], [ -115.1532288, 36.236618999900003 ], [ -115.1532288, 36.2366162999 ], [ -115.1532261, 36.2366162999 ], [ -115.1532261, 36.236540699899997 ], [ -115.1532234, 36.236540699899997 ], [ -115.1532234, 36.2365244999 ], [ -115.1532261, 36.2365244999 ], [ -115.1532261, 36.236513699900001 ], [ -115.1532288, 36.236513699900001 ], [ -115.1532288, 36.236510999899998 ], [ -115.1532315, 36.236510999899998 ], [ -115.1532315, 36.236508299900002 ], [ -115.1532396, 36.236508299900002 ], [ -115.1532396, 36.236505599899999 ], [ -115.1532423, 36.236505599899999 ], [ -115.1532423, 36.236508299900002 ], [ -115.1532558, 36.236508299900002 ], [ -115.1532558, 36.236505599899999 ], [ -115.1533665, 36.236505599899999 ], [ -115.1533665, 36.236508299900002 ], [ -115.1533692, 36.236508299900002 ], [ -115.1533692, 36.236510999899998 ], [ -115.15337190000001, 36.236510999899998 ], [ -115.15337190000001, 36.2365244999 ], [ -115.1533692, 36.2365244999 ], [ -115.1533692, 36.236535299899998 ], [ -115.15337190000001, 36.236535299899998 ], [ -115.15337190000001, 36.236575799900002 ], [ -115.1533746, 36.236575799900002 ], [ -115.1533746, 36.236589299899997 ], [ -115.1533773, 36.236589299899997 ], [ -115.1533773, 36.236602799899998 ], [ -115.15338, 36.236602799899998 ], [ -115.15338, 36.236608199899997 ], [ -115.1533773, 36.236608199899997 ], [ -115.1533773, 36.236613599900004 ], [ -115.1533746, 36.236613599900004 ], [ -115.1533746, 36.236621699899999 ], [ -115.15337190000001, 36.236621699899999 ], [ -115.15337190000001, 36.236645999899999 ], [ -115.1533692, 36.236645999899999 ], [ -115.1533692, 36.236651399899998 ], [ -115.1533665, 36.236651399899998 ], [ -115.1533665, 36.236654099900001 ] ] ] } },
{ "type": "Feature", "properties": { "value": 255.0 }, "geometry": { "type": "Polygon", "coordinates": [ [ [ -115.154414100000011, 36.2365001999 ], [ -115.1542845, 36.2365001999 ], [ -115.1542845, 36.236497499899997 ], [ -115.1542818, 36.236497499899997 ], [ -115.1542818, 36.236494799900001 ], [ -115.154279100000011, 36.236494799900001 ], [ -115.154279100000011, 36.236483999900003 ], [ -115.1542764, 36.236483999900003 ], [ -115.1542764, 36.236438099899999 ], [ -115.154279100000011, 36.236438099899999 ], [ -115.154279100000011, 36.2364326999 ], [ -115.1543034, 36.2364326999 ], [ -115.1543034, 36.236429999899997 ], [ -115.1543061, 36.236429999899997 ], [ -115.1543061, 36.236421899900002 ], [ -115.15430880000001, 36.236421899900002 ], [ -115.15430880000001, 36.236400299899998 ], [ -115.1543115, 36.236400299899998 ], [ -115.1543115, 36.236392199900003 ], [ -115.1543142, 36.236392199900003 ], [ -115.1543142, 36.236386799899996 ], [ -115.1543196, 36.236386799899996 ], [ -115.1543196, 36.2363840999 ], [ -115.15432770000001, 36.2363840999 ], [ -115.15432770000001, 36.236381399899997 ], [ -115.154352, 36.236381399899997 ], [ -115.154352, 36.2363840999 ], [ -115.1544546, 36.2363840999 ], [ -115.1544546, 36.236386799899996 ], [ -115.15446, 36.236386799899996 ], [ -115.15446, 36.2363894999 ], [ -115.15446270000001, 36.2363894999 ], [ -115.15446270000001, 36.236392199900003 ], [ -115.15446, 36.236392199900003 ], [ -115.15446, 36.236494799900001 ], [ -115.1544573, 36.236494799900001 ], [ -115.1544573, 36.236497499899997 ], [ -115.154414100000011, 36.236497499899997 ], [ -115.154414100000011, 36.2365001999 ] ] ] } },
{ "type": "Feature", "properties": { "value": 255.0 }, "geometry": { "type": "Polygon", "coordinates": [ [ [ -115.1548245, 36.2364326999 ], [ -115.1546679, 36.2364326999 ], [ -115.1546679, 36.236429999899997 ], [ -115.154665200000011, 36.236429999899997 ], [ -115.154665200000011, 36.236427299900001 ], [ -115.1546625, 36.236427299900001 ], [ -115.1546625, 36.236424599899998 ], [ -115.1546598, 36.236424599899998 ], [ -115.1546598, 36.236421899900002 ], [ -115.154654400000013, 36.236421899900002 ], [ -115.154654400000013, 36.236419199899998 ], [ -115.15462740000001, 36.236419199899998 ], [ -115.15462740000001, 36.236416499900002 ], [ -115.1546247, 36.236416499900002 ], [ -115.1546247, 36.236411099900003 ], [ -115.154622, 36.236411099900003 ], [ -115.154622, 36.2363840999 ], [ -115.1546193, 36.2363840999 ], [ -115.1546193, 36.236351699899998 ], [ -115.154622, 36.236351699899998 ], [ -115.154622, 36.236346299899999 ], [ -115.1546247, 36.236346299899999 ], [ -115.1546247, 36.236343599900003 ], [ -115.1546436, 36.236343599900003 ], [ -115.1546436, 36.2363408999 ], [ -115.1546517, 36.2363408999 ], [ -115.1546517, 36.236338199899997 ], [ -115.1546598, 36.236338199899997 ], [ -115.1546598, 36.236335499900001 ], [ -115.1546787, 36.236335499900001 ], [ -115.1546787, 36.236332799899998 ], [ -115.154684100000011, 36.236332799899998 ], [ -115.154684100000011, 36.236327399899999 ], [ -115.1546868, 36.236327399899999 ], [ -115.1546868, 36.236321999899999 ], [ -115.1546895, 36.236321999899999 ], [ -115.1546895, 36.236319299899996 ], [ -115.1546976, 36.236319299899996 ], [ -115.1546976, 36.2363165999 ], [ -115.1548326, 36.2363165999 ], [ -115.1548326, 36.236429999899997 ], [ -115.1548245, 36.236429999899997 ], [ -115.1548245, 36.2364326999 ] ] ] } },
{ "type": "Feature", "properties": { "value": 255.0 }, "geometry": { "type": "Polygon", "coordinates": [ [ [ -115.1539578, 36.236421899900002 ], [ -115.1539065, 36.236421899900002 ], [ -115.1539065, 36.236419199899998 ], [ -115.153839, 36.236419199899998 ], [ -115.153839, 36.236416499900002 ], [ -115.1538363, 36.236416499900002 ], [ -115.1538363, 36.236405699899997 ], [ -115.1538336, 36.236405699899997 ], [ -115.1538336, 36.236319299899996 ], [ -115.1538309, 36.236319299899996 ], [ -115.1538309, 36.236311199900001 ], [ -115.1538336, 36.236311199900001 ], [ -115.1538336, 36.236305799900002 ], [ -115.1538417, 36.236305799900002 ], [ -115.1538417, 36.236303099899999 ], [ -115.1538498, 36.236303099899999 ], [ -115.1538498, 36.236305799900002 ], [ -115.1538984, 36.236305799900002 ], [ -115.1538984, 36.236303099899999 ], [ -115.1539011, 36.236303099899999 ], [ -115.1539011, 36.236281499900002 ], [ -115.1539038, 36.236281499900002 ], [ -115.1539038, 36.236278799899999 ], [ -115.1539065, 36.236278799899999 ], [ -115.1539065, 36.236276099900003 ], [ -115.1539335, 36.236276099900003 ], [ -115.1539335, 36.2362733999 ], [ -115.1539443, 36.2362733999 ], [ -115.1539443, 36.236276099900003 ], [ -115.153974, 36.236276099900003 ], [ -115.153974, 36.236278799899999 ], [ -115.1539767, 36.236278799899999 ], [ -115.1539767, 36.236281499900002 ], [ -115.153979400000011, 36.236281499900002 ], [ -115.153979400000011, 36.236308499899998 ], [ -115.1539821, 36.236308499899998 ], [ -115.1539821, 36.236313899899997 ], [ -115.1539848, 36.236313899899997 ], [ -115.1539848, 36.236321999899999 ], [ -115.1539875, 36.236321999899999 ], [ -115.1539875, 36.2363651999 ], [ -115.1539848, 36.2363651999 ], [ -115.1539848, 36.236367899900003 ], [ -115.1539659, 36.236367899900003 ], [ -115.1539659, 36.236370599899999 ], [ -115.153960500000011, 36.236370599899999 ], [ -115.153960500000011, 36.236397599900002 ], [ -115.1539632, 36.236397599900002 ], [ -115.1539632, 36.236411099900003 ], [ -115.153960500000011, 36.236411099900003 ], [ -115.153960500000011, 36.236419199899998 ], [ -115.1539578, 36.236419199899998 ], [ -115.1539578, 36.236421899900002 ] ] ] } },
{ "type": "Feature", "properties": { "value": 255.0 }, "geometry": { "type": "Polygon", "coordinates": [ [ [ -115.1544276, 36.236362499899997 ], [ -115.1543115, 36.236362499899997 ], [ -115.1543115, 36.236359799900001 ], [ -115.15430880000001, 36.236359799900001 ], [ -115.15430880000001, 36.236357099899998 ], [ -115.1543061, 36.236357099899998 ], [ -115.1543061, 36.236351699899998 ], [ -115.1543034, 36.236351699899998 ], [ -115.1543034, 36.236330099900002 ], [ -115.1543061, 36.236330099900002 ], [ -115.1543061, 36.236321999899999 ], [ -115.15430880000001, 36.236321999899999 ], [ -115.15430880000001, 36.236311199900001 ], [ -115.1543061, 36.236311199900001 ], [ -115.1543061, 36.236308499899998 ], [ -115.1542872, 36.236308499899998 ], [ -115.1542872, 36.236305799900002 ], [ -115.1542845, 36.236305799900002 ], [ -115.1542845, 36.236303099899999 ], [ -115.1542818, 36.236303099899999 ], [ -115.1542818, 36.236278799899999 ], [ -115.154279100000011, 36.236278799899999 ], [ -115.154279100000011, 36.2362490999 ], [ -115.1542818, 36.2362490999 ], [ -115.1542818, 36.236243699900001 ], [ -115.1542845, 36.236243699900001 ], [ -115.1542845, 36.236240999899998 ], [ -115.1542872, 36.236240999899998 ], [ -115.1542872, 36.236235599899999 ], [ -115.1542899, 36.236235599899999 ], [ -115.1542899, 36.236227499899996 ], [ -115.1542926, 36.236227499899996 ], [ -115.1542926, 36.236222099899997 ], [ -115.1543034, 36.236222099899997 ], [ -115.1543034, 36.236219399900001 ], [ -115.1543115, 36.236219399900001 ], [ -115.1543115, 36.236222099899997 ], [ -115.154316900000012, 36.236222099899997 ], [ -115.154316900000012, 36.236227499899996 ], [ -115.1543142, 36.236227499899996 ], [ -115.1543142, 36.236232899900003 ], [ -115.15430880000001, 36.236232899900003 ], [ -115.15430880000001, 36.236235599899999 ], [ -115.154298, 36.236235599899999 ], [ -115.154298, 36.236238299900002 ], [ -115.1543007, 36.236238299900002 ], [ -115.1543007, 36.236240999899998 ], [ -115.1543061, 36.236240999899998 ], [ -115.1543061, 36.236243699900001 ], [ -115.154316900000012, 36.236243699900001 ], [ -115.154316900000012, 36.236246399899997 ], [ -115.1543358, 36.236246399899997 ], [ -115.1543358, 36.2362490999 ], [ -115.154433, 36.2362490999 ], [ -115.154433, 36.236251799899996 ], [ -115.1544546, 36.236251799899996 ], [ -115.1544546, 36.236254499899999 ], [ -115.15446, 36.236254499899999 ], [ -115.15446, 36.236257199900002 ], [ -115.15446270000001, 36.236257199900002 ], [ -115.15446270000001, 36.236276099900003 ], [ -115.15446, 36.236276099900003 ], [ -115.15446, 36.236284199899998 ], [ -115.1544573, 36.236284199899998 ], [ -115.1544573, 36.236286899900001 ], [ -115.154451900000012, 36.236286899900001 ], [ -115.154451900000012, 36.236289599899997 ], [ -115.1544492, 36.236289599899997 ], [ -115.1544492, 36.236292299900001 ], [ -115.1544465, 36.236292299900001 ], [ -115.1544465, 36.2362976999 ], [ -115.15444380000001, 36.2362976999 ], [ -115.15444380000001, 36.236300399900003 ], [ -115.1544411, 36.236300399900003 ], [ -115.1544411, 36.236311199900001 ], [ -115.1544384, 36.236311199900001 ], [ -115.1544384, 36.236332799899998 ], [ -115.1544357, 36.236332799899998 ], [ -115.1544357, 36.236343599900003 ], [ -115.154433, 36.236343599900003 ], [ -115.154433, 36.236357099899998 ], [ -115.1544303, 36.236357099899998 ], [ -115.1544303, 36.236359799900001 ], [ -115.1544276, 36.236359799900001 ], [ -115.1544276, 36.236362499899997 ] ] ] } },
{ "type": "Feature", "properties": { "value": 255.0 }, "geometry": { "type": "Polygon", "coordinates": [ [ [ -115.1548218, 36.236281499900002 ], [ -115.154665200000011, 36.236281499900002 ], [ -115.154665200000011, 36.236278799899999 ], [ -115.1546598, 36.236278799899999 ], [ -115.1546598, 36.2362733999 ], [ -115.1546571, 36.2362733999 ], [ -115.1546571, 36.236246399899997 ], [ -115.154654400000013, 36.236246399899997 ], [ -115.154654400000013, 36.236240999899998 ], [ -115.1546517, 36.236240999899998 ], [ -115.1546517, 36.236235599899999 ], [ -115.154649, 36.236235599899999 ], [ -115.154649, 36.236222099899997 ], [ -115.1546409, 36.236222099899997 ], [ -115.1546409, 36.236232899900003 ], [ -115.1546436, 36.236232899900003 ], [ -115.1546436, 36.236235599899999 ], [ -115.1546409, 36.236235599899999 ], [ -115.1546409, 36.236240999899998 ], [ -115.154635500000012, 36.236240999899998 ], [ -115.154635500000012, 36.2362301999 ], [ -115.1546328, 36.2362301999 ], [ -115.1546328, 36.236213999900002 ], [ -115.1546301, 36.236213999900002 ], [ -115.1546301, 36.236203199899997 ], [ -115.15462740000001, 36.236203199899997 ], [ -115.15462740000001, 36.2361815999 ], [ -115.1546247, 36.2361815999 ], [ -115.1546247, 36.236168099899999 ], [ -115.15462740000001, 36.236168099899999 ], [ -115.15462740000001, 36.236162699899999 ], [ -115.154635500000012, 36.236162699899999 ], [ -115.154635500000012, 36.236159999899996 ], [ -115.1547462, 36.236159999899996 ], [ -115.1547462, 36.236162699899999 ], [ -115.154770500000012, 36.236162699899999 ], [ -115.154770500000012, 36.236159999899996 ], [ -115.1547921, 36.236159999899996 ], [ -115.1547921, 36.2361572999 ], [ -115.1548137, 36.2361572999 ], [ -115.1548137, 36.236159999899996 ], [ -115.1548245, 36.236159999899996 ], [ -115.1548245, 36.236162699899999 ], [ -115.1548272, 36.236162699899999 ], [ -115.1548272, 36.236159999899996 ], [ -115.1548326, 36.236159999899996 ], [ -115.1548326, 36.236278799899999 ], [ -115.1548218, 36.236278799899999 ], [ -115.1548218, 36.236281499900002 ] ], [ [ -115.1548218, 36.236184299899996 ], [ -115.1548218, 36.2361815999 ], [ -115.1548245, 36.2361815999 ], [ -115.1548245, 36.236178899899997 ], [ -115.1548272, 36.236178899899997 ], [ -115.1548272, 36.236168099899999 ], [ -115.1548218, 36.236168099899999 ], [ -115.1548218, 36.236170799900002 ], [ -115.154819100000012, 36.236170799900002 ], [ -115.154819100000012, 36.236173499899998 ], [ -115.1548164, 36.236173499899998 ], [ -115.1548164, 36.2361815999 ], [ -115.154819100000012, 36.2361815999 ], [ -115.154819100000012, 36.236184299899996 ], [ -115.1548218, 36.236184299899996 ] ] ] } },
{ "type": "Feature", "properties": { "value": 255.0 }, "geometry": { "type": "Polygon", "coordinates": [ [ [ -115.1539173, 36.236251799899996 ], [ -115.1539065, 36.236251799899996 ], [ -115.1539065, 36.2362490999 ], [ -115.1538984, 36.2362490999 ], [ -115.1538984, 36.236246399899997 ], [ -115.153893, 36.236246399899997 ], [ -115.153893, 36.236243699900001 ], [ -115.1538903, 36.236243699900001 ], [ -115.1538903, 36.236240999899998 ], [ -115.1538876, 36.236240999899998 ], [ -115.1538876, 36.236238299900002 ], [ -115.1538849, 36.236238299900002 ], [ -115.1538849, 36.236235599899999 ], [ -115.1538822, 36.236235599899999 ], [ -115.1538822, 36.236232899900003 ], [ -115.15387410000001, 36.236232899900003 ], [ -115.15387410000001, 36.2362301999 ], [ -115.1538579, 36.2362301999 ], [ -115.1538579, 36.236227499899996 ], [ -115.1537742, 36.236227499899996 ], [ -115.1537742, 36.2362247999 ], [ -115.153758, 36.2362247999 ], [ -115.153758, 36.236227499899996 ], [ -115.1537229, 36.236227499899996 ], [ -115.1537229, 36.2362247999 ], [ -115.1537202, 36.2362247999 ], [ -115.1537202, 36.236222099899997 ], [ -115.1537175, 36.236222099899997 ], [ -115.1537175, 36.236208599900003 ], [ -115.1537148, 36.236208599900003 ], [ -115.1537148, 36.236173499899998 ], [ -115.1537121, 36.236173499899998 ], [ -115.1537121, 36.236165399900003 ], [ -115.153709400000011, 36.236165399900003 ], [ -115.153709400000011, 36.236159999899996 ], [ -115.1537067, 36.236159999899996 ], [ -115.1537067, 36.236143799899999 ], [ -115.153704, 36.236143799899999 ], [ -115.153704, 36.2361383999 ], [ -115.1537067, 36.2361383999 ], [ -115.1537067, 36.236135699899997 ], [ -115.153709400000011, 36.236135699899997 ], [ -115.153709400000011, 36.236132999900001 ], [ -115.1537121, 36.236132999900001 ], [ -115.1537121, 36.236130299899997 ], [ -115.1537148, 36.236130299899997 ], [ -115.1537148, 36.236127599900001 ], [ -115.1537256, 36.236127599900001 ], [ -115.1537256, 36.236124899899998 ], [ -115.1537283, 36.236124899899998 ], [ -115.1537283, 36.236122199900002 ], [ -115.153731, 36.236122199900002 ], [ -115.153731, 36.236116799899996 ], [ -115.1537337, 36.236116799899996 ], [ -115.1537337, 36.2361140999 ], [ -115.1537364, 36.2361140999 ], [ -115.1537364, 36.236111399899997 ], [ -115.1537418, 36.236111399899997 ], [ -115.1537418, 36.236108699900001 ], [ -115.1537553, 36.236108699900001 ], [ -115.1537553, 36.236111399899997 ], [ -115.1538201, 36.236111399899997 ], [ -115.1538201, 36.2361140999 ], [ -115.1538633, 36.2361140999 ], [ -115.1538633, 36.236111399899997 ], [ -115.1538903, 36.236111399899997 ], [ -115.1538903, 36.2361140999 ], [ -115.1539065, 36.2361140999 ], [ -115.1539065, 36.236116799899996 ], [ -115.153911900000011, 36.236116799899996 ], [ -115.153911900000011, 36.236122199900002 ], [ -115.1539146, 36.236122199900002 ], [ -115.1539146, 36.236141099900003 ], [ -115.153911900000011, 36.236141099900003 ], [ -115.153911900000011, 36.236149199899998 ], [ -115.1539092, 36.236149199899998 ], [ -115.1539092, 36.236162699899999 ], [ -115.153911900000011, 36.236162699899999 ], [ -115.153911900000011, 36.236165399900003 ], [ -115.15392, 36.236165399900003 ], [ -115.15392, 36.236168099899999 ], [ -115.1539281, 36.236168099899999 ], [ -115.1539281, 36.236170799900002 ], [ -115.1539308, 36.236170799900002 ], [ -115.1539308, 36.2362247999 ], [ -115.1539281, 36.2362247999 ], [ -115.1539281, 36.236246399899997 ], [ -115.1539254, 36.236246399899997 ], [ -115.1539254, 36.2362490999 ], [ -115.1539173, 36.2362490999 ], [ -115.1539173, 36.236251799899996 ] ] ] } },
{ "type": "Feature", "properties": { "value": 255.0 }, "geometry": { "type": "Polygon", "coordinates": [ [ [ -115.1546031, 36.236095199899999 ], [ -115.1545923, 36.236095199899999 ], [ -115.1545923, 36.236092499899996 ], [ -115.1545815, 36.236092499899996 ], [ -115.1545815, 36.2360897999 ], [ -115.15457880000001, 36.2360897999 ], [ -115.15457880000001, 36.236081699899998 ], [ -115.1545761, 36.236081699899998 ], [ -115.1545761, 36.236076299899999 ], [ -115.15457880000001, 36.236076299899999 ], [ -115.15457880000001, 36.2360708999 ], [ -115.1546058, 36.2360708999 ], [ -115.1546058, 36.236073599900003 ], [ -115.1546085, 36.236073599900003 ], [ -115.1546085, 36.236078999900002 ], [ -115.1546112, 36.236078999900002 ], [ -115.1546112, 36.236087099899997 ], [ -115.1546085, 36.236087099899997 ], [ -115.1546085, 36.236092499899996 ], [ -115.1546031, 36.236092499899996 ], [ -115.1546031, 36.236095199899999 ] ] ] } },
{ "type": "Feature", "properties": { "value": 255.0 }, "geometry": { "type": "Polygon", "coordinates": [ [ [ -115.1544654, 36.236170799900002 ], [ -115.1544465, 36.236170799900002 ], [ -115.1544465, 36.236168099899999 ], [ -115.1544357, 36.236168099899999 ], [ -115.1544357, 36.236170799900002 ], [ -115.15437630000001, 36.236170799900002 ], [ -115.15437630000001, 36.236168099899999 ], [ -115.1543439, 36.236168099899999 ], [ -115.1543439, 36.236170799900002 ], [ -115.154325, 36.236170799900002 ], [ -115.154325, 36.236168099899999 ], [ -115.1543223, 36.236168099899999 ], [ -115.1543223, 36.236165399900003 ], [ -115.1543196, 36.236165399900003 ], [ -115.1543196, 36.236111399899997 ], [ -115.1543223, 36.236111399899997 ], [ -115.1543223, 36.236108699900001 ], [ -115.154325, 36.236108699900001 ], [ -115.154325, 36.236105999899998 ], [ -115.15432770000001, 36.236105999899998 ], [ -115.15432770000001, 36.236103299900002 ], [ -115.1543304, 36.236103299900002 ], [ -115.1543304, 36.236100599899999 ], [ -115.1543331, 36.236100599899999 ], [ -115.1543331, 36.236060099900001 ], [ -115.1543358, 36.236060099900001 ], [ -115.1543358, 36.236057399899998 ], [ -115.1543385, 36.236057399899998 ], [ -115.1543385, 36.236054699900002 ], [ -115.1543439, 36.236054699900002 ], [ -115.1543439, 36.236051999899999 ], [ -115.154451900000012, 36.236051999899999 ], [ -115.154451900000012, 36.236054699900002 ], [ -115.1544681, 36.236054699900002 ], [ -115.1544681, 36.236057399899998 ], [ -115.1544708, 36.236057399899998 ], [ -115.1544708, 36.236124899899998 ], [ -115.1544735, 36.236124899899998 ], [ -115.1544735, 36.236141099900003 ], [ -115.1544762, 36.236141099900003 ], [ -115.1544762, 36.2361572999 ], [ -115.1544735, 36.2361572999 ], [ -115.1544735, 36.236162699899999 ], [ -115.1544708, 36.236162699899999 ], [ -115.1544708, 36.236168099899999 ], [ -115.1544654, 36.236168099899999 ], [ -115.1544654, 36.236170799900002 ] ] ] } },
{ "type": "Feature", "properties": { "value": 255.0 }, "geometry": { "type": "Polygon", "coordinates": [ [ [ -115.154770500000012, 36.236030399900002 ], [ -115.1546895, 36.236030399900002 ], [ -115.1546895, 36.236027699899999 ], [ -115.1546733, 36.236027699899999 ], [ -115.1546733, 36.236030399900002 ], [ -115.1546598, 36.236030399900002 ], [ -115.1546598, 36.236027699899999 ], [ -115.154654400000013, 36.236027699899999 ], [ -115.154654400000013, 36.2360222999 ], [ -115.1546517, 36.2360222999 ], [ -115.1546517, 36.235914299899996 ], [ -115.154654400000013, 36.235914299899996 ], [ -115.154654400000013, 36.2359115999 ], [ -115.1546571, 36.2359115999 ], [ -115.1546571, 36.235908899899997 ], [ -115.1546625, 36.235908899899997 ], [ -115.1546625, 36.2359115999 ], [ -115.1547462, 36.2359115999 ], [ -115.1547462, 36.235914299899996 ], [ -115.1547948, 36.235914299899996 ], [ -115.1547948, 36.235916999899999 ], [ -115.154800200000011, 36.235916999899999 ], [ -115.154800200000011, 36.235922399899998 ], [ -115.1548029, 36.235922399899998 ], [ -115.1548029, 36.235952099899997 ], [ -115.1548056, 36.235952099899997 ], [ -115.1548056, 36.235968299900001 ], [ -115.1548029, 36.235968299900001 ], [ -115.1548029, 36.235973699900001 ], [ -115.1547921, 36.235973699900001 ], [ -115.1547921, 36.235976399899997 ], [ -115.15478130000001, 36.235976399899997 ], [ -115.15478130000001, 36.2359790999 ], [ -115.1547786, 36.2359790999 ], [ -115.1547786, 36.235987199900002 ], [ -115.1547759, 36.235987199900002 ], [ -115.1547759, 36.236027699899999 ], [ -115.154770500000012, 36.236027699899999 ], [ -115.154770500000012, 36.236030399900002 ] ] ] } },
{ "type": "Feature", "properties": { "value": 255.0 }, "geometry": { "type": "Polygon", "coordinates": [ [ [ -115.1544762, 36.236030399900002 ], [ -115.154414100000011, 36.236030399900002 ], [ -115.154414100000011, 36.236027699899999 ], [ -115.1544006, 36.236027699899999 ], [ -115.1544006, 36.236030399900002 ], [ -115.1543898, 36.236030399900002 ], [ -115.1543898, 36.236027699899999 ], [ -115.1543817, 36.236027699899999 ], [ -115.1543817, 36.236024999899996 ], [ -115.154379, 36.236024999899996 ], [ -115.154379, 36.2360222999 ], [ -115.15437630000001, 36.2360222999 ], [ -115.15437630000001, 36.236019599899997 ], [ -115.1543574, 36.236019599899997 ], [ -115.1543574, 36.236016899900001 ], [ -115.1543547, 36.236016899900001 ], [ -115.1543547, 36.2360033999 ], [ -115.1543574, 36.2360033999 ], [ -115.1543574, 36.2359979999 ], [ -115.1543601, 36.2359979999 ], [ -115.1543601, 36.235995299899997 ], [ -115.1543628, 36.235995299899997 ], [ -115.1543628, 36.235992599900001 ], [ -115.154365500000011, 36.235992599900001 ], [ -115.154365500000011, 36.235987199900002 ], [ -115.1543682, 36.235987199900002 ], [ -115.1543682, 36.2359790999 ], [ -115.154365500000011, 36.2359790999 ], [ -115.154365500000011, 36.235976399899997 ], [ -115.1543628, 36.235976399899997 ], [ -115.1543628, 36.235973699900001 ], [ -115.1543385, 36.235973699900001 ], [ -115.1543385, 36.235970999899997 ], [ -115.1543358, 36.235970999899997 ], [ -115.1543358, 36.235962899900002 ], [ -115.1543331, 36.235962899900002 ], [ -115.1543331, 36.235916999899999 ], [ -115.1543358, 36.235916999899999 ], [ -115.1543358, 36.2359115999 ], [ -115.1543817, 36.2359115999 ], [ -115.1543817, 36.235914299899996 ], [ -115.15446, 36.235914299899996 ], [ -115.15446, 36.235916999899999 ], [ -115.1544978, 36.235916999899999 ], [ -115.1544978, 36.235914299899996 ], [ -115.1545059, 36.235914299899996 ], [ -115.1545059, 36.235916999899999 ], [ -115.154514, 36.235916999899999 ], [ -115.154514, 36.235919699900002 ], [ -115.1545167, 36.235919699900002 ], [ -115.1545167, 36.235925099900001 ], [ -115.154519400000012, 36.235925099900001 ], [ -115.154519400000012, 36.2359304999 ], [ -115.1545167, 36.2359304999 ], [ -115.1545167, 36.235957499899996 ], [ -115.154514, 36.235957499899996 ], [ -115.154514, 36.236006099900003 ], [ -115.1545167, 36.236006099900003 ], [ -115.1545167, 36.2360222999 ], [ -115.154514, 36.2360222999 ], [ -115.154514, 36.236024999899996 ], [ -115.15451130000001, 36.236024999899996 ], [ -115.15451130000001, 36.236027699899999 ], [ -115.1544762, 36.236027699899999 ], [ -115.1544762, 36.236030399900002 ] ] ] } },
{ "type": "Feature", "properties": { "value": 255.0 }, "geometry": { "type": "Polygon", "coordinates": [ [ [ -115.154649, 36.235614599899996 ], [ -115.154622, 36.235614599899996 ], [ -115.154622, 36.235609199899997 ], [ -115.1546193, 36.235609199899997 ], [ -115.1546193, 36.235595699899996 ], [ -115.154622, 36.235595699899996 ], [ -115.154622, 36.2355929999 ], [ -115.1546247, 36.2355929999 ], [ -115.1546247, 36.235590299899997 ], [ -115.1546436, 36.235590299899997 ], [ -115.1546436, 36.2355929999 ], [ -115.15464630000001, 36.2355929999 ], [ -115.15464630000001, 36.235595699899996 ], [ -115.154649, 36.235595699899996 ], [ -115.154649, 36.235614599899996 ] ] ] } },
{ "type": "Feature", "properties": { "value": 255.0 }, "geometry": { "type": "Polygon", "coordinates": [ [ [ -115.1538768, 36.235625399900002 ], [ -115.15387410000001, 36.235625399900002 ], [ -115.15387410000001, 36.235622699899999 ], [ -115.1538633, 36.235622699899999 ], [ -115.1538633, 36.235619999899995 ], [ -115.1538579, 36.235619999899995 ], [ -115.1538579, 36.235617299899999 ], [ -115.15385520000001, 36.235617299899999 ], [ -115.15385520000001, 36.235614599899996 ], [ -115.1538525, 36.235614599899996 ], [ -115.1538525, 36.235606499900001 ], [ -115.15385520000001, 36.235606499900001 ], [ -115.15385520000001, 36.235601099900002 ], [ -115.1538579, 36.235601099900002 ], [ -115.1538579, 36.235598399899999 ], [ -115.1538606, 36.235598399899999 ], [ -115.1538606, 36.2355929999 ], [ -115.153866, 36.2355929999 ], [ -115.153866, 36.235590299899997 ], [ -115.1538822, 36.235590299899997 ], [ -115.1538822, 36.2355929999 ], [ -115.153893, 36.2355929999 ], [ -115.153893, 36.235595699899996 ], [ -115.1538957, 36.235595699899996 ], [ -115.1538957, 36.235606499900001 ], [ -115.153893, 36.235606499900001 ], [ -115.153893, 36.235614599899996 ], [ -115.1538903, 36.235614599899996 ], [ -115.1538903, 36.235617299899999 ], [ -115.1538876, 36.235617299899999 ], [ -115.1538876, 36.235619999899995 ], [ -115.1538849, 36.235619999899995 ], [ -115.1538849, 36.235622699899999 ], [ -115.1538768, 36.235622699899999 ], [ -115.1538768, 36.235625399900002 ] ] ] } },
{ "type": "Feature", "properties": { "value": 255.0 }, "geometry": { "type": "Polygon", "coordinates": [ [ [ -115.1546301, 36.2355254999 ], [ -115.1545923, 36.2355254999 ], [ -115.1545923, 36.235522799899996 ], [ -115.15457880000001, 36.235522799899996 ], [ -115.15457880000001, 36.2355200999 ], [ -115.1544897, 36.2355200999 ], [ -115.1544897, 36.235517399899997 ], [ -115.154487, 36.235517399899997 ], [ -115.154487, 36.235401299899998 ], [ -115.1544897, 36.235401299899998 ], [ -115.1544897, 36.235395899899999 ], [ -115.1544924, 36.235395899899999 ], [ -115.1544924, 36.235393199899995 ], [ -115.154500500000012, 36.235393199899995 ], [ -115.154500500000012, 36.235395899899999 ], [ -115.154514, 36.235395899899999 ], [ -115.154514, 36.235398599900002 ], [ -115.1545626, 36.235398599900002 ], [ -115.1545626, 36.235395899899999 ], [ -115.1545761, 36.235395899899999 ], [ -115.1545761, 36.235393199899995 ], [ -115.1545896, 36.235393199899995 ], [ -115.1545896, 36.235395899899999 ], [ -115.1546004, 36.235395899899999 ], [ -115.1546004, 36.235398599900002 ], [ -115.1546112, 36.235398599900002 ], [ -115.1546112, 36.235401299899998 ], [ -115.1546193, 36.235401299899998 ], [ -115.1546193, 36.235403999900001 ], [ -115.154622, 36.235403999900001 ], [ -115.154622, 36.235406699899997 ], [ -115.15462740000001, 36.235406699899997 ], [ -115.15462740000001, 36.2354093999 ], [ -115.1546301, 36.2354093999 ], [ -115.1546301, 36.235412099899996 ], [ -115.1546328, 36.235412099899996 ], [ -115.1546328, 36.235414799899999 ], [ -115.154635500000012, 36.235414799899999 ], [ -115.154635500000012, 36.235455299899996 ], [ -115.1546382, 36.235455299899996 ], [ -115.1546382, 36.235466099900002 ], [ -115.1546409, 36.235466099900002 ], [ -115.1546409, 36.235484999899995 ], [ -115.1546436, 36.235484999899995 ], [ -115.1546436, 36.235514699900001 ], [ -115.1546409, 36.235514699900001 ], [ -115.1546409, 36.2355200999 ], [ -115.1546382, 36.2355200999 ], [ -115.1546382, 36.235522799899996 ], [ -115.1546301, 36.235522799899996 ], [ -115.1546301, 36.2355254999 ] ] ] } },
{ "type": "Feature", "properties": { "value": 255.0 }, "geometry": { "type": "Polygon", "coordinates": [ [ [ -115.1543574, 36.235522799899996 ], [ -115.1543196, 36.235522799899996 ], [ -115.1543196, 36.2355200999 ], [ -115.15430880000001, 36.2355200999 ], [ -115.15430880000001, 36.235517399899997 ], [ -115.1543034, 36.235517399899997 ], [ -115.1543034, 36.235511999899998 ], [ -115.1543007, 36.235511999899998 ], [ -115.1543007, 36.235479599899996 ], [ -115.1543034, 36.235479599899996 ], [ -115.1543034, 36.235455299899996 ], [ -115.1543061, 36.235455299899996 ], [ -115.1543061, 36.235422899900001 ], [ -115.1543034, 36.235422899900001 ], [ -115.1543034, 36.235398599900002 ], [ -115.1543061, 36.235398599900002 ], [ -115.1543061, 36.235393199899995 ], [ -115.15430880000001, 36.235393199899995 ], [ -115.15430880000001, 36.235390499899999 ], [ -115.154316900000012, 36.235390499899999 ], [ -115.154316900000012, 36.235387799899996 ], [ -115.1543709, 36.235387799899996 ], [ -115.1543709, 36.235390499899999 ], [ -115.1543817, 36.235390499899999 ], [ -115.1543817, 36.235393199899995 ], [ -115.1543871, 36.235393199899995 ], [ -115.1543871, 36.235395899899999 ], [ -115.15439520000001, 36.235395899899999 ], [ -115.15439520000001, 36.235398599900002 ], [ -115.154433, 36.235398599900002 ], [ -115.154433, 36.235395899899999 ], [ -115.1544573, 36.235395899899999 ], [ -115.1544573, 36.235401299899998 ], [ -115.15446, 36.235401299899998 ], [ -115.15446, 36.235511999899998 ], [ -115.1544573, 36.235511999899998 ], [ -115.1544573, 36.235517399899997 ], [ -115.154451900000012, 36.235517399899997 ], [ -115.154451900000012, 36.2355200999 ], [ -115.1543574, 36.2355200999 ], [ -115.1543574, 36.235522799899996 ] ] ] } },
{ "type": "Feature", "properties": { "value": 255.0 }, "geometry": { "type": "Polygon", "coordinates": [ [ [ -115.1547543, 36.235579499899998 ], [ -115.1547489, 36.235579499899998 ], [ -115.1547489, 36.235576799899995 ], [ -115.1546814, 36.235576799899995 ], [ -115.1546814, 36.235574099899999 ], [ -115.154676, 36.235574099899999 ], [ -115.154676, 36.2355686999 ], [ -115.1546733, 36.2355686999 ], [ -115.1546733, 36.2355254999 ], [ -115.154676, 36.2355254999 ], [ -115.154676, 36.235514699900001 ], [ -115.1546733, 36.235514699900001 ], [ -115.1546733, 36.235468799899998 ], [ -115.154676, 36.235468799899998 ], [ -115.154676, 36.235466099900002 ], [ -115.1546922, 36.235466099900002 ], [ -115.1546922, 36.235468799899998 ], [ -115.15469490000001, 36.235468799899998 ], [ -115.15469490000001, 36.235466099900002 ], [ -115.1547057, 36.235466099900002 ], [ -115.1547057, 36.235460699899996 ], [ -115.1547084, 36.235460699899996 ], [ -115.1547084, 36.235455299899996 ], [ -115.15471380000001, 36.235455299899996 ], [ -115.15471380000001, 36.2354525999 ], [ -115.1547462, 36.2354525999 ], [ -115.1547462, 36.235449899899997 ], [ -115.1547543, 36.235449899899997 ], [ -115.1547543, 36.235444499899998 ], [ -115.154757, 36.235444499899998 ], [ -115.154757, 36.235395899899999 ], [ -115.1547597, 36.235395899899999 ], [ -115.1547597, 36.235393199899995 ], [ -115.15482990000001, 36.235393199899995 ], [ -115.15482990000001, 36.235395899899999 ], [ -115.1548326, 36.235395899899999 ], [ -115.1548326, 36.235449899899997 ], [ -115.15482990000001, 36.235449899899997 ], [ -115.15482990000001, 36.235457999899999 ], [ -115.1548272, 36.235457999899999 ], [ -115.1548272, 36.235495799900001 ], [ -115.1548245, 36.235495799900001 ], [ -115.1548245, 36.235547099899996 ], [ -115.1548272, 36.235547099899996 ], [ -115.1548272, 36.235571399899996 ], [ -115.1548245, 36.235571399899996 ], [ -115.1548245, 36.235574099899999 ], [ -115.1548056, 36.235574099899999 ], [ -115.1548056, 36.235576799899995 ], [ -115.1547543, 36.235576799899995 ], [ -115.1547543, 36.235579499899998 ] ] ] } },
{ "type": "Feature", "properties": { "value": 255.0 }, "geometry": { "type": "Polygon", "coordinates": [ [ [ -115.1533368, 36.235574099899999 ], [ -115.1531856, 36.235574099899999 ], [ -115.1531856, 36.235571399899996 ], [ -115.1531802, 36.235571399899996 ], [ -115.1531802, 36.235565999899997 ], [ -115.1531775, 36.235565999899997 ], [ -115.1531775, 36.235517399899997 ], [ -115.1531802, 36.235517399899997 ], [ -115.1531802, 36.235509299899995 ], [ -115.1531775, 36.235509299899995 ], [ -115.1531775, 36.235444499899998 ], [ -115.1531802, 36.235444499899998 ], [ -115.1531802, 36.235398599900002 ], [ -115.1531829, 36.235398599900002 ], [ -115.1531829, 36.2353850999 ], [ -115.1531883, 36.2353850999 ], [ -115.1531883, 36.235382399899997 ], [ -115.1532072, 36.235382399899997 ], [ -115.1532072, 36.2353850999 ], [ -115.1532288, 36.2353850999 ], [ -115.1532288, 36.235387799899996 ], [ -115.153245, 36.235387799899996 ], [ -115.153245, 36.235390499899999 ], [ -115.1532504, 36.235390499899999 ], [ -115.1532504, 36.235393199899995 ], [ -115.1532531, 36.235393199899995 ], [ -115.1532531, 36.235398599900002 ], [ -115.1532558, 36.235398599900002 ], [ -115.1532558, 36.235403999900001 ], [ -115.1532585, 36.235403999900001 ], [ -115.1532585, 36.235406699899997 ], [ -115.1532639, 36.235406699899997 ], [ -115.1532639, 36.2354093999 ], [ -115.1532666, 36.2354093999 ], [ -115.1532666, 36.235406699899997 ], [ -115.1532747, 36.235406699899997 ], [ -115.1532747, 36.235403999900001 ], [ -115.1532882, 36.235403999900001 ], [ -115.1532882, 36.235401299899998 ], [ -115.1532909, 36.235401299899998 ], [ -115.1532909, 36.235398599900002 ], [ -115.1532936, 36.235398599900002 ], [ -115.1532936, 36.235395899899999 ], [ -115.1532963, 36.235395899899999 ], [ -115.1532963, 36.235393199899995 ], [ -115.153299, 36.235393199899995 ], [ -115.153299, 36.235390499899999 ], [ -115.1533071, 36.235390499899999 ], [ -115.1533071, 36.235387799899996 ], [ -115.1533233, 36.235387799899996 ], [ -115.1533233, 36.235390499899999 ], [ -115.1533287, 36.235390499899999 ], [ -115.1533287, 36.235393199899995 ], [ -115.1533314, 36.235393199899995 ], [ -115.1533314, 36.235395899899999 ], [ -115.1533341, 36.235395899899999 ], [ -115.1533341, 36.235398599900002 ], [ -115.1533368, 36.235398599900002 ], [ -115.1533368, 36.2355254999 ], [ -115.1533395, 36.2355254999 ], [ -115.1533395, 36.235571399899996 ], [ -115.1533368, 36.235571399899996 ], [ -115.1533368, 36.235574099899999 ] ] ] } },
{ "type": "Feature", "properties": { "value": 255.0 }, "geometry": { "type": "Polygon", "coordinates": [ [ [ -115.1534772, 36.2355929999 ], [ -115.1534259, 36.2355929999 ], [ -115.1534259, 36.235590299899997 ], [ -115.1533773, 36.235590299899997 ], [ -115.1533773, 36.235587599900001 ], [ -115.15337190000001, 36.235587599900001 ], [ -115.15337190000001, 36.235584899899997 ], [ -115.1533692, 36.235584899899997 ], [ -115.1533692, 36.235398599900002 ], [ -115.15337190000001, 36.235398599900002 ], [ -115.15337190000001, 36.235387799899996 ], [ -115.1533746, 36.235387799899996 ], [ -115.1533746, 36.2353850999 ], [ -115.1534556, 36.2353850999 ], [ -115.1534556, 36.235387799899996 ], [ -115.153461, 36.235387799899996 ], [ -115.153461, 36.235390499899999 ], [ -115.1534637, 36.235390499899999 ], [ -115.1534637, 36.235393199899995 ], [ -115.1534664, 36.235393199899995 ], [ -115.1534664, 36.235395899899999 ], [ -115.1534691, 36.235395899899999 ], [ -115.1534691, 36.235439099899999 ], [ -115.153488, 36.235439099899999 ], [ -115.153488, 36.235441799899995 ], [ -115.1535204, 36.235441799899995 ], [ -115.1535204, 36.235444499899998 ], [ -115.1535231, 36.235444499899998 ], [ -115.1535231, 36.235471499900001 ], [ -115.1535204, 36.235471499900001 ], [ -115.1535204, 36.235557899900002 ], [ -115.1535231, 36.235557899900002 ], [ -115.1535231, 36.235582199900001 ], [ -115.1535204, 36.235582199900001 ], [ -115.1535204, 36.235587599900001 ], [ -115.1535177, 36.235587599900001 ], [ -115.1535177, 36.235590299899997 ], [ -115.1534772, 36.235590299899997 ], [ -115.1534772, 36.2355929999 ] ] ] } },
{ "type": "Feature", "properties": { "value": 255.0 }, "geometry": { "type": "Polygon", "coordinates": [ [ [ -115.1539767, 36.235538999900001 ], [ -115.153947, 36.235538999900001 ], [ -115.153947, 36.235536299899998 ], [ -115.1539308, 36.235536299899998 ], [ -115.1539308, 36.235533599900002 ], [ -115.1539281, 36.235533599900002 ], [ -115.1539281, 36.2355011999 ], [ -115.1539254, 36.2355011999 ], [ -115.1539254, 36.235420199899998 ], [ -115.1539281, 36.235420199899998 ], [ -115.1539281, 36.235393199899995 ], [ -115.1539308, 36.235393199899995 ], [ -115.1539308, 36.235387799899996 ], [ -115.1539335, 36.235387799899996 ], [ -115.1539335, 36.2353850999 ], [ -115.1539551, 36.2353850999 ], [ -115.1539551, 36.235387799899996 ], [ -115.1539632, 36.235387799899996 ], [ -115.1539632, 36.235390499899999 ], [ -115.1539659, 36.235390499899999 ], [ -115.1539659, 36.235393199899995 ], [ -115.1539686, 36.235393199899995 ], [ -115.1539686, 36.235395899899999 ], [ -115.1539713, 36.235395899899999 ], [ -115.1539713, 36.235398599900002 ], [ -115.153974, 36.235398599900002 ], [ -115.153974, 36.235401299899998 ], [ -115.1540604, 36.235401299899998 ], [ -115.1540604, 36.235403999900001 ], [ -115.1540631, 36.235403999900001 ], [ -115.1540631, 36.235406699899997 ], [ -115.1540658, 36.235406699899997 ], [ -115.1540658, 36.235428299900001 ], [ -115.1540631, 36.235428299900001 ], [ -115.1540631, 36.235479599899996 ], [ -115.1540658, 36.235479599899996 ], [ -115.1540658, 36.235509299899995 ], [ -115.1540631, 36.235509299899995 ], [ -115.1540631, 36.235511999899998 ], [ -115.1540604, 36.235511999899998 ], [ -115.1540604, 36.235514699900001 ], [ -115.1540199, 36.235514699900001 ], [ -115.1540199, 36.235517399899997 ], [ -115.1540064, 36.235517399899997 ], [ -115.1540064, 36.2355200999 ], [ -115.154001, 36.2355200999 ], [ -115.154001, 36.235522799899996 ], [ -115.1539983, 36.235522799899996 ], [ -115.1539983, 36.2355254999 ], [ -115.1539956, 36.2355254999 ], [ -115.1539956, 36.235530899899999 ], [ -115.1539929, 36.235530899899999 ], [ -115.1539929, 36.235533599900002 ], [ -115.15399020000001, 36.235533599900002 ], [ -115.15399020000001, 36.235536299899998 ], [ -115.1539767, 36.235536299899998 ], [ -115.1539767, 36.235538999900001 ] ] ] } },
{ "type": "Feature", "properties": { "value": 255.0 }, "geometry": { "type": "Polygon", "coordinates": [ [ [ -115.1538309, 36.235538999900001 ], [ -115.1537742, 36.235538999900001 ], [ -115.1537742, 36.235536299899998 ], [ -115.1537445, 36.235536299899998 ], [ -115.1537445, 36.235533599900002 ], [ -115.1537418, 36.235533599900002 ], [ -115.1537418, 36.235393199899995 ], [ -115.1537445, 36.235393199899995 ], [ -115.1537445, 36.235387799899996 ], [ -115.1537472, 36.235387799899996 ], [ -115.1537472, 36.2353850999 ], [ -115.1537526, 36.2353850999 ], [ -115.1537526, 36.235387799899996 ], [ -115.1537607, 36.235387799899996 ], [ -115.1537607, 36.235390499899999 ], [ -115.1537715, 36.235390499899999 ], [ -115.1537715, 36.235393199899995 ], [ -115.1537985, 36.235393199899995 ], [ -115.1537985, 36.235390499899999 ], [ -115.1538093, 36.235390499899999 ], [ -115.1538093, 36.235387799899996 ], [ -115.1538201, 36.235387799899996 ], [ -115.1538201, 36.2353850999 ], [ -115.1538795, 36.2353850999 ], [ -115.1538795, 36.235387799899996 ], [ -115.1538903, 36.235387799899996 ], [ -115.1538903, 36.235390499899999 ], [ -115.153893, 36.235390499899999 ], [ -115.153893, 36.2354093999 ], [ -115.1538903, 36.2354093999 ], [ -115.1538903, 36.235447199900001 ], [ -115.153893, 36.235447199900001 ], [ -115.153893, 36.235457999899999 ], [ -115.1538957, 36.235457999899999 ], [ -115.1538957, 36.235493099899998 ], [ -115.1538984, 36.235493099899998 ], [ -115.1538984, 36.235503899899996 ], [ -115.1538957, 36.235503899899996 ], [ -115.1538957, 36.235511999899998 ], [ -115.153893, 36.235511999899998 ], [ -115.153893, 36.235514699900001 ], [ -115.1538822, 36.235514699900001 ], [ -115.1538822, 36.235517399899997 ], [ -115.1538687, 36.235517399899997 ], [ -115.1538687, 36.2355200999 ], [ -115.153839, 36.2355200999 ], [ -115.153839, 36.235522799899996 ], [ -115.1538363, 36.235522799899996 ], [ -115.1538363, 36.235533599900002 ], [ -115.1538336, 36.235533599900002 ], [ -115.1538336, 36.235536299899998 ], [ -115.1538309, 36.235536299899998 ], [ -115.1538309, 36.235538999900001 ] ] ] } },
{ "type": "Feature", "properties": { "value": 255.0 }, "geometry": { "type": "Polygon", "coordinates": [ [ [ -115.153623, 36.235574099899999 ], [ -115.1535987, 36.235574099899999 ], [ -115.1535987, 36.235571399899996 ], [ -115.1535582, 36.235571399899996 ], [ -115.1535582, 36.2355686999 ], [ -115.15355550000001, 36.2355686999 ], [ -115.15355550000001, 36.235565999899997 ], [ -115.1535528, 36.235565999899997 ], [ -115.1535528, 36.235560599899998 ], [ -115.15355550000001, 36.235560599899998 ], [ -115.15355550000001, 36.235541699899997 ], [ -115.1535528, 36.235541699899997 ], [ -115.1535528, 36.235455299899996 ], [ -115.15355550000001, 36.235455299899996 ], [ -115.15355550000001, 36.235447199900001 ], [ -115.1535582, 36.235447199900001 ], [ -115.1535582, 36.235444499899998 ], [ -115.1535609, 36.235444499899998 ], [ -115.1535609, 36.235441799899995 ], [ -115.1535798, 36.235441799899995 ], [ -115.1535798, 36.235444499899998 ], [ -115.1535906, 36.235444499899998 ], [ -115.1535906, 36.235447199900001 ], [ -115.15360410000001, 36.235447199900001 ], [ -115.15360410000001, 36.235444499899998 ], [ -115.1536068, 36.235444499899998 ], [ -115.1536068, 36.2354093999 ], [ -115.15360410000001, 36.2354093999 ], [ -115.15360410000001, 36.235395899899999 ], [ -115.1536014, 36.235395899899999 ], [ -115.1536014, 36.235387799899996 ], [ -115.15360410000001, 36.235387799899996 ], [ -115.15360410000001, 36.235382399899997 ], [ -115.1536095, 36.235382399899997 ], [ -115.1536095, 36.235379699900001 ], [ -115.153704, 36.235379699900001 ], [ -115.153704, 36.235382399899997 ], [ -115.153709400000011, 36.235382399899997 ], [ -115.153709400000011, 36.2353850999 ], [ -115.1537121, 36.2353850999 ], [ -115.1537121, 36.235401299899998 ], [ -115.153709400000011, 36.235401299899998 ], [ -115.153709400000011, 36.2354336999 ], [ -115.1537067, 36.2354336999 ], [ -115.1537067, 36.235522799899996 ], [ -115.153709400000011, 36.235522799899996 ], [ -115.153709400000011, 36.235547099899996 ], [ -115.1537067, 36.235547099899996 ], [ -115.1537067, 36.235549799899999 ], [ -115.1536743, 36.235549799899999 ], [ -115.1536743, 36.235552499899995 ], [ -115.1536473, 36.235552499899995 ], [ -115.1536473, 36.235555199899999 ], [ -115.1536365, 36.235555199899999 ], [ -115.1536365, 36.235557899900002 ], [ -115.1536338, 36.235557899900002 ], [ -115.1536338, 36.235563299900001 ], [ -115.1536311, 36.235563299900001 ], [ -115.1536311, 36.2355686999 ], [ -115.1536284, 36.2355686999 ], [ -115.1536284, 36.235571399899996 ], [ -115.153623, 36.235571399899996 ], [ -115.153623, 36.235574099899999 ] ] ] } },
{ "type": "Feature", "properties": { "value": 255.0 }, "geometry": { "type": "Polygon", "coordinates": [ [ [ -115.1542683, 36.235563299900001 ], [ -115.1541171, 36.235563299900001 ], [ -115.1541171, 36.235560599899998 ], [ -115.154114400000012, 36.235560599899998 ], [ -115.154114400000012, 36.235555199899999 ], [ -115.1541117, 36.235555199899999 ], [ -115.1541117, 36.235522799899996 ], [ -115.154114400000012, 36.235522799899996 ], [ -115.154114400000012, 36.235506599899999 ], [ -115.1541117, 36.235506599899999 ], [ -115.1541117, 36.235460699899996 ], [ -115.154114400000012, 36.235460699899996 ], [ -115.154114400000012, 36.235379699900001 ], [ -115.1541171, 36.235379699900001 ], [ -115.1541171, 36.235371599899999 ], [ -115.1541198, 36.235371599899999 ], [ -115.1541198, 36.235363499899996 ], [ -115.1541225, 36.235363499899996 ], [ -115.1541225, 36.2353607999 ], [ -115.15412520000001, 36.2353607999 ], [ -115.15412520000001, 36.235355399900001 ], [ -115.1541279, 36.235355399900001 ], [ -115.1541279, 36.235352699899998 ], [ -115.15419270000001, 36.235352699899998 ], [ -115.15419270000001, 36.235358099899997 ], [ -115.1541954, 36.235358099899997 ], [ -115.1541954, 36.2353661999 ], [ -115.1541981, 36.2353661999 ], [ -115.1541981, 36.235371599899999 ], [ -115.1542008, 36.235371599899999 ], [ -115.1542008, 36.235374299899995 ], [ -115.1542224, 36.235374299899995 ], [ -115.1542224, 36.235376999899998 ], [ -115.154230500000011, 36.235376999899998 ], [ -115.154230500000011, 36.235379699900001 ], [ -115.1542386, 36.235379699900001 ], [ -115.1542386, 36.235382399899997 ], [ -115.1542575, 36.235382399899997 ], [ -115.1542575, 36.2353850999 ], [ -115.1542683, 36.2353850999 ], [ -115.1542683, 36.235387799899996 ], [ -115.154271, 36.235387799899996 ], [ -115.154271, 36.235447199900001 ], [ -115.1542683, 36.235447199900001 ], [ -115.1542683, 36.235503899899996 ], [ -115.154271, 36.235503899899996 ], [ -115.154271, 36.235560599899998 ], [ -115.1542683, 36.235560599899998 ], [ -115.1542683, 36.235563299900001 ] ] ] } }
]
}
