{
"type": "FeatureCollection",
"crs": { "type": "name", "properties": { "name": "urn:ogc:def:crs:OGC:1.3:CRS84" } },
"features": [
{ "type": "Feature", "properties": { "value": 255.0 }, "geometry": { "type": "Polygon", "coordinates": [ [ [ -115.1607834, 36.133562699700001 ], [ -115.1607699, 36.133562699700001 ], [ -115.1607699, 36.133557299700001 ], [ -115.1607672, 36.133557299700001 ], [ -115.1607672, 36.133551899700002 ], [ -115.1607645, 36.133551899700002 ], [ -115.1607645, 36.133549199699999 ], [ -115.1607618, 36.133549199699999 ], [ -115.1607618, 36.133546499700003 ], [ -115.1607429, 36.133546499700003 ], [ -115.1607429, 36.1335437997 ], [ -115.1607402, 36.1335437997 ], [ -115.1607402, 36.133541099700004 ], [ -115.1607375, 36.133541099700004 ], [ -115.1607375, 36.133530299699999 ], [ -115.1607402, 36.133530299699999 ], [ -115.1607402, 36.1335194997 ], [ -115.1607429, 36.1335194997 ], [ -115.1607429, 36.133514099700001 ], [ -115.1607456, 36.133514099700001 ], [ -115.1607456, 36.133505999699999 ], [ -115.1607483, 36.133505999699999 ], [ -115.1607483, 36.1335005997 ], [ -115.1607456, 36.1335005997 ], [ -115.1607456, 36.133503299700003 ], [ -115.1607429, 36.133503299700003 ], [ -115.1607429, 36.133505999699999 ], [ -115.1607402, 36.133505999699999 ], [ -115.1607402, 36.133508699700002 ], [ -115.1607375, 36.133508699700002 ], [ -115.1607375, 36.133503299700003 ], [ -115.1607402, 36.133503299700003 ], [ -115.1607402, 36.1334951997 ], [ -115.1607429, 36.1334951997 ], [ -115.1607429, 36.133489799700001 ], [ -115.1607456, 36.133489799700001 ], [ -115.1607456, 36.133487099699998 ], [ -115.1607483, 36.133487099699998 ], [ -115.1607483, 36.133481699699999 ], [ -115.160751, 36.133481699699999 ], [ -115.160751, 36.133473599700004 ], [ -115.1607537, 36.133473599700004 ], [ -115.1607537, 36.133465499700002 ], [ -115.1607564, 36.133465499700002 ], [ -115.1607564, 36.133457399699999 ], [ -115.1607591, 36.133457399699999 ], [ -115.1607591, 36.133454699700003 ], [ -115.1607618, 36.133454699700003 ], [ -115.1607618, 36.133449299699997 ], [ -115.1607645, 36.133449299699997 ], [ -115.1607645, 36.133441199700002 ], [ -115.1607672, 36.133441199700002 ], [ -115.1607672, 36.133438499699999 ], [ -115.1607699, 36.133438499699999 ], [ -115.1607699, 36.1334330997 ], [ -115.1607726, 36.1334330997 ], [ -115.1607726, 36.133430399700003 ], [ -115.1607753, 36.133430399700003 ], [ -115.1607753, 36.1334276997 ], [ -115.160778, 36.1334276997 ], [ -115.160778, 36.133424999699997 ], [ -115.1607807, 36.133424999699997 ], [ -115.1607807, 36.133422299700001 ], [ -115.1607834, 36.133422299700001 ], [ -115.1607834, 36.133419599699998 ], [ -115.1607861, 36.133419599699998 ], [ -115.1607861, 36.133416899700002 ], [ -115.1607888, 36.133416899700002 ], [ -115.1607888, 36.133414199699999 ], [ -115.1607915, 36.133414199699999 ], [ -115.1607915, 36.133411499700003 ], [ -115.1607942, 36.133411499700003 ], [ -115.1607942, 36.1334087997 ], [ -115.1607969, 36.1334087997 ], [ -115.1607969, 36.133411499700003 ], [ -115.1607996, 36.133411499700003 ], [ -115.1607996, 36.133414199699999 ], [ -115.1608023, 36.133414199699999 ], [ -115.1608023, 36.133435799700003 ], [ -115.1607996, 36.133435799700003 ], [ -115.1607996, 36.133441199700002 ], [ -115.1607969, 36.133441199700002 ], [ -115.1607969, 36.133443899699998 ], [ -115.1607942, 36.133443899699998 ], [ -115.1607942, 36.133449299699997 ], [ -115.1607915, 36.133449299699997 ], [ -115.1607915, 36.1334519997 ], [ -115.1607888, 36.1334519997 ], [ -115.1607888, 36.133454699700003 ], [ -115.1607861, 36.133454699700003 ], [ -115.1607861, 36.133457399699999 ], [ -115.1607834, 36.133457399699999 ], [ -115.1607834, 36.133460099700002 ], [ -115.160778, 36.133460099700002 ], [ -115.160778, 36.133462799699998 ], [ -115.1607753, 36.133462799699998 ], [ -115.1607753, 36.133465499700002 ], [ -115.1607726, 36.133465499700002 ], [ -115.1607726, 36.133468199699998 ], [ -115.1607699, 36.133468199699998 ], [ -115.1607699, 36.133470899700001 ], [ -115.1607672, 36.133470899700001 ], [ -115.1607672, 36.133473599700004 ], [ -115.1607618, 36.133473599700004 ], [ -115.1607618, 36.1334762997 ], [ -115.1607591, 36.1334762997 ], [ -115.1607591, 36.133478999700003 ], [ -115.1607564, 36.133478999700003 ], [ -115.1607564, 36.133481699699999 ], [ -115.1607537, 36.133481699699999 ], [ -115.1607537, 36.133492499699997 ], [ -115.160751, 36.133492499699997 ], [ -115.160751, 36.133497899700004 ], [ -115.1607564, 36.133497899700004 ], [ -115.1607564, 36.1334951997 ], [ -115.1607645, 36.1334951997 ], [ -115.1607645, 36.133492499699997 ], [ -115.1607726, 36.133492499699997 ], [ -115.1607726, 36.133489799700001 ], [ -115.1607807, 36.133489799700001 ], [ -115.1607807, 36.133487099699998 ], [ -115.1607915, 36.133487099699998 ], [ -115.1607915, 36.133489799700001 ], [ -115.1607942, 36.133489799700001 ], [ -115.1607942, 36.133505999699999 ], [ -115.1608023, 36.133505999699999 ], [ -115.1608023, 36.133503299700003 ], [ -115.1608266, 36.133503299700003 ], [ -115.1608266, 36.133505999699999 ], [ -115.1608347, 36.133505999699999 ], [ -115.1608347, 36.133508699700002 ], [ -115.1608428, 36.133508699700002 ], [ -115.1608428, 36.133511399699998 ], [ -115.1608779, 36.133511399699998 ], [ -115.1608779, 36.133514099700001 ], [ -115.1608833, 36.133514099700001 ], [ -115.1608833, 36.133516799699997 ], [ -115.160886, 36.133516799699997 ], [ -115.160886, 36.1335194997 ], [ -115.1608887, 36.1335194997 ], [ -115.1608887, 36.133530299699999 ], [ -115.160886, 36.133530299699999 ], [ -115.160886, 36.133535699699998 ], [ -115.1608806, 36.133535699699998 ], [ -115.1608806, 36.133538399700001 ], [ -115.160859, 36.133538399700001 ], [ -115.160859, 36.133541099700004 ], [ -115.1608428, 36.133541099700004 ], [ -115.1608428, 36.1335437997 ], [ -115.1608212, 36.1335437997 ], [ -115.1608212, 36.133546499700003 ], [ -115.1608185, 36.133546499700003 ], [ -115.1608185, 36.133549199699999 ], [ -115.1608077, 36.133549199699999 ], [ -115.1608077, 36.133546499700003 ], [ -115.1608023, 36.133546499700003 ], [ -115.1608023, 36.133549199699999 ], [ -115.1607888, 36.133549199699999 ], [ -115.1607888, 36.133554599699998 ], [ -115.1607861, 36.133554599699998 ], [ -115.1607861, 36.133557299700001 ], [ -115.1607834, 36.133557299700001 ], [ -115.1607834, 36.133562699700001 ] ] ] } },
{ "type": "Feature", "properties": { "value": 255.0 }, "geometry": { "type": "Polygon", "coordinates": [ [ [ -115.1601003, 36.133419599699998 ], [ -115.1600976, 36.133419599699998 ], [ -115.1600976, 36.133397999700001 ], [ -115.1601003, 36.133397999700001 ], [ -115.1601003, 36.133400699699997 ], [ -115.160103, 36.133400699699997 ], [ -115.160103, 36.133403399700001 ], [ -115.1601057, 36.133403399700001 ], [ -115.1601057, 36.133414199699999 ], [ -115.160103, 36.133414199699999 ], [ -115.160103, 36.133416899700002 ], [ -115.1601003, 36.133416899700002 ], [ -115.1601003, 36.133419599699998 ] ] ] } },
{ "type": "Feature", "properties": { "value": 255.0 }, "geometry": { "type": "Polygon", "coordinates": [ [ [ -115.1608914, 36.133381799699997 ], [ -115.1608806, 36.133381799699997 ], [ -115.1608806, 36.133379099700001 ], [ -115.1608779, 36.133379099700001 ], [ -115.1608779, 36.133365599699999 ], [ -115.1608806, 36.133365599699999 ], [ -115.1608806, 36.1333601997 ], [ -115.1608833, 36.1333601997 ], [ -115.1608833, 36.133354799700001 ], [ -115.160886, 36.133354799700001 ], [ -115.160886, 36.133352099699998 ], [ -115.1608887, 36.133352099699998 ], [ -115.1608887, 36.133349399700002 ], [ -115.1608995, 36.133349399700002 ], [ -115.1608995, 36.133352099699998 ], [ -115.1609022, 36.133352099699998 ], [ -115.1609022, 36.133362899700003 ], [ -115.1608995, 36.133362899700003 ], [ -115.1608995, 36.133368299700003 ], [ -115.1608968, 36.133368299700003 ], [ -115.1608968, 36.133376399699998 ], [ -115.1608941, 36.133376399699998 ], [ -115.1608941, 36.133379099700001 ], [ -115.1608914, 36.133379099700001 ], [ -115.1608914, 36.133381799699997 ] ] ] } },
{ "type": "Feature", "properties": { "value": 255.0 }, "geometry": { "type": "Polygon", "coordinates": [ [ [ -115.1608293, 36.133379099700001 ], [ -115.1608185, 36.133379099700001 ], [ -115.1608185, 36.133362899700003 ], [ -115.1608212, 36.133362899700003 ], [ -115.1608212, 36.133357499699997 ], [ -115.1608239, 36.133357499699997 ], [ -115.1608239, 36.133352099699998 ], [ -115.1608266, 36.133352099699998 ], [ -115.1608266, 36.133346699699999 ], [ -115.1608293, 36.133346699699999 ], [ -115.1608293, 36.1333412997 ], [ -115.160832, 36.1333412997 ], [ -115.160832, 36.133338599700004 ], [ -115.1608374, 36.133338599700004 ], [ -115.1608374, 36.1333358997 ], [ -115.1608401, 36.1333358997 ], [ -115.1608401, 36.133333199699997 ], [ -115.1608428, 36.133333199699997 ], [ -115.1608428, 36.133330499700001 ], [ -115.1608455, 36.133330499700001 ], [ -115.1608455, 36.133325099700002 ], [ -115.1608482, 36.133325099700002 ], [ -115.1608482, 36.133319699700003 ], [ -115.1608509, 36.133319699700003 ], [ -115.1608509, 36.1333169997 ], [ -115.1608536, 36.1333169997 ], [ -115.1608536, 36.133314299699997 ], [ -115.160859, 36.133314299699997 ], [ -115.160859, 36.133330499700001 ], [ -115.1608563, 36.133330499700001 ], [ -115.1608563, 36.133349399700002 ], [ -115.1608536, 36.133349399700002 ], [ -115.1608536, 36.133354799700001 ], [ -115.1608509, 36.133354799700001 ], [ -115.1608509, 36.1333601997 ], [ -115.1608482, 36.1333601997 ], [ -115.1608482, 36.133365599699999 ], [ -115.1608455, 36.133365599699999 ], [ -115.1608455, 36.133368299700003 ], [ -115.1608428, 36.133368299700003 ], [ -115.1608428, 36.133370999699999 ], [ -115.1608401, 36.133370999699999 ], [ -115.1608401, 36.133373699700002 ], [ -115.1608347, 36.133373699700002 ], [ -115.1608347, 36.133376399699998 ], [ -115.1608293, 36.133376399699998 ], [ -115.1608293, 36.133379099700001 ] ] ] } },
{ "type": "Feature", "properties": { "value": 255.0 }, "geometry": { "type": "Polygon", "coordinates": [ [ [ -115.1609427, 36.133195499700001 ], [ -115.1609373, 36.133195499700001 ], [ -115.1609373, 36.133190099700002 ], [ -115.1609319, 36.133190099700002 ], [ -115.1609319, 36.133187399699999 ], [ -115.1609346, 36.133187399699999 ], [ -115.1609346, 36.1331819997 ], [ -115.1609373, 36.1331819997 ], [ -115.1609373, 36.133179299699997 ], [ -115.16094, 36.133179299699997 ], [ -115.16094, 36.133173899699997 ], [ -115.1609427, 36.133173899699997 ], [ -115.1609427, 36.133171199700001 ], [ -115.1609454, 36.133171199700001 ], [ -115.1609454, 36.133165799700002 ], [ -115.1609481, 36.133165799700002 ], [ -115.1609481, 36.133160399700003 ], [ -115.1609508, 36.133160399700003 ], [ -115.1609508, 36.1331576997 ], [ -115.1609535, 36.1331576997 ], [ -115.1609535, 36.133152299700001 ], [ -115.1609562, 36.133152299700001 ], [ -115.1609562, 36.133149599699998 ], [ -115.1609589, 36.133149599699998 ], [ -115.1609589, 36.133144199699998 ], [ -115.1609616, 36.133144199699998 ], [ -115.1609616, 36.133141499700002 ], [ -115.1609643, 36.133141499700002 ], [ -115.1609643, 36.133136099700003 ], [ -115.160967, 36.133136099700003 ], [ -115.160967, 36.1331333997 ], [ -115.1609697, 36.1331333997 ], [ -115.1609697, 36.133127999700001 ], [ -115.1609724, 36.133127999700001 ], [ -115.1609724, 36.133125299699998 ], [ -115.1609751, 36.133125299699998 ], [ -115.1609751, 36.133122599700002 ], [ -115.1609778, 36.133122599700002 ], [ -115.1609778, 36.133117199700003 ], [ -115.1609805, 36.133117199700003 ], [ -115.1609805, 36.1331144997 ], [ -115.1609832, 36.1331144997 ], [ -115.1609832, 36.133111799699996 ], [ -115.1609859, 36.133111799699996 ], [ -115.1609859, 36.133106399699997 ], [ -115.1609886, 36.133106399699997 ], [ -115.1609886, 36.133103699700001 ], [ -115.1609913, 36.133103699700001 ], [ -115.1609913, 36.133098299700002 ], [ -115.160994, 36.133098299700002 ], [ -115.160994, 36.133095599699999 ], [ -115.1609967, 36.133095599699999 ], [ -115.1609967, 36.1330901997 ], [ -115.1609994, 36.1330901997 ], [ -115.1609994, 36.133087499699997 ], [ -115.1610021, 36.133087499699997 ], [ -115.1610021, 36.133082099699998 ], [ -115.1610048, 36.133082099699998 ], [ -115.1610048, 36.133079399700001 ], [ -115.1610075, 36.133079399700001 ], [ -115.1610075, 36.133073999700002 ], [ -115.1610102, 36.133073999700002 ], [ -115.1610102, 36.133071299699999 ], [ -115.1610129, 36.133071299699999 ], [ -115.1610129, 36.1330658997 ], [ -115.1610156, 36.1330658997 ], [ -115.1610156, 36.133063199699997 ], [ -115.1610183, 36.133063199699997 ], [ -115.1610183, 36.133060499700001 ], [ -115.161021, 36.133060499700001 ], [ -115.161021, 36.133057799699998 ], [ -115.1610237, 36.133057799699998 ], [ -115.1610237, 36.133052399699999 ], [ -115.1610264, 36.133052399699999 ], [ -115.1610264, 36.133046999699999 ], [ -115.1610291, 36.133046999699999 ], [ -115.1610291, 36.1330415997 ], [ -115.1610318, 36.1330415997 ], [ -115.1610318, 36.133036199700001 ], [ -115.1610345, 36.133036199700001 ], [ -115.1610345, 36.133030799700002 ], [ -115.1610372, 36.133030799700002 ], [ -115.1610372, 36.133025399700003 ], [ -115.1610399, 36.133025399700003 ], [ -115.1610399, 36.133019999699997 ], [ -115.1610426, 36.133019999699997 ], [ -115.1610426, 36.133011899700001 ], [ -115.1610453, 36.133011899700001 ], [ -115.1610453, 36.133009199699998 ], [ -115.161048, 36.133009199699998 ], [ -115.161048, 36.133006499700002 ], [ -115.1610507, 36.133006499700002 ], [ -115.1610507, 36.133003799699999 ], [ -115.1610534, 36.133003799699999 ], [ -115.1610534, 36.133001099700003 ], [ -115.1610588, 36.133001099700003 ], [ -115.1610588, 36.1329983997 ], [ -115.1610615, 36.1329983997 ], [ -115.1610615, 36.132995699699997 ], [ -115.1610642, 36.132995699699997 ], [ -115.1610642, 36.132990299699998 ], [ -115.1610669, 36.132990299699998 ], [ -115.1610669, 36.132982199700002 ], [ -115.1610696, 36.132982199700002 ], [ -115.1610696, 36.132976799699996 ], [ -115.1610723, 36.132976799699996 ], [ -115.1610723, 36.1329740997 ], [ -115.161075, 36.1329740997 ], [ -115.161075, 36.132968699700001 ], [ -115.1610777, 36.132968699700001 ], [ -115.1610777, 36.132965999699998 ], [ -115.1610804, 36.132965999699998 ], [ -115.1610804, 36.132960599699999 ], [ -115.1610831, 36.132960599699999 ], [ -115.1610831, 36.132957899700003 ], [ -115.1610858, 36.132957899700003 ], [ -115.1610858, 36.132952499699996 ], [ -115.1610885, 36.132952499699996 ], [ -115.1610885, 36.1329497997 ], [ -115.1610912, 36.1329497997 ], [ -115.1610912, 36.132947099699997 ], [ -115.1610939, 36.132947099699997 ], [ -115.1610939, 36.132941699699998 ], [ -115.1610966, 36.132941699699998 ], [ -115.1610966, 36.132938999700002 ], [ -115.1610993, 36.132938999700002 ], [ -115.1610993, 36.132933599700003 ], [ -115.161102, 36.132933599700003 ], [ -115.161102, 36.1329308997 ], [ -115.1611047, 36.1329308997 ], [ -115.1611047, 36.132928199699997 ], [ -115.1611074, 36.132928199699997 ], [ -115.1611074, 36.132922799699998 ], [ -115.1611101, 36.132922799699998 ], [ -115.1611101, 36.132920099700002 ], [ -115.1611128, 36.132920099700002 ], [ -115.1611128, 36.132917399699998 ], [ -115.1611155, 36.132917399699998 ], [ -115.1611155, 36.132911999699999 ], [ -115.1611182, 36.132911999699999 ], [ -115.1611182, 36.1329065997 ], [ -115.1611209, 36.1329065997 ], [ -115.1611209, 36.132903899699997 ], [ -115.1611236, 36.132903899699997 ], [ -115.1611236, 36.132901199700001 ], [ -115.1611263, 36.132901199700001 ], [ -115.1611263, 36.132895799700002 ], [ -115.161129, 36.132895799700002 ], [ -115.161129, 36.132893099699999 ], [ -115.1611398, 36.132893099699999 ], [ -115.1611398, 36.132895799700002 ], [ -115.1611506, 36.132895799700002 ], [ -115.1611506, 36.132890399700003 ], [ -115.1611533, 36.132890399700003 ], [ -115.1611533, 36.1328822997 ], [ -115.161156, 36.1328822997 ], [ -115.161156, 36.132874199699998 ], [ -115.1611587, 36.132874199699998 ], [ -115.1611587, 36.132866099700003 ], [ -115.1611614, 36.132866099700003 ], [ -115.1611614, 36.132857999700001 ], [ -115.1611641, 36.132857999700001 ], [ -115.1611641, 36.132847199700002 ], [ -115.1611668, 36.132847199700002 ], [ -115.1611668, 36.1328390997 ], [ -115.1611695, 36.1328390997 ], [ -115.1611695, 36.132836399699997 ], [ -115.1611722, 36.132836399699997 ], [ -115.1611722, 36.132830999699998 ], [ -115.1611749, 36.132830999699998 ], [ -115.1611749, 36.132828299700002 ], [ -115.1611803, 36.132828299700002 ], [ -115.1611803, 36.132825599699999 ], [ -115.1611965, 36.132825599699999 ], [ -115.1611965, 36.132828299700002 ], [ -115.16121, 36.132828299700002 ], [ -115.16121, 36.132830999699998 ], [ -115.1612181, 36.132830999699998 ], [ -115.1612181, 36.132833699700001 ], [ -115.1612235, 36.132833699700001 ], [ -115.1612235, 36.132836399699997 ], [ -115.1612289, 36.132836399699997 ], [ -115.1612289, 36.1328390997 ], [ -115.1612343, 36.1328390997 ], [ -115.1612343, 36.132841799699996 ], [ -115.1612397, 36.132841799699996 ], [ -115.1612397, 36.132844499699999 ], [ -115.1612451, 36.132844499699999 ], [ -115.1612451, 36.132847199700002 ], [ -115.1612505, 36.132847199700002 ], [ -115.1612505, 36.132849899699998 ], [ -115.1612586, 36.132849899699998 ], [ -115.1612586, 36.132852599700001 ], [ -115.161264, 36.132852599700001 ], [ -115.161264, 36.132855299699997 ], [ -115.1612694, 36.132855299699997 ], [ -115.1612694, 36.132857999700001 ], [ -115.1612748, 36.132857999700001 ], [ -115.1612748, 36.132860699699997 ], [ -115.1612829, 36.132860699699997 ], [ -115.1612829, 36.1328633997 ], [ -115.1612883, 36.1328633997 ], [ -115.1612883, 36.132866099700003 ], [ -115.1612964, 36.132866099700003 ], [ -115.1612964, 36.132868799699999 ], [ -115.1612991, 36.132868799699999 ], [ -115.1612991, 36.132871499700002 ], [ -115.1613045, 36.132871499700002 ], [ -115.1613045, 36.132874199699998 ], [ -115.1613099, 36.132874199699998 ], [ -115.1613099, 36.132876899700001 ], [ -115.1613126, 36.132876899700001 ], [ -115.1613126, 36.1329065997 ], [ -115.1613099, 36.1329065997 ], [ -115.1613099, 36.132911999699999 ], [ -115.1613072, 36.132911999699999 ], [ -115.1613072, 36.132914699700002 ], [ -115.1613045, 36.132914699700002 ], [ -115.1613045, 36.132920099700002 ], [ -115.1613018, 36.132920099700002 ], [ -115.1613018, 36.132922799699998 ], [ -115.1612991, 36.132922799699998 ], [ -115.1612991, 36.132928199699997 ], [ -115.1612964, 36.132928199699997 ], [ -115.1612964, 36.1329308997 ], [ -115.161291, 36.1329308997 ], [ -115.161291, 36.132933599700003 ], [ -115.1612883, 36.132933599700003 ], [ -115.1612883, 36.132936299699999 ], [ -115.1612829, 36.132936299699999 ], [ -115.1612829, 36.132938999700002 ], [ -115.1612802, 36.132938999700002 ], [ -115.1612802, 36.132944399700001 ], [ -115.1612775, 36.132944399700001 ], [ -115.1612775, 36.132947099699997 ], [ -115.1612748, 36.132947099699997 ], [ -115.1612748, 36.132952499699996 ], [ -115.1612721, 36.132952499699996 ], [ -115.1612721, 36.132957899700003 ], [ -115.1612694, 36.132957899700003 ], [ -115.1612694, 36.132963299700002 ], [ -115.1612667, 36.132963299700002 ], [ -115.1612667, 36.132965999699998 ], [ -115.161264, 36.132965999699998 ], [ -115.161264, 36.132971399699997 ], [ -115.1612613, 36.132971399699997 ], [ -115.1612613, 36.1329740997 ], [ -115.1612586, 36.1329740997 ], [ -115.1612586, 36.132979499699999 ], [ -115.1612559, 36.132979499699999 ], [ -115.1612559, 36.132982199700002 ], [ -115.1612532, 36.132982199700002 ], [ -115.1612532, 36.132984899699998 ], [ -115.1612505, 36.132984899699998 ], [ -115.1612505, 36.132990299699998 ], [ -115.1612478, 36.132990299699998 ], [ -115.1612478, 36.132992999700001 ], [ -115.1612451, 36.132992999700001 ], [ -115.1612451, 36.1329983997 ], [ -115.1612424, 36.1329983997 ], [ -115.1612424, 36.133001099700003 ], [ -115.1612397, 36.133001099700003 ], [ -115.1612397, 36.133006499700002 ], [ -115.161237, 36.133006499700002 ], [ -115.161237, 36.133009199699998 ], [ -115.1612343, 36.133009199699998 ], [ -115.1612343, 36.133014599699997 ], [ -115.1612316, 36.133014599699997 ], [ -115.1612316, 36.133019999699997 ], [ -115.1612289, 36.133019999699997 ], [ -115.1612289, 36.133025399700003 ], [ -115.1612262, 36.133025399700003 ], [ -115.1612262, 36.133028099699999 ], [ -115.1612235, 36.133028099699999 ], [ -115.1612235, 36.133030799700002 ], [ -115.1612208, 36.133030799700002 ], [ -115.1612208, 36.133036199700001 ], [ -115.1612181, 36.133036199700001 ], [ -115.1612181, 36.1330415997 ], [ -115.1612154, 36.1330415997 ], [ -115.1612154, 36.133046999699999 ], [ -115.1612127, 36.133046999699999 ], [ -115.1612127, 36.133052399699999 ], [ -115.16121, 36.133052399699999 ], [ -115.16121, 36.133057799699998 ], [ -115.1612073, 36.133057799699998 ], [ -115.1612073, 36.133060499700001 ], [ -115.1612046, 36.133060499700001 ], [ -115.1612046, 36.1330658997 ], [ -115.1612019, 36.1330658997 ], [ -115.1612019, 36.133068599700003 ], [ -115.1611992, 36.133068599700003 ], [ -115.1611992, 36.133073999700002 ], [ -115.1611965, 36.133073999700002 ], [ -115.1611965, 36.133076699699998 ], [ -115.1611938, 36.133076699699998 ], [ -115.1611938, 36.133082099699998 ], [ -115.1611911, 36.133082099699998 ], [ -115.1611911, 36.133087499699997 ], [ -115.1611884, 36.133087499699997 ], [ -115.1611884, 36.1330901997 ], [ -115.1611857, 36.1330901997 ], [ -115.1611857, 36.133095599699999 ], [ -115.161183, 36.133095599699999 ], [ -115.161183, 36.133098299700002 ], [ -115.1611803, 36.133098299700002 ], [ -115.1611803, 36.133100999699998 ], [ -115.1611776, 36.133100999699998 ], [ -115.1611776, 36.133103699700001 ], [ -115.1611749, 36.133103699700001 ], [ -115.1611749, 36.133106399699997 ], [ -115.1611722, 36.133106399699997 ], [ -115.1611722, 36.1331090997 ], [ -115.1611695, 36.1331090997 ], [ -115.1611695, 36.133111799699996 ], [ -115.1611614, 36.133111799699996 ], [ -115.1611614, 36.1331144997 ], [ -115.1611587, 36.1331144997 ], [ -115.1611587, 36.133117199700003 ], [ -115.1611533, 36.133117199700003 ], [ -115.1611533, 36.133119899699999 ], [ -115.1611506, 36.133119899699999 ], [ -115.1611506, 36.133122599700002 ], [ -115.1611479, 36.133122599700002 ], [ -115.1611479, 36.133125299699998 ], [ -115.1611452, 36.133125299699998 ], [ -115.1611452, 36.133127999700001 ], [ -115.1611425, 36.133127999700001 ], [ -115.1611425, 36.1331333997 ], [ -115.1611398, 36.1331333997 ], [ -115.1611398, 36.133136099700003 ], [ -115.1611371, 36.133136099700003 ], [ -115.1611371, 36.133138799699999 ], [ -115.1611344, 36.133138799699999 ], [ -115.1611344, 36.133144199699998 ], [ -115.1611317, 36.133144199699998 ], [ -115.1611317, 36.133146899700002 ], [ -115.161129, 36.133146899700002 ], [ -115.161129, 36.133149599699998 ], [ -115.1611263, 36.133149599699998 ], [ -115.1611263, 36.133152299700001 ], [ -115.1611236, 36.133152299700001 ], [ -115.1611236, 36.1331576997 ], [ -115.1611209, 36.1331576997 ], [ -115.1611209, 36.133163099699999 ], [ -115.1611155, 36.133163099699999 ], [ -115.1611155, 36.133165799700002 ], [ -115.1611128, 36.133165799700002 ], [ -115.1611128, 36.133168499699998 ], [ -115.1611101, 36.133168499699998 ], [ -115.1611101, 36.133179299699997 ], [ -115.1611128, 36.133179299699997 ], [ -115.1611128, 36.133184699700003 ], [ -115.1611074, 36.133184699700003 ], [ -115.1611074, 36.133187399699999 ], [ -115.1611047, 36.133187399699999 ], [ -115.1611047, 36.133190099700002 ], [ -115.1609454, 36.133190099700002 ], [ -115.1609454, 36.133192799699998 ], [ -115.1609427, 36.133192799699998 ], [ -115.1609427, 36.133195499700001 ] ], [ [ -115.161021, 36.133146899700002 ], [ -115.161021, 36.133144199699998 ], [ -115.1610264, 36.133144199699998 ], [ -115.1610264, 36.133141499700002 ], [ -115.1610291, 36.133141499700002 ], [ -115.1610291, 36.133138799699999 ], [ -115.1610318, 36.133138799699999 ], [ -115.1610318, 36.133130699699997 ], [ -115.1610291, 36.133130699699997 ], [ -115.1610291, 36.133127999700001 ], [ -115.1610237, 36.133127999700001 ], [ -115.1610237, 36.133125299699998 ], [ -115.1610156, 36.133125299699998 ], [ -115.1610156, 36.133122599700002 ], [ -115.1610075, 36.133122599700002 ], [ -115.1610075, 36.133125299699998 ], [ -115.1610048, 36.133125299699998 ], [ -115.1610048, 36.133127999700001 ], [ -115.1610021, 36.133127999700001 ], [ -115.1610021, 36.1331333997 ], [ -115.1609994, 36.1331333997 ], [ -115.1609994, 36.133144199699998 ], [ -115.1610048, 36.133144199699998 ], [ -115.1610048, 36.133146899700002 ], [ -115.161021, 36.133146899700002 ] ] ] } },
{ "type": "Feature", "properties": { "value": 255.0 }, "geometry": { "type": "Polygon", "coordinates": [ [ [ -115.160535, 36.133562699700001 ], [ -115.1601273, 36.133562699700001 ], [ -115.1601273, 36.133559999699997 ], [ -115.1601246, 36.133559999699997 ], [ -115.1601246, 36.133557299700001 ], [ -115.1601219, 36.133557299700001 ], [ -115.1601219, 36.133554599699998 ], [ -115.1601138, 36.133554599699998 ], [ -115.1601138, 36.133551899700002 ], [ -115.160103, 36.133551899700002 ], [ -115.160103, 36.133554599699998 ], [ -115.1600976, 36.133554599699998 ], [ -115.1600976, 36.133443899699998 ], [ -115.160103, 36.133443899699998 ], [ -115.160103, 36.133441199700002 ], [ -115.1601057, 36.133441199700002 ], [ -115.1601057, 36.133438499699999 ], [ -115.1601111, 36.133438499699999 ], [ -115.1601111, 36.133435799700003 ], [ -115.1601138, 36.133435799700003 ], [ -115.1601138, 36.1334330997 ], [ -115.1601192, 36.1334330997 ], [ -115.1601192, 36.133430399700003 ], [ -115.1601219, 36.133430399700003 ], [ -115.1601219, 36.1334276997 ], [ -115.1601246, 36.1334276997 ], [ -115.1601246, 36.133424999699997 ], [ -115.1601273, 36.133424999699997 ], [ -115.1601273, 36.133419599699998 ], [ -115.16013, 36.133419599699998 ], [ -115.16013, 36.133416899700002 ], [ -115.1601327, 36.133416899700002 ], [ -115.1601327, 36.133411499700003 ], [ -115.1601354, 36.133411499700003 ], [ -115.1601354, 36.1334087997 ], [ -115.1601381, 36.1334087997 ], [ -115.1601381, 36.133403399700001 ], [ -115.1601408, 36.133403399700001 ], [ -115.1601408, 36.133397999700001 ], [ -115.1601435, 36.133397999700001 ], [ -115.1601435, 36.1333844997 ], [ -115.1601462, 36.1333844997 ], [ -115.1601462, 36.133373699700002 ], [ -115.1601489, 36.133373699700002 ], [ -115.1601489, 36.133368299700003 ], [ -115.1601516, 36.133368299700003 ], [ -115.1601516, 36.133362899700003 ], [ -115.1601543, 36.133362899700003 ], [ -115.1601543, 36.133352099699998 ], [ -115.160157, 36.133352099699998 ], [ -115.160157, 36.1333412997 ], [ -115.1601597, 36.1333412997 ], [ -115.1601597, 36.133333199699997 ], [ -115.1601624, 36.133333199699997 ], [ -115.1601624, 36.133330499700001 ], [ -115.1601597, 36.133330499700001 ], [ -115.1601597, 36.133314299699997 ], [ -115.1601624, 36.133314299699997 ], [ -115.1601624, 36.133300799700002 ], [ -115.1601651, 36.133300799700002 ], [ -115.1601651, 36.1332926997 ], [ -115.1601678, 36.1332926997 ], [ -115.1601678, 36.133287299700001 ], [ -115.1601705, 36.133287299700001 ], [ -115.1601705, 36.133284599699998 ], [ -115.1601732, 36.133284599699998 ], [ -115.1601732, 36.133281899700002 ], [ -115.1601759, 36.133281899700002 ], [ -115.1601759, 36.133279199699999 ], [ -115.160184, 36.133279199699999 ], [ -115.160184, 36.133276499700003 ], [ -115.1601975, 36.133276499700003 ], [ -115.1601975, 36.133279199699999 ], [ -115.1602029, 36.133279199699999 ], [ -115.1602029, 36.133281899700002 ], [ -115.160211, 36.133281899700002 ], [ -115.160211, 36.133284599699998 ], [ -115.1602623, 36.133284599699998 ], [ -115.1602623, 36.133287299700001 ], [ -115.1602785, 36.133287299700001 ], [ -115.1602785, 36.133289999699997 ], [ -115.160292, 36.133289999699997 ], [ -115.160292, 36.1332926997 ], [ -115.1602974, 36.1332926997 ], [ -115.1602974, 36.133295399700003 ], [ -115.1603163, 36.133295399700003 ], [ -115.1603163, 36.133298099699999 ], [ -115.1603271, 36.133298099699999 ], [ -115.1603271, 36.133300799700002 ], [ -115.1603298, 36.133300799700002 ], [ -115.1603298, 36.133303499699998 ], [ -115.1603352, 36.133303499699998 ], [ -115.1603352, 36.133306199700002 ], [ -115.1603406, 36.133306199700002 ], [ -115.1603406, 36.133308899699998 ], [ -115.160346, 36.133308899699998 ], [ -115.160346, 36.133311599700001 ], [ -115.1603514, 36.133311599700001 ], [ -115.1603514, 36.133314299699997 ], [ -115.1603649, 36.133314299699997 ], [ -115.1603649, 36.133311599700001 ], [ -115.1603703, 36.133311599700001 ], [ -115.1603703, 36.133308899699998 ], [ -115.160373, 36.133308899699998 ], [ -115.160373, 36.133306199700002 ], [ -115.1603757, 36.133306199700002 ], [ -115.1603757, 36.133303499699998 ], [ -115.1603784, 36.133303499699998 ], [ -115.1603784, 36.133298099699999 ], [ -115.1603811, 36.133298099699999 ], [ -115.1603811, 36.133295399700003 ], [ -115.1603838, 36.133295399700003 ], [ -115.1603838, 36.1332926997 ], [ -115.1603865, 36.1332926997 ], [ -115.1603865, 36.133289999699997 ], [ -115.1603892, 36.133289999699997 ], [ -115.1603892, 36.133287299700001 ], [ -115.1603946, 36.133287299700001 ], [ -115.1603946, 36.133284599699998 ], [ -115.1604027, 36.133284599699998 ], [ -115.1604027, 36.133281899700002 ], [ -115.1604081, 36.133281899700002 ], [ -115.1604081, 36.133279199699999 ], [ -115.1604189, 36.133279199699999 ], [ -115.1604189, 36.133276499700003 ], [ -115.1604243, 36.133276499700003 ], [ -115.1604243, 36.1332737997 ], [ -115.1604297, 36.1332737997 ], [ -115.1604297, 36.133271099700004 ], [ -115.1604324, 36.133271099700004 ], [ -115.1604324, 36.133265699699997 ], [ -115.1604351, 36.133265699699997 ], [ -115.1604351, 36.133257599700002 ], [ -115.1604378, 36.133257599700002 ], [ -115.1604378, 36.133254899699999 ], [ -115.1604405, 36.133254899699999 ], [ -115.1604405, 36.1332494997 ], [ -115.1604432, 36.1332494997 ], [ -115.1604432, 36.133246799699997 ], [ -115.1604459, 36.133246799699997 ], [ -115.1604459, 36.133244099700001 ], [ -115.1604486, 36.133244099700001 ], [ -115.1604486, 36.133241399699997 ], [ -115.1604513, 36.133241399699997 ], [ -115.1604513, 36.133238699700001 ], [ -115.160454, 36.133238699700001 ], [ -115.160454, 36.133235999699998 ], [ -115.1604567, 36.133235999699998 ], [ -115.1604567, 36.133233299700002 ], [ -115.1604594, 36.133233299700002 ], [ -115.1604594, 36.133230599699999 ], [ -115.1604621, 36.133230599699999 ], [ -115.1604621, 36.1332251997 ], [ -115.1604648, 36.1332251997 ], [ -115.1604648, 36.133222499699997 ], [ -115.1604675, 36.133222499699997 ], [ -115.1604675, 36.133214399700002 ], [ -115.1604702, 36.133214399700002 ], [ -115.1604702, 36.133190099700002 ], [ -115.1604837, 36.133190099700002 ], [ -115.1604837, 36.133187399699999 ], [ -115.1604864, 36.133187399699999 ], [ -115.1604864, 36.1331819997 ], [ -115.1604891, 36.1331819997 ], [ -115.1604891, 36.133176599700001 ], [ -115.1604918, 36.133176599700001 ], [ -115.1604918, 36.133168499699998 ], [ -115.1604945, 36.133168499699998 ], [ -115.1604945, 36.133163099699999 ], [ -115.1604972, 36.133163099699999 ], [ -115.1604972, 36.133160399700003 ], [ -115.1605026, 36.133160399700003 ], [ -115.1605026, 36.1331576997 ], [ -115.160508, 36.1331576997 ], [ -115.160508, 36.133154999699997 ], [ -115.1605134, 36.133154999699997 ], [ -115.1605134, 36.133152299700001 ], [ -115.1605188, 36.133152299700001 ], [ -115.1605188, 36.133149599699998 ], [ -115.1605215, 36.133149599699998 ], [ -115.1605215, 36.133146899700002 ], [ -115.1605242, 36.133146899700002 ], [ -115.1605242, 36.133141499700002 ], [ -115.1605269, 36.133141499700002 ], [ -115.1605269, 36.133136099700003 ], [ -115.1605296, 36.133136099700003 ], [ -115.1605296, 36.133130699699997 ], [ -115.1605323, 36.133130699699997 ], [ -115.1605323, 36.133125299699998 ], [ -115.160535, 36.133125299699998 ], [ -115.160535, 36.133119899699999 ], [ -115.1605377, 36.133119899699999 ], [ -115.1605377, 36.133117199700003 ], [ -115.1605404, 36.133117199700003 ], [ -115.1605404, 36.133111799699996 ], [ -115.1605431, 36.133111799699996 ], [ -115.1605431, 36.133106399699997 ], [ -115.1605458, 36.133106399699997 ], [ -115.1605458, 36.133098299700002 ], [ -115.1605485, 36.133098299700002 ], [ -115.1605485, 36.133087499699997 ], [ -115.1605512, 36.133087499699997 ], [ -115.1605512, 36.133082099699998 ], [ -115.1605539, 36.133082099699998 ], [ -115.1605539, 36.133079399700001 ], [ -115.1605566, 36.133079399700001 ], [ -115.1605566, 36.133073999700002 ], [ -115.1605593, 36.133073999700002 ], [ -115.1605593, 36.133060499700001 ], [ -115.160562, 36.133060499700001 ], [ -115.160562, 36.133025399700003 ], [ -115.1605647, 36.133025399700003 ], [ -115.1605647, 36.133009199699998 ], [ -115.1605674, 36.133009199699998 ], [ -115.1605674, 36.132987599700002 ], [ -115.1605701, 36.132987599700002 ], [ -115.1605701, 36.132941699699998 ], [ -115.1605728, 36.132941699699998 ], [ -115.1605728, 36.132933599700003 ], [ -115.1605755, 36.132933599700003 ], [ -115.1605755, 36.132893099699999 ], [ -115.1605728, 36.132893099699999 ], [ -115.1605728, 36.1328147997 ], [ -115.1605755, 36.1328147997 ], [ -115.1605755, 36.132798599700003 ], [ -115.1605782, 36.132798599700003 ], [ -115.1605782, 36.1327904997 ], [ -115.1605809, 36.1327904997 ], [ -115.1605809, 36.132782399699998 ], [ -115.1605836, 36.132782399699998 ], [ -115.1605836, 36.132776999699999 ], [ -115.1605863, 36.132776999699999 ], [ -115.1605863, 36.132755399700002 ], [ -115.160589, 36.132755399700002 ], [ -115.160589, 36.132752699699999 ], [ -115.1605917, 36.132752699699999 ], [ -115.1605917, 36.1327472997 ], [ -115.1605971, 36.1327472997 ], [ -115.1605971, 36.132744599699997 ], [ -115.1605998, 36.132744599699997 ], [ -115.1605998, 36.132741899700001 ], [ -115.1606025, 36.132741899700001 ], [ -115.1606025, 36.132739199699998 ], [ -115.1606052, 36.132739199699998 ], [ -115.1606052, 36.132736499700002 ], [ -115.1606133, 36.132736499700002 ], [ -115.1606133, 36.132733799699999 ], [ -115.1606187, 36.132733799699999 ], [ -115.1606187, 36.132731099700003 ], [ -115.1606241, 36.132731099700003 ], [ -115.1606241, 36.132728399699999 ], [ -115.1606268, 36.132728399699999 ], [ -115.1606268, 36.132725699699996 ], [ -115.1606322, 36.132725699699996 ], [ -115.1606322, 36.1327229997 ], [ -115.1606376, 36.1327229997 ], [ -115.1606376, 36.132720299699997 ], [ -115.1606403, 36.132720299699997 ], [ -115.1606403, 36.132717599700001 ], [ -115.160643, 36.132717599700001 ], [ -115.160643, 36.132714899699998 ], [ -115.1606457, 36.132714899699998 ], [ -115.1606457, 36.132709499699999 ], [ -115.1606484, 36.132709499699999 ], [ -115.1606484, 36.132706799699996 ], [ -115.1606511, 36.132706799699996 ], [ -115.1606511, 36.132701399699997 ], [ -115.1606538, 36.132701399699997 ], [ -115.1606538, 36.132663599700003 ], [ -115.1606511, 36.132663599700003 ], [ -115.1606511, 36.132652799699997 ], [ -115.1606484, 36.132652799699997 ], [ -115.1606484, 36.132641999699999 ], [ -115.1606511, 36.132641999699999 ], [ -115.1606511, 36.1326365997 ], [ -115.1606538, 36.1326365997 ], [ -115.1606538, 36.1326311997 ], [ -115.1606565, 36.1326311997 ], [ -115.1606565, 36.132593399699999 ], [ -115.1606538, 36.132593399699999 ], [ -115.1606538, 36.132590699699996 ], [ -115.1606565, 36.132590699699996 ], [ -115.1606565, 36.132582599700001 ], [ -115.1606592, 36.132582599700001 ], [ -115.1606592, 36.132577199700002 ], [ -115.1606619, 36.132577199700002 ], [ -115.1606619, 36.132574499699999 ], [ -115.1606646, 36.132574499699999 ], [ -115.1606646, 36.132571799699996 ], [ -115.16067, 36.132571799699996 ], [ -115.16067, 36.1325690997 ], [ -115.1606727, 36.1325690997 ], [ -115.1606727, 36.132566399699996 ], [ -115.1606754, 36.132566399699996 ], [ -115.1606754, 36.1325636997 ], [ -115.1606781, 36.1325636997 ], [ -115.1606781, 36.132560999699997 ], [ -115.1606808, 36.132560999699997 ], [ -115.1606808, 36.132558299700001 ], [ -115.1606835, 36.132558299700001 ], [ -115.1606835, 36.132555599699998 ], [ -115.1606889, 36.132555599699998 ], [ -115.1606889, 36.132552899700002 ], [ -115.1606943, 36.132552899700002 ], [ -115.1606943, 36.132550199699999 ], [ -115.1607429, 36.132550199699999 ], [ -115.1607429, 36.132547499699996 ], [ -115.1607726, 36.132547499699996 ], [ -115.1607726, 36.1325447997 ], [ -115.1607834, 36.1325447997 ], [ -115.1607834, 36.132542099699997 ], [ -115.1607888, 36.132542099699997 ], [ -115.1607888, 36.132539399700001 ], [ -115.1607915, 36.132539399700001 ], [ -115.1607915, 36.132536699699997 ], [ -115.1607942, 36.132536699699997 ], [ -115.1607942, 36.132533999700001 ], [ -115.1607969, 36.132533999700001 ], [ -115.1607969, 36.132531299699998 ], [ -115.1607996, 36.132531299699998 ], [ -115.1607996, 36.132528599700002 ], [ -115.1608023, 36.132528599700002 ], [ -115.1608023, 36.132525899699999 ], [ -115.1608104, 36.132525899699999 ], [ -115.1608104, 36.132523199699996 ], [ -115.1608293, 36.132523199699996 ], [ -115.1608293, 36.1325204997 ], [ -115.1608347, 36.1325204997 ], [ -115.1608347, 36.132517799699997 ], [ -115.1608455, 36.132517799699997 ], [ -115.1608455, 36.132515099700001 ], [ -115.1608725, 36.132515099700001 ], [ -115.1608725, 36.132512399699998 ], [ -115.1608887, 36.132512399699998 ], [ -115.1608887, 36.132515099700001 ], [ -115.160913, 36.132515099700001 ], [ -115.160913, 36.132517799699997 ], [ -115.1609238, 36.132517799699997 ], [ -115.1609238, 36.1325204997 ], [ -115.160967, 36.1325204997 ], [ -115.160967, 36.132517799699997 ], [ -115.1609778, 36.132517799699997 ], [ -115.1609778, 36.132515099700001 ], [ -115.1609859, 36.132515099700001 ], [ -115.1609859, 36.132517799699997 ], [ -115.1609913, 36.132517799699997 ], [ -115.1609913, 36.1325204997 ], [ -115.1609967, 36.1325204997 ], [ -115.1609967, 36.132523199699996 ], [ -115.1610021, 36.132523199699996 ], [ -115.1610021, 36.132525899699999 ], [ -115.1610102, 36.132525899699999 ], [ -115.1610102, 36.132528599700002 ], [ -115.1610156, 36.132528599700002 ], [ -115.1610156, 36.132533999700001 ], [ -115.1610183, 36.132533999700001 ], [ -115.1610183, 36.132558299700001 ], [ -115.1610156, 36.132558299700001 ], [ -115.1610156, 36.1325636997 ], [ -115.1610129, 36.1325636997 ], [ -115.1610129, 36.132571799699996 ], [ -115.1610102, 36.132571799699996 ], [ -115.1610102, 36.132625799700001 ], [ -115.1610129, 36.132625799700001 ], [ -115.1610129, 36.132660899699999 ], [ -115.1610156, 36.132660899699999 ], [ -115.1610156, 36.132671699699998 ], [ -115.1610183, 36.132671699699998 ], [ -115.1610183, 36.132687899700002 ], [ -115.161021, 36.132687899700002 ], [ -115.161021, 36.132698699700001 ], [ -115.1610237, 36.132698699700001 ], [ -115.1610237, 36.132760799700002 ], [ -115.161021, 36.132760799700002 ], [ -115.161021, 36.132768899699997 ], [ -115.1610183, 36.132768899699997 ], [ -115.1610183, 36.132774299699996 ], [ -115.1610156, 36.132774299699996 ], [ -115.1610156, 36.132776999699999 ], [ -115.1610102, 36.132776999699999 ], [ -115.1610102, 36.132779699700002 ], [ -115.1609967, 36.132779699700002 ], [ -115.1609967, 36.132782399699998 ], [ -115.1609508, 36.132782399699998 ], [ -115.1609508, 36.132785099700001 ], [ -115.1609427, 36.132785099700001 ], [ -115.1609427, 36.132787799699997 ], [ -115.16094, 36.132787799699997 ], [ -115.16094, 36.1327904997 ], [ -115.1609346, 36.1327904997 ], [ -115.1609346, 36.132793199699996 ], [ -115.1609319, 36.132793199699996 ], [ -115.1609319, 36.132801299699999 ], [ -115.1609346, 36.132801299699999 ], [ -115.1609346, 36.132817499699996 ], [ -115.1609319, 36.132817499699996 ], [ -115.1609319, 36.132825599699999 ], [ -115.1609292, 36.132825599699999 ], [ -115.1609292, 36.1328390997 ], [ -115.1609265, 36.1328390997 ], [ -115.1609265, 36.132860699699997 ], [ -115.1609292, 36.132860699699997 ], [ -115.1609292, 36.132874199699998 ], [ -115.1609265, 36.132874199699998 ], [ -115.1609265, 36.132895799700002 ], [ -115.1609238, 36.132895799700002 ], [ -115.1609238, 36.1329065997 ], [ -115.1609211, 36.1329065997 ], [ -115.1609211, 36.132933599700003 ], [ -115.1609184, 36.132933599700003 ], [ -115.1609184, 36.132938999700002 ], [ -115.1609157, 36.132938999700002 ], [ -115.1609157, 36.132941699699998 ], [ -115.1608995, 36.132941699699998 ], [ -115.1608995, 36.132944399700001 ], [ -115.1608941, 36.132944399700001 ], [ -115.1608941, 36.132947099699997 ], [ -115.160886, 36.132947099699997 ], [ -115.160886, 36.1329497997 ], [ -115.1608752, 36.1329497997 ], [ -115.1608752, 36.132952499699996 ], [ -115.1608671, 36.132952499699996 ], [ -115.1608671, 36.132957899700003 ], [ -115.1608644, 36.132957899700003 ], [ -115.1608644, 36.132963299700002 ], [ -115.1608617, 36.132963299700002 ], [ -115.1608617, 36.132968699700001 ], [ -115.160859, 36.132968699700001 ], [ -115.160859, 36.133046999699999 ], [ -115.1608563, 36.133046999699999 ], [ -115.1608563, 36.133057799699998 ], [ -115.1608536, 36.133057799699998 ], [ -115.1608536, 36.133063199699997 ], [ -115.1608509, 36.133063199699997 ], [ -115.1608509, 36.1330658997 ], [ -115.1608482, 36.1330658997 ], [ -115.1608482, 36.133068599700003 ], [ -115.1608455, 36.133068599700003 ], [ -115.1608455, 36.133071299699999 ], [ -115.1608428, 36.133071299699999 ], [ -115.1608428, 36.133073999700002 ], [ -115.1608401, 36.133073999700002 ], [ -115.1608401, 36.133076699699998 ], [ -115.1608374, 36.133076699699998 ], [ -115.1608374, 36.133079399700001 ], [ -115.1608347, 36.133079399700001 ], [ -115.1608347, 36.133082099699998 ], [ -115.160832, 36.133082099699998 ], [ -115.160832, 36.133084799700001 ], [ -115.1608293, 36.133084799700001 ], [ -115.1608293, 36.1330901997 ], [ -115.1608266, 36.1330901997 ], [ -115.1608266, 36.133095599699999 ], [ -115.1608239, 36.133095599699999 ], [ -115.1608239, 36.133100999699998 ], [ -115.1608212, 36.133100999699998 ], [ -115.1608212, 36.133103699700001 ], [ -115.1608185, 36.133103699700001 ], [ -115.1608185, 36.133106399699997 ], [ -115.1608158, 36.133106399699997 ], [ -115.1608158, 36.133111799699996 ], [ -115.1608131, 36.133111799699996 ], [ -115.1608131, 36.1331144997 ], [ -115.1608104, 36.1331144997 ], [ -115.1608104, 36.133119899699999 ], [ -115.1608077, 36.133119899699999 ], [ -115.1608077, 36.133122599700002 ], [ -115.160805, 36.133122599700002 ], [ -115.160805, 36.133127999700001 ], [ -115.1608023, 36.133127999700001 ], [ -115.1608023, 36.133130699699997 ], [ -115.1607996, 36.133130699699997 ], [ -115.1607996, 36.133136099700003 ], [ -115.1607969, 36.133136099700003 ], [ -115.1607969, 36.133138799699999 ], [ -115.1607942, 36.133138799699999 ], [ -115.1607942, 36.133144199699998 ], [ -115.1607915, 36.133144199699998 ], [ -115.1607915, 36.133149599699998 ], [ -115.1607888, 36.133149599699998 ], [ -115.1607888, 36.133152299700001 ], [ -115.1607861, 36.133152299700001 ], [ -115.1607861, 36.1331576997 ], [ -115.1607834, 36.1331576997 ], [ -115.1607834, 36.133160399700003 ], [ -115.1607807, 36.133160399700003 ], [ -115.1607807, 36.133165799700002 ], [ -115.160778, 36.133165799700002 ], [ -115.160778, 36.133168499699998 ], [ -115.1607753, 36.133168499699998 ], [ -115.1607753, 36.133173899699997 ], [ -115.1607726, 36.133173899699997 ], [ -115.1607726, 36.133179299699997 ], [ -115.1607699, 36.133179299699997 ], [ -115.1607699, 36.133187399699999 ], [ -115.1607672, 36.133187399699999 ], [ -115.1607672, 36.133190099700002 ], [ -115.1607645, 36.133190099700002 ], [ -115.1607645, 36.133192799699998 ], [ -115.1607618, 36.133192799699998 ], [ -115.1607618, 36.133195499700001 ], [ -115.1607591, 36.133195499700001 ], [ -115.1607591, 36.1332008997 ], [ -115.1607564, 36.1332008997 ], [ -115.1607564, 36.133203599700003 ], [ -115.1607537, 36.133203599700003 ], [ -115.1607537, 36.133206299699999 ], [ -115.160751, 36.133206299699999 ], [ -115.160751, 36.133208999700003 ], [ -115.1607483, 36.133208999700003 ], [ -115.1607483, 36.133211699699999 ], [ -115.1607456, 36.133211699699999 ], [ -115.1607456, 36.1332251997 ], [ -115.1607429, 36.1332251997 ], [ -115.1607429, 36.133230599699999 ], [ -115.1607402, 36.133230599699999 ], [ -115.1607402, 36.133233299700002 ], [ -115.1607375, 36.133233299700002 ], [ -115.1607375, 36.133238699700001 ], [ -115.1607348, 36.133238699700001 ], [ -115.1607348, 36.133241399699997 ], [ -115.1607321, 36.133241399699997 ], [ -115.1607321, 36.133246799699997 ], [ -115.1607294, 36.133246799699997 ], [ -115.1607294, 36.1332494997 ], [ -115.1607267, 36.1332494997 ], [ -115.1607267, 36.133254899699999 ], [ -115.160724, 36.133254899699999 ], [ -115.160724, 36.133257599700002 ], [ -115.1607213, 36.133257599700002 ], [ -115.1607213, 36.133262999700001 ], [ -115.1607186, 36.133262999700001 ], [ -115.1607186, 36.133265699699997 ], [ -115.1607159, 36.133265699699997 ], [ -115.1607159, 36.133271099700004 ], [ -115.1607132, 36.133271099700004 ], [ -115.1607132, 36.1332737997 ], [ -115.1607105, 36.1332737997 ], [ -115.1607105, 36.133276499700003 ], [ -115.1607078, 36.133276499700003 ], [ -115.1607078, 36.133279199699999 ], [ -115.1607051, 36.133279199699999 ], [ -115.1607051, 36.133281899700002 ], [ -115.1607024, 36.133281899700002 ], [ -115.1607024, 36.133284599699998 ], [ -115.1606997, 36.133284599699998 ], [ -115.1606997, 36.133289999699997 ], [ -115.160697, 36.133289999699997 ], [ -115.160697, 36.1332926997 ], [ -115.1606943, 36.1332926997 ], [ -115.1606943, 36.133298099699999 ], [ -115.1606916, 36.133298099699999 ], [ -115.1606916, 36.133303499699998 ], [ -115.1606889, 36.133303499699998 ], [ -115.1606889, 36.133306199700002 ], [ -115.1606862, 36.133306199700002 ], [ -115.1606862, 36.133311599700001 ], [ -115.1606835, 36.133311599700001 ], [ -115.1606835, 36.1333169997 ], [ -115.1606808, 36.1333169997 ], [ -115.1606808, 36.133319699700003 ], [ -115.1606781, 36.133319699700003 ], [ -115.1606781, 36.133325099700002 ], [ -115.1606754, 36.133325099700002 ], [ -115.1606754, 36.133327799699998 ], [ -115.1606727, 36.133327799699998 ], [ -115.1606727, 36.133333199699997 ], [ -115.16067, 36.133333199699997 ], [ -115.16067, 36.1333358997 ], [ -115.1606673, 36.1333358997 ], [ -115.1606673, 36.1333412997 ], [ -115.1606646, 36.1333412997 ], [ -115.1606646, 36.133346699699999 ], [ -115.1606619, 36.133346699699999 ], [ -115.1606619, 36.133352099699998 ], [ -115.1606592, 36.133352099699998 ], [ -115.1606592, 36.133354799700001 ], [ -115.1606565, 36.133354799700001 ], [ -115.1606565, 36.1333601997 ], [ -115.1606538, 36.1333601997 ], [ -115.1606538, 36.133362899700003 ], [ -115.1606511, 36.133362899700003 ], [ -115.1606511, 36.133368299700003 ], [ -115.1606484, 36.133368299700003 ], [ -115.1606484, 36.133370999699999 ], [ -115.1606457, 36.133370999699999 ], [ -115.1606457, 36.133373699700002 ], [ -115.160643, 36.133373699700002 ], [ -115.160643, 36.133376399699998 ], [ -115.1606403, 36.133376399699998 ], [ -115.1606403, 36.1333844997 ], [ -115.1606376, 36.1333844997 ], [ -115.1606376, 36.133387199700003 ], [ -115.1606349, 36.133387199700003 ], [ -115.1606349, 36.133392599700002 ], [ -115.1606322, 36.133392599700002 ], [ -115.1606322, 36.133395299699998 ], [ -115.1606295, 36.133395299699998 ], [ -115.1606295, 36.133400699699997 ], [ -115.1606268, 36.133400699699997 ], [ -115.1606268, 36.133406099700004 ], [ -115.1606241, 36.133406099700004 ], [ -115.1606241, 36.133411499700003 ], [ -115.1606214, 36.133411499700003 ], [ -115.1606214, 36.133414199699999 ], [ -115.1606187, 36.133414199699999 ], [ -115.1606187, 36.133419599699998 ], [ -115.160616, 36.133419599699998 ], [ -115.160616, 36.133424999699997 ], [ -115.1606133, 36.133424999699997 ], [ -115.1606133, 36.1334276997 ], [ -115.1606106, 36.1334276997 ], [ -115.1606106, 36.1334330997 ], [ -115.1606079, 36.1334330997 ], [ -115.1606079, 36.133435799700003 ], [ -115.1606052, 36.133435799700003 ], [ -115.1606052, 36.133438499699999 ], [ -115.1606025, 36.133438499699999 ], [ -115.1606025, 36.133443899699998 ], [ -115.1605998, 36.133443899699998 ], [ -115.1605998, 36.133446599700001 ], [ -115.1605971, 36.133446599700001 ], [ -115.1605971, 36.1334519997 ], [ -115.1605944, 36.1334519997 ], [ -115.1605944, 36.133454699700003 ], [ -115.1605917, 36.133454699700003 ], [ -115.1605917, 36.133460099700002 ], [ -115.160589, 36.133460099700002 ], [ -115.160589, 36.133462799699998 ], [ -115.1605863, 36.133462799699998 ], [ -115.1605863, 36.133470899700001 ], [ -115.1605836, 36.133470899700001 ], [ -115.1605836, 36.1334762997 ], [ -115.1605809, 36.1334762997 ], [ -115.1605809, 36.133481699699999 ], [ -115.1605782, 36.133481699699999 ], [ -115.1605782, 36.133487099699998 ], [ -115.1605755, 36.133487099699998 ], [ -115.1605755, 36.133489799700001 ], [ -115.1605728, 36.133489799700001 ], [ -115.1605728, 36.1334951997 ], [ -115.1605701, 36.1334951997 ], [ -115.1605701, 36.1335005997 ], [ -115.1605674, 36.1335005997 ], [ -115.1605674, 36.133503299700003 ], [ -115.1605647, 36.133503299700003 ], [ -115.1605647, 36.133508699700002 ], [ -115.160562, 36.133508699700002 ], [ -115.160562, 36.133511399699998 ], [ -115.1605593, 36.133511399699998 ], [ -115.1605593, 36.133514099700001 ], [ -115.1605566, 36.133514099700001 ], [ -115.1605566, 36.133516799699997 ], [ -115.1605539, 36.133516799699997 ], [ -115.1605539, 36.133522199700003 ], [ -115.1605512, 36.133522199700003 ], [ -115.1605512, 36.133524899699999 ], [ -115.1605485, 36.133524899699999 ], [ -115.1605485, 36.133530299699999 ], [ -115.1605458, 36.133530299699999 ], [ -115.1605458, 36.133532999700002 ], [ -115.1605431, 36.133532999700002 ], [ -115.1605431, 36.133538399700001 ], [ -115.1605404, 36.133538399700001 ], [ -115.1605404, 36.133546499700003 ], [ -115.1605377, 36.133546499700003 ], [ -115.1605377, 36.133551899700002 ], [ -115.160535, 36.133551899700002 ], [ -115.160535, 36.133562699700001 ] ] ] } },
{ "type": "Feature", "properties": { "value": 255.0 }, "geometry": { "type": "Polygon", "coordinates": [ [ [ -115.1616285, 36.132936299699999 ], [ -115.161588, 36.132936299699999 ], [ -115.161588, 36.132933599700003 ], [ -115.1615637, 36.132933599700003 ], [ -115.1615637, 36.1329308997 ], [ -115.1615583, 36.1329308997 ], [ -115.1615583, 36.132928199699997 ], [ -115.1615529, 36.132928199699997 ], [ -115.1615529, 36.132925499700001 ], [ -115.1615475, 36.132925499700001 ], [ -115.1615475, 36.132922799699998 ], [ -115.1615448, 36.132922799699998 ], [ -115.1615448, 36.132920099700002 ], [ -115.1615394, 36.132920099700002 ], [ -115.1615394, 36.132917399699998 ], [ -115.1615367, 36.132917399699998 ], [ -115.1615367, 36.132914699700002 ], [ -115.1615313, 36.132914699700002 ], [ -115.1615313, 36.132911999699999 ], [ -115.1615286, 36.132911999699999 ], [ -115.1615286, 36.132909299699996 ], [ -115.1615259, 36.132909299699996 ], [ -115.1615259, 36.1329065997 ], [ -115.1615232, 36.1329065997 ], [ -115.1615232, 36.132903899699997 ], [ -115.1615205, 36.132903899699997 ], [ -115.1615205, 36.132901199700001 ], [ -115.1615178, 36.132901199700001 ], [ -115.1615178, 36.132898499699998 ], [ -115.1615151, 36.132898499699998 ], [ -115.1615151, 36.132893099699999 ], [ -115.1615124, 36.132893099699999 ], [ -115.1615124, 36.132890399700003 ], [ -115.1615097, 36.132890399700003 ], [ -115.1615097, 36.132884999699996 ], [ -115.161507, 36.132884999699996 ], [ -115.161507, 36.132879599699997 ], [ -115.1615043, 36.132879599699997 ], [ -115.1615043, 36.132876899700001 ], [ -115.1615016, 36.132876899700001 ], [ -115.1615016, 36.132874199699998 ], [ -115.1614989, 36.132874199699998 ], [ -115.1614989, 36.132871499700002 ], [ -115.1614962, 36.132871499700002 ], [ -115.1614962, 36.132868799699999 ], [ -115.1614854, 36.132868799699999 ], [ -115.1614854, 36.132866099700003 ], [ -115.16148, 36.132866099700003 ], [ -115.16148, 36.132860699699997 ], [ -115.1614746, 36.132860699699997 ], [ -115.1614746, 36.1328633997 ], [ -115.1614719, 36.1328633997 ], [ -115.1614719, 36.132860699699997 ], [ -115.1614692, 36.132860699699997 ], [ -115.1614692, 36.132857999700001 ], [ -115.1614665, 36.132857999700001 ], [ -115.1614665, 36.132833699700001 ], [ -115.1614692, 36.132833699700001 ], [ -115.1614692, 36.132830999699998 ], [ -115.1614719, 36.132830999699998 ], [ -115.1614719, 36.132828299700002 ], [ -115.16148, 36.132828299700002 ], [ -115.16148, 36.132825599699999 ], [ -115.1614827, 36.132825599699999 ], [ -115.1614827, 36.132822899700002 ], [ -115.1614908, 36.132822899700002 ], [ -115.1614908, 36.132820199699999 ], [ -115.1614962, 36.132820199699999 ], [ -115.1614962, 36.132817499699996 ], [ -115.1615016, 36.132817499699996 ], [ -115.1615016, 36.1328147997 ], [ -115.161507, 36.1328147997 ], [ -115.161507, 36.132812099699997 ], [ -115.1615124, 36.132812099699997 ], [ -115.1615124, 36.132809399700001 ], [ -115.1615178, 36.132809399700001 ], [ -115.1615178, 36.132806699699998 ], [ -115.1615205, 36.132806699699998 ], [ -115.1615205, 36.132803999700002 ], [ -115.1615178, 36.132803999700002 ], [ -115.1615178, 36.132801299699999 ], [ -115.1615151, 36.132801299699999 ], [ -115.1615151, 36.132798599700003 ], [ -115.1615124, 36.132798599700003 ], [ -115.1615124, 36.1327958997 ], [ -115.1615043, 36.1327958997 ], [ -115.1615043, 36.132793199699996 ], [ -115.1614962, 36.132793199699996 ], [ -115.1614962, 36.1327904997 ], [ -115.1614881, 36.1327904997 ], [ -115.1614881, 36.132787799699997 ], [ -115.1614854, 36.132787799699997 ], [ -115.1614854, 36.132782399699998 ], [ -115.1614827, 36.132782399699998 ], [ -115.1614827, 36.1327715997 ], [ -115.16148, 36.1327715997 ], [ -115.16148, 36.132717599700001 ], [ -115.1614827, 36.132717599700001 ], [ -115.1614827, 36.132690599699998 ], [ -115.16148, 36.132690599699998 ], [ -115.16148, 36.132685199699999 ], [ -115.1614827, 36.132685199699999 ], [ -115.1614827, 36.132674399700001 ], [ -115.1614854, 36.132674399700001 ], [ -115.1614854, 36.1326554997 ], [ -115.1614827, 36.1326554997 ], [ -115.1614827, 36.132644699700002 ], [ -115.16148, 36.132644699700002 ], [ -115.16148, 36.132639299699996 ], [ -115.1614827, 36.132639299699996 ], [ -115.1614827, 36.1326311997 ], [ -115.1614854, 36.1326311997 ], [ -115.1614854, 36.132593399699999 ], [ -115.1614881, 36.132593399699999 ], [ -115.1614881, 36.132574499699999 ], [ -115.1614854, 36.132574499699999 ], [ -115.1614854, 36.1325690997 ], [ -115.1614827, 36.1325690997 ], [ -115.1614827, 36.132566399699996 ], [ -115.16148, 36.132566399699996 ], [ -115.16148, 36.132490799700001 ], [ -115.1614854, 36.132490799700001 ], [ -115.1614854, 36.132488099699998 ], [ -115.1614908, 36.132488099699998 ], [ -115.1614908, 36.132485399700002 ], [ -115.1614989, 36.132485399700002 ], [ -115.1614989, 36.132482699699999 ], [ -115.1615313, 36.132482699699999 ], [ -115.1615313, 36.132485399700002 ], [ -115.1615988, 36.132485399700002 ], [ -115.1615988, 36.132488099699998 ], [ -115.1616123, 36.132488099699998 ], [ -115.1616123, 36.132490799700001 ], [ -115.1616204, 36.132490799700001 ], [ -115.1616204, 36.132493499699997 ], [ -115.1616258, 36.132493499699997 ], [ -115.1616258, 36.1324961997 ], [ -115.1616312, 36.1324961997 ], [ -115.1616312, 36.132498899699996 ], [ -115.1616339, 36.132498899699996 ], [ -115.1616339, 36.132501599699999 ], [ -115.1616393, 36.132501599699999 ], [ -115.1616393, 36.132504299699995 ], [ -115.161642, 36.132504299699995 ], [ -115.161642, 36.132506999699999 ], [ -115.1616447, 36.132506999699999 ], [ -115.1616447, 36.132509699700002 ], [ -115.1616474, 36.132509699700002 ], [ -115.1616474, 36.132515099700001 ], [ -115.1616501, 36.132515099700001 ], [ -115.1616501, 36.132517799699997 ], [ -115.1616528, 36.132517799699997 ], [ -115.1616528, 36.132523199699996 ], [ -115.1616555, 36.132523199699996 ], [ -115.1616555, 36.132525899699999 ], [ -115.1616582, 36.132525899699999 ], [ -115.1616582, 36.132531299699998 ], [ -115.1616609, 36.132531299699998 ], [ -115.1616609, 36.132533999700001 ], [ -115.1616636, 36.132533999700001 ], [ -115.1616636, 36.132536699699997 ], [ -115.1616663, 36.132536699699997 ], [ -115.1616663, 36.132539399700001 ], [ -115.161669, 36.132539399700001 ], [ -115.161669, 36.132542099699997 ], [ -115.1616717, 36.132542099699997 ], [ -115.1616717, 36.132547499699996 ], [ -115.16167440000001, 36.132547499699996 ], [ -115.16167440000001, 36.132555599699998 ], [ -115.1616717, 36.132555599699998 ], [ -115.1616717, 36.132558299700001 ], [ -115.161669, 36.132558299700001 ], [ -115.161669, 36.132560999699997 ], [ -115.1616663, 36.132560999699997 ], [ -115.1616663, 36.132566399699996 ], [ -115.1616636, 36.132566399699996 ], [ -115.1616636, 36.132571799699996 ], [ -115.1616663, 36.132571799699996 ], [ -115.1616663, 36.132574499699999 ], [ -115.161669, 36.132574499699999 ], [ -115.161669, 36.132577199700002 ], [ -115.1616717, 36.132577199700002 ], [ -115.1616717, 36.132579899699998 ], [ -115.16167440000001, 36.132579899699998 ], [ -115.16167440000001, 36.1325879997 ], [ -115.1616771, 36.1325879997 ], [ -115.1616771, 36.132671699699998 ], [ -115.1616798, 36.132671699699998 ], [ -115.1616798, 36.132698699700001 ], [ -115.1616825, 36.132698699700001 ], [ -115.1616825, 36.132720299699997 ], [ -115.1616852, 36.132720299699997 ], [ -115.1616852, 36.132741899700001 ], [ -115.1616879, 36.132741899700001 ], [ -115.1616879, 36.132758099699998 ], [ -115.1616852, 36.132758099699998 ], [ -115.1616852, 36.132782399699998 ], [ -115.1616825, 36.132782399699998 ], [ -115.1616825, 36.132787799699997 ], [ -115.16167440000001, 36.132787799699997 ], [ -115.16167440000001, 36.1327904997 ], [ -115.1616555, 36.1327904997 ], [ -115.1616555, 36.132793199699996 ], [ -115.1616447, 36.132793199699996 ], [ -115.1616447, 36.1327958997 ], [ -115.161642, 36.1327958997 ], [ -115.161642, 36.132801299699999 ], [ -115.1616393, 36.132801299699999 ], [ -115.1616393, 36.132809399700001 ], [ -115.161642, 36.132809399700001 ], [ -115.161642, 36.132812099699997 ], [ -115.1616447, 36.132812099699997 ], [ -115.1616447, 36.1328147997 ], [ -115.1616474, 36.1328147997 ], [ -115.1616474, 36.132820199699999 ], [ -115.1616501, 36.132820199699999 ], [ -115.1616501, 36.132825599699999 ], [ -115.1616528, 36.132825599699999 ], [ -115.1616528, 36.132836399699997 ], [ -115.1616555, 36.132836399699997 ], [ -115.1616555, 36.132847199700002 ], [ -115.1616582, 36.132847199700002 ], [ -115.1616582, 36.132855299699997 ], [ -115.1616609, 36.132855299699997 ], [ -115.1616609, 36.1328822997 ], [ -115.1616636, 36.1328822997 ], [ -115.1616636, 36.1329065997 ], [ -115.1616609, 36.1329065997 ], [ -115.1616609, 36.132911999699999 ], [ -115.1616582, 36.132911999699999 ], [ -115.1616582, 36.132914699700002 ], [ -115.1616555, 36.132914699700002 ], [ -115.1616555, 36.132917399699998 ], [ -115.1616501, 36.132917399699998 ], [ -115.1616501, 36.132920099700002 ], [ -115.1616474, 36.132920099700002 ], [ -115.1616474, 36.132922799699998 ], [ -115.1616447, 36.132922799699998 ], [ -115.1616447, 36.132925499700001 ], [ -115.161642, 36.132925499700001 ], [ -115.161642, 36.132928199699997 ], [ -115.1616393, 36.132928199699997 ], [ -115.1616393, 36.1329308997 ], [ -115.1616339, 36.1329308997 ], [ -115.1616339, 36.132933599700003 ], [ -115.1616285, 36.132933599700003 ], [ -115.1616285, 36.132936299699999 ] ] ] } },
{ "type": "Feature", "properties": { "value": 255.0 }, "geometry": { "type": "Polygon", "coordinates": [ [ [ -115.1614044, 36.132693299700001 ], [ -115.1613153, 36.132693299700001 ], [ -115.1613153, 36.132690599699998 ], [ -115.1612775, 36.132690599699998 ], [ -115.1612775, 36.132687899700002 ], [ -115.1612343, 36.132687899700002 ], [ -115.1612343, 36.132685199699999 ], [ -115.1612046, 36.132685199699999 ], [ -115.1612046, 36.132687899700002 ], [ -115.161156, 36.132687899700002 ], [ -115.161156, 36.132690599699998 ], [ -115.1610885, 36.132690599699998 ], [ -115.1610885, 36.132687899700002 ], [ -115.1610858, 36.132687899700002 ], [ -115.1610858, 36.132685199699999 ], [ -115.1610831, 36.132685199699999 ], [ -115.1610831, 36.132682499699996 ], [ -115.1610804, 36.132682499699996 ], [ -115.1610804, 36.132671699699998 ], [ -115.1610777, 36.132671699699998 ], [ -115.1610777, 36.132614999699996 ], [ -115.1610804, 36.132614999699996 ], [ -115.1610804, 36.132604199699998 ], [ -115.1610777, 36.132604199699998 ], [ -115.1610777, 36.132550199699999 ], [ -115.161075, 36.132550199699999 ], [ -115.161075, 36.132528599700002 ], [ -115.1610723, 36.132528599700002 ], [ -115.1610723, 36.132512399699998 ], [ -115.1610696, 36.132512399699998 ], [ -115.1610696, 36.132501599699999 ], [ -115.161075, 36.132501599699999 ], [ -115.161075, 36.132498899699996 ], [ -115.1611047, 36.132498899699996 ], [ -115.1611047, 36.1324961997 ], [ -115.1611182, 36.1324961997 ], [ -115.1611182, 36.132493499699997 ], [ -115.1611209, 36.132493499699997 ], [ -115.1611209, 36.132490799700001 ], [ -115.1611263, 36.132490799700001 ], [ -115.1611263, 36.132488099699998 ], [ -115.1611398, 36.132488099699998 ], [ -115.1611398, 36.132490799700001 ], [ -115.1611506, 36.132490799700001 ], [ -115.1611506, 36.132493499699997 ], [ -115.1612505, 36.132493499699997 ], [ -115.1612505, 36.1324961997 ], [ -115.1612586, 36.1324961997 ], [ -115.1612586, 36.132493499699997 ], [ -115.161264, 36.132493499699997 ], [ -115.161264, 36.132490799700001 ], [ -115.1612694, 36.132490799700001 ], [ -115.1612694, 36.132488099699998 ], [ -115.1612721, 36.132488099699998 ], [ -115.1612721, 36.132485399700002 ], [ -115.1612829, 36.132485399700002 ], [ -115.1612829, 36.132482699699999 ], [ -115.1612991, 36.132482699699999 ], [ -115.1612991, 36.132485399700002 ], [ -115.161345, 36.132485399700002 ], [ -115.161345, 36.132488099699998 ], [ -115.161372, 36.132488099699998 ], [ -115.161372, 36.132490799700001 ], [ -115.1613855, 36.132490799700001 ], [ -115.1613855, 36.132493499699997 ], [ -115.1613936, 36.132493499699997 ], [ -115.1613936, 36.1324961997 ], [ -115.161399, 36.1324961997 ], [ -115.161399, 36.132498899699996 ], [ -115.1614044, 36.132498899699996 ], [ -115.1614044, 36.132501599699999 ], [ -115.1614098, 36.132501599699999 ], [ -115.1614098, 36.132504299699995 ], [ -115.1614125, 36.132504299699995 ], [ -115.1614125, 36.132506999699999 ], [ -115.1614152, 36.132506999699999 ], [ -115.1614152, 36.132509699700002 ], [ -115.1614179, 36.132509699700002 ], [ -115.1614179, 36.132515099700001 ], [ -115.1614206, 36.132515099700001 ], [ -115.1614206, 36.132517799699997 ], [ -115.1614233, 36.132517799699997 ], [ -115.1614233, 36.132523199699996 ], [ -115.161426, 36.132523199699996 ], [ -115.161426, 36.132525899699999 ], [ -115.1614287, 36.132525899699999 ], [ -115.1614287, 36.132528599700002 ], [ -115.1614314, 36.132528599700002 ], [ -115.1614314, 36.132531299699998 ], [ -115.1614341, 36.132531299699998 ], [ -115.1614341, 36.132528599700002 ], [ -115.1614476, 36.132528599700002 ], [ -115.1614476, 36.132531299699998 ], [ -115.1614503, 36.132531299699998 ], [ -115.1614503, 36.132533999700001 ], [ -115.161453, 36.132533999700001 ], [ -115.161453, 36.132542099699997 ], [ -115.1614503, 36.132542099699997 ], [ -115.1614503, 36.132547499699996 ], [ -115.1614476, 36.132547499699996 ], [ -115.1614476, 36.132550199699999 ], [ -115.1614449, 36.132550199699999 ], [ -115.1614449, 36.132552899700002 ], [ -115.1614395, 36.132552899700002 ], [ -115.1614395, 36.132555599699998 ], [ -115.1614341, 36.132555599699998 ], [ -115.1614341, 36.132558299700001 ], [ -115.1614314, 36.132558299700001 ], [ -115.1614314, 36.132560999699997 ], [ -115.1614287, 36.132560999699997 ], [ -115.1614287, 36.1325636997 ], [ -115.161426, 36.1325636997 ], [ -115.161426, 36.132566399699996 ], [ -115.1614233, 36.132566399699996 ], [ -115.1614233, 36.1325690997 ], [ -115.1614206, 36.1325690997 ], [ -115.1614206, 36.132571799699996 ], [ -115.1614179, 36.132571799699996 ], [ -115.1614179, 36.132574499699999 ], [ -115.1614152, 36.132574499699999 ], [ -115.1614152, 36.132579899699998 ], [ -115.1614125, 36.132579899699998 ], [ -115.1614125, 36.1325879997 ], [ -115.1614098, 36.1325879997 ], [ -115.1614098, 36.132620399700002 ], [ -115.1614125, 36.132620399700002 ], [ -115.1614125, 36.132647399699998 ], [ -115.1614098, 36.132647399699998 ], [ -115.1614098, 36.1326797997 ], [ -115.1614071, 36.1326797997 ], [ -115.1614071, 36.132690599699998 ], [ -115.1614044, 36.132690599699998 ], [ -115.1614044, 36.132693299700001 ] ] ] } },
{ "type": "Feature", "properties": { "value": 255.0 }, "geometry": { "type": "Polygon", "coordinates": [ [ [ -115.1617014, 36.132320699699996 ], [ -115.1616825, 36.132320699699996 ], [ -115.1616825, 36.132312599700001 ], [ -115.1617014, 36.132312599700001 ], [ -115.1617014, 36.132320699699996 ] ] ] } },
{ "type": "Feature", "properties": { "value": 255.0 }, "geometry": { "type": "Polygon", "coordinates": [ [ [ -115.1614152, 36.132369299699995 ], [ -115.1613828, 36.132369299699995 ], [ -115.1613828, 36.132366599699999 ], [ -115.1613747, 36.132366599699999 ], [ -115.1613747, 36.132363899699996 ], [ -115.1613693, 36.132363899699996 ], [ -115.1613693, 36.1323611997 ], [ -115.1613639, 36.1323611997 ], [ -115.1613639, 36.132358499699997 ], [ -115.1613612, 36.132358499699997 ], [ -115.1613612, 36.132355799700001 ], [ -115.1613585, 36.132355799700001 ], [ -115.1613585, 36.132350399700002 ], [ -115.1613558, 36.132350399700002 ], [ -115.1613558, 36.132347699699999 ], [ -115.1613531, 36.132347699699999 ], [ -115.1613531, 36.132344999699995 ], [ -115.1613504, 36.132344999699995 ], [ -115.1613504, 36.132342299699999 ], [ -115.1613477, 36.132342299699999 ], [ -115.1613477, 36.132339599699996 ], [ -115.161345, 36.132339599699996 ], [ -115.161345, 36.1323368997 ], [ -115.1613423, 36.1323368997 ], [ -115.1613423, 36.132334199699997 ], [ -115.1613396, 36.132334199699997 ], [ -115.1613396, 36.132331499700001 ], [ -115.1613369, 36.132331499700001 ], [ -115.1613369, 36.132328799699998 ], [ -115.1613342, 36.132328799699998 ], [ -115.1613342, 36.132326099700002 ], [ -115.1613315, 36.132326099700002 ], [ -115.1613315, 36.132323399699999 ], [ -115.1613261, 36.132323399699999 ], [ -115.1613261, 36.132320699699996 ], [ -115.1613207, 36.132320699699996 ], [ -115.1613207, 36.1323179997 ], [ -115.161318, 36.1323179997 ], [ -115.161318, 36.132315299699997 ], [ -115.1613126, 36.132315299699997 ], [ -115.1613126, 36.132312599700001 ], [ -115.1613099, 36.132312599700001 ], [ -115.1613099, 36.132309899699997 ], [ -115.1613072, 36.132309899699997 ], [ -115.1613072, 36.132304499699998 ], [ -115.1613126, 36.132304499699998 ], [ -115.1613126, 36.132301799699995 ], [ -115.161318, 36.132301799699995 ], [ -115.161318, 36.132299099699999 ], [ -115.1613261, 36.132299099699999 ], [ -115.1613261, 36.132296399699996 ], [ -115.1613612, 36.132296399699996 ], [ -115.1613612, 36.1322936997 ], [ -115.1613855, 36.1322936997 ], [ -115.1613855, 36.132296399699996 ], [ -115.1614476, 36.132296399699996 ], [ -115.1614476, 36.132299099699999 ], [ -115.161453, 36.132299099699999 ], [ -115.161453, 36.132301799699995 ], [ -115.1614557, 36.132301799699995 ], [ -115.1614557, 36.132304499699998 ], [ -115.1614611, 36.132304499699998 ], [ -115.1614611, 36.132309899699997 ], [ -115.1614638, 36.132309899699997 ], [ -115.1614638, 36.132312599700001 ], [ -115.1614665, 36.132312599700001 ], [ -115.1614665, 36.132315299699997 ], [ -115.1614692, 36.132315299699997 ], [ -115.1614692, 36.132326099700002 ], [ -115.1614665, 36.132326099700002 ], [ -115.1614665, 36.132328799699998 ], [ -115.1614638, 36.132328799699998 ], [ -115.1614638, 36.132334199699997 ], [ -115.1614611, 36.132334199699997 ], [ -115.1614611, 36.1323368997 ], [ -115.1614584, 36.1323368997 ], [ -115.1614584, 36.132342299699999 ], [ -115.1614557, 36.132342299699999 ], [ -115.1614557, 36.132344999699995 ], [ -115.161453, 36.132344999699995 ], [ -115.161453, 36.132350399700002 ], [ -115.1614503, 36.132350399700002 ], [ -115.1614503, 36.132358499699997 ], [ -115.1614476, 36.132358499699997 ], [ -115.1614476, 36.1323611997 ], [ -115.1614449, 36.1323611997 ], [ -115.1614449, 36.132363899699996 ], [ -115.1614422, 36.132363899699996 ], [ -115.1614422, 36.132366599699999 ], [ -115.1614341, 36.132366599699999 ], [ -115.1614341, 36.132363899699996 ], [ -115.1614233, 36.132363899699996 ], [ -115.1614233, 36.132366599699999 ], [ -115.1614152, 36.132366599699999 ], [ -115.1614152, 36.132369299699995 ] ] ] } },
{ "type": "Feature", "properties": { "value": 255.0 }, "geometry": { "type": "Polygon", "coordinates": [ [ [ -115.1608887, 36.132174899699997 ], [ -115.1608779, 36.132174899699997 ], [ -115.1608779, 36.132172199700001 ], [ -115.1608698, 36.132172199700001 ], [ -115.1608698, 36.132169499699998 ], [ -115.1608617, 36.132169499699998 ], [ -115.1608617, 36.132166799699995 ], [ -115.160859, 36.132166799699995 ], [ -115.160859, 36.132164099699999 ], [ -115.1608536, 36.132164099699999 ], [ -115.1608536, 36.132161399699996 ], [ -115.1608509, 36.132161399699996 ], [ -115.1608509, 36.1321586997 ], [ -115.1608482, 36.1321586997 ], [ -115.1608482, 36.132155999699997 ], [ -115.1608455, 36.132155999699997 ], [ -115.1608455, 36.132150599699997 ], [ -115.1608482, 36.132150599699997 ], [ -115.1608482, 36.132147899700001 ], [ -115.1608644, 36.132147899700001 ], [ -115.1608644, 36.132150599699997 ], [ -115.1608698, 36.132150599699997 ], [ -115.1608698, 36.132153299700001 ], [ -115.1608752, 36.132153299700001 ], [ -115.1608752, 36.132155999699997 ], [ -115.1608806, 36.132155999699997 ], [ -115.1608806, 36.1321586997 ], [ -115.1608887, 36.1321586997 ], [ -115.1608887, 36.132161399699996 ], [ -115.1608914, 36.132161399699996 ], [ -115.1608914, 36.132164099699999 ], [ -115.1608941, 36.132164099699999 ], [ -115.1608941, 36.132169499699998 ], [ -115.1608914, 36.132169499699998 ], [ -115.1608914, 36.132172199700001 ], [ -115.1608887, 36.132172199700001 ], [ -115.1608887, 36.132174899699997 ] ] ] } },
{ "type": "Feature", "properties": { "value": 255.0 }, "geometry": { "type": "Polygon", "coordinates": [ [ [ -115.16148, 36.132266699699997 ], [ -115.1614746, 36.132266699699997 ], [ -115.1614746, 36.132263999700001 ], [ -115.1614665, 36.132263999700001 ], [ -115.1614665, 36.132261299699998 ], [ -115.1614314, 36.132261299699998 ], [ -115.1614314, 36.132258599700002 ], [ -115.1614179, 36.132258599700002 ], [ -115.1614179, 36.132261299699998 ], [ -115.1613936, 36.132261299699998 ], [ -115.1613936, 36.132263999700001 ], [ -115.1613531, 36.132263999700001 ], [ -115.1613531, 36.132261299699998 ], [ -115.1612748, 36.132261299699998 ], [ -115.1612748, 36.132258599700002 ], [ -115.1612397, 36.132258599700002 ], [ -115.1612397, 36.132255899699999 ], [ -115.1612343, 36.132255899699999 ], [ -115.1612343, 36.132253199699996 ], [ -115.1612316, 36.132253199699996 ], [ -115.1612316, 36.1322504997 ], [ -115.1612289, 36.1322504997 ], [ -115.1612289, 36.132247799699996 ], [ -115.1612262, 36.132247799699996 ], [ -115.1612262, 36.132236999699998 ], [ -115.1612235, 36.132236999699998 ], [ -115.1612235, 36.132228899699996 ], [ -115.1612208, 36.132228899699996 ], [ -115.1612208, 36.132220799700001 ], [ -115.1612181, 36.132220799700001 ], [ -115.1612181, 36.132212699699998 ], [ -115.1612154, 36.132212699699998 ], [ -115.1612154, 36.132204599699996 ], [ -115.1612127, 36.132204599699996 ], [ -115.1612127, 36.132188399699999 ], [ -115.16121, 36.132188399699999 ], [ -115.16121, 36.132180299699996 ], [ -115.1612127, 36.132180299699996 ], [ -115.1612127, 36.132169499699998 ], [ -115.16121, 36.132169499699998 ], [ -115.16121, 36.132045299699996 ], [ -115.1612127, 36.132045299699996 ], [ -115.1612127, 36.131988599700001 ], [ -115.1612154, 36.131988599700001 ], [ -115.1612154, 36.131980499699999 ], [ -115.1612181, 36.131980499699999 ], [ -115.1612181, 36.131977799699996 ], [ -115.1612208, 36.131977799699996 ], [ -115.1612208, 36.1319750997 ], [ -115.1612235, 36.1319750997 ], [ -115.1612235, 36.131972399699997 ], [ -115.1612289, 36.131972399699997 ], [ -115.1612289, 36.131969699700001 ], [ -115.161237, 36.131969699700001 ], [ -115.161237, 36.131966999699998 ], [ -115.1612451, 36.131966999699998 ], [ -115.1612451, 36.131964299699995 ], [ -115.1612721, 36.131964299699995 ], [ -115.1612721, 36.131961599699999 ], [ -115.1612829, 36.131961599699999 ], [ -115.1612829, 36.131958899699995 ], [ -115.1612937, 36.131958899699995 ], [ -115.1612937, 36.131956199699999 ], [ -115.1613018, 36.131956199699999 ], [ -115.1613018, 36.131953499699996 ], [ -115.1613045, 36.131953499699996 ], [ -115.1613045, 36.1319507997 ], [ -115.1613099, 36.1319507997 ], [ -115.1613099, 36.131948099699997 ], [ -115.1613126, 36.131948099699997 ], [ -115.1613126, 36.131937299699999 ], [ -115.1613153, 36.131937299699999 ], [ -115.1613153, 36.131934599699996 ], [ -115.161318, 36.131934599699996 ], [ -115.161318, 36.1319318997 ], [ -115.1613261, 36.1319318997 ], [ -115.1613261, 36.131934599699996 ], [ -115.1613288, 36.131934599699996 ], [ -115.1613288, 36.131937299699999 ], [ -115.1613315, 36.131937299699999 ], [ -115.1613315, 36.131939999699995 ], [ -115.1613369, 36.131939999699995 ], [ -115.1613369, 36.131942699699998 ], [ -115.1613531, 36.131942699699998 ], [ -115.1613531, 36.131939999699995 ], [ -115.1613558, 36.131939999699995 ], [ -115.1613558, 36.131937299699999 ], [ -115.1613612, 36.131937299699999 ], [ -115.1613612, 36.131934599699996 ], [ -115.161372, 36.131934599699996 ], [ -115.161372, 36.131937299699999 ], [ -115.1613774, 36.131937299699999 ], [ -115.1613774, 36.131939999699995 ], [ -115.1613855, 36.131939999699995 ], [ -115.1613855, 36.131942699699998 ], [ -115.1613909, 36.131942699699998 ], [ -115.1613909, 36.131945399700001 ], [ -115.1614044, 36.131945399700001 ], [ -115.1614044, 36.131948099699997 ], [ -115.1614503, 36.131948099699997 ], [ -115.1614503, 36.131945399700001 ], [ -115.1614827, 36.131945399700001 ], [ -115.1614827, 36.131942699699998 ], [ -115.1615232, 36.131942699699998 ], [ -115.1615232, 36.131945399700001 ], [ -115.1615583, 36.131945399700001 ], [ -115.1615583, 36.131948099699997 ], [ -115.1615664, 36.131948099699997 ], [ -115.1615664, 36.1319507997 ], [ -115.1615745, 36.1319507997 ], [ -115.1615745, 36.131953499699996 ], [ -115.1615799, 36.131953499699996 ], [ -115.1615799, 36.131956199699999 ], [ -115.1615907, 36.131956199699999 ], [ -115.1615907, 36.131958899699995 ], [ -115.1616015, 36.131958899699995 ], [ -115.1616015, 36.131961599699999 ], [ -115.1616096, 36.131961599699999 ], [ -115.1616096, 36.131964299699995 ], [ -115.1616177, 36.131964299699995 ], [ -115.1616177, 36.131966999699998 ], [ -115.1616312, 36.131966999699998 ], [ -115.1616312, 36.131969699700001 ], [ -115.1616906, 36.131969699700001 ], [ -115.1616906, 36.131972399699997 ], [ -115.1617122, 36.131972399699997 ], [ -115.1617122, 36.1319750997 ], [ -115.1617203, 36.1319750997 ], [ -115.1617203, 36.131977799699996 ], [ -115.1617257, 36.131977799699996 ], [ -115.1617257, 36.131980499699999 ], [ -115.1617284, 36.131980499699999 ], [ -115.1617284, 36.131983199699995 ], [ -115.1617311, 36.131983199699995 ], [ -115.1617311, 36.131985899699998 ], [ -115.1617338, 36.131985899699998 ], [ -115.1617338, 36.1320182997 ], [ -115.1617311, 36.1320182997 ], [ -115.1617311, 36.132031799699995 ], [ -115.1617284, 36.132031799699995 ], [ -115.1617284, 36.132064199699997 ], [ -115.1617257, 36.132064199699997 ], [ -115.1617257, 36.1320911997 ], [ -115.161723, 36.1320911997 ], [ -115.161723, 36.132104699700001 ], [ -115.1617257, 36.132104699700001 ], [ -115.1617257, 36.132126299699998 ], [ -115.161723, 36.132126299699998 ], [ -115.161723, 36.132150599699997 ], [ -115.1617203, 36.132150599699997 ], [ -115.1617203, 36.132199199699997 ], [ -115.1617176, 36.132199199699997 ], [ -115.1617176, 36.132212699699998 ], [ -115.1617149, 36.132212699699998 ], [ -115.1617149, 36.132220799700001 ], [ -115.1617122, 36.132220799700001 ], [ -115.1617122, 36.1322504997 ], [ -115.1617095, 36.1322504997 ], [ -115.1617095, 36.132255899699999 ], [ -115.1617068, 36.132255899699999 ], [ -115.1617068, 36.132258599700002 ], [ -115.1617014, 36.132258599700002 ], [ -115.1617014, 36.132261299699998 ], [ -115.161696, 36.132261299699998 ], [ -115.161696, 36.132263999700001 ], [ -115.1616771, 36.132263999700001 ], [ -115.1616771, 36.132261299699998 ], [ -115.1616663, 36.132261299699998 ], [ -115.1616663, 36.132258599700002 ], [ -115.1616555, 36.132258599700002 ], [ -115.1616555, 36.132255899699999 ], [ -115.161588, 36.132255899699999 ], [ -115.161588, 36.132258599700002 ], [ -115.1615664, 36.132258599700002 ], [ -115.1615664, 36.132261299699998 ], [ -115.1615097, 36.132261299699998 ], [ -115.1615097, 36.132258599700002 ], [ -115.16148, 36.132258599700002 ], [ -115.16148, 36.132266699699997 ] ] ] } },
{ "type": "Feature", "properties": { "value": 255.0 }, "geometry": { "type": "Polygon", "coordinates": [ [ [ -115.1613828, 36.131929199699997 ], [ -115.1613693, 36.131929199699997 ], [ -115.1613693, 36.1319264997 ], [ -115.1613666, 36.1319264997 ], [ -115.1613666, 36.131921099700001 ], [ -115.161372, 36.131921099700001 ], [ -115.161372, 36.131912999699999 ], [ -115.1613774, 36.131912999699999 ], [ -115.1613774, 36.131910299699996 ], [ -115.1613855, 36.131910299699996 ], [ -115.1613855, 36.131912999699999 ], [ -115.1613909, 36.131912999699999 ], [ -115.1613909, 36.131918399699998 ], [ -115.1613882, 36.131918399699998 ], [ -115.1613882, 36.131921099700001 ], [ -115.1613909, 36.131921099700001 ], [ -115.1613909, 36.1319264997 ], [ -115.1613828, 36.1319264997 ], [ -115.1613828, 36.131929199699997 ] ] ] } },
{ "type": "Feature", "properties": { "value": 255.0 }, "geometry": { "type": "Polygon", "coordinates": [ [ [ -115.1613909, 36.131894099699998 ], [ -115.1613801, 36.131894099699998 ], [ -115.1613801, 36.131891399699995 ], [ -115.1613774, 36.131891399699995 ], [ -115.1613774, 36.131885999699996 ], [ -115.1613801, 36.131885999699996 ], [ -115.1613801, 36.1318832997 ], [ -115.1613936, 36.1318832997 ], [ -115.1613936, 36.131885999699996 ], [ -115.1613963, 36.131885999699996 ], [ -115.1613963, 36.131891399699995 ], [ -115.1613909, 36.131891399699995 ], [ -115.1613909, 36.131894099699998 ] ] ] } },
{ "type": "Feature", "properties": { "value": 255.0 }, "geometry": { "type": "Polygon", "coordinates": [ [ [ -115.1613153, 36.131880599699997 ], [ -115.161291, 36.131880599699997 ], [ -115.161291, 36.131877899700001 ], [ -115.1612883, 36.131877899700001 ], [ -115.1612883, 36.131875199699998 ], [ -115.1612856, 36.131875199699998 ], [ -115.1612856, 36.131872499699995 ], [ -115.1612829, 36.131872499699995 ], [ -115.1612829, 36.131867099699996 ], [ -115.1612856, 36.131867099699996 ], [ -115.1612856, 36.1318643997 ], [ -115.161291, 36.1318643997 ], [ -115.161291, 36.131861699699996 ], [ -115.1612937, 36.131861699699996 ], [ -115.1612937, 36.1318589997 ], [ -115.1612964, 36.1318589997 ], [ -115.1612964, 36.131856299699997 ], [ -115.1612991, 36.131856299699997 ], [ -115.1612991, 36.131853599700001 ], [ -115.1613099, 36.131853599700001 ], [ -115.1613099, 36.131850899699998 ], [ -115.1613207, 36.131850899699998 ], [ -115.1613207, 36.131853599700001 ], [ -115.1613261, 36.131853599700001 ], [ -115.1613261, 36.131872499699995 ], [ -115.1613234, 36.131872499699995 ], [ -115.1613234, 36.131875199699998 ], [ -115.1613207, 36.131875199699998 ], [ -115.1613207, 36.131877899700001 ], [ -115.1613153, 36.131877899700001 ], [ -115.1613153, 36.131880599699997 ] ] ] } },
{ "type": "Feature", "properties": { "value": 255.0 }, "geometry": { "type": "Polygon", "coordinates": [ [ [ -115.1614017, 36.131869799699999 ], [ -115.1613909, 36.131869799699999 ], [ -115.1613909, 36.131867099699996 ], [ -115.1613828, 36.131867099699996 ], [ -115.1613828, 36.1318643997 ], [ -115.1613774, 36.1318643997 ], [ -115.1613774, 36.131861699699996 ], [ -115.161372, 36.131861699699996 ], [ -115.161372, 36.1318589997 ], [ -115.1613693, 36.1318589997 ], [ -115.1613693, 36.131853599700001 ], [ -115.1613747, 36.131853599700001 ], [ -115.1613747, 36.131850899699998 ], [ -115.1613855, 36.131850899699998 ], [ -115.1613855, 36.131848199699995 ], [ -115.1614044, 36.131848199699995 ], [ -115.1614044, 36.131845499699999 ], [ -115.1614098, 36.131845499699999 ], [ -115.1614098, 36.131848199699995 ], [ -115.1614287, 36.131848199699995 ], [ -115.1614287, 36.131850899699998 ], [ -115.161453, 36.131850899699998 ], [ -115.161453, 36.131853599700001 ], [ -115.1614584, 36.131853599700001 ], [ -115.1614584, 36.131856299699997 ], [ -115.1614611, 36.131856299699997 ], [ -115.1614611, 36.131861699699996 ], [ -115.161426, 36.131861699699996 ], [ -115.161426, 36.1318643997 ], [ -115.1614098, 36.1318643997 ], [ -115.1614098, 36.131867099699996 ], [ -115.1614017, 36.131867099699996 ], [ -115.1614017, 36.131869799699999 ] ] ] } },
{ "type": "Feature", "properties": { "value": 255.0 }, "geometry": { "type": "Polygon", "coordinates": [ [ [ -115.1612829, 36.1318157997 ], [ -115.1612721, 36.1318157997 ], [ -115.1612721, 36.131813099699997 ], [ -115.161264, 36.131813099699997 ], [ -115.161264, 36.1318157997 ], [ -115.1612505, 36.1318157997 ], [ -115.1612505, 36.131813099699997 ], [ -115.1612478, 36.131813099699997 ], [ -115.1612478, 36.131810399700001 ], [ -115.1612451, 36.131810399700001 ], [ -115.1612451, 36.131807699699998 ], [ -115.1612829, 36.131807699699998 ], [ -115.1612829, 36.1318157997 ] ] ] } },
{ "type": "Feature", "properties": { "value": 255.0 }, "geometry": { "type": "Polygon", "coordinates": [ [ [ -115.1616204, 36.131826599699998 ], [ -115.1616177, 36.131826599699998 ], [ -115.1616177, 36.131823899699995 ], [ -115.1616096, 36.131823899699995 ], [ -115.1616096, 36.131821199699999 ], [ -115.16160690000001, 36.131821199699999 ], [ -115.16160690000001, 36.131818499699996 ], [ -115.1615853, 36.131818499699996 ], [ -115.1615853, 36.131821199699999 ], [ -115.1615664, 36.131821199699999 ], [ -115.1615664, 36.131823899699995 ], [ -115.161534, 36.131823899699995 ], [ -115.161534, 36.131821199699999 ], [ -115.1615259, 36.131821199699999 ], [ -115.1615259, 36.131818499699996 ], [ -115.1615124, 36.131818499699996 ], [ -115.1615124, 36.1318157997 ], [ -115.1614881, 36.1318157997 ], [ -115.1614881, 36.131813099699997 ], [ -115.1614827, 36.131813099699997 ], [ -115.1614827, 36.131810399700001 ], [ -115.16148, 36.131810399700001 ], [ -115.16148, 36.131807699699998 ], [ -115.161696, 36.131807699699998 ], [ -115.161696, 36.131810399700001 ], [ -115.1616933, 36.131810399700001 ], [ -115.1616933, 36.131813099699997 ], [ -115.1616879, 36.131813099699997 ], [ -115.1616879, 36.1318157997 ], [ -115.1616825, 36.1318157997 ], [ -115.1616825, 36.131818499699996 ], [ -115.1616393, 36.131818499699996 ], [ -115.1616393, 36.1318157997 ], [ -115.1616231, 36.1318157997 ], [ -115.1616231, 36.131821199699999 ], [ -115.1616204, 36.131821199699999 ], [ -115.1616204, 36.131826599699998 ] ] ] } },
{ "type": "Feature", "properties": { "value": 255.0 }, "geometry": { "type": "Polygon", "coordinates": [ [ [ -115.1613207, 36.131821199699999 ], [ -115.1613045, 36.131821199699999 ], [ -115.1613045, 36.131818499699996 ], [ -115.1613018, 36.131818499699996 ], [ -115.1613018, 36.1318157997 ], [ -115.1612991, 36.1318157997 ], [ -115.1612991, 36.131813099699997 ], [ -115.1613018, 36.131813099699997 ], [ -115.1613018, 36.131807699699998 ], [ -115.1613396, 36.131807699699998 ], [ -115.1613396, 36.131810399700001 ], [ -115.1613369, 36.131810399700001 ], [ -115.1613369, 36.131813099699997 ], [ -115.1613288, 36.131813099699997 ], [ -115.1613288, 36.1318157997 ], [ -115.1613234, 36.1318157997 ], [ -115.1613234, 36.131818499699996 ], [ -115.1613207, 36.131818499699996 ], [ -115.1613207, 36.131821199699999 ] ] ] } },
{ "type": "Feature", "properties": { "value": 255.0 }, "geometry": { "type": "Polygon", "coordinates": [ [ [ -115.1606511, 36.132180299699996 ], [ -115.1606214, 36.132180299699996 ], [ -115.1606214, 36.1321775997 ], [ -115.1606025, 36.1321775997 ], [ -115.1606025, 36.132180299699996 ], [ -115.1605998, 36.132180299699996 ], [ -115.1605998, 36.1321775997 ], [ -115.1605917, 36.1321775997 ], [ -115.1605917, 36.132174899699997 ], [ -115.160589, 36.132174899699997 ], [ -115.160589, 36.132172199700001 ], [ -115.1605863, 36.132172199700001 ], [ -115.1605863, 36.132169499699998 ], [ -115.1605809, 36.132169499699998 ], [ -115.1605809, 36.132166799699995 ], [ -115.1605755, 36.132166799699995 ], [ -115.1605755, 36.132164099699999 ], [ -115.1605674, 36.132164099699999 ], [ -115.1605674, 36.132161399699996 ], [ -115.1605566, 36.132161399699996 ], [ -115.1605566, 36.132164099699999 ], [ -115.1605431, 36.132164099699999 ], [ -115.1605431, 36.132166799699995 ], [ -115.160535, 36.132166799699995 ], [ -115.160535, 36.132164099699999 ], [ -115.1605134, 36.132164099699999 ], [ -115.1605134, 36.132166799699995 ], [ -115.1605053, 36.132166799699995 ], [ -115.1605053, 36.132169499699998 ], [ -115.1604702, 36.132169499699998 ], [ -115.1604702, 36.132166799699995 ], [ -115.1604648, 36.132166799699995 ], [ -115.1604648, 36.132169499699998 ], [ -115.1604567, 36.132169499699998 ], [ -115.1604567, 36.132172199700001 ], [ -115.160454, 36.132172199700001 ], [ -115.160454, 36.132174899699997 ], [ -115.1604486, 36.132174899699997 ], [ -115.1604486, 36.1321775997 ], [ -115.1604432, 36.1321775997 ], [ -115.1604432, 36.132180299699996 ], [ -115.1604297, 36.132180299699996 ], [ -115.1604297, 36.1321775997 ], [ -115.1604162, 36.1321775997 ], [ -115.1604162, 36.132174899699997 ], [ -115.1603946, 36.132174899699997 ], [ -115.1603946, 36.1321775997 ], [ -115.1603568, 36.1321775997 ], [ -115.1603568, 36.132174899699997 ], [ -115.1603379, 36.132174899699997 ], [ -115.1603379, 36.132172199700001 ], [ -115.1603325, 36.132172199700001 ], [ -115.1603325, 36.132169499699998 ], [ -115.1603271, 36.132169499699998 ], [ -115.1603271, 36.132166799699995 ], [ -115.1603244, 36.132166799699995 ], [ -115.1603244, 36.132164099699999 ], [ -115.160319, 36.132164099699999 ], [ -115.160319, 36.132161399699996 ], [ -115.1603163, 36.132161399699996 ], [ -115.1603163, 36.132164099699999 ], [ -115.1603109, 36.132164099699999 ], [ -115.1603109, 36.132166799699995 ], [ -115.1603001, 36.132166799699995 ], [ -115.1603001, 36.132169499699998 ], [ -115.160292, 36.132169499699998 ], [ -115.160292, 36.132166799699995 ], [ -115.1602866, 36.132166799699995 ], [ -115.1602866, 36.132164099699999 ], [ -115.1602812, 36.132164099699999 ], [ -115.1602812, 36.132161399699996 ], [ -115.1602704, 36.132161399699996 ], [ -115.1602704, 36.1321586997 ], [ -115.1602623, 36.1321586997 ], [ -115.1602623, 36.132155999699997 ], [ -115.1602569, 36.132155999699997 ], [ -115.1602569, 36.132153299700001 ], [ -115.1602515, 36.132153299700001 ], [ -115.1602515, 36.132150599699997 ], [ -115.1602461, 36.132150599699997 ], [ -115.1602461, 36.132147899700001 ], [ -115.1602434, 36.132147899700001 ], [ -115.1602434, 36.132145199699998 ], [ -115.1602407, 36.132145199699998 ], [ -115.1602407, 36.132142499699995 ], [ -115.160238, 36.132142499699995 ], [ -115.160238, 36.132139799699999 ], [ -115.1602353, 36.132139799699999 ], [ -115.1602353, 36.1321343997 ], [ -115.1602326, 36.1321343997 ], [ -115.1602326, 36.132131699699997 ], [ -115.1602299, 36.132131699699997 ], [ -115.1602299, 36.132128999700001 ], [ -115.1602272, 36.132128999700001 ], [ -115.1602272, 36.132123599700002 ], [ -115.1602245, 36.132123599700002 ], [ -115.1602245, 36.132120899699999 ], [ -115.1602218, 36.132120899699999 ], [ -115.1602218, 36.132115499699999 ], [ -115.1602191, 36.132115499699999 ], [ -115.1602191, 36.1321100997 ], [ -115.1602164, 36.1321100997 ], [ -115.1602164, 36.132101999699998 ], [ -115.1602137, 36.132101999699998 ], [ -115.1602137, 36.1320425997 ], [ -115.160211, 36.1320425997 ], [ -115.160211, 36.131826599699998 ], [ -115.1602137, 36.131826599699998 ], [ -115.1602137, 36.131807699699998 ], [ -115.1607105, 36.131807699699998 ], [ -115.1607105, 36.131810399700001 ], [ -115.1607078, 36.131810399700001 ], [ -115.1607078, 36.131813099699997 ], [ -115.1607051, 36.131813099699997 ], [ -115.1607051, 36.1318157997 ], [ -115.160697, 36.1318157997 ], [ -115.160697, 36.131818499699996 ], [ -115.1606916, 36.131818499699996 ], [ -115.1606916, 36.131821199699999 ], [ -115.1606889, 36.131821199699999 ], [ -115.1606889, 36.131823899699995 ], [ -115.1606862, 36.131823899699995 ], [ -115.1606862, 36.131826599699998 ], [ -115.1606835, 36.131826599699998 ], [ -115.1606835, 36.131829299699994 ], [ -115.1606808, 36.131829299699994 ], [ -115.1606808, 36.131831999699997 ], [ -115.1606781, 36.131831999699997 ], [ -115.1606781, 36.131837399699997 ], [ -115.1606835, 36.131837399699997 ], [ -115.1606835, 36.1318400997 ], [ -115.1606862, 36.1318400997 ], [ -115.1606862, 36.131845499699999 ], [ -115.1606835, 36.131845499699999 ], [ -115.1606835, 36.131850899699998 ], [ -115.1606808, 36.131850899699998 ], [ -115.1606808, 36.131853599700001 ], [ -115.1606781, 36.131853599700001 ], [ -115.1606781, 36.131856299699997 ], [ -115.1606727, 36.131856299699997 ], [ -115.1606727, 36.131861699699996 ], [ -115.16067, 36.131861699699996 ], [ -115.16067, 36.131899499699998 ], [ -115.1606727, 36.131899499699998 ], [ -115.1606727, 36.131915699699995 ], [ -115.16067, 36.131915699699995 ], [ -115.16067, 36.131966999699998 ], [ -115.1606727, 36.131966999699998 ], [ -115.1606727, 36.131972399699997 ], [ -115.16067, 36.131972399699997 ], [ -115.16067, 36.132015599699997 ], [ -115.1606727, 36.132015599699997 ], [ -115.1606727, 36.132047999699999 ], [ -115.16067, 36.132047999699999 ], [ -115.16067, 36.132069599699996 ], [ -115.1606673, 36.132069599699996 ], [ -115.1606673, 36.132107399699997 ], [ -115.16067, 36.132107399699997 ], [ -115.16067, 36.132118199699995 ], [ -115.1606673, 36.132118199699995 ], [ -115.1606673, 36.1321343997 ], [ -115.1606646, 36.1321343997 ], [ -115.1606646, 36.132147899700001 ], [ -115.1606619, 36.132147899700001 ], [ -115.1606619, 36.132155999699997 ], [ -115.1606592, 36.132155999699997 ], [ -115.1606592, 36.132166799699995 ], [ -115.1606565, 36.132166799699995 ], [ -115.1606565, 36.132174899699997 ], [ -115.1606538, 36.132174899699997 ], [ -115.1606538, 36.1321775997 ], [ -115.1606511, 36.1321775997 ], [ -115.1606511, 36.132180299699996 ] ] ] } }
]
}
